{"type": "FeatureCollection", "features": [{"type": "Feature", "geometry": {"type": "MultiPolygon", "coordinates": [[[[14.51206, 53.51767], [14.51273, 53.51813], [14.51241, 53.51885], [14.51922, 53.52048], [14.51873, 53.51807], [14.51686, 53.51752], [14.51627, 53.51687], [14.51662, 53.51632], [14.51818, 53.51647], [14.51757, 53.51593], [14.51526, 53.51608], [14.50964, 53.51541], [14.50939, 53.51563], [14.51101, 53.51639], [14.51206, 53.51767]]], [[[14.50662, 53.51057], [14.50533, 53.51129], [14.5053, 53.51204], [14.50638, 53.51247], [14.50662, 53.51057]]], [[[14.50393, 53.49556], [14.50492, 53.49697], [14.50646, 53.49703], [14.50688, 53.49659], [14.50747, 53.49661], [14.50666, 53.49579], [14.50393, 53.49556]]], [[[14.56563, 53.4869], [14.56477, 53.48713], [14.56524, 53.48757], [14.56585, 53.48712], [14.56563, 53.4869]]], [[[14.56455, 53.48811], [14.56422, 53.48863], [14.56315, 53.48795], [14.5639, 53.48952], [14.56352, 53.48988], [14.56414, 53.48962], [14.56455, 53.48811]]], [[[14.55565, 53.49685], [14.55424, 53.49702], [14.55482, 53.49726], [14.55297, 53.49918], [14.55129, 53.49965], [14.54919, 53.49952], [14.54914, 53.49985], [14.54942, 53.50035], [14.55102, 53.49976], [14.551, 53.50013], [14.54956, 53.50047], [14.54939, 53.5011], [14.55091, 53.50203], [14.55209, 53.50201], [14.55435, 53.50296], [14.55634, 53.50494], [14.55693, 53.50386], [14.55862, 53.50304], [14.56024, 53.50279], [14.56186, 53.50302], [14.56434, 53.50245], [14.56104, 53.5012], [14.55869, 53.49839], [14.55565, 53.49685]], [[14.5525, 53.49964], [14.55213, 53.4995], [14.55437, 53.4992], [14.5545, 53.49976], [14.55259, 53.5], [14.5525, 53.49964]]], [[[14.54475, 53.50704], [14.5448, 53.50706], [14.54476, 53.50701], [14.54475, 53.50704]]], [[[14.54595, 53.50813], [14.54419, 53.50765], [14.53998, 53.50997], [14.54293, 53.51161], [14.54239, 53.5123], [14.54087, 53.51282], [14.54087, 53.51363], [14.54153, 53.51375], [14.54052, 53.51431], [14.54019, 53.51512], [14.5406, 53.51539], [14.54121, 53.51544], [14.54227, 53.51456], [14.54532, 53.51335], [14.54869, 53.51372], [14.55076, 53.51353], [14.54858, 53.51022], [14.54864, 53.50896], [14.54595, 53.50813]], [[14.54183, 53.5137], [14.54169, 53.51367], [14.54176, 53.51359], [14.54184, 53.5136], [14.54183, 53.5137]]], [[[14.54965, 53.51126], [14.5496, 53.51123], [14.54973, 53.5114], [14.54973, 53.5113], [14.54965, 53.51126]]], [[[14.55271, 53.52027], [14.55214, 53.52071], [14.55193, 53.52102], [14.55298, 53.52004], [14.55271, 53.52027]]], [[[14.54659, 53.52468], [14.54869, 53.52332], [14.5489, 53.52249], [14.54702, 53.52295], [14.54456, 53.52565], [14.54659, 53.52468]], [[14.54796, 53.52345], [14.54747, 53.52359], [14.54707, 53.52341], [14.54797, 53.52334], [14.54796, 53.52345]]], [[[14.59565, 53.43042], [14.59479, 53.43121], [14.59341, 53.43165], [14.59184, 53.43166], [14.59034, 53.43115], [14.59347, 53.43819], [14.59498, 53.43625], [14.59408, 53.43645], [14.59388, 53.43508], [14.59455, 53.4348], [14.5938, 53.43319], [14.5949, 53.43302], [14.5943, 53.43209], [14.59508, 53.43191], [14.59589, 53.43241], [14.59578, 53.43408], [14.59908, 53.42894], [14.59565, 53.43042]], [[14.59255, 53.43212], [14.59282, 53.43184], [14.59312, 53.43199], [14.59291, 53.43205], [14.59255, 53.43212]]], [[[14.67881, 53.41253], [14.67395, 53.41116], [14.67025, 53.41064], [14.66884, 53.41185], [14.66612, 53.41246], [14.66638, 53.41538], [14.66549, 53.41665], [14.66301, 53.41767], [14.65979, 53.41743], [14.65799, 53.41893], [14.65861, 53.41976], [14.65833, 53.42109], [14.65893, 53.4224], [14.66186, 53.42267], [14.6754, 53.42917], [14.67762, 53.42923], [14.67972, 53.42978], [14.68131, 53.43078], [14.68247, 53.43254], [14.68728, 53.43314], [14.69141, 53.43308], [14.6937, 53.43355], [14.69658, 53.43195], [14.69967, 53.43181], [14.70398, 53.43302], [14.70704, 53.43734], [14.70876, 53.43801], [14.71081, 53.43753], [14.71331, 53.43747], [14.71702, 53.43826], [14.71894, 53.43755], [14.71544, 53.43508], [14.71222, 53.43407], [14.70987, 53.43206], [14.70706, 53.43063], [14.70669, 53.42816], [14.708, 53.42641], [14.70418, 53.42482], [14.70223, 53.42284], [14.69924, 53.42215], [14.69529, 53.41988], [14.69419, 53.41796], [14.69496, 53.4161], [14.6922, 53.41406], [14.68953, 53.41436], [14.68655, 53.41379], [14.68262, 53.41395], [14.68052, 53.41344], [14.67881, 53.41253]], [[14.69073, 53.41718], [14.69321, 53.41728], [14.69416, 53.41797], [14.69269, 53.41825], [14.69073, 53.41718]], [[14.67136, 53.41865], [14.67259, 53.41764], [14.67422, 53.41724], [14.67857, 53.41807], [14.68046, 53.41989], [14.67915, 53.42233], [14.67744, 53.42304], [14.67275, 53.42369], [14.66826, 53.42352], [14.66642, 53.42302], [14.66522, 53.4216], [14.66589, 53.41962], [14.66785, 53.41878], [14.67136, 53.41865]], [[14.70453, 53.43151], [14.70578, 53.43146], [14.70553, 53.43211], [14.70231, 53.43186], [14.70312, 53.43073], [14.70474, 53.43072], [14.70415, 53.43129], [14.70453, 53.43151]]], [[[14.72203, 53.44095], [14.71928, 53.44197], [14.71845, 53.44317], [14.71682, 53.44417], [14.71287, 53.44493], [14.71368, 53.44581], [14.71443, 53.44578], [14.71379, 53.44595], [14.7145, 53.44716], [14.71549, 53.44744], [14.71791, 53.44727], [14.71698, 53.4472], [14.71694, 53.44688], [14.71774, 53.44692], [14.71853, 53.44628], [14.71961, 53.44725], [14.71843, 53.44736], [14.71969, 53.44785], [14.72055, 53.44873], [14.72042, 53.45014], [14.72369, 53.45017], [14.72578, 53.45073], [14.72976, 53.45377], [14.73124, 53.45406], [14.7345, 53.45332], [14.7337, 53.45138], [14.73071, 53.45039], [14.72905, 53.449], [14.72747, 53.44583], [14.72783, 53.44408], [14.72468, 53.44265], [14.72326, 53.44102], [14.72203, 53.44095]], [[14.72159, 53.44361], [14.72297, 53.44548], [14.72113, 53.44566], [14.71964, 53.44376], [14.72119, 53.44302], [14.72159, 53.44361]], [[14.71817, 53.44437], [14.71874, 53.44413], [14.72067, 53.44569], [14.72006, 53.44582], [14.71817, 53.44437]]], [[[14.73781, 53.45677], [14.73506, 53.45728], [14.73544, 53.45873], [14.73486, 53.46006], [14.73212, 53.46182], [14.73036, 53.46372], [14.7283, 53.46447], [14.72554, 53.46466], [14.72277, 53.46718], [14.71845, 53.46842], [14.71869, 53.46974], [14.72046, 53.47046], [14.72184, 53.47162], [14.72214, 53.47398], [14.72031, 53.4757], [14.7168, 53.47656], [14.71577, 53.478], [14.71352, 53.47946], [14.71436, 53.48247], [14.7205, 53.48229], [14.72215, 53.48301], [14.72286, 53.48436], [14.72215, 53.48601], [14.71473, 53.48685], [14.71572, 53.48961], [14.71533, 53.4924], [14.71583, 53.49266], [14.72234, 53.49339], [14.72265, 53.49319], [14.73341, 53.4846], [14.74271, 53.47543], [14.75045, 53.46576], [14.75164, 53.46378], [14.74965, 53.46192], [14.7468, 53.46289], [14.74765, 53.46469], [14.74646, 53.46438], [14.74625, 53.46471], [14.74429, 53.46506], [14.74278, 53.46194], [14.74392, 53.46164], [14.74379, 53.461], [14.73918, 53.45897], [14.73781, 53.45677]], [[14.72657, 53.46797], [14.72425, 53.46674], [14.7257, 53.46554], [14.72599, 53.46678], [14.72765, 53.46763], [14.72657, 53.46797]], [[14.73011, 53.47191], [14.7284, 53.47237], [14.72735, 53.47213], [14.728, 53.47118], [14.72772, 53.47032], [14.72833, 53.46935], [14.72954, 53.46888], [14.72904, 53.46826], [14.72992, 53.46804], [14.7312, 53.46907], [14.73096, 53.46998], [14.73257, 53.47007], [14.73303, 53.47055], [14.73194, 53.47157], [14.73011, 53.47191]]], [[[14.76115, 53.44435], [14.75631, 53.44513], [14.75352, 53.44609], [14.75111, 53.4463], [14.74973, 53.44708], [14.74993, 53.44794], [14.7542, 53.44899], [14.75389, 53.45036], [14.75857, 53.45094], [14.76115, 53.44435]]], [[[14.74865, 53.4047], [14.75084, 53.40515], [14.75252, 53.40486], [14.7548, 53.40337], [14.74938, 53.40318], [14.74865, 53.4047]]], [[[14.74757, 53.3994], [14.74704, 53.39884], [14.74653, 53.399], [14.74739, 53.39942], [14.74757, 53.3994]]], [[[14.72528, 53.39987], [14.72475, 53.39882], [14.72391, 53.39896], [14.72556, 53.40066], [14.72528, 53.39987]]], [[[14.74815, 53.38943], [14.74981, 53.39198], [14.75155, 53.39207], [14.75153, 53.39141], [14.74992, 53.3896], [14.74884, 53.38893], [14.7479, 53.38904], [14.74815, 53.38943]]], [[[14.71628, 53.36293], [14.71651, 53.36347], [14.71779, 53.36303], [14.71682, 53.36256], [14.71628, 53.36293]]], [[[14.61061, 53.35432], [14.61042, 53.35372], [14.60959, 53.35437], [14.61056, 53.35494], [14.61061, 53.35432]]], [[[14.58189, 53.33976], [14.58282, 53.33868], [14.58478, 53.33781], [14.58332, 53.33778], [14.58334, 53.33746], [14.58133, 53.33791], [14.58127, 53.33822], [14.58007, 53.33841], [14.57955, 53.33809], [14.5781, 53.33812], [14.57748, 53.33856], [14.57895, 53.339], [14.58009, 53.33874], [14.58008, 53.33927], [14.58054, 53.33942], [14.58038, 53.33901], [14.58146, 53.33873], [14.58109, 53.33912], [14.58184, 53.3395], [14.58094, 53.33961], [14.58189, 53.33976]]], [[[14.56781, 53.33383], [14.56648, 53.33376], [14.56846, 53.33241], [14.56569, 53.33394], [14.56445, 53.33405], [14.5643, 53.33372], [14.56289, 53.33425], [14.56444, 53.33474], [14.56385, 53.33516], [14.56521, 53.33613], [14.56774, 53.33453], [14.56781, 53.33383]]], [[[14.55726, 53.32538], [14.55784, 53.32533], [14.55869, 53.32644], [14.56, 53.32653], [14.56049, 53.32612], [14.56096, 53.32502], [14.55885, 53.3252], [14.55763, 53.32255], [14.5623, 53.32117], [14.56182, 53.31945], [14.56216, 53.31887], [14.56152, 53.31738], [14.55622, 53.31834], [14.55492, 53.31558], [14.55455, 53.31561], [14.55741, 53.32273], [14.55676, 53.32378], [14.55475, 53.32453], [14.55366, 53.32555], [14.55726, 53.32538]]], [[[14.55335, 53.32574], [14.55103, 53.32674], [14.551, 53.32699], [14.55511, 53.32694], [14.55443, 53.32558], [14.55335, 53.32574]]], [[[14.52837, 53.32251], [14.52867, 53.32312], [14.53078, 53.32267], [14.52977, 53.3222], [14.52837, 53.32251]]], [[[14.62495, 53.39064], [14.62168, 53.3922], [14.62186, 53.39257], [14.63218, 53.39233], [14.6371, 53.39164], [14.63536, 53.38939], [14.63133, 53.38963], [14.62795, 53.39055], [14.62495, 53.39064]]], [[[14.48098, 53.33857], [14.48085, 53.33742], [14.48199, 53.33696], [14.4803, 53.33575], [14.47804, 53.33655], [14.47766, 53.33712], [14.47483, 53.33801], [14.47331, 53.33815], [14.47246, 53.33771], [14.47174, 53.33873], [14.47005, 53.33949], [14.47256, 53.33962], [14.47277, 53.33906], [14.4741, 53.33868], [14.47399, 53.33961], [14.47666, 53.33961], [14.47528, 53.33796], [14.47702, 53.33961], [14.48043, 53.33958], [14.48098, 53.33857]]], [[[14.47113, 53.34358], [14.46886, 53.34349], [14.46674, 53.3428], [14.46508, 53.34281], [14.46385, 53.34324], [14.46417, 53.34498], [14.46369, 53.34632], [14.46238, 53.34744], [14.46005, 53.34846], [14.4632, 53.35096], [14.46206, 53.34919], [14.46257, 53.34764], [14.46526, 53.34654], [14.46942, 53.34716], [14.47257, 53.34358], [14.47113, 53.34358]]], [[[14.39963, 53.41704], [14.40241, 53.41699], [14.4025, 53.41625], [14.39952, 53.41641], [14.39963, 53.41704]]], [[[14.403, 53.40106], [14.40482, 53.40291], [14.40477, 53.40484], [14.40638, 53.40545], [14.40823, 53.40503], [14.40802, 53.40356], [14.40936, 53.40165], [14.41048, 53.40159], [14.41001, 53.40259], [14.41069, 53.40291], [14.41433, 53.40283], [14.41588, 53.40319], [14.41716, 53.40408], [14.41785, 53.40537], [14.41753, 53.40645], [14.41639, 53.40729], [14.41721, 53.4081], [14.41968, 53.40723], [14.42006, 53.40756], [14.41916, 53.40867], [14.42057, 53.40901], [14.42294, 53.40728], [14.42439, 53.40535], [14.4274, 53.40394], [14.43228, 53.39982], [14.43149, 53.39813], [14.43204, 53.39644], [14.43071, 53.39527], [14.43027, 53.39385], [14.4285, 53.39353], [14.42613, 53.39232], [14.42569, 53.39132], [14.42604, 53.39039], [14.42233, 53.38873], [14.41973, 53.38932], [14.4172, 53.38861], [14.41707, 53.38904], [14.41791, 53.3893], [14.41659, 53.39002], [14.41647, 53.39063], [14.41263, 53.39225], [14.41183, 53.39325], [14.41465, 53.39408], [14.41542, 53.39563], [14.41707, 53.39511], [14.42129, 53.3953], [14.4238, 53.39498], [14.42551, 53.39416], [14.42751, 53.39452], [14.43002, 53.39439], [14.42152, 53.3954], [14.41957, 53.39539], [14.41677, 53.39782], [14.4152, 53.39795], [14.41568, 53.39729], [14.4151, 53.39664], [14.41273, 53.39823], [14.4099, 53.39842], [14.40418, 53.39807], [14.403, 53.40106]], [[14.41604, 53.40052], [14.41583, 53.4006], [14.41544, 53.40032], [14.41579, 53.40033], [14.41604, 53.40052]], [[14.43038, 53.39625], [14.43043, 53.39634], [14.43028, 53.39637], [14.43026, 53.3963], [14.43038, 53.39625]], [[14.42377, 53.39824], [14.42397, 53.39815], [14.42412, 53.39823], [14.42361, 53.39842], [14.42377, 53.39824]], [[14.41734, 53.39888], [14.41774, 53.39921], [14.41747, 53.39943], [14.41699, 53.39916], [14.41734, 53.39888]], [[14.42203, 53.39999], [14.42174, 53.40021], [14.42143, 53.40024], [14.42201, 53.39973], [14.42203, 53.39999]], [[14.42961, 53.40042], [14.42977, 53.40041], [14.42988, 53.40051], [14.42966, 53.40057], [14.42961, 53.40042]], [[14.42536, 53.40109], [14.42547, 53.40101], [14.42561, 53.4011], [14.4255, 53.40119], [14.42536, 53.40109]], [[14.42094, 53.40176], [14.42105, 53.40163], [14.42124, 53.4017], [14.42113, 53.40183], [14.42094, 53.40176]], [[14.41675, 53.40247], [14.41646, 53.40244], [14.41637, 53.40229], [14.41659, 53.40226], [14.41675, 53.40247]]], [[[14.42905, 53.38692], [14.43186, 53.38818], [14.43318, 53.3873], [14.43309, 53.38589], [14.43403, 53.38485], [14.4286, 53.38425], [14.42631, 53.3857], [14.42905, 53.38692]]], [[[14.4054, 53.39585], [14.4061, 53.3954], [14.40632, 53.39429], [14.40683, 53.39528], [14.40873, 53.39388], [14.40836, 53.39358], [14.41069, 53.39205], [14.4088, 53.39239], [14.40673, 53.39217], [14.40637, 53.393], [14.40693, 53.39374], [14.40592, 53.39406], [14.40494, 53.3963], [14.4054, 53.39585]]], [[[14.40466, 53.39718], [14.40674, 53.39702], [14.40669, 53.39558], [14.40539, 53.39629], [14.40571, 53.39671], [14.40466, 53.39718]]], [[[14.41201, 53.38836], [14.41303, 53.38803], [14.41106, 53.38732], [14.40954, 53.38728], [14.41201, 53.38836]]], [[[14.4189, 53.38292], [14.42055, 53.38349], [14.42191, 53.38196], [14.4234, 53.38125], [14.42167, 53.38075], [14.42071, 53.37999], [14.42028, 53.38011], [14.4207, 53.37757], [14.42263, 53.37631], [14.42176, 53.37547], [14.42157, 53.37438], [14.42029, 53.37476], [14.42059, 53.37413], [14.42008, 53.374], [14.4183, 53.37557], [14.41947, 53.37628], [14.42002, 53.37723], [14.41964, 53.37841], [14.41811, 53.37942], [14.41806, 53.38051], [14.41907, 53.38169], [14.4189, 53.38292]]], [[[14.4151, 53.38606], [14.41316, 53.38698], [14.41126, 53.38731], [14.41296, 53.38793], [14.4139, 53.38691], [14.41535, 53.38724], [14.4151, 53.38606]]], [[[14.42012, 53.37379], [14.42163, 53.37414], [14.42319, 53.37261], [14.42469, 53.37219], [14.42661, 53.37217], [14.42721, 53.37173], [14.42651, 53.37067], [14.42649, 53.36928], [14.42971, 53.36478], [14.42858, 53.3641], [14.42805, 53.36462], [14.4283, 53.36591], [14.42778, 53.36696], [14.42662, 53.36772], [14.42443, 53.36817], [14.42261, 53.37151], [14.41999, 53.37294], [14.42012, 53.37379]], [[14.42419, 53.37086], [14.42524, 53.37103], [14.42429, 53.37153], [14.4239, 53.37106], [14.42419, 53.37086]]], [[[14.42986, 53.36465], [14.4323, 53.36345], [14.43551, 53.36301], [14.43576, 53.36247], [14.43373, 53.36149], [14.43153, 53.36139], [14.43054, 53.36218], [14.42874, 53.36394], [14.42986, 53.36465]], [[14.4329, 53.36229], [14.43434, 53.36232], [14.43559, 53.36279], [14.43119, 53.36241], [14.431, 53.36185], [14.4329, 53.36229]], [[14.4311, 53.36378], [14.43011, 53.36356], [14.43002, 53.36294], [14.43137, 53.36292], [14.4311, 53.36378]]], [[[14.40835, 53.45782], [14.40969, 53.45781], [14.40715, 53.45583], [14.40831, 53.45782], [14.40835, 53.45782]]], [[[14.4127, 53.45844], [14.41415, 53.45886], [14.41441, 53.45871], [14.41411, 53.45838], [14.4127, 53.45844]]], [[[14.41896, 53.42634], [14.41798, 53.42607], [14.416, 53.4276], [14.41318, 53.4283], [14.41446, 53.4296], [14.41477, 53.43085], [14.41972, 53.43099], [14.42264, 53.42963], [14.42642, 53.42938], [14.42428, 53.42875], [14.42289, 53.42728], [14.42145, 53.42725], [14.41896, 53.42634]]], [[[14.43289, 53.44257], [14.43492, 53.44553], [14.43655, 53.44415], [14.43949, 53.44395], [14.43621, 53.44115], [14.43248, 53.44199], [14.43289, 53.44257]]], [[[14.42744, 53.4448], [14.42637, 53.44326], [14.42293, 53.44285], [14.42026, 53.44175], [14.417, 53.44259], [14.41644, 53.44389], [14.41866, 53.44507], [14.4196, 53.44648], [14.41959, 53.44784], [14.41893, 53.44888], [14.41921, 53.45067], [14.42267, 53.45147], [14.4246, 53.45328], [14.427, 53.45322], [14.42728, 53.45224], [14.42574, 53.4517], [14.42473, 53.45082], [14.42478, 53.44904], [14.4213, 53.44962], [14.42503, 53.44878], [14.42697, 53.44784], [14.4295, 53.4478], [14.42744, 53.4448]]], [[[14.41168, 53.41854], [14.41266, 53.41857], [14.41275, 53.41821], [14.4054, 53.41893], [14.40522, 53.42005], [14.40718, 53.41903], [14.41168, 53.41854]]], [[[14.41014, 53.40479], [14.40991, 53.40498], [14.41012, 53.405], [14.41014, 53.40479]]], [[[14.44527, 53.399], [14.44741, 53.39936], [14.44909, 53.39924], [14.45662, 53.39685], [14.45488, 53.39581], [14.45326, 53.39655], [14.45107, 53.39693], [14.4488, 53.39679], [14.44708, 53.39627], [14.44576, 53.39665], [14.44456, 53.39884], [14.44527, 53.399]]], [[[14.45733, 53.39662], [14.46132, 53.39574], [14.46561, 53.39567], [14.46629, 53.39466], [14.46576, 53.39424], [14.46635, 53.39461], [14.46789, 53.39363], [14.47067, 53.39264], [14.46991, 53.39226], [14.46751, 53.39307], [14.46445, 53.39312], [14.46565, 53.39421], [14.46424, 53.39309], [14.4631, 53.39282], [14.46123, 53.39299], [14.45899, 53.39407], [14.45617, 53.39455], [14.45493, 53.39578], [14.4567, 53.39682], [14.45733, 53.39662]], [[14.46232, 53.39488], [14.46215, 53.39469], [14.46241, 53.39454], [14.46272, 53.3947], [14.46232, 53.39488]]], [[[14.4644, 53.39946], [14.46402, 53.39945], [14.46383, 53.39945], [14.4643, 53.39962], [14.4644, 53.39946]]], [[[14.46354, 53.39945], [14.46109, 53.39981], [14.44997, 53.40309], [14.44556, 53.40309], [14.43862, 53.40164], [14.43801, 53.40169], [14.43648, 53.40287], [14.4437, 53.40488], [14.44502, 53.40455], [14.44422, 53.40397], [14.4459, 53.40433], [14.4483, 53.40377], [14.4642, 53.39978], [14.46354, 53.39945]]], [[[14.45928, 53.40519], [14.44873, 53.40784], [14.44878, 53.40915], [14.44921, 53.4094], [14.45124, 53.40756], [14.4538, 53.40686], [14.46064, 53.40748], [14.46256, 53.4063], [14.46236, 53.40442], [14.45928, 53.40519]]], [[[14.45502, 53.37657], [14.45496, 53.37747], [14.45634, 53.37777], [14.45882, 53.377], [14.46144, 53.37699], [14.46106, 53.37359], [14.46277, 53.37167], [14.46215, 53.37129], [14.45843, 53.37103], [14.45847, 53.37081], [14.46255, 53.3711], [14.4605, 53.3685], [14.46032, 53.36677], [14.4597, 53.3668], [14.4593, 53.36602], [14.46163, 53.36415], [14.45973, 53.36055], [14.46018, 53.3595], [14.46061, 53.36032], [14.4617, 53.36016], [14.46086, 53.36038], [14.46082, 53.36089], [14.46256, 53.36402], [14.46546, 53.36385], [14.46843, 53.36458], [14.46836, 53.36383], [14.46272, 53.35981], [14.46114, 53.35807], [14.45943, 53.35828], [14.4597, 53.35908], [14.45896, 53.35829], [14.45932, 53.35958], [14.45852, 53.35827], [14.45719, 53.35812], [14.45668, 53.3582], [14.45758, 53.35955], [14.45713, 53.36175], [14.45528, 53.36268], [14.45559, 53.36386], [14.45664, 53.36408], [14.45564, 53.36521], [14.45481, 53.36375], [14.45323, 53.36358], [14.45378, 53.36299], [14.45347, 53.36268], [14.44724, 53.36469], [14.44706, 53.36447], [14.44818, 53.36416], [14.44802, 53.36387], [14.45103, 53.36321], [14.45178, 53.36261], [14.45313, 53.36223], [14.45454, 53.36245], [14.45689, 53.36174], [14.45707, 53.35898], [14.45642, 53.35823], [14.45377, 53.35819], [14.45149, 53.35757], [14.45017, 53.35934], [14.44743, 53.36043], [14.4471, 53.36155], [14.44589, 53.36275], [14.44399, 53.36358], [14.44201, 53.36389], [14.44393, 53.36515], [14.44506, 53.36672], [14.44752, 53.36559], [14.44987, 53.36536], [14.4548, 53.36722], [14.45551, 53.36836], [14.45535, 53.36936], [14.45445, 53.3702], [14.45302, 53.37072], [14.45534, 53.37193], [14.4562, 53.37181], [14.45605, 53.3724], [14.45735, 53.37421], [14.45669, 53.37557], [14.45502, 53.37657]], [[14.44946, 53.36453], [14.44987, 53.3644], [14.45071, 53.365], [14.44999, 53.36507], [14.44946, 53.36453]], [[14.45103, 53.36504], [14.45144, 53.36471], [14.45166, 53.36476], [14.45132, 53.36524], [14.45103, 53.36504]], [[14.4606, 53.36342], [14.45939, 53.36341], [14.4596, 53.3626], [14.46031, 53.36257], [14.4606, 53.36342]]], [[[14.4666, 53.35594], [14.46781, 53.35744], [14.4702, 53.35916], [14.47344, 53.36026], [14.48002, 53.36429], [14.47522, 53.35799], [14.47328, 53.3572], [14.47208, 53.35723], [14.47222, 53.35668], [14.46985, 53.35754], [14.4695, 53.35736], [14.47078, 53.35674], [14.46876, 53.35645], [14.46619, 53.35541], [14.4666, 53.35594]]], [[[14.47625, 53.36767], [14.47618, 53.36763], [14.47615, 53.36811], [14.47664, 53.36792], [14.47625, 53.36767]]], [[[14.39923, 53.42208], [14.39979, 53.422], [14.39983, 53.422], [14.39898, 53.42197], [14.39923, 53.42208]]], [[[14.4004, 53.42195], [14.40263, 53.42211], [14.40542, 53.42327], [14.40559, 53.42308], [14.40484, 53.42115], [14.40507, 53.42026], [14.40355, 53.42126], [14.4004, 53.42195]]], [[[14.44063, 53.38356], [14.44061, 53.38363], [14.44096, 53.38355], [14.44066, 53.38347], [14.44063, 53.38356]]], [[[14.45004, 53.37076], [14.4499, 53.37075], [14.44981, 53.37074], [14.44992, 53.37085], [14.45024, 53.37079], [14.45004, 53.37076]]], [[[14.44132, 53.49321], [14.44317, 53.493], [14.44525, 53.4941], [14.44583, 53.49352], [14.44884, 53.4934], [14.44397, 53.48611], [14.44405, 53.48556], [14.44268, 53.48469], [14.43691, 53.48442], [14.43463, 53.48571], [14.43206, 53.48611], [14.4395, 53.4922], [14.44132, 53.49321]], [[14.43816, 53.48581], [14.43825, 53.4855], [14.44142, 53.48512], [14.44093, 53.48543], [14.43816, 53.48581]], [[14.44035, 53.48842], [14.44118, 53.48823], [14.44082, 53.48858], [14.43879, 53.48866], [14.44035, 53.48842]], [[14.4446, 53.49021], [14.44259, 53.49062], [14.44188, 53.49068], [14.44185, 53.49034], [14.44539, 53.48982], [14.44569, 53.49006], [14.44554, 53.49034], [14.4446, 53.49021]], [[14.44219, 53.49127], [14.44311, 53.49202], [14.44278, 53.49283], [14.44191, 53.49084], [14.44219, 53.49127]]], [[[14.45186, 53.48197], [14.45329, 53.48159], [14.45304, 53.48064], [14.45114, 53.48112], [14.45024, 53.48258], [14.45186, 53.48197]]], [[[14.4394, 53.4515], [14.44023, 53.4514], [14.44025, 53.45137], [14.43934, 53.45143], [14.4394, 53.4515]]], [[[14.43955, 53.45541], [14.43768, 53.45557], [14.43563, 53.45651], [14.43221, 53.45723], [14.43051, 53.45938], [14.42832, 53.46039], [14.42589, 53.46098], [14.42361, 53.46218], [14.42128, 53.46258], [14.41785, 53.46208], [14.41746, 53.4623], [14.41776, 53.46362], [14.42, 53.46419], [14.42187, 53.46547], [14.42276, 53.4691], [14.42426, 53.46891], [14.42612, 53.46646], [14.42818, 53.46565], [14.4275, 53.46365], [14.42919, 53.46151], [14.4312, 53.4607], [14.43345, 53.46043], [14.43569, 53.4607], [14.43751, 53.4614], [14.44002, 53.45954], [14.44131, 53.45839], [14.43943, 53.45668], [14.4391, 53.45693], [14.43867, 53.45607], [14.43939, 53.45592], [14.43955, 53.45541]]], [[[14.44491, 53.44712], [14.44492, 53.44715], [14.44528, 53.44704], [14.44486, 53.44699], [14.44491, 53.44712]]], [[[14.45049, 53.44672], [14.45051, 53.44673], [14.45058, 53.44673], [14.45049, 53.44672]]], [[[14.44992, 53.44691], [14.45015, 53.44668], [14.44954, 53.44658], [14.44878, 53.44677], [14.44992, 53.44691]]], [[[14.45219, 53.44679], [14.45098, 53.44708], [14.45272, 53.44767], [14.45277, 53.44678], [14.45219, 53.44679]]], [[[14.47753, 53.3553], [14.47765, 53.35513], [14.47686, 53.35547], [14.47719, 53.35568], [14.47753, 53.3553]]], [[[14.48354, 53.36618], [14.4845, 53.36732], [14.48686, 53.3667], [14.48083, 53.36061], [14.47779, 53.35932], [14.48354, 53.36618]]], [[[14.48804, 53.36639], [14.49295, 53.3651], [14.49315, 53.36465], [14.48925, 53.36561], [14.48676, 53.36533], [14.48804, 53.36639]]], [[[14.48505, 53.36333], [14.48633, 53.36186], [14.49126, 53.36004], [14.48981, 53.35825], [14.48943, 53.35837], [14.48957, 53.35792], [14.48848, 53.35753], [14.48786, 53.35881], [14.48645, 53.35988], [14.48258, 53.36076], [14.48505, 53.36333]]], [[[14.49561, 53.36861], [14.4909, 53.36985], [14.49405, 53.37211], [14.49542, 53.37362], [14.49857, 53.37272], [14.50159, 53.37253], [14.50192, 53.37067], [14.49919, 53.36958], [14.49793, 53.368], [14.49561, 53.36861]]], [[[14.49498, 53.37382], [14.49496, 53.37383], [14.495, 53.37382], [14.49498, 53.37382]]], [[[14.49355, 53.37412], [14.49296, 53.37466], [14.49174, 53.37344], [14.4928, 53.3731], [14.49241, 53.37278], [14.49329, 53.37221], [14.49025, 53.37002], [14.48839, 53.37051], [14.49083, 53.37167], [14.49003, 53.37148], [14.48858, 53.37185], [14.49183, 53.3756], [14.49306, 53.37572], [14.49437, 53.37418], [14.49355, 53.37412]]], [[[14.48947, 53.38139], [14.48853, 53.38034], [14.48833, 53.38036], [14.48797, 53.38109], [14.48947, 53.38139]]], [[[14.47424, 53.35623], [14.47586, 53.35641], [14.47606, 53.35626], [14.47558, 53.35592], [14.47424, 53.35623]]], [[[14.48017, 53.40603], [14.47981, 53.40613], [14.48008, 53.40676], [14.48083, 53.40597], [14.48017, 53.40603]]], [[[14.47509, 53.41174], [14.47457, 53.41107], [14.47351, 53.41127], [14.46838, 53.41341], [14.47058, 53.41436], [14.47177, 53.4144], [14.47288, 53.41281], [14.47509, 53.41174]]], [[[14.47469, 53.41105], [14.47521, 53.41171], [14.47867, 53.41145], [14.47864, 53.41111], [14.47661, 53.4105], [14.47469, 53.41105]]], [[[14.50908, 53.51547], [14.50915, 53.51558], [14.50926, 53.5156], [14.50921, 53.51557], [14.50908, 53.51547]]], [[[14.67487, 53.36525], [14.67363, 53.3654], [14.67544, 53.36662], [14.677, 53.36647], [14.67734, 53.36606], [14.67685, 53.36561], [14.67487, 53.36525]]], [[[14.57945, 53.50902], [14.57783, 53.5112], [14.57917, 53.51144], [14.57886, 53.51195], [14.58245, 53.51296], [14.58326, 53.51338], [14.5824, 53.51337], [14.58371, 53.51419], [14.58339, 53.51273], [14.58433, 53.51311], [14.58567, 53.51211], [14.58799, 53.51138], [14.58752, 53.51038], [14.58879, 53.51034], [14.58915, 53.51127], [14.59108, 53.51138], [14.59187, 53.51061], [14.59333, 53.51012], [14.59293, 53.50943], [14.59205, 53.50943], [14.59146, 53.50597], [14.58954, 53.50605], [14.58959, 53.50681], [14.58855, 53.50683], [14.58846, 53.50589], [14.5854, 53.50615], [14.58522, 53.50572], [14.58115, 53.50582], [14.58008, 53.50565], [14.58042, 53.50535], [14.57798, 53.50498], [14.57925, 53.50666], [14.57945, 53.50902]], [[14.58219, 53.51186], [14.58163, 53.51157], [14.58281, 53.51231], [14.58219, 53.51186]]], [[[14.57961, 53.50476], [14.58277, 53.50462], [14.584, 53.50508], [14.58292, 53.50372], [14.58178, 53.50386], [14.57961, 53.50476]], [[14.58248, 53.50429], [14.5823, 53.50459], [14.5815, 53.50459], [14.58217, 53.50391], [14.58248, 53.50429]]], [[[14.58526, 53.50422], [14.58552, 53.50461], [14.58498, 53.50504], [14.58582, 53.50488], [14.58526, 53.50422]]], [[[14.59279, 53.50259], [14.59265, 53.50326], [14.5937, 53.50355], [14.59283, 53.50244], [14.59279, 53.50259]]], [[[14.60306, 53.51423], [14.60259, 53.51421], [14.60332, 53.51371], [14.60137, 53.51276], [14.60189, 53.51281], [14.6021, 53.5123], [14.60143, 53.51222], [14.60336, 53.51088], [14.59918, 53.51002], [14.59916, 53.50938], [14.59843, 53.50999], [14.59788, 53.50976], [14.59785, 53.50876], [14.59669, 53.50875], [14.59668, 53.50818], [14.59647, 53.50874], [14.5938, 53.50849], [14.59367, 53.50812], [14.59489, 53.50813], [14.59484, 53.50761], [14.59399, 53.5076], [14.59356, 53.50796], [14.59353, 53.51009], [14.59569, 53.51029], [14.59862, 53.51156], [14.59947, 53.51235], [14.59962, 53.51351], [14.60023, 53.51347], [14.60342, 53.51571], [14.60404, 53.51547], [14.60306, 53.51423]], [[14.59598, 53.51006], [14.59522, 53.50995], [14.59516, 53.50984], [14.59652, 53.50976], [14.59598, 53.51006]]], [[[14.57179, 53.49471], [14.57178, 53.49496], [14.57385, 53.49545], [14.57387, 53.49538], [14.57179, 53.49471]]], [[[14.60208, 53.53179], [14.60177, 53.53195], [14.6018, 53.53198], [14.60212, 53.53195], [14.60208, 53.53179]]], [[[14.7295, 53.38473], [14.73006, 53.38462], [14.73157, 53.38444], [14.7308, 53.38415], [14.72855, 53.38489], [14.7295, 53.38473]]], [[[14.56947, 53.31903], [14.56926, 53.3193], [14.56976, 53.32029], [14.57101, 53.31952], [14.56947, 53.31903]]], [[[14.57108, 53.31867], [14.57141, 53.31927], [14.57326, 53.31758], [14.57247, 53.31615], [14.57099, 53.31617], [14.57017, 53.3172], [14.56998, 53.31776], [14.57053, 53.3178], [14.57108, 53.31867]]], [[[14.51952, 53.36531], [14.51858, 53.36437], [14.51818, 53.36428], [14.51937, 53.36528], [14.51952, 53.36531]]], [[[14.54612, 53.49309], [14.54361, 53.49267], [14.5429, 53.49328], [14.5452, 53.49389], [14.54612, 53.49309]]], [[[14.70822, 53.48712], [14.70624, 53.4876], [14.70407, 53.48731], [14.70174, 53.48871], [14.698, 53.48912], [14.69804, 53.49058], [14.70286, 53.49251], [14.70431, 53.4942], [14.70672, 53.49414], [14.70768, 53.49373], [14.70915, 53.49124], [14.70928, 53.49008], [14.70822, 53.48712]]], [[[14.68442, 53.51382], [14.68305, 53.51416], [14.68315, 53.51437], [14.68329, 53.51423], [14.68442, 53.51382]]], [[[14.5618, 53.48418], [14.56133, 53.48427], [14.56224, 53.48551], [14.56419, 53.4869], [14.56506, 53.48655], [14.56217, 53.48409], [14.5618, 53.48418]]], [[[14.5849, 53.31495], [14.58551, 53.31513], [14.58565, 53.31436], [14.58283, 53.31427], [14.58126, 53.31443], [14.5849, 53.31495]]], [[[14.60718, 53.31551], [14.6073, 53.31546], [14.60706, 53.31544], [14.60718, 53.31551]]], [[[14.59757, 53.31679], [14.59852, 53.31677], [14.60014, 53.31571], [14.60203, 53.31524], [14.60704, 53.31558], [14.59936, 53.31481], [14.59757, 53.31679]]], [[[14.5796, 53.32015], [14.57858, 53.32374], [14.5803, 53.32381], [14.57985, 53.32271], [14.58013, 53.32126], [14.58232, 53.31949], [14.58141, 53.31942], [14.5796, 53.32015]]], [[[14.50395, 53.50882], [14.50404, 53.50905], [14.50449, 53.50897], [14.50403, 53.50884], [14.50395, 53.50882]]], [[[14.50573, 53.50933], [14.50529, 53.5092], [14.50382, 53.50975], [14.50529, 53.51043], [14.50548, 53.50995], [14.50703, 53.50964], [14.50573, 53.50933]]], [[[14.44905, 53.48576], [14.45082, 53.48475], [14.4499, 53.48408], [14.44968, 53.48497], [14.44905, 53.48576]]], [[[14.59515, 53.43512], [14.59518, 53.43506], [14.59528, 53.43485], [14.59513, 53.43485], [14.59515, 53.43512]]], [[[14.52683, 53.37386], [14.5283, 53.37399], [14.52734, 53.37231], [14.52531, 53.37112], [14.52683, 53.37386]]], [[[14.65923, 53.42681], [14.65961, 53.42831], [14.6584, 53.42954], [14.65974, 53.43078], [14.66573, 53.42998], [14.65923, 53.42681]]]]}, "properties": {"kind": "windland", "area_km2": 21.58}}, {"type": "Feature", "geometry": {"type": "Point", "coordinates": [14.59284, 53.43349]}, "properties": {"kind": "turbine", "i": 0, "mw": 6.0, "hub_m": 120.0, "rotor_m": 150.0}}, {"type": "Feature", "geometry": {"type": "Point", "coordinates": [14.62619, 53.39093]}, "properties": {"kind": "turbine", "i": 1, "mw": 6.0, "hub_m": 120.0, "rotor_m": 150.0}}, {"type": "Feature", "geometry": {"type": "Point", "coordinates": [14.66437, 53.42387]}, "properties": {"kind": "turbine", "i": 2, "mw": 6.0, "hub_m": 120.0, "rotor_m": 150.0}}, {"type": "Feature", "geometry": {"type": "Point", "coordinates": [14.66994, 53.41404]}, "properties": {"kind": "turbine", "i": 3, "mw": 6.0, "hub_m": 120.0, "rotor_m": 150.0}}, {"type": "Feature", "geometry": {"type": "Point", "coordinates": [14.68083, 53.4272]}, "properties": {"kind": "turbine", "i": 4, "mw": 6.0, "hub_m": 120.0, "rotor_m": 150.0}}, {"type": "Feature", "geometry": {"type": "Point", "coordinates": [14.6864, 53.41736]}, "properties": {"kind": "turbine", "i": 5, "mw": 6.0, "hub_m": 120.0, "rotor_m": 150.0}}, {"type": "Feature", "geometry": {"type": "Point", "coordinates": [14.47217, 53.41333]}, "properties": {"kind": "turbine", "i": 6, "mw": 6.0, "hub_m": 120.0, "rotor_m": 150.0}}, {"type": "Feature", "geometry": {"type": "Point", "coordinates": [14.70283, 53.42397]}, "properties": {"kind": "turbine", "i": 7, "mw": 6.0, "hub_m": 120.0, "rotor_m": 150.0}}, {"type": "Feature", "geometry": {"type": "Point", "coordinates": [14.70826, 53.43383]}, "properties": {"kind": "turbine", "i": 8, "mw": 6.0, "hub_m": 120.0, "rotor_m": 150.0}}, {"type": "Feature", "geometry": {"type": "Point", "coordinates": [14.48917, 53.37073]}, "properties": {"kind": "turbine", "i": 9, "mw": 6.0, "hub_m": 120.0, "rotor_m": 150.0}}, {"type": "Feature", "geometry": {"type": "Point", "coordinates": [14.45578, 53.40669]}, "properties": {"kind": "turbine", "i": 10, "mw": 6.0, "hub_m": 120.0, "rotor_m": 150.0}}, {"type": "Feature", "geometry": {"type": "Point", "coordinates": [14.55368, 53.499]}, "properties": {"kind": "turbine", "i": 11, "mw": 6.0, "hub_m": 120.0, "rotor_m": 150.0}}, {"type": "Feature", "geometry": {"type": "Point", "coordinates": [14.46144, 53.39359]}, "properties": {"kind": "turbine", "i": 12, "mw": 6.0, "hub_m": 120.0, "rotor_m": 150.0}}, {"type": "Feature", "geometry": {"type": "Point", "coordinates": [14.71919, 53.4437]}, "properties": {"kind": "turbine", "i": 13, "mw": 6.0, "hub_m": 120.0, "rotor_m": 150.0}}, {"type": "Feature", "geometry": {"type": "Point", "coordinates": [14.58278, 53.33827]}, "properties": {"kind": "turbine", "i": 14, "mw": 6.0, "hub_m": 120.0, "rotor_m": 150.0}}, {"type": "Feature", "geometry": {"type": "Point", "coordinates": [14.58111, 53.50894]}, "properties": {"kind": "turbine", "i": 15, "mw": 6.0, "hub_m": 120.0, "rotor_m": 150.0}}, {"type": "Feature", "geometry": {"type": "Point", "coordinates": [14.43934, 53.40333]}, "properties": {"kind": "turbine", "i": 16, "mw": 6.0, "hub_m": 120.0, "rotor_m": 150.0}}, {"type": "Feature", "geometry": {"type": "Point", "coordinates": [14.54257, 53.5088]}, "properties": {"kind": "turbine", "i": 17, "mw": 6.0, "hub_m": 120.0, "rotor_m": 150.0}}, {"type": "Feature", "geometry": {"type": "Point", "coordinates": [14.56636, 53.33493]}, "properties": {"kind": "turbine", "i": 18, "mw": 6.0, "hub_m": 120.0, "rotor_m": 150.0}}, {"type": "Feature", "geometry": {"type": "Point", "coordinates": [14.43333, 53.44269]}, "properties": {"kind": "turbine", "i": 19, "mw": 6.0, "hub_m": 120.0, "rotor_m": 150.0}}, {"type": "Feature", "geometry": {"type": "Point", "coordinates": [14.43865, 53.45584]}, "properties": {"kind": "turbine", "i": 20, "mw": 6.0, "hub_m": 120.0, "rotor_m": 150.0}}, {"type": "Feature", "geometry": {"type": "Point", "coordinates": [14.45624, 53.37059]}, "properties": {"kind": "turbine", "i": 21, "mw": 6.0, "hub_m": 120.0, "rotor_m": 150.0}}, {"type": "Feature", "geometry": {"type": "Point", "coordinates": [14.47286, 53.35753]}, "properties": {"kind": "turbine", "i": 22, "mw": 6.0, "hub_m": 120.0, "rotor_m": 150.0}}, {"type": "Feature", "geometry": {"type": "Point", "coordinates": [14.60307, 53.51558]}, "properties": {"kind": "turbine", "i": 23, "mw": 6.0, "hub_m": 120.0, "rotor_m": 150.0}}, {"type": "Feature", "geometry": {"type": "Point", "coordinates": [14.73012, 53.45358]}, "properties": {"kind": "turbine", "i": 24, "mw": 6.0, "hub_m": 120.0, "rotor_m": 150.0}}, {"type": "Feature", "geometry": {"type": "Point", "coordinates": [14.70238, 53.48961]}, "properties": {"kind": "turbine", "i": 25, "mw": 6.0, "hub_m": 120.0, "rotor_m": 150.0}}, {"type": "Feature", "geometry": {"type": "Point", "coordinates": [14.41702, 53.42948]}, "properties": {"kind": "turbine", "i": 26, "mw": 6.0, "hub_m": 120.0, "rotor_m": 150.0}}, {"type": "Feature", "geometry": {"type": "Point", "coordinates": [14.7245, 53.47326]}, "properties": {"kind": "turbine", "i": 27, "mw": 6.0, "hub_m": 120.0, "rotor_m": 150.0}}, {"type": "Feature", "geometry": {"type": "Point", "coordinates": [14.73556, 53.46343]}, "properties": {"kind": "turbine", "i": 28, "mw": 6.0, "hub_m": 120.0, "rotor_m": 150.0}}, {"type": "Feature", "geometry": {"type": "Point", "coordinates": [14.45088, 53.36071]}, "properties": {"kind": "turbine", "i": 29, "mw": 6.0, "hub_m": 120.0, "rotor_m": 150.0}}, {"type": "Feature", "geometry": {"type": "Point", "coordinates": [14.41742, 53.39994]}, "properties": {"kind": "turbine", "i": 30, "mw": 6.0, "hub_m": 120.0, "rotor_m": 150.0}}, {"type": "Feature", "geometry": {"type": "Point", "coordinates": [14.51493, 53.51854]}, "properties": {"kind": "turbine", "i": 31, "mw": 6.0, "hub_m": 120.0, "rotor_m": 150.0}}, {"type": "Feature", "geometry": {"type": "Point", "coordinates": [14.41755, 53.3901]}, "properties": {"kind": "turbine", "i": 32, "mw": 6.0, "hub_m": 120.0, "rotor_m": 150.0}}, {"type": "Feature", "geometry": {"type": "Point", "coordinates": [14.7524, 53.40439]}, "properties": {"kind": "turbine", "i": 33, "mw": 6.0, "hub_m": 120.0, "rotor_m": 150.0}}, {"type": "Feature", "geometry": {"type": "Point", "coordinates": [14.72443, 53.4831]}, "properties": {"kind": "turbine", "i": 34, "mw": 6.0, "hub_m": 120.0, "rotor_m": 150.0}}, {"type": "Feature", "geometry": {"type": "Point", "coordinates": [14.42202, 53.46561]}, "properties": {"kind": "turbine", "i": 35, "mw": 6.0, "hub_m": 120.0, "rotor_m": 150.0}}, {"type": "Feature", "geometry": {"type": "Point", "coordinates": [14.46202, 53.34764]}, "properties": {"kind": "turbine", "i": 36, "mw": 6.0, "hub_m": 120.0, "rotor_m": 150.0}}]}