{"type": "FeatureCollection", "features": [{"type": "Feature", "geometry": {"type": "MultiPolygon", "coordinates": [[[[14.4143, 53.51866], [14.41599, 53.5188], [14.4162, 53.51912], [14.41346, 53.52026], [14.41484, 53.52119], [14.41979, 53.51568], [14.41887, 53.51514], [14.41765, 53.51562], [14.41578, 53.51576], [14.41396, 53.51698], [14.41247, 53.51846], [14.4143, 53.51866]]], [[[14.42619, 53.52745], [14.42614, 53.52744], [14.42618, 53.52746], [14.42619, 53.52745]]], [[[14.43468, 53.52925], [14.4347, 53.53014], [14.43254, 53.53091], [14.43755, 53.53316], [14.43593, 53.53178], [14.43607, 53.53112], [14.43778, 53.53024], [14.44015, 53.5279], [14.43925, 53.52791], [14.43685, 53.5291], [14.43468, 53.52925]]], [[[14.43965, 53.52537], [14.44117, 53.52496], [14.44171, 53.52408], [14.4388, 53.52503], [14.43965, 53.52537]]], [[[14.48239, 53.52724], [14.48224, 53.52743], [14.4832, 53.52765], [14.48336, 53.52719], [14.48239, 53.52724]]], [[[14.48354, 53.52749], [14.48446, 53.5279], [14.48514, 53.52723], [14.48354, 53.52721], [14.48354, 53.52749]]], [[[14.51206, 53.51767], [14.51273, 53.51813], [14.51241, 53.51885], [14.51922, 53.52048], [14.51873, 53.51807], [14.51686, 53.51752], [14.51627, 53.51687], [14.51662, 53.51632], [14.51818, 53.51647], [14.51757, 53.51593], [14.51526, 53.51608], [14.50964, 53.51541], [14.50939, 53.51563], [14.51101, 53.51639], [14.51206, 53.51767]]], [[[14.50662, 53.51057], [14.50533, 53.51129], [14.5053, 53.51204], [14.50638, 53.51247], [14.50662, 53.51057]]], [[[14.50393, 53.49556], [14.50492, 53.49697], [14.50646, 53.49703], [14.50688, 53.49659], [14.50747, 53.49661], [14.50666, 53.49579], [14.50393, 53.49556]]], [[[14.56563, 53.4869], [14.56477, 53.48713], [14.56524, 53.48757], [14.56585, 53.48712], [14.56563, 53.4869]]], [[[14.56455, 53.48811], [14.56422, 53.48863], [14.56315, 53.48795], [14.5639, 53.48952], [14.56352, 53.48988], [14.56414, 53.48962], [14.56455, 53.48811]]], [[[14.55565, 53.49685], [14.55424, 53.49702], [14.55482, 53.49726], [14.55297, 53.49918], [14.55129, 53.49965], [14.54919, 53.49952], [14.54914, 53.49985], [14.54942, 53.50035], [14.55102, 53.49976], [14.551, 53.50013], [14.54956, 53.50047], [14.54939, 53.5011], [14.55091, 53.50203], [14.55209, 53.50201], [14.55435, 53.50296], [14.55634, 53.50494], [14.55693, 53.50386], [14.55862, 53.50304], [14.56024, 53.50279], [14.56186, 53.50302], [14.56434, 53.50245], [14.56104, 53.5012], [14.55869, 53.49839], [14.55565, 53.49685]], [[14.5525, 53.49964], [14.55213, 53.4995], [14.55437, 53.4992], [14.5545, 53.49976], [14.55259, 53.5], [14.5525, 53.49964]]], [[[14.54475, 53.50704], [14.5448, 53.50706], [14.54476, 53.50701], [14.54475, 53.50704]]], [[[14.54595, 53.50813], [14.54419, 53.50765], [14.53998, 53.50997], [14.54293, 53.51161], [14.54239, 53.5123], [14.54087, 53.51282], [14.54087, 53.51363], [14.54153, 53.51375], [14.54052, 53.51431], [14.54019, 53.51512], [14.5406, 53.51539], [14.54121, 53.51544], [14.54227, 53.51456], [14.54532, 53.51335], [14.54869, 53.51372], [14.55076, 53.51353], [14.54858, 53.51022], [14.54864, 53.50896], [14.54595, 53.50813]], [[14.54183, 53.5137], [14.54169, 53.51367], [14.54176, 53.51359], [14.54184, 53.5136], [14.54183, 53.5137]]], [[[14.54965, 53.51126], [14.5496, 53.51123], [14.54973, 53.5114], [14.54973, 53.5113], [14.54965, 53.51126]]], [[[14.55271, 53.52027], [14.55214, 53.52071], [14.55193, 53.52102], [14.55298, 53.52004], [14.55271, 53.52027]]], [[[14.54659, 53.52468], [14.54869, 53.52332], [14.5489, 53.52249], [14.54702, 53.52295], [14.54456, 53.52565], [14.54659, 53.52468]], [[14.54796, 53.52345], [14.54747, 53.52359], [14.54707, 53.52341], [14.54797, 53.52334], [14.54796, 53.52345]]], [[[14.53565, 53.53557], [14.537, 53.5353], [14.53718, 53.5351], [14.53622, 53.53494], [14.53565, 53.53557]]], [[[14.52821, 53.54586], [14.52895, 53.54643], [14.53049, 53.5434], [14.53006, 53.54198], [14.52821, 53.54586]]], [[[14.58488, 53.55054], [14.5866, 53.54971], [14.59119, 53.54934], [14.59123, 53.54863], [14.59489, 53.54823], [14.59682, 53.54757], [14.59919, 53.54761], [14.59957, 53.54665], [14.59473, 53.54707], [14.5941, 53.54609], [14.59299, 53.54569], [14.59307, 53.54477], [14.59933, 53.54407], [14.59985, 53.54373], [14.60006, 53.54211], [14.5945, 53.54197], [14.58998, 53.54119], [14.58809, 53.54193], [14.58563, 53.54363], [14.58381, 53.54679], [14.58055, 53.54871], [14.58283, 53.55077], [14.58488, 53.55054]]], [[[14.59565, 53.43042], [14.59479, 53.43121], [14.59341, 53.43165], [14.59184, 53.43166], [14.59034, 53.43115], [14.59347, 53.43819], [14.59498, 53.43625], [14.59408, 53.43645], [14.59388, 53.43508], [14.59455, 53.4348], [14.5938, 53.43319], [14.5949, 53.43302], [14.5943, 53.43209], [14.59508, 53.43191], [14.59589, 53.43241], [14.59578, 53.43408], [14.59908, 53.42894], [14.59565, 53.43042]], [[14.59255, 53.43212], [14.59282, 53.43184], [14.59312, 53.43199], [14.59291, 53.43205], [14.59255, 53.43212]]], [[[14.67881, 53.41253], [14.67395, 53.41116], [14.67025, 53.41064], [14.66884, 53.41185], [14.66612, 53.41246], [14.66638, 53.41538], [14.66549, 53.41665], [14.66301, 53.41767], [14.65979, 53.41743], [14.65799, 53.41893], [14.65861, 53.41976], [14.65833, 53.42109], [14.65893, 53.4224], [14.66186, 53.42267], [14.6754, 53.42917], [14.67762, 53.42923], [14.67972, 53.42978], [14.68131, 53.43078], [14.68247, 53.43254], [14.68728, 53.43314], [14.69141, 53.43308], [14.6937, 53.43355], [14.69658, 53.43195], [14.69967, 53.43181], [14.70398, 53.43302], [14.70704, 53.43734], [14.70876, 53.43801], [14.71081, 53.43753], [14.71331, 53.43747], [14.71702, 53.43826], [14.71894, 53.43755], [14.71544, 53.43508], [14.71222, 53.43407], [14.70987, 53.43206], [14.70706, 53.43063], [14.70669, 53.42816], [14.708, 53.42641], [14.70418, 53.42482], [14.70223, 53.42284], [14.69924, 53.42215], [14.69529, 53.41988], [14.69419, 53.41796], [14.69496, 53.4161], [14.6922, 53.41406], [14.68953, 53.41436], [14.68655, 53.41379], [14.68262, 53.41395], [14.68052, 53.41344], [14.67881, 53.41253]], [[14.69073, 53.41718], [14.69321, 53.41728], [14.69416, 53.41797], [14.69269, 53.41825], [14.69073, 53.41718]], [[14.67136, 53.41865], [14.67259, 53.41764], [14.67422, 53.41724], [14.67857, 53.41807], [14.68046, 53.41989], [14.67915, 53.42233], [14.67744, 53.42304], [14.67275, 53.42369], [14.66826, 53.42352], [14.66642, 53.42302], [14.66522, 53.4216], [14.66589, 53.41962], [14.66785, 53.41878], [14.67136, 53.41865]], [[14.70453, 53.43151], [14.70578, 53.43146], [14.70553, 53.43211], [14.70231, 53.43186], [14.70312, 53.43073], [14.70474, 53.43072], [14.70415, 53.43129], [14.70453, 53.43151]]], [[[14.72203, 53.44095], [14.71928, 53.44197], [14.71845, 53.44317], [14.71682, 53.44417], [14.71287, 53.44493], [14.71368, 53.44581], [14.71443, 53.44578], [14.71379, 53.44595], [14.7145, 53.44716], [14.71549, 53.44744], [14.71791, 53.44727], [14.71698, 53.4472], [14.71694, 53.44688], [14.71774, 53.44692], [14.71853, 53.44628], [14.71961, 53.44725], [14.71843, 53.44736], [14.71969, 53.44785], [14.72055, 53.44873], [14.72042, 53.45014], [14.72369, 53.45017], [14.72578, 53.45073], [14.72976, 53.45377], [14.73124, 53.45406], [14.7345, 53.45332], [14.7337, 53.45138], [14.73071, 53.45039], [14.72905, 53.449], [14.72747, 53.44583], [14.72783, 53.44408], [14.72468, 53.44265], [14.72326, 53.44102], [14.72203, 53.44095]], [[14.72159, 53.44361], [14.72297, 53.44548], [14.72113, 53.44566], [14.71964, 53.44376], [14.72119, 53.44302], [14.72159, 53.44361]], [[14.71817, 53.44437], [14.71874, 53.44413], [14.72067, 53.44569], [14.72006, 53.44582], [14.71817, 53.44437]]], [[[14.73781, 53.45677], [14.73506, 53.45728], [14.73544, 53.45873], [14.73486, 53.46006], [14.73212, 53.46182], [14.73036, 53.46372], [14.7283, 53.46447], [14.72554, 53.46466], [14.72277, 53.46718], [14.71845, 53.46842], [14.71869, 53.46974], [14.72046, 53.47046], [14.72184, 53.47162], [14.72214, 53.47398], [14.72031, 53.4757], [14.7168, 53.47656], [14.71577, 53.478], [14.71352, 53.47946], [14.71436, 53.48247], [14.7205, 53.48229], [14.72215, 53.48301], [14.72286, 53.48436], [14.72215, 53.48601], [14.71473, 53.48685], [14.71575, 53.48979], [14.71533, 53.4924], [14.72835, 53.49414], [14.73015, 53.49479], [14.73537, 53.49338], [14.73621, 53.49168], [14.73835, 53.49032], [14.74107, 53.48981], [14.74334, 53.48999], [14.7455, 53.49072], [14.74712, 53.49212], [14.74737, 53.49425], [14.74575, 53.49612], [14.74622, 53.49731], [14.75024, 53.49823], [14.75001, 53.49948], [14.75508, 53.49803], [14.75848, 53.49601], [14.76019, 53.49686], [14.76298, 53.49672], [14.76256, 53.49715], [14.76359, 53.49725], [14.76512, 53.49648], [14.77137, 53.50335], [14.77182, 53.50301], [14.77077, 53.50049], [14.77076, 53.49768], [14.76781, 53.49575], [14.76688, 53.49407], [14.76762, 53.49207], [14.76988, 53.49051], [14.76863, 53.48817], [14.76861, 53.48655], [14.76591, 53.4855], [14.76387, 53.48534], [14.76185, 53.48467], [14.76042, 53.48359], [14.75981, 53.48226], [14.75992, 53.48115], [14.76086, 53.4799], [14.76399, 53.47808], [14.76538, 53.47627], [14.7675, 53.47535], [14.76578, 53.47244], [14.76674, 53.46906], [14.7659, 53.46831], [14.76505, 53.46836], [14.76455, 53.46931], [14.76341, 53.46996], [14.76158, 53.4702], [14.76009, 53.46991], [14.75887, 53.46906], [14.75796, 53.46681], [14.75581, 53.46616], [14.7511, 53.46348], [14.74965, 53.46192], [14.7468, 53.46289], [14.74765, 53.46469], [14.74646, 53.46438], [14.74625, 53.46471], [14.74429, 53.46506], [14.74278, 53.46194], [14.74392, 53.46164], [14.74379, 53.461], [14.73918, 53.45897], [14.73781, 53.45677]], [[14.72657, 53.46797], [14.72425, 53.46674], [14.7257, 53.46554], [14.72599, 53.46678], [14.72765, 53.46763], [14.72657, 53.46797]], [[14.73011, 53.47191], [14.7284, 53.47237], [14.72735, 53.47213], [14.728, 53.47118], [14.72772, 53.47032], [14.72833, 53.46935], [14.72954, 53.46888], [14.72904, 53.46826], [14.72992, 53.46804], [14.7312, 53.46907], [14.73096, 53.46998], [14.73257, 53.47007], [14.73303, 53.47055], [14.73194, 53.47157], [14.73011, 53.47191]], [[14.73981, 53.48979], [14.73857, 53.48919], [14.73861, 53.48909], [14.74034, 53.48908], [14.74055, 53.48955], [14.73981, 53.48979]], [[14.74714, 53.47555], [14.74686, 53.47432], [14.74754, 53.4734], [14.74832, 53.47309], [14.74973, 53.47318], [14.75025, 53.47714], [14.74724, 53.47707], [14.74714, 53.47555]]], [[[14.7668, 53.45151], [14.76691, 53.45159], [14.76723, 53.45149], [14.7668, 53.45151]]], [[[14.76392, 53.44775], [14.76379, 53.44689], [14.7607, 53.44701], [14.76115, 53.44435], [14.76267, 53.44425], [14.76203, 53.44384], [14.75352, 53.44609], [14.75111, 53.4463], [14.74961, 53.44733], [14.74993, 53.44794], [14.7542, 53.44899], [14.75389, 53.45036], [14.75871, 53.45096], [14.75953, 53.45065], [14.75886, 53.45059], [14.75937, 53.44962], [14.7605, 53.45011], [14.76022, 53.45047], [14.76112, 53.44962], [14.7617, 53.45026], [14.764, 53.45041], [14.76392, 53.44775]]], [[[14.74865, 53.4047], [14.75084, 53.40515], [14.75252, 53.40486], [14.7548, 53.40337], [14.74938, 53.40318], [14.74865, 53.4047]]], [[[14.74757, 53.3994], [14.74704, 53.39884], [14.74653, 53.399], [14.74739, 53.39942], [14.74757, 53.3994]]], [[[14.72528, 53.39987], [14.72475, 53.39882], [14.72391, 53.39896], [14.72556, 53.40066], [14.72528, 53.39987]]], [[[14.74815, 53.38943], [14.74981, 53.39198], [14.75155, 53.39207], [14.75153, 53.39141], [14.74992, 53.3896], [14.74884, 53.38893], [14.7479, 53.38904], [14.74815, 53.38943]]], [[[14.74634, 53.32927], [14.74631, 53.32954], [14.74663, 53.32932], [14.74634, 53.32927]]], [[[14.74058, 53.33818], [14.73822, 53.3382], [14.73461, 53.3368], [14.73356, 53.33775], [14.73247, 53.33721], [14.73285, 53.33765], [14.73193, 53.33827], [14.72924, 53.33611], [14.72733, 53.33654], [14.7244, 53.3381], [14.72343, 53.3404], [14.72427, 53.34223], [14.72291, 53.34362], [14.72329, 53.34408], [14.72386, 53.3444], [14.7247, 53.3441], [14.72538, 53.34248], [14.72711, 53.34153], [14.72588, 53.34018], [14.72548, 53.33886], [14.72804, 53.34131], [14.72837, 53.33977], [14.73027, 53.33878], [14.73329, 53.33871], [14.73493, 53.33941], [14.73955, 53.33869], [14.74058, 53.33818]], [[14.73563, 53.33859], [14.73484, 53.33816], [14.73432, 53.33831], [14.73401, 53.33786], [14.73494, 53.33769], [14.73563, 53.33859]], [[14.7347, 53.33872], [14.73417, 53.33906], [14.73389, 53.33851], [14.7345, 53.33852], [14.7347, 53.33872]]], [[[14.71628, 53.36293], [14.71651, 53.36347], [14.71779, 53.36303], [14.71682, 53.36256], [14.71628, 53.36293]]], [[[14.61061, 53.35432], [14.61042, 53.35372], [14.60959, 53.35437], [14.61056, 53.35494], [14.61061, 53.35432]]], [[[14.58189, 53.33976], [14.58282, 53.33868], [14.58478, 53.33781], [14.58332, 53.33778], [14.58334, 53.33746], [14.58133, 53.33791], [14.58127, 53.33822], [14.58007, 53.33841], [14.57955, 53.33809], [14.5781, 53.33812], [14.57748, 53.33856], [14.57895, 53.339], [14.58009, 53.33874], [14.58008, 53.33927], [14.58054, 53.33942], [14.58038, 53.33901], [14.58146, 53.33873], [14.58109, 53.33912], [14.58184, 53.3395], [14.58094, 53.33961], [14.58189, 53.33976]]], [[[14.56781, 53.33383], [14.56648, 53.33376], [14.56846, 53.33241], [14.56569, 53.33394], [14.56445, 53.33405], [14.5643, 53.33372], [14.56289, 53.33425], [14.56444, 53.33474], [14.56385, 53.33516], [14.56521, 53.33613], [14.56774, 53.33453], [14.56781, 53.33383]]], [[[14.55726, 53.32538], [14.55784, 53.32533], [14.55869, 53.32644], [14.56, 53.32653], [14.56049, 53.32612], [14.56096, 53.32502], [14.55885, 53.3252], [14.55763, 53.32255], [14.5623, 53.32117], [14.56182, 53.31945], [14.56216, 53.31887], [14.56152, 53.31738], [14.55622, 53.31834], [14.55191, 53.3092], [14.55267, 53.30877], [14.55296, 53.30648], [14.55289, 53.30601], [14.55148, 53.3056], [14.5515, 53.30527], [14.55353, 53.3044], [14.55434, 53.29962], [14.55238, 53.29829], [14.5431, 53.30321], [14.54275, 53.30456], [14.54058, 53.30445], [14.53999, 53.30527], [14.5382, 53.30591], [14.53825, 53.3063], [14.53904, 53.30728], [14.54089, 53.30778], [14.54271, 53.30789], [14.54252, 53.30637], [14.54317, 53.3077], [14.54361, 53.30715], [14.54383, 53.30775], [14.54502, 53.30774], [14.54582, 53.30833], [14.54947, 53.30916], [14.55133, 53.30882], [14.55741, 53.32254], [14.55676, 53.32378], [14.55475, 53.32453], [14.55366, 53.32555], [14.55726, 53.32538]], [[14.54322, 53.30484], [14.54348, 53.30483], [14.54344, 53.30543], [14.54322, 53.30541], [14.54322, 53.30484]], [[14.54713, 53.30677], [14.54696, 53.30708], [14.54467, 53.30717], [14.54464, 53.3061], [14.54664, 53.30603], [14.54713, 53.30677]], [[14.54776, 53.3087], [14.54763, 53.30868], [14.54676, 53.30844], [14.54717, 53.30848], [14.54776, 53.3087]]], [[[14.55335, 53.32574], [14.55103, 53.32674], [14.551, 53.32699], [14.55511, 53.32694], [14.55443, 53.32558], [14.55335, 53.32574]]], [[[14.53847, 53.2997], [14.53915, 53.29859], [14.54041, 53.29779], [14.54241, 53.29738], [14.54425, 53.2976], [14.54709, 53.29599], [14.54508, 53.2917], [14.54586, 53.2901], [14.54806, 53.2888], [14.54744, 53.28824], [14.54559, 53.28862], [14.5433, 53.28827], [14.54017, 53.28932], [14.53632, 53.28856], [14.53278, 53.28878], [14.53281, 53.28952], [14.53449, 53.29024], [14.53572, 53.29139], [14.53584, 53.29389], [14.53359, 53.29582], [14.53151, 53.29639], [14.52924, 53.29647], [14.52793, 53.29833], [14.53284, 53.29895], [14.53277, 53.29831], [14.53213, 53.29797], [14.53302, 53.29786], [14.53397, 53.29899], [14.53361, 53.29825], [14.5374, 53.29782], [14.53768, 53.29948], [14.53847, 53.2997]], [[14.54399, 53.28899], [14.5443, 53.28905], [14.54255, 53.28883], [14.54272, 53.2888], [14.54399, 53.28899]], [[14.53389, 53.28908], [14.5352, 53.28912], [14.53537, 53.28937], [14.53393, 53.28924], [14.53389, 53.28908]], [[14.53911, 53.29525], [14.53723, 53.29339], [14.53722, 53.29164], [14.53937, 53.29029], [14.54206, 53.29023], [14.54347, 53.29081], [14.54503, 53.29244], [14.54536, 53.2945], [14.54427, 53.29549], [14.54272, 53.29597], [14.54088, 53.29594], [14.53911, 53.29525]], [[14.54141, 53.29615], [14.54046, 53.29615], [14.54241, 53.29606], [14.54241, 53.29609], [14.54141, 53.29615]], [[14.54165, 53.29628], [14.54185, 53.29658], [14.54109, 53.29665], [14.54093, 53.29623], [14.54165, 53.29628]]], [[[14.51233, 53.31043], [14.51486, 53.31194], [14.51822, 53.31096], [14.51636, 53.31095], [14.51603, 53.30817], [14.51471, 53.30943], [14.51233, 53.31043]]], [[[14.5138, 53.29994], [14.51407, 53.30024], [14.51274, 53.30059], [14.51315, 53.3008], [14.51409, 53.30047], [14.51306, 53.301], [14.51517, 53.30062], [14.51377, 53.30118], [14.51435, 53.30208], [14.5201, 53.30084], [14.52135, 53.29952], [14.51793, 53.29804], [14.51691, 53.29603], [14.5129, 53.29269], [14.51191, 53.29046], [14.50853, 53.29117], [14.50775, 53.29192], [14.50913, 53.29355], [14.50933, 53.29506], [14.51022, 53.29643], [14.5102, 53.29786], [14.50952, 53.29892], [14.51246, 53.30039], [14.5138, 53.29994]]], [[[14.51834, 53.30531], [14.51796, 53.30545], [14.5186, 53.30535], [14.52155, 53.3073], [14.51898, 53.30839], [14.5194, 53.30893], [14.52117, 53.30792], [14.52372, 53.30738], [14.52326, 53.30513], [14.52187, 53.30456], [14.51834, 53.30531]]], [[[14.52837, 53.32251], [14.52867, 53.32312], [14.53078, 53.32267], [14.52977, 53.3222], [14.52837, 53.32251]]], [[[14.62495, 53.39064], [14.62168, 53.3922], [14.62186, 53.39257], [14.63218, 53.39233], [14.6371, 53.39164], [14.63536, 53.38939], [14.63133, 53.38963], [14.62795, 53.39055], [14.62495, 53.39064]]], [[[14.48098, 53.33857], [14.48085, 53.33742], [14.48199, 53.33696], [14.4803, 53.33575], [14.47804, 53.33655], [14.47766, 53.33712], [14.47483, 53.33801], [14.47331, 53.33815], [14.47246, 53.33771], [14.47174, 53.33873], [14.47005, 53.33949], [14.47256, 53.33962], [14.47277, 53.33906], [14.4741, 53.33868], [14.47399, 53.33961], [14.47666, 53.33961], [14.47528, 53.33796], [14.47702, 53.33961], [14.48043, 53.33958], [14.48098, 53.33857]]], [[[14.47113, 53.34358], [14.46886, 53.34349], [14.46674, 53.3428], [14.46508, 53.34281], [14.46385, 53.34324], [14.46417, 53.34498], [14.46369, 53.34632], [14.46238, 53.34744], [14.46005, 53.34846], [14.4632, 53.35096], [14.46206, 53.34919], [14.46257, 53.34764], [14.46526, 53.34654], [14.46942, 53.34716], [14.47257, 53.34358], [14.47113, 53.34358]]], [[[14.45903, 53.33963], [14.46142, 53.33962], [14.46531, 53.3387], [14.46478, 53.33745], [14.46558, 53.33623], [14.46765, 53.33539], [14.46997, 53.3354], [14.46976, 53.33395], [14.47404, 53.33189], [14.47404, 53.33107], [14.47602, 53.33102], [14.47614, 53.33206], [14.4791, 53.33199], [14.47664, 53.33037], [14.47605, 53.33084], [14.47573, 53.32993], [14.47336, 53.3302], [14.47132, 53.33002], [14.46884, 53.32891], [14.46509, 53.32935], [14.46314, 53.32873], [14.46188, 53.32753], [14.45976, 53.3272], [14.45847, 53.32757], [14.45771, 53.32927], [14.45593, 53.33033], [14.45293, 53.33116], [14.45067, 53.33247], [14.44941, 53.33452], [14.45268, 53.33845], [14.45623, 53.3394], [14.45903, 53.33963]], [[14.46973, 53.33435], [14.46964, 53.33466], [14.46941, 53.3337], [14.46973, 53.33435]]], [[[14.45681, 53.31216], [14.4558, 53.31246], [14.45621, 53.31333], [14.45646, 53.31271], [14.45681, 53.31216]]], [[[14.45071, 53.31016], [14.45243, 53.30919], [14.45116, 53.30872], [14.44794, 53.31002], [14.4483, 53.31035], [14.45071, 53.31016]]], [[[14.42703, 53.31972], [14.42887, 53.32094], [14.43094, 53.32071], [14.43406, 53.32132], [14.43633, 53.32333], [14.43732, 53.32349], [14.4377, 53.32272], [14.43683, 53.32113], [14.43437, 53.32042], [14.43312, 53.31901], [14.43329, 53.31793], [14.43417, 53.31696], [14.43659, 53.31645], [14.43459, 53.31525], [14.42661, 53.31951], [14.42703, 53.31972]]], [[[14.35382, 53.4131], [14.35389, 53.41312], [14.35388, 53.41305], [14.35382, 53.4131]]], [[[14.34948, 53.40923], [14.34987, 53.40843], [14.34985, 53.4075], [14.34951, 53.40877], [14.34948, 53.40923]]], [[[14.37622, 53.47761], [14.37576, 53.47645], [14.37602, 53.47503], [14.37766, 53.4735], [14.37808, 53.47204], [14.37929, 53.47094], [14.37816, 53.46984], [14.37777, 53.4684], [14.37828, 53.46707], [14.37986, 53.46582], [14.37845, 53.46366], [14.37879, 53.46275], [14.37979, 53.46204], [14.37774, 53.46119], [14.37722, 53.46184], [14.37596, 53.46083], [14.37437, 53.46084], [14.3746, 53.4621], [14.37355, 53.46174], [14.37311, 53.462], [14.37568, 53.46388], [14.37622, 53.46533], [14.37598, 53.46687], [14.3749, 53.46813], [14.37201, 53.46965], [14.36809, 53.47015], [14.36921, 53.47274], [14.37095, 53.47287], [14.36934, 53.473], [14.36929, 53.47331], [14.36736, 53.4733], [14.36697, 53.47579], [14.37269, 53.47542], [14.37206, 53.4757], [14.37202, 53.47632], [14.3685, 53.47625], [14.36921, 53.4782], [14.37001, 53.47817], [14.37051, 53.47854], [14.36915, 53.47867], [14.36932, 53.47897], [14.37174, 53.47863], [14.37145, 53.47834], [14.37228, 53.47793], [14.37274, 53.47855], [14.37502, 53.47886], [14.37498, 53.47809], [14.37622, 53.47761]]], [[[14.35947, 53.45708], [14.35925, 53.45672], [14.35789, 53.45712], [14.35745, 53.45772], [14.35657, 53.46038], [14.35682, 53.46101], [14.35801, 53.45777], [14.35947, 53.45708]]], [[[14.35815, 53.44628], [14.35837, 53.44528], [14.35712, 53.44474], [14.35729, 53.44596], [14.35766, 53.44639], [14.35815, 53.44628]]], [[[14.3626, 53.44152], [14.36439, 53.44053], [14.36409, 53.43979], [14.36449, 53.43964], [14.36149, 53.43978], [14.36028, 53.43704], [14.35732, 53.43807], [14.35316, 53.43843], [14.35512, 53.44007], [14.35543, 53.44146], [14.3549, 53.44269], [14.35533, 53.44291], [14.35887, 53.44112], [14.36086, 53.44102], [14.3626, 53.44152]]], [[[14.36398, 53.43803], [14.36345, 53.43644], [14.36239, 53.43664], [14.36362, 53.43743], [14.3634, 53.4387], [14.36421, 53.43871], [14.36398, 53.43803]]], [[[14.3617, 53.43129], [14.36158, 53.43106], [14.3611, 53.43051], [14.36069, 53.43151], [14.36186, 53.43174], [14.3617, 53.43129]]], [[[14.37031, 53.43728], [14.37053, 53.43787], [14.37076, 53.43865], [14.37053, 53.43717], [14.37014, 53.43673], [14.37031, 53.43728]]], [[[14.37433, 53.40885], [14.37766, 53.4082], [14.38229, 53.40885], [14.38599, 53.4111], [14.38717, 53.41239], [14.38776, 53.4123], [14.38806, 53.41315], [14.39661, 53.41269], [14.39597, 53.41105], [14.39431, 53.41047], [14.39257, 53.40919], [14.39156, 53.40738], [14.38988, 53.40655], [14.38912, 53.40517], [14.38622, 53.40546], [14.38294, 53.40467], [14.38103, 53.40299], [14.38098, 53.40102], [14.37976, 53.40061], [14.37857, 53.40182], [14.37807, 53.40179], [14.37923, 53.40036], [14.37747, 53.39859], [14.37558, 53.39792], [14.3745, 53.39695], [14.3744, 53.3957], [14.37281, 53.39384], [14.37315, 53.39281], [14.37428, 53.39182], [14.37717, 53.39124], [14.38082, 53.39262], [14.38218, 53.3922], [14.38137, 53.39047], [14.38241, 53.38913], [14.38019, 53.38872], [14.37878, 53.38751], [14.37896, 53.38603], [14.38029, 53.38457], [14.37875, 53.38313], [14.37806, 53.38586], [14.37584, 53.38815], [14.37486, 53.38831], [14.37486, 53.38941], [14.37269, 53.3888], [14.37149, 53.3903], [14.36761, 53.3931], [14.36649, 53.39466], [14.3674, 53.39519], [14.37044, 53.39312], [14.36758, 53.39527], [14.36814, 53.39557], [14.36958, 53.39517], [14.37136, 53.3952], [14.37369, 53.39648], [14.37352, 53.39826], [14.37152, 53.3993], [14.3715, 53.40049], [14.37217, 53.40149], [14.37795, 53.40176], [14.37768, 53.40211], [14.37221, 53.40162], [14.37212, 53.40387], [14.37109, 53.40469], [14.36969, 53.40509], [14.37209, 53.40632], [14.37215, 53.40819], [14.36985, 53.40946], [14.36704, 53.40943], [14.36811, 53.41042], [14.37018, 53.41048], [14.37191, 53.41122], [14.37366, 53.40883], [14.37433, 53.40885]], [[14.37337, 53.40892], [14.37792, 53.40191], [14.37848, 53.40195], [14.37596, 53.40523], [14.37366, 53.40883], [14.37337, 53.40892]], [[14.38162, 53.4063], [14.38157, 53.40646], [14.37618, 53.4054], [14.37622, 53.40532], [14.38162, 53.4063]], [[14.37863, 53.38754], [14.3785, 53.3877], [14.37821, 53.38753], [14.37849, 53.38751], [14.37863, 53.38754]], [[14.37605, 53.40703], [14.37591, 53.40724], [14.37494, 53.40697], [14.37526, 53.40674], [14.37605, 53.40703]], [[14.37283, 53.40846], [14.37266, 53.40838], [14.37284, 53.40783], [14.37324, 53.40813], [14.37283, 53.40846]]], [[[14.39157, 53.41683], [14.38097, 53.41739], [14.37931, 53.41749], [14.38221, 53.41826], [14.38382, 53.41923], [14.38474, 53.42039], [14.38493, 53.42181], [14.38666, 53.42229], [14.38615, 53.42272], [14.38483, 53.42214], [14.38601, 53.42332], [14.39121, 53.42184], [14.39519, 53.42181], [14.3981, 53.42234], [14.39522, 53.4202], [14.3952, 53.41845], [14.39621, 53.41765], [14.39769, 53.41717], [14.40241, 53.41699], [14.4025, 53.41625], [14.39655, 53.41657], [14.396, 53.41742], [14.39615, 53.41659], [14.39157, 53.41683]]], [[[14.36687, 53.38705], [14.36675, 53.38701], [14.36678, 53.3872], [14.36687, 53.38705]]], [[[14.39813, 53.39934], [14.39721, 53.40021], [14.39628, 53.4025], [14.39675, 53.40259], [14.39763, 53.40161], [14.3994, 53.40085], [14.40241, 53.40085], [14.40373, 53.4015], [14.40472, 53.40273], [14.40477, 53.40484], [14.40638, 53.40545], [14.40823, 53.40503], [14.40802, 53.40356], [14.40882, 53.40296], [14.40899, 53.40184], [14.41048, 53.40159], [14.41007, 53.40274], [14.41222, 53.40304], [14.41466, 53.40287], [14.41661, 53.4036], [14.41786, 53.40559], [14.41753, 53.40645], [14.41639, 53.40729], [14.41721, 53.4081], [14.41968, 53.40723], [14.42006, 53.40756], [14.41916, 53.40867], [14.42057, 53.40901], [14.42294, 53.40728], [14.42439, 53.40535], [14.4274, 53.40394], [14.43228, 53.39982], [14.43149, 53.39813], [14.43204, 53.39644], [14.43071, 53.39527], [14.43027, 53.39385], [14.4285, 53.39353], [14.42613, 53.39232], [14.42569, 53.39132], [14.42604, 53.39039], [14.42233, 53.38873], [14.41973, 53.38932], [14.4172, 53.38861], [14.41707, 53.38904], [14.41791, 53.3893], [14.41659, 53.39002], [14.41647, 53.39063], [14.41263, 53.39225], [14.41183, 53.39325], [14.41465, 53.39408], [14.41542, 53.39563], [14.41707, 53.39511], [14.42129, 53.3953], [14.4238, 53.39498], [14.42551, 53.39416], [14.42751, 53.39452], [14.43002, 53.39439], [14.42152, 53.3954], [14.41957, 53.39539], [14.41677, 53.39782], [14.4152, 53.39795], [14.41568, 53.39729], [14.4151, 53.39664], [14.41281, 53.39821], [14.41163, 53.39837], [14.40638, 53.39829], [14.40385, 53.39804], [14.40316, 53.39761], [14.40015, 53.39892], [14.39813, 53.39934]], [[14.41604, 53.40052], [14.41583, 53.4006], [14.41544, 53.40032], [14.41579, 53.40033], [14.41604, 53.40052]], [[14.43038, 53.39625], [14.43043, 53.39634], [14.43028, 53.39637], [14.43026, 53.3963], [14.43038, 53.39625]], [[14.42377, 53.39824], [14.42397, 53.39815], [14.42412, 53.39823], [14.42361, 53.39842], [14.42377, 53.39824]], [[14.41734, 53.39888], [14.41774, 53.39921], [14.41747, 53.39943], [14.41699, 53.39916], [14.41734, 53.39888]], [[14.42203, 53.39999], [14.42174, 53.40021], [14.42143, 53.40024], [14.42201, 53.39973], [14.42203, 53.39999]], [[14.42961, 53.40042], [14.42977, 53.40041], [14.42988, 53.40051], [14.42966, 53.40057], [14.42961, 53.40042]], [[14.42536, 53.40109], [14.42547, 53.40101], [14.42561, 53.4011], [14.4255, 53.40119], [14.42536, 53.40109]], [[14.42094, 53.40176], [14.42105, 53.40163], [14.42124, 53.4017], [14.42113, 53.40183], [14.42094, 53.40176]], [[14.41675, 53.40247], [14.41646, 53.40244], [14.41637, 53.40229], [14.41659, 53.40226], [14.41675, 53.40247]]], [[[14.42905, 53.38692], [14.43186, 53.38818], [14.43318, 53.3873], [14.43309, 53.38589], [14.43403, 53.38485], [14.4286, 53.38425], [14.42631, 53.3857], [14.42905, 53.38692]]], [[[14.40158, 53.39799], [14.40295, 53.39749], [14.40283, 53.39696], [14.40215, 53.39702], [14.40158, 53.39799]]], [[[14.40452, 53.39671], [14.4061, 53.3954], [14.40632, 53.39429], [14.40683, 53.39528], [14.40873, 53.39388], [14.40836, 53.39358], [14.41069, 53.39205], [14.4088, 53.39239], [14.4069, 53.39222], [14.4046, 53.39128], [14.40377, 53.38996], [14.40188, 53.39032], [14.39989, 53.39001], [14.39838, 53.38894], [14.39838, 53.38742], [14.39722, 53.38896], [14.39938, 53.39083], [14.39979, 53.39373], [14.40067, 53.39463], [14.40173, 53.3943], [14.40157, 53.39492], [14.4009, 53.39509], [14.40201, 53.3966], [14.40385, 53.3971], [14.40452, 53.39671]], [[14.40364, 53.39355], [14.40605, 53.39283], [14.40693, 53.39374], [14.40492, 53.394], [14.40364, 53.39355]]], [[[14.40466, 53.39718], [14.40674, 53.39702], [14.40669, 53.39558], [14.40539, 53.39629], [14.40571, 53.39671], [14.40418, 53.39711], [14.40466, 53.39718]]], [[[14.3922, 53.38604], [14.39464, 53.38426], [14.39437, 53.38353], [14.3963, 53.38345], [14.39634, 53.38214], [14.39854, 53.37938], [14.39836, 53.37853], [14.39532, 53.37706], [14.39512, 53.37886], [14.39365, 53.3806], [14.39435, 53.38194], [14.39532, 53.38213], [14.39542, 53.38255], [14.39432, 53.38226], [14.39327, 53.38361], [14.39133, 53.38438], [14.39072, 53.38569], [14.3922, 53.38604]]], [[[14.3984, 53.37346], [14.39856, 53.37356], [14.39892, 53.37307], [14.39825, 53.37337], [14.3984, 53.37346]]], [[[14.40628, 53.37303], [14.40615, 53.37318], [14.4066, 53.37317], [14.40629, 53.37302], [14.40628, 53.37303]]], [[[14.3973, 53.38331], [14.39698, 53.38217], [14.39698, 53.38159], [14.39647, 53.38361], [14.3973, 53.38331]]], [[[14.38635, 53.38599], [14.39028, 53.38563], [14.39081, 53.38446], [14.38866, 53.38445], [14.38789, 53.38529], [14.38635, 53.38599]]], [[[14.39283, 53.38012], [14.39449, 53.37658], [14.3934, 53.37592], [14.39125, 53.37591], [14.38939, 53.37515], [14.38717, 53.3778], [14.38537, 53.37836], [14.38273, 53.37854], [14.38322, 53.3783], [14.38162, 53.37771], [14.3807, 53.37644], [14.37964, 53.376], [14.3806, 53.37684], [14.38083, 53.37827], [14.38168, 53.37931], [14.38346, 53.37935], [14.38558, 53.38017], [14.38739, 53.38038], [14.39054, 53.37968], [14.39245, 53.37998], [14.3927, 53.37963], [14.39283, 53.38012]]], [[[14.39518, 53.37138], [14.39508, 53.36836], [14.39357, 53.36703], [14.39306, 53.36711], [14.39303, 53.36788], [14.39403, 53.36805], [14.3929, 53.36815], [14.39175, 53.36945], [14.38962, 53.37017], [14.39518, 53.37138]]], [[[14.39572, 53.36856], [14.39642, 53.37168], [14.39657, 53.37169], [14.39777, 53.37144], [14.39671, 53.37001], [14.397, 53.36872], [14.39572, 53.36856]]], [[[14.4115, 53.3738], [14.41035, 53.37389], [14.41159, 53.37451], [14.41151, 53.37423], [14.4115, 53.3738]]], [[[14.41201, 53.38836], [14.41303, 53.38803], [14.41106, 53.38732], [14.40864, 53.38714], [14.40586, 53.38606], [14.40557, 53.38649], [14.40463, 53.38638], [14.40582, 53.38792], [14.40888, 53.3874], [14.41201, 53.38836]]], [[[14.4189, 53.38292], [14.42055, 53.38349], [14.42191, 53.38196], [14.4234, 53.38125], [14.42167, 53.38075], [14.42071, 53.37999], [14.42028, 53.38011], [14.4207, 53.37757], [14.42263, 53.37631], [14.42176, 53.37547], [14.42157, 53.37438], [14.42029, 53.37476], [14.42059, 53.37413], [14.42008, 53.374], [14.4183, 53.37557], [14.41947, 53.37628], [14.42002, 53.37723], [14.41964, 53.37841], [14.41811, 53.37942], [14.41806, 53.38051], [14.41907, 53.38169], [14.4189, 53.38292]]], [[[14.4151, 53.38606], [14.41316, 53.38698], [14.41126, 53.38731], [14.41296, 53.38793], [14.4139, 53.38691], [14.41535, 53.38724], [14.4151, 53.38606]]], [[[14.42012, 53.37379], [14.42163, 53.37414], [14.42319, 53.37261], [14.42469, 53.37219], [14.42661, 53.37217], [14.42721, 53.37173], [14.42651, 53.37067], [14.42649, 53.36928], [14.42971, 53.36478], [14.42705, 53.36314], [14.42825, 53.36503], [14.42792, 53.36677], [14.42632, 53.36783], [14.42388, 53.36816], [14.42341, 53.37039], [14.42227, 53.37183], [14.41999, 53.37294], [14.42012, 53.37379]], [[14.42419, 53.37086], [14.42524, 53.37103], [14.42429, 53.37153], [14.4239, 53.37106], [14.42419, 53.37086]]], [[[14.42669, 53.36272], [14.42986, 53.36465], [14.4323, 53.36345], [14.43551, 53.36301], [14.43576, 53.36247], [14.43401, 53.36157], [14.43135, 53.36136], [14.42917, 53.36063], [14.42531, 53.36181], [14.42669, 53.36272]], [[14.42655, 53.36229], [14.42692, 53.36184], [14.42753, 53.3621], [14.42707, 53.36238], [14.42655, 53.36229]], [[14.4329, 53.36229], [14.43434, 53.36232], [14.43559, 53.36279], [14.43119, 53.36241], [14.431, 53.36185], [14.4329, 53.36229]], [[14.4311, 53.36378], [14.43011, 53.36356], [14.43002, 53.36294], [14.43137, 53.36292], [14.4311, 53.36378]]], [[[14.42058, 53.3586], [14.42178, 53.35858], [14.42741, 53.35689], [14.43013, 53.35442], [14.42693, 53.35468], [14.42546, 53.35423], [14.42437, 53.35339], [14.42392, 53.35175], [14.42523, 53.3505], [14.42311, 53.34935], [14.42146, 53.34726], [14.42156, 53.34573], [14.42242, 53.3446], [14.42562, 53.3432], [14.42967, 53.34306], [14.43269, 53.34398], [14.43486, 53.34625], [14.43522, 53.34605], [14.43521, 53.34423], [14.4306, 53.34162], [14.42178, 53.34395], [14.41887, 53.34341], [14.41801, 53.34336], [14.4178, 53.34383], [14.41674, 53.34368], [14.41679, 53.34308], [14.41559, 53.34244], [14.41471, 53.34344], [14.4124, 53.34446], [14.41153, 53.34552], [14.40885, 53.34702], [14.40786, 53.34828], [14.40596, 53.34902], [14.40319, 53.34892], [14.40108, 53.34772], [14.40011, 53.34846], [14.40087, 53.3493], [14.40089, 53.35049], [14.40271, 53.35133], [14.4028, 53.35209], [14.40122, 53.3516], [14.39975, 53.35174], [14.39966, 53.35229], [14.39898, 53.35208], [14.39654, 53.35237], [14.39476, 53.35196], [14.39349, 53.35108], [14.39304, 53.35013], [14.3933, 53.34914], [14.39449, 53.34818], [14.39361, 53.347], [14.39139, 53.34675], [14.39137, 53.34739], [14.389, 53.34961], [14.3866, 53.35004], [14.38421, 53.34948], [14.38334, 53.35034], [14.38551, 53.35075], [14.38685, 53.35187], [14.38847, 53.35107], [14.39032, 53.3508], [14.39245, 53.35113], [14.39388, 53.35199], [14.39422, 53.35398], [14.39056, 53.3564], [14.39062, 53.35735], [14.38992, 53.35826], [14.38826, 53.35901], [14.38457, 53.35947], [14.38184, 53.35853], [14.37811, 53.3587], [14.37613, 53.35755], [14.37567, 53.35872], [14.3736, 53.36068], [14.37613, 53.36353], [14.37669, 53.3637], [14.37904, 53.36319], [14.381, 53.36349], [14.38167, 53.36196], [14.38301, 53.36073], [14.38628, 53.35983], [14.38876, 53.36007], [14.38991, 53.35928], [14.39308, 53.35822], [14.39308, 53.35702], [14.39433, 53.35592], [14.39748, 53.35535], [14.39924, 53.35428], [14.39926, 53.35367], [14.40062, 53.35392], [14.40161, 53.35292], [14.40375, 53.35179], [14.4056, 53.35147], [14.40768, 53.35171], [14.40824, 53.3508], [14.40972, 53.35122], [14.40907, 53.35202], [14.41179, 53.35324], [14.41245, 53.35433], [14.41235, 53.35542], [14.41319, 53.3558], [14.41198, 53.35609], [14.40991, 53.35736], [14.40749, 53.35759], [14.40196, 53.35636], [14.40088, 53.35554], [14.40051, 53.35422], [14.40039, 53.35525], [14.39844, 53.35548], [14.40007, 53.35619], [14.40089, 53.35734], [14.40442, 53.35756], [14.40854, 53.35875], [14.41165, 53.35724], [14.41469, 53.35674], [14.41491, 53.35639], [14.415, 53.35674], [14.4186, 53.35748], [14.42058, 53.3586]], [[14.42164, 53.35336], [14.42112, 53.35383], [14.41879, 53.35384], [14.41866, 53.35325], [14.41966, 53.3521], [14.41823, 53.35176], [14.41848, 53.35158], [14.4195, 53.35181], [14.42131, 53.35134], [14.4219, 53.35242], [14.42164, 53.35336]]], [[[14.40815, 53.33059], [14.40964, 53.33058], [14.40913, 53.33093], [14.40939, 53.33203], [14.41305, 53.3316], [14.41572, 53.33184], [14.41765, 53.33245], [14.42061, 53.33191], [14.41721, 53.33178], [14.41443, 53.33047], [14.41335, 53.32854], [14.41441, 53.32643], [14.41088, 53.32926], [14.40815, 53.33059]]], [[[14.34909, 53.43407], [14.34927, 53.43373], [14.34898, 53.4344], [14.34909, 53.43407]]], [[[14.34992, 53.4377], [14.352, 53.43802], [14.35111, 53.43653], [14.34974, 53.43722], [14.34946, 53.4377], [14.34992, 53.4377]]], [[[14.34916, 53.43629], [14.34913, 53.43629], [14.34914, 53.43631], [14.34916, 53.43629]]], [[[14.34936, 53.437], [14.35218, 53.43534], [14.35528, 53.4349], [14.35397, 53.43374], [14.35373, 53.43251], [14.34964, 53.43367], [14.34903, 53.43518], [14.34936, 53.437]]], [[[14.36103, 53.37855], [14.3611, 53.37835], [14.36109, 53.37834], [14.36092, 53.37863], [14.36103, 53.37855]]], [[[14.36147, 53.37782], [14.36187, 53.37813], [14.36392, 53.37758], [14.36586, 53.37778], [14.36751, 53.37855], [14.36824, 53.37967], [14.3694, 53.3785], [14.36969, 53.3759], [14.37115, 53.37475], [14.36946, 53.37416], [14.36843, 53.37314], [14.36737, 53.37304], [14.36786, 53.37424], [14.36711, 53.37554], [14.36484, 53.37644], [14.36233, 53.37633], [14.36147, 53.37782]]], [[[14.36239, 53.38269], [14.36189, 53.38347], [14.36264, 53.38359], [14.36258, 53.38276], [14.36239, 53.38269]]], [[[14.36521, 53.37194], [14.36521, 53.37201], [14.36529, 53.37202], [14.36521, 53.37194]]], [[[14.35615, 53.44348], [14.35624, 53.44355], [14.35624, 53.44312], [14.35591, 53.44323], [14.35615, 53.44348]]], [[[14.35165, 53.43095], [14.35298, 53.43251], [14.35384, 53.43225], [14.35274, 53.42952], [14.35203, 53.42912], [14.35165, 53.43095]]], [[[14.36871, 53.41807], [14.36887, 53.4182], [14.36909, 53.41805], [14.36871, 53.41807]]], [[[14.36365, 53.4088], [14.36445, 53.40787], [14.36393, 53.40893], [14.36603, 53.40905], [14.36472, 53.40741], [14.36382, 53.40758], [14.36344, 53.409], [14.36365, 53.4088]]], [[[14.36047, 53.41091], [14.36032, 53.41122], [14.36033, 53.41123], [14.3607, 53.41087], [14.36047, 53.41091]]], [[[14.36777, 53.40504], [14.36707, 53.40487], [14.36661, 53.40469], [14.3668, 53.40526], [14.36777, 53.40504]]], [[[14.40069, 53.45432], [14.39719, 53.45477], [14.40091, 53.45514], [14.40134, 53.45706], [14.40307, 53.45628], [14.40496, 53.45614], [14.40706, 53.45672], [14.40816, 53.45785], [14.40969, 53.45781], [14.40629, 53.45544], [14.4038, 53.45534], [14.40069, 53.45432]]], [[[14.4127, 53.45844], [14.41415, 53.45886], [14.41441, 53.45871], [14.41411, 53.45838], [14.4127, 53.45844]]], [[[14.40585, 53.46117], [14.40551, 53.46064], [14.40313, 53.46069], [14.40116, 53.45983], [14.40052, 53.45853], [14.40119, 53.45718], [14.39988, 53.45731], [14.39983, 53.4576], [14.39607, 53.45746], [14.39569, 53.45571], [14.39214, 53.4564], [14.393, 53.45799], [14.39455, 53.45777], [14.39433, 53.45838], [14.39292, 53.45854], [14.39272, 53.46028], [14.39669, 53.46402], [14.39703, 53.46539], [14.39653, 53.46665], [14.39794, 53.46756], [14.39876, 53.46881], [14.40039, 53.46968], [14.40493, 53.46926], [14.4081, 53.46852], [14.40513, 53.46754], [14.40312, 53.46521], [14.40351, 53.46319], [14.40585, 53.46117]], [[14.39552, 53.45838], [14.39546, 53.4587], [14.39464, 53.45869], [14.3948, 53.45839], [14.39552, 53.45838]], [[14.40129, 53.4615], [14.40156, 53.46148], [14.40221, 53.46092], [14.40116, 53.46218], [14.40052, 53.46179], [14.40129, 53.4615]], [[14.40008, 53.4646], [14.40094, 53.46481], [14.40056, 53.4654], [14.39945, 53.46518], [14.40048, 53.46341], [14.40008, 53.4646]], [[14.4027, 53.46561], [14.40226, 53.46577], [14.40162, 53.46582], [14.40317, 53.46538], [14.4027, 53.46561]], [[14.39868, 53.46728], [14.39914, 53.46669], [14.39993, 53.46637], [14.40005, 53.46647], [14.39868, 53.46728]]], [[[14.41896, 53.42634], [14.41798, 53.42607], [14.416, 53.4276], [14.41318, 53.4283], [14.41446, 53.4296], [14.41477, 53.43085], [14.41972, 53.43099], [14.42264, 53.42963], [14.42642, 53.42938], [14.42428, 53.42875], [14.42289, 53.42728], [14.42145, 53.42725], [14.41896, 53.42634]]], [[[14.43289, 53.44257], [14.43492, 53.44553], [14.43655, 53.44415], [14.43949, 53.44395], [14.43621, 53.44115], [14.43248, 53.44199], [14.43289, 53.44257]]], [[[14.42744, 53.4448], [14.42637, 53.44326], [14.42293, 53.44285], [14.42026, 53.44175], [14.417, 53.44259], [14.41644, 53.44389], [14.41866, 53.44507], [14.4196, 53.44648], [14.41959, 53.44784], [14.41893, 53.44888], [14.41921, 53.45067], [14.42267, 53.45147], [14.4246, 53.45328], [14.427, 53.45322], [14.42728, 53.45224], [14.42574, 53.4517], [14.42473, 53.45082], [14.42478, 53.44904], [14.4213, 53.44962], [14.42503, 53.44878], [14.42697, 53.44784], [14.4295, 53.4478], [14.42744, 53.4448]]], [[[14.41168, 53.41854], [14.41266, 53.41857], [14.41275, 53.41821], [14.4054, 53.41893], [14.40522, 53.42005], [14.40718, 53.41903], [14.41168, 53.41854]]], [[[14.41014, 53.40479], [14.40991, 53.40498], [14.41012, 53.405], [14.41014, 53.40479]]], [[[14.44527, 53.399], [14.44741, 53.39936], [14.44909, 53.39924], [14.45662, 53.39685], [14.45488, 53.39581], [14.45326, 53.39655], [14.45107, 53.39693], [14.4488, 53.39679], [14.44708, 53.39627], [14.44576, 53.39665], [14.44456, 53.39884], [14.44527, 53.399]]], [[[14.45733, 53.39662], [14.46132, 53.39574], [14.46561, 53.39567], [14.46629, 53.39466], [14.46576, 53.39424], [14.46635, 53.39461], [14.46789, 53.39363], [14.47067, 53.39264], [14.46991, 53.39226], [14.46751, 53.39307], [14.46445, 53.39312], [14.46565, 53.39421], [14.46424, 53.39309], [14.4631, 53.39282], [14.46123, 53.39299], [14.45899, 53.39407], [14.45617, 53.39455], [14.45493, 53.39578], [14.4567, 53.39682], [14.45733, 53.39662]], [[14.46232, 53.39488], [14.46215, 53.39469], [14.46241, 53.39454], [14.46272, 53.3947], [14.46232, 53.39488]]], [[[14.4644, 53.39946], [14.46402, 53.39945], [14.46383, 53.39945], [14.4643, 53.39962], [14.4644, 53.39946]]], [[[14.46354, 53.39945], [14.46109, 53.39981], [14.44997, 53.40309], [14.44556, 53.40309], [14.43862, 53.40164], [14.43801, 53.40169], [14.43648, 53.40287], [14.4437, 53.40488], [14.44502, 53.40455], [14.44422, 53.40397], [14.4459, 53.40433], [14.4483, 53.40377], [14.4642, 53.39978], [14.46354, 53.39945]]], [[[14.45928, 53.40519], [14.44873, 53.40784], [14.44878, 53.40915], [14.44921, 53.4094], [14.45124, 53.40756], [14.4538, 53.40686], [14.46064, 53.40748], [14.46256, 53.4063], [14.46236, 53.40442], [14.45928, 53.40519]]], [[[14.45502, 53.37657], [14.45496, 53.37747], [14.45634, 53.37777], [14.45882, 53.377], [14.46144, 53.37699], [14.46106, 53.37359], [14.46277, 53.37167], [14.46215, 53.37129], [14.45843, 53.37103], [14.45847, 53.37081], [14.46255, 53.3711], [14.4605, 53.3685], [14.46032, 53.36677], [14.4597, 53.3668], [14.4593, 53.36602], [14.46163, 53.36415], [14.45973, 53.36055], [14.46018, 53.3595], [14.46061, 53.36032], [14.4617, 53.36016], [14.46086, 53.36038], [14.46082, 53.36089], [14.46256, 53.36402], [14.46546, 53.36385], [14.46843, 53.36458], [14.46836, 53.36383], [14.46272, 53.35981], [14.46114, 53.35807], [14.45943, 53.35828], [14.4597, 53.35908], [14.45896, 53.35829], [14.45932, 53.35958], [14.45852, 53.35827], [14.45719, 53.35812], [14.45668, 53.3582], [14.45758, 53.35955], [14.45713, 53.36175], [14.45528, 53.36268], [14.45559, 53.36386], [14.45664, 53.36408], [14.45564, 53.36521], [14.45481, 53.36375], [14.45323, 53.36358], [14.45378, 53.36299], [14.45347, 53.36268], [14.44724, 53.36469], [14.44706, 53.36447], [14.44818, 53.36416], [14.44802, 53.36387], [14.45103, 53.36321], [14.45178, 53.36261], [14.45313, 53.36223], [14.45454, 53.36245], [14.45689, 53.36174], [14.45707, 53.35898], [14.45642, 53.35823], [14.45377, 53.35819], [14.45149, 53.35757], [14.45017, 53.35934], [14.44743, 53.36043], [14.4471, 53.36155], [14.44589, 53.36275], [14.44399, 53.36358], [14.44201, 53.36389], [14.44393, 53.36515], [14.44506, 53.36672], [14.44752, 53.36559], [14.44987, 53.36536], [14.4548, 53.36722], [14.45551, 53.36836], [14.45535, 53.36936], [14.45445, 53.3702], [14.45302, 53.37072], [14.45534, 53.37193], [14.4562, 53.37181], [14.45605, 53.3724], [14.45735, 53.37421], [14.45669, 53.37557], [14.45502, 53.37657]], [[14.44946, 53.36453], [14.44987, 53.3644], [14.45071, 53.365], [14.44999, 53.36507], [14.44946, 53.36453]], [[14.45103, 53.36504], [14.45144, 53.36471], [14.45166, 53.36476], [14.45132, 53.36524], [14.45103, 53.36504]], [[14.4606, 53.36342], [14.45939, 53.36341], [14.4596, 53.3626], [14.46031, 53.36257], [14.4606, 53.36342]]], [[[14.4666, 53.35594], [14.46781, 53.35744], [14.4702, 53.35916], [14.47344, 53.36026], [14.48002, 53.36429], [14.47522, 53.35799], [14.47328, 53.3572], [14.47208, 53.35723], [14.47222, 53.35668], [14.46985, 53.35754], [14.4695, 53.35736], [14.47078, 53.35674], [14.46876, 53.35645], [14.46619, 53.35541], [14.4666, 53.35594]]], [[[14.47625, 53.36767], [14.47618, 53.36763], [14.47615, 53.36811], [14.47664, 53.36792], [14.47625, 53.36767]]], [[[14.39818, 53.42185], [14.39844, 53.42225], [14.39983, 53.422], [14.39917, 53.42199], [14.39818, 53.42185]]], [[[14.4004, 53.42195], [14.40263, 53.42211], [14.40542, 53.42327], [14.40559, 53.42308], [14.40484, 53.42115], [14.40507, 53.42026], [14.40355, 53.42126], [14.4004, 53.42195]]], [[[14.44063, 53.38356], [14.44061, 53.38363], [14.44096, 53.38355], [14.44066, 53.38347], [14.44063, 53.38356]]], [[[14.45004, 53.37076], [14.4499, 53.37075], [14.44981, 53.37074], [14.44992, 53.37085], [14.45024, 53.37079], [14.45004, 53.37076]]], [[[14.39088, 53.45638], [14.39073, 53.45633], [14.391, 53.45671], [14.39103, 53.4567], [14.39088, 53.45638]]], [[[14.39805, 53.47502], [14.3991, 53.47736], [14.39916, 53.47535], [14.4013, 53.47256], [14.40265, 53.47264], [14.4028, 53.47126], [14.40383, 53.46993], [14.40169, 53.46981], [14.40076, 53.47019], [14.40045, 53.47337], [14.39805, 53.47502]]], [[[14.41741, 53.5071], [14.41708, 53.50732], [14.41792, 53.50863], [14.41986, 53.50898], [14.42118, 53.50965], [14.42312, 53.50937], [14.4239, 53.50813], [14.42292, 53.5066], [14.4228, 53.50534], [14.4236, 53.50358], [14.42547, 53.50238], [14.42461, 53.50154], [14.41766, 53.50283], [14.41798, 53.50446], [14.4187, 53.50485], [14.41817, 53.50609], [14.41715, 53.5059], [14.41655, 53.50625], [14.41717, 53.50624], [14.41741, 53.5071]]], [[[14.42192, 53.49297], [14.42192, 53.49296], [14.42192, 53.49294], [14.42193, 53.49298], [14.42192, 53.49297]]], [[[14.42172, 53.49227], [14.42076, 53.48921], [14.41942, 53.48944], [14.41872, 53.49019], [14.42071, 53.49117], [14.42183, 53.49264], [14.42172, 53.49227]]], [[[14.42949, 53.48658], [14.42892, 53.48755], [14.42766, 53.48834], [14.43116, 53.49966], [14.43291, 53.50188], [14.43347, 53.50408], [14.43452, 53.50442], [14.43683, 53.50284], [14.43482, 53.50265], [14.43291, 53.50118], [14.43301, 53.50084], [14.43376, 53.50002], [14.43852, 53.49888], [14.43876, 53.49848], [14.43804, 53.49802], [14.43921, 53.49699], [14.43832, 53.4952], [14.4392, 53.49395], [14.44063, 53.49333], [14.44317, 53.493], [14.44525, 53.4941], [14.44583, 53.49352], [14.44884, 53.4934], [14.44397, 53.48611], [14.44421, 53.48575], [14.44268, 53.48469], [14.43691, 53.48442], [14.43463, 53.48571], [14.42949, 53.48658]], [[14.43816, 53.48581], [14.43825, 53.4855], [14.44142, 53.48512], [14.44093, 53.48543], [14.43816, 53.48581]], [[14.44035, 53.48842], [14.44118, 53.48823], [14.44082, 53.48858], [14.43879, 53.48866], [14.44035, 53.48842]], [[14.4446, 53.49021], [14.44259, 53.49062], [14.44188, 53.49068], [14.44185, 53.49034], [14.44539, 53.48982], [14.44569, 53.49006], [14.44554, 53.49034], [14.4446, 53.49021]], [[14.44219, 53.49127], [14.44311, 53.49202], [14.44278, 53.49283], [14.44191, 53.49084], [14.44219, 53.49127]]], [[[14.45186, 53.48197], [14.45329, 53.48159], [14.45304, 53.48064], [14.45114, 53.48112], [14.45024, 53.48258], [14.45186, 53.48197]]], [[[14.44611, 53.51494], [14.44585, 53.51483], [14.44392, 53.51679], [14.44759, 53.51493], [14.44706, 53.51441], [14.44611, 53.51494]]], [[[14.43679, 53.51173], [14.43796, 53.51166], [14.43818, 53.51122], [14.43738, 53.51116], [14.43889, 53.50936], [14.43808, 53.50924], [14.4365, 53.51004], [14.43489, 53.5103], [14.43135, 53.50961], [14.43314, 53.51086], [14.43719, 53.51195], [14.43679, 53.51173]]], [[[14.40074, 53.34052], [14.40121, 53.34047], [14.40121, 53.3404], [14.40069, 53.34038], [14.40074, 53.34052]]], [[[14.40211, 53.34253], [14.40269, 53.34271], [14.40346, 53.34191], [14.40303, 53.34049], [14.40201, 53.34048], [14.40221, 53.34155], [14.40275, 53.34171], [14.40211, 53.34253]]], [[[14.45302, 53.321], [14.45392, 53.32114], [14.45184, 53.31941], [14.45131, 53.32041], [14.45016, 53.32112], [14.44728, 53.32147], [14.44853, 53.32406], [14.44775, 53.32659], [14.45063, 53.32554], [14.44871, 53.32405], [14.44904, 53.32215], [14.45055, 53.32131], [14.45302, 53.321]]], [[[14.4461, 53.3273], [14.44755, 53.32667], [14.44831, 53.32432], [14.44701, 53.32144], [14.44532, 53.32094], [14.44668, 53.3225], [14.44687, 53.32344], [14.44632, 53.32441], [14.44512, 53.3251], [14.44467, 53.32658], [14.44579, 53.32745], [14.4461, 53.3273]]], [[[14.444, 53.31909], [14.44412, 53.31861], [14.4437, 53.31958], [14.44412, 53.31982], [14.444, 53.31909]]], [[[14.40096, 53.47419], [14.40332, 53.47413], [14.40273, 53.47313], [14.40066, 53.47354], [14.40096, 53.47419]]], [[[14.43045, 53.35432], [14.43033, 53.35476], [14.43194, 53.35364], [14.43204, 53.35318], [14.43045, 53.35432]]], [[[14.4394, 53.4515], [14.44023, 53.4514], [14.44025, 53.45137], [14.43934, 53.45143], [14.4394, 53.4515]]], [[[14.43955, 53.45541], [14.43768, 53.45557], [14.43563, 53.45651], [14.43221, 53.45723], [14.43051, 53.45938], [14.42832, 53.46039], [14.42589, 53.46098], [14.42361, 53.46218], [14.42128, 53.46258], [14.41785, 53.46208], [14.41746, 53.4623], [14.41776, 53.46362], [14.42, 53.46419], [14.42187, 53.46547], [14.42276, 53.4691], [14.42426, 53.46891], [14.42612, 53.46646], [14.42818, 53.46565], [14.4275, 53.46365], [14.42919, 53.46151], [14.4312, 53.4607], [14.43345, 53.46043], [14.43569, 53.4607], [14.43751, 53.4614], [14.44002, 53.45954], [14.44131, 53.45839], [14.43943, 53.45668], [14.4391, 53.45693], [14.43867, 53.45607], [14.43939, 53.45592], [14.43955, 53.45541]]], [[[14.44491, 53.44712], [14.44492, 53.44715], [14.44528, 53.44704], [14.44486, 53.44699], [14.44491, 53.44712]]], [[[14.45049, 53.44672], [14.45051, 53.44673], [14.45058, 53.44673], [14.45049, 53.44672]]], [[[14.44992, 53.44691], [14.45015, 53.44668], [14.44954, 53.44658], [14.44878, 53.44677], [14.44992, 53.44691]]], [[[14.45219, 53.44679], [14.45098, 53.44708], [14.45272, 53.44767], [14.45277, 53.44678], [14.45219, 53.44679]]], [[[14.47753, 53.3553], [14.47765, 53.35513], [14.47686, 53.35547], [14.47719, 53.35568], [14.47753, 53.3553]]], [[[14.48354, 53.36618], [14.4845, 53.36732], [14.48686, 53.3667], [14.48083, 53.36061], [14.47779, 53.35932], [14.48354, 53.36618]]], [[[14.48804, 53.36639], [14.49295, 53.3651], [14.49315, 53.36465], [14.48925, 53.36561], [14.48676, 53.36533], [14.48804, 53.36639]]], [[[14.48505, 53.36333], [14.48633, 53.36186], [14.49126, 53.36004], [14.48981, 53.35825], [14.48943, 53.35837], [14.48957, 53.35792], [14.48848, 53.35753], [14.48786, 53.35881], [14.48645, 53.35988], [14.48258, 53.36076], [14.48505, 53.36333]]], [[[14.49561, 53.36861], [14.4909, 53.36985], [14.49405, 53.37211], [14.49542, 53.37362], [14.49857, 53.37272], [14.50159, 53.37253], [14.50192, 53.37067], [14.49919, 53.36958], [14.49793, 53.368], [14.49561, 53.36861]]], [[[14.49498, 53.37382], [14.49496, 53.37383], [14.495, 53.37382], [14.49498, 53.37382]]], [[[14.49355, 53.37412], [14.49296, 53.37466], [14.49174, 53.37344], [14.4928, 53.3731], [14.49241, 53.37278], [14.49329, 53.37221], [14.49025, 53.37002], [14.48839, 53.37051], [14.49083, 53.37167], [14.49003, 53.37148], [14.48858, 53.37185], [14.49183, 53.3756], [14.49306, 53.37572], [14.49437, 53.37418], [14.49355, 53.37412]]], [[[14.48947, 53.38139], [14.48853, 53.38034], [14.48833, 53.38036], [14.48797, 53.38109], [14.48947, 53.38139]]], [[[14.47424, 53.35623], [14.47586, 53.35641], [14.47606, 53.35626], [14.47558, 53.35592], [14.47424, 53.35623]]], [[[14.48017, 53.40603], [14.47981, 53.40613], [14.48008, 53.40676], [14.48083, 53.40597], [14.48017, 53.40603]]], [[[14.47509, 53.41174], [14.47457, 53.41107], [14.47351, 53.41127], [14.46838, 53.41341], [14.47058, 53.41436], [14.47177, 53.4144], [14.47288, 53.41281], [14.47509, 53.41174]]], [[[14.47469, 53.41105], [14.47521, 53.41171], [14.47867, 53.41145], [14.47864, 53.41111], [14.47661, 53.4105], [14.47469, 53.41105]]], [[[14.50908, 53.51547], [14.50915, 53.51558], [14.50926, 53.5156], [14.50921, 53.51557], [14.50908, 53.51547]]], [[[14.48102, 53.54597], [14.48027, 53.54609], [14.48036, 53.54622], [14.4815, 53.54589], [14.48102, 53.54597]]], [[[14.48064, 53.54678], [14.48071, 53.54804], [14.48179, 53.54931], [14.48338, 53.54899], [14.48155, 53.54666], [14.48064, 53.54678]]], [[[14.39903, 53.4779], [14.39896, 53.47815], [14.39908, 53.47817], [14.39905, 53.47782], [14.39903, 53.4779]]], [[[14.52378, 53.55673], [14.52794, 53.55867], [14.52945, 53.55752], [14.52873, 53.55559], [14.52729, 53.55532], [14.52707, 53.556], [14.52589, 53.55558], [14.5262, 53.55441], [14.52197, 53.55588], [14.52378, 53.55673]]], [[[14.67487, 53.36525], [14.67363, 53.3654], [14.67544, 53.36662], [14.677, 53.36647], [14.67734, 53.36606], [14.67685, 53.36561], [14.67487, 53.36525]]], [[[14.57945, 53.50902], [14.57783, 53.5112], [14.57917, 53.51144], [14.57886, 53.51195], [14.58245, 53.51296], [14.58326, 53.51338], [14.5824, 53.51337], [14.58371, 53.51419], [14.58339, 53.51273], [14.58433, 53.51311], [14.58567, 53.51211], [14.58799, 53.51138], [14.58752, 53.51038], [14.58879, 53.51034], [14.58915, 53.51127], [14.59108, 53.51138], [14.59187, 53.51061], [14.59333, 53.51012], [14.59293, 53.50943], [14.59205, 53.50943], [14.59146, 53.50597], [14.58954, 53.50605], [14.58959, 53.50681], [14.58855, 53.50683], [14.58846, 53.50589], [14.5854, 53.50615], [14.58522, 53.50572], [14.58115, 53.50582], [14.58008, 53.50565], [14.58042, 53.50535], [14.57798, 53.50498], [14.57925, 53.50666], [14.57945, 53.50902]], [[14.58219, 53.51186], [14.58163, 53.51157], [14.58281, 53.51231], [14.58219, 53.51186]]], [[[14.57961, 53.50476], [14.58277, 53.50462], [14.584, 53.50508], [14.58292, 53.50372], [14.58178, 53.50386], [14.57961, 53.50476]], [[14.58248, 53.50429], [14.5823, 53.50459], [14.5815, 53.50459], [14.58217, 53.50391], [14.58248, 53.50429]]], [[[14.58526, 53.50422], [14.58552, 53.50461], [14.58498, 53.50504], [14.58582, 53.50488], [14.58526, 53.50422]]], [[[14.59279, 53.50259], [14.59265, 53.50326], [14.5937, 53.50355], [14.59283, 53.50244], [14.59279, 53.50259]]], [[[14.60306, 53.51423], [14.60259, 53.51421], [14.60332, 53.51371], [14.60137, 53.51276], [14.60189, 53.51281], [14.6021, 53.5123], [14.60143, 53.51222], [14.60336, 53.51088], [14.59918, 53.51002], [14.59916, 53.50938], [14.59843, 53.50999], [14.59788, 53.50976], [14.59785, 53.50876], [14.59669, 53.50875], [14.59668, 53.50818], [14.59647, 53.50874], [14.5938, 53.50849], [14.59367, 53.50812], [14.59489, 53.50813], [14.59484, 53.50761], [14.59399, 53.5076], [14.59356, 53.50796], [14.59353, 53.51009], [14.59569, 53.51029], [14.59862, 53.51156], [14.59947, 53.51235], [14.59962, 53.51351], [14.60023, 53.51347], [14.60342, 53.51571], [14.60404, 53.51547], [14.60306, 53.51423]], [[14.59598, 53.51006], [14.59522, 53.50995], [14.59516, 53.50984], [14.59652, 53.50976], [14.59598, 53.51006]]], [[[14.57179, 53.49471], [14.57178, 53.49496], [14.57385, 53.49545], [14.57387, 53.49538], [14.57179, 53.49471]]], [[[14.60231, 53.53237], [14.60215, 53.53203], [14.60208, 53.53179], [14.60177, 53.53195], [14.60231, 53.53237]]], [[[14.7295, 53.38473], [14.73006, 53.38462], [14.73157, 53.38444], [14.7308, 53.38415], [14.72855, 53.38489], [14.7295, 53.38473]]], [[[14.56947, 53.31903], [14.56926, 53.3193], [14.56976, 53.32029], [14.57101, 53.31952], [14.56947, 53.31903]]], [[[14.57108, 53.31867], [14.57141, 53.31927], [14.57326, 53.31758], [14.57247, 53.31615], [14.57099, 53.31617], [14.57017, 53.3172], [14.56998, 53.31776], [14.57053, 53.3178], [14.57108, 53.31867]]], [[[14.57444, 53.30956], [14.5754, 53.31234], [14.57735, 53.30913], [14.57591, 53.30785], [14.57555, 53.30628], [14.57273, 53.30601], [14.57064, 53.30435], [14.57062, 53.30588], [14.57265, 53.307], [14.57297, 53.30839], [14.57391, 53.30863], [14.57397, 53.30814], [14.57444, 53.30956]]], [[[14.57074, 53.30412], [14.57101, 53.30411], [14.5709, 53.30366], [14.5703, 53.30414], [14.57074, 53.30412]]], [[[14.57029, 53.30331], [14.57118, 53.30352], [14.57359, 53.30114], [14.5706, 53.29981], [14.57046, 53.30021], [14.57166, 53.30123], [14.57158, 53.30205], [14.57055, 53.30175], [14.57024, 53.30198], [14.57029, 53.30331]]], [[[14.56918, 53.29966], [14.57059, 53.29981], [14.56956, 53.2993], [14.56724, 53.29915], [14.56706, 53.29924], [14.56918, 53.29966]]], [[[14.57522, 53.29692], [14.57801, 53.29826], [14.57605, 53.29339], [14.5784, 53.29841], [14.58195, 53.29984], [14.58448, 53.3015], [14.58513, 53.30097], [14.58481, 53.29993], [14.58571, 53.29681], [14.58862, 53.29449], [14.58768, 53.29373], [14.58466, 53.29372], [14.58493, 53.29095], [14.58316, 53.28969], [14.58153, 53.29079], [14.57918, 53.29145], [14.57718, 53.29133], [14.57517, 53.29046], [14.57567, 53.2919], [14.57702, 53.29239], [14.57693, 53.29312], [14.57483, 53.29312], [14.57557, 53.29557], [14.57522, 53.29692]]], [[[14.57414, 53.29241], [14.57422, 53.29153], [14.57494, 53.29138], [14.57478, 53.29022], [14.57376, 53.2889], [14.56821, 53.28872], [14.56868, 53.29003], [14.57212, 53.29097], [14.57414, 53.29241]]], [[[14.5656, 53.28809], [14.56427, 53.28733], [14.56285, 53.2884], [14.56483, 53.28811], [14.5656, 53.28809]]], [[[14.51952, 53.36531], [14.51858, 53.36437], [14.51818, 53.36428], [14.51937, 53.36528], [14.51952, 53.36531]]], [[[14.54612, 53.49309], [14.54361, 53.49267], [14.5429, 53.49328], [14.5452, 53.49389], [14.54612, 53.49309]]], [[[14.70822, 53.48712], [14.70624, 53.4876], [14.70407, 53.48731], [14.70174, 53.48871], [14.698, 53.48912], [14.69804, 53.49058], [14.70286, 53.49251], [14.70431, 53.4942], [14.70672, 53.49414], [14.70768, 53.49373], [14.70915, 53.49124], [14.70928, 53.49008], [14.70822, 53.48712]]], [[[14.70524, 53.51351], [14.70383, 53.513], [14.70006, 53.51296], [14.69761, 53.51197], [14.69358, 53.51378], [14.69098, 53.51385], [14.68727, 53.51316], [14.68305, 53.51416], [14.6841, 53.51429], [14.68465, 53.51508], [14.68404, 53.51523], [14.68384, 53.5147], [14.6833, 53.51472], [14.68251, 53.51869], [14.68477, 53.52061], [14.68492, 53.52192], [14.68414, 53.52329], [14.68506, 53.52462], [14.68913, 53.52445], [14.6926, 53.52363], [14.69516, 53.52424], [14.70242, 53.52506], [14.70868, 53.52439], [14.71305, 53.52475], [14.7126, 53.52414], [14.70962, 53.52405], [14.70935, 53.52206], [14.71101, 53.52188], [14.71088, 53.52141], [14.70928, 53.52158], [14.70894, 53.51912], [14.7059, 53.52049], [14.70589, 53.5209], [14.70456, 53.52097], [14.70142, 53.52033], [14.699, 53.51907], [14.69823, 53.51907], [14.69812, 53.5166], [14.69921, 53.51503], [14.70142, 53.51394], [14.70524, 53.51351]], [[14.68917, 53.51814], [14.69247, 53.5185], [14.6834, 53.5177], [14.68407, 53.51768], [14.68917, 53.51814]], [[14.69589, 53.51866], [14.69586, 53.5184], [14.69717, 53.51851], [14.69698, 53.51863], [14.69589, 53.51866]], [[14.69867, 53.52209], [14.69956, 53.52214], [14.69947, 53.52249], [14.69841, 53.52245], [14.69867, 53.52209]]], [[[14.74116, 53.52536], [14.7394, 53.5234], [14.73902, 53.52029], [14.7367, 53.52212], [14.73396, 53.52312], [14.73495, 53.52541], [14.73352, 53.52948], [14.74116, 53.52536]]], [[[14.73059, 53.53097], [14.72891, 53.5312], [14.72767, 53.53118], [14.72853, 53.53192], [14.73059, 53.53097]]], [[[14.71524, 53.53787], [14.71401, 53.5367], [14.71361, 53.53538], [14.68723, 53.532], [14.68651, 53.53297], [14.68309, 53.53485], [14.68276, 53.53627], [14.68073, 53.53835], [14.68216, 53.54345], [14.6812, 53.54477], [14.67733, 53.54751], [14.68005, 53.54876], [14.68272, 53.54917], [14.69098, 53.54687], [14.71074, 53.53988], [14.71524, 53.53787]], [[14.69301, 53.53557], [14.69234, 53.53822], [14.68981, 53.53821], [14.69004, 53.53557], [14.69301, 53.53557]], [[14.68377, 53.54552], [14.68451, 53.54542], [14.68483, 53.54558], [14.6836, 53.5461], [14.68325, 53.54566], [14.68377, 53.54552]], [[14.70639, 53.53835], [14.70599, 53.53876], [14.7055, 53.53865], [14.70556, 53.53843], [14.70639, 53.53835]], [[14.70485, 53.53863], [14.70421, 53.53879], [14.70397, 53.53849], [14.70474, 53.53841], [14.70485, 53.53863]]], [[[14.64399, 53.53268], [14.64585, 53.5327], [14.64754, 53.53329], [14.64704, 53.53191], [14.64534, 53.53166], [14.64499, 53.53071], [14.64546, 53.53058], [14.64473, 53.53006], [14.64556, 53.52891], [14.64431, 53.52842], [14.64379, 53.52959], [14.64211, 53.53044], [14.6428, 53.5307], [14.64294, 53.53141], [14.64214, 53.53083], [14.64148, 53.53113], [14.64177, 53.53051], [14.64015, 53.53066], [14.64098, 53.53106], [14.64094, 53.53325], [14.64199, 53.53342], [14.64356, 53.53273], [14.64312, 53.53147], [14.64406, 53.53131], [14.64399, 53.53268]]], [[[14.64752, 53.53207], [14.6476, 53.53191], [14.64753, 53.53189], [14.64742, 53.53204], [14.64752, 53.53207]]], [[[14.64766, 53.53181], [14.64814, 53.53089], [14.64963, 53.53061], [14.64887, 53.52964], [14.64734, 53.52984], [14.64559, 53.52948], [14.64514, 53.53009], [14.64615, 53.53032], [14.64582, 53.53104], [14.64689, 53.53107], [14.64631, 53.5314], [14.64766, 53.53181]]], [[[14.67089, 53.55235], [14.66977, 53.55184], [14.66774, 53.55204], [14.66784, 53.55316], [14.67089, 53.55235]]], [[[14.6475, 53.54479], [14.64729, 53.54674], [14.652, 53.54822], [14.65384, 53.54656], [14.65468, 53.5468], [14.65292, 53.54911], [14.65386, 53.54912], [14.65455, 53.54834], [14.65736, 53.54925], [14.66518, 53.54966], [14.66688, 53.55034], [14.66768, 53.55162], [14.66953, 53.55165], [14.66804, 53.54773], [14.6613, 53.54514], [14.65796, 53.5432], [14.65506, 53.54212], [14.65246, 53.54426], [14.6475, 53.54479]], [[14.65581, 53.54417], [14.6554, 53.54581], [14.65428, 53.54586], [14.65553, 53.54439], [14.65581, 53.54417]]], [[[14.64771, 53.54459], [14.64748, 53.54454], [14.64739, 53.54452], [14.64743, 53.54462], [14.64771, 53.54459]]], [[[14.42229, 53.52193], [14.4221, 53.52215], [14.421, 53.52325], [14.42192, 53.52321], [14.42229, 53.52193]]], [[[14.5618, 53.48418], [14.56133, 53.48427], [14.56224, 53.48551], [14.56419, 53.4869], [14.56506, 53.48655], [14.56217, 53.48409], [14.5618, 53.48418]]], [[[14.59709, 53.28444], [14.59722, 53.28678], [14.59803, 53.28688], [14.5991, 53.28532], [14.59856, 53.28455], [14.6001, 53.28559], [14.59982, 53.28701], [14.60202, 53.28723], [14.59977, 53.28784], [14.59813, 53.28765], [14.59843, 53.28921], [14.59992, 53.28996], [14.60544, 53.28476], [14.6004, 53.28453], [14.60023, 53.28482], [14.59899, 53.28448], [14.59709, 53.28444]]], [[[14.5849, 53.31495], [14.58551, 53.31513], [14.58761, 53.31094], [14.58751, 53.30994], [14.58388, 53.31008], [14.58337, 53.31079], [14.58394, 53.31171], [14.58375, 53.31278], [14.58289, 53.31373], [14.58126, 53.31443], [14.5849, 53.31495]]], [[[14.6054, 53.30298], [14.60494, 53.30342], [14.60808, 53.30439], [14.60992, 53.30574], [14.6105, 53.30741], [14.60997, 53.30902], [14.61255, 53.30835], [14.61124, 53.30785], [14.6109, 53.30682], [14.61142, 53.3064], [14.61537, 53.30738], [14.61729, 53.30744], [14.61899, 53.30465], [14.61179, 53.30349], [14.60619, 53.302], [14.6054, 53.30298]]], [[[14.60718, 53.31551], [14.60874, 53.31512], [14.60816, 53.31399], [14.60837, 53.31252], [14.60665, 53.31294], [14.60494, 53.31286], [14.6026, 53.31217], [14.60147, 53.31144], [14.60069, 53.31239], [14.60211, 53.31359], [14.60604, 53.31485], [14.60718, 53.31551]]], [[[14.59757, 53.31679], [14.59852, 53.31677], [14.60014, 53.31571], [14.60203, 53.31524], [14.60704, 53.31558], [14.60282, 53.31417], [14.60065, 53.31261], [14.60009, 53.31406], [14.59757, 53.31679]]], [[[14.6095, 53.29144], [14.6081, 53.29364], [14.60959, 53.29414], [14.61015, 53.29391], [14.61024, 53.29291], [14.61234, 53.29172], [14.6095, 53.29144]]], [[[14.5796, 53.32015], [14.57858, 53.32374], [14.5803, 53.32381], [14.57985, 53.32271], [14.58013, 53.32126], [14.58232, 53.31949], [14.58141, 53.31942], [14.5796, 53.32015]]], [[[14.50395, 53.50882], [14.50404, 53.50905], [14.50449, 53.50897], [14.50403, 53.50884], [14.50395, 53.50882]]], [[[14.50573, 53.50933], [14.50529, 53.5092], [14.50382, 53.50975], [14.50529, 53.51043], [14.50548, 53.50995], [14.50703, 53.50964], [14.50573, 53.50933]]], [[[14.73462, 53.33452], [14.73473, 53.33441], [14.73483, 53.33434], [14.73453, 53.33447], [14.73462, 53.33452]]], [[[14.59542, 53.29963], [14.59662, 53.30078], [14.59898, 53.30185], [14.60011, 53.30072], [14.60053, 53.29647], [14.59958, 53.29661], [14.59542, 53.29963]]], [[[14.77288, 53.42473], [14.77375, 53.42482], [14.7755, 53.42548], [14.77572, 53.42488], [14.77441, 53.42449], [14.77288, 53.42473]]], [[[14.73203, 53.50397], [14.73281, 53.50548], [14.73535, 53.50468], [14.73784, 53.50465], [14.73814, 53.50091], [14.73588, 53.50045], [14.73048, 53.50128], [14.7288, 53.50085], [14.72753, 53.49993], [14.72706, 53.50028], [14.72859, 53.50177], [14.73115, 53.50252], [14.73203, 53.50397]]], [[[14.72227, 53.49768], [14.7181, 53.49718], [14.71877, 53.49801], [14.72227, 53.49768]]], [[[14.74471, 53.50771], [14.74528, 53.50817], [14.74547, 53.50815], [14.74539, 53.5077], [14.74471, 53.50771]]], [[[14.74447, 53.50691], [14.74425, 53.50742], [14.74538, 53.50762], [14.74523, 53.50669], [14.74447, 53.50691]]], [[[14.74434, 53.50481], [14.74444, 53.50578], [14.74491, 53.50558], [14.74502, 53.506], [14.74447, 53.50609], [14.74451, 53.5066], [14.74521, 53.5066], [14.74433, 53.50269], [14.74434, 53.50481]]], [[[14.72223, 53.50891], [14.72298, 53.50914], [14.72319, 53.50911], [14.72232, 53.50893], [14.72223, 53.50891]]], [[[14.61826, 53.29096], [14.61612, 53.29144], [14.61757, 53.29249], [14.61644, 53.29291], [14.61919, 53.29493], [14.61635, 53.29483], [14.61455, 53.29522], [14.6152, 53.29616], [14.619, 53.29666], [14.62125, 53.29602], [14.62407, 53.29605], [14.61976, 53.29212], [14.61827, 53.29218], [14.61922, 53.29177], [14.61826, 53.29096]], [[14.61924, 53.29612], [14.61927, 53.29634], [14.61857, 53.29624], [14.61871, 53.29611], [14.61924, 53.29612]]], [[[14.62526, 53.29632], [14.62781, 53.29751], [14.6326, 53.29584], [14.63399, 53.29309], [14.63327, 53.29075], [14.62849, 53.29216], [14.62645, 53.29211], [14.6231, 53.2911], [14.62264, 53.29178], [14.62038, 53.29151], [14.61977, 53.29172], [14.62294, 53.29425], [14.62349, 53.29419], [14.62343, 53.29464], [14.62534, 53.29525], [14.62431, 53.29554], [14.62526, 53.29632]]], [[[14.62097, 53.29054], [14.61967, 53.29024], [14.61871, 53.29078], [14.61977, 53.29147], [14.62097, 53.29054]]], [[[14.44905, 53.48576], [14.45082, 53.48475], [14.4499, 53.48408], [14.44968, 53.48497], [14.44905, 53.48576]]], [[[14.64731, 53.52934], [14.6471, 53.5293], [14.64672, 53.52924], [14.64721, 53.52941], [14.64731, 53.52934]]], [[[14.59515, 53.43512], [14.59518, 53.43506], [14.59528, 53.43485], [14.59513, 53.43485], [14.59515, 53.43512]]], [[[14.72212, 53.53065], [14.72279, 53.53059], [14.72098, 53.52951], [14.71958, 53.53024], [14.71756, 53.53044], [14.71298, 53.52961], [14.71011, 53.5286], [14.70282, 53.5293], [14.69651, 53.5285], [14.69549, 53.52876], [14.71528, 53.53127], [14.72212, 53.53065]]], [[[14.52683, 53.37386], [14.5283, 53.37399], [14.52734, 53.37231], [14.52531, 53.37112], [14.52683, 53.37386]]], [[[14.6313, 53.54903], [14.63132, 53.54903], [14.63131, 53.54903], [14.6313, 53.54903]]], [[[14.63724, 53.54188], [14.6372, 53.54251], [14.63874, 53.54226], [14.63726, 53.54182], [14.63724, 53.54188]]], [[[14.65576, 53.53739], [14.65558, 53.53729], [14.65546, 53.53722], [14.65593, 53.53748], [14.65576, 53.53739]]], [[[14.66581, 53.5388], [14.66485, 53.53859], [14.66422, 53.53917], [14.66729, 53.54015], [14.66581, 53.5388]]], [[[14.62043, 53.56003], [14.62044, 53.56], [14.62036, 53.55999], [14.62043, 53.56003]]], [[[14.65923, 53.42681], [14.65961, 53.42831], [14.6584, 53.42954], [14.65974, 53.43078], [14.66573, 53.42998], [14.65923, 53.42681]]], [[[14.66883, 53.54252], [14.6686, 53.54155], [14.66834, 53.54141], [14.66825, 53.54238], [14.66883, 53.54252]]], [[[14.7095, 53.51851], [14.70945, 53.51858], [14.71002, 53.5185], [14.71001, 53.51849], [14.7095, 53.51851]]]]}, "properties": {"kind": "windland", "area_km2": 49.48}}, {"type": "Feature", "geometry": {"type": "Point", "coordinates": [14.59284, 53.43349]}, "properties": {"kind": "turbine", "i": 0, "mw": 6.0, "hub_m": 120.0, "rotor_m": 150.0}}, {"type": "Feature", "geometry": {"type": "Point", "coordinates": [14.62619, 53.39093]}, "properties": {"kind": "turbine", "i": 1, "mw": 6.0, "hub_m": 120.0, "rotor_m": 150.0}}, {"type": "Feature", "geometry": {"type": "Point", "coordinates": [14.66437, 53.42387]}, "properties": {"kind": "turbine", "i": 2, "mw": 6.0, "hub_m": 120.0, "rotor_m": 150.0}}, {"type": "Feature", "geometry": {"type": "Point", "coordinates": [14.66994, 53.41404]}, "properties": {"kind": "turbine", "i": 3, "mw": 6.0, "hub_m": 120.0, "rotor_m": 150.0}}, {"type": "Feature", "geometry": {"type": "Point", "coordinates": [14.68083, 53.4272]}, "properties": {"kind": "turbine", "i": 4, "mw": 6.0, "hub_m": 120.0, "rotor_m": 150.0}}, {"type": "Feature", "geometry": {"type": "Point", "coordinates": [14.6864, 53.41736]}, "properties": {"kind": "turbine", "i": 5, "mw": 6.0, "hub_m": 120.0, "rotor_m": 150.0}}, {"type": "Feature", "geometry": {"type": "Point", "coordinates": [14.47217, 53.41333]}, "properties": {"kind": "turbine", "i": 6, "mw": 6.0, "hub_m": 120.0, "rotor_m": 150.0}}, {"type": "Feature", "geometry": {"type": "Point", "coordinates": [14.70283, 53.42397]}, "properties": {"kind": "turbine", "i": 7, "mw": 6.0, "hub_m": 120.0, "rotor_m": 150.0}}, {"type": "Feature", "geometry": {"type": "Point", "coordinates": [14.70826, 53.43383]}, "properties": {"kind": "turbine", "i": 8, "mw": 6.0, "hub_m": 120.0, "rotor_m": 150.0}}, {"type": "Feature", "geometry": {"type": "Point", "coordinates": [14.48917, 53.37073]}, "properties": {"kind": "turbine", "i": 9, "mw": 6.0, "hub_m": 120.0, "rotor_m": 150.0}}, {"type": "Feature", "geometry": {"type": "Point", "coordinates": [14.45578, 53.40669]}, "properties": {"kind": "turbine", "i": 10, "mw": 6.0, "hub_m": 120.0, "rotor_m": 150.0}}, {"type": "Feature", "geometry": {"type": "Point", "coordinates": [14.55368, 53.499]}, "properties": {"kind": "turbine", "i": 11, "mw": 6.0, "hub_m": 120.0, "rotor_m": 150.0}}, {"type": "Feature", "geometry": {"type": "Point", "coordinates": [14.46144, 53.39359]}, "properties": {"kind": "turbine", "i": 12, "mw": 6.0, "hub_m": 120.0, "rotor_m": 150.0}}, {"type": "Feature", "geometry": {"type": "Point", "coordinates": [14.71919, 53.4437]}, "properties": {"kind": "turbine", "i": 13, "mw": 6.0, "hub_m": 120.0, "rotor_m": 150.0}}, {"type": "Feature", "geometry": {"type": "Point", "coordinates": [14.58278, 53.33827]}, "properties": {"kind": "turbine", "i": 14, "mw": 6.0, "hub_m": 120.0, "rotor_m": 150.0}}, {"type": "Feature", "geometry": {"type": "Point", "coordinates": [14.58111, 53.50894]}, "properties": {"kind": "turbine", "i": 15, "mw": 6.0, "hub_m": 120.0, "rotor_m": 150.0}}, {"type": "Feature", "geometry": {"type": "Point", "coordinates": [14.43934, 53.40333]}, "properties": {"kind": "turbine", "i": 16, "mw": 6.0, "hub_m": 120.0, "rotor_m": 150.0}}, {"type": "Feature", "geometry": {"type": "Point", "coordinates": [14.54257, 53.5088]}, "properties": {"kind": "turbine", "i": 17, "mw": 6.0, "hub_m": 120.0, "rotor_m": 150.0}}, {"type": "Feature", "geometry": {"type": "Point", "coordinates": [14.56636, 53.33493]}, "properties": {"kind": "turbine", "i": 18, "mw": 6.0, "hub_m": 120.0, "rotor_m": 150.0}}, {"type": "Feature", "geometry": {"type": "Point", "coordinates": [14.43333, 53.44269]}, "properties": {"kind": "turbine", "i": 19, "mw": 6.0, "hub_m": 120.0, "rotor_m": 150.0}}, {"type": "Feature", "geometry": {"type": "Point", "coordinates": [14.43865, 53.45584]}, "properties": {"kind": "turbine", "i": 20, "mw": 6.0, "hub_m": 120.0, "rotor_m": 150.0}}, {"type": "Feature", "geometry": {"type": "Point", "coordinates": [14.45624, 53.37059]}, "properties": {"kind": "turbine", "i": 21, "mw": 6.0, "hub_m": 120.0, "rotor_m": 150.0}}, {"type": "Feature", "geometry": {"type": "Point", "coordinates": [14.47286, 53.35753]}, "properties": {"kind": "turbine", "i": 22, "mw": 6.0, "hub_m": 120.0, "rotor_m": 150.0}}, {"type": "Feature", "geometry": {"type": "Point", "coordinates": [14.60307, 53.51558]}, "properties": {"kind": "turbine", "i": 23, "mw": 6.0, "hub_m": 120.0, "rotor_m": 150.0}}, {"type": "Feature", "geometry": {"type": "Point", "coordinates": [14.73012, 53.45358]}, "properties": {"kind": "turbine", "i": 24, "mw": 6.0, "hub_m": 120.0, "rotor_m": 150.0}}, {"type": "Feature", "geometry": {"type": "Point", "coordinates": [14.70238, 53.48961]}, "properties": {"kind": "turbine", "i": 25, "mw": 6.0, "hub_m": 120.0, "rotor_m": 150.0}}, {"type": "Feature", "geometry": {"type": "Point", "coordinates": [14.41702, 53.42948]}, "properties": {"kind": "turbine", "i": 26, "mw": 6.0, "hub_m": 120.0, "rotor_m": 150.0}}, {"type": "Feature", "geometry": {"type": "Point", "coordinates": [14.7245, 53.47326]}, "properties": {"kind": "turbine", "i": 27, "mw": 6.0, "hub_m": 120.0, "rotor_m": 150.0}}, {"type": "Feature", "geometry": {"type": "Point", "coordinates": [14.73556, 53.46343]}, "properties": {"kind": "turbine", "i": 28, "mw": 6.0, "hub_m": 120.0, "rotor_m": 150.0}}, {"type": "Feature", "geometry": {"type": "Point", "coordinates": [14.45088, 53.36071]}, "properties": {"kind": "turbine", "i": 29, "mw": 6.0, "hub_m": 120.0, "rotor_m": 150.0}}, {"type": "Feature", "geometry": {"type": "Point", "coordinates": [14.41742, 53.39994]}, "properties": {"kind": "turbine", "i": 30, "mw": 6.0, "hub_m": 120.0, "rotor_m": 150.0}}, {"type": "Feature", "geometry": {"type": "Point", "coordinates": [14.51493, 53.51854]}, "properties": {"kind": "turbine", "i": 31, "mw": 6.0, "hub_m": 120.0, "rotor_m": 150.0}}, {"type": "Feature", "geometry": {"type": "Point", "coordinates": [14.41755, 53.3901]}, "properties": {"kind": "turbine", "i": 32, "mw": 6.0, "hub_m": 120.0, "rotor_m": 150.0}}, {"type": "Feature", "geometry": {"type": "Point", "coordinates": [14.7524, 53.40439]}, "properties": {"kind": "turbine", "i": 33, "mw": 6.0, "hub_m": 120.0, "rotor_m": 150.0}}, {"type": "Feature", "geometry": {"type": "Point", "coordinates": [14.72443, 53.4831]}, "properties": {"kind": "turbine", "i": 34, "mw": 6.0, "hub_m": 120.0, "rotor_m": 150.0}}, {"type": "Feature", "geometry": {"type": "Point", "coordinates": [14.42202, 53.46561]}, "properties": {"kind": "turbine", "i": 35, "mw": 6.0, "hub_m": 120.0, "rotor_m": 150.0}}, {"type": "Feature", "geometry": {"type": "Point", "coordinates": [14.46202, 53.34764]}, "properties": {"kind": "turbine", "i": 36, "mw": 6.0, "hub_m": 120.0, "rotor_m": 150.0}}, {"type": "Feature", "geometry": {"type": "Point", "coordinates": [14.75215, 53.44706]}, "properties": {"kind": "turbine", "i": 37, "mw": 6.0, "hub_m": 120.0, "rotor_m": 150.0}}, {"type": "Feature", "geometry": {"type": "Point", "coordinates": [14.47859, 53.33786]}, "properties": {"kind": "turbine", "i": 38, "mw": 6.0, "hub_m": 120.0, "rotor_m": 150.0}}, {"type": "Feature", "geometry": {"type": "Point", "coordinates": [14.43826, 53.48538]}, "properties": {"kind": "turbine", "i": 39, "mw": 6.0, "hub_m": 120.0, "rotor_m": 150.0}}, {"type": "Feature", "geometry": {"type": "Point", "coordinates": [14.56105, 53.3185]}, "properties": {"kind": "turbine", "i": 40, "mw": 6.0, "hub_m": 120.0, "rotor_m": 150.0}}, {"type": "Feature", "geometry": {"type": "Point", "coordinates": [14.41984, 53.37867]}, "properties": {"kind": "turbine", "i": 41, "mw": 6.0, "hub_m": 120.0, "rotor_m": 150.0}}, {"type": "Feature", "geometry": {"type": "Point", "coordinates": [14.71886, 53.49294]}, "properties": {"kind": "turbine", "i": 42, "mw": 6.0, "hub_m": 120.0, "rotor_m": 150.0}}, {"type": "Feature", "geometry": {"type": "Point", "coordinates": [14.59945, 53.31535]}, "properties": {"kind": "turbine", "i": 43, "mw": 6.0, "hub_m": 120.0, "rotor_m": 150.0}}, {"type": "Feature", "geometry": {"type": "Point", "coordinates": [14.74098, 53.47657]}, "properties": {"kind": "turbine", "i": 44, "mw": 6.0, "hub_m": 120.0, "rotor_m": 150.0}}, {"type": "Feature", "geometry": {"type": "Point", "coordinates": [14.42889, 53.36389]}, "properties": {"kind": "turbine", "i": 45, "mw": 6.0, "hub_m": 120.0, "rotor_m": 150.0}}, {"type": "Feature", "geometry": {"type": "Point", "coordinates": [14.40566, 53.45568]}, "properties": {"kind": "turbine", "i": 46, "mw": 6.0, "hub_m": 120.0, "rotor_m": 150.0}}, {"type": "Feature", "geometry": {"type": "Point", "coordinates": [14.75204, 53.46675]}, "properties": {"kind": "turbine", "i": 47, "mw": 6.0, "hub_m": 120.0, "rotor_m": 150.0}}, {"type": "Feature", "geometry": {"type": "Point", "coordinates": [14.40104, 53.3933]}, "properties": {"kind": "turbine", "i": 48, "mw": 6.0, "hub_m": 120.0, "rotor_m": 150.0}}, {"type": "Feature", "geometry": {"type": "Point", "coordinates": [14.69671, 53.51257]}, "properties": {"kind": "turbine", "i": 49, "mw": 6.0, "hub_m": 120.0, "rotor_m": 150.0}}, {"type": "Feature", "geometry": {"type": "Point", "coordinates": [14.45666, 53.33776]}, "properties": {"kind": "turbine", "i": 50, "mw": 6.0, "hub_m": 120.0, "rotor_m": 150.0}}, {"type": "Feature", "geometry": {"type": "Point", "coordinates": [14.74092, 53.48642]}, "properties": {"kind": "turbine", "i": 51, "mw": 6.0, "hub_m": 120.0, "rotor_m": 150.0}}, {"type": "Feature", "geometry": {"type": "Point", "coordinates": [14.43263, 53.4952]}, "properties": {"kind": "turbine", "i": 52, "mw": 6.0, "hub_m": 120.0, "rotor_m": 150.0}}, {"type": "Feature", "geometry": {"type": "Point", "coordinates": [14.64148, 53.53212]}, "properties": {"kind": "turbine", "i": 53, "mw": 6.0, "hub_m": 120.0, "rotor_m": 150.0}}, {"type": "Feature", "geometry": {"type": "Point", "coordinates": [14.40002, 53.4655]}, "properties": {"kind": "turbine", "i": 54, "mw": 6.0, "hub_m": 120.0, "rotor_m": 150.0}}, {"type": "Feature", "geometry": {"type": "Point", "coordinates": [14.68562, 53.52239]}, "properties": {"kind": "turbine", "i": 55, "mw": 6.0, "hub_m": 120.0, "rotor_m": 150.0}}, {"type": "Feature", "geometry": {"type": "Point", "coordinates": [14.38419, 53.41947]}, "properties": {"kind": "turbine", "i": 56, "mw": 6.0, "hub_m": 120.0, "rotor_m": 150.0}}, {"type": "Feature", "geometry": {"type": "Point", "coordinates": [14.5918, 53.5418]}, "properties": {"kind": "turbine", "i": 57, "mw": 6.0, "hub_m": 120.0, "rotor_m": 150.0}}, {"type": "Feature", "geometry": {"type": "Point", "coordinates": [14.38433, 53.40962]}, "properties": {"kind": "turbine", "i": 58, "mw": 6.0, "hub_m": 120.0, "rotor_m": 150.0}}, {"type": "Feature", "geometry": {"type": "Point", "coordinates": [14.6105, 53.30554]}, "properties": {"kind": "turbine", "i": 59, "mw": 6.0, "hub_m": 120.0, "rotor_m": 150.0}}, {"type": "Feature", "geometry": {"type": "Point", "coordinates": [14.46226, 53.32794]}, "properties": {"kind": "turbine", "i": 60, "mw": 6.0, "hub_m": 120.0, "rotor_m": 150.0}}, {"type": "Feature", "geometry": {"type": "Point", "coordinates": [14.39573, 53.38014]}, "properties": {"kind": "turbine", "i": 61, "mw": 6.0, "hub_m": 120.0, "rotor_m": 150.0}}, {"type": "Feature", "geometry": {"type": "Point", "coordinates": [14.41805, 53.35399]}, "properties": {"kind": "turbine", "i": 62, "mw": 6.0, "hub_m": 120.0, "rotor_m": 150.0}}, {"type": "Feature", "geometry": {"type": "Point", "coordinates": [14.76299, 53.47662]}, "properties": {"kind": "turbine", "i": 63, "mw": 6.0, "hub_m": 120.0, "rotor_m": 150.0}}, {"type": "Feature", "geometry": {"type": "Point", "coordinates": [14.72536, 53.33868]}, "properties": {"kind": "turbine", "i": 64, "mw": 6.0, "hub_m": 120.0, "rotor_m": 150.0}}, {"type": "Feature", "geometry": {"type": "Point", "coordinates": [14.74636, 53.49628]}, "properties": {"kind": "turbine", "i": 65, "mw": 6.0, "hub_m": 120.0, "rotor_m": 150.0}}, {"type": "Feature", "geometry": {"type": "Point", "coordinates": [14.55026, 53.30205]}, "properties": {"kind": "turbine", "i": 66, "mw": 6.0, "hub_m": 120.0, "rotor_m": 150.0}}, {"type": "Feature", "geometry": {"type": "Point", "coordinates": [14.43791, 53.51164]}, "properties": {"kind": "turbine", "i": 67, "mw": 6.0, "hub_m": 120.0, "rotor_m": 150.0}}, {"type": "Feature", "geometry": {"type": "Point", "coordinates": [14.52283, 53.30522]}, "properties": {"kind": "turbine", "i": 68, "mw": 6.0, "hub_m": 120.0, "rotor_m": 150.0}}, {"type": "Feature", "geometry": {"type": "Point", "coordinates": [14.70765, 53.52245]}, "properties": {"kind": "turbine", "i": 69, "mw": 6.0, "hub_m": 120.0, "rotor_m": 150.0}}, {"type": "Feature", "geometry": {"type": "Point", "coordinates": [14.58317, 53.29889]}, "properties": {"kind": "turbine", "i": 70, "mw": 6.0, "hub_m": 120.0, "rotor_m": 150.0}}, {"type": "Feature", "geometry": {"type": "Point", "coordinates": [14.76293, 53.48647]}, "properties": {"kind": "turbine", "i": 71, "mw": 6.0, "hub_m": 120.0, "rotor_m": 150.0}}, {"type": "Feature", "geometry": {"type": "Point", "coordinates": [14.42149, 53.505]}, "properties": {"kind": "turbine", "i": 72, "mw": 6.0, "hub_m": 120.0, "rotor_m": 150.0}}, {"type": "Feature", "geometry": {"type": "Point", "coordinates": [14.41818, 53.34415]}, "properties": {"kind": "turbine", "i": 73, "mw": 6.0, "hub_m": 120.0, "rotor_m": 150.0}}, {"type": "Feature", "geometry": {"type": "Point", "coordinates": [14.39038, 53.37027]}, "properties": {"kind": "turbine", "i": 74, "mw": 6.0, "hub_m": 120.0, "rotor_m": 150.0}}, {"type": "Feature", "geometry": {"type": "Point", "coordinates": [14.37349, 53.39972]}, "properties": {"kind": "turbine", "i": 75, "mw": 6.0, "hub_m": 120.0, "rotor_m": 150.0}}, {"type": "Feature", "geometry": {"type": "Point", "coordinates": [14.37807, 53.46211]}, "properties": {"kind": "turbine", "i": 76, "mw": 6.0, "hub_m": 120.0, "rotor_m": 150.0}}, {"type": "Feature", "geometry": {"type": "Point", "coordinates": [14.68552, 53.53552]}, "properties": {"kind": "turbine", "i": 77, "mw": 6.0, "hub_m": 120.0, "rotor_m": 150.0}}, {"type": "Feature", "geometry": {"type": "Point", "coordinates": [14.37363, 53.38987]}, "properties": {"kind": "turbine", "i": 78, "mw": 6.0, "hub_m": 120.0, "rotor_m": 150.0}}, {"type": "Feature", "geometry": {"type": "Point", "coordinates": [14.65239, 53.54528]}, "properties": {"kind": "turbine", "i": 79, "mw": 6.0, "hub_m": 120.0, "rotor_m": 150.0}}, {"type": "Feature", "geometry": {"type": "Point", "coordinates": [14.40164, 53.35063]}, "properties": {"kind": "turbine", "i": 80, "mw": 6.0, "hub_m": 120.0, "rotor_m": 150.0}}, {"type": "Feature", "geometry": {"type": "Point", "coordinates": [14.61062, 53.29241]}, "properties": {"kind": "turbine", "i": 81, "mw": 6.0, "hub_m": 120.0, "rotor_m": 150.0}}, {"type": "Feature", "geometry": {"type": "Point", "coordinates": [14.76838, 53.49632]}, "properties": {"kind": "turbine", "i": 82, "mw": 6.0, "hub_m": 120.0, "rotor_m": 150.0}}, {"type": "Feature", "geometry": {"type": "Point", "coordinates": [14.37242, 53.47193]}, "properties": {"kind": "turbine", "i": 83, "mw": 6.0, "hub_m": 120.0, "rotor_m": 150.0}}, {"type": "Feature", "geometry": {"type": "Point", "coordinates": [14.63253, 53.29248]}, "properties": {"kind": "turbine", "i": 84, "mw": 6.0, "hub_m": 120.0, "rotor_m": 150.0}}, {"type": "Feature", "geometry": {"type": "Point", "coordinates": [14.57231, 53.289]}, "properties": {"kind": "turbine", "i": 85, "mw": 6.0, "hub_m": 120.0, "rotor_m": 150.0}}]}