{"type": "FeatureCollection", "features": [{"type": "Feature", "geometry": {"type": "MultiPolygon", "coordinates": [[[[5.74661, 51.09295], [5.74821, 51.09028], [5.74617, 51.08986], [5.74464, 51.08905], [5.74439, 51.09098], [5.74602, 51.0918], [5.74661, 51.09295]]], [[[5.74657, 51.07789], [5.74437, 51.0776], [5.74226, 51.07685], [5.74066, 51.07675], [5.73989, 51.07705], [5.74151, 51.07794], [5.74328, 51.07741], [5.74501, 51.07851], [5.74636, 51.0779], [5.7451, 51.07858], [5.74841, 51.08019], [5.74835, 51.07904], [5.74657, 51.07789]]], [[[5.72276, 51.07698], [5.72058, 51.07773], [5.71853, 51.07794], [5.71854, 51.0783], [5.72152, 51.07899], [5.72276, 51.07698]]], [[[5.72156, 51.07924], [5.7187, 51.07855], [5.71926, 51.07943], [5.72123, 51.07988], [5.72156, 51.07924]]], [[[5.72381, 51.07974], [5.72339, 51.08047], [5.72453, 51.08069], [5.72522, 51.08008], [5.72381, 51.07974]]], [[[5.73596, 51.0731], [5.7335, 51.07299], [5.73379, 51.07492], [5.73637, 51.07389], [5.73596, 51.0731]]], [[[5.73925, 51.0792], [5.73988, 51.0793], [5.73874, 51.07828], [5.738, 51.07938], [5.73925, 51.0792]]], [[[5.74129, 51.07802], [5.74064, 51.07763], [5.73922, 51.07812], [5.73996, 51.07839], [5.74129, 51.07802]]], [[[5.73425, 51.07842], [5.73262, 51.07772], [5.73089, 51.07835], [5.73262, 51.0785], [5.73279, 51.07817], [5.73425, 51.07842]]], [[[5.73009, 51.07338], [5.73064, 51.07219], [5.72678, 51.07423], [5.72934, 51.07481], [5.72997, 51.0736], [5.73127, 51.07507], [5.73107, 51.07547], [5.73259, 51.07597], [5.73282, 51.07561], [5.73196, 51.07541], [5.73009, 51.07338]]], [[[5.72808, 51.07459], [5.7267, 51.07426], [5.72433, 51.07571], [5.72647, 51.07621], [5.72605, 51.07689], [5.72905, 51.07762], [5.72871, 51.07821], [5.72952, 51.07839], [5.73083, 51.07511], [5.7301, 51.07488], [5.72938, 51.07516], [5.72844, 51.07672], [5.72665, 51.07633], [5.72705, 51.07632], [5.72808, 51.07459]]], [[[5.72272, 51.07684], [5.72288, 51.07687], [5.72303, 51.07662], [5.7228, 51.07679], [5.72272, 51.07684]]], [[[5.72492, 51.07596], [5.72402, 51.07583], [5.72314, 51.07693], [5.72425, 51.07717], [5.72492, 51.07596]]], [[[5.72598, 51.07949], [5.72689, 51.07925], [5.72481, 51.07876], [5.72419, 51.07965], [5.72539, 51.07995], [5.72598, 51.07949]]], [[[5.73643, 51.07858], [5.73564, 51.07979], [5.73638, 51.07997], [5.73719, 51.07878], [5.73643, 51.07858]]], [[[5.74437, 51.0789], [5.7437, 51.07922], [5.7459, 51.07928], [5.74506, 51.07872], [5.74437, 51.0789]]], [[[5.7434, 51.07922], [5.74478, 51.0786], [5.74321, 51.07753], [5.74152, 51.07804], [5.7434, 51.07922]]], [[[5.73979, 51.04277], [5.74165, 51.04273], [5.74162, 51.04233], [5.74059, 51.04244], [5.74076, 51.04148], [5.73967, 51.04115], [5.73965, 51.04305], [5.73979, 51.04277]]], [[[5.75221, 51.00625], [5.75363, 51.00739], [5.75613, 51.00576], [5.75587, 51.00459], [5.75637, 51.00315], [5.75817, 51.0017], [5.76101, 51.00094], [5.76034, 50.99988], [5.75813, 51.00031], [5.75672, 51.00213], [5.75428, 51.0031], [5.75395, 51.00513], [5.75221, 51.00625]]], [[[5.74688, 51.03165], [5.74679, 51.03181], [5.74682, 51.03188], [5.74689, 51.03164], [5.74688, 51.03165]]], [[[5.75676, 51.0394], [5.75725, 51.04035], [5.75696, 51.04148], [5.75904, 51.04071], [5.75723, 51.03896], [5.75676, 51.0394]]], [[[5.75181, 51.04299], [5.75002, 51.04246], [5.74815, 51.04265], [5.74794, 51.04311], [5.74801, 51.04339], [5.75094, 51.04411], [5.75181, 51.04299]]], [[[5.7471, 51.04274], [5.74503, 51.0428], [5.74332, 51.04219], [5.74316, 51.04281], [5.74727, 51.04322], [5.7471, 51.04274]]], [[[5.76647, 51.01707], [5.76677, 51.01715], [5.76638, 51.01666], [5.76625, 51.01701], [5.76647, 51.01707]]], [[[5.79339, 51.06134], [5.79063, 51.06151], [5.78862, 51.06272], [5.78607, 51.06335], [5.78651, 51.06435], [5.78633, 51.06627], [5.79158, 51.06718], [5.79066, 51.06582], [5.79067, 51.06439], [5.79192, 51.0626], [5.79432, 51.06146], [5.79339, 51.06134]]], [[[5.78005, 51.07488], [5.78025, 51.07523], [5.78226, 51.07459], [5.78024, 51.07273], [5.77802, 51.07263], [5.77821, 51.07381], [5.78005, 51.07488]]], [[[5.82801, 51.10408], [5.82913, 51.10307], [5.82945, 51.10127], [5.82862, 51.10245], [5.82801, 51.10408]]], [[[5.77977, 51.06846], [5.77711, 51.06848], [5.77643, 51.06848], [5.77967, 51.06882], [5.77977, 51.06846]]], [[[5.78382, 51.05305], [5.78658, 51.05373], [5.78718, 51.05138], [5.7856, 51.0524], [5.78354, 51.05292], [5.78382, 51.05305]]], [[[5.79457, 50.99439], [5.79426, 50.99408], [5.79318, 50.99434], [5.79334, 50.99618], [5.79697, 50.99562], [5.79457, 50.99439]]], [[[5.79794, 50.99582], [5.79719, 50.99568], [5.79335, 50.99626], [5.79337, 50.99652], [5.79794, 50.99582]]], [[[5.79819, 51.01482], [5.79814, 51.01445], [5.79876, 51.01461], [5.79891, 51.01436], [5.79622, 51.01366], [5.79468, 51.01259], [5.79488, 51.01533], [5.79789, 51.01625], [5.79814, 51.01587], [5.79813, 51.01628], [5.80119, 51.01608], [5.79999, 51.0156], [5.79838, 51.0156], [5.79984, 51.0155], [5.79898, 51.01441], [5.79871, 51.01489], [5.79819, 51.01482]], [[5.79825, 51.01488], [5.79858, 51.01511], [5.79784, 51.01508], [5.79785, 51.01478], [5.79825, 51.01488]]], [[[5.80052, 50.99637], [5.80524, 50.99555], [5.80516, 50.99488], [5.8044, 50.99439], [5.80222, 50.99559], [5.79912, 50.99596], [5.80052, 50.99637]]], [[[5.86792, 51.08835], [5.86879, 51.0894], [5.8692, 51.0892], [5.86921, 51.08805], [5.86792, 51.08835]]], [[[5.86788, 51.08846], [5.86451, 51.08926], [5.86228, 51.08938], [5.86281, 51.09049], [5.86535, 51.08973], [5.86758, 51.08983], [5.86867, 51.08946], [5.86788, 51.08846]]], [[[5.86478, 51.08309], [5.865, 51.08314], [5.86627, 51.08263], [5.86509, 51.08272], [5.86478, 51.08309]]], [[[5.85299, 51.09284], [5.8528, 51.09283], [5.85319, 51.09296], [5.85299, 51.09284]]], [[[5.85813, 51.09512], [5.85724, 51.09489], [5.85562, 51.09409], [5.85684, 51.0957], [5.85813, 51.09512]]], [[[5.85536, 51.08116], [5.85822, 51.08228], [5.85806, 51.08173], [5.85864, 51.08187], [5.85951, 51.08105], [5.8585, 51.07962], [5.8585, 51.07827], [5.85764, 51.07785], [5.85476, 51.07884], [5.85463, 51.07943], [5.85608, 51.07992], [5.85592, 51.08029], [5.85442, 51.07989], [5.85342, 51.08104], [5.85536, 51.08116]]], [[[5.87502, 51.07792], [5.87544, 51.07866], [5.87602, 51.07818], [5.87924, 51.07882], [5.87958, 51.07719], [5.87726, 51.0781], [5.87502, 51.07792]]], [[[5.87255, 51.0502], [5.8731, 51.0504], [5.87301, 51.0508], [5.87557, 51.05134], [5.87607, 51.05118], [5.87656, 51.04976], [5.87992, 51.05013], [5.8803, 51.04866], [5.87663, 51.04929], [5.8748, 51.04904], [5.87301, 51.04832], [5.87272, 51.04936], [5.87232, 51.04931], [5.87255, 51.0502]], [[5.87746, 51.04979], [5.87696, 51.04973], [5.87698, 51.0495], [5.8775, 51.04966], [5.87746, 51.04979]], [[5.87762, 51.04969], [5.87819, 51.04986], [5.87822, 51.04987], [5.87759, 51.0498], [5.87762, 51.04969]]], [[[5.87268, 51.04931], [5.87295, 51.04828], [5.87192, 51.04741], [5.87129, 51.04731], [5.8719, 51.04764], [5.87137, 51.04814], [5.87268, 51.04931]]], [[[5.88241, 51.04833], [5.88209, 51.04976], [5.88266, 51.04982], [5.88264, 51.05043], [5.88368, 51.05054], [5.88335, 51.04907], [5.88379, 51.04744], [5.88467, 51.04779], [5.8845, 51.04758], [5.88547, 51.04738], [5.88491, 51.04729], [5.88582, 51.04727], [5.88718, 51.04637], [5.88991, 51.04596], [5.89115, 51.04468], [5.89281, 51.04379], [5.89604, 51.04335], [5.89027, 51.04336], [5.88715, 51.04596], [5.88544, 51.04627], [5.88379, 51.04595], [5.8813, 51.04815], [5.88241, 51.04833]], [[5.88396, 51.04638], [5.88374, 51.04667], [5.8836, 51.04662], [5.88369, 51.04625], [5.88396, 51.04638]], [[5.8831, 51.04692], [5.88299, 51.0469], [5.88354, 51.04634], [5.88337, 51.04669], [5.8831, 51.04692]], [[5.88291, 51.04699], [5.88298, 51.04691], [5.88432, 51.04759], [5.88292, 51.04703], [5.88291, 51.04699]]], [[[5.90035, 51.05805], [5.8996, 51.05893], [5.89665, 51.06066], [5.89694, 51.06085], [5.89982, 51.05994], [5.90198, 51.05996], [5.9037, 51.0604], [5.90421, 51.06017], [5.90179, 51.05928], [5.90035, 51.05805]]], [[[5.89159, 51.03802], [5.88993, 51.03913], [5.89036, 51.03951], [5.89452, 51.03946], [5.89356, 51.038], [5.89306, 51.03795], [5.89314, 51.03689], [5.89202, 51.03779], [5.89302, 51.03795], [5.89159, 51.03802]]], [[[5.8937, 51.03631], [5.89375, 51.03619], [5.8938, 51.03612], [5.89356, 51.03633], [5.8937, 51.03631]]], [[[5.89046, 51.02779], [5.88898, 51.02889], [5.88731, 51.02945], [5.88736, 51.02975], [5.89167, 51.0282], [5.89531, 51.02581], [5.8949, 51.02527], [5.89535, 51.02578], [5.90039, 51.02266], [5.90004, 51.02122], [5.89679, 51.02158], [5.89489, 51.02324], [5.89533, 51.02499], [5.8948, 51.02328], [5.89059, 51.02455], [5.89116, 51.02614], [5.89046, 51.02779]], [[5.89345, 51.027], [5.89219, 51.02712], [5.89212, 51.0269], [5.89339, 51.02678], [5.89345, 51.027]]], [[[5.91178, 51.02201], [5.90697, 51.0242], [5.90839, 51.02847], [5.90917, 51.02971], [5.91388, 51.03067], [5.9156, 51.03065], [5.91675, 51.0287], [5.91427, 51.02483], [5.91178, 51.02201]]], [[[5.89946, 51.03036], [5.90247, 51.02943], [5.90171, 51.02717], [5.89651, 51.03065], [5.8931, 51.03228], [5.89587, 51.03198], [5.89747, 51.03093], [5.89946, 51.03036]]], [[[5.90728, 51.06733], [5.90872, 51.06602], [5.91119, 51.06553], [5.90783, 51.06324], [5.9073, 51.06521], [5.90608, 51.06652], [5.90728, 51.06733]]], [[[5.91156, 51.07359], [5.9117, 51.07341], [5.91179, 51.07331], [5.91116, 51.07342], [5.91156, 51.07359]]], [[[5.91781, 51.07185], [5.91939, 51.0725], [5.92, 51.07128], [5.91773, 51.07184], [5.91781, 51.07185]]], [[[5.89043, 51.06226], [5.89009, 51.06254], [5.89043, 51.06272], [5.891, 51.06252], [5.89043, 51.06226]]], [[[5.7865, 51.00758], [5.78555, 51.00768], [5.78407, 51.00922], [5.78872, 51.01484], [5.78814, 51.00726], [5.7865, 51.00758]]], [[[5.78546, 51.0037], [5.78506, 51.00382], [5.78654, 51.00354], [5.7865, 51.00348], [5.78546, 51.0037]]], [[[5.80972, 51.0141], [5.80928, 51.01372], [5.8064, 51.01369], [5.80727, 51.01443], [5.80972, 51.0141]]], [[[5.74223, 51.00851], [5.74181, 51.00862], [5.74298, 51.00945], [5.74306, 51.00879], [5.74223, 51.00851]]], [[[5.83742, 51.08495], [5.83744, 51.08495], [5.83739, 51.08488], [5.83742, 51.08495]]], [[[5.83124, 51.05728], [5.83262, 51.05748], [5.8313, 51.05762], [5.83223, 51.05853], [5.83534, 51.05863], [5.83791, 51.05729], [5.8376, 51.05707], [5.83857, 51.05654], [5.83897, 51.0568], [5.83843, 51.05712], [5.83915, 51.05694], [5.83873, 51.05648], [5.83921, 51.05556], [5.83838, 51.05467], [5.83689, 51.05454], [5.83356, 51.05639], [5.8313, 51.05623], [5.83072, 51.05681], [5.83124, 51.05728]]], [[[5.83316, 51.02922], [5.83248, 51.02909], [5.83321, 51.02982], [5.83357, 51.02955], [5.83316, 51.02922]]], [[[5.83341, 51.02985], [5.83336, 51.03002], [5.83365, 51.03003], [5.83362, 51.02988], [5.83341, 51.02985]]], [[[5.84602, 51.0232], [5.8464, 51.02278], [5.84542, 51.02214], [5.84518, 51.02276], [5.84602, 51.0232]]], [[[5.84824, 51.02678], [5.84528, 51.02582], [5.84513, 51.02598], [5.84652, 51.02748], [5.84824, 51.02678]]], [[[5.85085, 51.0198], [5.851, 51.01991], [5.85079, 51.01977], [5.85085, 51.0198]]], [[[5.83971, 51.02952], [5.83995, 51.03087], [5.84179, 51.03005], [5.84061, 51.02906], [5.83966, 51.02921], [5.83971, 51.02952]]], [[[5.80623, 51.00568], [5.80701, 51.00649], [5.809, 51.00685], [5.80813, 51.00508], [5.80461, 51.00407], [5.80278, 51.00213], [5.80029, 51.00393], [5.80092, 51.00441], [5.80439, 51.00475], [5.80623, 51.00568]]], [[[5.81739, 51.00158], [5.81695, 51.00286], [5.8158, 51.00401], [5.81821, 51.00351], [5.81739, 51.00158]]], [[[5.81634, 50.99933], [5.81652, 50.99951], [5.81567, 50.9984], [5.81558, 50.99876], [5.81634, 50.99933]]], [[[5.90514, 51.08513], [5.90525, 51.08521], [5.90534, 51.08529], [5.90539, 51.08523], [5.90514, 51.08513]]], [[[5.91646, 51.05184], [5.91574, 51.05231], [5.91831, 51.05523], [5.92082, 51.05442], [5.92221, 51.05289], [5.9239, 51.05359], [5.92358, 51.05425], [5.92179, 51.05373], [5.92395, 51.05454], [5.92397, 51.05321], [5.9225, 51.05259], [5.92397, 51.05303], [5.92398, 51.05245], [5.92299, 51.05205], [5.92315, 51.05181], [5.92292, 51.05206], [5.91916, 51.05072], [5.91985, 51.04993], [5.92201, 51.05067], [5.92113, 51.04898], [5.92127, 51.04739], [5.91991, 51.04628], [5.91957, 51.04536], [5.9203, 51.04415], [5.9228, 51.04285], [5.9221, 51.0405], [5.92123, 51.04188], [5.91891, 51.04325], [5.9169, 51.04377], [5.9121, 51.04392], [5.91078, 51.0448], [5.91523, 51.04521], [5.91811, 51.04687], [5.91875, 51.04926], [5.91646, 51.05184]]], [[[5.80529, 51.02216], [5.80609, 51.02219], [5.80394, 51.01981], [5.80158, 51.01993], [5.80322, 51.02241], [5.80529, 51.02216]]]]}, "properties": {"kind": "windland", "area_km2": 3.1}}, {"type": "Feature", "geometry": {"type": "MultiPolygon", "coordinates": [[[[5.79185, 51.04476], [5.79184, 51.04494], [5.79197, 51.04494], [5.79203, 51.04479], [5.7918, 51.04464], [5.79185, 51.04476]]], [[[5.80386, 51.04467], [5.8039, 51.04467], [5.80391, 51.04467], [5.80385, 51.04465], [5.80386, 51.04467]]], [[[5.81367, 51.04452], [5.81347, 51.0445], [5.81299, 51.04434], [5.81398, 51.04483], [5.81399, 51.04464], [5.81367, 51.04452]]], [[[5.78878, 51.04584], [5.78945, 51.04497], [5.78943, 51.04496], [5.78856, 51.04521], [5.78861, 51.04604], [5.78878, 51.04584]]], [[[5.79558, 51.04586], [5.79388, 51.04552], [5.79383, 51.04559], [5.79558, 51.04586]]], [[[5.81532, 51.04529], [5.81422, 51.04488], [5.81394, 51.04544], [5.81488, 51.04585], [5.81532, 51.04529]]], [[[5.8119, 51.04842], [5.81561, 51.04889], [5.81587, 51.04814], [5.81536, 51.0474], [5.81545, 51.04675], [5.81324, 51.0458], [5.81309, 51.04599], [5.81287, 51.04595], [5.81294, 51.04582], [5.81216, 51.04556], [5.81096, 51.04785], [5.81099, 51.04811], [5.81177, 51.04821], [5.8119, 51.04842]]], [[[5.79007, 51.04965], [5.79027, 51.04988], [5.79075, 51.04964], [5.79098, 51.0498], [5.79329, 51.04864], [5.79737, 51.04749], [5.79777, 51.04754], [5.79978, 51.04708], [5.79463, 51.04627], [5.79444, 51.04699], [5.79416, 51.04693], [5.79422, 51.0462], [5.7939, 51.04615], [5.79315, 51.04741], [5.79261, 51.04755], [5.79184, 51.04746], [5.7909, 51.04779], [5.78922, 51.04749], [5.78887, 51.04713], [5.789, 51.04673], [5.78865, 51.04665], [5.78873, 51.04791], [5.79007, 51.04965]], [[5.79347, 51.04801], [5.79317, 51.04813], [5.7943, 51.04702], [5.7944, 51.04708], [5.79347, 51.04801]], [[5.79278, 51.04762], [5.7934, 51.04783], [5.79313, 51.04811], [5.79257, 51.04785], [5.79278, 51.04762]]], [[[5.78917, 51.04966], [5.78901, 51.04943], [5.7888, 51.04919], [5.78884, 51.04974], [5.78933, 51.05004], [5.78917, 51.04966]]], [[[5.79026, 51.05022], [5.79026, 51.05022], [5.79026, 51.05022], [5.79026, 51.05022]]], [[[5.79715, 51.05068], [5.79747, 51.05062], [5.79731, 51.05018], [5.79682, 51.05037], [5.79715, 51.05068]]], [[[5.79133, 51.05336], [5.79171, 51.05309], [5.78973, 51.05091], [5.78935, 51.05009], [5.78884, 51.04977], [5.78929, 51.05736], [5.79118, 51.0562], [5.79281, 51.05599], [5.79803, 51.05715], [5.79944, 51.05788], [5.79943, 51.05836], [5.79998, 51.05876], [5.79898, 51.05825], [5.79739, 51.0578], [5.79582, 51.05764], [5.79321, 51.05763], [5.79328, 51.05811], [5.79601, 51.05848], [5.79865, 51.05924], [5.80015, 51.06016], [5.80162, 51.06235], [5.80305, 51.06231], [5.80318, 51.06162], [5.80285, 51.06097], [5.80315, 51.05981], [5.80298, 51.05916], [5.80231, 51.05834], [5.80049, 51.05721], [5.80028, 51.05766], [5.7996, 51.05768], [5.79904, 51.05724], [5.79728, 51.05655], [5.79478, 51.05585], [5.79429, 51.05546], [5.79454, 51.05515], [5.79276, 51.05405], [5.79218, 51.05418], [5.79163, 51.05405], [5.7913, 51.05373], [5.79133, 51.05336]]], [[[5.8058, 51.05727], [5.80613, 51.05732], [5.80627, 51.05706], [5.80579, 51.05716], [5.8058, 51.05727]]], [[[5.80414, 51.05882], [5.80475, 51.0587], [5.80534, 51.05885], [5.80556, 51.05842], [5.80492, 51.0581], [5.80495, 51.05759], [5.80297, 51.058], [5.80365, 51.05879], [5.80414, 51.05882]]], [[[5.80831, 51.05946], [5.80777, 51.05928], [5.80753, 51.05858], [5.80679, 51.05777], [5.80609, 51.05915], [5.80617, 51.05969], [5.80663, 51.06043], [5.80778, 51.06084], [5.808, 51.06129], [5.80765, 51.06168], [5.80677, 51.06175], [5.80616, 51.06224], [5.80978, 51.06215], [5.80831, 51.05946]]], [[[5.79831, 51.06053], [5.79673, 51.05998], [5.79384, 51.05953], [5.79236, 51.05942], [5.79043, 51.05959], [5.78944, 51.05983], [5.78958, 51.06214], [5.79033, 51.0616], [5.79225, 51.06126], [5.79432, 51.06146], [5.79308, 51.06189], [5.79196, 51.06258], [5.79988, 51.06239], [5.79901, 51.06105], [5.79831, 51.06053]], [[5.79053, 51.06029], [5.7903, 51.06057], [5.79008, 51.06081], [5.78977, 51.06048], [5.79053, 51.06029]]], [[[5.81883, 51.04394], [5.81897, 51.04401], [5.8191, 51.04394], [5.81883, 51.04394]]], [[[5.82492, 51.0438], [5.82449, 51.04381], [5.82479, 51.0439], [5.82492, 51.0438]]], [[[5.81683, 51.04412], [5.81719, 51.04432], [5.81755, 51.04397], [5.81662, 51.044], [5.81683, 51.04412]]], [[[5.82518, 51.04402], [5.82506, 51.044], [5.82503, 51.04402], [5.82508, 51.04405], [5.82518, 51.04402]]], [[[5.82177, 51.04405], [5.82276, 51.04469], [5.82389, 51.04383], [5.82146, 51.04388], [5.82177, 51.04405]]], [[[5.81737, 51.04475], [5.81816, 51.04511], [5.81889, 51.04405], [5.81792, 51.04397], [5.81733, 51.04452], [5.81737, 51.04475]]], [[[5.81727, 51.04495], [5.81677, 51.0454], [5.81773, 51.04581], [5.81811, 51.0452], [5.81727, 51.04495]]], [[[5.81635, 51.04553], [5.8155, 51.04537], [5.81497, 51.04588], [5.81698, 51.04665], [5.81769, 51.04587], [5.81668, 51.04544], [5.81635, 51.04553]]], [[[5.82235, 51.04995], [5.82197, 51.04996], [5.82194, 51.05008], [5.82243, 51.05012], [5.82235, 51.04995]]], [[[5.82141, 51.05126], [5.82112, 51.05089], [5.82118, 51.05048], [5.81955, 51.05017], [5.81955, 51.05059], [5.82063, 51.05079], [5.82113, 51.05143], [5.82232, 51.05159], [5.82262, 51.05155], [5.82141, 51.05126]]], [[[5.82402, 51.05185], [5.82354, 51.05168], [5.82336, 51.05183], [5.82408, 51.05222], [5.82437, 51.05192], [5.82402, 51.05185]]], [[[5.82534, 51.05625], [5.8252, 51.05684], [5.82574, 51.05697], [5.82596, 51.056], [5.82534, 51.05625]]], [[[5.82503, 51.05909], [5.8249, 51.05907], [5.82513, 51.05954], [5.82524, 51.05911], [5.82503, 51.05909]]], [[[5.82435, 51.06034], [5.82458, 51.06045], [5.8246, 51.06026], [5.82485, 51.06027], [5.82493, 51.06041], [5.82506, 51.05986], [5.82462, 51.05902], [5.82435, 51.06034]]], [[[5.82486, 51.06068], [5.82487, 51.06066], [5.82486, 51.06066], [5.82486, 51.06068]]], [[[5.82556, 51.04415], [5.82516, 51.04413], [5.82527, 51.0445], [5.825, 51.04484], [5.82578, 51.04529], [5.82556, 51.04415]]], [[[5.82798, 51.0445], [5.82805, 51.04489], [5.82806, 51.04579], [5.82912, 51.04515], [5.82875, 51.04446], [5.82809, 51.04415], [5.82803, 51.04372], [5.82798, 51.0445]]], [[[5.82708, 51.04644], [5.82727, 51.0475], [5.82751, 51.04758], [5.82707, 51.04422], [5.82695, 51.04375], [5.82657, 51.04376], [5.82708, 51.04644]]], [[[5.82818, 51.04646], [5.82854, 51.04787], [5.83143, 51.04625], [5.83141, 51.04581], [5.8304, 51.04512], [5.82818, 51.04646]]], [[[5.83025, 51.04815], [5.83155, 51.04822], [5.83148, 51.04696], [5.82951, 51.04805], [5.83025, 51.04815]]], [[[5.8262, 51.04939], [5.82652, 51.04946], [5.82648, 51.04913], [5.82636, 51.04928], [5.8262, 51.04939]]], [[[5.82771, 51.04984], [5.82754, 51.04822], [5.8274, 51.04818], [5.82759, 51.05297], [5.8257, 51.06177], [5.8259, 51.06176], [5.82759, 51.05417], [5.82771, 51.04984]]], [[[5.8312, 51.04993], [5.83077, 51.04953], [5.82938, 51.04922], [5.82926, 51.04856], [5.8284, 51.04841], [5.8286, 51.05057], [5.82823, 51.05518], [5.82939, 51.05434], [5.83086, 51.0525], [5.83106, 51.05255], [5.83178, 51.052], [5.83166, 51.05], [5.8312, 51.04993]]], [[[5.82634, 51.05193], [5.82582, 51.05185], [5.82603, 51.05228], [5.82571, 51.05264], [5.8247, 51.05271], [5.82573, 51.05385], [5.82558, 51.05504], [5.82612, 51.0553], [5.82659, 51.05212], [5.82634, 51.05193]]], [[[5.83146, 51.05319], [5.83009, 51.05465], [5.82885, 51.05557], [5.82931, 51.05571], [5.82895, 51.056], [5.82853, 51.05588], [5.82802, 51.05608], [5.82915, 51.05751], [5.83094, 51.05731], [5.83072, 51.05681], [5.8313, 51.05623], [5.83204, 51.05626], [5.83198, 51.05527], [5.83154, 51.05512], [5.83194, 51.0546], [5.83186, 51.0533], [5.83146, 51.05319]]], [[[5.82794, 51.05646], [5.82786, 51.05677], [5.82872, 51.05767], [5.82903, 51.05762], [5.82794, 51.05646]]], [[[5.83064, 51.05768], [5.82811, 51.05776], [5.82773, 51.05738], [5.82726, 51.05939], [5.82784, 51.05962], [5.82804, 51.0601], [5.82768, 51.06045], [5.82699, 51.06058], [5.82676, 51.06174], [5.82951, 51.06167], [5.82949, 51.06117], [5.82973, 51.06097], [5.82957, 51.06015], [5.83066, 51.06], [5.83178, 51.06067], [5.83229, 51.0604], [5.83139, 51.05958], [5.83174, 51.0593], [5.83222, 51.05923], [5.83218, 51.05846], [5.8313, 51.05762], [5.83064, 51.05768]]], [[[5.83215, 51.0609], [5.83228, 51.06146], [5.8323, 51.06149], [5.83228, 51.06079], [5.83215, 51.0609]]]]}, "properties": {"kind": "pv", "area_km2": 1.19, "mw": 59.6}}, {"type": "Feature", "geometry": {"type": "Point", "coordinates": [5.83337, 51.05649]}, "properties": {"kind": "turbine", "i": 0, "mw": 6.0, "hub_m": 120.0, "rotor_m": 150.0}}, {"type": "Feature", "geometry": {"type": "Point", "coordinates": [5.78693, 51.06418]}, "properties": {"kind": "turbine", "i": 1, "mw": 6.0, "hub_m": 120.0, "rotor_m": 150.0}}, {"type": "Feature", "geometry": {"type": "Point", "coordinates": [5.85559, 51.07894]}, "properties": {"kind": "turbine", "i": 2, "mw": 6.0, "hub_m": 120.0, "rotor_m": 150.0}}, {"type": "Feature", "geometry": {"type": "Point", "coordinates": [5.88999, 51.04525]}, "properties": {"kind": "turbine", "i": 3, "mw": 6.0, "hub_m": 120.0, "rotor_m": 150.0}}, {"type": "Feature", "geometry": {"type": "Point", "coordinates": [5.80418, 51.00465]}, "properties": {"kind": "turbine", "i": 4, "mw": 6.0, "hub_m": 120.0, "rotor_m": 150.0}}, {"type": "Feature", "geometry": {"type": "Point", "coordinates": [5.74606, 51.07828]}, "properties": {"kind": "turbine", "i": 5, "mw": 6.0, "hub_m": 120.0, "rotor_m": 150.0}}, {"type": "Feature", "geometry": {"type": "Point", "coordinates": [5.89438, 51.032]}, "properties": {"kind": "turbine", "i": 6, "mw": 6.0, "hub_m": 120.0, "rotor_m": 150.0}}, {"type": "Feature", "geometry": {"type": "Point", "coordinates": [5.74684, 51.0914]}, "properties": {"kind": "turbine", "i": 7, "mw": 6.0, "hub_m": 120.0, "rotor_m": 150.0}}, {"type": "Feature", "geometry": {"type": "Point", "coordinates": [5.89896, 51.02204]}, "properties": {"kind": "turbine", "i": 8, "mw": 6.0, "hub_m": 120.0, "rotor_m": 150.0}}, {"type": "Feature", "geometry": {"type": "Point", "coordinates": [5.72504, 51.07549]}, "properties": {"kind": "turbine", "i": 9, "mw": 6.0, "hub_m": 120.0, "rotor_m": 150.0}}]}