{"type": "FeatureCollection", "features": [{"type": "Feature", "geometry": {"type": "MultiPolygon", "coordinates": [[[[-122.18375, 37.41161], [-122.18481, 37.40986], [-122.18481, 37.40705], [-122.18326, 37.40513], [-122.1806, 37.40425], [-122.18058, 37.4015], [-122.18803, 37.40873], [-122.18784, 37.41039], [-122.18618, 37.41086], [-122.1848, 37.41192], [-122.18375, 37.41161]]], [[[-122.17269, 37.41071], [-122.1721, 37.41033], [-122.17228, 37.40858], [-122.17193, 37.40811], [-122.17289, 37.40696], [-122.17398, 37.4072], [-122.17419, 37.40673], [-122.17534, 37.40737], [-122.17524, 37.40782], [-122.17411, 37.40748], [-122.17326, 37.40766], [-122.17347, 37.4086], [-122.17268, 37.40868], [-122.17277, 37.40928], [-122.17375, 37.40989], [-122.17269, 37.41071]], [[-122.17275, 37.41012], [-122.17247, 37.41028], [-122.17272, 37.41048], [-122.17287, 37.41038], [-122.17275, 37.41012]]], [[[-122.17534, 37.40897], [-122.17584, 37.40996], [-122.17557, 37.41022], [-122.17545, 37.40975], [-122.1743, 37.40962], [-122.17534, 37.40897]]], [[[-122.17479, 37.41128], [-122.17451, 37.41204], [-122.17311, 37.41078], [-122.1735, 37.41083], [-122.17392, 37.41025], [-122.17416, 37.41124], [-122.17479, 37.41128]]]]}, "properties": {"kind": "windland", "area_km2": 0.23}}, {"type": "Feature", "geometry": {"type": "MultiPolygon", "coordinates": [[[[-122.22992, 37.37541], [-122.2276, 37.37545], [-122.22607, 37.37459], [-122.22605, 37.37442], [-122.22845, 37.37412], [-122.2285, 37.37468], [-122.22873, 37.37438], [-122.22926, 37.37431], [-122.23039, 37.37562], [-122.22992, 37.37541]]], [[[-122.23171, 37.37724], [-122.23131, 37.37705], [-122.2313, 37.3767], [-122.23097, 37.37645], [-122.23107, 37.37621], [-122.23068, 37.37573], [-122.23215, 37.37615], [-122.23231, 37.37701], [-122.23171, 37.37724]]], [[[-122.23047, 37.37879], [-122.23085, 37.37878], [-122.23076, 37.37906], [-122.23061, 37.3789], [-122.23047, 37.37879]]], [[[-122.22948, 37.37785], [-122.22975, 37.37831], [-122.23033, 37.37873], [-122.22924, 37.37855], [-122.22878, 37.37879], [-122.22756, 37.37901], [-122.22732, 37.3796], [-122.22801, 37.38043], [-122.22712, 37.38099], [-122.22655, 37.38061], [-122.2265, 37.37926], [-122.2257, 37.37836], [-122.22598, 37.3782], [-122.22846, 37.37856], [-122.22935, 37.37833], [-122.22948, 37.37785]]], [[[-122.23245, 37.38265], [-122.23165, 37.38246], [-122.23159, 37.38208], [-122.23062, 37.38104], [-122.22982, 37.3808], [-122.22928, 37.38093], [-122.22917, 37.38069], [-122.22972, 37.38027], [-122.23076, 37.38003], [-122.23128, 37.37903], [-122.23249, 37.37849], [-122.23247, 37.38047], [-122.23182, 37.38065], [-122.23246, 37.38144], [-122.23245, 37.38265]]], [[[-122.23247, 37.38066], [-122.23245, 37.38062], [-122.23247, 37.38062], [-122.23247, 37.38066]]], [[[-122.22821, 37.38152], [-122.22816, 37.38168], [-122.22767, 37.38135], [-122.22789, 37.38125], [-122.22821, 37.38152]]], [[[-122.22816, 37.38454], [-122.22841, 37.38454], [-122.22836, 37.38469], [-122.22816, 37.38454]]], [[[-122.2306, 37.38413], [-122.23164, 37.38482], [-122.23105, 37.3854], [-122.23018, 37.38436], [-122.2306, 37.38413]]], [[[-122.22761, 37.38635], [-122.22721, 37.38678], [-122.2266, 37.38641], [-122.22633, 37.38599], [-122.22664, 37.38526], [-122.22689, 37.38586], [-122.22739, 37.38611], [-122.22808, 37.38601], [-122.22835, 37.38543], [-122.22911, 37.38601], [-122.22983, 37.38709], [-122.22888, 37.38682], [-122.2288, 37.3865], [-122.22842, 37.38621], [-122.22761, 37.38635]]], [[[-122.23241, 37.38664], [-122.2324, 37.38705], [-122.23214, 37.38673], [-122.23241, 37.38664]]], [[[-122.22993, 37.38721], [-122.22992, 37.3872], [-122.2299, 37.38717], [-122.22993, 37.38721]]], [[[-122.23032, 37.38783], [-122.23023, 37.38748], [-122.23015, 37.38736], [-122.23041, 37.38755], [-122.23032, 37.38783]]], [[[-122.231, 37.38791], [-122.231, 37.38788], [-122.23102, 37.38788], [-122.231, 37.38791]]], [[[-122.22934, 37.38867], [-122.22938, 37.38887], [-122.2291, 37.38885], [-122.22934, 37.38867]]], [[[-122.23155, 37.38888], [-122.23162, 37.38891], [-122.2316, 37.389], [-122.23155, 37.38888]]], [[[-122.23181, 37.38969], [-122.23173, 37.3895], [-122.23183, 37.38969], [-122.23181, 37.38969]]], [[[-122.23023, 37.39025], [-122.23034, 37.39036], [-122.23038, 37.39045], [-122.23023, 37.39025]]], [[[-122.23205, 37.391], [-122.23214, 37.39086], [-122.23226, 37.39045], [-122.23236, 37.39127], [-122.23205, 37.391]]], [[[-122.22879, 37.39171], [-122.22873, 37.39119], [-122.23016, 37.39227], [-122.22999, 37.39299], [-122.22958, 37.39329], [-122.22789, 37.39313], [-122.22891, 37.39309], [-122.22944, 37.39275], [-122.2294, 37.3921], [-122.22879, 37.39171]]], [[[-122.23084, 37.39217], [-122.23083, 37.39217], [-122.23083, 37.39217], [-122.23084, 37.39217]]], [[[-122.23245, 37.3927], [-122.23153, 37.3924], [-122.23235, 37.39191], [-122.23301, 37.39192], [-122.23334, 37.39213], [-122.23379, 37.39215], [-122.23459, 37.39295], [-122.23412, 37.39316], [-122.23395, 37.39356], [-122.23426, 37.39402], [-122.23512, 37.39421], [-122.23482, 37.39471], [-122.23514, 37.3952], [-122.23488, 37.39551], [-122.23494, 37.39598], [-122.23433, 37.39661], [-122.23448, 37.39703], [-122.23495, 37.39737], [-122.2347, 37.39757], [-122.23271, 37.39716], [-122.23322, 37.39664], [-122.23375, 37.39345], [-122.23169, 37.39405], [-122.23252, 37.3936], [-122.23272, 37.39318], [-122.23245, 37.3927]]], [[[-122.24128, 37.39197], [-122.24312, 37.39334], [-122.24257, 37.39361], [-122.2424, 37.39411], [-122.24264, 37.39443], [-122.24311, 37.39458], [-122.24329, 37.39514], [-122.24259, 37.39567], [-122.24252, 37.39643], [-122.24217, 37.39617], [-122.242, 37.39557], [-122.24139, 37.39521], [-122.2404, 37.39538], [-122.23999, 37.39593], [-122.23955, 37.39525], [-122.23912, 37.39525], [-122.23861, 37.39567], [-122.23792, 37.39499], [-122.23811, 37.39441], [-122.23951, 37.39373], [-122.23993, 37.39322], [-122.23986, 37.3928], [-122.23948, 37.39253], [-122.23896, 37.39254], [-122.23805, 37.39317], [-122.23754, 37.39331], [-122.2373, 37.39376], [-122.23702, 37.39381], [-122.23667, 37.39332], [-122.2361, 37.39324], [-122.23608, 37.39227], [-122.23588, 37.39194], [-122.23652, 37.39194], [-122.23709, 37.39253], [-122.23758, 37.39269], [-122.23998, 37.39196], [-122.24128, 37.39197]]], [[[-122.23558, 37.39479], [-122.23558, 37.39479], [-122.23561, 37.39479], [-122.23558, 37.39479]]], [[[-122.23566, 37.39481], [-122.23643, 37.39476], [-122.23645, 37.39486], [-122.23618, 37.39491], [-122.23594, 37.39488], [-122.23566, 37.39481]]], [[[-122.2288, 37.39488], [-122.22847, 37.39498], [-122.22845, 37.3948], [-122.22849, 37.39477], [-122.2288, 37.39488]]], [[[-122.23767, 37.39555], [-122.238, 37.39591], [-122.2378, 37.39637], [-122.23774, 37.39591], [-122.23755, 37.39592], [-122.23767, 37.39555]]], [[[-122.23619, 37.39647], [-122.2362, 37.39647], [-122.23619, 37.39648], [-122.23619, 37.39647]]], [[[-122.24126, 37.39722], [-122.24062, 37.39687], [-122.24062, 37.39668], [-122.24126, 37.39722]]], [[[-122.24301, 37.397], [-122.24294, 37.3971], [-122.24295, 37.39698], [-122.24301, 37.397]]], [[[-122.23862, 37.39815], [-122.23806, 37.39839], [-122.23789, 37.39707], [-122.23862, 37.39815]]], [[[-122.2432, 37.39784], [-122.24359, 37.39798], [-122.24359, 37.39802], [-122.24303, 37.39803], [-122.2432, 37.39784]]], [[[-122.24073, 37.39863], [-122.24088, 37.39847], [-122.2411, 37.39854], [-122.24073, 37.39863]]], [[[-122.24272, 37.39878], [-122.24274, 37.39858], [-122.24353, 37.39857], [-122.24272, 37.39878]]], [[[-122.23887, 37.39984], [-122.23934, 37.39928], [-122.23986, 37.39911], [-122.23853, 37.40029], [-122.23831, 37.40025], [-122.23826, 37.39984], [-122.23887, 37.39984]]], [[[-122.24347, 37.40992], [-122.24309, 37.41003], [-122.24347, 37.40972], [-122.24347, 37.40992]]], [[[-122.24277, 37.41032], [-122.24269, 37.41103], [-122.24237, 37.41067], [-122.24277, 37.41032]]], [[[-122.24073, 37.4113], [-122.2407, 37.41133], [-122.24075, 37.41125], [-122.24073, 37.4113]]], [[[-122.2341, 37.4122], [-122.23436, 37.41219], [-122.23458, 37.41227], [-122.23439, 37.4123], [-122.2341, 37.4122]]], [[[-122.2328, 37.41249], [-122.23216, 37.41245], [-122.23123, 37.41268], [-122.23248, 37.41227], [-122.23361, 37.41222], [-122.2328, 37.41249]]], [[[-122.2319, 37.41454], [-122.23268, 37.41494], [-122.23301, 37.41426], [-122.23278, 37.41399], [-122.23317, 37.41367], [-122.23372, 37.41361], [-122.23406, 37.4139], [-122.23507, 37.41415], [-122.2358, 37.41389], [-122.23589, 37.41334], [-122.2374, 37.41319], [-122.2382, 37.41338], [-122.23893, 37.41298], [-122.23948, 37.41291], [-122.23929, 37.41323], [-122.23882, 37.41324], [-122.23911, 37.41352], [-122.23875, 37.41411], [-122.23703, 37.41575], [-122.23268, 37.41783], [-122.23109, 37.41826], [-122.22682, 37.4181], [-122.22256, 37.41759], [-122.21907, 37.41856], [-122.21464, 37.41777], [-122.21292, 37.417], [-122.21183, 37.41623], [-122.22687, 37.41442], [-122.22794, 37.41468], [-122.22863, 37.41421], [-122.23143, 37.41388], [-122.23188, 37.41385], [-122.2322, 37.41404], [-122.23234, 37.41433], [-122.2319, 37.41454]], [[-122.21573, 37.41763], [-122.21595, 37.41792], [-122.21633, 37.41762], [-122.21639, 37.41683], [-122.21593, 37.41699], [-122.21573, 37.41763]]], [[[-122.23567, 37.41839], [-122.23529, 37.41832], [-122.23483, 37.41788], [-122.23541, 37.41797], [-122.23684, 37.41748], [-122.23707, 37.41704], [-122.23679, 37.41656], [-122.23728, 37.41628], [-122.23774, 37.4167], [-122.23833, 37.41642], [-122.23838, 37.4161], [-122.23791, 37.41584], [-122.23911, 37.41468], [-122.24046, 37.41277], [-122.24337, 37.42006], [-122.24285, 37.42023], [-122.24263, 37.4206], [-122.24204, 37.42076], [-122.24179, 37.4212], [-122.24135, 37.4213], [-122.24087, 37.42173], [-122.24056, 37.42158], [-122.24096, 37.42109], [-122.24048, 37.4203], [-122.24052, 37.41981], [-122.24019, 37.41952], [-122.23967, 37.41949], [-122.23916, 37.41994], [-122.23917, 37.42069], [-122.23951, 37.42129], [-122.23899, 37.42185], [-122.23815, 37.4214], [-122.23749, 37.42175], [-122.2371, 37.42152], [-122.23693, 37.42171], [-122.237, 37.42106], [-122.23672, 37.42071], [-122.23646, 37.41963], [-122.2365, 37.42055], [-122.23624, 37.41994], [-122.23648, 37.41958], [-122.23642, 37.41923], [-122.2362, 37.41938], [-122.23567, 37.41839]], [[-122.23782, 37.42065], [-122.23807, 37.42086], [-122.23851, 37.42088], [-122.23877, 37.4207], [-122.23878, 37.42036], [-122.23848, 37.42013], [-122.23807, 37.42011], [-122.23782, 37.42033], [-122.23782, 37.42065]]], [[[-122.23459, 37.41771], [-122.23455, 37.4176], [-122.23473, 37.41781], [-122.23459, 37.41771]]], [[[-122.22443, 37.41918], [-122.22561, 37.41859], [-122.23027, 37.41885], [-122.23158, 37.41878], [-122.23089, 37.41937], [-122.23105, 37.4201], [-122.22836, 37.42173], [-122.22812, 37.42267], [-122.22756, 37.42191], [-122.22706, 37.42161], [-122.22656, 37.42161], [-122.22571, 37.42107], [-122.22693, 37.42067], [-122.22705, 37.41982], [-122.22661, 37.41922], [-122.22462, 37.42007], [-122.22436, 37.41982], [-122.22443, 37.41918]], [[-122.22922, 37.41955], [-122.22877, 37.41895], [-122.22812, 37.41923], [-122.22794, 37.41891], [-122.22767, 37.41907], [-122.22773, 37.42028], [-122.2289, 37.41986], [-122.22922, 37.41955]]], [[[-122.23276, 37.42074], [-122.23398, 37.42086], [-122.23431, 37.42167], [-122.23306, 37.4219], [-122.23259, 37.42221], [-122.23231, 37.42298], [-122.23288, 37.4235], [-122.23276, 37.42358], [-122.23195, 37.42364], [-122.23101, 37.42343], [-122.23076, 37.42375], [-122.22984, 37.42351], [-122.22939, 37.42373], [-122.22907, 37.42347], [-122.22934, 37.42325], [-122.22933, 37.42288], [-122.23044, 37.42262], [-122.23156, 37.42284], [-122.23186, 37.4225], [-122.2315, 37.42209], [-122.233, 37.42144], [-122.23276, 37.42074]]], [[[-122.23502, 37.42342], [-122.23575, 37.42336], [-122.23606, 37.42277], [-122.23628, 37.42296], [-122.2371, 37.42287], [-122.23723, 37.42309], [-122.23541, 37.4237], [-122.23502, 37.42342]]], [[[-122.23201, 37.4254], [-122.23275, 37.42612], [-122.23268, 37.42638], [-122.23302, 37.42645], [-122.23356, 37.42624], [-122.23496, 37.42694], [-122.23668, 37.42735], [-122.23733, 37.428], [-122.23454, 37.42798], [-122.23119, 37.42535], [-122.23201, 37.4254]]], [[[-122.22701, 37.43039], [-122.22687, 37.43036], [-122.22702, 37.43033], [-122.22701, 37.43039]]], [[[-122.23029, 37.43099], [-122.23055, 37.43049], [-122.23187, 37.43105], [-122.23195, 37.43152], [-122.23053, 37.43141], [-122.23029, 37.43099]]], [[[-122.22716, 37.4315], [-122.22716, 37.43149], [-122.22716, 37.43149], [-122.22716, 37.4315]]], [[[-122.23027, 37.434], [-122.23047, 37.43399], [-122.2303, 37.43416], [-122.23027, 37.434]]], [[[-122.22474, 37.43262], [-122.22516, 37.43293], [-122.22572, 37.43294], [-122.22579, 37.43324], [-122.22557, 37.43343], [-122.22596, 37.4341], [-122.22752, 37.43477], [-122.22918, 37.43511], [-122.22983, 37.43549], [-122.23023, 37.43518], [-122.23082, 37.43566], [-122.23041, 37.43597], [-122.22982, 37.43575], [-122.22928, 37.4359], [-122.22874, 37.43558], [-122.22813, 37.4357], [-122.22779, 37.43531], [-122.22636, 37.43479], [-122.22571, 37.43485], [-122.22537, 37.43359], [-122.22406, 37.43244], [-122.22474, 37.43262]]], [[[-122.20651, 37.36836], [-122.2066, 37.36843], [-122.20674, 37.36852], [-122.20664, 37.36849], [-122.20651, 37.36836]]], [[[-122.20687, 37.36859], [-122.20701, 37.36866], [-122.20716, 37.36873], [-122.20687, 37.36861], [-122.20687, 37.36859]]], [[[-122.20431, 37.36953], [-122.2033, 37.36904], [-122.20366, 37.36852], [-122.20484, 37.36831], [-122.20513, 37.3686], [-122.20431, 37.36953]]], [[[-122.20809, 37.36917], [-122.20808, 37.36918], [-122.20804, 37.36916], [-122.20809, 37.36917]]], [[[-122.2074, 37.37365], [-122.20728, 37.37374], [-122.20718, 37.37367], [-122.2074, 37.37365]]], [[[-122.2243, 37.37614], [-122.22506, 37.37456], [-122.22542, 37.37494], [-122.2257, 37.37573], [-122.22555, 37.37595], [-122.22588, 37.37635], [-122.22604, 37.37606], [-122.22616, 37.37616], [-122.22609, 37.37637], [-122.22548, 37.37668], [-122.22545, 37.37715], [-122.22479, 37.37725], [-122.22422, 37.37766], [-122.2235, 37.37669], [-122.2243, 37.37614]]], [[[-122.22606, 37.3781], [-122.2261, 37.37757], [-122.22669, 37.37743], [-122.22664, 37.37802], [-122.22606, 37.3781]]], [[[-122.22663, 37.38171], [-122.22649, 37.38167], [-122.22649, 37.38161], [-122.22663, 37.38171]]], [[[-122.22727, 37.38246], [-122.22723, 37.38227], [-122.227, 37.38196], [-122.22756, 37.38231], [-122.22727, 37.38246]]], [[[-122.22739, 37.38378], [-122.2274, 37.38391], [-122.22714, 37.38369], [-122.22739, 37.38378]]], [[[-122.22511, 37.38418], [-122.22507, 37.38418], [-122.22507, 37.38415], [-122.22511, 37.38418]]], [[[-122.22423, 37.38528], [-122.22451, 37.38546], [-122.22489, 37.38557], [-122.22437, 37.38545], [-122.22423, 37.38528]]], [[[-122.22062, 37.39464], [-122.22135, 37.39393], [-122.22199, 37.39404], [-122.22367, 37.39524], [-122.22434, 37.39533], [-122.22524, 37.39592], [-122.22211, 37.39684], [-122.22335, 37.39642], [-122.22318, 37.39632], [-122.22322, 37.39561], [-122.22261, 37.39521], [-122.22187, 37.39546], [-122.22062, 37.39464]]], [[[-122.21756, 37.39817], [-122.21882, 37.39776], [-122.21884, 37.39779], [-122.21756, 37.39817]]], [[[-122.21565, 37.39869], [-122.21578, 37.39869], [-122.21552, 37.39877], [-122.21565, 37.39869]]], [[[-122.21525, 37.39885], [-122.21527, 37.39884], [-122.2153, 37.39883], [-122.21525, 37.39885]]], [[[-122.21228, 37.39972], [-122.21368, 37.39927], [-122.21371, 37.3993], [-122.21228, 37.39972]]], [[[-122.2073, 37.40375], [-122.20722, 37.4044], [-122.20691, 37.40459], [-122.2065, 37.40438], [-122.20584, 37.40436], [-122.2058, 37.40395], [-122.20542, 37.40364], [-122.20467, 37.40374], [-122.2044, 37.40422], [-122.20484, 37.40473], [-122.2046, 37.40515], [-122.20484, 37.40575], [-122.20375, 37.40657], [-122.20296, 37.40666], [-122.20235, 37.40697], [-122.20128, 37.40652], [-122.20223, 37.40606], [-122.20209, 37.40585], [-122.20162, 37.40609], [-122.20051, 37.40484], [-122.20064, 37.40419], [-122.20022, 37.40365], [-122.20076, 37.40333], [-122.203, 37.40296], [-122.20523, 37.40214], [-122.20779, 37.40345], [-122.2073, 37.40375]]], [[[-122.2128, 37.40642], [-122.21273, 37.40585], [-122.21201, 37.40561], [-122.21158, 37.40484], [-122.21072, 37.40427], [-122.21009, 37.40429], [-122.2104, 37.40365], [-122.21501, 37.40577], [-122.21498, 37.40632], [-122.2126, 37.40662], [-122.2128, 37.40642]]], [[[-122.20553, 37.40608], [-122.20554, 37.40609], [-122.20552, 37.40609], [-122.20553, 37.40608]]], [[[-122.20966, 37.40699], [-122.20988, 37.407], [-122.20998, 37.40708], [-122.20966, 37.40699]]], [[[-122.21533, 37.40762], [-122.21389, 37.40719], [-122.21386, 37.40703], [-122.2154, 37.40703], [-122.21533, 37.40762]]], [[[-122.20399, 37.40715], [-122.20478, 37.40644], [-122.20529, 37.40636], [-122.20542, 37.40669], [-122.20599, 37.40698], [-122.20563, 37.40724], [-122.20561, 37.40757], [-122.20458, 37.4083], [-122.20414, 37.40812], [-122.20354, 37.40826], [-122.20284, 37.40813], [-122.20263, 37.40784], [-122.2022, 37.40769], [-122.20118, 37.40811], [-122.20077, 37.40746], [-122.19991, 37.40733], [-122.20032, 37.40703], [-122.20105, 37.40709], [-122.20183, 37.40756], [-122.20219, 37.40755], [-122.20302, 37.40721], [-122.20399, 37.40715]]], [[[-122.20448, 37.4093], [-122.20476, 37.40887], [-122.20602, 37.408], [-122.20764, 37.40732], [-122.20897, 37.40738], [-122.21046, 37.40769], [-122.21134, 37.40879], [-122.21186, 37.40901], [-122.21253, 37.40875], [-122.21286, 37.40773], [-122.21357, 37.40767], [-122.21416, 37.40784], [-122.21547, 37.40822], [-122.21666, 37.40882], [-122.21803, 37.41089], [-122.21847, 37.41121], [-122.21852, 37.4114], [-122.21812, 37.41178], [-122.21813, 37.41281], [-122.21876, 37.41307], [-122.2197, 37.41294], [-122.22004, 37.41328], [-122.22044, 37.41329], [-122.22054, 37.41398], [-122.21528, 37.41461], [-122.21403, 37.41452], [-122.21333, 37.41482], [-122.2107, 37.41516], [-122.20915, 37.41378], [-122.20748, 37.41286], [-122.2015, 37.41088], [-122.2018, 37.4101], [-122.20284, 37.40962], [-122.20361, 37.40979], [-122.20448, 37.4093]], [[-122.20976, 37.41152], [-122.20808, 37.41022], [-122.20751, 37.41102], [-122.21064, 37.41215], [-122.21189, 37.41198], [-122.20976, 37.41152]], [[-122.21404, 37.41155], [-122.21441, 37.41156], [-122.21445, 37.41135], [-122.21424, 37.41147], [-122.21404, 37.41155]]], [[[-122.21787, 37.40948], [-122.22223, 37.41292], [-122.22239, 37.41373], [-122.22122, 37.41387], [-122.22102, 37.41292], [-122.22037, 37.41276], [-122.22019, 37.41196], [-122.21932, 37.41146], [-122.21787, 37.40948]]], [[[-122.20882, 37.41459], [-122.2073, 37.41444], [-122.20629, 37.41492], [-122.20603, 37.41535], [-122.20576, 37.4154], [-122.20558, 37.4151], [-122.20502, 37.41492], [-122.2046, 37.41447], [-122.20393, 37.41432], [-122.20342, 37.41457], [-122.20245, 37.41419], [-122.20237, 37.41368], [-122.20217, 37.4137], [-122.20098, 37.41281], [-122.19979, 37.41328], [-122.20061, 37.41357], [-122.20038, 37.4138], [-122.19979, 37.41357], [-122.19935, 37.4127], [-122.19879, 37.41245], [-122.19906, 37.41237], [-122.19936, 37.41147], [-122.1997, 37.41118], [-122.20656, 37.41333], [-122.20882, 37.41459]]], [[[-122.20186, 37.41411], [-122.20192, 37.41418], [-122.20184, 37.41421], [-122.20186, 37.41411]]], [[[-122.21093, 37.41735], [-122.21118, 37.41731], [-122.21097, 37.41753], [-122.21093, 37.41735]]], [[[-122.20894, 37.41768], [-122.20903, 37.41798], [-122.2089, 37.418], [-122.20892, 37.4179], [-122.20894, 37.41768]]], [[[-122.2077, 37.41898], [-122.20759, 37.41796], [-122.20822, 37.418], [-122.20769, 37.4193], [-122.20717, 37.41968], [-122.20718, 37.41934], [-122.2077, 37.41898]]], [[[-122.22344, 37.41848], [-122.22298, 37.41915], [-122.22318, 37.41975], [-122.22409, 37.42048], [-122.22255, 37.41955], [-122.22113, 37.41899], [-122.22225, 37.41862], [-122.22344, 37.41848]]], [[[-122.21741, 37.41909], [-122.21605, 37.41954], [-122.2156, 37.41882], [-122.21741, 37.41909]]], [[[-122.21036, 37.42011], [-122.21079, 37.41932], [-122.2111, 37.42007], [-122.21036, 37.42011]]], [[[-122.22049, 37.4202], [-122.21988, 37.41998], [-122.21704, 37.42029], [-122.21973, 37.41945], [-122.22169, 37.42005], [-122.22128, 37.42057], [-122.2213, 37.42103], [-122.22077, 37.42106], [-122.2208, 37.42068], [-122.22049, 37.4202]]], [[[-122.2084, 37.42032], [-122.20653, 37.4207], [-122.20508, 37.42089], [-122.2053, 37.42055], [-122.20666, 37.42043], [-122.20794, 37.41992], [-122.2084, 37.42032]]], [[[-122.20424, 37.42097], [-122.20148, 37.42127], [-122.20056, 37.42139], [-122.20068, 37.42084], [-122.201, 37.4207], [-122.20191, 37.42087], [-122.20258, 37.42074], [-122.203, 37.42045], [-122.20386, 37.42063], [-122.20424, 37.42097]]], [[[-122.22439, 37.42234], [-122.2241, 37.42276], [-122.22328, 37.42157], [-122.22357, 37.42115], [-122.22523, 37.42229], [-122.22483, 37.4222], [-122.22439, 37.42234]]], [[[-122.21655, 37.4241], [-122.21627, 37.42264], [-122.21597, 37.42232], [-122.21595, 37.42139], [-122.21515, 37.42108], [-122.21453, 37.4212], [-122.2138, 37.42107], [-122.21381, 37.42079], [-122.2145, 37.42096], [-122.21651, 37.42083], [-122.21623, 37.42127], [-122.21621, 37.42202], [-122.21664, 37.42255], [-122.21732, 37.42252], [-122.21787, 37.42207], [-122.21843, 37.42359], [-122.21723, 37.42365], [-122.21708, 37.42324], [-122.21708, 37.42368], [-122.21655, 37.4241]]], [[[-122.22743, 37.42447], [-122.22575, 37.4243], [-122.22505, 37.42376], [-122.22446, 37.42375], [-122.22436, 37.42338], [-122.225, 37.42366], [-122.22564, 37.42338], [-122.22576, 37.42291], [-122.22537, 37.42239], [-122.22791, 37.42426], [-122.22743, 37.42447]]], [[[-122.21291, 37.42411], [-122.21279, 37.42414], [-122.21257, 37.42411], [-122.21291, 37.42411]]], [[[-122.21365, 37.42434], [-122.2159, 37.42487], [-122.21631, 37.42469], [-122.21654, 37.42427], [-122.21662, 37.42493], [-122.21435, 37.42501], [-122.21382, 37.42485], [-122.21365, 37.42434]]], [[[-122.2207, 37.42606], [-122.22098, 37.42668], [-122.22141, 37.42682], [-122.22129, 37.42705], [-122.21997, 37.42819], [-122.21913, 37.42839], [-122.21852, 37.428], [-122.21788, 37.42793], [-122.21714, 37.42736], [-122.21557, 37.42697], [-122.21457, 37.42597], [-122.21471, 37.42555], [-122.21586, 37.42552], [-122.21607, 37.42646], [-122.21641, 37.42684], [-122.21694, 37.42701], [-122.21755, 37.42685], [-122.21945, 37.42679], [-122.22017, 37.42625], [-122.22029, 37.42579], [-122.2207, 37.42606]]], [[[-122.22551, 37.43007], [-122.2255, 37.43009], [-122.22551, 37.43007], [-122.22551, 37.43007]]], [[[-122.22584, 37.43023], [-122.22679, 37.43036], [-122.2266, 37.43065], [-122.22584, 37.43023]]], [[[-122.22548, 37.43056], [-122.22526, 37.43055], [-122.22533, 37.43033], [-122.22548, 37.43056]]], [[[-122.19883, 37.35715], [-122.19809, 37.3575], [-122.19883, 37.35715], [-122.19883, 37.35715]]], [[[-122.19792, 37.35769], [-122.19792, 37.35769], [-122.19815, 37.3577], [-122.19792, 37.35769]]], [[[-122.19882, 37.35815], [-122.19882, 37.35832], [-122.1988, 37.35821], [-122.19882, 37.35815]]], [[[-122.19873, 37.35855], [-122.19869, 37.35871], [-122.1986, 37.3587], [-122.19873, 37.35855]]], [[[-122.19798, 37.363], [-122.19691, 37.36319], [-122.19623, 37.3629], [-122.19609, 37.36268], [-122.19565, 37.36262], [-122.19571, 37.36238], [-122.19513, 37.36244], [-122.19492, 37.36204], [-122.1954, 37.36186], [-122.19602, 37.36235], [-122.19635, 37.36221], [-122.19681, 37.36148], [-122.19752, 37.36177], [-122.19806, 37.36155], [-122.19824, 37.36093], [-122.19846, 37.36089], [-122.19878, 37.36164], [-122.19877, 37.36246], [-122.19798, 37.363]]], [[[-122.19876, 37.36387], [-122.19776, 37.3639], [-122.19774, 37.3636], [-122.19877, 37.36324], [-122.19876, 37.36387]]], [[[-122.19418, 37.36533], [-122.193, 37.36502], [-122.19292, 37.36485], [-122.19302, 37.36474], [-122.19389, 37.36494], [-122.19432, 37.3648], [-122.19418, 37.36533]]], [[[-122.19601, 37.36613], [-122.19643, 37.36617], [-122.19662, 37.36623], [-122.1957, 37.36613], [-122.1958, 37.36584], [-122.19601, 37.36613]]], [[[-122.20092, 37.36661], [-122.20132, 37.36646], [-122.20114, 37.36735], [-122.20088, 37.36739], [-122.20092, 37.36661]]], [[[-122.19907, 37.36738], [-122.19911, 37.36742], [-122.19907, 37.36738], [-122.19907, 37.36738]]], [[[-122.19525, 37.37163], [-122.19542, 37.3715], [-122.19527, 37.37164], [-122.19525, 37.37163]]], [[[-122.19705, 37.37166], [-122.19706, 37.37164], [-122.19707, 37.37166], [-122.19705, 37.37166]]], [[[-122.20075, 37.37491], [-122.20207, 37.37211], [-122.20272, 37.37258], [-122.2027, 37.37278], [-122.20196, 37.37287], [-122.20157, 37.37333], [-122.20156, 37.37399], [-122.20203, 37.37435], [-122.20173, 37.37473], [-122.20075, 37.37491]]], [[[-122.19815, 37.37329], [-122.19804, 37.37294], [-122.1984, 37.3727], [-122.19902, 37.37298], [-122.19902, 37.37339], [-122.19815, 37.37329]]], [[[-122.19803, 37.37352], [-122.19798, 37.37337], [-122.19817, 37.37342], [-122.19803, 37.37352]]], [[[-122.19586, 37.37345], [-122.19554, 37.37354], [-122.19564, 37.37334], [-122.19586, 37.37345]]], [[[-122.19546, 37.37392], [-122.19595, 37.37407], [-122.19635, 37.37449], [-122.19556, 37.37415], [-122.19499, 37.3746], [-122.19546, 37.37392]]], [[[-122.19753, 37.37475], [-122.19776, 37.37452], [-122.19781, 37.37444], [-122.19791, 37.37453], [-122.19753, 37.37475]]], [[[-122.20069, 37.37502], [-122.20073, 37.37494], [-122.20074, 37.375], [-122.20069, 37.37502]]], [[[-122.19983, 37.37573], [-122.19904, 37.37552], [-122.19966, 37.37507], [-122.19994, 37.37515], [-122.19983, 37.37573]]], [[[-122.19831, 37.3767], [-122.19846, 37.37699], [-122.19856, 37.37712], [-122.19812, 37.37688], [-122.19831, 37.3767]]], [[[-122.19459, 37.38158], [-122.19472, 37.38048], [-122.19526, 37.37985], [-122.19589, 37.38015], [-122.19459, 37.38158]]], [[[-122.19249, 37.38349], [-122.19261, 37.38344], [-122.19265, 37.3835], [-122.19249, 37.38349]]], [[[-122.19193, 37.39631], [-122.19197, 37.39647], [-122.19182, 37.39599], [-122.19193, 37.39631]]], [[[-122.19188, 37.39937], [-122.19217, 37.39937], [-122.1921, 37.39969], [-122.19202, 37.39955], [-122.1918, 37.3996], [-122.19188, 37.39937]]], [[[-122.19207, 37.40025], [-122.19215, 37.40066], [-122.19195, 37.40105], [-122.1921, 37.40292], [-122.19231, 37.40312], [-122.19144, 37.40271], [-122.19199, 37.40234], [-122.19187, 37.40178], [-122.19139, 37.40156], [-122.19087, 37.40165], [-122.19054, 37.40207], [-122.19073, 37.40256], [-122.19004, 37.40269], [-122.18973, 37.40309], [-122.18983, 37.40361], [-122.19036, 37.40394], [-122.19037, 37.40419], [-122.18991, 37.40432], [-122.18949, 37.40474], [-122.18898, 37.40472], [-122.18855, 37.40495], [-122.18967, 37.40489], [-122.18989, 37.40528], [-122.19042, 37.40544], [-122.19043, 37.40642], [-122.19111, 37.40675], [-122.19179, 37.40669], [-122.19216, 37.40618], [-122.19282, 37.40601], [-122.1929, 37.40642], [-122.19341, 37.40644], [-122.19357, 37.40667], [-122.19391, 37.40674], [-122.19246, 37.40684], [-122.19246, 37.40709], [-122.19275, 37.40734], [-122.19368, 37.40745], [-122.19372, 37.40781], [-122.1929, 37.40781], [-122.19249, 37.40761], [-122.19208, 37.40768], [-122.19215, 37.40787], [-122.19081, 37.40723], [-122.18932, 37.40618], [-122.17766, 37.39451], [-122.17649, 37.39355], [-122.17449, 37.39251], [-122.17174, 37.39187], [-122.1719, 37.39165], [-122.17269, 37.39158], [-122.17365, 37.39184], [-122.17289, 37.39123], [-122.17339, 37.39122], [-122.17366, 37.3915], [-122.17384, 37.39129], [-122.17365, 37.39107], [-122.17404, 37.39123], [-122.1742, 37.39086], [-122.17464, 37.39075], [-122.1762, 37.39135], [-122.17789, 37.39233], [-122.17676, 37.39074], [-122.17654, 37.39013], [-122.17523, 37.3906], [-122.17487, 37.39003], [-122.17458, 37.39024], [-122.17375, 37.39024], [-122.17358, 37.39062], [-122.17344, 37.39028], [-122.17216, 37.39053], [-122.17149, 37.39032], [-122.17131, 37.39045], [-122.17107, 37.39021], [-122.17031, 37.39022], [-122.16979, 37.39048], [-122.16979, 37.39023], [-122.17088, 37.3901], [-122.1723, 37.39048], [-122.18066, 37.38892], [-122.17885, 37.38692], [-122.18024, 37.38578], [-122.18047, 37.38586], [-122.18019, 37.38616], [-122.17999, 37.38691], [-122.18019, 37.38751], [-122.18122, 37.38787], [-122.18194, 37.38781], [-122.18239, 37.38678], [-122.18206, 37.38628], [-122.18129, 37.38583], [-122.18146, 37.3857], [-122.18119, 37.38565], [-122.18126, 37.38545], [-122.18188, 37.38571], [-122.18236, 37.38555], [-122.18298, 37.38562], [-122.1834, 37.38536], [-122.1839, 37.38581], [-122.1843, 37.38584], [-122.18479, 37.3857], [-122.18617, 37.38576], [-122.18683, 37.38558], [-122.18711, 37.3853], [-122.18825, 37.38567], [-122.18906, 37.38573], [-122.18954, 37.38631], [-122.19013, 37.38645], [-122.19026, 37.38664], [-122.18972, 37.38701], [-122.18969, 37.38746], [-122.18995, 37.38756], [-122.19013, 37.3873], [-122.19066, 37.38748], [-122.19058, 37.38768], [-122.19104, 37.38832], [-122.19097, 37.38875], [-122.19006, 37.38886], [-122.19007, 37.38965], [-122.1905, 37.38993], [-122.19051, 37.39044], [-122.19011, 37.39054], [-122.18983, 37.39098], [-122.18953, 37.39094], [-122.18933, 37.39144], [-122.18975, 37.39228], [-122.19028, 37.39217], [-122.19037, 37.3927], [-122.18972, 37.39238], [-122.18971, 37.3929], [-122.18923, 37.39232], [-122.18884, 37.39223], [-122.18894, 37.39257], [-122.18843, 37.39281], [-122.18833, 37.39322], [-122.18886, 37.39393], [-122.1898, 37.39377], [-122.18962, 37.39449], [-122.19021, 37.39536], [-122.1907, 37.39547], [-122.1911, 37.39536], [-122.19099, 37.39519], [-122.1912, 37.39498], [-122.19095, 37.39482], [-122.19113, 37.39444], [-122.19155, 37.39539], [-122.19103, 37.39551], [-122.19114, 37.39586], [-122.19079, 37.39574], [-122.19163, 37.39717], [-122.19135, 37.39762], [-122.19093, 37.39762], [-122.19092, 37.39712], [-122.19047, 37.39669], [-122.18939, 37.39652], [-122.1887, 37.39667], [-122.18846, 37.39718], [-122.18874, 37.39757], [-122.18941, 37.39766], [-122.1897, 37.39794], [-122.19063, 37.39793], [-122.19078, 37.3982], [-122.19132, 37.398], [-122.19102, 37.39877], [-122.1914, 37.39944], [-122.19081, 37.3994], [-122.19042, 37.39961], [-122.19014, 37.40015], [-122.1903, 37.40068], [-122.19097, 37.40104], [-122.19157, 37.40105], [-122.19198, 37.40081], [-122.19207, 37.40025]], [[-122.18863, 37.39182], [-122.18888, 37.3919], [-122.18883, 37.39138], [-122.18863, 37.3915], [-122.18863, 37.39182]], [[-122.18648, 37.39167], [-122.18718, 37.38993], [-122.18697, 37.3893], [-122.18718, 37.38858], [-122.18558, 37.38759], [-122.18525, 37.38767], [-122.18506, 37.38812], [-122.18532, 37.38885], [-122.18517, 37.3893], [-122.18534, 37.38991], [-122.18457, 37.3905], [-122.18429, 37.39013], [-122.18387, 37.39005], [-122.18324, 37.39082], [-122.18232, 37.39056], [-122.18187, 37.39018], [-122.18081, 37.39005], [-122.17951, 37.38934], [-122.17903, 37.38945], [-122.17882, 37.38977], [-122.17969, 37.39118], [-122.18036, 37.39159], [-122.18094, 37.39155], [-122.18187, 37.39189], [-122.18238, 37.39231], [-122.18096, 37.39297], [-122.18077, 37.39328], [-122.18093, 37.39361], [-122.18172, 37.39378], [-122.18386, 37.39344], [-122.18447, 37.39495], [-122.18485, 37.39518], [-122.18649, 37.39515], [-122.1869, 37.39489], [-122.18705, 37.39424], [-122.18645, 37.39382], [-122.18646, 37.39304], [-122.1869, 37.39215], [-122.18648, 37.39167]], [[-122.1883, 37.38774], [-122.18885, 37.38694], [-122.189, 37.38717], [-122.1894, 37.38683], [-122.189, 37.38642], [-122.18881, 37.38578], [-122.18866, 37.38622], [-122.18889, 37.38637], [-122.18842, 37.38701], [-122.1883, 37.38774]], [[-122.18832, 37.3872], [-122.18815, 37.3871], [-122.18778, 37.38741], [-122.18791, 37.38744], [-122.18832, 37.3872]], [[-122.18736, 37.38823], [-122.18797, 37.38806], [-122.18817, 37.38771], [-122.18769, 37.38784], [-122.18736, 37.38823]], [[-122.18897, 37.38905], [-122.18902, 37.38848], [-122.18882, 37.38812], [-122.18834, 37.38837], [-122.18837, 37.38863], [-122.1886, 37.38915], [-122.18897, 37.38905]], [[-122.18966, 37.40106], [-122.18947, 37.40013], [-122.19005, 37.39979], [-122.19008, 37.39913], [-122.18849, 37.39834], [-122.1879, 37.39865], [-122.18785, 37.39942], [-122.18728, 37.39929], [-122.18682, 37.3995], [-122.18667, 37.3999], [-122.18689, 37.40026], [-122.1864, 37.40028], [-122.1863, 37.40054], [-122.18692, 37.40039], [-122.18739, 37.40095], [-122.18819, 37.40091], [-122.18842, 37.40128], [-122.18891, 37.40143], [-122.18936, 37.40134], [-122.18966, 37.40106]], [[-122.18279, 37.39623], [-122.18231, 37.39557], [-122.18146, 37.3956], [-122.18373, 37.39784], [-122.18473, 37.39702], [-122.1837, 37.3968], [-122.18279, 37.39623]], [[-122.17853, 37.39281], [-122.17848, 37.39275], [-122.17839, 37.3927], [-122.17853, 37.39281]], [[-122.18892, 37.39648], [-122.18898, 37.39616], [-122.18912, 37.39589], [-122.18883, 37.39605], [-122.18892, 37.39648]], [[-122.19109, 37.39648], [-122.19094, 37.39656], [-122.19107, 37.39753], [-122.19129, 37.39681], [-122.19109, 37.39648]], [[-122.19003, 37.39846], [-122.1903, 37.39838], [-122.19026, 37.398], [-122.19014, 37.39803], [-122.19003, 37.39846]]], [[[-122.19963, 37.40424], [-122.19948, 37.40373], [-122.19988, 37.40372], [-122.20024, 37.4042], [-122.20012, 37.40453], [-122.19963, 37.40424]]], [[[-122.19203, 37.40401], [-122.1922, 37.40405], [-122.19212, 37.40422], [-122.19203, 37.40401]]], [[[-122.19219, 37.40455], [-122.19216, 37.40452], [-122.19216, 37.40452], [-122.19219, 37.40455]]], [[[-122.19755, 37.40546], [-122.19872, 37.4056], [-122.19955, 37.40474], [-122.2001, 37.40476], [-122.20131, 37.40621], [-122.19998, 37.40668], [-122.19896, 37.40729], [-122.19914, 37.40665], [-122.19869, 37.40622], [-122.19812, 37.40626], [-122.19775, 37.40659], [-122.19636, 37.40652], [-122.19561, 37.40611], [-122.19481, 37.40625], [-122.19414, 37.40585], [-122.19563, 37.40525], [-122.19601, 37.40481], [-122.1966, 37.40493], [-122.19739, 37.40467], [-122.19768, 37.40425], [-122.19811, 37.40485], [-122.19883, 37.40458], [-122.1985, 37.4051], [-122.19748, 37.40478], [-122.19735, 37.4049], [-122.19755, 37.40546]], [[-122.19561, 37.40593], [-122.19514, 37.40576], [-122.19491, 37.40583], [-122.19518, 37.40599], [-122.19561, 37.40593]]], [[[-122.19557, 37.40796], [-122.19639, 37.40779], [-122.19672, 37.4074], [-122.19653, 37.40689], [-122.19585, 37.40672], [-122.19581, 37.40656], [-122.19753, 37.40715], [-122.19712, 37.40679], [-122.19764, 37.40685], [-122.19796, 37.40743], [-122.19866, 37.40748], [-122.19857, 37.40821], [-122.19904, 37.40946], [-122.19878, 37.40995], [-122.19724, 37.40928], [-122.19661, 37.40861], [-122.19557, 37.40796]]], [[[-122.19243, 37.40798], [-122.19384, 37.40808], [-122.19421, 37.40824], [-122.19333, 37.40828], [-122.19243, 37.40798]]], [[[-122.19588, 37.40908], [-122.19606, 37.40915], [-122.19556, 37.40899], [-122.19582, 37.40868], [-122.19565, 37.40845], [-122.19524, 37.40843], [-122.19525, 37.40808], [-122.19602, 37.40836], [-122.1975, 37.40961], [-122.19664, 37.40934], [-122.19618, 37.40875], [-122.19588, 37.40908]]], [[[-122.19925, 37.40996], [-122.20029, 37.40919], [-122.20084, 37.41], [-122.20069, 37.41014], [-122.20023, 37.41004], [-122.19926, 37.41017], [-122.19925, 37.40996]]], [[[-122.19702, 37.41029], [-122.19493, 37.41027], [-122.19501, 37.40982], [-122.19527, 37.40996], [-122.1956, 37.40984], [-122.19702, 37.41029]]], [[[-122.19408, 37.41018], [-122.19289, 37.40986], [-122.19336, 37.41032], [-122.19305, 37.4104], [-122.19215, 37.40985], [-122.19193, 37.40999], [-122.1908, 37.40915], [-122.19069, 37.40928], [-122.19109, 37.40981], [-122.19027, 37.40944], [-122.1902, 37.40956], [-122.192, 37.41059], [-122.1924, 37.41054], [-122.1927, 37.41072], [-122.19243, 37.41144], [-122.19222, 37.41153], [-122.191, 37.41127], [-122.18965, 37.41151], [-122.19042, 37.412], [-122.19137, 37.41205], [-122.19198, 37.41233], [-122.19191, 37.4127], [-122.19172, 37.41262], [-122.19117, 37.41299], [-122.19073, 37.4126], [-122.18989, 37.4126], [-122.18936, 37.41305], [-122.18786, 37.41271], [-122.18661, 37.41273], [-122.18527, 37.4123], [-122.1848, 37.41192], [-122.1855, 37.41126], [-122.18655, 37.4107], [-122.19068, 37.41001], [-122.18865, 37.40911], [-122.18769, 37.40845], [-122.18058, 37.4015], [-122.18082, 37.40251], [-122.1806, 37.40425], [-122.18219, 37.40457], [-122.18356, 37.40537], [-122.18468, 37.40672], [-122.18497, 37.40812], [-122.18472, 37.41019], [-122.18375, 37.41161], [-122.18019, 37.40995], [-122.18006, 37.41056], [-122.18304, 37.4123], [-122.18555, 37.41268], [-122.18701, 37.41317], [-122.18631, 37.41345], [-122.18669, 37.41401], [-122.18648, 37.4142], [-122.18555, 37.4142], [-122.18507, 37.41441], [-122.18494, 37.41528], [-122.18446, 37.4154], [-122.1841, 37.41568], [-122.18413, 37.41588], [-122.18448, 37.41592], [-122.18513, 37.41567], [-122.1857, 37.41591], [-122.18625, 37.41541], [-122.18611, 37.41598], [-122.18642, 37.4166], [-122.1871, 37.41723], [-122.18933, 37.41764], [-122.18963, 37.41854], [-122.18835, 37.41884], [-122.18697, 37.42001], [-122.18665, 37.42051], [-122.18676, 37.42069], [-122.18722, 37.42014], [-122.18754, 37.4202], [-122.18778, 37.42061], [-122.18745, 37.42083], [-122.18766, 37.42141], [-122.18753, 37.42174], [-122.18804, 37.42266], [-122.18924, 37.42353], [-122.18988, 37.42364], [-122.19018, 37.42403], [-122.18695, 37.42248], [-122.18731, 37.42199], [-122.18693, 37.42147], [-122.18575, 37.42103], [-122.18508, 37.42114], [-122.18467, 37.42051], [-122.18377, 37.42023], [-122.18285, 37.42047], [-122.18312, 37.41982], [-122.18254, 37.41935], [-122.18267, 37.41884], [-122.18245, 37.41822], [-122.18209, 37.41795], [-122.18215, 37.41728], [-122.18179, 37.41678], [-122.18126, 37.41667], [-122.18082, 37.41688], [-122.18066, 37.41717], [-122.18076, 37.41758], [-122.18023, 37.41786], [-122.1801, 37.41832], [-122.17878, 37.41731], [-122.17879, 37.41692], [-122.17927, 37.41685], [-122.17963, 37.41644], [-122.17997, 37.4164], [-122.17986, 37.41592], [-122.18038, 37.41555], [-122.1805, 37.41613], [-122.18107, 37.41655], [-122.18184, 37.41659], [-122.18253, 37.41627], [-122.1826, 37.4167], [-122.18317, 37.41718], [-122.18452, 37.41739], [-122.18491, 37.4176], [-122.18547, 37.41747], [-122.18496, 37.41717], [-122.18407, 37.41704], [-122.1843, 37.41672], [-122.18401, 37.41618], [-122.18355, 37.41589], [-122.18271, 37.41569], [-122.18258, 37.41527], [-122.18218, 37.41491], [-122.1813, 37.41477], [-122.18045, 37.41509], [-122.17953, 37.41512], [-122.17826, 37.41558], [-122.17834, 37.41572], [-122.17943, 37.41573], [-122.17935, 37.41586], [-122.17889, 37.41575], [-122.17846, 37.41589], [-122.17821, 37.41625], [-122.17825, 37.41659], [-122.17698, 37.41683], [-122.17704, 37.41698], [-122.17653, 37.4172], [-122.17583, 37.41865], [-122.17416, 37.41654], [-122.1732, 37.41608], [-122.17132, 37.41474], [-122.17153, 37.41406], [-122.17124, 37.41351], [-122.17059, 37.41337], [-122.17011, 37.41285], [-122.16914, 37.41233], [-122.16701, 37.41191], [-122.16657, 37.41163], [-122.16544, 37.41153], [-122.16509, 37.41176], [-122.16494, 37.41217], [-122.1639, 37.41179], [-122.16188, 37.41042], [-122.16208, 37.41003], [-122.16187, 37.40964], [-122.16135, 37.40947], [-122.16083, 37.40967], [-122.15645, 37.40632], [-122.15728, 37.40485], [-122.15828, 37.40394], [-122.15918, 37.40393], [-122.15923, 37.40361], [-122.15895, 37.40372], [-122.15936, 37.40347], [-122.15957, 37.40285], [-122.15946, 37.40248], [-122.15974, 37.40269], [-122.16016, 37.40268], [-122.15998, 37.40286], [-122.16018, 37.40301], [-122.1601, 37.40315], [-122.16031, 37.40333], [-122.16041, 37.4032], [-122.16059, 37.40244], [-122.16028, 37.40199], [-122.15958, 37.40183], [-122.15946, 37.40194], [-122.15942, 37.40134], [-122.16038, 37.40174], [-122.16033, 37.40131], [-122.16, 37.40146], [-122.15974, 37.40122], [-122.15971, 37.40097], [-122.16008, 37.40098], [-122.16013, 37.40078], [-122.15968, 37.40068], [-122.16012, 37.39958], [-122.16043, 37.39962], [-122.16068, 37.39942], [-122.1605, 37.39921], [-122.16075, 37.39899], [-122.16118, 37.39995], [-122.16095, 37.40042], [-122.16113, 37.40074], [-122.16168, 37.40056], [-122.16179, 37.40037], [-122.16153, 37.39984], [-122.16182, 37.40015], [-122.16233, 37.40029], [-122.16355, 37.40005], [-122.16336, 37.40024], [-122.16359, 37.40044], [-122.16405, 37.40039], [-122.16434, 37.40016], [-122.16402, 37.40013], [-122.16381, 37.39982], [-122.16347, 37.39983], [-122.16372, 37.39954], [-122.16429, 37.39941], [-122.16501, 37.39955], [-122.16466, 37.39921], [-122.16468, 37.39893], [-122.16504, 37.39888], [-122.16508, 37.39848], [-122.16598, 37.3989], [-122.16572, 37.39897], [-122.16559, 37.39938], [-122.16615, 37.39985], [-122.16665, 37.39936], [-122.16657, 37.39915], [-122.16735, 37.39916], [-122.16731, 37.39885], [-122.16765, 37.3985], [-122.16772, 37.39813], [-122.16703, 37.39748], [-122.16851, 37.39778], [-122.17183, 37.39744], [-122.17199, 37.39721], [-122.17105, 37.39701], [-122.16947, 37.39699], [-122.1682, 37.39673], [-122.16782, 37.39644], [-122.16764, 37.39661], [-122.16644, 37.39657], [-122.16621, 37.39648], [-122.16619, 37.39586], [-122.16781, 37.3963], [-122.16849, 37.39602], [-122.16858, 37.39562], [-122.16829, 37.39515], [-122.16904, 37.39382], [-122.16878, 37.39243], [-122.17162, 37.39261], [-122.17408, 37.39321], [-122.1762, 37.39443], [-122.18856, 37.4067], [-122.19039, 37.40796], [-122.19294, 37.40898], [-122.19346, 37.40957], [-122.19346, 37.40987], [-122.19382, 37.41009], [-122.19412, 37.40995], [-122.19408, 37.41018]], [[-122.18105, 37.40956], [-122.18118, 37.40882], [-122.18095, 37.40847], [-122.18128, 37.40799], [-122.18115, 37.40745], [-122.18172, 37.40746], [-122.18205, 37.40721], [-122.18197, 37.40686], [-122.18097, 37.40693], [-122.18084, 37.40712], [-122.17976, 37.40731], [-122.17896, 37.40801], [-122.17912, 37.40854], [-122.17972, 37.40872], [-122.17964, 37.40934], [-122.17986, 37.40967], [-122.18055, 37.40982], [-122.18105, 37.40956]], [[-122.17794, 37.40952], [-122.17807, 37.40902], [-122.17789, 37.40874], [-122.17766, 37.40872], [-122.17733, 37.40896], [-122.17768, 37.40952], [-122.17794, 37.40952]], [[-122.17714, 37.40956], [-122.17694, 37.40941], [-122.17663, 37.41028], [-122.17607, 37.41054], [-122.17557, 37.41022], [-122.17584, 37.40996], [-122.17533, 37.40894], [-122.17575, 37.40883], [-122.17594, 37.40853], [-122.17652, 37.40851], [-122.17671, 37.40824], [-122.17727, 37.40826], [-122.1774, 37.40787], [-122.17676, 37.40708], [-122.17624, 37.40711], [-122.17594, 37.40759], [-122.17524, 37.40782], [-122.17534, 37.40737], [-122.17576, 37.40731], [-122.176, 37.40707], [-122.17536, 37.407], [-122.17472, 37.40631], [-122.17452, 37.40629], [-122.17442, 37.40655], [-122.17491, 37.40696], [-122.17416, 37.40672], [-122.17424, 37.40653], [-122.17326, 37.40602], [-122.17251, 37.40618], [-122.17227, 37.40541], [-122.17126, 37.40505], [-122.17144, 37.40457], [-122.17109, 37.40439], [-122.17019, 37.40427], [-122.17004, 37.40449], [-122.16955, 37.40437], [-122.16944, 37.40488], [-122.16923, 37.40495], [-122.16901, 37.40447], [-122.16805, 37.40471], [-122.16845, 37.40534], [-122.16824, 37.4058], [-122.16841, 37.40621], [-122.16875, 37.40633], [-122.16873, 37.40658], [-122.16903, 37.4067], [-122.17023, 37.40636], [-122.16993, 37.40693], [-122.17049, 37.40791], [-122.17, 37.40817], [-122.17007, 37.4084], [-122.17025, 37.4086], [-122.17068, 37.40863], [-122.17059, 37.4089], [-122.17083, 37.40928], [-122.17152, 37.40933], [-122.17154, 37.40969], [-122.17109, 37.40991], [-122.17116, 37.41016], [-122.17092, 37.41033], [-122.1712, 37.41049], [-122.17186, 37.41016], [-122.17224, 37.4097], [-122.1721, 37.41033], [-122.17276, 37.41077], [-122.17144, 37.41163], [-122.17139, 37.41183], [-122.17094, 37.41199], [-122.17098, 37.41224], [-122.17064, 37.41233], [-122.17088, 37.4127], [-122.17137, 37.41267], [-122.17137, 37.41228], [-122.17207, 37.41207], [-122.1732, 37.41099], [-122.17451, 37.41204], [-122.17488, 37.41114], [-122.17538, 37.41112], [-122.1765, 37.41059], [-122.17695, 37.41049], [-122.17725, 37.41071], [-122.17781, 37.41044], [-122.17719, 37.41023], [-122.17714, 37.40956]], [[-122.17575, 37.40402], [-122.17638, 37.40413], [-122.17693, 37.40375], [-122.17683, 37.40319], [-122.1771, 37.40257], [-122.17665, 37.40213], [-122.17607, 37.40213], [-122.17571, 37.40244], [-122.17542, 37.40341], [-122.17575, 37.40402]], [[-122.17618, 37.40182], [-122.17671, 37.40114], [-122.17705, 37.40102], [-122.17724, 37.40062], [-122.177, 37.40042], [-122.17639, 37.40122], [-122.17566, 37.40169], [-122.17618, 37.40182]], [[-122.16536, 37.4095], [-122.16602, 37.40952], [-122.16534, 37.40976], [-122.16546, 37.41], [-122.16626, 37.40975], [-122.16668, 37.41004], [-122.16695, 37.40986], [-122.16678, 37.40962], [-122.16699, 37.40952], [-122.16766, 37.41042], [-122.16806, 37.41062], [-122.16824, 37.41048], [-122.16852, 37.41056], [-122.16847, 37.41023], [-122.16879, 37.41027], [-122.1688, 37.41006], [-122.16844, 37.41005], [-122.16865, 37.40985], [-122.1685, 37.40928], [-122.1692, 37.40927], [-122.16995, 37.40884], [-122.16964, 37.40862], [-122.16997, 37.40781], [-122.16943, 37.40775], [-122.16935, 37.408], [-122.16908, 37.40799], [-122.169, 37.40778], [-122.16814, 37.40767], [-122.168, 37.40707], [-122.16705, 37.40678], [-122.16651, 37.40704], [-122.16705, 37.40718], [-122.16646, 37.40746], [-122.16641, 37.40795], [-122.16683, 37.40811], [-122.16823, 37.40805], [-122.16791, 37.40837], [-122.16739, 37.4083], [-122.16699, 37.4085], [-122.16684, 37.40888], [-122.16699, 37.40924], [-122.16659, 37.40916], [-122.16638, 37.40872], [-122.166, 37.40882], [-122.16577, 37.40849], [-122.16512, 37.40849], [-122.16454, 37.40883], [-122.16437, 37.40869], [-122.16419, 37.40903], [-122.1639, 37.40878], [-122.16368, 37.40886], [-122.16383, 37.40929], [-122.16311, 37.40921], [-122.16316, 37.4094], [-122.16368, 37.40954], [-122.16532, 37.40924], [-122.16536, 37.4095]], [[-122.16505, 37.4083], [-122.16508, 37.40808], [-122.16475, 37.40795], [-122.16463, 37.40753], [-122.16447, 37.40753], [-122.1643, 37.40803], [-122.16365, 37.40807], [-122.1637, 37.40837], [-122.16401, 37.40854], [-122.16505, 37.4083]], [[-122.16461, 37.40413], [-122.16455, 37.40381], [-122.16397, 37.40373], [-122.16437, 37.40423], [-122.16461, 37.40413]], [[-122.16445, 37.40279], [-122.16421, 37.40265], [-122.16422, 37.40299], [-122.16436, 37.40301], [-122.16445, 37.40279]], [[-122.16469, 37.40291], [-122.16458, 37.40348], [-122.16478, 37.40351], [-122.16495, 37.4034], [-122.16487, 37.40304], [-122.16488, 37.40276], [-122.1645, 37.4023], [-122.16435, 37.4024], [-122.16469, 37.40291]], [[-122.17644, 37.41235], [-122.17532, 37.41204], [-122.17517, 37.41274], [-122.17549, 37.41299], [-122.17628, 37.41272], [-122.17644, 37.41235]], [[-122.1822, 37.41368], [-122.18146, 37.41437], [-122.18125, 37.41468], [-122.18194, 37.4144], [-122.1822, 37.41368]], [[-122.18245, 37.41468], [-122.18282, 37.41448], [-122.18231, 37.41414], [-122.18193, 37.41466], [-122.18245, 37.41468]], [[-122.17856, 37.41075], [-122.17861, 37.41135], [-122.17905, 37.41154], [-122.17947, 37.41131], [-122.17911, 37.41099], [-122.17905, 37.41063], [-122.17856, 37.41075]], [[-122.17765, 37.41117], [-122.17712, 37.41212], [-122.17743, 37.41212], [-122.17723, 37.41255], [-122.1783, 37.41232], [-122.17817, 37.41277], [-122.17858, 37.41362], [-122.17893, 37.4137], [-122.1796, 37.41325], [-122.17976, 37.41399], [-122.18023, 37.41398], [-122.18031, 37.41427], [-122.17998, 37.41444], [-122.18059, 37.41464], [-122.18094, 37.41456], [-122.18145, 37.41391], [-122.18212, 37.41355], [-122.18209, 37.41333], [-122.18166, 37.41331], [-122.18096, 37.41284], [-122.18063, 37.4129], [-122.18068, 37.41303], [-122.18118, 37.41332], [-122.18052, 37.41308], [-122.18029, 37.41321], [-122.18002, 37.41303], [-122.18035, 37.41282], [-122.18018, 37.41244], [-122.17967, 37.4119], [-122.1791, 37.41174], [-122.17859, 37.41197], [-122.17852, 37.41171], [-122.17818, 37.41155], [-122.178, 37.41167], [-122.17798, 37.41123], [-122.17765, 37.41117]], [[-122.17622, 37.41447], [-122.17685, 37.4146], [-122.17721, 37.41492], [-122.17735, 37.41474], [-122.17712, 37.41454], [-122.17793, 37.4145], [-122.17897, 37.41415], [-122.17903, 37.41442], [-122.17973, 37.41426], [-122.17891, 37.41382], [-122.17841, 37.4142], [-122.1765, 37.41362], [-122.17659, 37.41398], [-122.17622, 37.4136], [-122.17607, 37.41362], [-122.17616, 37.41397], [-122.17641, 37.41411], [-122.17622, 37.41447]], [[-122.17098, 37.40975], [-122.17126, 37.40977], [-122.17109, 37.40945], [-122.1708, 37.40948], [-122.17098, 37.40975]], [[-122.16886, 37.40959], [-122.16902, 37.40996], [-122.16947, 37.41003], [-122.16909, 37.41045], [-122.1692, 37.4107], [-122.16953, 37.41082], [-122.17016, 37.41058], [-122.17013, 37.41022], [-122.16959, 37.40983], [-122.16979, 37.40962], [-122.16909, 37.40944], [-122.16886, 37.40959]], [[-122.1716, 37.4002], [-122.17113, 37.39995], [-122.17059, 37.40005], [-122.17031, 37.4004], [-122.17045, 37.40085], [-122.1709, 37.40107], [-122.17144, 37.40096], [-122.17172, 37.4006], [-122.1716, 37.4002]], [[-122.16567, 37.40056], [-122.16564, 37.40032], [-122.1655, 37.40031], [-122.16543, 37.40071], [-122.16567, 37.40056]], [[-122.17386, 37.39503], [-122.17266, 37.39453], [-122.17229, 37.39542], [-122.17197, 37.39706], [-122.17293, 37.39732], [-122.17397, 37.39788], [-122.17514, 37.39926], [-122.17619, 37.39912], [-122.17705, 37.39916], [-122.17879, 37.39969], [-122.17495, 37.3958], [-122.17386, 37.39503]], [[-122.17554, 37.39969], [-122.17634, 37.39969], [-122.17648, 37.39938], [-122.1759, 37.39942], [-122.17549, 37.39923], [-122.17485, 37.39938], [-122.17554, 37.39969]], [[-122.16544, 37.39904], [-122.16518, 37.39895], [-122.16503, 37.39932], [-122.16545, 37.39927], [-122.16544, 37.39904]], [[-122.16551, 37.39993], [-122.16571, 37.40028], [-122.1659, 37.40039], [-122.16609, 37.40028], [-122.16612, 37.39991], [-122.16589, 37.4001], [-122.16551, 37.39993]], [[-122.1777, 37.39982], [-122.17753, 37.39956], [-122.17715, 37.39948], [-122.17687, 37.39963], [-122.17699, 37.39982], [-122.1777, 37.39982]], [[-122.16919, 37.40237], [-122.16889, 37.40196], [-122.16836, 37.40185], [-122.16771, 37.4021], [-122.16753, 37.40256], [-122.16781, 37.40295], [-122.16839, 37.40308], [-122.169, 37.40288], [-122.16919, 37.40237]], [[-122.17482, 37.40344], [-122.17485, 37.40302], [-122.17445, 37.40253], [-122.17393, 37.40243], [-122.17346, 37.40267], [-122.17334, 37.40318], [-122.17376, 37.40365], [-122.17434, 37.40375], [-122.17482, 37.40344]], [[-122.16511, 37.40253], [-122.1649, 37.40292], [-122.16513, 37.40381], [-122.16557, 37.40404], [-122.16626, 37.40395], [-122.16663, 37.40347], [-122.16655, 37.40301], [-122.16591, 37.40241], [-122.16511, 37.40253]], [[-122.17092, 37.40328], [-122.16998, 37.40328], [-122.17002, 37.4036], [-122.17032, 37.40372], [-122.17041, 37.40398], [-122.17105, 37.40396], [-122.17146, 37.40415], [-122.17165, 37.40391], [-122.17146, 37.40357], [-122.17092, 37.40328]], [[-122.17206, 37.40374], [-122.17233, 37.40448], [-122.17224, 37.40516], [-122.17257, 37.40547], [-122.17285, 37.4053], [-122.17263, 37.4042], [-122.17205, 37.40346], [-122.17164, 37.40332], [-122.17206, 37.40374]], [[-122.16771, 37.40633], [-122.16817, 37.40677], [-122.16832, 37.40669], [-122.16819, 37.40627], [-122.16779, 37.40622], [-122.16771, 37.40633]], [[-122.16558, 37.40747], [-122.16561, 37.40725], [-122.1652, 37.40726], [-122.16525, 37.40749], [-122.16558, 37.40747]], [[-122.17074, 37.41065], [-122.17038, 37.41117], [-122.17048, 37.41163], [-122.17022, 37.41145], [-122.16956, 37.4114], [-122.17, 37.41178], [-122.16924, 37.41189], [-122.169, 37.41214], [-122.16943, 37.41228], [-122.16999, 37.41221], [-122.17017, 37.41241], [-122.17046, 37.41185], [-122.17082, 37.41175], [-122.17075, 37.41125], [-122.171, 37.41088], [-122.17074, 37.41065]], [[-122.16059, 37.40001], [-122.1605, 37.40027], [-122.16067, 37.40036], [-122.16088, 37.40009], [-122.16059, 37.40001]], [[-122.16289, 37.40229], [-122.16312, 37.4019], [-122.16296, 37.40151], [-122.16244, 37.40128], [-122.16193, 37.40141], [-122.16168, 37.4018], [-122.16183, 37.40219], [-122.16234, 37.40243], [-122.16289, 37.40229]], [[-122.15992, 37.40408], [-122.16102, 37.40446], [-122.16133, 37.40428], [-122.16103, 37.40412], [-122.16097, 37.40378], [-122.16037, 37.40391], [-122.16027, 37.40343], [-122.16007, 37.40351], [-122.15967, 37.40331], [-122.15991, 37.40362], [-122.15992, 37.40408]], [[-122.16157, 37.40533], [-122.16095, 37.40609], [-122.1616, 37.40664], [-122.15983, 37.4079], [-122.15994, 37.40834], [-122.16046, 37.40846], [-122.16136, 37.40836], [-122.16182, 37.40812], [-122.16202, 37.40791], [-122.16184, 37.40784], [-122.16269, 37.40785], [-122.16258, 37.40813], [-122.16294, 37.40815], [-122.16317, 37.40807], [-122.1632, 37.40781], [-122.16409, 37.40764], [-122.16391, 37.40727], [-122.16362, 37.40718], [-122.164, 37.40674], [-122.16297, 37.40626], [-122.16278, 37.40589], [-122.16244, 37.40587], [-122.16198, 37.40538], [-122.16157, 37.40533]]], [[[-122.19636, 37.41112], [-122.19583, 37.41053], [-122.196, 37.41045], [-122.19661, 37.41041], [-122.19742, 37.41054], [-122.19733, 37.41076], [-122.19688, 37.4108], [-122.19636, 37.41112]]], [[[-122.19904, 37.41094], [-122.19849, 37.41184], [-122.19769, 37.41257], [-122.19717, 37.41287], [-122.19659, 37.4128], [-122.19699, 37.41228], [-122.19672, 37.41139], [-122.19712, 37.41107], [-122.19793, 37.41081], [-122.19904, 37.41094]]], [[[-122.19368, 37.41231], [-122.1937, 37.41229], [-122.19369, 37.41232], [-122.19368, 37.41231]]], [[[-122.19425, 37.41299], [-122.19502, 37.41347], [-122.19393, 37.41378], [-122.19425, 37.41299]]], [[[-122.19483, 37.41408], [-122.19507, 37.41476], [-122.19475, 37.41478], [-122.194, 37.41434], [-122.19483, 37.41408]]], [[[-122.19964, 37.41523], [-122.19986, 37.41531], [-122.19954, 37.41545], [-122.19964, 37.41523]]], [[[-122.1923, 37.41715], [-122.19195, 37.41712], [-122.19095, 37.41627], [-122.19108, 37.41574], [-122.19081, 37.41551], [-122.1904, 37.41574], [-122.19042, 37.4155], [-122.19063, 37.41522], [-122.19188, 37.41471], [-122.19241, 37.41475], [-122.19311, 37.41442], [-122.19421, 37.41514], [-122.19404, 37.4156], [-122.19433, 37.41599], [-122.19517, 37.41617], [-122.19589, 37.41661], [-122.19655, 37.41649], [-122.19652, 37.41687], [-122.19555, 37.41703], [-122.19523, 37.4175], [-122.1947, 37.41742], [-122.19413, 37.41757], [-122.19348, 37.41811], [-122.19349, 37.41868], [-122.19417, 37.41929], [-122.19493, 37.41947], [-122.19545, 37.41934], [-122.19588, 37.41968], [-122.19574, 37.4202], [-122.19617, 37.42062], [-122.1967, 37.42065], [-122.19713, 37.4204], [-122.19767, 37.42055], [-122.1965, 37.42105], [-122.19402, 37.4205], [-122.19227, 37.41957], [-122.19159, 37.41951], [-122.19175, 37.41909], [-122.19169, 37.41789], [-122.19207, 37.41838], [-122.19201, 37.41894], [-122.19222, 37.41907], [-122.19299, 37.41872], [-122.19335, 37.41826], [-122.19288, 37.41783], [-122.19292, 37.4175], [-122.19263, 37.4176], [-122.1923, 37.41715]]], [[[-122.19883, 37.41958], [-122.19908, 37.41899], [-122.19968, 37.41901], [-122.19973, 37.41923], [-122.19883, 37.41958]]], [[[-122.20061, 37.41935], [-122.20061, 37.41933], [-122.20067, 37.41935], [-122.20061, 37.41935]]], [[[-122.19827, 37.42062], [-122.19896, 37.42016], [-122.19939, 37.42054], [-122.19925, 37.42109], [-122.19967, 37.42155], [-122.19869, 37.42113], [-122.19827, 37.42062]]], [[[-122.19428, 37.42357], [-122.19471, 37.4234], [-122.19558, 37.42318], [-122.19437, 37.42403], [-122.19449, 37.42382], [-122.19434, 37.42386], [-122.19428, 37.42357]]], [[[-122.19789, 37.44961], [-122.19846, 37.44915], [-122.19836, 37.44865], [-122.19885, 37.44799], [-122.19941, 37.4483], [-122.19793, 37.45004], [-122.19789, 37.44961]]], [[[-122.19396, 37.44912], [-122.19376, 37.44944], [-122.19388, 37.44983], [-122.19325, 37.45054], [-122.19325, 37.45024], [-122.19284, 37.45028], [-122.19417, 37.44852], [-122.19475, 37.44842], [-122.19505, 37.44857], [-122.19396, 37.44912]]], [[[-122.19323, 37.4508], [-122.19317, 37.45088], [-122.19314, 37.45084], [-122.19323, 37.4508]]], [[[-122.19104, 37.36494], [-122.1907, 37.36508], [-122.1907, 37.36508], [-122.19104, 37.36494]]], [[[-122.18979, 37.36548], [-122.1907, 37.36508], [-122.18975, 37.36549], [-122.18979, 37.36548]]], [[[-122.18362, 37.36568], [-122.1833, 37.36619], [-122.18321, 37.3663], [-122.18362, 37.36568], [-122.18483, 37.3662], [-122.18362, 37.36568]]], [[[-122.18621, 37.36665], [-122.18591, 37.36683], [-122.18561, 37.36678], [-122.18574, 37.36667], [-122.18621, 37.36665]]], [[[-122.18977, 37.3715], [-122.19036, 37.37155], [-122.19036, 37.37155], [-122.19, 37.37155], [-122.18977, 37.3715]]], [[[-122.18954, 37.37894], [-122.18949, 37.37892], [-122.18945, 37.37889], [-122.18954, 37.37894]]], [[[-122.18997, 37.37917], [-122.18987, 37.37912], [-122.18983, 37.3791], [-122.18997, 37.37917]]], [[[-122.19105, 37.37956], [-122.19105, 37.37957], [-122.19103, 37.37956], [-122.19105, 37.37956]]], [[[-122.18825, 37.37862], [-122.19053, 37.37938], [-122.18967, 37.37979], [-122.18956, 37.38032], [-122.18889, 37.38016], [-122.18792, 37.38056], [-122.18755, 37.38041], [-122.18779, 37.38022], [-122.18759, 37.38009], [-122.18728, 37.38], [-122.18708, 37.38031], [-122.18634, 37.37988], [-122.18825, 37.37862]]], [[[-122.19235, 37.37978], [-122.19174, 37.37971], [-122.19174, 37.37971], [-122.19235, 37.37978]]], [[[-122.18785, 37.38073], [-122.18735, 37.38094], [-122.18788, 37.38065], [-122.18785, 37.38073]]], [[[-122.18246, 37.38132], [-122.18412, 37.38141], [-122.18446, 37.38234], [-122.1851, 37.38273], [-122.18613, 37.38382], [-122.18584, 37.38384], [-122.18597, 37.38368], [-122.18573, 37.3836], [-122.18575, 37.38384], [-122.18518, 37.38403], [-122.18488, 37.38298], [-122.18331, 37.38275], [-122.18286, 37.38293], [-122.18267, 37.38333], [-122.18286, 37.3837], [-122.18351, 37.38404], [-122.18344, 37.38438], [-122.18142, 37.3843], [-122.18217, 37.38159], [-122.18246, 37.38132]]], [[[-122.19228, 37.38463], [-122.19148, 37.38437], [-122.19241, 37.38424], [-122.19228, 37.38463]]], [[[-122.19172, 37.38629], [-122.19147, 37.38733], [-122.19115, 37.38728], [-122.19137, 37.38628], [-122.19172, 37.38629]]], [[[-122.19087, 37.39384], [-122.19047, 37.39364], [-122.1906, 37.39324], [-122.19087, 37.39384]]], [[[-122.18135, 37.41972], [-122.18143, 37.4198], [-122.18129, 37.41978], [-122.18135, 37.41972]]], [[[-122.18851, 37.42057], [-122.18851, 37.42057], [-122.18851, 37.42057], [-122.18851, 37.42057]]], [[[-122.18803, 37.42058], [-122.18798, 37.42059], [-122.18798, 37.42056], [-122.18803, 37.42058]]], [[[-122.18867, 37.42059], [-122.18882, 37.4206], [-122.18883, 37.42063], [-122.18867, 37.42059]]], [[[-122.18198, 37.42053], [-122.18203, 37.42059], [-122.18197, 37.42057], [-122.18198, 37.42053]]], [[[-122.18457, 37.42238], [-122.18459, 37.4224], [-122.18456, 37.42239], [-122.18457, 37.42238]]], [[[-122.1898, 37.42091], [-122.19009, 37.42131], [-122.19052, 37.421], [-122.19083, 37.4211], [-122.1917, 37.42368], [-122.1915, 37.42412], [-122.19052, 37.42408], [-122.19059, 37.42372], [-122.18854, 37.4223], [-122.18812, 37.42118], [-122.18852, 37.42117], [-122.18901, 37.42152], [-122.18915, 37.42133], [-122.18894, 37.42077], [-122.18934, 37.42095], [-122.1898, 37.42091]]], [[[-122.1838, 37.4226], [-122.18321, 37.42426], [-122.18359, 37.42497], [-122.18395, 37.42535], [-122.18448, 37.42548], [-122.18446, 37.42559], [-122.18384, 37.42556], [-122.18347, 37.42585], [-122.18321, 37.42525], [-122.18257, 37.42507], [-122.18257, 37.42477], [-122.18323, 37.4249], [-122.18291, 37.42418], [-122.18262, 37.424], [-122.18259, 37.42276], [-122.18305, 37.42232], [-122.1838, 37.4226]]], [[[-122.18599, 37.42724], [-122.18546, 37.4266], [-122.18611, 37.42623], [-122.18611, 37.42574], [-122.18654, 37.42469], [-122.18656, 37.42387], [-122.18621, 37.42351], [-122.18633, 37.42289], [-122.18691, 37.42321], [-122.18825, 37.42456], [-122.18919, 37.42451], [-122.18878, 37.42405], [-122.18851, 37.42427], [-122.18862, 37.42399], [-122.18833, 37.42381], [-122.18959, 37.42444], [-122.19092, 37.42469], [-122.19117, 37.42527], [-122.19108, 37.42568], [-122.1907, 37.42598], [-122.18943, 37.42638], [-122.18916, 37.42711], [-122.18917, 37.42751], [-122.1897, 37.4284], [-122.18957, 37.42857], [-122.1857, 37.43149], [-122.18556, 37.43115], [-122.1865, 37.43023], [-122.18669, 37.42966], [-122.18634, 37.42866], [-122.18644, 37.42778], [-122.18587, 37.42766], [-122.18599, 37.42724]]], [[[-122.19133, 37.42578], [-122.19159, 37.42557], [-122.1918, 37.42578], [-122.19138, 37.42608], [-122.19133, 37.42578]]], [[[-122.18135, 37.42807], [-122.18224, 37.42613], [-122.18266, 37.42623], [-122.18259, 37.42701], [-122.18339, 37.4274], [-122.18296, 37.4284], [-122.18135, 37.42807]]], [[[-122.19122, 37.42621], [-122.19035, 37.42749], [-122.18997, 37.42751], [-122.18979, 37.42792], [-122.1895, 37.42766], [-122.18979, 37.42702], [-122.1906, 37.42688], [-122.19072, 37.42636], [-122.19091, 37.42619], [-122.19122, 37.42621]]], [[[-122.18022, 37.42842], [-122.18049, 37.42829], [-122.18035, 37.42885], [-122.18022, 37.42842]]], [[[-122.18286, 37.43027], [-122.18287, 37.43024], [-122.18287, 37.43027], [-122.18286, 37.43027]]], [[[-122.18346, 37.43145], [-122.18297, 37.43082], [-122.18389, 37.43087], [-122.18346, 37.43145]]], [[[-122.18035, 37.43052], [-122.18118, 37.43099], [-122.18069, 37.43127], [-122.18056, 37.43163], [-122.18105, 37.43238], [-122.18042, 37.43226], [-122.18044, 37.43185], [-122.17983, 37.43095], [-122.18035, 37.43052]]], [[[-122.18457, 37.43094], [-122.1852, 37.43186], [-122.18199, 37.43422], [-122.18137, 37.43389], [-122.18177, 37.43292], [-122.18342, 37.43223], [-122.18432, 37.43147], [-122.18457, 37.43094]]], [[[-122.18315, 37.43535], [-122.18316, 37.43515], [-122.18316, 37.43512], [-122.18326, 37.43517], [-122.18315, 37.43535]]], [[[-122.18294, 37.43665], [-122.18258, 37.43719], [-122.18261, 37.43689], [-122.18294, 37.43665]]], [[[-122.18138, 37.43912], [-122.18214, 37.43864], [-122.18182, 37.43917], [-122.18138, 37.43912]]], [[[-122.1744, 37.35923], [-122.1742, 37.3594], [-122.17385, 37.35931], [-122.17415, 37.35901], [-122.1744, 37.35923]]], [[[-122.17108, 37.35946], [-122.17258, 37.35971], [-122.17318, 37.35959], [-122.17258, 37.35973], [-122.17108, 37.35946]]], [[[-122.17749, 37.36891], [-122.17772, 37.36904], [-122.17759, 37.36961], [-122.17772, 37.36904], [-122.17749, 37.36891]]], [[[-122.17745, 37.36968], [-122.17626, 37.36966], [-122.17626, 37.36966], [-122.17745, 37.36968]]], [[[-122.1756, 37.37135], [-122.17671, 37.37116], [-122.17689, 37.37149], [-122.1774, 37.37177], [-122.17686, 37.37219], [-122.17645, 37.37207], [-122.17611, 37.37235], [-122.17608, 37.37276], [-122.17655, 37.37309], [-122.17618, 37.37412], [-122.17565, 37.37376], [-122.17512, 37.37374], [-122.17454, 37.37421], [-122.17445, 37.37458], [-122.17467, 37.37498], [-122.17533, 37.37523], [-122.17576, 37.37508], [-122.17628, 37.37447], [-122.17578, 37.37536], [-122.17673, 37.37767], [-122.17595, 37.37784], [-122.17569, 37.3774], [-122.17513, 37.37727], [-122.17459, 37.37749], [-122.17442, 37.37789], [-122.17463, 37.37828], [-122.17504, 37.37845], [-122.17563, 37.37833], [-122.17592, 37.37803], [-122.17595, 37.37832], [-122.17679, 37.37913], [-122.17641, 37.37938], [-122.17551, 37.38101], [-122.17452, 37.38173], [-122.17349, 37.38141], [-122.17214, 37.37954], [-122.17104, 37.37949], [-122.17087, 37.37908], [-122.17043, 37.3789], [-122.17069, 37.37833], [-122.17044, 37.37789], [-122.17112, 37.3774], [-122.17168, 37.37654], [-122.17174, 37.37537], [-122.17156, 37.375], [-122.17223, 37.37501], [-122.17275, 37.37476], [-122.17292, 37.37395], [-122.1735, 37.3736], [-122.17335, 37.37326], [-122.17462, 37.37249], [-122.17483, 37.37241], [-122.17433, 37.37293], [-122.17438, 37.37336], [-122.17514, 37.3735], [-122.17553, 37.37335], [-122.17575, 37.37296], [-122.17564, 37.37232], [-122.17513, 37.37202], [-122.1756, 37.37135]], [[-122.17351, 37.37981], [-122.17315, 37.38005], [-122.17303, 37.38042], [-122.1732, 37.38079], [-122.17352, 37.38092], [-122.17391, 37.38073], [-122.17413, 37.38017], [-122.17393, 37.37987], [-122.17351, 37.37981]]], [[[-122.17629, 37.37438], [-122.17629, 37.37442], [-122.17628, 37.37438], [-122.17629, 37.37438]]], [[[-122.17495, 37.39065], [-122.17474, 37.39068], [-122.17478, 37.39055], [-122.17495, 37.39065]]], [[[-122.1716, 37.39185], [-122.17134, 37.39183], [-122.17151, 37.39179], [-122.1716, 37.39185]]], [[[-122.17212, 37.40859], [-122.17174, 37.40822], [-122.17193, 37.40811], [-122.17212, 37.40859]]], [[[-122.17224, 37.40913], [-122.17225, 37.40945], [-122.17218, 37.4088], [-122.17224, 37.40913]]], [[[-122.18045, 37.41534], [-122.18041, 37.41543], [-122.18039, 37.41538], [-122.18045, 37.41534]]], [[[-122.17965, 37.41842], [-122.1801, 37.41833], [-122.18021, 37.41859], [-122.17911, 37.41866], [-122.17852, 37.41922], [-122.17857, 37.41998], [-122.17915, 37.42053], [-122.17874, 37.42065], [-122.17712, 37.42011], [-122.17654, 37.41971], [-122.17602, 37.41897], [-122.17654, 37.4178], [-122.17718, 37.41751], [-122.17759, 37.41757], [-122.1787, 37.41823], [-122.17965, 37.41842]]], [[[-122.17413, 37.41881], [-122.17452, 37.41791], [-122.17533, 37.41907], [-122.17413, 37.41881]]], [[[-122.1732, 37.41935], [-122.17305, 37.4202], [-122.1724, 37.42026], [-122.17197, 37.41987], [-122.17191, 37.4195], [-122.1732, 37.41935]]], [[[-122.17616, 37.42017], [-122.17576, 37.42025], [-122.17588, 37.41991], [-122.17616, 37.42017]]], [[[-122.17566, 37.4204], [-122.17542, 37.42077], [-122.17521, 37.42074], [-122.17566, 37.4204]]], [[[-122.17513, 37.42076], [-122.17509, 37.42078], [-122.17504, 37.42077], [-122.17513, 37.42076]]], [[[-122.17748, 37.42089], [-122.17742, 37.42086], [-122.17754, 37.42091], [-122.17748, 37.42089]]], [[[-122.17004, 37.42181], [-122.17009, 37.42173], [-122.17008, 37.42187], [-122.17004, 37.42181]]], [[[-122.18084, 37.42229], [-122.18078, 37.42298], [-122.18122, 37.42347], [-122.18189, 37.42351], [-122.18194, 37.42417], [-122.17942, 37.42368], [-122.17874, 37.42379], [-122.17838, 37.42351], [-122.17837, 37.42198], [-122.17886, 37.4213], [-122.18184, 37.4221], [-122.18124, 37.4221], [-122.18084, 37.42229]]], [[[-122.17378, 37.42281], [-122.17353, 37.42269], [-122.17378, 37.42264], [-122.17378, 37.42281]]], [[[-122.17086, 37.42295], [-122.17106, 37.42314], [-122.17054, 37.42314], [-122.17047, 37.42293], [-122.17086, 37.42295]]], [[[-122.17355, 37.42489], [-122.17362, 37.42471], [-122.17362, 37.42489], [-122.17355, 37.42489]]], [[[-122.17612, 37.42616], [-122.17632, 37.4262], [-122.17619, 37.42658], [-122.17583, 37.4265], [-122.17612, 37.42616]]], [[[-122.17572, 37.4309], [-122.17565, 37.43088], [-122.17576, 37.4309], [-122.17572, 37.4309]]], [[[-122.17605, 37.43095], [-122.17632, 37.43098], [-122.1765, 37.431], [-122.17648, 37.43106], [-122.17605, 37.43095]]], [[[-122.17178, 37.43402], [-122.17179, 37.43403], [-122.17178, 37.43403], [-122.17178, 37.43402]]], [[[-122.17263, 37.43548], [-122.17225, 37.43616], [-122.1718, 37.43608], [-122.1723, 37.43549], [-122.17263, 37.43548]]], [[[-122.17136, 37.43797], [-122.17047, 37.43775], [-122.17054, 37.43769], [-122.17136, 37.43797]]], [[[-122.17464, 37.43964], [-122.17475, 37.43884], [-122.17541, 37.43907], [-122.17479, 37.43952], [-122.17464, 37.43964]]], [[[-122.17913, 37.43954], [-122.17912, 37.43955], [-122.17912, 37.43954], [-122.17913, 37.43954]]], [[[-122.1791, 37.43957], [-122.17916, 37.4396], [-122.17915, 37.43961], [-122.1791, 37.43957]]], [[[-122.17414, 37.44023], [-122.17399, 37.4401], [-122.17434, 37.43995], [-122.17414, 37.44023]]], [[[-122.1731, 37.44525], [-122.17341, 37.44491], [-122.17347, 37.4449], [-122.1731, 37.44525]]], [[[-122.17256, 37.44573], [-122.17222, 37.446], [-122.17216, 37.4459], [-122.17256, 37.44573]]], [[[-122.1634, 37.38786], [-122.16346, 37.38786], [-122.16338, 37.38786], [-122.1634, 37.38786]]], [[[-122.16318, 37.38789], [-122.16316, 37.38789], [-122.16317, 37.38789], [-122.16318, 37.38789]]], [[[-122.16135, 37.38821], [-122.16161, 37.38809], [-122.16176, 37.38799], [-122.16162, 37.38823], [-122.16135, 37.38821]]], [[[-122.16239, 37.38816], [-122.1621, 37.38822], [-122.16202, 37.38822], [-122.16239, 37.38816]]], [[[-122.16247, 37.38871], [-122.16313, 37.38884], [-122.16209, 37.38876], [-122.16247, 37.38871]]], [[[-122.16203, 37.38879], [-122.16194, 37.38877], [-122.16204, 37.38876], [-122.16203, 37.38879]]], [[[-122.16424, 37.38884], [-122.16458, 37.38893], [-122.16478, 37.38923], [-122.16461, 37.38959], [-122.16429, 37.3897], [-122.16396, 37.38952], [-122.16441, 37.38954], [-122.16464, 37.38925], [-122.16432, 37.38896], [-122.16401, 37.38902], [-122.16424, 37.38884]]], [[[-122.16511, 37.39014], [-122.16471, 37.38894], [-122.16488, 37.38894], [-122.16537, 37.39014], [-122.16667, 37.39102], [-122.16787, 37.39149], [-122.1664, 37.39095], [-122.16511, 37.39014]]], [[[-122.1623, 37.39032], [-122.16282, 37.39059], [-122.1624, 37.39053], [-122.16217, 37.39016], [-122.16245, 37.3898], [-122.16277, 37.38986], [-122.16235, 37.38999], [-122.1623, 37.39032]]], [[[-122.16501, 37.39107], [-122.16448, 37.39083], [-122.1645, 37.39076], [-122.16501, 37.39107]]], [[[-122.16225, 37.39229], [-122.16247, 37.39208], [-122.16236, 37.39243], [-122.16225, 37.39229]]], [[[-122.16209, 37.3929], [-122.16226, 37.39263], [-122.16229, 37.39259], [-122.16222, 37.39272], [-122.16209, 37.3929]]], [[[-122.16457, 37.39608], [-122.16455, 37.39609], [-122.16449, 37.39606], [-122.16457, 37.39608]]], [[[-122.163, 37.39594], [-122.16329, 37.39622], [-122.16297, 37.39594], [-122.163, 37.39594]]], [[[-122.16212, 37.39667], [-122.16254, 37.39637], [-122.16262, 37.39644], [-122.16233, 37.39678], [-122.16212, 37.39667]]], [[[-122.15691, 37.39893], [-122.15771, 37.39808], [-122.15965, 37.39702], [-122.16009, 37.39702], [-122.15992, 37.39686], [-122.16114, 37.39584], [-122.16212, 37.39394], [-122.16194, 37.39434], [-122.16217, 37.39494], [-122.16197, 37.3955], [-122.16125, 37.39587], [-122.16131, 37.39655], [-122.16066, 37.39662], [-122.1613, 37.3969], [-122.16015, 37.39694], [-122.16018, 37.39724], [-122.16073, 37.39747], [-122.16134, 37.39738], [-122.16114, 37.39775], [-122.16005, 37.3974], [-122.15998, 37.39779], [-122.16019, 37.39809], [-122.15949, 37.3981], [-122.1593, 37.39834], [-122.15868, 37.39839], [-122.1584, 37.39864], [-122.15775, 37.39858], [-122.15731, 37.39896], [-122.15759, 37.39971], [-122.15802, 37.39984], [-122.15849, 37.39975], [-122.15797, 37.4006], [-122.15796, 37.4009], [-122.1584, 37.40106], [-122.15792, 37.40121], [-122.15834, 37.40138], [-122.15817, 37.40154], [-122.15844, 37.40168], [-122.15825, 37.402], [-122.15878, 37.40231], [-122.1586, 37.40317], [-122.15807, 37.40316], [-122.15801, 37.40304], [-122.15829, 37.4029], [-122.15807, 37.40277], [-122.15766, 37.40291], [-122.15782, 37.4032], [-122.15757, 37.40313], [-122.15681, 37.39985], [-122.15706, 37.39967], [-122.15691, 37.39893]]], [[[-122.1648, 37.39753], [-122.16463, 37.39738], [-122.16483, 37.39725], [-122.16492, 37.39727], [-122.1648, 37.39753]]], [[[-122.16499, 37.39765], [-122.16514, 37.39783], [-122.16486, 37.39758], [-122.16499, 37.39765]]], [[[-122.16343, 37.39952], [-122.16213, 37.39948], [-122.16163, 37.39902], [-122.16106, 37.39892], [-122.16172, 37.39833], [-122.16189, 37.39779], [-122.16223, 37.39806], [-122.16282, 37.39782], [-122.16273, 37.39733], [-122.16244, 37.39736], [-122.16258, 37.3975], [-122.16238, 37.39768], [-122.1621, 37.39736], [-122.16263, 37.39719], [-122.16261, 37.39662], [-122.16307, 37.39679], [-122.16407, 37.39769], [-122.16409, 37.3982], [-122.16391, 37.39835], [-122.1641, 37.3988], [-122.16434, 37.39793], [-122.16477, 37.39829], [-122.16343, 37.39952]], [[-122.16308, 37.39761], [-122.16272, 37.39798], [-122.16279, 37.39813], [-122.16308, 37.39761]], [[-122.16355, 37.39812], [-122.16305, 37.39803], [-122.16349, 37.39873], [-122.16291, 37.39898], [-122.16297, 37.39913], [-122.16368, 37.39895], [-122.1636, 37.39869], [-122.16388, 37.39849], [-122.16355, 37.39812]]], [[[-122.16037, 37.39942], [-122.16029, 37.39942], [-122.16035, 37.39936], [-122.16037, 37.39942]]], [[[-122.1593, 37.39994], [-122.15879, 37.39945], [-122.15905, 37.39926], [-122.1593, 37.39994]]], [[[-122.1622, 37.40657], [-122.1622, 37.40656], [-122.1622, 37.40656], [-122.1622, 37.40657]]], [[[-122.16301, 37.40676], [-122.16297, 37.40694], [-122.16266, 37.40683], [-122.16266, 37.40666], [-122.16301, 37.40676]]], [[[-122.16089, 37.4211], [-122.16091, 37.42154], [-122.16028, 37.42109], [-122.16089, 37.4211]]], [[[-122.16276, 37.42279], [-122.16226, 37.42272], [-122.16286, 37.42267], [-122.16276, 37.42279]]], [[[-122.16425, 37.42301], [-122.16432, 37.42301], [-122.16428, 37.42309], [-122.16425, 37.42301]]], [[[-122.16173, 37.42317], [-122.16139, 37.42417], [-122.161, 37.42406], [-122.16148, 37.4231], [-122.16173, 37.42317]]], [[[-122.16781, 37.4253], [-122.16763, 37.42536], [-122.1677, 37.42515], [-122.16781, 37.4253]]], [[[-122.15975, 37.42724], [-122.16047, 37.42732], [-122.16032, 37.42776], [-122.15993, 37.42758], [-122.15975, 37.42724]]], [[[-122.15956, 37.42819], [-122.15944, 37.42846], [-122.15942, 37.42844], [-122.15956, 37.42819]]], [[[-122.16955, 37.43103], [-122.17049, 37.4309], [-122.17035, 37.43147], [-122.16881, 37.43115], [-122.16867, 37.43], [-122.16821, 37.42966], [-122.16871, 37.42958], [-122.16901, 37.42912], [-122.1703, 37.42939], [-122.17022, 37.4302], [-122.16955, 37.43103]]], [[[-122.15954, 37.43059], [-122.15889, 37.42989], [-122.15926, 37.42962], [-122.16019, 37.43055], [-122.15983, 37.43084], [-122.15974, 37.4312], [-122.15954, 37.43059]]], [[[-122.1683, 37.43099], [-122.16844, 37.43088], [-122.16851, 37.43099], [-122.1683, 37.43099]]], [[[-122.16734, 37.43203], [-122.16752, 37.43144], [-122.16852, 37.43165], [-122.16833, 37.43223], [-122.16734, 37.43203]]], [[[-122.17019, 37.432], [-122.16996, 37.43257], [-122.16898, 37.43237], [-122.16918, 37.43179], [-122.17019, 37.432]]], [[[-122.16208, 37.43296], [-122.1616, 37.43309], [-122.16117, 37.43274], [-122.16012, 37.43256], [-122.16047, 37.43197], [-122.16115, 37.4321], [-122.16205, 37.43152], [-122.16279, 37.43152], [-122.16212, 37.43205], [-122.16181, 37.43195], [-122.16151, 37.43211], [-122.16153, 37.43239], [-122.16208, 37.43296]]], [[[-122.16253, 37.43312], [-122.16336, 37.4328], [-122.16308, 37.43367], [-122.16253, 37.43312]]], [[[-122.16762, 37.43407], [-122.16685, 37.43338], [-122.16717, 37.43255], [-122.16815, 37.43276], [-122.16762, 37.43407]]], [[[-122.16978, 37.4331], [-122.16954, 37.43394], [-122.16836, 37.43421], [-122.16881, 37.43289], [-122.16978, 37.4331]]], [[[-122.16297, 37.43425], [-122.16296, 37.43429], [-122.16295, 37.43427], [-122.16297, 37.43425]]], [[[-122.16065, 37.43603], [-122.16139, 37.43633], [-122.16021, 37.4369], [-122.16011, 37.43681], [-122.16064, 37.4364], [-122.16065, 37.43603]]], [[[-122.1594, 37.43722], [-122.15876, 37.43741], [-122.15831, 37.43678], [-122.15844, 37.43638], [-122.1594, 37.43722]]], [[[-122.16984, 37.44002], [-122.17031, 37.44028], [-122.17018, 37.44055], [-122.16927, 37.43987], [-122.16827, 37.43959], [-122.16901, 37.43909], [-122.16976, 37.43938], [-122.16984, 37.44002]]], [[[-122.16748, 37.44116], [-122.16741, 37.44102], [-122.16749, 37.44117], [-122.16748, 37.44116]]], [[[-122.16582, 37.44186], [-122.16618, 37.44213], [-122.16627, 37.44222], [-122.16582, 37.44186]]], [[[-122.1674, 37.44408], [-122.16744, 37.4441], [-122.16742, 37.44413], [-122.1674, 37.44408]]], [[[-122.14577, 37.37367], [-122.14495, 37.37283], [-122.14647, 37.37432], [-122.14577, 37.37367]]], [[[-122.15908, 37.3878], [-122.15942, 37.38804], [-122.15833, 37.38784], [-122.15908, 37.3878]]], [[[-122.1518, 37.38906], [-122.15181, 37.38901], [-122.15182, 37.38903], [-122.1518, 37.38906]]], [[[-122.15368, 37.38717], [-122.15495, 37.38798], [-122.15659, 37.38863], [-122.16128, 37.3894], [-122.16271, 37.39107], [-122.16256, 37.39177], [-122.16239, 37.39144], [-122.16205, 37.39214], [-122.16129, 37.39232], [-122.16169, 37.39258], [-122.16167, 37.39278], [-122.16025, 37.39228], [-122.15966, 37.39272], [-122.16039, 37.39292], [-122.16064, 37.3933], [-122.16048, 37.39346], [-122.16036, 37.39323], [-122.15901, 37.39341], [-122.15969, 37.39391], [-122.15981, 37.39356], [-122.16093, 37.39364], [-122.16157, 37.39338], [-122.1608, 37.39453], [-122.16054, 37.39413], [-122.16007, 37.39393], [-122.16039, 37.39463], [-122.15958, 37.39454], [-122.15992, 37.39502], [-122.15967, 37.39506], [-122.15947, 37.39478], [-122.15927, 37.3948], [-122.1593, 37.39535], [-122.16003, 37.3957], [-122.1603, 37.39566], [-122.15981, 37.39609], [-122.1595, 37.39601], [-122.15933, 37.39637], [-122.15893, 37.39659], [-122.15784, 37.39522], [-122.15782, 37.39494], [-122.15726, 37.39518], [-122.15706, 37.3948], [-122.15657, 37.39464], [-122.15606, 37.39473], [-122.15577, 37.39509], [-122.15622, 37.39634], [-122.15431, 37.3965], [-122.15412, 37.39572], [-122.15356, 37.39546], [-122.15361, 37.39499], [-122.15387, 37.39519], [-122.15428, 37.39494], [-122.15379, 37.39476], [-122.15357, 37.39485], [-122.1531, 37.39449], [-122.15253, 37.39455], [-122.1519, 37.39419], [-122.15169, 37.39383], [-122.15119, 37.39382], [-122.15171, 37.39339], [-122.15128, 37.39313], [-122.15124, 37.39269], [-122.15087, 37.39262], [-122.15088, 37.39203], [-122.15133, 37.3914], [-122.15144, 37.39074], [-122.15187, 37.39028], [-122.15228, 37.38769], [-122.15238, 37.3875], [-122.15243, 37.38776], [-122.15309, 37.38755], [-122.15368, 37.38717]], [[-122.15816, 37.39084], [-122.15743, 37.39097], [-122.1569, 37.39044], [-122.15662, 37.39042], [-122.15643, 37.39075], [-122.15666, 37.39091], [-122.15627, 37.39098], [-122.15553, 37.39075], [-122.15555, 37.39055], [-122.15477, 37.39051], [-122.15449, 37.3912], [-122.15484, 37.39143], [-122.15477, 37.39189], [-122.15524, 37.39201], [-122.15558, 37.39174], [-122.15683, 37.39168], [-122.15636, 37.39182], [-122.15653, 37.39205], [-122.15604, 37.39214], [-122.15604, 37.39245], [-122.15538, 37.39262], [-122.15541, 37.39294], [-122.15491, 37.3933], [-122.15423, 37.39358], [-122.15359, 37.3935], [-122.15346, 37.39401], [-122.15446, 37.394], [-122.15504, 37.39377], [-122.1567, 37.39266], [-122.15699, 37.39237], [-122.15684, 37.39168], [-122.1572, 37.39186], [-122.1574, 37.39174], [-122.15819, 37.39192], [-122.15766, 37.39194], [-122.15781, 37.39254], [-122.15824, 37.39256], [-122.15826, 37.39194], [-122.15908, 37.3923], [-122.1593, 37.39156], [-122.15918, 37.39106], [-122.15816, 37.39084]], [[-122.15244, 37.38937], [-122.15224, 37.38933], [-122.15213, 37.38987], [-122.15258, 37.39151], [-122.15313, 37.39132], [-122.15289, 37.39016], [-122.15256, 37.38993], [-122.15244, 37.38937]], [[-122.15333, 37.38898], [-122.15312, 37.38902], [-122.15303, 37.38867], [-122.15273, 37.3885], [-122.15249, 37.38905], [-122.1526, 37.38932], [-122.15412, 37.38958], [-122.15422, 37.38924], [-122.1536, 37.389], [-122.15334, 37.38863], [-122.15333, 37.38898]], [[-122.15555, 37.38983], [-122.15549, 37.38961], [-122.1551, 37.38967], [-122.15472, 37.38977], [-122.15471, 37.39002], [-122.15512, 37.3902], [-122.15555, 37.38983]], [[-122.15288, 37.39339], [-122.15405, 37.39283], [-122.15419, 37.3925], [-122.1538, 37.39241], [-122.15364, 37.39198], [-122.15335, 37.39241], [-122.15278, 37.39275], [-122.15288, 37.39299], [-122.15258, 37.39303], [-122.15254, 37.39322], [-122.15288, 37.39339]], [[-122.15883, 37.39393], [-122.1594, 37.39386], [-122.15937, 37.39374], [-122.15907, 37.39358], [-122.15882, 37.39365], [-122.15883, 37.39393]], [[-122.15766, 37.39423], [-122.15787, 37.39404], [-122.15847, 37.39396], [-122.15783, 37.39388], [-122.15738, 37.39405], [-122.15766, 37.39423]], [[-122.15837, 37.39506], [-122.15865, 37.39524], [-122.15897, 37.39497], [-122.15817, 37.39477], [-122.15816, 37.39455], [-122.15792, 37.39494], [-122.15813, 37.3953], [-122.15837, 37.39506]]], [[[-122.15171, 37.38944], [-122.15169, 37.39002], [-122.15149, 37.39039], [-122.15161, 37.39008], [-122.15171, 37.38944]]], [[[-122.14983, 37.39246], [-122.15075, 37.39184], [-122.15083, 37.39177], [-122.15049, 37.39216], [-122.15071, 37.39275], [-122.15039, 37.39231], [-122.14983, 37.39246]]], [[[-122.14599, 37.39317], [-122.146, 37.39317], [-122.14598, 37.39318], [-122.14599, 37.39317]]], [[[-122.14513, 37.39347], [-122.14511, 37.39334], [-122.14542, 37.39337], [-122.14513, 37.39347]]], [[[-122.14377, 37.39466], [-122.14361, 37.39468], [-122.14383, 37.39458], [-122.14377, 37.39466]]], [[[-122.1429, 37.39506], [-122.143, 37.39501], [-122.14301, 37.39506], [-122.1429, 37.39506]]], [[[-122.14102, 37.39607], [-122.14121, 37.39596], [-122.14132, 37.3959], [-122.14102, 37.39607]]], [[[-122.1526, 37.3961], [-122.15267, 37.3963], [-122.15242, 37.3962], [-122.1526, 37.3961]]], [[[-122.14819, 37.39668], [-122.14856, 37.39656], [-122.14861, 37.39658], [-122.14819, 37.39668]]], [[[-122.13801, 37.39759], [-122.13798, 37.39755], [-122.13803, 37.39752], [-122.13801, 37.39759]]], [[[-122.14764, 37.39918], [-122.14708, 37.39782], [-122.14741, 37.39703], [-122.14819, 37.39668], [-122.1479, 37.39699], [-122.14799, 37.3972], [-122.14889, 37.39779], [-122.14893, 37.39847], [-122.14912, 37.39854], [-122.14997, 37.39808], [-122.14954, 37.39672], [-122.14906, 37.39664], [-122.14952, 37.39641], [-122.14981, 37.39575], [-122.15193, 37.39662], [-122.15214, 37.39738], [-122.15245, 37.39763], [-122.15249, 37.39926], [-122.15219, 37.39953], [-122.15211, 37.40031], [-122.15279, 37.4007], [-122.15287, 37.40168], [-122.15234, 37.40159], [-122.14994, 37.40197], [-122.14797, 37.40138], [-122.14735, 37.39952], [-122.14764, 37.39918]], [[-122.1484, 37.39903], [-122.14838, 37.39965], [-122.1491, 37.40023], [-122.14899, 37.40079], [-122.14959, 37.40161], [-122.15006, 37.40164], [-122.15024, 37.40152], [-122.14997, 37.40127], [-122.15035, 37.40051], [-122.14989, 37.39865], [-122.14928, 37.39861], [-122.1484, 37.39903]], [[-122.15062, 37.39763], [-122.15109, 37.39746], [-122.1513, 37.39707], [-122.15108, 37.39662], [-122.15059, 37.39646], [-122.15005, 37.39663], [-122.14985, 37.39702], [-122.15007, 37.39747], [-122.15062, 37.39763]]], [[[-122.15282, 37.39902], [-122.15263, 37.39794], [-122.15274, 37.39755], [-122.15235, 37.39728], [-122.1523, 37.39676], [-122.15363, 37.39707], [-122.15622, 37.39688], [-122.15741, 37.39743], [-122.15636, 37.39817], [-122.15623, 37.39801], [-122.15599, 37.39806], [-122.15627, 37.3984], [-122.15594, 37.39922], [-122.15593, 37.39994], [-122.15665, 37.40266], [-122.15558, 37.40254], [-122.15315, 37.40174], [-122.15308, 37.40051], [-122.15245, 37.40028], [-122.15241, 37.40003], [-122.15259, 37.40003], [-122.15243, 37.39975], [-122.15282, 37.39902]]], [[[-122.13565, 37.39883], [-122.13599, 37.39867], [-122.13599, 37.3989], [-122.13565, 37.39883]]], [[[-122.13466, 37.3992], [-122.13471, 37.39922], [-122.13459, 37.39922], [-122.13466, 37.3992]]], [[[-122.15875, 37.39978], [-122.15865, 37.39964], [-122.15873, 37.39956], [-122.15875, 37.39978]]], [[[-122.12537, 37.40123], [-122.1255, 37.40101], [-122.12633, 37.40093], [-122.12626, 37.40115], [-122.12537, 37.40123]]], [[[-122.13279, 37.40197], [-122.13288, 37.40206], [-122.13283, 37.40209], [-122.13279, 37.40197]]], [[[-122.1358, 37.40225], [-122.13543, 37.40219], [-122.13576, 37.40194], [-122.1358, 37.40225]]], [[[-122.15276, 37.40318], [-122.15315, 37.40229], [-122.15538, 37.40306], [-122.1567, 37.4032], [-122.15664, 37.40387], [-122.15607, 37.40395], [-122.15552, 37.40445], [-122.15473, 37.40452], [-122.1547, 37.40474], [-122.15446, 37.40479], [-122.15388, 37.40445], [-122.15291, 37.40458], [-122.15256, 37.40438], [-122.15311, 37.4035], [-122.15276, 37.40318]]], [[[-122.13507, 37.40347], [-122.13512, 37.40331], [-122.13516, 37.4035], [-122.13507, 37.40347]]], [[[-122.1524, 37.40272], [-122.15261, 37.4036], [-122.15277, 37.40357], [-122.15225, 37.40395], [-122.15191, 37.40487], [-122.15181, 37.40408], [-122.14992, 37.40352], [-122.1503, 37.40251], [-122.15177, 37.40231], [-122.1524, 37.40272]]], [[[-122.13549, 37.40383], [-122.13552, 37.40385], [-122.1355, 37.40386], [-122.13549, 37.40383]]], [[[-122.13446, 37.40486], [-122.13346, 37.40432], [-122.13414, 37.40441], [-122.13446, 37.40486]]], [[[-122.15229, 37.40492], [-122.15244, 37.40462], [-122.15284, 37.40496], [-122.15229, 37.40492]]], [[[-122.15435, 37.40511], [-122.15537, 37.40463], [-122.15596, 37.40462], [-122.15632, 37.40422], [-122.15655, 37.40428], [-122.15609, 37.40545], [-122.15568, 37.40535], [-122.15525, 37.40549], [-122.15308, 37.40498], [-122.15374, 37.40474], [-122.15388, 37.40501], [-122.15435, 37.40511]]], [[[-122.13755, 37.40651], [-122.13578, 37.40561], [-122.13522, 37.40535], [-122.13571, 37.40518], [-122.13637, 37.40556], [-122.1369, 37.40539], [-122.13755, 37.40651]]], [[[-122.15603, 37.40691], [-122.15603, 37.40691], [-122.15603, 37.40691], [-122.15603, 37.40691]]], [[[-122.15828, 37.40853], [-122.1581, 37.40854], [-122.15806, 37.40837], [-122.15828, 37.40853]]], [[[-122.14701, 37.42085], [-122.14699, 37.42087], [-122.14701, 37.42084], [-122.14701, 37.42085]]], [[[-122.14402, 37.42235], [-122.14458, 37.42262], [-122.14504, 37.42263], [-122.14486, 37.42285], [-122.14338, 37.42209], [-122.14372, 37.42168], [-122.14402, 37.42235]]], [[[-122.15239, 37.43003], [-122.15381, 37.43], [-122.15389, 37.43039], [-122.1545, 37.43095], [-122.15532, 37.43102], [-122.15617, 37.43204], [-122.15745, 37.43256], [-122.15685, 37.43286], [-122.15685, 37.43343], [-122.15761, 37.43405], [-122.15828, 37.43401], [-122.15868, 37.43432], [-122.15888, 37.43479], [-122.15963, 37.4352], [-122.1596, 37.43537], [-122.15895, 37.43579], [-122.15239, 37.43003]]], [[[-122.15775, 37.43069], [-122.15793, 37.43085], [-122.15771, 37.43073], [-122.15775, 37.43069]]], [[[-122.15797, 37.43089], [-122.15901, 37.43154], [-122.1588, 37.43167], [-122.15859, 37.43156], [-122.15797, 37.43089]]], [[[-122.15595, 37.43418], [-122.15596, 37.4342], [-122.15594, 37.43419], [-122.15595, 37.43418]]], [[[-122.15439, 37.43446], [-122.15401, 37.43423], [-122.15382, 37.43402], [-122.15384, 37.434], [-122.15439, 37.43446]]], [[[-122.15471, 37.43465], [-122.15458, 37.43475], [-122.15442, 37.43449], [-122.15452, 37.43456], [-122.15471, 37.43465]]], [[[-122.15731, 37.43539], [-122.15684, 37.43504], [-122.15681, 37.43495], [-122.15731, 37.43539]]], [[[-122.14236, 37.44283], [-122.14233, 37.44281], [-122.14239, 37.4428], [-122.14236, 37.44283]]], [[[-122.13807, 37.44474], [-122.13806, 37.44477], [-122.13806, 37.44474], [-122.13807, 37.44474]]]]}, "properties": {"kind": "pv", "area_km2": 11.36, "mw": 568.0}}, {"type": "Feature", "geometry": {"type": "Point", "coordinates": [-122.17439, 37.41176]}, "properties": {"kind": "turbine", "i": 0, "mw": 6.0, "hub_m": 120.0, "rotor_m": 150.0}}]}