{"type": "FeatureCollection", "features": [{"type": "Feature", "geometry": {"type": "MultiPolygon", "coordinates": [[[[-122.19963, 37.40424], [-122.19961, 37.40367], [-122.19988, 37.40372], [-122.20024, 37.4042], [-122.20012, 37.40453], [-122.19963, 37.40424]]], [[[-122.19203, 37.40401], [-122.19217, 37.40391], [-122.19212, 37.40422], [-122.19203, 37.40401]]], [[[-122.20739, 37.40367], [-122.20722, 37.4044], [-122.20691, 37.40459], [-122.2065, 37.40438], [-122.20584, 37.40436], [-122.2058, 37.40395], [-122.20542, 37.40364], [-122.20467, 37.40374], [-122.2044, 37.40422], [-122.20484, 37.40473], [-122.2046, 37.40515], [-122.20484, 37.40575], [-122.20375, 37.40657], [-122.20296, 37.40666], [-122.20235, 37.40697], [-122.20128, 37.40652], [-122.20223, 37.40606], [-122.20209, 37.40585], [-122.20162, 37.40609], [-122.20051, 37.40484], [-122.20064, 37.40419], [-122.20022, 37.40365], [-122.20076, 37.40333], [-122.203, 37.40296], [-122.20523, 37.40214], [-122.20779, 37.40345], [-122.20739, 37.40367]]], [[[-122.19216, 37.40452], [-122.19219, 37.40455], [-122.19215, 37.40457], [-122.19216, 37.40452]]], [[[-122.19735, 37.4049], [-122.19755, 37.40546], [-122.19872, 37.4056], [-122.19955, 37.40474], [-122.2001, 37.40476], [-122.20131, 37.40621], [-122.19998, 37.40668], [-122.19896, 37.40729], [-122.19914, 37.40665], [-122.19869, 37.40622], [-122.19812, 37.40626], [-122.19775, 37.40659], [-122.19636, 37.40652], [-122.19561, 37.40611], [-122.19481, 37.40625], [-122.19414, 37.40585], [-122.19563, 37.40525], [-122.19601, 37.40481], [-122.1966, 37.40493], [-122.19739, 37.40467], [-122.19768, 37.40425], [-122.19811, 37.40485], [-122.19883, 37.40458], [-122.1985, 37.4051], [-122.19748, 37.40478], [-122.19735, 37.4049]], [[-122.19491, 37.40583], [-122.19542, 37.40602], [-122.19561, 37.40593], [-122.19491, 37.40583]]], [[[-122.20553, 37.40608], [-122.20554, 37.40609], [-122.20552, 37.40609], [-122.20553, 37.40608]]], [[[-122.20399, 37.40715], [-122.20478, 37.40644], [-122.20529, 37.40636], [-122.20542, 37.40669], [-122.20599, 37.40698], [-122.20563, 37.40724], [-122.20561, 37.40757], [-122.20458, 37.4083], [-122.20414, 37.40812], [-122.20354, 37.40826], [-122.20284, 37.40813], [-122.20263, 37.40784], [-122.2022, 37.40769], [-122.20118, 37.40811], [-122.20077, 37.40746], [-122.19991, 37.40733], [-122.20032, 37.40703], [-122.20105, 37.40709], [-122.20183, 37.40756], [-122.20219, 37.40755], [-122.20302, 37.40721], [-122.20399, 37.40715]]], [[[-122.19724, 37.40928], [-122.19557, 37.40796], [-122.19645, 37.40776], [-122.19673, 37.4073], [-122.19648, 37.40685], [-122.19585, 37.40672], [-122.19581, 37.40656], [-122.19753, 37.40715], [-122.19712, 37.40679], [-122.19764, 37.40685], [-122.19796, 37.40743], [-122.19866, 37.40748], [-122.19857, 37.40821], [-122.19904, 37.40946], [-122.19878, 37.40995], [-122.19724, 37.40928]]], [[[-122.19333, 37.40828], [-122.19288, 37.40813], [-122.19242, 37.40797], [-122.19421, 37.40824], [-122.19333, 37.40828]]], [[[-122.20438, 37.40937], [-122.20476, 37.40887], [-122.20588, 37.40809], [-122.20742, 37.40739], [-122.20882, 37.40736], [-122.20959, 37.40755], [-122.20955, 37.41142], [-122.20808, 37.41022], [-122.20751, 37.41102], [-122.20955, 37.41176], [-122.20952, 37.41407], [-122.20699, 37.41266], [-122.2015, 37.41088], [-122.2018, 37.4101], [-122.20284, 37.40962], [-122.20361, 37.40979], [-122.20438, 37.40937]]], [[[-122.19618, 37.40875], [-122.19583, 37.40902], [-122.19606, 37.40915], [-122.19556, 37.40899], [-122.19582, 37.40868], [-122.19565, 37.40845], [-122.19524, 37.40843], [-122.19525, 37.40808], [-122.19602, 37.40836], [-122.1975, 37.40961], [-122.19664, 37.40934], [-122.19618, 37.40875]]], [[[-122.19925, 37.40996], [-122.20029, 37.40919], [-122.20084, 37.41], [-122.20069, 37.41014], [-122.20023, 37.41004], [-122.19926, 37.41017], [-122.19925, 37.40996]]], [[[-122.19702, 37.41029], [-122.19493, 37.41027], [-122.19501, 37.40982], [-122.19527, 37.40996], [-122.1956, 37.40984], [-122.19702, 37.41029]]], [[[-122.19412, 37.40995], [-122.19406, 37.41028], [-122.19289, 37.40986], [-122.19336, 37.41032], [-122.19305, 37.4104], [-122.19215, 37.40985], [-122.19193, 37.40999], [-122.1908, 37.40915], [-122.19069, 37.40928], [-122.19109, 37.40981], [-122.19027, 37.40944], [-122.1902, 37.40956], [-122.192, 37.41059], [-122.1924, 37.41054], [-122.1927, 37.41072], [-122.19243, 37.41144], [-122.19222, 37.41153], [-122.191, 37.41127], [-122.18965, 37.41151], [-122.19042, 37.412], [-122.19137, 37.41205], [-122.19198, 37.41233], [-122.19191, 37.4127], [-122.19172, 37.41262], [-122.19117, 37.41299], [-122.19073, 37.4126], [-122.18989, 37.4126], [-122.18936, 37.41305], [-122.18786, 37.41271], [-122.18661, 37.41273], [-122.18527, 37.4123], [-122.1848, 37.41192], [-122.1855, 37.41126], [-122.18655, 37.4107], [-122.19068, 37.41001], [-122.18865, 37.40911], [-122.18769, 37.40845], [-122.18058, 37.4015], [-122.18082, 37.40251], [-122.1806, 37.40425], [-122.18219, 37.40457], [-122.18356, 37.40537], [-122.18468, 37.40672], [-122.18497, 37.40812], [-122.18472, 37.41019], [-122.18375, 37.41161], [-122.18019, 37.40995], [-122.18006, 37.41056], [-122.18304, 37.4123], [-122.18555, 37.41268], [-122.18701, 37.41317], [-122.18631, 37.41345], [-122.18669, 37.41401], [-122.18648, 37.4142], [-122.18555, 37.4142], [-122.18507, 37.41441], [-122.18494, 37.41528], [-122.18446, 37.4154], [-122.1841, 37.41568], [-122.18413, 37.41588], [-122.18448, 37.41592], [-122.18513, 37.41567], [-122.1857, 37.41591], [-122.18625, 37.41541], [-122.18611, 37.41598], [-122.18642, 37.4166], [-122.1871, 37.41723], [-122.18933, 37.41764], [-122.18963, 37.41854], [-122.18835, 37.41884], [-122.18697, 37.42001], [-122.18665, 37.42051], [-122.18676, 37.42069], [-122.18722, 37.42014], [-122.18754, 37.4202], [-122.18778, 37.42061], [-122.18745, 37.42083], [-122.18766, 37.42141], [-122.18753, 37.42174], [-122.18804, 37.42266], [-122.18924, 37.42353], [-122.18988, 37.42364], [-122.19018, 37.42403], [-122.18695, 37.42248], [-122.18731, 37.42199], [-122.18693, 37.42147], [-122.18575, 37.42103], [-122.18508, 37.42114], [-122.18467, 37.42051], [-122.18377, 37.42023], [-122.18285, 37.42047], [-122.18312, 37.41982], [-122.18254, 37.41935], [-122.18267, 37.41884], [-122.18245, 37.41822], [-122.18209, 37.41795], [-122.18215, 37.41728], [-122.18179, 37.41678], [-122.18126, 37.41667], [-122.18082, 37.41688], [-122.18066, 37.41717], [-122.18076, 37.41758], [-122.18023, 37.41786], [-122.1801, 37.41832], [-122.17878, 37.41731], [-122.17879, 37.41692], [-122.17927, 37.41685], [-122.17963, 37.41644], [-122.17997, 37.4164], [-122.17986, 37.41592], [-122.18038, 37.41555], [-122.1805, 37.41613], [-122.18107, 37.41655], [-122.18184, 37.41659], [-122.18253, 37.41627], [-122.1826, 37.4167], [-122.18317, 37.41718], [-122.18452, 37.41739], [-122.18491, 37.4176], [-122.18547, 37.41747], [-122.18496, 37.41717], [-122.18407, 37.41704], [-122.1843, 37.41672], [-122.18401, 37.41618], [-122.18355, 37.41589], [-122.18271, 37.41569], [-122.18258, 37.41527], [-122.18218, 37.41491], [-122.1813, 37.41477], [-122.18045, 37.41509], [-122.17953, 37.41512], [-122.17826, 37.41558], [-122.17834, 37.41572], [-122.17943, 37.41573], [-122.17935, 37.41586], [-122.17889, 37.41575], [-122.17846, 37.41589], [-122.17821, 37.41625], [-122.17825, 37.41659], [-122.17698, 37.41683], [-122.17704, 37.41698], [-122.17653, 37.4172], [-122.17583, 37.41865], [-122.17416, 37.41654], [-122.1732, 37.41608], [-122.17132, 37.41474], [-122.17153, 37.41406], [-122.17124, 37.41351], [-122.17059, 37.41337], [-122.17011, 37.41285], [-122.16914, 37.41233], [-122.16701, 37.41191], [-122.16657, 37.41163], [-122.16544, 37.41153], [-122.16509, 37.41176], [-122.16494, 37.41217], [-122.1639, 37.41179], [-122.16188, 37.41042], [-122.16208, 37.41003], [-122.16187, 37.40964], [-122.16135, 37.40947], [-122.16083, 37.40967], [-122.15645, 37.40632], [-122.15728, 37.40485], [-122.15828, 37.40394], [-122.15918, 37.40393], [-122.15923, 37.40361], [-122.15895, 37.40372], [-122.15936, 37.40347], [-122.15957, 37.40285], [-122.15946, 37.40248], [-122.15974, 37.40269], [-122.16016, 37.40268], [-122.15998, 37.40286], [-122.16018, 37.40301], [-122.1601, 37.40315], [-122.16031, 37.40333], [-122.16041, 37.4032], [-122.16059, 37.40244], [-122.16028, 37.40199], [-122.15958, 37.40183], [-122.15946, 37.40194], [-122.15942, 37.40134], [-122.16038, 37.40174], [-122.16033, 37.40131], [-122.16, 37.40146], [-122.15974, 37.40122], [-122.15971, 37.40097], [-122.16008, 37.40098], [-122.16013, 37.40078], [-122.15968, 37.40068], [-122.16012, 37.39958], [-122.16043, 37.39962], [-122.16068, 37.39942], [-122.1605, 37.39921], [-122.16075, 37.39899], [-122.16118, 37.39995], [-122.16095, 37.40042], [-122.16113, 37.40074], [-122.16168, 37.40056], [-122.16179, 37.40037], [-122.16153, 37.39984], [-122.16182, 37.40015], [-122.16233, 37.40029], [-122.16355, 37.40005], [-122.16336, 37.40024], [-122.16359, 37.40044], [-122.16405, 37.40039], [-122.16434, 37.40016], [-122.16402, 37.40013], [-122.16381, 37.39982], [-122.16347, 37.39983], [-122.16372, 37.39954], [-122.16429, 37.39941], [-122.16501, 37.39955], [-122.16466, 37.39921], [-122.16468, 37.39893], [-122.16504, 37.39888], [-122.16508, 37.39848], [-122.16598, 37.3989], [-122.16572, 37.39897], [-122.16559, 37.39938], [-122.16615, 37.39985], [-122.16665, 37.39936], [-122.16657, 37.39915], [-122.16735, 37.39916], [-122.16731, 37.39885], [-122.16765, 37.3985], [-122.16772, 37.39813], [-122.16703, 37.39748], [-122.16851, 37.39778], [-122.17183, 37.39744], [-122.17199, 37.39721], [-122.17105, 37.39701], [-122.16947, 37.39699], [-122.1682, 37.39673], [-122.16782, 37.39644], [-122.16764, 37.39661], [-122.16644, 37.39657], [-122.16621, 37.39648], [-122.16619, 37.39586], [-122.16781, 37.3963], [-122.16849, 37.39602], [-122.16858, 37.39562], [-122.16829, 37.39515], [-122.16904, 37.39382], [-122.16878, 37.39243], [-122.17162, 37.39261], [-122.17362, 37.39304], [-122.17584, 37.39416], [-122.18856, 37.4067], [-122.19039, 37.40796], [-122.19294, 37.40898], [-122.19363, 37.41002], [-122.19412, 37.40995]], [[-122.17628, 37.41272], [-122.17644, 37.41235], [-122.17532, 37.41204], [-122.17517, 37.41274], [-122.17549, 37.41299], [-122.17628, 37.41272]], [[-122.17566, 37.41086], [-122.17695, 37.41049], [-122.17725, 37.41071], [-122.17781, 37.41044], [-122.17719, 37.41023], [-122.17714, 37.40956], [-122.17694, 37.40941], [-122.17663, 37.41028], [-122.17607, 37.41054], [-122.17557, 37.41022], [-122.17584, 37.40996], [-122.17533, 37.40894], [-122.17575, 37.40883], [-122.17594, 37.40853], [-122.17652, 37.40851], [-122.17671, 37.40824], [-122.17727, 37.40826], [-122.1774, 37.40787], [-122.17676, 37.40708], [-122.17624, 37.40711], [-122.17594, 37.40759], [-122.17524, 37.40782], [-122.17534, 37.40737], [-122.17576, 37.40731], [-122.176, 37.40707], [-122.17536, 37.407], [-122.17472, 37.40631], [-122.17452, 37.40629], [-122.17442, 37.40655], [-122.17491, 37.40696], [-122.17416, 37.40672], [-122.17424, 37.40653], [-122.17326, 37.40602], [-122.17251, 37.40618], [-122.17227, 37.40541], [-122.17126, 37.40505], [-122.17144, 37.40457], [-122.17109, 37.40439], [-122.17019, 37.40427], [-122.17004, 37.40449], [-122.16955, 37.40437], [-122.16944, 37.40488], [-122.16923, 37.40495], [-122.16901, 37.40447], [-122.16805, 37.40471], [-122.16845, 37.40534], [-122.16824, 37.4058], [-122.16841, 37.40621], [-122.16875, 37.40633], [-122.16873, 37.40658], [-122.16903, 37.4067], [-122.17023, 37.40636], [-122.16993, 37.40693], [-122.17049, 37.40791], [-122.17, 37.40817], [-122.17007, 37.4084], [-122.17025, 37.4086], [-122.17068, 37.40863], [-122.17059, 37.4089], [-122.17083, 37.40928], [-122.17152, 37.40933], [-122.17154, 37.40969], [-122.17109, 37.40991], [-122.17116, 37.41016], [-122.17092, 37.41033], [-122.1712, 37.41049], [-122.17186, 37.41016], [-122.17224, 37.4097], [-122.1721, 37.41033], [-122.17276, 37.41077], [-122.17144, 37.41163], [-122.17139, 37.41183], [-122.17094, 37.41199], [-122.17098, 37.41224], [-122.17064, 37.41233], [-122.17088, 37.4127], [-122.17137, 37.41267], [-122.17137, 37.41228], [-122.17207, 37.41207], [-122.1732, 37.41099], [-122.17451, 37.41204], [-122.17488, 37.41114], [-122.17538, 37.41112], [-122.17566, 37.41086]], [[-122.17575, 37.40402], [-122.17638, 37.40413], [-122.17693, 37.40375], [-122.17683, 37.40319], [-122.1771, 37.40257], [-122.17665, 37.40213], [-122.17607, 37.40213], [-122.17571, 37.40244], [-122.17542, 37.40341], [-122.17575, 37.40402]], [[-122.17618, 37.40182], [-122.17671, 37.40114], [-122.17705, 37.40102], [-122.17724, 37.40062], [-122.177, 37.40042], [-122.17639, 37.40122], [-122.17566, 37.40169], [-122.17618, 37.40182]], [[-122.18114, 37.40936], [-122.18117, 37.40877], [-122.18095, 37.40847], [-122.18128, 37.40799], [-122.18115, 37.40745], [-122.18172, 37.40746], [-122.18205, 37.40721], [-122.18197, 37.40686], [-122.18097, 37.40693], [-122.18084, 37.40712], [-122.17976, 37.40731], [-122.17896, 37.40801], [-122.17912, 37.40854], [-122.17972, 37.40872], [-122.17964, 37.40934], [-122.17991, 37.4097], [-122.18069, 37.40979], [-122.18114, 37.40936]], [[-122.17766, 37.40872], [-122.17733, 37.40896], [-122.17786, 37.40959], [-122.17807, 37.40902], [-122.17789, 37.40874], [-122.17766, 37.40872]], [[-122.1822, 37.41368], [-122.18146, 37.41437], [-122.18125, 37.41468], [-122.18194, 37.4144], [-122.1822, 37.41368]], [[-122.18245, 37.41468], [-122.18282, 37.41448], [-122.18231, 37.41414], [-122.18193, 37.41466], [-122.18245, 37.41468]], [[-122.17856, 37.41075], [-122.17861, 37.41135], [-122.17905, 37.41154], [-122.17947, 37.41131], [-122.17911, 37.41099], [-122.17905, 37.41063], [-122.17856, 37.41075]], [[-122.17765, 37.41117], [-122.17712, 37.41212], [-122.17743, 37.41212], [-122.17723, 37.41255], [-122.1783, 37.41232], [-122.17817, 37.41277], [-122.17858, 37.41362], [-122.17893, 37.4137], [-122.1796, 37.41325], [-122.17976, 37.41399], [-122.18023, 37.41398], [-122.18031, 37.41427], [-122.17998, 37.41444], [-122.18059, 37.41464], [-122.18094, 37.41456], [-122.18145, 37.41391], [-122.18212, 37.41355], [-122.18209, 37.41333], [-122.18166, 37.41331], [-122.18096, 37.41284], [-122.18063, 37.4129], [-122.18068, 37.41303], [-122.18118, 37.41332], [-122.18052, 37.41308], [-122.18029, 37.41321], [-122.18002, 37.41303], [-122.18035, 37.41282], [-122.18018, 37.41244], [-122.17967, 37.4119], [-122.1791, 37.41174], [-122.17859, 37.41197], [-122.17852, 37.41171], [-122.17818, 37.41155], [-122.178, 37.41167], [-122.17798, 37.41123], [-122.17765, 37.41117]], [[-122.17622, 37.41447], [-122.17685, 37.4146], [-122.17721, 37.41492], [-122.17735, 37.41474], [-122.17712, 37.41454], [-122.17793, 37.4145], [-122.17897, 37.41415], [-122.17903, 37.41442], [-122.17973, 37.41426], [-122.17891, 37.41382], [-122.17841, 37.4142], [-122.1765, 37.41362], [-122.17659, 37.41398], [-122.17622, 37.4136], [-122.17607, 37.41362], [-122.17616, 37.41397], [-122.17641, 37.41411], [-122.17622, 37.41447]], [[-122.16536, 37.4095], [-122.16602, 37.40952], [-122.16534, 37.40976], [-122.16546, 37.41], [-122.16626, 37.40975], [-122.16668, 37.41004], [-122.16695, 37.40986], [-122.16678, 37.40962], [-122.16699, 37.40952], [-122.16766, 37.41042], [-122.16806, 37.41062], [-122.16824, 37.41048], [-122.16852, 37.41056], [-122.16847, 37.41023], [-122.16879, 37.41027], [-122.1688, 37.41006], [-122.16844, 37.41005], [-122.16865, 37.40985], [-122.1685, 37.40928], [-122.1692, 37.40927], [-122.16995, 37.40884], [-122.16964, 37.40862], [-122.16997, 37.40781], [-122.16943, 37.40775], [-122.16935, 37.408], [-122.16908, 37.40799], [-122.169, 37.40778], [-122.16814, 37.40767], [-122.168, 37.40707], [-122.16705, 37.40678], [-122.16651, 37.40704], [-122.16705, 37.40718], [-122.16646, 37.40746], [-122.16641, 37.40795], [-122.16683, 37.40811], [-122.16823, 37.40805], [-122.16791, 37.40837], [-122.16739, 37.4083], [-122.16699, 37.4085], [-122.16684, 37.40888], [-122.16699, 37.40924], [-122.16659, 37.40916], [-122.16638, 37.40872], [-122.166, 37.40882], [-122.16577, 37.40849], [-122.16512, 37.40849], [-122.16454, 37.40883], [-122.16437, 37.40869], [-122.16419, 37.40903], [-122.1639, 37.40878], [-122.16368, 37.40886], [-122.16383, 37.40929], [-122.16311, 37.40921], [-122.16316, 37.4094], [-122.16368, 37.40954], [-122.16532, 37.40924], [-122.16536, 37.4095]], [[-122.16505, 37.4083], [-122.16508, 37.40808], [-122.16475, 37.40795], [-122.16463, 37.40753], [-122.16447, 37.40753], [-122.1643, 37.40803], [-122.16365, 37.40807], [-122.1637, 37.40837], [-122.16401, 37.40854], [-122.16505, 37.4083]], [[-122.16461, 37.40413], [-122.16455, 37.40381], [-122.16397, 37.40373], [-122.16437, 37.40423], [-122.16461, 37.40413]], [[-122.16445, 37.40279], [-122.16421, 37.40265], [-122.16422, 37.40299], [-122.16436, 37.40301], [-122.16445, 37.40279]], [[-122.16469, 37.40291], [-122.16458, 37.40348], [-122.16478, 37.40351], [-122.16495, 37.4034], [-122.16487, 37.40304], [-122.16488, 37.40276], [-122.1645, 37.4023], [-122.16435, 37.4024], [-122.16469, 37.40291]], [[-122.1708, 37.40948], [-122.17106, 37.40984], [-122.17126, 37.40977], [-122.17109, 37.40945], [-122.1708, 37.40948]], [[-122.16886, 37.40959], [-122.16902, 37.40996], [-122.16947, 37.41003], [-122.16909, 37.41045], [-122.1692, 37.4107], [-122.16953, 37.41082], [-122.17016, 37.41058], [-122.17013, 37.41022], [-122.16959, 37.40983], [-122.16979, 37.40962], [-122.16909, 37.40944], [-122.16886, 37.40959]], [[-122.17386, 37.39503], [-122.17266, 37.39453], [-122.17197, 37.39706], [-122.17293, 37.39732], [-122.17397, 37.39788], [-122.17514, 37.39926], [-122.17619, 37.39912], [-122.17705, 37.39916], [-122.17879, 37.39969], [-122.17495, 37.3958], [-122.17386, 37.39503]], [[-122.17554, 37.39969], [-122.17634, 37.39969], [-122.17648, 37.39938], [-122.1759, 37.39942], [-122.17549, 37.39923], [-122.17485, 37.39938], [-122.17554, 37.39969]], [[-122.17163, 37.40025], [-122.17119, 37.39996], [-122.17065, 37.40002], [-122.17032, 37.40035], [-122.17041, 37.4008], [-122.17083, 37.40106], [-122.17138, 37.40099], [-122.1717, 37.40065], [-122.17163, 37.40025]], [[-122.16543, 37.40071], [-122.16567, 37.40056], [-122.1655, 37.40031], [-122.16543, 37.40071]], [[-122.16526, 37.39938], [-122.16544, 37.39904], [-122.16518, 37.39895], [-122.16503, 37.39932], [-122.16526, 37.39938]], [[-122.16575, 37.40009], [-122.16551, 37.39993], [-122.1659, 37.40039], [-122.16612, 37.39991], [-122.16575, 37.40009]], [[-122.17699, 37.39982], [-122.17742, 37.39983], [-122.1777, 37.39982], [-122.17753, 37.39956], [-122.17715, 37.39948], [-122.17687, 37.39963], [-122.17699, 37.39982]], [[-122.1692, 37.40242], [-122.16894, 37.402], [-122.16843, 37.40184], [-122.16776, 37.40207], [-122.16753, 37.4025], [-122.16776, 37.40291], [-122.16832, 37.40308], [-122.169, 37.40288], [-122.1692, 37.40242]], [[-122.17479, 37.40348], [-122.17487, 37.40307], [-122.1745, 37.40256], [-122.174, 37.40243], [-122.1735, 37.40263], [-122.17334, 37.40318], [-122.17376, 37.40365], [-122.17434, 37.40375], [-122.17479, 37.40348]], [[-122.16516, 37.40249], [-122.1649, 37.40292], [-122.16509, 37.40377], [-122.1655, 37.40402], [-122.1662, 37.40398], [-122.16663, 37.40347], [-122.16655, 37.40301], [-122.16591, 37.40241], [-122.16516, 37.40249]], [[-122.17092, 37.40328], [-122.16998, 37.40328], [-122.17002, 37.4036], [-122.17032, 37.40372], [-122.17041, 37.40398], [-122.17105, 37.40396], [-122.17146, 37.40415], [-122.17165, 37.40391], [-122.17146, 37.40357], [-122.17092, 37.40328]], [[-122.17164, 37.40332], [-122.17206, 37.40374], [-122.17233, 37.40448], [-122.17224, 37.40516], [-122.17257, 37.40547], [-122.17285, 37.4053], [-122.17263, 37.4042], [-122.17205, 37.40346], [-122.17164, 37.40332]], [[-122.16779, 37.40622], [-122.16817, 37.40677], [-122.16832, 37.40669], [-122.16819, 37.40627], [-122.16779, 37.40622]], [[-122.16525, 37.40749], [-122.16558, 37.40747], [-122.16572, 37.40735], [-122.1652, 37.40726], [-122.16525, 37.40749]], [[-122.171, 37.41088], [-122.17074, 37.41065], [-122.17038, 37.41117], [-122.17048, 37.41163], [-122.17022, 37.41145], [-122.16956, 37.4114], [-122.17, 37.41178], [-122.16924, 37.41189], [-122.169, 37.41214], [-122.16943, 37.41228], [-122.16999, 37.41221], [-122.17017, 37.41241], [-122.17046, 37.41185], [-122.17082, 37.41175], [-122.17075, 37.41125], [-122.171, 37.41088]], [[-122.16059, 37.40001], [-122.1605, 37.40027], [-122.16067, 37.40036], [-122.16088, 37.40009], [-122.16059, 37.40001]], [[-122.16278, 37.40235], [-122.1631, 37.402], [-122.16304, 37.4016], [-122.16257, 37.4013], [-122.16204, 37.40135], [-122.1617, 37.40169], [-122.16176, 37.4021], [-122.16221, 37.40241], [-122.16278, 37.40235]], [[-122.15967, 37.40331], [-122.15992, 37.40408], [-122.16038, 37.40429], [-122.16131, 37.40442], [-122.16097, 37.40378], [-122.16037, 37.40391], [-122.16027, 37.40343], [-122.16007, 37.40351], [-122.15967, 37.40331]], [[-122.16157, 37.40533], [-122.16095, 37.40609], [-122.1616, 37.40664], [-122.15983, 37.4079], [-122.15994, 37.40834], [-122.16046, 37.40846], [-122.16136, 37.40836], [-122.16182, 37.40812], [-122.16202, 37.40791], [-122.16184, 37.40784], [-122.16269, 37.40785], [-122.16258, 37.40813], [-122.16294, 37.40815], [-122.16317, 37.40807], [-122.1632, 37.40781], [-122.16409, 37.40764], [-122.16391, 37.40727], [-122.16362, 37.40718], [-122.164, 37.40674], [-122.16297, 37.40626], [-122.16278, 37.40589], [-122.16244, 37.40587], [-122.16198, 37.40538], [-122.16157, 37.40533]]], [[[-122.19636, 37.41112], [-122.19583, 37.41053], [-122.196, 37.41045], [-122.19742, 37.41054], [-122.19733, 37.41076], [-122.19688, 37.4108], [-122.19636, 37.41112]]], [[[-122.19904, 37.41094], [-122.19832, 37.41206], [-122.19769, 37.41257], [-122.19717, 37.41287], [-122.19659, 37.4128], [-122.19699, 37.41228], [-122.19672, 37.41139], [-122.19712, 37.41107], [-122.19793, 37.41081], [-122.19904, 37.41094]]], [[[-122.19369, 37.41232], [-122.19368, 37.41231], [-122.1937, 37.41229], [-122.19369, 37.41232]]], [[[-122.20656, 37.41333], [-122.20882, 37.41459], [-122.20717, 37.41448], [-122.20576, 37.4154], [-122.20558, 37.4151], [-122.20502, 37.41492], [-122.2046, 37.41447], [-122.20393, 37.41432], [-122.20342, 37.41457], [-122.20245, 37.41419], [-122.20237, 37.41368], [-122.20217, 37.4137], [-122.20098, 37.41281], [-122.19979, 37.41328], [-122.20061, 37.41357], [-122.20038, 37.4138], [-122.19979, 37.41357], [-122.19935, 37.4127], [-122.19879, 37.41245], [-122.19906, 37.41237], [-122.19936, 37.41147], [-122.1997, 37.41118], [-122.20656, 37.41333]]], [[[-122.19425, 37.41299], [-122.19502, 37.41347], [-122.19393, 37.41378], [-122.19425, 37.41299]]], [[[-122.20184, 37.41421], [-122.20186, 37.41411], [-122.20198, 37.41416], [-122.20184, 37.41421]]], [[[-122.19483, 37.41408], [-122.19507, 37.41476], [-122.19475, 37.41478], [-122.194, 37.41434], [-122.19483, 37.41408]]], [[[-122.19964, 37.41523], [-122.19986, 37.41531], [-122.19954, 37.41545], [-122.19964, 37.41523]]], [[[-122.19263, 37.4176], [-122.19257, 37.41734], [-122.19195, 37.41712], [-122.19095, 37.41627], [-122.19108, 37.41574], [-122.19081, 37.41551], [-122.1904, 37.41574], [-122.19042, 37.4155], [-122.19063, 37.41522], [-122.19188, 37.41471], [-122.19241, 37.41475], [-122.19311, 37.41442], [-122.19421, 37.41514], [-122.19404, 37.4156], [-122.19433, 37.41599], [-122.19517, 37.41617], [-122.19589, 37.41661], [-122.19655, 37.41649], [-122.19652, 37.41687], [-122.19555, 37.41703], [-122.19523, 37.4175], [-122.1947, 37.41742], [-122.19413, 37.41757], [-122.19348, 37.41811], [-122.19349, 37.41868], [-122.19417, 37.41929], [-122.19493, 37.41947], [-122.19545, 37.41934], [-122.19588, 37.41968], [-122.19574, 37.4202], [-122.19617, 37.42062], [-122.1967, 37.42065], [-122.19713, 37.4204], [-122.19767, 37.42055], [-122.1965, 37.42105], [-122.19402, 37.4205], [-122.19227, 37.41957], [-122.19159, 37.41951], [-122.19175, 37.41909], [-122.19169, 37.41789], [-122.19207, 37.41838], [-122.19201, 37.41894], [-122.19222, 37.41907], [-122.19299, 37.41872], [-122.19335, 37.41826], [-122.19288, 37.41783], [-122.19292, 37.4175], [-122.19263, 37.4176]]], [[[-122.2089, 37.418], [-122.20895, 37.41768], [-122.20903, 37.41798], [-122.2089, 37.418]]], [[[-122.20773, 37.41879], [-122.20759, 37.41796], [-122.20822, 37.418], [-122.20793, 37.41879], [-122.20773, 37.41879]]], [[[-122.19426, 37.42357], [-122.19471, 37.4234], [-122.19558, 37.42318], [-122.19437, 37.42403], [-122.19449, 37.42382], [-122.19434, 37.42386], [-122.19426, 37.42357]]], [[[-122.18613, 37.38382], [-122.18584, 37.38384], [-122.18591, 37.38359], [-122.18573, 37.3836], [-122.18575, 37.38384], [-122.18518, 37.38403], [-122.18488, 37.38298], [-122.18331, 37.38275], [-122.18286, 37.38293], [-122.18267, 37.38333], [-122.18286, 37.3837], [-122.18351, 37.38404], [-122.18344, 37.38438], [-122.18142, 37.3843], [-122.18193, 37.38256], [-122.18487, 37.38258], [-122.18568, 37.38329], [-122.18613, 37.38382]]], [[[-122.17895, 37.38687], [-122.18008, 37.38588], [-122.18047, 37.38586], [-122.18019, 37.38616], [-122.17999, 37.38691], [-122.18016, 37.38747], [-122.18056, 37.38774], [-122.18169, 37.3879], [-122.18216, 37.38761], [-122.18239, 37.38678], [-122.18206, 37.38628], [-122.18129, 37.38583], [-122.18146, 37.3857], [-122.18119, 37.38565], [-122.18126, 37.38545], [-122.18188, 37.38571], [-122.18236, 37.38555], [-122.18298, 37.38562], [-122.1834, 37.38536], [-122.1839, 37.38581], [-122.1843, 37.38584], [-122.18479, 37.3857], [-122.18611, 37.38578], [-122.18723, 37.38537], [-122.18719, 37.38976], [-122.18697, 37.3893], [-122.18714, 37.38849], [-122.18552, 37.38758], [-122.18523, 37.3877], [-122.18506, 37.38812], [-122.18532, 37.38885], [-122.18517, 37.3893], [-122.18534, 37.38991], [-122.18457, 37.3905], [-122.18429, 37.39013], [-122.18387, 37.39005], [-122.18324, 37.39082], [-122.18232, 37.39056], [-122.18187, 37.39018], [-122.18081, 37.39005], [-122.17951, 37.38934], [-122.17901, 37.38947], [-122.17882, 37.38988], [-122.17965, 37.39114], [-122.18018, 37.39151], [-122.18102, 37.39158], [-122.18233, 37.39222], [-122.18169, 37.39275], [-122.18093, 37.39299], [-122.18077, 37.39328], [-122.18093, 37.39361], [-122.18172, 37.39378], [-122.18386, 37.39344], [-122.18447, 37.39495], [-122.18485, 37.39518], [-122.18649, 37.39515], [-122.1869, 37.39489], [-122.18705, 37.39424], [-122.18645, 37.39371], [-122.18646, 37.39304], [-122.1869, 37.39205], [-122.18648, 37.39167], [-122.18719, 37.38989], [-122.18717, 37.39161], [-122.1886, 37.39162], [-122.18888, 37.3919], [-122.1889, 37.39162], [-122.18942, 37.39163], [-122.18975, 37.39228], [-122.19028, 37.39217], [-122.19037, 37.3927], [-122.18972, 37.39238], [-122.18971, 37.3929], [-122.18923, 37.39232], [-122.18884, 37.39223], [-122.18894, 37.39257], [-122.18843, 37.39281], [-122.18834, 37.39326], [-122.18886, 37.39393], [-122.1898, 37.39377], [-122.18962, 37.39449], [-122.19021, 37.39536], [-122.1907, 37.39547], [-122.1911, 37.39536], [-122.19099, 37.39519], [-122.1912, 37.39498], [-122.19095, 37.39482], [-122.19113, 37.39444], [-122.19155, 37.39539], [-122.19103, 37.39551], [-122.19114, 37.39586], [-122.19079, 37.39574], [-122.19163, 37.39717], [-122.19135, 37.39762], [-122.19093, 37.39762], [-122.19092, 37.39712], [-122.19047, 37.39669], [-122.18939, 37.39652], [-122.1887, 37.39667], [-122.18846, 37.39718], [-122.18874, 37.39757], [-122.18941, 37.39766], [-122.1897, 37.39794], [-122.19063, 37.39793], [-122.19078, 37.3982], [-122.19132, 37.398], [-122.19102, 37.39877], [-122.1914, 37.39944], [-122.19051, 37.39953], [-122.19014, 37.40039], [-122.19079, 37.40097], [-122.19144, 37.40106], [-122.19198, 37.40081], [-122.19208, 37.40024], [-122.19198, 37.40144], [-122.1921, 37.40292], [-122.19231, 37.40312], [-122.19144, 37.40271], [-122.19199, 37.40234], [-122.19187, 37.40178], [-122.19139, 37.40156], [-122.19087, 37.40165], [-122.19054, 37.40207], [-122.19073, 37.40256], [-122.19004, 37.40269], [-122.18973, 37.40309], [-122.18983, 37.40361], [-122.19036, 37.40394], [-122.19037, 37.40419], [-122.18991, 37.40432], [-122.18949, 37.40474], [-122.18898, 37.40472], [-122.18855, 37.40495], [-122.18967, 37.40489], [-122.18989, 37.40528], [-122.19042, 37.40544], [-122.19043, 37.40642], [-122.19111, 37.40675], [-122.19179, 37.40669], [-122.19216, 37.40618], [-122.19282, 37.40601], [-122.1929, 37.40642], [-122.19341, 37.40644], [-122.19357, 37.40667], [-122.19391, 37.40674], [-122.19246, 37.40684], [-122.19246, 37.40709], [-122.19275, 37.40734], [-122.19368, 37.40745], [-122.19372, 37.40781], [-122.1929, 37.40781], [-122.19249, 37.40761], [-122.19208, 37.40768], [-122.19215, 37.40787], [-122.19081, 37.40723], [-122.18932, 37.40618], [-122.17766, 37.39451], [-122.17649, 37.39355], [-122.17449, 37.39251], [-122.17174, 37.39187], [-122.1719, 37.39165], [-122.17269, 37.39158], [-122.17365, 37.39184], [-122.17316, 37.39151], [-122.17587, 37.39153], [-122.17587, 37.39121], [-122.17789, 37.39233], [-122.17676, 37.39074], [-122.17654, 37.39013], [-122.17588, 37.39041], [-122.17589, 37.38981], [-122.18066, 37.38892], [-122.17895, 37.38687]], [[-122.18964, 37.4011], [-122.18947, 37.40013], [-122.19004, 37.39981], [-122.19008, 37.39913], [-122.18849, 37.39834], [-122.1879, 37.39865], [-122.18785, 37.39942], [-122.18728, 37.39929], [-122.18682, 37.3995], [-122.18667, 37.3999], [-122.18689, 37.40026], [-122.1864, 37.40028], [-122.1863, 37.40054], [-122.18692, 37.40039], [-122.18739, 37.40095], [-122.18819, 37.40091], [-122.18842, 37.40128], [-122.18891, 37.40143], [-122.18964, 37.4011]], [[-122.18295, 37.39636], [-122.18231, 37.39557], [-122.18146, 37.3956], [-122.18373, 37.39784], [-122.18473, 37.39702], [-122.1837, 37.3968], [-122.18295, 37.39636]], [[-122.17839, 37.3927], [-122.17853, 37.39281], [-122.17848, 37.39275], [-122.17839, 37.3927]], [[-122.18883, 37.39605], [-122.1888, 37.39651], [-122.18912, 37.39589], [-122.18883, 37.39605]], [[-122.19107, 37.39753], [-122.19129, 37.39681], [-122.19098, 37.39648], [-122.19107, 37.39753]], [[-122.19026, 37.398], [-122.19003, 37.39846], [-122.1903, 37.39838], [-122.19026, 37.398]]], [[[-122.19087, 37.39384], [-122.19047, 37.39373], [-122.1906, 37.39324], [-122.19087, 37.39384]]], [[[-122.19183, 37.39603], [-122.19197, 37.39647], [-122.19182, 37.39599], [-122.19183, 37.39603]]], [[[-122.19181, 37.39935], [-122.19217, 37.39937], [-122.1921, 37.39969], [-122.19202, 37.39955], [-122.1918, 37.3996], [-122.19181, 37.39935]]], [[[-122.18143, 37.4198], [-122.18142, 37.41964], [-122.18149, 37.41967], [-122.18143, 37.4198]]], [[[-122.18851, 37.42057], [-122.18851, 37.42057], [-122.18851, 37.42057], [-122.18851, 37.42057]]], [[[-122.18798, 37.42059], [-122.18803, 37.42058], [-122.18809, 37.42059], [-122.18798, 37.42059]]], [[[-122.18867, 37.42059], [-122.18882, 37.4206], [-122.18883, 37.42063], [-122.18867, 37.42059]]], [[[-122.182, 37.42054], [-122.18208, 37.42055], [-122.18203, 37.42059], [-122.182, 37.42054]]], [[[-122.18456, 37.42239], [-122.1846, 37.42239], [-122.18459, 37.4224], [-122.18456, 37.42239]]], [[[-122.18894, 37.42077], [-122.18982, 37.4209], [-122.19009, 37.42131], [-122.19052, 37.421], [-122.19083, 37.4211], [-122.1917, 37.42368], [-122.1915, 37.42412], [-122.19052, 37.42408], [-122.19059, 37.42372], [-122.18854, 37.4223], [-122.18812, 37.42118], [-122.18852, 37.42117], [-122.18901, 37.42152], [-122.18915, 37.42133], [-122.18894, 37.42077]]], [[[-122.1838, 37.4226], [-122.1832, 37.42415], [-122.18336, 37.42461], [-122.18384, 37.42528], [-122.18448, 37.42548], [-122.18446, 37.42559], [-122.18384, 37.42556], [-122.18347, 37.42585], [-122.18321, 37.42525], [-122.18257, 37.42507], [-122.18257, 37.42477], [-122.18323, 37.4249], [-122.18291, 37.42418], [-122.18262, 37.424], [-122.18259, 37.42276], [-122.18305, 37.42232], [-122.1838, 37.4226]]], [[[-122.18599, 37.42729], [-122.18546, 37.4266], [-122.18611, 37.42623], [-122.18611, 37.42574], [-122.18654, 37.42469], [-122.18656, 37.42387], [-122.18621, 37.42351], [-122.18633, 37.42289], [-122.18691, 37.42321], [-122.18825, 37.42456], [-122.18919, 37.42451], [-122.18878, 37.42405], [-122.18851, 37.42427], [-122.18862, 37.42399], [-122.18833, 37.42381], [-122.18959, 37.42444], [-122.19092, 37.42469], [-122.19117, 37.42527], [-122.19108, 37.42568], [-122.1907, 37.42598], [-122.18943, 37.42638], [-122.18916, 37.42711], [-122.18928, 37.42768], [-122.18587, 37.42766], [-122.18599, 37.42729]]], [[[-122.19138, 37.42608], [-122.19133, 37.42578], [-122.19159, 37.42557], [-122.1918, 37.42578], [-122.19138, 37.42608]]], [[[-122.18144, 37.42763], [-122.18224, 37.42613], [-122.18266, 37.42623], [-122.18256, 37.42696], [-122.18339, 37.4274], [-122.18333, 37.42764], [-122.18144, 37.42763]]], [[[-122.19122, 37.42621], [-122.19035, 37.42749], [-122.18951, 37.42768], [-122.18979, 37.42702], [-122.1906, 37.42688], [-122.19072, 37.42636], [-122.19091, 37.42619], [-122.19122, 37.42621]]], [[[-122.16787, 37.39149], [-122.16784, 37.39148], [-122.16785, 37.39148], [-122.16787, 37.39149]]], [[[-122.17134, 37.39183], [-122.17151, 37.39179], [-122.1716, 37.39185], [-122.17134, 37.39183]]], [[[-122.17212, 37.40859], [-122.17181, 37.4085], [-122.17174, 37.40822], [-122.17193, 37.40811], [-122.17212, 37.40859]]], [[[-122.17208, 37.40902], [-122.17218, 37.4088], [-122.17225, 37.40945], [-122.17208, 37.40902]]], [[[-122.18045, 37.41534], [-122.18041, 37.41543], [-122.18039, 37.41538], [-122.18045, 37.41534]]], [[[-122.17759, 37.41757], [-122.17933, 37.41843], [-122.1801, 37.41833], [-122.18021, 37.41859], [-122.17917, 37.41864], [-122.17857, 37.41912], [-122.17846, 37.41974], [-122.17915, 37.42053], [-122.17874, 37.42065], [-122.17712, 37.42011], [-122.17654, 37.41971], [-122.17602, 37.41897], [-122.17654, 37.4178], [-122.17718, 37.41751], [-122.17759, 37.41757]]], [[[-122.17413, 37.41881], [-122.17452, 37.41791], [-122.17533, 37.41907], [-122.17413, 37.41881]]], [[[-122.1732, 37.41935], [-122.17305, 37.4202], [-122.1724, 37.42026], [-122.17197, 37.41987], [-122.17191, 37.4195], [-122.1732, 37.41935]]], [[[-122.17616, 37.42017], [-122.17576, 37.42025], [-122.17588, 37.41991], [-122.17616, 37.42017]]], [[[-122.17566, 37.4204], [-122.17542, 37.42077], [-122.17521, 37.42074], [-122.17566, 37.4204]]], [[[-122.17508, 37.42077], [-122.17513, 37.42076], [-122.17504, 37.42077], [-122.17508, 37.42077]]], [[[-122.17742, 37.42086], [-122.17754, 37.42091], [-122.17748, 37.42089], [-122.17742, 37.42086]]], [[[-122.17009, 37.42173], [-122.16999, 37.42176], [-122.16997, 37.42171], [-122.17009, 37.42173]]], [[[-122.18094, 37.42222], [-122.1807, 37.42254], [-122.18078, 37.42298], [-122.18122, 37.42347], [-122.18189, 37.42351], [-122.18194, 37.42417], [-122.17942, 37.42368], [-122.17874, 37.42379], [-122.17838, 37.42351], [-122.17837, 37.42198], [-122.17886, 37.4213], [-122.18184, 37.4221], [-122.18094, 37.42222]]], [[[-122.17378, 37.42281], [-122.17353, 37.42269], [-122.17378, 37.42264], [-122.17378, 37.42281]]], [[[-122.17062, 37.4232], [-122.17047, 37.42293], [-122.171, 37.42296], [-122.17106, 37.42314], [-122.17062, 37.4232]]], [[[-122.17367, 37.42473], [-122.17355, 37.42489], [-122.17362, 37.42471], [-122.17367, 37.42473]]], [[[-122.16781, 37.4253], [-122.16763, 37.42536], [-122.1677, 37.42515], [-122.16781, 37.4253]]], [[[-122.17612, 37.42616], [-122.17632, 37.4262], [-122.17619, 37.42658], [-122.17583, 37.4265], [-122.17612, 37.42616]]], [[[-122.16236, 37.39243], [-122.16225, 37.39229], [-122.16247, 37.39208], [-122.16244, 37.39222], [-122.16236, 37.39243]]], [[[-122.16229, 37.39259], [-122.16211, 37.39288], [-122.16209, 37.3929], [-122.16229, 37.39259]]], [[[-122.15558, 37.39174], [-122.15683, 37.39168], [-122.15636, 37.39182], [-122.15653, 37.39205], [-122.15604, 37.39214], [-122.15604, 37.39245], [-122.15538, 37.39262], [-122.15541, 37.39294], [-122.15491, 37.3933], [-122.15423, 37.39358], [-122.15359, 37.3935], [-122.15346, 37.39401], [-122.15446, 37.394], [-122.15504, 37.39377], [-122.1567, 37.39266], [-122.15699, 37.39237], [-122.15684, 37.39168], [-122.1572, 37.39186], [-122.1574, 37.39174], [-122.15819, 37.39192], [-122.15766, 37.39194], [-122.15761, 37.39207], [-122.15784, 37.39216], [-122.15765, 37.39241], [-122.15781, 37.39254], [-122.15824, 37.39256], [-122.15826, 37.39194], [-122.15908, 37.3923], [-122.15926, 37.39142], [-122.16263, 37.39144], [-122.16256, 37.39177], [-122.16239, 37.39144], [-122.16205, 37.39214], [-122.16129, 37.39232], [-122.16169, 37.39258], [-122.16167, 37.39278], [-122.16025, 37.39228], [-122.15997, 37.39235], [-122.15966, 37.39272], [-122.16039, 37.39292], [-122.16064, 37.3933], [-122.16048, 37.39346], [-122.16036, 37.39323], [-122.15901, 37.39341], [-122.15969, 37.39391], [-122.15981, 37.39356], [-122.16093, 37.39364], [-122.16157, 37.39338], [-122.1608, 37.39453], [-122.16054, 37.39413], [-122.16007, 37.39393], [-122.16039, 37.39463], [-122.15958, 37.39454], [-122.15992, 37.39502], [-122.15967, 37.39506], [-122.15947, 37.39478], [-122.15927, 37.3948], [-122.1593, 37.39535], [-122.16003, 37.3957], [-122.1603, 37.39566], [-122.15981, 37.39609], [-122.1595, 37.39601], [-122.15933, 37.39637], [-122.15893, 37.39659], [-122.15784, 37.39522], [-122.15782, 37.39494], [-122.15726, 37.39518], [-122.15677, 37.39466], [-122.15618, 37.39468], [-122.15578, 37.39503], [-122.15622, 37.39634], [-122.15431, 37.3965], [-122.15412, 37.39572], [-122.15356, 37.39546], [-122.15361, 37.39499], [-122.15387, 37.39519], [-122.15428, 37.39494], [-122.15379, 37.39476], [-122.15357, 37.39485], [-122.15324, 37.39453], [-122.15326, 37.39321], [-122.15405, 37.39283], [-122.15419, 37.3925], [-122.1538, 37.39241], [-122.15364, 37.39198], [-122.15327, 37.39246], [-122.15328, 37.39137], [-122.15477, 37.39138], [-122.15477, 37.39189], [-122.15524, 37.39201], [-122.15558, 37.39174]], [[-122.15882, 37.39365], [-122.15883, 37.39393], [-122.1594, 37.39386], [-122.15907, 37.39358], [-122.15882, 37.39365]], [[-122.15738, 37.39405], [-122.15766, 37.39423], [-122.15847, 37.39396], [-122.15783, 37.39388], [-122.15738, 37.39405]], [[-122.15813, 37.3953], [-122.15837, 37.39506], [-122.15865, 37.39524], [-122.15897, 37.39497], [-122.15817, 37.39477], [-122.15816, 37.39455], [-122.15792, 37.39494], [-122.15813, 37.3953]]], [[[-122.16455, 37.39607], [-122.16457, 37.39612], [-122.16449, 37.39606], [-122.16455, 37.39607]]], [[[-122.16297, 37.39594], [-122.16334, 37.39616], [-122.16329, 37.39622], [-122.16297, 37.39594]]], [[[-122.16208, 37.39674], [-122.16254, 37.39637], [-122.16262, 37.39644], [-122.16233, 37.39678], [-122.16208, 37.39674]]], [[[-122.1569, 37.39896], [-122.15771, 37.39808], [-122.15965, 37.39702], [-122.16009, 37.39702], [-122.15992, 37.39686], [-122.16114, 37.39584], [-122.16212, 37.39394], [-122.16194, 37.39434], [-122.16217, 37.39494], [-122.16197, 37.3955], [-122.16125, 37.39587], [-122.16131, 37.39655], [-122.16066, 37.39662], [-122.1613, 37.3969], [-122.16015, 37.39694], [-122.16018, 37.39724], [-122.16073, 37.39747], [-122.16134, 37.39738], [-122.16114, 37.39775], [-122.16005, 37.3974], [-122.15998, 37.39779], [-122.16019, 37.39809], [-122.15949, 37.3981], [-122.1593, 37.39834], [-122.15868, 37.39839], [-122.1584, 37.39864], [-122.15775, 37.39858], [-122.15731, 37.39896], [-122.15759, 37.39971], [-122.15802, 37.39984], [-122.15849, 37.39975], [-122.15797, 37.4006], [-122.15796, 37.4009], [-122.1584, 37.40106], [-122.15792, 37.40121], [-122.15834, 37.40138], [-122.15817, 37.40154], [-122.15844, 37.40168], [-122.15825, 37.402], [-122.15878, 37.40231], [-122.1586, 37.40317], [-122.15807, 37.40316], [-122.15801, 37.40304], [-122.15829, 37.4029], [-122.15807, 37.40277], [-122.15766, 37.40291], [-122.15782, 37.4032], [-122.15757, 37.40313], [-122.15681, 37.39985], [-122.15706, 37.39967], [-122.1569, 37.39896]]], [[[-122.16492, 37.39727], [-122.1648, 37.39753], [-122.16463, 37.39738], [-122.16492, 37.39727]]], [[[-122.16486, 37.39758], [-122.16499, 37.39765], [-122.16517, 37.39785], [-122.16514, 37.39783], [-122.16486, 37.39758]]], [[[-122.16343, 37.39952], [-122.16213, 37.39948], [-122.16163, 37.39902], [-122.16106, 37.39892], [-122.16172, 37.39833], [-122.16189, 37.39779], [-122.16223, 37.39806], [-122.16282, 37.39782], [-122.16273, 37.39733], [-122.16244, 37.39736], [-122.16258, 37.3975], [-122.16238, 37.39768], [-122.1621, 37.39736], [-122.16263, 37.39719], [-122.16261, 37.39662], [-122.16307, 37.39679], [-122.16407, 37.39769], [-122.16409, 37.3982], [-122.16391, 37.39835], [-122.1641, 37.3988], [-122.16434, 37.39793], [-122.16477, 37.39829], [-122.16343, 37.39952]], [[-122.16308, 37.39761], [-122.16272, 37.39798], [-122.16279, 37.39813], [-122.16302, 37.39798], [-122.16308, 37.39761]], [[-122.16388, 37.39849], [-122.16355, 37.39812], [-122.16305, 37.39803], [-122.16349, 37.39873], [-122.16291, 37.39898], [-122.16297, 37.39913], [-122.16323, 37.39916], [-122.16343, 37.39894], [-122.16357, 37.39907], [-122.1636, 37.39869], [-122.16388, 37.39849]]], [[[-122.15322, 37.39702], [-122.15622, 37.39688], [-122.15741, 37.39743], [-122.15636, 37.39817], [-122.15623, 37.39801], [-122.15599, 37.39806], [-122.15627, 37.3984], [-122.15594, 37.39922], [-122.15593, 37.39994], [-122.15665, 37.40266], [-122.15558, 37.40254], [-122.15316, 37.40174], [-122.15322, 37.39702]]], [[[-122.16029, 37.39942], [-122.16037, 37.39942], [-122.1603, 37.39946], [-122.16029, 37.39942]]], [[[-122.1593, 37.39994], [-122.15879, 37.39945], [-122.15905, 37.39926], [-122.15919, 37.39928], [-122.1593, 37.39994]]], [[[-122.15876, 37.3997], [-122.15858, 37.3997], [-122.15873, 37.39956], [-122.15876, 37.3997]]], [[[-122.15316, 37.40229], [-122.15561, 37.40311], [-122.1567, 37.4032], [-122.15664, 37.40387], [-122.15607, 37.40395], [-122.15552, 37.40445], [-122.15473, 37.40452], [-122.1547, 37.40474], [-122.15446, 37.40479], [-122.15388, 37.40445], [-122.15313, 37.40461], [-122.15316, 37.40229]]], [[[-122.15388, 37.40501], [-122.15435, 37.40511], [-122.15537, 37.40463], [-122.15596, 37.40462], [-122.15632, 37.40422], [-122.15655, 37.40428], [-122.15609, 37.40545], [-122.15568, 37.40535], [-122.15525, 37.40549], [-122.15313, 37.40495], [-122.15374, 37.40474], [-122.15388, 37.40501]]], [[[-122.1622, 37.40656], [-122.1622, 37.40657], [-122.1622, 37.40656], [-122.1622, 37.40656]]], [[[-122.16266, 37.40683], [-122.16266, 37.40666], [-122.16304, 37.40677], [-122.16297, 37.40694], [-122.16266, 37.40683]]], [[[-122.15603, 37.40691], [-122.15603, 37.40691], [-122.15603, 37.40691], [-122.15603, 37.40691]]], [[[-122.15828, 37.40853], [-122.1581, 37.40854], [-122.15806, 37.40837], [-122.15828, 37.40853]]], [[[-122.16028, 37.42109], [-122.16106, 37.42124], [-122.16091, 37.42154], [-122.16028, 37.42109]]], [[[-122.16276, 37.42279], [-122.16226, 37.42272], [-122.16286, 37.42267], [-122.16276, 37.42279]]], [[[-122.16432, 37.42301], [-122.16425, 37.42301], [-122.16424, 37.42299], [-122.16432, 37.42301]]], [[[-122.16173, 37.42317], [-122.16139, 37.42417], [-122.161, 37.42406], [-122.16148, 37.4231], [-122.16173, 37.42317]]], [[[-122.15975, 37.42724], [-122.16047, 37.42732], [-122.16042, 37.42748], [-122.15984, 37.42747], [-122.15975, 37.42724]]]]}, "properties": {"kind": "pv", "area_km2": 7.08, "mw": 354.2}}]}