{"type": "FeatureCollection", "features": [{"type": "Feature", "geometry": {"type": "MultiPolygon", "coordinates": [[[[-4.09543, 38.71124], [-4.0944, 38.7103], [-4.09455, 38.70996], [-4.09621, 38.70994], [-4.09625, 38.71204], [-4.09543, 38.71124]]], [[[-4.08512, 38.71026], [-4.08737, 38.71021], [-4.08809, 38.71002], [-4.09227, 38.70998], [-4.09145, 38.71316], [-4.09104, 38.71236], [-4.09025, 38.71243], [-4.09056, 38.7137], [-4.08985, 38.71393], [-4.08968, 38.71458], [-4.08895, 38.71408], [-4.08756, 38.71423], [-4.08733, 38.71458], [-4.08713, 38.71458], [-4.08705, 38.71492], [-4.08647, 38.71527], [-4.08649, 38.71639], [-4.08576, 38.71588], [-4.08676, 38.71402], [-4.08643, 38.71369], [-4.08612, 38.71383], [-4.08508, 38.71577], [-4.08515, 38.71639], [-4.08481, 38.71646], [-4.08472, 38.71046], [-4.08512, 38.71026]], [[-4.08996, 38.71097], [-4.08983, 38.71107], [-4.08968, 38.71118], [-4.08988, 38.71121], [-4.08996, 38.71097]]], [[[-4.09351, 38.71032], [-4.09329, 38.71088], [-4.09116, 38.71711], [-4.09094, 38.71682], [-4.08997, 38.71636], [-4.09182, 38.71411], [-4.09277, 38.71123], [-4.09296, 38.70997], [-4.09351, 38.71032]]], [[[-4.09156, 38.71857], [-4.0925, 38.71575], [-4.09416, 38.71091], [-4.0957, 38.71237], [-4.09606, 38.71307], [-4.09579, 38.71745], [-4.09621, 38.71895], [-4.0914, 38.719], [-4.09156, 38.71857]]], [[[-4.08519, 38.71815], [-4.08509, 38.71822], [-4.08484, 38.71846], [-4.08483, 38.71785], [-4.08519, 38.71815]]]]}, "properties": {"kind": "pv", "area_km2": 0.58, "mw": 28.8}}]}