{"type": "FeatureCollection", "features": [{"type": "Feature", "geometry": {"type": "MultiPolygon", "coordinates": [[[[-4.13993, 38.65079], [-4.14416, 38.65236], [-4.15214, 38.65688], [-4.15756, 38.66064], [-4.15873, 38.66282], [-4.1599, 38.66328], [-4.16105, 38.66329], [-4.1624, 38.66443], [-4.16088, 38.66504], [-4.152, 38.66621], [-4.14453, 38.66796], [-4.14013, 38.66941], [-4.13768, 38.66434], [-4.13911, 38.66423], [-4.14023, 38.66369], [-4.14089, 38.6628], [-4.14094, 38.66177], [-4.14032, 38.66063], [-4.14008, 38.65886], [-4.13671, 38.65363], [-4.13544, 38.65307], [-4.13202, 38.65276], [-4.13009, 38.65338], [-4.12809, 38.6577], [-4.12822, 38.65905], [-4.12897, 38.66004], [-4.12739, 38.65978], [-4.12574, 38.65865], [-4.12381, 38.65833], [-4.12333, 38.65457], [-4.12534, 38.65445], [-4.12675, 38.65388], [-4.12921, 38.65037], [-4.13045, 38.65019], [-4.13167, 38.64944], [-4.13327, 38.64942], [-4.13408, 38.65058], [-4.13546, 38.65112], [-4.13754, 38.65112], [-4.13911, 38.65044], [-4.13993, 38.65079]]], [[[-4.12889, 38.64611], [-4.12766, 38.64635], [-4.12712, 38.64541], [-4.12896, 38.64607], [-4.12889, 38.64611]]], [[[-4.11428, 38.65445], [-4.11214, 38.65839], [-4.11182, 38.65825], [-4.11194, 38.65653], [-4.1112, 38.65513], [-4.10998, 38.65415], [-4.10818, 38.65353], [-4.109, 38.6523], [-4.11043, 38.6519], [-4.11138, 38.65095], [-4.11162, 38.64974], [-4.11095, 38.64863], [-4.1094, 38.6479], [-4.10785, 38.64796], [-4.1066, 38.64868], [-4.10596, 38.64984], [-4.10445, 38.65024], [-4.10283, 38.64895], [-4.10109, 38.64599], [-4.09943, 38.64495], [-4.09557, 38.64359], [-4.09566, 38.64317], [-4.09812, 38.64245], [-4.0997, 38.6436], [-4.10059, 38.6424], [-4.10135, 38.64227], [-4.10193, 38.64301], [-4.10163, 38.64422], [-4.10211, 38.64447], [-4.10628, 38.64305], [-4.10701, 38.64222], [-4.1091, 38.6412], [-4.11231, 38.6418], [-4.11205, 38.64273], [-4.11, 38.64371], [-4.10883, 38.64541], [-4.10995, 38.64619], [-4.11139, 38.64645], [-4.11241, 38.64656], [-4.11311, 38.64599], [-4.11444, 38.64628], [-4.11253, 38.64736], [-4.11201, 38.64877], [-4.11275, 38.65164], [-4.11374, 38.65235], [-4.11529, 38.65259], [-4.11428, 38.65445]]], [[[-4.09186, 38.64328], [-4.09028, 38.64327], [-4.08824, 38.64119], [-4.08798, 38.63964], [-4.09781, 38.63991], [-4.09625, 38.64047], [-4.09223, 38.64098], [-4.09188, 38.64147], [-4.0922, 38.64199], [-4.09113, 38.64252], [-4.09188, 38.64294], [-4.09186, 38.64328]]], [[[-4.11765, 38.64538], [-4.11704, 38.64634], [-4.11608, 38.64629], [-4.11638, 38.64566], [-4.11765, 38.64538]]], [[[-4.11971, 38.64348], [-4.11966, 38.64413], [-4.11856, 38.64463], [-4.11866, 38.64309], [-4.11971, 38.64348]]], [[[-4.1882, 38.70477], [-4.18604, 38.70522], [-4.18367, 38.70303], [-4.18338, 38.70098], [-4.1818, 38.69887], [-4.18004, 38.69833], [-4.17794, 38.69879], [-4.17682, 38.69659], [-4.17568, 38.69584], [-4.17384, 38.69533], [-4.17106, 38.69573], [-4.16908, 38.69731], [-4.16862, 38.69971], [-4.16944, 38.70138], [-4.16838, 38.70158], [-4.16744, 38.70222], [-4.16597, 38.70173], [-4.16322, 38.70196], [-4.16029, 38.70386], [-4.15952, 38.70293], [-4.15811, 38.70211], [-4.1564, 38.70178], [-4.15441, 38.70196], [-4.15221, 38.703], [-4.15107, 38.70499], [-4.14835, 38.7042], [-4.14583, 38.70394], [-4.14497, 38.70158], [-4.14286, 38.70057], [-4.1415, 38.70072], [-4.1401, 38.70142], [-4.13958, 38.70227], [-4.1395, 38.70384], [-4.1314, 38.70369], [-4.1326, 38.70161], [-4.13219, 38.70027], [-4.13724, 38.69493], [-4.12913, 38.69673], [-4.1243, 38.69659], [-4.12201, 38.69696], [-4.12054, 38.69696], [-4.12006, 38.69802], [-4.11941, 38.69726], [-4.12147, 38.69608], [-4.12309, 38.69672], [-4.12429, 38.69648], [-4.12812, 38.69663], [-4.12871, 38.69561], [-4.12639, 38.69376], [-4.12447, 38.69477], [-4.12418, 38.69627], [-4.1228, 38.69641], [-4.12213, 38.69552], [-4.12293, 38.69414], [-4.12316, 38.69213], [-4.12425, 38.68905], [-4.1281, 38.68609], [-4.12986, 38.68616], [-4.13174, 38.68579], [-4.13414, 38.68402], [-4.14192, 38.68132], [-4.14369, 38.6811], [-4.14446, 38.68265], [-4.14572, 38.68364], [-4.14763, 38.68427], [-4.14977, 38.6842], [-4.15305, 38.68292], [-4.15518, 38.6808], [-4.1576, 38.68042], [-4.15936, 38.67945], [-4.16133, 38.67984], [-4.1645, 38.67944], [-4.16685, 38.67868], [-4.16845, 38.67733], [-4.16984, 38.67764], [-4.17164, 38.67751], [-4.17407, 38.67618], [-4.17736, 38.68037], [-4.18169, 38.6873], [-4.18513, 38.69454], [-4.1882, 38.70477]], [[-4.13981, 38.68424], [-4.13856, 38.68566], [-4.13812, 38.68699], [-4.13836, 38.68834], [-4.13924, 38.68953], [-4.14063, 38.69035], [-4.14335, 38.69122], [-4.14555, 38.69105], [-4.14708, 38.69032], [-4.14812, 38.68919], [-4.14871, 38.68753], [-4.14844, 38.6862], [-4.14755, 38.68504], [-4.14617, 38.68424], [-4.14348, 38.68339], [-4.14132, 38.68355], [-4.13981, 38.68424]], [[-4.12879, 38.69429], [-4.12858, 38.6934], [-4.12653, 38.6933], [-4.12675, 38.69395], [-4.12879, 38.69553], [-4.12879, 38.69429]]], [[[-4.09697, 38.70967], [-4.09725, 38.70952], [-4.09865, 38.71092], [-4.1009, 38.71184], [-4.09894, 38.71332], [-4.09855, 38.71195], [-4.09681, 38.70995], [-4.09697, 38.70967]]], [[[-4.09294, 38.72178], [-4.09467, 38.72029], [-4.09588, 38.72111], [-4.09425, 38.72364], [-4.09308, 38.72418], [-4.09243, 38.72406], [-4.09227, 38.72295], [-4.09294, 38.72178]]], [[[-4.10397, 38.72289], [-4.10418, 38.72247], [-4.10552, 38.72271], [-4.10686, 38.72233], [-4.10784, 38.72081], [-4.10848, 38.72151], [-4.10966, 38.72201], [-4.11173, 38.72171], [-4.11273, 38.72045], [-4.11231, 38.71856], [-4.11303, 38.72044], [-4.11394, 38.72131], [-4.11531, 38.72164], [-4.11687, 38.7212], [-4.11778, 38.71971], [-4.11711, 38.71737], [-4.11745, 38.71513], [-4.11695, 38.71326], [-4.11968, 38.71154], [-4.12049, 38.70896], [-4.12269, 38.70991], [-4.12562, 38.70996], [-4.12761, 38.70926], [-4.12951, 38.70753], [-4.14553, 38.7078], [-4.14716, 38.70796], [-4.15278, 38.70967], [-4.15419, 38.71041], [-4.15549, 38.71172], [-4.15752, 38.7164], [-4.15993, 38.71911], [-4.1637, 38.72131], [-4.16626, 38.72204], [-4.16934, 38.7224], [-4.1694, 38.723], [-4.16914, 38.72396], [-4.16753, 38.7252], [-4.16657, 38.72665], [-4.16644, 38.72803], [-4.16697, 38.72928], [-4.16135, 38.73741], [-4.15903, 38.73822], [-4.15146, 38.7392], [-4.14486, 38.7377], [-4.1428, 38.73647], [-4.14106, 38.7344], [-4.13926, 38.73344], [-4.13718, 38.73302], [-4.13546, 38.73199], [-4.13435, 38.73176], [-4.13365, 38.7308], [-4.13083, 38.72873], [-4.12932, 38.72237], [-4.12812, 38.7203], [-4.1263, 38.71905], [-4.12254, 38.71852], [-4.1211, 38.71872], [-4.11819, 38.72086], [-4.11708, 38.72261], [-4.11469, 38.7232], [-4.10969, 38.72337], [-4.10695, 38.72403], [-4.10328, 38.72397], [-4.10397, 38.72289]]], [[[-4.16821, 38.73529], [-4.17131, 38.73112], [-4.17292, 38.73079], [-4.17488, 38.72982], [-4.17636, 38.72825], [-4.17646, 38.72597], [-4.17552, 38.72464], [-4.17431, 38.72388], [-4.1743, 38.72251], [-4.17822, 38.72242], [-4.18321, 38.72154], [-4.18707, 38.72016], [-4.18977, 38.71872], [-4.18948, 38.72505], [-4.18816, 38.7327], [-4.18676, 38.73733], [-4.1818, 38.73922], [-4.1781, 38.73885], [-4.17681, 38.7382], [-4.17359, 38.73766], [-4.17022, 38.73746], [-4.16815, 38.73793], [-4.16683, 38.73733], [-4.16821, 38.73529]], [[-4.18265, 38.72931], [-4.18484, 38.72991], [-4.18712, 38.72899], [-4.18784, 38.72731], [-4.18659, 38.72566], [-4.18449, 38.72519], [-4.18237, 38.72624], [-4.1817, 38.72773], [-4.18265, 38.72931]]], [[[-4.14627, 38.78292], [-4.14589, 38.78259], [-4.14643, 38.78129], [-4.15182, 38.76955], [-4.15461, 38.76887], [-4.15658, 38.76699], [-4.15659, 38.76463], [-4.15493, 38.76282], [-4.16474, 38.74137], [-4.16727, 38.74215], [-4.17305, 38.74188], [-4.17692, 38.74299], [-4.18166, 38.7436], [-4.18473, 38.74286], [-4.18268, 38.74752], [-4.17858, 38.75455], [-4.17362, 38.76122], [-4.16785, 38.76748], [-4.16132, 38.77327], [-4.15409, 38.77852], [-4.14627, 38.78292]]], [[[-4.15882, 38.74305], [-4.14972, 38.76273], [-4.1476, 38.76462], [-4.1473, 38.76593], [-4.14764, 38.76723], [-4.14209, 38.77927], [-4.14062, 38.7799], [-4.13898, 38.77918], [-4.1368, 38.77909], [-4.13533, 38.77949], [-4.13392, 38.78042], [-4.12649, 38.77213], [-4.12334, 38.76781], [-4.11919, 38.76369], [-4.11225, 38.7538], [-4.10898, 38.75047], [-4.10502, 38.7475], [-4.10414, 38.74621], [-4.10827, 38.74822], [-4.10974, 38.75031], [-4.11278, 38.75175], [-4.11858, 38.75197], [-4.12205, 38.75131], [-4.12384, 38.74924], [-4.12428, 38.74772], [-4.12381, 38.74442], [-4.1232, 38.74317], [-4.12345, 38.7378], [-4.12313, 38.73683], [-4.12211, 38.73563], [-4.12109, 38.73513], [-4.11734, 38.73456], [-4.1151, 38.73486], [-4.11469, 38.73371], [-4.11374, 38.73301], [-4.10925, 38.7313], [-4.10223, 38.72944], [-4.10252, 38.72838], [-4.10649, 38.72943], [-4.10857, 38.72881], [-4.10999, 38.72762], [-4.11568, 38.72742], [-4.11807, 38.72691], [-4.12069, 38.72584], [-4.12207, 38.72466], [-4.12247, 38.72378], [-4.12365, 38.72301], [-4.1245, 38.72435], [-4.1256, 38.73035], [-4.12711, 38.73232], [-4.13046, 38.73545], [-4.13692, 38.73728], [-4.13754, 38.73762], [-4.13784, 38.73901], [-4.13855, 38.73989], [-4.14272, 38.74162], [-4.15034, 38.74338], [-4.1552, 38.74314], [-4.15905, 38.74251], [-4.15882, 38.74305]]], [[[-4.09128, 38.72947], [-4.09046, 38.73069], [-4.08929, 38.73182], [-4.09015, 38.72929], [-4.09128, 38.72947]]], [[[-4.08684, 38.7397], [-4.08867, 38.73853], [-4.0951, 38.74138], [-4.10102, 38.74979], [-4.10522, 38.75298], [-4.10822, 38.75603], [-4.1125, 38.76197], [-4.11309, 38.76305], [-4.11109, 38.76488], [-4.11088, 38.76581], [-4.11125, 38.7667], [-4.11211, 38.76735], [-4.11351, 38.7676], [-4.11465, 38.76731], [-4.11572, 38.76646], [-4.11705, 38.7677], [-4.11935, 38.77009], [-4.12233, 38.77424], [-4.12891, 38.78135], [-4.13047, 38.78368], [-4.13295, 38.78631], [-4.1329, 38.78697], [-4.13049, 38.78721], [-4.1282, 38.78822], [-4.12422, 38.79049], [-4.12251, 38.79215], [-4.11522, 38.79372], [-4.11019, 38.7953], [-4.10045, 38.79653], [-4.0906, 38.797], [-4.08503, 38.79683], [-4.08949, 38.79551], [-4.09315, 38.79355], [-4.09358, 38.79268], [-4.09333, 38.79157], [-4.09255, 38.79086], [-4.09118, 38.79051], [-4.07943, 38.7945], [-4.07789, 38.79537], [-4.07651, 38.79429], [-4.08385, 38.77105], [-4.08384, 38.76597], [-4.08253, 38.76], [-4.08567, 38.76066], [-4.08852, 38.75985], [-4.09038, 38.75864], [-4.09235, 38.75502], [-4.09198, 38.75273], [-4.08978, 38.75057], [-4.08579, 38.74913], [-4.0845, 38.74914], [-4.08342, 38.74959], [-4.08684, 38.7397]]], [[[-3.99225, 38.73793], [-3.99231, 38.73795], [-3.99314, 38.73835], [-3.99248, 38.73864], [-3.99225, 38.73793]]], [[[-3.99601, 38.74632], [-3.99805, 38.74589], [-3.99983, 38.74449], [-4.00042, 38.74243], [-3.99968, 38.74077], [-4.00386, 38.74071], [-4.01208, 38.74221], [-4.02175, 38.74221], [-4.0279, 38.74145], [-4.02416, 38.74287], [-4.01927, 38.74541], [-4.00935, 38.74727], [-4.00327, 38.74749], [-4.00025, 38.74815], [-3.99895, 38.74877], [-3.99801, 38.74751], [-3.99564, 38.74631], [-3.99601, 38.74632]]], [[[-3.99927, 38.75262], [-4.00448, 38.75135], [-4.00386, 38.75253], [-4.00421, 38.75362], [-4.00528, 38.75437], [-4.00693, 38.7545], [-4.01008, 38.75242], [-4.01188, 38.7506], [-4.02093, 38.74906], [-4.02917, 38.74528], [-4.03167, 38.74542], [-4.03474, 38.7442], [-4.04017, 38.74285], [-4.04263, 38.74399], [-4.04538, 38.74402], [-4.04701, 38.74352], [-4.04817, 38.74266], [-4.05011, 38.74217], [-4.04998, 38.74297], [-4.04756, 38.74367], [-4.04601, 38.74531], [-4.04552, 38.74821], [-4.04674, 38.75037], [-4.04943, 38.75144], [-4.05262, 38.7511], [-4.05481, 38.74999], [-4.05582, 38.74828], [-4.05716, 38.74964], [-4.05926, 38.74981], [-4.0613, 38.74832], [-4.06154, 38.74626], [-4.06189, 38.74711], [-4.06274, 38.74702], [-4.06294, 38.74446], [-4.06191, 38.74429], [-4.06216, 38.74324], [-4.06317, 38.74359], [-4.06363, 38.74272], [-4.06435, 38.74402], [-4.0663, 38.74261], [-4.06596, 38.74099], [-4.06708, 38.73928], [-4.06597, 38.73846], [-4.06582, 38.73934], [-4.06466, 38.73956], [-4.06548, 38.73633], [-4.06797, 38.73818], [-4.06783, 38.74035], [-4.06933, 38.74277], [-4.06815, 38.74491], [-4.06725, 38.74889], [-4.0659, 38.75167], [-4.06511, 38.75463], [-4.06512, 38.75932], [-4.06674, 38.76356], [-4.06316, 38.76648], [-4.0591, 38.77187], [-4.04876, 38.77265], [-4.04709, 38.77346], [-4.04648, 38.77486], [-4.04714, 38.77606], [-4.04886, 38.77667], [-4.06144, 38.77544], [-4.06307, 38.77418], [-4.06721, 38.76874], [-4.06932, 38.76691], [-4.07084, 38.76883], [-4.07132, 38.77052], [-4.06987, 38.78172], [-4.06863, 38.7877], [-4.0624, 38.79407], [-4.05203, 38.79136], [-4.04307, 38.78814], [-4.03455, 38.78424], [-4.02656, 38.77971], [-4.01917, 38.77459], [-4.01247, 38.76893], [-4.01129, 38.76771], [-4.01245, 38.76562], [-4.01225, 38.76426], [-4.01152, 38.76307], [-4.00912, 38.76167], [-4.0074, 38.76153], [-4.00578, 38.76185], [-4.00134, 38.7562], [-3.99927, 38.75262]]], [[[-4.07792, 38.77109], [-4.07659, 38.76823], [-4.07751, 38.76141], [-4.07812, 38.76664], [-4.07803, 38.77144], [-4.07792, 38.77109]]], [[[-4.07981, 38.74426], [-4.07941, 38.74256], [-4.0805, 38.74231], [-4.07978, 38.74442], [-4.07981, 38.74426]]], [[[-3.99581, 38.73509], [-3.9928, 38.73379], [-3.99091, 38.73359], [-3.98981, 38.72816], [-3.99251, 38.72812], [-3.99451, 38.72714], [-3.99677, 38.72914], [-3.99873, 38.72829], [-3.99991, 38.72852], [-3.99875, 38.72948], [-4.00059, 38.73042], [-4.00163, 38.72986], [-4.00264, 38.7301], [-4.00368, 38.73143], [-4.00529, 38.731], [-4.00564, 38.72917], [-4.00714, 38.72725], [-4.00558, 38.72599], [-4.00458, 38.72628], [-4.00293, 38.72573], [-3.99853, 38.72591], [-3.99739, 38.72532], [-3.99649, 38.72554], [-3.99565, 38.72526], [-3.9956, 38.72387], [-3.9979, 38.72451], [-3.99783, 38.71931], [-3.99961, 38.71923], [-3.99766, 38.71779], [-3.99649, 38.71584], [-3.99862, 38.71458], [-3.99922, 38.7123], [-4.00346, 38.70975], [-4.00453, 38.70698], [-4.00912, 38.70505], [-4.00963, 38.70302], [-4.00736, 38.70264], [-4.00443, 38.70327], [-4.00134, 38.70335], [-4.0004, 38.70317], [-4.00027, 38.70268], [-3.99826, 38.70222], [-3.99586, 38.70072], [-3.99388, 38.70107], [-3.99156, 38.70096], [-3.99418, 38.6936], [-3.99474, 38.69378], [-3.99579, 38.69315], [-3.99637, 38.69326], [-3.99601, 38.69206], [-3.99664, 38.69181], [-3.99517, 38.69135], [-3.99932, 38.68369], [-4.00002, 38.68367], [-4.00111, 38.68163], [-4.00639, 38.67816], [-4.00685, 38.67697], [-4.00628, 38.67679], [-4.00523, 38.67541], [-4.01245, 38.66787], [-4.03231, 38.67421], [-4.0335, 38.67581], [-4.03605, 38.67707], [-4.03643, 38.67776], [-4.03563, 38.67822], [-4.03524, 38.67904], [-4.03395, 38.67911], [-4.03272, 38.67841], [-4.03297, 38.6799], [-4.03, 38.67945], [-4.02824, 38.67857], [-4.02451, 38.67854], [-4.02434, 38.67723], [-4.02303, 38.67801], [-4.02536, 38.68044], [-4.02674, 38.68134], [-4.02949, 38.68116], [-4.03037, 38.68213], [-4.03302, 38.68343], [-4.03416, 38.68316], [-4.03576, 38.68333], [-4.0382, 38.68433], [-4.0398, 38.68392], [-4.041, 38.68582], [-4.04307, 38.68684], [-4.04501, 38.68697], [-4.04768, 38.68643], [-4.04896, 38.68672], [-4.05121, 38.68603], [-4.05216, 38.68875], [-4.05483, 38.69281], [-4.05477, 38.69416], [-4.0538, 38.69555], [-4.04906, 38.69733], [-4.04598, 38.69791], [-4.03458, 38.69737], [-4.03222, 38.69753], [-4.0283, 38.69881], [-4.02581, 38.70062], [-4.02384, 38.70377], [-4.02355, 38.70601], [-4.02408, 38.70832], [-4.0253, 38.71037], [-4.02693, 38.71188], [-4.03087, 38.71383], [-4.0285, 38.71671], [-4.02516, 38.71727], [-4.02416, 38.71787], [-4.02394, 38.71868], [-4.02472, 38.72003], [-4.02451, 38.72167], [-4.02358, 38.72284], [-4.02103, 38.72445], [-4.02805, 38.72358], [-4.0292, 38.72422], [-4.02979, 38.72278], [-4.03205, 38.72144], [-4.03325, 38.72198], [-4.03413, 38.71814], [-4.03387, 38.7157], [-4.04501, 38.72747], [-4.04733, 38.72902], [-4.05195, 38.73114], [-4.05668, 38.73543], [-4.0552, 38.73608], [-4.0536, 38.73554], [-4.05111, 38.73531], [-4.04735, 38.73676], [-4.04567, 38.73631], [-4.04336, 38.73686], [-4.04143, 38.73679], [-4.04003, 38.73717], [-4.03892, 38.73799], [-4.03596, 38.73735], [-4.03346, 38.73601], [-4.02986, 38.73626], [-4.02836, 38.73535], [-4.02608, 38.73487], [-4.02251, 38.73554], [-4.01887, 38.73753], [-4.01678, 38.73606], [-4.01519, 38.7359], [-4.01214, 38.73465], [-4.00924, 38.73467], [-4.00747, 38.73405], [-4.00422, 38.7346], [-4.00274, 38.73556], [-4.00038, 38.73642], [-3.99844, 38.73632], [-3.99581, 38.73509]], [[-4.02018, 38.69177], [-4.01979, 38.69269], [-4.02216, 38.69515], [-4.02777, 38.69644], [-4.03055, 38.69558], [-4.03083, 38.69431], [-4.03339, 38.69211], [-4.03572, 38.69082], [-4.03319, 38.68979], [-4.02929, 38.6896], [-4.02905, 38.68997], [-4.02959, 38.691], [-4.02745, 38.69183], [-4.02707, 38.6931], [-4.02643, 38.69335], [-4.02018, 38.69177]]], [[[-3.99188, 38.70544], [-3.99334, 38.70608], [-3.99465, 38.70732], [-3.99598, 38.70478], [-3.99679, 38.7046], [-3.99767, 38.70557], [-3.99814, 38.70758], [-3.99541, 38.70879], [-3.99468, 38.70948], [-3.99069, 38.71011], [-3.9905, 38.71104], [-3.99153, 38.71222], [-3.99042, 38.71307], [-3.99025, 38.71365], [-3.99177, 38.71487], [-3.99218, 38.71577], [-3.99111, 38.7157], [-3.98904, 38.71765], [-3.98934, 38.71149], [-3.99042, 38.70534], [-3.99188, 38.70544]]], [[[-4.06141, 38.73253], [-4.05973, 38.73239], [-4.05529, 38.7283], [-4.04923, 38.72531], [-4.04708, 38.72331], [-4.04912, 38.72303], [-4.05786, 38.72057], [-4.05885, 38.71775], [-4.06061, 38.71792], [-4.06166, 38.71702], [-4.06164, 38.716], [-4.06075, 38.71481], [-4.0611, 38.7127], [-4.06643, 38.71192], [-4.06786, 38.7109], [-4.06851, 38.71387], [-4.07032, 38.71272], [-4.06978, 38.71027], [-4.07189, 38.70929], [-4.07373, 38.70925], [-4.07453, 38.70842], [-4.07667, 38.7083], [-4.07896, 38.70875], [-4.08206, 38.70765], [-4.0836, 38.70615], [-4.08464, 38.70733], [-4.08517, 38.70714], [-4.08501, 38.70631], [-4.08614, 38.706], [-4.08545, 38.70529], [-4.08628, 38.70475], [-4.0878, 38.70479], [-4.08801, 38.70396], [-4.08928, 38.70376], [-4.08604, 38.70696], [-4.07879, 38.71112], [-4.07657, 38.71186], [-4.0756, 38.71328], [-4.06655, 38.71915], [-4.0645, 38.72102], [-4.06252, 38.72418], [-4.06177, 38.72695], [-4.06096, 38.72826], [-4.06097, 38.73017], [-4.06243, 38.732], [-4.06141, 38.73253]]], [[[-4.06854, 38.72624], [-4.06706, 38.72578], [-4.06773, 38.72439], [-4.06844, 38.72335], [-4.07123, 38.72112], [-4.0721, 38.72197], [-4.07356, 38.72237], [-4.07262, 38.72447], [-4.06854, 38.72624]]], [[[-4.09276, 38.70699], [-4.09229, 38.70703], [-4.0935, 38.7058], [-4.09357, 38.70592], [-4.09276, 38.70699]]], [[[-4.12004, 38.67676], [-4.11956, 38.6769], [-4.11789, 38.67593], [-4.11933, 38.67466], [-4.11976, 38.67368], [-4.12004, 38.67676]]], [[[-4.10159, 38.67146], [-4.10125, 38.6726], [-4.09906, 38.67303], [-4.09765, 38.67397], [-4.09581, 38.67346], [-4.09372, 38.67359], [-4.09095, 38.67319], [-4.08987, 38.6725], [-4.09296, 38.67238], [-4.09838, 38.67104], [-4.10159, 38.67146]]], [[[-4.06865, 38.6739], [-4.06852, 38.67379], [-4.0687, 38.67372], [-4.06865, 38.6739]]], [[[-4.03418, 38.66439], [-4.03447, 38.66668], [-4.03807, 38.66858], [-4.03482, 38.66894], [-4.0328, 38.67019], [-4.01597, 38.66475], [-4.02054, 38.66117], [-4.02409, 38.6603], [-4.02641, 38.65834], [-4.02797, 38.65796], [-4.03031, 38.65815], [-4.03466, 38.65765], [-4.0365, 38.65663], [-4.03821, 38.6562], [-4.03942, 38.65515], [-4.04038, 38.6551], [-4.04374, 38.65668], [-4.04724, 38.65722], [-4.05091, 38.65855], [-4.04694, 38.65918], [-4.04557, 38.66126], [-4.04587, 38.66236], [-4.04422, 38.66211], [-4.03684, 38.65956], [-4.03415, 38.65918], [-4.03298, 38.65936], [-4.03191, 38.66011], [-4.03158, 38.66139], [-4.03236, 38.66254], [-4.03402, 38.66307], [-4.03418, 38.66439]]], [[[-4.04418, 38.65024], [-4.04663, 38.65286], [-4.04089, 38.65077], [-4.03796, 38.65103], [-4.0364, 38.6516], [-4.04183, 38.64905], [-4.04418, 38.65024]]], [[[-4.03528, 38.65216], [-4.03488, 38.65256], [-4.03247, 38.65351], [-4.03538, 38.65209], [-4.03528, 38.65216]]], [[[-4.06333, 38.65716], [-4.06267, 38.65558], [-4.06078, 38.65425], [-4.05776, 38.65354], [-4.0551, 38.6541], [-4.05068, 38.65065], [-4.04701, 38.64708], [-4.05914, 38.64329], [-4.06866, 38.64132], [-4.07838, 38.6401], [-4.08298, 38.63988], [-4.08385, 38.64309], [-4.08789, 38.64708], [-4.08928, 38.64748], [-4.09087, 38.64715], [-4.09335, 38.64723], [-4.09741, 38.6486], [-4.09879, 38.65116], [-4.10184, 38.65367], [-4.1007, 38.65519], [-4.10062, 38.65683], [-4.09882, 38.6588], [-4.09902, 38.6611], [-4.10008, 38.66235], [-4.10197, 38.66322], [-4.10416, 38.66328], [-4.10623, 38.66246], [-4.10644, 38.66372], [-4.10535, 38.66432], [-4.1012, 38.66432], [-4.094, 38.66252], [-4.08653, 38.66332], [-4.08612, 38.66322], [-4.08493, 38.66107], [-4.08303, 38.66008], [-4.0805, 38.65998], [-4.07802, 38.66122], [-4.07616, 38.65978], [-4.07408, 38.65893], [-4.07056, 38.65822], [-4.06908, 38.65831], [-4.06762, 38.65773], [-4.06445, 38.65766], [-4.06333, 38.65716]]], [[[-4.11725, 38.66227], [-4.11644, 38.66101], [-4.11866, 38.65733], [-4.11923, 38.66006], [-4.11812, 38.66112], [-4.11774, 38.66247], [-4.11725, 38.66227]]], [[[-4.14656, 38.67244], [-4.14497, 38.67361], [-4.14369, 38.67431], [-4.14484, 38.67263], [-4.14717, 38.67196], [-4.14656, 38.67244]]], [[[-4.13185, 38.66873], [-4.13269, 38.67022], [-4.13446, 38.67152], [-4.13596, 38.67378], [-4.13533, 38.67523], [-4.13412, 38.67596], [-4.13359, 38.67704], [-4.13146, 38.67495], [-4.12986, 38.67436], [-4.12807, 38.67464], [-4.12566, 38.67603], [-4.12517, 38.67222], [-4.12316, 38.66988], [-4.12039, 38.66878], [-4.11519, 38.66813], [-4.11579, 38.66745], [-4.11859, 38.66678], [-4.11963, 38.66731], [-4.1209, 38.66744], [-4.12244, 38.66834], [-4.12413, 38.66865], [-4.13112, 38.66741], [-4.13185, 38.66873]]], [[[-4.16402, 38.71341], [-4.16712, 38.71503], [-4.16824, 38.71609], [-4.17101, 38.71623], [-4.17007, 38.71857], [-4.16686, 38.71814], [-4.16399, 38.71677], [-4.16197, 38.71472], [-4.1609, 38.71219], [-4.16402, 38.71341]]], [[[-4.16004, 38.70776], [-4.16014, 38.70765], [-4.16025, 38.70783], [-4.16004, 38.70776]]], [[[-4.06984, 38.68917], [-4.0748, 38.68954], [-4.08111, 38.68917], [-4.08332, 38.69031], [-4.08008, 38.69176], [-4.07904, 38.69268], [-4.07491, 38.69269], [-4.07374, 38.69527], [-4.0726, 38.69534], [-4.07223, 38.69647], [-4.06814, 38.69751], [-4.06684, 38.69704], [-4.0669, 38.69673], [-4.06642, 38.69694], [-4.066, 38.69829], [-4.06411, 38.69839], [-4.06641, 38.69964], [-4.06234, 38.70115], [-4.0607, 38.70123], [-4.05771, 38.7006], [-4.05729, 38.70084], [-4.05819, 38.7014], [-4.05787, 38.70167], [-4.05474, 38.7018], [-4.05274, 38.7014], [-4.052, 38.70175], [-4.04947, 38.70144], [-4.04742, 38.70268], [-4.04501, 38.70343], [-4.04322, 38.70739], [-4.04234, 38.70804], [-4.04094, 38.70842], [-4.04086, 38.71011], [-4.03982, 38.71025], [-4.04006, 38.71225], [-4.04154, 38.71499], [-4.04229, 38.7182], [-4.03716, 38.71274], [-4.03533, 38.71145], [-4.0311, 38.70957], [-4.02955, 38.7084], [-4.0286, 38.70653], [-4.02867, 38.70457], [-4.03032, 38.70245], [-4.03201, 38.70163], [-4.03447, 38.70124], [-4.04589, 38.70177], [-4.04824, 38.70159], [-4.05451, 38.69978], [-4.05737, 38.69824], [-4.0591, 38.6962], [-4.05982, 38.69319], [-4.05905, 38.69047], [-4.0563, 38.68621], [-4.05883, 38.68717], [-4.05901, 38.68685], [-4.05934, 38.68699], [-4.06038, 38.68549], [-4.06258, 38.68629], [-4.06456, 38.688], [-4.06811, 38.68902], [-4.06984, 38.68917]]], [[[-4.05565, 38.6838], [-4.05617, 38.68399], [-4.05583, 38.68446], [-4.05566, 38.68385], [-4.05565, 38.6838]]], [[[-4.09139, 38.70186], [-4.09107, 38.7021], [-4.09041, 38.70137], [-4.09209, 38.70139], [-4.09139, 38.70186]]], [[[-4.08839, 38.69079], [-4.08841, 38.69079], [-4.08495, 38.69236], [-4.08631, 38.69169], [-4.08839, 38.69079]]], [[[-4.07495, 38.674], [-4.07369, 38.67382], [-4.07482, 38.67078], [-4.07687, 38.6703], [-4.0784, 38.67043], [-4.08228, 38.67233], [-4.08723, 38.67579], [-4.08694, 38.67682], [-4.08683, 38.67707], [-4.0834, 38.67629], [-4.08105, 38.67669], [-4.07797, 38.67477], [-4.07495, 38.674]]], [[[-4.1115, 38.71318], [-4.11201, 38.71327], [-4.11247, 38.71534], [-4.11217, 38.71757], [-4.1111, 38.71548], [-4.1115, 38.71318]]], [[[-4.10637, 38.71666], [-4.10719, 38.71784], [-4.10749, 38.71959], [-4.10568, 38.71802], [-4.1063, 38.71643], [-4.10637, 38.71666]]], [[[-4.18089, 38.71617], [-4.18004, 38.71824], [-4.17522, 38.71868], [-4.17578, 38.71765], [-4.17692, 38.71802], [-4.17811, 38.71792], [-4.1791, 38.71739], [-4.17979, 38.71641], [-4.18089, 38.71617]]], [[[-4.11858, 38.74794], [-4.1144, 38.74805], [-4.11329, 38.7473], [-4.11796, 38.74745], [-4.11927, 38.74712], [-4.11915, 38.74787], [-4.11858, 38.74794]]], [[[-4.11818, 38.74146], [-4.11827, 38.74323], [-4.11539, 38.74354], [-4.10717, 38.73897], [-4.10009, 38.73643], [-4.10115, 38.73321], [-4.10745, 38.7349], [-4.11004, 38.73608], [-4.11042, 38.73755], [-4.11189, 38.7385], [-4.1148, 38.73879], [-4.117, 38.73845], [-4.11839, 38.73865], [-4.11818, 38.74146]]], [[[-4.05599, 38.7477], [-4.05557, 38.74619], [-4.05449, 38.74491], [-4.05674, 38.74305], [-4.05654, 38.74675], [-4.05599, 38.7477]]], [[[-4.08135, 38.71489], [-4.08169, 38.71455], [-4.08354, 38.71335], [-4.08122, 38.71522], [-4.08135, 38.71489]]], [[[-4.09569, 38.7316], [-4.09645, 38.73191], [-4.09529, 38.73548], [-4.09218, 38.7354], [-4.09569, 38.7316]]], [[[-4.08988, 38.71121], [-4.08968, 38.71118], [-4.08996, 38.71097], [-4.08988, 38.71121]]], [[[-4.07233, 38.75997], [-4.07231, 38.75775], [-4.07282, 38.75746], [-4.07246, 38.76203], [-4.07209, 38.76141], [-4.07233, 38.75997]]], [[[-4.04097, 38.67963], [-4.04078, 38.67978], [-4.04055, 38.67935], [-4.04058, 38.67938], [-4.04097, 38.67963]]], [[[-4.03136, 38.74129], [-4.0306, 38.74157], [-4.02973, 38.74135], [-4.0314, 38.74126], [-4.03136, 38.74129]]], [[[-4.09244, 38.69763], [-4.09069, 38.69711], [-4.0889, 38.69645], [-4.09387, 38.69808], [-4.09244, 38.69763]]], [[[-4.07371, 38.69756], [-4.0758, 38.69572], [-4.07789, 38.69469], [-4.07936, 38.69486], [-4.08064, 38.69437], [-4.0842, 38.69425], [-4.08465, 38.6962], [-4.08719, 38.69859], [-4.08818, 38.69881], [-4.08821, 38.69728], [-4.0882, 38.69884], [-4.08618, 38.69849], [-4.08641, 38.69825], [-4.08478, 38.69665], [-4.08393, 38.69517], [-4.08134, 38.69543], [-4.07937, 38.6972], [-4.0794, 38.69803], [-4.08039, 38.69923], [-4.0802, 38.69991], [-4.07894, 38.69987], [-4.07563, 38.69823], [-4.07456, 38.69862], [-4.07433, 38.69917], [-4.07284, 38.69871], [-4.07371, 38.69756]]]]}, "properties": {"kind": "windland", "area_km2": 124.21}}, {"type": "Feature", "geometry": {"type": "MultiPolygon", "coordinates": [[[[-4.11921, 38.69358], [-4.11931, 38.6917], [-4.12334, 38.69166], [-4.12267, 38.6948], [-4.12213, 38.69552], [-4.12164, 38.69511], [-4.12094, 38.69503], [-4.12065, 38.69533], [-4.11985, 38.69557], [-4.12147, 38.69608], [-4.11941, 38.69726], [-4.11982, 38.69801], [-4.1194, 38.69808], [-4.11894, 38.69879], [-4.11915, 38.69889], [-4.11903, 38.69931], [-4.11924, 38.69938], [-4.11937, 38.6992], [-4.12003, 38.69939], [-4.11989, 38.69993], [-4.11961, 38.70003], [-4.12051, 38.70041], [-4.12096, 38.70086], [-4.12187, 38.70101], [-4.12213, 38.70134], [-4.12416, 38.70179], [-4.12381, 38.70376], [-4.1209, 38.70317], [-4.11747, 38.7019], [-4.11507, 38.70072], [-4.11782, 38.70123], [-4.1182, 38.70104], [-4.11834, 38.70046], [-4.11793, 38.69993], [-4.11703, 38.69939], [-4.1171, 38.69868], [-4.11681, 38.6986], [-4.11642, 38.69918], [-4.11607, 38.69867], [-4.11522, 38.69814], [-4.11471, 38.69832], [-4.11484, 38.69797], [-4.11461, 38.69738], [-4.11482, 38.6966], [-4.11442, 38.69613], [-4.11482, 38.69567], [-4.11458, 38.69513], [-4.11478, 38.69463], [-4.1146, 38.69422], [-4.11529, 38.69389], [-4.11571, 38.69431], [-4.11659, 38.69431], [-4.11766, 38.69461], [-4.11815, 38.69438], [-4.11833, 38.69395], [-4.11887, 38.69391], [-4.11921, 38.69358]], [[-4.11899, 38.69564], [-4.11901, 38.69613], [-4.12061, 38.69587], [-4.11954, 38.69551], [-4.11899, 38.69564]]], [[[-4.11425, 38.6989], [-4.11426, 38.69888], [-4.11427, 38.69887], [-4.11426, 38.6989], [-4.11425, 38.6989]]], [[[-4.11688, 38.70052], [-4.11477, 38.70008], [-4.1148, 38.69982], [-4.11666, 38.69984], [-4.11746, 38.70033], [-4.11739, 38.70062], [-4.11688, 38.70052]]], [[[-4.12505, 38.70041], [-4.12514, 38.69992], [-4.12554, 38.69998], [-4.12515, 38.69995], [-4.12505, 38.70041]]], [[[-4.12723, 38.70025], [-4.12737, 38.70064], [-4.12741, 38.70075], [-4.12719, 38.70028], [-4.12695, 38.70021], [-4.12723, 38.70025]]], [[[-4.1144, 38.70059], [-4.11428, 38.70051], [-4.1145, 38.70058], [-4.1144, 38.70059]]], [[[-4.12862, 38.70165], [-4.12798, 38.70181], [-4.12821, 38.70147], [-4.12814, 38.70111], [-4.12964, 38.70081], [-4.12971, 38.70119], [-4.12914, 38.70157], [-4.12862, 38.70165]]], [[[-4.11932, 38.70353], [-4.11891, 38.70363], [-4.11844, 38.70427], [-4.11816, 38.70412], [-4.11874, 38.70368], [-4.11894, 38.70304], [-4.12025, 38.70352], [-4.12013, 38.70378], [-4.11932, 38.70353]]], [[[-4.12553, 38.70527], [-4.12349, 38.70525], [-4.12352, 38.70427], [-4.12555, 38.70468], [-4.12635, 38.70421], [-4.12779, 38.7043], [-4.12844, 38.70416], [-4.12937, 38.7032], [-4.12931, 38.70288], [-4.12898, 38.70281], [-4.12749, 38.70322], [-4.12699, 38.70317], [-4.12701, 38.70303], [-4.12783, 38.70241], [-4.12935, 38.70209], [-4.13038, 38.70156], [-4.13052, 38.70183], [-4.12933, 38.70234], [-4.12946, 38.70267], [-4.12985, 38.70275], [-4.13059, 38.70196], [-4.13064, 38.70534], [-4.12553, 38.70527]]], [[[-4.12818, 38.70361], [-4.12773, 38.70376], [-4.12734, 38.70377], [-4.12683, 38.70371], [-4.12818, 38.70361]]], [[[-4.1166, 38.70929], [-4.11669, 38.70869], [-4.11616, 38.70824], [-4.1163, 38.7074], [-4.11697, 38.70674], [-4.11712, 38.70586], [-4.11685, 38.7054], [-4.11742, 38.70436], [-4.11912, 38.7053], [-4.12029, 38.70568], [-4.12191, 38.70593], [-4.12297, 38.70579], [-4.123, 38.70667], [-4.12357, 38.70702], [-4.12521, 38.70696], [-4.126, 38.70642], [-4.12609, 38.70581], [-4.13065, 38.70588], [-4.13068, 38.70755], [-4.12951, 38.70753], [-4.12853, 38.70866], [-4.12646, 38.70977], [-4.12518, 38.71], [-4.12269, 38.70991], [-4.12146, 38.70954], [-4.12049, 38.70896], [-4.12023, 38.71061], [-4.11968, 38.71154], [-4.11881, 38.71232], [-4.1171, 38.71302], [-4.11695, 38.71326], [-4.11745, 38.71513], [-4.11711, 38.71737], [-4.11778, 38.71971], [-4.11748, 38.72062], [-4.11687, 38.7212], [-4.11625, 38.72149], [-4.11531, 38.72164], [-4.11394, 38.72131], [-4.11303, 38.72044], [-4.11231, 38.71856], [-4.11273, 38.72045], [-4.11239, 38.72116], [-4.11173, 38.72171], [-4.11085, 38.72202], [-4.10966, 38.72201], [-4.10848, 38.72151], [-4.10784, 38.72081], [-4.10751, 38.72176], [-4.10666, 38.72243], [-4.10552, 38.72271], [-4.10418, 38.72247], [-4.10328, 38.72397], [-4.10695, 38.72403], [-4.10969, 38.72337], [-4.11221, 38.72341], [-4.11469, 38.7232], [-4.11651, 38.72285], [-4.11708, 38.72261], [-4.11819, 38.72086], [-4.11943, 38.72017], [-4.12001, 38.71939], [-4.12085, 38.71882], [-4.12254, 38.71852], [-4.12606, 38.71899], [-4.12696, 38.71935], [-4.12812, 38.7203], [-4.12982, 38.72345], [-4.13066, 38.72707], [-4.13069, 38.72829], [-4.13101, 38.72885], [-4.13106, 38.7314], [-4.13009, 38.73135], [-4.12953, 38.73087], [-4.12963, 38.73039], [-4.12842, 38.72939], [-4.12833, 38.72725], [-4.12783, 38.72637], [-4.12797, 38.72568], [-4.12754, 38.72449], [-4.12762, 38.72409], [-4.12708, 38.72293], [-4.12668, 38.72263], [-4.12674, 38.72219], [-4.1262, 38.72136], [-4.12539, 38.72075], [-4.12352, 38.72056], [-4.12299, 38.72068], [-4.12246, 38.72036], [-4.12199, 38.72043], [-4.12128, 38.72148], [-4.11997, 38.72206], [-4.11936, 38.72303], [-4.11943, 38.72344], [-4.11874, 38.724], [-4.11726, 38.72462], [-4.11592, 38.72478], [-4.11535, 38.72505], [-4.11229, 38.72527], [-4.11017, 38.72517], [-4.10902, 38.72534], [-4.10794, 38.72575], [-4.10639, 38.72588], [-4.10147, 38.72567], [-4.10151, 38.72501], [-4.10419, 38.7248], [-4.10438, 38.72505], [-4.10578, 38.72515], [-4.10653, 38.72508], [-4.10716, 38.72465], [-4.10813, 38.72436], [-4.10601, 38.72471], [-4.10406, 38.72447], [-4.10223, 38.72465], [-4.1015, 38.72498], [-4.10102, 38.72477], [-4.09981, 38.72511], [-4.10061, 38.7245], [-4.10208, 38.72214], [-4.10291, 38.71947], [-4.10389, 38.71972], [-4.10496, 38.72056], [-4.1052, 38.72102], [-4.1057, 38.72087], [-4.10562, 38.72038], [-4.10499, 38.71979], [-4.10426, 38.71927], [-4.10312, 38.71895], [-4.10518, 38.71382], [-4.10649, 38.71143], [-4.10711, 38.70963], [-4.10845, 38.70979], [-4.10822, 38.71067], [-4.10824, 38.71209], [-4.1087, 38.71297], [-4.10833, 38.71593], [-4.10923, 38.71736], [-4.10968, 38.71997], [-4.11027, 38.72041], [-4.11064, 38.72013], [-4.11034, 38.7198], [-4.11009, 38.71786], [-4.10975, 38.71683], [-4.10909, 38.7161], [-4.10896, 38.71539], [-4.10939, 38.71299], [-4.10893, 38.71205], [-4.10891, 38.7107], [-4.10913, 38.7099], [-4.11129, 38.71], [-4.11295, 38.71038], [-4.11457, 38.71014], [-4.11474, 38.71161], [-4.11417, 38.71274], [-4.11413, 38.71337], [-4.11463, 38.71523], [-4.11429, 38.71792], [-4.11463, 38.7184], [-4.11501, 38.71983], [-4.11528, 38.71998], [-4.11558, 38.71988], [-4.1153, 38.71825], [-4.11498, 38.71783], [-4.11533, 38.71519], [-4.11484, 38.71386], [-4.11485, 38.71286], [-4.11543, 38.71167], [-4.11525, 38.71023], [-4.11637, 38.71005], [-4.1166, 38.70929]], [[-4.11196, 38.71684], [-4.11217, 38.71757], [-4.11247, 38.71534], [-4.11209, 38.71433], [-4.11201, 38.71327], [-4.1115, 38.71318], [-4.1111, 38.71548], [-4.11161, 38.71604], [-4.11196, 38.71684]], [[-4.10677, 38.71738], [-4.1063, 38.71643], [-4.10568, 38.71802], [-4.10749, 38.71959], [-4.10719, 38.71784], [-4.10677, 38.71738]]], [[[-4.12015, 38.72355], [-4.12006, 38.72316], [-4.12053, 38.7224], [-4.12108, 38.7223], [-4.12181, 38.72184], [-4.12235, 38.72091], [-4.12287, 38.72125], [-4.12354, 38.72111], [-4.12509, 38.72125], [-4.12562, 38.72168], [-4.12604, 38.72236], [-4.126, 38.72281], [-4.12649, 38.72324], [-4.12693, 38.72419], [-4.12683, 38.72457], [-4.12725, 38.72573], [-4.12713, 38.72652], [-4.12764, 38.7273], [-4.12772, 38.72956], [-4.12893, 38.73059], [-4.12885, 38.73101], [-4.12966, 38.73181], [-4.13061, 38.73182], [-4.13107, 38.7322], [-4.13091, 38.73291], [-4.13108, 38.73317], [-4.13112, 38.73572], [-4.12963, 38.73486], [-4.12868, 38.73349], [-4.12711, 38.73232], [-4.12653, 38.73132], [-4.1256, 38.73035], [-4.12535, 38.72958], [-4.12529, 38.72771], [-4.12482, 38.72682], [-4.1245, 38.72435], [-4.12365, 38.72301], [-4.12247, 38.72378], [-4.12207, 38.72466], [-4.12069, 38.72584], [-4.11835, 38.72684], [-4.11568, 38.72742], [-4.11252, 38.72764], [-4.10999, 38.72762], [-4.10857, 38.72881], [-4.10649, 38.72943], [-4.10544, 38.72935], [-4.10252, 38.72838], [-4.10223, 38.72944], [-4.10579, 38.73053], [-4.10925, 38.7313], [-4.11207, 38.73255], [-4.11374, 38.73301], [-4.11469, 38.73371], [-4.1151, 38.73486], [-4.11753, 38.73457], [-4.12093, 38.7351], [-4.12199, 38.73554], [-4.12301, 38.73666], [-4.12341, 38.73744], [-4.12309, 38.74202], [-4.12322, 38.74323], [-4.12368, 38.74396], [-4.12404, 38.74572], [-4.12181, 38.74575], [-4.12166, 38.74449], [-4.12111, 38.74348], [-4.12092, 38.74197], [-4.12133, 38.73777], [-4.12053, 38.73675], [-4.11727, 38.73622], [-4.11508, 38.73658], [-4.11293, 38.73645], [-4.11298, 38.73481], [-4.1127, 38.73446], [-4.1111, 38.73403], [-4.10853, 38.73287], [-4.10375, 38.73175], [-4.10198, 38.7311], [-4.09965, 38.73073], [-4.10059, 38.72756], [-4.10127, 38.72619], [-4.10268, 38.72633], [-4.10301, 38.72659], [-4.10217, 38.7277], [-4.10337, 38.72791], [-4.10723, 38.72787], [-4.10724, 38.72772], [-4.10863, 38.72769], [-4.10974, 38.72725], [-4.11471, 38.72594], [-4.1143, 38.72558], [-4.11552, 38.72558], [-4.11613, 38.7253], [-4.11753, 38.72512], [-4.11918, 38.72443], [-4.12015, 38.72355]]], [[[-4.11792, 38.73693], [-4.12014, 38.73723], [-4.12064, 38.73785], [-4.12022, 38.74197], [-4.12055, 38.74403], [-4.12105, 38.74487], [-4.11804, 38.74489], [-4.11765, 38.74525], [-4.11431, 38.74523], [-4.11414, 38.74488], [-4.11202, 38.74367], [-4.10961, 38.74259], [-4.10837, 38.74171], [-4.10712, 38.74122], [-4.10603, 38.74037], [-4.10232, 38.73912], [-4.10018, 38.73819], [-4.09744, 38.7375], [-4.09881, 38.73395], [-4.0995, 38.73126], [-4.10179, 38.73162], [-4.10352, 38.73226], [-4.10828, 38.73337], [-4.1108, 38.73452], [-4.11228, 38.73492], [-4.11217, 38.73654], [-4.11271, 38.73697], [-4.11496, 38.73713], [-4.11694, 38.73676], [-4.11792, 38.73693]], [[-4.10899, 38.74007], [-4.1109, 38.74127], [-4.11313, 38.74226], [-4.11539, 38.74354], [-4.11675, 38.74354], [-4.11827, 38.74323], [-4.1181, 38.74195], [-4.11839, 38.73865], [-4.117, 38.73845], [-4.1148, 38.73879], [-4.11189, 38.7385], [-4.11104, 38.73811], [-4.11042, 38.73755], [-4.11007, 38.73682], [-4.11004, 38.73608], [-4.10745, 38.7349], [-4.10287, 38.73384], [-4.10115, 38.73321], [-4.10009, 38.73643], [-4.10693, 38.73886], [-4.10899, 38.74007]]], [[[-4.11045, 38.74368], [-4.11166, 38.74413], [-4.11363, 38.74527], [-4.11402, 38.74574], [-4.11789, 38.74578], [-4.11837, 38.74544], [-4.1211, 38.74541], [-4.12112, 38.74575], [-4.11977, 38.74577], [-4.11983, 38.74952], [-4.11833, 38.74977], [-4.1158, 38.74963], [-4.11393, 38.74972], [-4.11183, 38.74882], [-4.11099, 38.74742], [-4.11009, 38.74647], [-4.10815, 38.74538], [-4.10671, 38.74489], [-4.10557, 38.74425], [-4.10511, 38.74301], [-4.10442, 38.74236], [-4.10349, 38.74204], [-4.09952, 38.74147], [-4.09796, 38.74079], [-4.09684, 38.73962], [-4.09726, 38.73803], [-4.09991, 38.73869], [-4.10202, 38.73961], [-4.10565, 38.74082], [-4.10672, 38.74166], [-4.10798, 38.74215], [-4.11045, 38.74368]], [[-4.11924, 38.74714], [-4.11845, 38.74739], [-4.11735, 38.74746], [-4.11329, 38.7473], [-4.11347, 38.7476], [-4.1144, 38.74805], [-4.11806, 38.74809], [-4.11915, 38.74787], [-4.11924, 38.74714]]], [[[-4.10917, 38.74672], [-4.1096, 38.74685], [-4.11029, 38.74757], [-4.11125, 38.74914], [-4.11337, 38.75015], [-4.11834, 38.75032], [-4.11984, 38.75006], [-4.11987, 38.75173], [-4.11838, 38.75198], [-4.11585, 38.75184], [-4.11403, 38.75193], [-4.11238, 38.75162], [-4.10974, 38.75031], [-4.10827, 38.74822], [-4.10673, 38.74728], [-4.10414, 38.74621], [-4.10502, 38.7475], [-4.10898, 38.75047], [-4.11307, 38.75484], [-4.11061, 38.75486], [-4.10737, 38.75154], [-4.10332, 38.74852], [-4.10046, 38.74397], [-4.09881, 38.74185], [-4.10384, 38.74271], [-4.10445, 38.74319], [-4.10475, 38.74423], [-4.10508, 38.74464], [-4.10596, 38.74517], [-4.10779, 38.74584], [-4.10917, 38.74672]]], [[[-4.09591, 38.6902], [-4.09467, 38.69046], [-4.09396, 38.69037], [-4.09353, 38.69002], [-4.09326, 38.68905], [-4.09403, 38.68967], [-4.09568, 38.68985], [-4.09624, 38.69013], [-4.09591, 38.6902]]], [[[-4.10817, 38.6944], [-4.10499, 38.69641], [-4.1022, 38.69933], [-4.1011, 38.69999], [-4.09941, 38.70144], [-4.09524, 38.70374], [-4.0948, 38.70413], [-4.0948, 38.70448], [-4.09525, 38.70454], [-4.09998, 38.70175], [-4.09678, 38.70497], [-4.09447, 38.70829], [-4.09335, 38.70871], [-4.09269, 38.70866], [-4.09203, 38.7089], [-4.08899, 38.7085], [-4.08928, 38.70744], [-4.08966, 38.70695], [-4.09332, 38.70347], [-4.09967, 38.70004], [-4.10135, 38.69902], [-4.10528, 38.6958], [-4.10776, 38.69424], [-4.10817, 38.6944]], [[-4.09229, 38.70703], [-4.09289, 38.707], [-4.09355, 38.70583], [-4.0935, 38.7058], [-4.09229, 38.70703]]], [[[-4.09608, 38.70133], [-4.09393, 38.70239], [-4.09225, 38.70351], [-4.08752, 38.70815], [-4.08583, 38.70892], [-4.08003, 38.71247], [-4.0779, 38.71316], [-4.07771, 38.71353], [-4.07803, 38.71387], [-4.06793, 38.72042], [-4.06612, 38.72209], [-4.06448, 38.7248], [-4.06393, 38.72652], [-4.06392, 38.72968], [-4.06488, 38.7324], [-4.06426, 38.73318], [-4.06235, 38.73403], [-4.06147, 38.73427], [-4.06028, 38.73432], [-4.05941, 38.73416], [-4.05833, 38.73365], [-4.05395, 38.72958], [-4.05304, 38.72899], [-4.05024, 38.72783], [-4.04786, 38.72658], [-4.04648, 38.72545], [-4.04451, 38.72336], [-4.04708, 38.72331], [-4.04923, 38.72531], [-4.05126, 38.72637], [-4.05414, 38.72756], [-4.05529, 38.7283], [-4.05973, 38.73239], [-4.06054, 38.73267], [-4.06141, 38.73253], [-4.06243, 38.732], [-4.06151, 38.73114], [-4.06097, 38.73017], [-4.06096, 38.72826], [-4.06177, 38.72695], [-4.06241, 38.72443], [-4.06321, 38.72284], [-4.06434, 38.72118], [-4.06626, 38.71938], [-4.0756, 38.71328], [-4.07592, 38.71246], [-4.07657, 38.71186], [-4.07879, 38.71112], [-4.08451, 38.70762], [-4.08604, 38.70696], [-4.08928, 38.70376], [-4.09082, 38.70351], [-4.09126, 38.7025], [-4.09107, 38.7021], [-4.09201, 38.70144], [-4.0929, 38.7014], [-4.09386, 38.70071], [-4.09689, 38.69991], [-4.09758, 38.69996], [-4.09798, 38.70033], [-4.09608, 38.70133]]], [[[-4.09862, 38.70414], [-4.09878, 38.70412], [-4.09843, 38.70432], [-4.09859, 38.70415], [-4.09862, 38.70414]]], [[[-4.09735, 38.70568], [-4.09747, 38.70615], [-4.09787, 38.70634], [-4.09779, 38.70648], [-4.09581, 38.70762], [-4.09734, 38.70552], [-4.09735, 38.70568]]], [[[-4.09847, 38.70678], [-4.10061, 38.70781], [-4.10063, 38.7082], [-4.10105, 38.70861], [-4.10274, 38.70922], [-4.10383, 38.70895], [-4.1058, 38.70942], [-4.10589, 38.70969], [-4.10437, 38.71166], [-4.10089, 38.71408], [-4.09971, 38.71537], [-4.09881, 38.7172], [-4.09838, 38.72025], [-4.09804, 38.72132], [-4.09571, 38.72536], [-4.09486, 38.72542], [-4.09378, 38.72631], [-4.09224, 38.7259], [-4.09161, 38.72592], [-4.09065, 38.72554], [-4.08917, 38.72567], [-4.09416, 38.71091], [-4.0957, 38.71237], [-4.09606, 38.71307], [-4.09585, 38.71796], [-4.09653, 38.71948], [-4.09686, 38.71959], [-4.09713, 38.71941], [-4.09648, 38.71744], [-4.09682, 38.7138], [-4.09672, 38.71293], [-4.09628, 38.71208], [-4.0944, 38.7103], [-4.09525, 38.70854], [-4.09847, 38.70678]], [[-4.09734, 38.70967], [-4.09725, 38.70952], [-4.09694, 38.70968], [-4.09681, 38.70995], [-4.09821, 38.71139], [-4.09894, 38.71332], [-4.1009, 38.71184], [-4.09865, 38.71092], [-4.09734, 38.70967]], [[-4.09341, 38.72398], [-4.09425, 38.72364], [-4.09588, 38.72111], [-4.09467, 38.72029], [-4.09361, 38.72137], [-4.09261, 38.72193], [-4.09227, 38.72295], [-4.09243, 38.72406], [-4.09308, 38.72418], [-4.09341, 38.72398]]], [[[-4.10583, 38.7112], [-4.10589, 38.71111], [-4.10587, 38.71118], [-4.10583, 38.7112]]], [[[-4.10414, 38.7132], [-4.1052, 38.7123], [-4.10325, 38.71662], [-4.10208, 38.71973], [-4.1018, 38.72108], [-4.09937, 38.72155], [-4.09979, 38.71982], [-4.09991, 38.71793], [-4.10075, 38.71582], [-4.10225, 38.71436], [-4.10414, 38.7132]]], [[[-4.10145, 38.72192], [-4.10003, 38.7242], [-4.09895, 38.72507], [-4.09713, 38.72536], [-4.0974, 38.72442], [-4.09921, 38.72215], [-4.10155, 38.72168], [-4.10145, 38.72192]]], [[[-4.10083, 38.72545], [-4.1008, 38.72554], [-4.1007, 38.72551], [-4.10083, 38.72545], [-4.10083, 38.72545]]], [[[-4.10925, 38.72585], [-4.11022, 38.72571], [-4.11153, 38.72575], [-4.10917, 38.72589], [-4.10925, 38.72585]]], [[[-4.10797, 38.72633], [-4.10796, 38.7263], [-4.10882, 38.72601], [-4.1088, 38.72624], [-4.10797, 38.72633]]], [[[-4.0975, 38.72583], [-4.09895, 38.72562], [-4.10059, 38.72605], [-4.09993, 38.72741], [-4.09899, 38.73056], [-4.09764, 38.72984], [-4.09587, 38.72845], [-4.09643, 38.72606], [-4.0975, 38.72583]]], [[[-4.09818, 38.73083], [-4.09883, 38.7311], [-4.09814, 38.73381], [-4.09678, 38.73734], [-4.09559, 38.73713], [-4.09296, 38.73721], [-4.09072, 38.7369], [-4.08873, 38.73602], [-4.09277, 38.73224], [-4.09367, 38.73105], [-4.09362, 38.73075], [-4.09422, 38.72983], [-4.09436, 38.73011], [-4.09477, 38.7301], [-4.09565, 38.72896], [-4.09716, 38.73023], [-4.09818, 38.73083]], [[-4.09395, 38.73375], [-4.09218, 38.7354], [-4.09319, 38.73555], [-4.09529, 38.73548], [-4.09645, 38.73191], [-4.09584, 38.73153], [-4.09567, 38.73161], [-4.09395, 38.73375]]], [[[-4.10148, 38.74696], [-4.10278, 38.74886], [-4.10684, 38.7519], [-4.10976, 38.75487], [-4.10714, 38.7549], [-4.10522, 38.75298], [-4.10116, 38.74993], [-4.0988, 38.74654], [-4.09796, 38.74499], [-4.0951, 38.74138], [-4.08867, 38.73853], [-4.0866, 38.73983], [-4.08342, 38.74959], [-4.0845, 38.74914], [-4.08579, 38.74913], [-4.08978, 38.75057], [-4.09198, 38.75273], [-4.09235, 38.75504], [-4.0899, 38.75506], [-4.09003, 38.7547], [-4.08982, 38.75346], [-4.08832, 38.75202], [-4.08519, 38.75091], [-4.08488, 38.75104], [-4.0837, 38.75288], [-4.08225, 38.75337], [-4.08154, 38.75308], [-4.0812, 38.75315], [-4.08091, 38.75384], [-4.08119, 38.75514], [-4.08035, 38.75515], [-4.08068, 38.75236], [-4.08142, 38.74895], [-4.08476, 38.73878], [-4.08687, 38.73756], [-4.08827, 38.73644], [-4.09662, 38.74015], [-4.09985, 38.74423], [-4.10148, 38.74696]]], [[[-4.09291, 38.68824], [-4.09286, 38.68818], [-4.09286, 38.68818], [-4.0929, 38.68819], [-4.09291, 38.68824]]], [[[-4.09322, 38.68882], [-4.09323, 38.68884], [-4.09323, 38.68889], [-4.09322, 38.68882]]], [[[-4.08509, 38.68759], [-4.08812, 38.68777], [-4.09119, 38.68824], [-4.09133, 38.68873], [-4.09175, 38.68897], [-4.08962, 38.6894], [-4.0888, 38.68894], [-4.08484, 38.6904], [-4.08375, 38.69012], [-4.08315, 38.69026], [-4.08111, 38.68917], [-4.07474, 38.68954], [-4.07294, 38.68944], [-4.07077, 38.68903], [-4.06984, 38.68917], [-4.06853, 38.68911], [-4.06456, 38.688], [-4.06325, 38.68715], [-4.06258, 38.68629], [-4.06135, 38.68594], [-4.06133, 38.684], [-4.06427, 38.68506], [-4.06733, 38.68569], [-4.06792, 38.6862], [-4.0686, 38.68633], [-4.06984, 38.68694], [-4.0727, 38.68772], [-4.07522, 38.68787], [-4.08091, 38.68751], [-4.08509, 38.68759]], [[-4.06298, 38.68471], [-4.06282, 38.6851], [-4.0631, 38.68517], [-4.06325, 38.68478], [-4.06298, 38.68471]]], [[[-4.09272, 38.68982], [-4.093, 38.69039], [-4.09361, 38.69084], [-4.0928, 38.69087], [-4.09258, 38.69073], [-4.0924, 38.69024], [-4.09272, 38.68982]]], [[[-4.08926, 38.69041], [-4.08841, 38.69079], [-4.08839, 38.69079], [-4.08926, 38.69041]]], [[[-4.08831, 38.70848], [-4.08807, 38.70848], [-4.08832, 38.70826], [-4.08831, 38.70848]]], [[[-4.09271, 38.70939], [-4.09265, 38.70925], [-4.09282, 38.70921], [-4.09287, 38.70934], [-4.09271, 38.70939]]], [[[-4.0879, 38.70947], [-4.08728, 38.70967], [-4.08582, 38.70962], [-4.08703, 38.70915], [-4.08824, 38.70902], [-4.0879, 38.70947]]], [[[-4.09403, 38.70916], [-4.09375, 38.70973], [-4.09357, 38.7094], [-4.09403, 38.70916]]], [[[-4.08858, 38.70968], [-4.08894, 38.70904], [-4.0917, 38.7095], [-4.09222, 38.70978], [-4.0921, 38.71111], [-4.09145, 38.71316], [-4.09104, 38.71236], [-4.09025, 38.71243], [-4.09056, 38.7137], [-4.08985, 38.71393], [-4.08968, 38.71458], [-4.08895, 38.71408], [-4.08756, 38.71423], [-4.08733, 38.71458], [-4.08713, 38.71458], [-4.08705, 38.71492], [-4.08647, 38.71527], [-4.08649, 38.71639], [-4.08576, 38.71588], [-4.08677, 38.714], [-4.08656, 38.71372], [-4.08619, 38.71377], [-4.08507, 38.7158], [-4.08515, 38.71639], [-4.08468, 38.71653], [-4.08429, 38.71705], [-4.08448, 38.71762], [-4.08528, 38.71811], [-4.08392, 38.71943], [-4.08361, 38.71934], [-4.08333, 38.71947], [-4.08332, 38.71973], [-4.08363, 38.71994], [-4.0836, 38.72046], [-4.08296, 38.72052], [-4.08246, 38.72105], [-4.08249, 38.72197], [-4.0821, 38.72122], [-4.07997, 38.72072], [-4.0791, 38.72147], [-4.07913, 38.72208], [-4.0788, 38.72272], [-4.0783, 38.72265], [-4.0776, 38.72288], [-4.07735, 38.72141], [-4.07839, 38.71979], [-4.07917, 38.71661], [-4.07909, 38.71504], [-4.07945, 38.71413], [-4.08025, 38.71332], [-4.08512, 38.71026], [-4.0874, 38.7102], [-4.08858, 38.70968]], [[-4.08968, 38.71118], [-4.08988, 38.71121], [-4.08996, 38.71097], [-4.08983, 38.71107], [-4.08968, 38.71118]], [[-4.08021, 38.71897], [-4.07948, 38.71899], [-4.07907, 38.71932], [-4.07908, 38.71985], [-4.07953, 38.72025], [-4.08024, 38.72024], [-4.08062, 38.71994], [-4.08061, 38.71932], [-4.08021, 38.71897]], [[-4.08281, 38.71394], [-4.08354, 38.71335], [-4.08169, 38.71455], [-4.08122, 38.71522], [-4.08281, 38.71394]]], [[[-4.09329, 38.71087], [-4.09168, 38.71557], [-4.09116, 38.71711], [-4.09094, 38.71682], [-4.08997, 38.71636], [-4.09182, 38.71411], [-4.09277, 38.71123], [-4.09299, 38.70993], [-4.09351, 38.71032], [-4.09329, 38.71087]]], [[[-4.08517, 38.72303], [-4.08541, 38.72335], [-4.08715, 38.72433], [-4.08787, 38.72457], [-4.08824, 38.72444], [-4.08868, 38.72455], [-4.08837, 38.72548], [-4.08684, 38.72548], [-4.08508, 38.72464], [-4.08405, 38.72464], [-4.0831, 38.7249], [-4.08237, 38.72473], [-4.08267, 38.7244], [-4.08345, 38.72429], [-4.08388, 38.72443], [-4.08416, 38.7242], [-4.08467, 38.72413], [-4.08485, 38.723], [-4.08502, 38.72281], [-4.08517, 38.72303]]], [[[-4.09207, 38.72735], [-4.08878, 38.72682], [-4.08899, 38.7262], [-4.09056, 38.72609], [-4.09149, 38.72646], [-4.0921, 38.72643], [-4.09293, 38.72675], [-4.09386, 38.72685], [-4.09448, 38.72666], [-4.09519, 38.72591], [-4.09554, 38.72589], [-4.0949, 38.72762], [-4.09207, 38.72735]]], [[[-4.08695, 38.72788], [-4.08713, 38.72719], [-4.08776, 38.72727], [-4.08542, 38.73424], [-4.08533, 38.73391], [-4.08445, 38.73311], [-4.08471, 38.73291], [-4.08466, 38.73265], [-4.08524, 38.73284], [-4.08557, 38.73268], [-4.08551, 38.73238], [-4.085, 38.73215], [-4.08565, 38.73234], [-4.08593, 38.732], [-4.08528, 38.73166], [-4.08541, 38.73135], [-4.08524, 38.73113], [-4.08479, 38.7312], [-4.08456, 38.73092], [-4.08415, 38.73105], [-4.08354, 38.73088], [-4.08378, 38.73062], [-4.08363, 38.72819], [-4.08452, 38.72807], [-4.08466, 38.72778], [-4.08599, 38.72815], [-4.08674, 38.72816], [-4.08695, 38.72788]]], [[[-4.09284, 38.72802], [-4.09521, 38.7283], [-4.095, 38.72879], [-4.09469, 38.72925], [-4.0944, 38.72958], [-4.09475, 38.72907], [-4.09441, 38.7288], [-4.09396, 38.7291], [-4.09222, 38.73162], [-4.08793, 38.73566], [-4.08691, 38.73518], [-4.086, 38.73506], [-4.0886, 38.72734], [-4.09284, 38.72802]], [[-4.0898, 38.73032], [-4.08929, 38.73182], [-4.09046, 38.73069], [-4.09128, 38.72947], [-4.09015, 38.72929], [-4.0898, 38.73032]]], [[[-4.084, 38.73482], [-4.084, 38.73463], [-4.08454, 38.7345], [-4.084, 38.73482]]], [[[-4.08719, 38.73633], [-4.08626, 38.73705], [-4.0851, 38.73776], [-4.08582, 38.73561], [-4.08662, 38.73567], [-4.08747, 38.73608], [-4.08719, 38.73633]]], [[[-4.09291, 38.73775], [-4.09558, 38.73767], [-4.0966, 38.73786], [-4.09621, 38.73933], [-4.09251, 38.73769], [-4.09291, 38.73775]]], [[[-4.08365, 38.68306], [-4.08315, 38.68422], [-4.08259, 38.68415], [-4.08257, 38.68428], [-4.08289, 38.68427], [-4.0825, 38.68463], [-4.08246, 38.68546], [-4.08066, 38.68524], [-4.08034, 38.68546], [-4.08043, 38.6863], [-4.08031, 38.68638], [-4.07631, 38.68718], [-4.07619, 38.68715], [-4.07614, 38.68691], [-4.07056, 38.68661], [-4.06961, 38.68621], [-4.07005, 38.68599], [-4.07026, 38.68551], [-4.07078, 38.68544], [-4.07112, 38.685], [-4.07261, 38.68515], [-4.07333, 38.68435], [-4.07235, 38.68352], [-4.07155, 38.68314], [-4.08365, 38.68306]], [[-4.08028, 38.68635], [-4.08029, 38.6855], [-4.08005, 38.6857], [-4.0793, 38.68564], [-4.0796, 38.6853], [-4.0791, 38.68532], [-4.08058, 38.68516], [-4.08054, 38.68384], [-4.08014, 38.68334], [-4.07858, 38.68352], [-4.07895, 38.68473], [-4.0785, 38.6835], [-4.07828, 38.68355], [-4.07845, 38.6846], [-4.07823, 38.6849], [-4.0774, 38.68446], [-4.07661, 38.68458], [-4.07628, 38.68502], [-4.07651, 38.68563], [-4.07302, 38.68587], [-4.07065, 38.68655], [-4.07617, 38.68688], [-4.0763, 38.68714], [-4.08028, 38.68635]], [[-4.08033, 38.68354], [-4.08055, 38.68373], [-4.08063, 38.68328], [-4.0802, 38.68332], [-4.08033, 38.68354]], [[-4.07941, 38.68559], [-4.08003, 38.68565], [-4.08047, 38.68529], [-4.07969, 38.6853], [-4.07941, 38.68559]]], [[[-4.06921, 38.68316], [-4.07091, 38.68376], [-4.07012, 38.6852], [-4.07087, 38.68377], [-4.06921, 38.68316]]], [[[-4.07826, 38.68521], [-4.07851, 38.68547], [-4.07842, 38.68551], [-4.07818, 38.68542], [-4.07826, 38.68521]]], [[[-4.07841, 38.71434], [-4.07848, 38.71656], [-4.07826, 38.7177], [-4.07417, 38.71788], [-4.07299, 38.71852], [-4.07326, 38.72058], [-4.07519, 38.72061], [-4.07521, 38.72128], [-4.07542, 38.72152], [-4.07663, 38.72154], [-4.07699, 38.72343], [-4.0762, 38.72403], [-4.07651, 38.72521], [-4.07637, 38.72579], [-4.07424, 38.72632], [-4.07281, 38.72635], [-4.07206, 38.727], [-4.07035, 38.72761], [-4.06998, 38.72853], [-4.06975, 38.72864], [-4.06907, 38.72858], [-4.06869, 38.72881], [-4.06767, 38.72887], [-4.06619, 38.72879], [-4.06566, 38.72855], [-4.0645, 38.72867], [-4.06462, 38.72658], [-4.06513, 38.72499], [-4.06667, 38.72242], [-4.06839, 38.72082], [-4.07841, 38.71434]], [[-4.07356, 38.72237], [-4.0721, 38.72197], [-4.07123, 38.72112], [-4.0699, 38.722], [-4.06844, 38.72335], [-4.06706, 38.72578], [-4.06818, 38.72623], [-4.06875, 38.72627], [-4.07049, 38.72554], [-4.07168, 38.72473], [-4.07262, 38.72447], [-4.07289, 38.72337], [-4.07356, 38.72237]]], [[[-4.07779, 38.71881], [-4.07777, 38.71836], [-4.07809, 38.71835], [-4.07796, 38.71881], [-4.07779, 38.71881]]], [[[-4.07426, 38.72788], [-4.07119, 38.72914], [-4.07025, 38.72905], [-4.0706, 38.72879], [-4.07082, 38.72803], [-4.07243, 38.72746], [-4.07312, 38.72683], [-4.07395, 38.72686], [-4.07432, 38.72749], [-4.07426, 38.72788]]], [[[-4.06927, 38.72947], [-4.06928, 38.72944], [-4.07018, 38.72959], [-4.06969, 38.72984], [-4.06927, 38.72947]]], [[[-4.07227, 38.73083], [-4.07244, 38.73081], [-4.0725, 38.73107], [-4.07086, 38.73119], [-4.07067, 38.72999], [-4.07185, 38.72951], [-4.07198, 38.73063], [-4.07227, 38.73083]]], [[[-4.06632, 38.73344], [-4.0664, 38.73287], [-4.06738, 38.73189], [-4.07003, 38.73031], [-4.07018, 38.73128], [-4.06989, 38.73165], [-4.07013, 38.73182], [-4.07057, 38.73177], [-4.07103, 38.73256], [-4.07383, 38.73247], [-4.07362, 38.73399], [-4.07407, 38.73422], [-4.0743, 38.73401], [-4.07452, 38.73243], [-4.07676, 38.73226], [-4.07728, 38.73101], [-4.07757, 38.73103], [-4.07782, 38.73153], [-4.07859, 38.73168], [-4.07787, 38.73748], [-4.07752, 38.73697], [-4.07623, 38.73672], [-4.07565, 38.73706], [-4.07551, 38.73784], [-4.07571, 38.73826], [-4.07629, 38.73846], [-4.07669, 38.73894], [-4.07727, 38.73898], [-4.0777, 38.73874], [-4.07755, 38.73914], [-4.07702, 38.73947], [-4.07449, 38.73971], [-4.07405, 38.74009], [-4.07385, 38.74082], [-4.07379, 38.74043], [-4.07419, 38.73947], [-4.07383, 38.73895], [-4.06856, 38.73569], [-4.06632, 38.73344]], [[-4.07326, 38.73478], [-4.07287, 38.73528], [-4.07292, 38.7357], [-4.07361, 38.73608], [-4.07414, 38.73604], [-4.07471, 38.73532], [-4.07468, 38.73471], [-4.07389, 38.73442], [-4.07326, 38.73478]]], [[[-4.08223, 38.73504], [-4.08209, 38.73521], [-4.07894, 38.73507], [-4.07904, 38.73373], [-4.08153, 38.73373], [-4.08161, 38.73402], [-4.08189, 38.73415], [-4.08253, 38.73383], [-4.08275, 38.73413], [-4.08224, 38.73452], [-4.08223, 38.73504]]], [[[-4.08251, 38.73575], [-4.08495, 38.73564], [-4.08406, 38.73828], [-4.08121, 38.73923], [-4.0772, 38.74001], [-4.07514, 38.74077], [-4.07462, 38.74058], [-4.07502, 38.74011], [-4.07722, 38.73999], [-4.07803, 38.73953], [-4.07896, 38.73961], [-4.07972, 38.73911], [-4.07989, 38.73773], [-4.07947, 38.73746], [-4.07858, 38.73738], [-4.07882, 38.73564], [-4.08251, 38.73575]]], [[[-4.07765, 38.73792], [-4.07777, 38.73779], [-4.07785, 38.73762], [-4.07778, 38.73811], [-4.07765, 38.73792]]], [[[-4.06925, 38.74286], [-4.0684, 38.74172], [-4.06783, 38.74035], [-4.06769, 38.73927], [-4.06797, 38.73818], [-4.06548, 38.73633], [-4.06523, 38.73764], [-4.06469, 38.73888], [-4.06473, 38.7381], [-4.0641, 38.73798], [-4.06416, 38.73889], [-4.06308, 38.73856], [-4.06321, 38.7379], [-4.0629, 38.73786], [-4.06334, 38.73646], [-4.06302, 38.73579], [-4.06411, 38.73506], [-4.06556, 38.7337], [-4.0681, 38.73609], [-4.07264, 38.7389], [-4.07175, 38.73896], [-4.07148, 38.73954], [-4.07192, 38.7406], [-4.07276, 38.74083], [-4.07305, 38.7414], [-4.07106, 38.74373], [-4.07021, 38.74529], [-4.06929, 38.74935], [-4.06796, 38.75208], [-4.06718, 38.75527], [-4.06504, 38.75529], [-4.0659, 38.75167], [-4.06743, 38.74828], [-4.06815, 38.74491], [-4.06925, 38.74286]]], [[[-4.07771, 38.74378], [-4.07714, 38.74278], [-4.07565, 38.74189], [-4.07566, 38.74137], [-4.07748, 38.74069], [-4.08148, 38.73992], [-4.08374, 38.73921], [-4.08058, 38.74881], [-4.07983, 38.75228], [-4.0795, 38.75516], [-4.0762, 38.75519], [-4.07771, 38.74378]], [[-4.07979, 38.74346], [-4.07978, 38.74442], [-4.0805, 38.74231], [-4.07941, 38.74256], [-4.07979, 38.74346]]], [[[-4.07414, 38.74231], [-4.07526, 38.74233], [-4.07632, 38.74291], [-4.07677, 38.74337], [-4.0746, 38.74301], [-4.073, 38.74594], [-4.07206, 38.74588], [-4.07117, 38.74619], [-4.07228, 38.74401], [-4.07414, 38.74231]]], [[[-4.07525, 38.74363], [-4.07686, 38.74393], [-4.07699, 38.74413], [-4.07655, 38.74745], [-4.07475, 38.74737], [-4.07376, 38.74681], [-4.07317, 38.74683], [-4.07491, 38.74357], [-4.07525, 38.74363]]], [[[-4.07073, 38.74852], [-4.07103, 38.74669], [-4.07174, 38.7467], [-4.07211, 38.74644], [-4.07266, 38.74644], [-4.07174, 38.74804], [-4.07121, 38.74987], [-4.07073, 38.75434], [-4.07022, 38.75524], [-4.0684, 38.75526], [-4.06872, 38.75365], [-4.07073, 38.74852]]], [[[-4.07154, 38.7541], [-4.07181, 38.75029], [-4.07286, 38.74724], [-4.07275, 38.7477], [-4.07302, 38.74792], [-4.07338, 38.74781], [-4.07354, 38.74735], [-4.0744, 38.74786], [-4.07648, 38.74799], [-4.07628, 38.74943], [-4.07484, 38.74931], [-4.07453, 38.74955], [-4.07477, 38.74984], [-4.07621, 38.74997], [-4.07614, 38.7505], [-4.0746, 38.75031], [-4.07426, 38.75056], [-4.07449, 38.75083], [-4.07607, 38.75104], [-4.07551, 38.75519], [-4.07098, 38.75523], [-4.07154, 38.7541]]], [[[-4.06813, 38.68317], [-4.06827, 38.68317], [-4.06824, 38.6832], [-4.06813, 38.68317]]], [[[-4.06678, 38.6843], [-4.06731, 38.68318], [-4.06738, 38.68318], [-4.06683, 38.6843], [-4.06678, 38.6843]]], [[[-4.06617, 38.68333], [-4.0664, 38.68437], [-4.06602, 38.68483], [-4.06452, 38.68455], [-4.06324, 38.68402], [-4.06436, 38.6832], [-4.0652, 38.6832], [-4.06592, 38.68349], [-4.06617, 38.68333]]], [[[-4.05488, 38.69334], [-4.05463, 38.6923], [-4.05685, 38.69228], [-4.05694, 38.69407], [-4.05651, 38.69534], [-4.05607, 38.69598], [-4.0545, 38.69727], [-4.05005, 38.69881], [-4.05002, 38.69703], [-4.05252, 38.69624], [-4.0538, 38.69555], [-4.05455, 38.69468], [-4.05488, 38.69334]]], [[[-4.05586, 38.69707], [-4.05667, 38.69626], [-4.0575, 38.6947], [-4.0577, 38.69335], [-4.05757, 38.69228], [-4.05972, 38.69226], [-4.05982, 38.6935], [-4.05952, 38.69521], [-4.05854, 38.69704], [-4.05753, 38.69809], [-4.05611, 38.69908], [-4.05482, 38.69966], [-4.05008, 38.70114], [-4.05005, 38.69939], [-4.05377, 38.69822], [-4.05586, 38.69707]]], [[[-4.04919, 38.70136], [-4.0461, 38.70178], [-4.03904, 38.70145], [-4.04919, 38.70136]]], [[[-4.04304, 38.72179], [-4.03881, 38.71727], [-4.03877, 38.7144], [-4.04229, 38.7182], [-4.04244, 38.71904], [-4.04314, 38.7204], [-4.04446, 38.72182], [-4.04304, 38.72179]]], [[[-4.04076, 38.7203], [-4.04217, 38.72178], [-4.03974, 38.72174], [-4.0407, 38.72297], [-4.0428, 38.72291], [-4.04339, 38.72309], [-4.0469, 38.72661], [-4.04841, 38.72759], [-4.05013, 38.72839], [-4.04631, 38.72842], [-4.04436, 38.7269], [-4.03887, 38.72109], [-4.03883, 38.7182], [-4.04076, 38.7203]]], [[[-4.06462, 38.72936], [-4.06485, 38.72969], [-4.06531, 38.72983], [-4.06597, 38.72974], [-4.06632, 38.72934], [-4.06758, 38.72941], [-4.06628, 38.73028], [-4.06589, 38.73117], [-4.06615, 38.73176], [-4.06597, 38.73199], [-4.06542, 38.732], [-4.06487, 38.73076], [-4.06455, 38.72921], [-4.06462, 38.72936]]], [[[-4.06662, 38.73133], [-4.0666, 38.73118], [-4.06681, 38.73158], [-4.06675, 38.73149], [-4.06662, 38.73133]]], [[[-4.05788, 38.73406], [-4.05915, 38.73466], [-4.0606, 38.73488], [-4.06212, 38.73468], [-4.0636, 38.73409], [-4.0635, 38.73441], [-4.06152, 38.73523], [-4.0596, 38.73557], [-4.05905, 38.73627], [-4.05863, 38.73645], [-4.05859, 38.73693], [-4.05549, 38.73809], [-4.05462, 38.73811], [-4.05433, 38.73778], [-4.05354, 38.73776], [-4.0531, 38.73734], [-4.0526, 38.73745], [-4.05178, 38.7371], [-4.05061, 38.73748], [-4.0506, 38.73545], [-4.05218, 38.73529], [-4.05386, 38.7356], [-4.0552, 38.73608], [-4.05668, 38.73543], [-4.05195, 38.73114], [-4.05051, 38.73039], [-4.05048, 38.72852], [-4.05266, 38.72944], [-4.05346, 38.72996], [-4.05788, 38.73406]]], [[[-4.06571, 38.73315], [-4.06563, 38.73314], [-4.06564, 38.73307], [-4.06573, 38.73308], [-4.06571, 38.73315]]], [[[-4.06479, 38.73358], [-4.06464, 38.73373], [-4.06474, 38.7336], [-4.06479, 38.73358]]], [[[-4.06435, 38.734], [-4.06436, 38.73398], [-4.06447, 38.73389], [-4.06435, 38.734]]], [[[-4.06066, 38.73666], [-4.05895, 38.73766], [-4.0574, 38.73832], [-4.05436, 38.73902], [-4.05194, 38.73914], [-4.05064, 38.73956], [-4.05063, 38.73838], [-4.05081, 38.73805], [-4.05163, 38.73788], [-4.05206, 38.73804], [-4.05294, 38.73803], [-4.05335, 38.73844], [-4.05392, 38.73824], [-4.05404, 38.73862], [-4.05439, 38.73877], [-4.05492, 38.7386], [-4.05566, 38.73862], [-4.05911, 38.73732], [-4.05927, 38.73678], [-4.06001, 38.73603], [-4.06242, 38.73548], [-4.06066, 38.73666]]], [[[-4.06242, 38.73729], [-4.06197, 38.73829], [-4.06097, 38.73962], [-4.0592, 38.73985], [-4.05715, 38.74277], [-4.05678, 38.74454], [-4.0576, 38.74448], [-4.05781, 38.74634], [-4.05652, 38.74635], [-4.0568, 38.74497], [-4.05664, 38.7438], [-4.05674, 38.74305], [-4.05449, 38.74491], [-4.05565, 38.74636], [-4.05119, 38.7464], [-4.05074, 38.74599], [-4.05073, 38.7455], [-4.05786, 38.73971], [-4.05934, 38.7388], [-4.06092, 38.73722], [-4.0625, 38.73614], [-4.06265, 38.73648], [-4.06242, 38.73729]]], [[[-4.05065, 38.7402], [-4.05065, 38.74015], [-4.05123, 38.73994], [-4.05065, 38.7402]]], [[[-4.05576, 38.73929], [-4.05767, 38.73882], [-4.05907, 38.73822], [-4.05738, 38.73932], [-4.05152, 38.74412], [-4.05106, 38.74254], [-4.05297, 38.74153], [-4.05277, 38.74074], [-4.05422, 38.74059], [-4.05403, 38.73961], [-4.05576, 38.73929]]], [[[-4.05071, 38.74415], [-4.05104, 38.74449], [-4.05072, 38.74474], [-4.05071, 38.74415]]], [[[-4.05958, 38.74547], [-4.05962, 38.74489], [-4.06059, 38.74541], [-4.06087, 38.74577], [-4.06133, 38.74573], [-4.06152, 38.74631], [-4.05934, 38.74628], [-4.05958, 38.74547]]]]}, "properties": {"kind": "pv", "area_km2": 18.86, "mw": 943.1}}, {"type": "Feature", "geometry": {"type": "Point", "coordinates": [-4.07998, 38.70864]}, "properties": {"kind": "turbine", "i": 0, "mw": 6.0, "hub_m": 120.0, "rotor_m": 150.0}}, {"type": "Feature", "geometry": {"type": "Point", "coordinates": [-4.07178, 38.72188]}, "properties": {"kind": "turbine", "i": 1, "mw": 6.0, "hub_m": 120.0, "rotor_m": 150.0}}, {"type": "Feature", "geometry": {"type": "Point", "coordinates": [-4.09297, 38.73485]}, "properties": {"kind": "turbine", "i": 2, "mw": 6.0, "hub_m": 120.0, "rotor_m": 150.0}}, {"type": "Feature", "geometry": {"type": "Point", "coordinates": [-4.06743, 38.71205]}, "properties": {"kind": "turbine", "i": 3, "mw": 6.0, "hub_m": 120.0, "rotor_m": 150.0}}, {"type": "Feature", "geometry": {"type": "Point", "coordinates": [-4.10967, 38.72811]}, "properties": {"kind": "turbine", "i": 4, "mw": 6.0, "hub_m": 120.0, "rotor_m": 150.0}}, {"type": "Feature", "geometry": {"type": "Point", "coordinates": [-4.11787, 38.71487]}, "properties": {"kind": "turbine", "i": 5, "mw": 6.0, "hub_m": 120.0, "rotor_m": 150.0}}, {"type": "Feature", "geometry": {"type": "Point", "coordinates": [-4.07978, 38.69548]}, "properties": {"kind": "turbine", "i": 6, "mw": 6.0, "hub_m": 120.0, "rotor_m": 150.0}}, {"type": "Feature", "geometry": {"type": "Point", "coordinates": [-4.10983, 38.73798]}, "properties": {"kind": "turbine", "i": 7, "mw": 6.0, "hub_m": 120.0, "rotor_m": 150.0}}, {"type": "Feature", "geometry": {"type": "Point", "coordinates": [-4.12222, 38.7247]}, "properties": {"kind": "turbine", "i": 8, "mw": 6.0, "hub_m": 120.0, "rotor_m": 150.0}}, {"type": "Feature", "geometry": {"type": "Point", "coordinates": [-4.09733, 38.74468]}, "properties": {"kind": "turbine", "i": 9, "mw": 6.0, "hub_m": 120.0, "rotor_m": 150.0}}, {"type": "Feature", "geometry": {"type": "Point", "coordinates": [-4.05932, 38.73187]}, "properties": {"kind": "turbine", "i": 10, "mw": 6.0, "hub_m": 120.0, "rotor_m": 150.0}}, {"type": "Feature", "geometry": {"type": "Point", "coordinates": [-4.05498, 38.72203]}, "properties": {"kind": "turbine", "i": 11, "mw": 6.0, "hub_m": 120.0, "rotor_m": 150.0}}, {"type": "Feature", "geometry": {"type": "Point", "coordinates": [-4.06303, 38.69893]}, "properties": {"kind": "turbine", "i": 12, "mw": 6.0, "hub_m": 120.0, "rotor_m": 150.0}}, {"type": "Feature", "geometry": {"type": "Point", "coordinates": [-4.06787, 38.74166]}, "properties": {"kind": "turbine", "i": 13, "mw": 6.0, "hub_m": 120.0, "rotor_m": 150.0}}, {"type": "Feature", "geometry": {"type": "Point", "coordinates": [-4.08477, 38.74809]}, "properties": {"kind": "turbine", "i": 14, "mw": 6.0, "hub_m": 120.0, "rotor_m": 150.0}}, {"type": "Feature", "geometry": {"type": "Point", "coordinates": [-4.12238, 38.73457]}, "properties": {"kind": "turbine", "i": 15, "mw": 6.0, "hub_m": 120.0, "rotor_m": 150.0}}, {"type": "Feature", "geometry": {"type": "Point", "coordinates": [-4.13036, 38.70817]}, "properties": {"kind": "turbine", "i": 16, "mw": 6.0, "hub_m": 120.0, "rotor_m": 150.0}}, {"type": "Feature", "geometry": {"type": "Point", "coordinates": [-4.06709, 38.68902]}, "properties": {"kind": "turbine", "i": 17, "mw": 6.0, "hub_m": 120.0, "rotor_m": 150.0}}, {"type": "Feature", "geometry": {"type": "Point", "coordinates": [-4.11418, 38.74781]}, "properties": {"kind": "turbine", "i": 18, "mw": 6.0, "hub_m": 120.0, "rotor_m": 150.0}}, {"type": "Feature", "geometry": {"type": "Point", "coordinates": [-4.13472, 38.718]}, "properties": {"kind": "turbine", "i": 19, "mw": 6.0, "hub_m": 120.0, "rotor_m": 150.0}}, {"type": "Feature", "geometry": {"type": "Point", "coordinates": [-4.10168, 38.75451]}, "properties": {"kind": "turbine", "i": 20, "mw": 6.0, "hub_m": 120.0, "rotor_m": 150.0}}, {"type": "Feature", "geometry": {"type": "Point", "coordinates": [-4.05532, 38.74507]}, "properties": {"kind": "turbine", "i": 21, "mw": 6.0, "hub_m": 120.0, "rotor_m": 150.0}}, {"type": "Feature", "geometry": {"type": "Point", "coordinates": [-4.13493, 38.73116]}, "properties": {"kind": "turbine", "i": 22, "mw": 6.0, "hub_m": 120.0, "rotor_m": 150.0}}, {"type": "Feature", "geometry": {"type": "Point", "coordinates": [-4.04214, 38.7057]}, "properties": {"kind": "turbine", "i": 23, "mw": 6.0, "hub_m": 120.0, "rotor_m": 150.0}}, {"type": "Feature", "geometry": {"type": "Point", "coordinates": [-4.12673, 38.7444]}, "properties": {"kind": "turbine", "i": 24, "mw": 6.0, "hub_m": 120.0, "rotor_m": 150.0}}, {"type": "Feature", "geometry": {"type": "Point", "coordinates": [-4.04252, 38.73202]}, "properties": {"kind": "turbine", "i": 25, "mw": 6.0, "hub_m": 120.0, "rotor_m": 150.0}}, {"type": "Feature", "geometry": {"type": "Point", "coordinates": [-4.03818, 38.72219]}, "properties": {"kind": "turbine", "i": 26, "mw": 6.0, "hub_m": 120.0, "rotor_m": 150.0}}, {"type": "Feature", "geometry": {"type": "Point", "coordinates": [-4.13441, 38.69826]}, "properties": {"kind": "turbine", "i": 27, "mw": 6.0, "hub_m": 120.0, "rotor_m": 150.0}}, {"type": "Feature", "geometry": {"type": "Point", "coordinates": [-4.12586, 38.68847]}, "properties": {"kind": "turbine", "i": 28, "mw": 6.0, "hub_m": 120.0, "rotor_m": 150.0}}, {"type": "Feature", "geometry": {"type": "Point", "coordinates": [-4.06386, 38.75486]}, "properties": {"kind": "turbine", "i": 29, "mw": 6.0, "hub_m": 120.0, "rotor_m": 150.0}}, {"type": "Feature", "geometry": {"type": "Point", "coordinates": [-4.05029, 38.68917]}, "properties": {"kind": "turbine", "i": 30, "mw": 6.0, "hub_m": 120.0, "rotor_m": 150.0}}, {"type": "Feature", "geometry": {"type": "Point", "coordinates": [-4.08917, 38.76121]}, "properties": {"kind": "turbine", "i": 31, "mw": 6.0, "hub_m": 120.0, "rotor_m": 150.0}}, {"type": "Feature", "geometry": {"type": "Point", "coordinates": [-4.13928, 38.74099]}, "properties": {"kind": "turbine", "i": 32, "mw": 6.0, "hub_m": 120.0, "rotor_m": 150.0}}, {"type": "Feature", "geometry": {"type": "Point", "coordinates": [-4.0378, 38.69586]}, "properties": {"kind": "turbine", "i": 33, "mw": 6.0, "hub_m": 120.0, "rotor_m": 150.0}}, {"type": "Feature", "geometry": {"type": "Point", "coordinates": [-4.14716, 38.708]}, "properties": {"kind": "turbine", "i": 34, "mw": 6.0, "hub_m": 120.0, "rotor_m": 150.0}}, {"type": "Feature", "geometry": {"type": "Point", "coordinates": [-4.12689, 38.75427]}, "properties": {"kind": "turbine", "i": 35, "mw": 6.0, "hub_m": 120.0, "rotor_m": 150.0}}, {"type": "Feature", "geometry": {"type": "Point", "coordinates": [-4.14748, 38.72774]}, "properties": {"kind": "turbine", "i": 36, "mw": 6.0, "hub_m": 120.0, "rotor_m": 150.0}}, {"type": "Feature", "geometry": {"type": "Point", "coordinates": [-4.07943, 38.67245]}, "properties": {"kind": "turbine", "i": 37, "mw": 6.0, "hub_m": 120.0, "rotor_m": 150.0}}, {"type": "Feature", "geometry": {"type": "Point", "coordinates": [-4.10042, 38.67226]}, "properties": {"kind": "turbine", "i": 38, "mw": 6.0, "hub_m": 120.0, "rotor_m": 150.0}}, {"type": "Feature", "geometry": {"type": "Point", "coordinates": [-4.03851, 38.74522]}, "properties": {"kind": "turbine", "i": 39, "mw": 6.0, "hub_m": 120.0, "rotor_m": 150.0}}, {"type": "Feature", "geometry": {"type": "Point", "coordinates": [-4.15152, 38.71783]}, "properties": {"kind": "turbine", "i": 40, "mw": 6.0, "hub_m": 120.0, "rotor_m": 150.0}}, {"type": "Feature", "geometry": {"type": "Point", "coordinates": [-4.11024, 38.7643]}, "properties": {"kind": "turbine", "i": 41, "mw": 6.0, "hub_m": 120.0, "rotor_m": 150.0}}, {"type": "Feature", "geometry": {"type": "Point", "coordinates": [-4.04706, 38.75501]}, "properties": {"kind": "turbine", "i": 42, "mw": 6.0, "hub_m": 120.0, "rotor_m": 150.0}}, {"type": "Feature", "geometry": {"type": "Point", "coordinates": [-4.02997, 38.73542]}, "properties": {"kind": "turbine", "i": 43, "mw": 6.0, "hub_m": 120.0, "rotor_m": 150.0}}, {"type": "Feature", "geometry": {"type": "Point", "coordinates": [-4.02544, 38.71243]}, "properties": {"kind": "turbine", "i": 44, "mw": 6.0, "hub_m": 120.0, "rotor_m": 150.0}}, {"type": "Feature", "geometry": {"type": "Point", "coordinates": [-4.02562, 38.72559]}, "properties": {"kind": "turbine", "i": 45, "mw": 6.0, "hub_m": 120.0, "rotor_m": 150.0}}, {"type": "Feature", "geometry": {"type": "Point", "coordinates": [-4.06401, 38.76473]}, "properties": {"kind": "turbine", "i": 46, "mw": 6.0, "hub_m": 120.0, "rotor_m": 150.0}}, {"type": "Feature", "geometry": {"type": "Point", "coordinates": [-4.07667, 38.7679]}, "properties": {"kind": "turbine", "i": 47, "mw": 6.0, "hub_m": 120.0, "rotor_m": 150.0}}, {"type": "Feature", "geometry": {"type": "Point", "coordinates": [-4.1384, 38.68506]}, "properties": {"kind": "turbine", "i": 48, "mw": 6.0, "hub_m": 120.0, "rotor_m": 150.0}}, {"type": "Feature", "geometry": {"type": "Point", "coordinates": [-4.14695, 38.69484]}, "properties": {"kind": "turbine", "i": 49, "mw": 6.0, "hub_m": 120.0, "rotor_m": 150.0}}, {"type": "Feature", "geometry": {"type": "Point", "coordinates": [-4.13944, 38.75086]}, "properties": {"kind": "turbine", "i": 50, "mw": 6.0, "hub_m": 120.0, "rotor_m": 150.0}}, {"type": "Feature", "geometry": {"type": "Point", "coordinates": [-4.03765, 38.68599]}, "properties": {"kind": "turbine", "i": 51, "mw": 6.0, "hub_m": 120.0, "rotor_m": 150.0}}, {"type": "Feature", "geometry": {"type": "Point", "coordinates": [-4.15183, 38.73757]}, "properties": {"kind": "turbine", "i": 52, "mw": 6.0, "hub_m": 120.0, "rotor_m": 150.0}}, {"type": "Feature", "geometry": {"type": "Point", "coordinates": [-4.09773, 38.771]}, "properties": {"kind": "turbine", "i": 53, "mw": 6.0, "hub_m": 120.0, "rotor_m": 150.0}}, {"type": "Feature", "geometry": {"type": "Point", "coordinates": [-4.02525, 38.69927]}, "properties": {"kind": "turbine", "i": 54, "mw": 6.0, "hub_m": 120.0, "rotor_m": 150.0}}, {"type": "Feature", "geometry": {"type": "Point", "coordinates": [-4.09607, 38.66243]}, "properties": {"kind": "turbine", "i": 55, "mw": 6.0, "hub_m": 120.0, "rotor_m": 150.0}}, {"type": "Feature", "geometry": {"type": "Point", "coordinates": [-4.15199, 38.74744]}, "properties": {"kind": "turbine", "i": 56, "mw": 6.0, "hub_m": 120.0, "rotor_m": 150.0}}, {"type": "Feature", "geometry": {"type": "Point", "coordinates": [-4.0472, 38.76488]}, "properties": {"kind": "turbine", "i": 57, "mw": 6.0, "hub_m": 120.0, "rotor_m": 150.0}}, {"type": "Feature", "geometry": {"type": "Point", "coordinates": [-4.02511, 38.6894]}, "properties": {"kind": "turbine", "i": 58, "mw": 6.0, "hub_m": 120.0, "rotor_m": 150.0}}, {"type": "Feature", "geometry": {"type": "Point", "coordinates": [-4.02595, 38.74862]}, "properties": {"kind": "turbine", "i": 59, "mw": 6.0, "hub_m": 120.0, "rotor_m": 150.0}}, {"type": "Feature", "geometry": {"type": "Point", "coordinates": [-4.13545, 38.76406]}, "properties": {"kind": "turbine", "i": 60, "mw": 6.0, "hub_m": 120.0, "rotor_m": 150.0}}, {"type": "Feature", "geometry": {"type": "Point", "coordinates": [-4.16406, 38.71442]}, "properties": {"kind": "turbine", "i": 61, "mw": 6.0, "hub_m": 120.0, "rotor_m": 150.0}}, {"type": "Feature", "geometry": {"type": "Point", "coordinates": [-4.0345, 38.75841]}, "properties": {"kind": "turbine", "i": 62, "mw": 6.0, "hub_m": 120.0, "rotor_m": 150.0}}, {"type": "Feature", "geometry": {"type": "Point", "coordinates": [-4.12974, 38.66869]}, "properties": {"kind": "turbine", "i": 63, "mw": 6.0, "hub_m": 120.0, "rotor_m": 150.0}}, {"type": "Feature", "geometry": {"type": "Point", "coordinates": [-4.16427, 38.72758]}, "properties": {"kind": "turbine", "i": 64, "mw": 6.0, "hub_m": 120.0, "rotor_m": 150.0}}, {"type": "Feature", "geometry": {"type": "Point", "coordinates": [-4.08522, 38.7777]}, "properties": {"kind": "turbine", "i": 65, "mw": 6.0, "hub_m": 120.0, "rotor_m": 150.0}}, {"type": "Feature", "geometry": {"type": "Point", "coordinates": [-4.07924, 38.65929]}, "properties": {"kind": "turbine", "i": 66, "mw": 6.0, "hub_m": 120.0, "rotor_m": 150.0}}, {"type": "Feature", "geometry": {"type": "Point", "coordinates": [-4.06416, 38.7746]}, "properties": {"kind": "turbine", "i": 67, "mw": 6.0, "hub_m": 120.0, "rotor_m": 150.0}}, {"type": "Feature", "geometry": {"type": "Point", "coordinates": [-4.01288, 38.71583]}, "properties": {"kind": "turbine", "i": 68, "mw": 6.0, "hub_m": 120.0, "rotor_m": 150.0}}, {"type": "Feature", "geometry": {"type": "Point", "coordinates": [-4.11879, 38.77409]}, "properties": {"kind": "turbine", "i": 69, "mw": 6.0, "hub_m": 120.0, "rotor_m": 150.0}}, {"type": "Feature", "geometry": {"type": "Point", "coordinates": [-4.01307, 38.72899]}, "properties": {"kind": "turbine", "i": 70, "mw": 6.0, "hub_m": 120.0, "rotor_m": 150.0}}, {"type": "Feature", "geometry": {"type": "Point", "coordinates": [-4.15949, 38.69143]}, "properties": {"kind": "turbine", "i": 71, "mw": 6.0, "hub_m": 120.0, "rotor_m": 150.0}}, {"type": "Feature", "geometry": {"type": "Point", "coordinates": [-4.01275, 38.70596]}, "properties": {"kind": "turbine", "i": 72, "mw": 6.0, "hub_m": 120.0, "rotor_m": 150.0}}, {"type": "Feature", "geometry": {"type": "Point", "coordinates": [-4.148, 38.76064]}, "properties": {"kind": "turbine", "i": 73, "mw": 6.0, "hub_m": 120.0, "rotor_m": 150.0}}, {"type": "Feature", "geometry": {"type": "Point", "coordinates": [-4.15513, 38.6816]}, "properties": {"kind": "turbine", "i": 74, "mw": 6.0, "hub_m": 120.0, "rotor_m": 150.0}}, {"type": "Feature", "geometry": {"type": "Point", "coordinates": [-4.10629, 38.78079]}, "properties": {"kind": "turbine", "i": 75, "mw": 6.0, "hub_m": 120.0, "rotor_m": 150.0}}, {"type": "Feature", "geometry": {"type": "Point", "coordinates": [-4.16805, 38.70122]}, "properties": {"kind": "turbine", "i": 76, "mw": 6.0, "hub_m": 120.0, "rotor_m": 150.0}}, {"type": "Feature", "geometry": {"type": "Point", "coordinates": [-4.01261, 38.69609]}, "properties": {"kind": "turbine", "i": 77, "mw": 6.0, "hub_m": 120.0, "rotor_m": 150.0}}, {"type": "Feature", "geometry": {"type": "Point", "coordinates": [-4.16864, 38.73741]}, "properties": {"kind": "turbine", "i": 78, "mw": 6.0, "hub_m": 120.0, "rotor_m": 150.0}}, {"type": "Feature", "geometry": {"type": "Point", "coordinates": [-4.03322, 38.66958]}, "properties": {"kind": "turbine", "i": 79, "mw": 6.0, "hub_m": 120.0, "rotor_m": 150.0}}, {"type": "Feature", "geometry": {"type": "Point", "coordinates": [-4.09172, 38.6526]}, "properties": {"kind": "turbine", "i": 80, "mw": 6.0, "hub_m": 120.0, "rotor_m": 150.0}}, {"type": "Feature", "geometry": {"type": "Point", "coordinates": [-4.03464, 38.76828]}, "properties": {"kind": "turbine", "i": 81, "mw": 6.0, "hub_m": 120.0, "rotor_m": 150.0}}, {"type": "Feature", "geometry": {"type": "Point", "coordinates": [-4.02077, 38.67956]}, "properties": {"kind": "turbine", "i": 82, "mw": 6.0, "hub_m": 120.0, "rotor_m": 150.0}}, {"type": "Feature", "geometry": {"type": "Point", "coordinates": [-4.0516, 38.778]}, "properties": {"kind": "turbine", "i": 83, "mw": 6.0, "hub_m": 120.0, "rotor_m": 150.0}}, {"type": "Feature", "geometry": {"type": "Point", "coordinates": [-4.00906, 38.74218]}, "properties": {"kind": "turbine", "i": 84, "mw": 6.0, "hub_m": 120.0, "rotor_m": 150.0}}, {"type": "Feature", "geometry": {"type": "Point", "coordinates": [-4.16055, 38.75723]}, "properties": {"kind": "turbine", "i": 85, "mw": 6.0, "hub_m": 120.0, "rotor_m": 150.0}}, {"type": "Feature", "geometry": {"type": "Point", "coordinates": [-4.04567, 38.6596]}, "properties": {"kind": "turbine", "i": 86, "mw": 6.0, "hub_m": 120.0, "rotor_m": 150.0}}, {"type": "Feature", "geometry": {"type": "Point", "coordinates": [-4.06851, 38.78443]}, "properties": {"kind": "turbine", "i": 87, "mw": 6.0, "hub_m": 120.0, "rotor_m": 150.0}}, {"type": "Feature", "geometry": {"type": "Point", "coordinates": [-4.13981, 38.77389]}, "properties": {"kind": "turbine", "i": 88, "mw": 6.0, "hub_m": 120.0, "rotor_m": 150.0}}, {"type": "Feature", "geometry": {"type": "Point", "coordinates": [-4.0134, 38.75202]}, "properties": {"kind": "turbine", "i": 89, "mw": 6.0, "hub_m": 120.0, "rotor_m": 150.0}}, {"type": "Feature", "geometry": {"type": "Point", "coordinates": [-4.02194, 38.76181]}, "properties": {"kind": "turbine", "i": 90, "mw": 6.0, "hub_m": 120.0, "rotor_m": 150.0}}, {"type": "Feature", "geometry": {"type": "Point", "coordinates": [-4.1688, 38.74728]}, "properties": {"kind": "turbine", "i": 91, "mw": 6.0, "hub_m": 120.0, "rotor_m": 150.0}}, {"type": "Feature", "geometry": {"type": "Point", "coordinates": [-4.17682, 38.72416]}, "properties": {"kind": "turbine", "i": 92, "mw": 6.0, "hub_m": 120.0, "rotor_m": 150.0}}, {"type": "Feature", "geometry": {"type": "Point", "coordinates": [-4.12534, 38.65557]}, "properties": {"kind": "turbine", "i": 93, "mw": 6.0, "hub_m": 120.0, "rotor_m": 150.0}}, {"type": "Feature", "geometry": {"type": "Point", "coordinates": [-4.09378, 38.78749]}, "properties": {"kind": "turbine", "i": 94, "mw": 6.0, "hub_m": 120.0, "rotor_m": 150.0}}, {"type": "Feature", "geometry": {"type": "Point", "coordinates": [-4.00033, 38.71922]}, "properties": {"kind": "turbine", "i": 95, "mw": 6.0, "hub_m": 120.0, "rotor_m": 150.0}}, {"type": "Feature", "geometry": {"type": "Point", "coordinates": [-4.14223, 38.66199]}, "properties": {"kind": "turbine", "i": 96, "mw": 6.0, "hub_m": 120.0, "rotor_m": 150.0}}, {"type": "Feature", "geometry": {"type": "Point", "coordinates": [-4.10426, 38.64919]}, "properties": {"kind": "turbine", "i": 97, "mw": 6.0, "hub_m": 120.0, "rotor_m": 150.0}}, {"type": "Feature", "geometry": {"type": "Point", "coordinates": [-4.0707, 38.6495]}, "properties": {"kind": "turbine", "i": 98, "mw": 6.0, "hub_m": 120.0, "rotor_m": 150.0}}, {"type": "Feature", "geometry": {"type": "Point", "coordinates": [-4.00827, 38.68625]}, "properties": {"kind": "turbine", "i": 99, "mw": 6.0, "hub_m": 120.0, "rotor_m": 150.0}}, {"type": "Feature", "geometry": {"type": "Point", "coordinates": [-4.17203, 38.68801]}, "properties": {"kind": "turbine", "i": 100, "mw": 6.0, "hub_m": 120.0, "rotor_m": 150.0}}, {"type": "Feature", "geometry": {"type": "Point", "coordinates": [-4.15236, 38.77047]}, "properties": {"kind": "turbine", "i": 101, "mw": 6.0, "hub_m": 120.0, "rotor_m": 150.0}}, {"type": "Feature", "geometry": {"type": "Point", "coordinates": [-4.12735, 38.78388]}, "properties": {"kind": "turbine", "i": 102, "mw": 6.0, "hub_m": 120.0, "rotor_m": 150.0}}, {"type": "Feature", "geometry": {"type": "Point", "coordinates": [-4.08122, 38.7909]}, "properties": {"kind": "turbine", "i": 103, "mw": 6.0, "hub_m": 120.0, "rotor_m": 150.0}}, {"type": "Feature", "geometry": {"type": "Point", "coordinates": [-4.16767, 38.67819]}, "properties": {"kind": "turbine", "i": 104, "mw": 6.0, "hub_m": 120.0, "rotor_m": 150.0}}, {"type": "Feature", "geometry": {"type": "Point", "coordinates": [-4.03478, 38.77815]}, "properties": {"kind": "turbine", "i": 105, "mw": 6.0, "hub_m": 120.0, "rotor_m": 150.0}}, {"type": "Feature", "geometry": {"type": "Point", "coordinates": [-4.18118, 38.73399]}, "properties": {"kind": "turbine", "i": 106, "mw": 6.0, "hub_m": 120.0, "rotor_m": 150.0}}, {"type": "Feature", "geometry": {"type": "Point", "coordinates": [-3.99627, 38.72913]}, "properties": {"kind": "turbine", "i": 107, "mw": 6.0, "hub_m": 120.0, "rotor_m": 150.0}}]}