{"type": "FeatureCollection", "features": [{"type": "Feature", "geometry": {"type": "MultiPolygon", "coordinates": [[[[-4.09617, 38.70706], [-4.09617, 38.70743], [-4.09581, 38.70762], [-4.09617, 38.70706]]], [[[-4.10589, 38.71111], [-4.10587, 38.71118], [-4.10583, 38.7112], [-4.10589, 38.71111]]], [[[-4.1061, 38.71205], [-4.10706, 38.70984], [-4.10771, 38.70983], [-4.10788, 38.72087], [-4.10751, 38.72176], [-4.10666, 38.72243], [-4.10552, 38.72271], [-4.10418, 38.72247], [-4.10328, 38.72397], [-4.10695, 38.72403], [-4.10793, 38.72371], [-4.10794, 38.72436], [-4.10601, 38.72471], [-4.10406, 38.72447], [-4.10223, 38.72465], [-4.1015, 38.72498], [-4.10102, 38.72477], [-4.09981, 38.72511], [-4.10061, 38.7245], [-4.10208, 38.72214], [-4.10291, 38.71947], [-4.10389, 38.71972], [-4.10496, 38.72056], [-4.1052, 38.72102], [-4.1057, 38.72087], [-4.10562, 38.72038], [-4.10499, 38.71979], [-4.10426, 38.71927], [-4.10312, 38.71895], [-4.10518, 38.71382], [-4.1061, 38.71205]], [[-4.10703, 38.71768], [-4.1063, 38.71643], [-4.10568, 38.71802], [-4.10749, 38.71959], [-4.10731, 38.71825], [-4.10703, 38.71768]]], [[[-4.09792, 38.71102], [-4.09855, 38.71195], [-4.09894, 38.71332], [-4.1009, 38.71184], [-4.09865, 38.71092], [-4.09752, 38.70993], [-4.1058, 38.70985], [-4.10437, 38.71166], [-4.10089, 38.71408], [-4.09971, 38.71537], [-4.09881, 38.7172], [-4.09838, 38.72025], [-4.09804, 38.72132], [-4.09571, 38.72536], [-4.09486, 38.72542], [-4.09378, 38.72631], [-4.09224, 38.7259], [-4.09161, 38.72592], [-4.09065, 38.72554], [-4.08917, 38.72567], [-4.09416, 38.71091], [-4.0957, 38.71237], [-4.09606, 38.71307], [-4.09585, 38.71796], [-4.09653, 38.71948], [-4.09686, 38.71959], [-4.09714, 38.71939], [-4.09648, 38.71744], [-4.09682, 38.7138], [-4.09672, 38.71293], [-4.09628, 38.71208], [-4.0944, 38.7103], [-4.09525, 38.70854], [-4.09618, 38.70808], [-4.09621, 38.70994], [-4.09682, 38.70994], [-4.09792, 38.71102]], [[-4.09308, 38.72418], [-4.09425, 38.72364], [-4.09588, 38.72111], [-4.09467, 38.72029], [-4.09361, 38.72137], [-4.09261, 38.72193], [-4.09227, 38.72295], [-4.09243, 38.72406], [-4.09308, 38.72418]]], [[[-4.10371, 38.71343], [-4.1052, 38.7123], [-4.10325, 38.71662], [-4.10208, 38.71973], [-4.1018, 38.72108], [-4.09937, 38.72155], [-4.10028, 38.71666], [-4.10075, 38.71582], [-4.10156, 38.71499], [-4.10371, 38.71343]]], [[[-4.09977, 38.72202], [-4.10155, 38.72168], [-4.10003, 38.7242], [-4.09895, 38.72507], [-4.09713, 38.72536], [-4.0974, 38.72442], [-4.09835, 38.7231], [-4.09921, 38.72215], [-4.09977, 38.72202]]], [[[-4.10501, 38.72585], [-4.10147, 38.72567], [-4.10151, 38.72501], [-4.10419, 38.7248], [-4.10438, 38.72505], [-4.10578, 38.72515], [-4.10653, 38.72508], [-4.10716, 38.72465], [-4.10794, 38.72445], [-4.10796, 38.72574], [-4.10501, 38.72585]]], [[[-4.1007, 38.72551], [-4.10083, 38.72545], [-4.1008, 38.72554], [-4.1007, 38.72551]]], [[[-4.10797, 38.72633], [-4.10796, 38.7263], [-4.10797, 38.72629], [-4.10797, 38.72633]]], [[[-4.09692, 38.726], [-4.09895, 38.72562], [-4.10059, 38.72605], [-4.09977, 38.72793], [-4.09649, 38.72796], [-4.0965, 38.72888], [-4.09587, 38.72845], [-4.09643, 38.72606], [-4.09692, 38.726]]], [[[-4.10113, 38.72646], [-4.10127, 38.72619], [-4.10268, 38.72633], [-4.10301, 38.72659], [-4.10296, 38.72678], [-4.10217, 38.7277], [-4.1033, 38.7279], [-4.10048, 38.72793], [-4.10113, 38.72646]]], [[[-4.10724, 38.72786], [-4.10724, 38.72772], [-4.10799, 38.7277], [-4.10799, 38.72786], [-4.10724, 38.72786]]], [[[-4.08615, 38.70686], [-4.08928, 38.70376], [-4.09082, 38.70351], [-4.09126, 38.7025], [-4.09107, 38.7021], [-4.09201, 38.70144], [-4.0929, 38.7014], [-4.09352, 38.70096], [-4.09608, 38.70093], [-4.09608, 38.70133], [-4.09393, 38.70239], [-4.09222, 38.70353], [-4.08752, 38.70815], [-4.08471, 38.70958], [-4.08468, 38.70753], [-4.08615, 38.70686]]], [[[-4.09488, 38.70759], [-4.09447, 38.70829], [-4.09335, 38.70871], [-4.09269, 38.70866], [-4.09184, 38.7089], [-4.08899, 38.7085], [-4.08928, 38.70744], [-4.08966, 38.70695], [-4.09274, 38.70389], [-4.09433, 38.70283], [-4.09609, 38.70196], [-4.09611, 38.70327], [-4.09522, 38.70376], [-4.09472, 38.7043], [-4.09484, 38.70451], [-4.09516, 38.70457], [-4.09612, 38.70393], [-4.09615, 38.70574], [-4.09488, 38.70759]], [[-4.09262, 38.7067], [-4.09229, 38.70703], [-4.09289, 38.707], [-4.09355, 38.70583], [-4.09262, 38.7067]]], [[[-4.08807, 38.70848], [-4.08832, 38.70826], [-4.08831, 38.70848], [-4.08807, 38.70848]]], [[[-4.09277, 38.70939], [-4.09264, 38.7093], [-4.09276, 38.7092], [-4.09288, 38.70931], [-4.09277, 38.70939]]], [[[-4.09357, 38.7094], [-4.09357, 38.70939], [-4.09403, 38.70916], [-4.09375, 38.70973], [-4.09357, 38.7094]]], [[[-4.08854, 38.70971], [-4.08894, 38.70904], [-4.0917, 38.7095], [-4.09222, 38.70978], [-4.0921, 38.71111], [-4.09145, 38.71316], [-4.09104, 38.71236], [-4.09025, 38.71243], [-4.09056, 38.7137], [-4.08985, 38.71393], [-4.08968, 38.71458], [-4.08895, 38.71408], [-4.08756, 38.71423], [-4.08733, 38.71458], [-4.08713, 38.71458], [-4.08705, 38.71492], [-4.08647, 38.71527], [-4.08649, 38.71639], [-4.08576, 38.71588], [-4.08677, 38.714], [-4.08656, 38.71372], [-4.08619, 38.71377], [-4.08507, 38.7158], [-4.08515, 38.71639], [-4.08468, 38.71653], [-4.08429, 38.71705], [-4.08448, 38.71762], [-4.08528, 38.71811], [-4.08392, 38.71943], [-4.08361, 38.71934], [-4.08333, 38.71947], [-4.08332, 38.71973], [-4.08363, 38.71994], [-4.0836, 38.72046], [-4.08296, 38.72052], [-4.08246, 38.72105], [-4.08249, 38.72197], [-4.0821, 38.72122], [-4.07997, 38.72072], [-4.0791, 38.72147], [-4.07913, 38.72208], [-4.0788, 38.72272], [-4.0783, 38.72265], [-4.0776, 38.72288], [-4.07735, 38.72141], [-4.07839, 38.71979], [-4.07917, 38.71661], [-4.07909, 38.71504], [-4.07945, 38.71413], [-4.08025, 38.71332], [-4.08512, 38.71026], [-4.0874, 38.7102], [-4.08854, 38.70971]], [[-4.08038, 38.71906], [-4.07961, 38.71896], [-4.07913, 38.71923], [-4.07904, 38.71974], [-4.07941, 38.7202], [-4.08011, 38.72027], [-4.08056, 38.72004], [-4.08064, 38.71943], [-4.08038, 38.71906]], [[-4.08996, 38.71097], [-4.08983, 38.71107], [-4.08968, 38.71118], [-4.08988, 38.71121], [-4.08996, 38.71097]], [[-4.08211, 38.71435], [-4.08319, 38.71378], [-4.08354, 38.71335], [-4.08169, 38.71455], [-4.08122, 38.71522], [-4.08211, 38.71435]]], [[[-4.09299, 38.70993], [-4.09351, 38.71032], [-4.09116, 38.71711], [-4.09094, 38.71682], [-4.08997, 38.71636], [-4.09182, 38.71411], [-4.09277, 38.71123], [-4.09299, 38.70993]]], [[[-4.09329, 38.72751], [-4.08878, 38.72682], [-4.08899, 38.7262], [-4.09056, 38.72609], [-4.09149, 38.72646], [-4.0921, 38.72643], [-4.09293, 38.72675], [-4.09386, 38.72685], [-4.09448, 38.72666], [-4.09519, 38.72591], [-4.09554, 38.72589], [-4.0949, 38.72762], [-4.09329, 38.72751]]], [[[-4.09284, 38.72802], [-4.09521, 38.7283], [-4.095, 38.72879], [-4.09469, 38.72925], [-4.0944, 38.72958], [-4.09475, 38.72907], [-4.09441, 38.7288], [-4.09396, 38.7291], [-4.09222, 38.73162], [-4.08793, 38.73566], [-4.08691, 38.73518], [-4.086, 38.73506], [-4.0886, 38.72734], [-4.09284, 38.72802]], [[-4.09015, 38.72929], [-4.0898, 38.73032], [-4.08929, 38.73182], [-4.09046, 38.73069], [-4.09128, 38.72947], [-4.09015, 38.72929]]], [[[-4.09076, 38.7369], [-4.08873, 38.73602], [-4.09277, 38.73224], [-4.09367, 38.73105], [-4.09362, 38.73075], [-4.09422, 38.72983], [-4.09436, 38.73011], [-4.09477, 38.7301], [-4.09565, 38.72896], [-4.09652, 38.7297], [-4.09663, 38.73697], [-4.09172, 38.73702], [-4.09076, 38.7369]], [[-4.09447, 38.73323], [-4.09391, 38.73379], [-4.09218, 38.7354], [-4.09319, 38.73555], [-4.09529, 38.73548], [-4.09645, 38.73191], [-4.09584, 38.73153], [-4.09567, 38.73161], [-4.09447, 38.73323]]], [[[-4.08814, 38.7092], [-4.08745, 38.70964], [-4.08582, 38.70962], [-4.08703, 38.70915], [-4.08824, 38.70902], [-4.08814, 38.7092]]], [[[-4.07561, 38.71321], [-4.07592, 38.71246], [-4.07657, 38.71186], [-4.07856, 38.71124], [-4.08043, 38.71009], [-4.0839, 38.71006], [-4.08003, 38.71247], [-4.0779, 38.71316], [-4.07771, 38.71353], [-4.07803, 38.71387], [-4.07331, 38.71688], [-4.07328, 38.71476], [-4.07561, 38.71321]]], [[[-4.0783, 38.7144], [-4.07853, 38.71446], [-4.07826, 38.7177], [-4.07417, 38.71788], [-4.07334, 38.71824], [-4.07333, 38.71757], [-4.0783, 38.7144]]], [[[-4.07796, 38.71881], [-4.07779, 38.71881], [-4.07777, 38.71836], [-4.07809, 38.71835], [-4.07796, 38.71881]]], [[[-4.0734, 38.72065], [-4.07519, 38.72061], [-4.07521, 38.72128], [-4.07542, 38.72152], [-4.07663, 38.72154], [-4.07699, 38.72343], [-4.0762, 38.72403], [-4.07651, 38.72521], [-4.07637, 38.72579], [-4.0741, 38.72633], [-4.07345, 38.72624], [-4.0734, 38.72255], [-4.07356, 38.72237], [-4.0734, 38.72232], [-4.0734, 38.72065]]], [[[-4.08402, 38.72465], [-4.0831, 38.7249], [-4.08237, 38.72473], [-4.08267, 38.7244], [-4.08345, 38.72429], [-4.08388, 38.72443], [-4.08416, 38.7242], [-4.08467, 38.72413], [-4.08502, 38.72281], [-4.08541, 38.72335], [-4.08715, 38.72433], [-4.08787, 38.72457], [-4.08824, 38.72444], [-4.08868, 38.72455], [-4.08837, 38.72548], [-4.08684, 38.72548], [-4.08563, 38.72479], [-4.08402, 38.72465]]], [[[-4.07395, 38.72686], [-4.07432, 38.72749], [-4.07426, 38.72788], [-4.07348, 38.72818], [-4.07346, 38.72678], [-4.07395, 38.72686]]], [[[-4.08691, 38.72792], [-4.08713, 38.72719], [-4.08776, 38.72727], [-4.08542, 38.73424], [-4.08507, 38.73368], [-4.08506, 38.73279], [-4.08544, 38.7328], [-4.0856, 38.73252], [-4.08505, 38.73217], [-4.08565, 38.73234], [-4.08594, 38.73203], [-4.08528, 38.73166], [-4.08539, 38.73127], [-4.08503, 38.7311], [-4.08499, 38.72807], [-4.08443, 38.72808], [-4.08466, 38.72778], [-4.08599, 38.72815], [-4.08674, 38.72816], [-4.08691, 38.72792]]], [[[-4.08747, 38.73608], [-4.08622, 38.73707], [-4.08533, 38.73708], [-4.08582, 38.73561], [-4.08662, 38.73567], [-4.08747, 38.73608]]], [[[-4.08786, 38.7368], [-4.08827, 38.73644], [-4.08962, 38.73704], [-4.08755, 38.73706], [-4.08786, 38.7368]]]]}, "properties": {"kind": "pv", "area_km2": 4.51, "mw": 225.4}}]}