{"type": "FeatureCollection", "features": [{"type": "Feature", "geometry": {"type": "MultiPolygon", "coordinates": [[[[-4.0944, 38.7103], [-4.09455, 38.70996], [-4.09682, 38.70994], [-4.09821, 38.71139], [-4.09894, 38.71332], [-4.1009, 38.71184], [-4.09865, 38.71092], [-4.09752, 38.70993], [-4.1058, 38.70985], [-4.10437, 38.71166], [-4.10089, 38.71408], [-4.09973, 38.71534], [-4.09882, 38.71717], [-4.09838, 38.72025], [-4.09775, 38.72194], [-4.09571, 38.72536], [-4.09486, 38.72542], [-4.09404, 38.72623], [-4.09362, 38.72631], [-4.09224, 38.7259], [-4.09161, 38.72592], [-4.09068, 38.72555], [-4.08917, 38.72567], [-4.09416, 38.71091], [-4.0957, 38.71237], [-4.09606, 38.71307], [-4.09585, 38.71796], [-4.09653, 38.71948], [-4.09686, 38.71959], [-4.09714, 38.71939], [-4.09648, 38.71744], [-4.09682, 38.7138], [-4.09672, 38.71293], [-4.09628, 38.71208], [-4.0944, 38.7103]], [[-4.09296, 38.72415], [-4.09425, 38.72364], [-4.09588, 38.72111], [-4.09467, 38.72029], [-4.09361, 38.72137], [-4.09261, 38.72193], [-4.09227, 38.72295], [-4.09243, 38.72406], [-4.09296, 38.72415]]], [[[-4.10583, 38.7112], [-4.10589, 38.71111], [-4.10587, 38.71118], [-4.10583, 38.7112]]], [[[-4.10577, 38.71262], [-4.10649, 38.71145], [-4.10706, 38.70984], [-4.10771, 38.70983], [-4.10778, 38.72124], [-4.10737, 38.72192], [-4.10645, 38.72252], [-4.10528, 38.72272], [-4.10418, 38.72247], [-4.10328, 38.72397], [-4.10695, 38.72403], [-4.10793, 38.72371], [-4.10794, 38.72436], [-4.10601, 38.72471], [-4.10406, 38.72447], [-4.10223, 38.72465], [-4.1015, 38.72498], [-4.10102, 38.72477], [-4.09981, 38.72511], [-4.10061, 38.7245], [-4.10208, 38.72214], [-4.10291, 38.71947], [-4.10389, 38.71972], [-4.10496, 38.72056], [-4.1052, 38.72102], [-4.1057, 38.72087], [-4.10562, 38.72038], [-4.10499, 38.71979], [-4.10426, 38.71927], [-4.10312, 38.71895], [-4.10577, 38.71262]], [[-4.10719, 38.71784], [-4.1063, 38.71643], [-4.10568, 38.71802], [-4.10749, 38.71959], [-4.10719, 38.71784]]], [[[-4.10225, 38.71436], [-4.10414, 38.7132], [-4.1052, 38.7123], [-4.10325, 38.71662], [-4.10208, 38.71973], [-4.1018, 38.72108], [-4.09937, 38.72155], [-4.10028, 38.71666], [-4.10075, 38.71582], [-4.10225, 38.71436]]], [[[-4.09921, 38.72215], [-4.10155, 38.72168], [-4.10003, 38.7242], [-4.09895, 38.72507], [-4.09713, 38.72536], [-4.0974, 38.72442], [-4.09921, 38.72215]]], [[[-4.10501, 38.72585], [-4.10147, 38.72567], [-4.10151, 38.72501], [-4.10419, 38.7248], [-4.10438, 38.72505], [-4.10578, 38.72515], [-4.10653, 38.72508], [-4.10716, 38.72465], [-4.10794, 38.72445], [-4.10796, 38.72574], [-4.10501, 38.72585]]], [[[-4.1008, 38.72554], [-4.1007, 38.72551], [-4.10083, 38.72545], [-4.10083, 38.72545], [-4.1008, 38.72554]]], [[[-4.10797, 38.72629], [-4.10797, 38.72633], [-4.10796, 38.7263], [-4.10797, 38.72629]]], [[[-4.09692, 38.726], [-4.09895, 38.72562], [-4.10059, 38.72605], [-4.09977, 38.72793], [-4.09605, 38.72797], [-4.09643, 38.72606], [-4.09692, 38.726]]], [[[-4.10113, 38.72646], [-4.10127, 38.72619], [-4.10268, 38.72633], [-4.10301, 38.72659], [-4.10296, 38.72678], [-4.10217, 38.7277], [-4.1033, 38.7279], [-4.10048, 38.72793], [-4.10113, 38.72646]]], [[[-4.10724, 38.72786], [-4.10724, 38.72772], [-4.10799, 38.7277], [-4.10799, 38.72786], [-4.10724, 38.72786]]], [[[-4.0865, 38.71019], [-4.08809, 38.71002], [-4.09227, 38.70998], [-4.09145, 38.71316], [-4.09104, 38.71236], [-4.09025, 38.71243], [-4.09056, 38.7137], [-4.08985, 38.71393], [-4.08968, 38.71458], [-4.08895, 38.71408], [-4.08756, 38.71423], [-4.08733, 38.71458], [-4.08713, 38.71458], [-4.08705, 38.71492], [-4.08647, 38.71527], [-4.08649, 38.71639], [-4.08576, 38.71588], [-4.08677, 38.714], [-4.08656, 38.71372], [-4.08619, 38.71377], [-4.08507, 38.7158], [-4.08515, 38.71639], [-4.08468, 38.71653], [-4.08429, 38.71705], [-4.08448, 38.71762], [-4.08528, 38.71811], [-4.08392, 38.71943], [-4.08361, 38.71934], [-4.08333, 38.71947], [-4.08332, 38.71973], [-4.08363, 38.71994], [-4.0836, 38.72046], [-4.08296, 38.72052], [-4.08246, 38.72105], [-4.08249, 38.72197], [-4.0821, 38.72122], [-4.07997, 38.72072], [-4.0791, 38.72147], [-4.07913, 38.72208], [-4.0788, 38.72272], [-4.0783, 38.72265], [-4.0776, 38.72288], [-4.07735, 38.72141], [-4.07839, 38.71979], [-4.07917, 38.71661], [-4.07909, 38.71504], [-4.0794, 38.71419], [-4.08025, 38.71332], [-4.08475, 38.71044], [-4.08559, 38.71018], [-4.0865, 38.71019]], [[-4.08988, 38.71121], [-4.08996, 38.71097], [-4.08968, 38.71118], [-4.08988, 38.71121]], [[-4.08027, 38.719], [-4.07955, 38.71897], [-4.0791, 38.71927], [-4.07906, 38.7198], [-4.07947, 38.72023], [-4.08018, 38.72026], [-4.08059, 38.71999], [-4.08061, 38.71932], [-4.08027, 38.719]], [[-4.08181, 38.7146], [-4.08319, 38.71378], [-4.08354, 38.71335], [-4.08169, 38.71455], [-4.08122, 38.71522], [-4.08181, 38.7146]]], [[[-4.0756, 38.71328], [-4.07592, 38.71246], [-4.07657, 38.71186], [-4.07856, 38.71124], [-4.08043, 38.71009], [-4.0839, 38.71006], [-4.08003, 38.71247], [-4.0779, 38.71316], [-4.07771, 38.71353], [-4.07803, 38.71387], [-4.07331, 38.71688], [-4.07328, 38.71476], [-4.0756, 38.71328]]], [[[-4.09329, 38.71088], [-4.09168, 38.71557], [-4.09116, 38.71711], [-4.09094, 38.71682], [-4.08997, 38.71636], [-4.09182, 38.71411], [-4.09277, 38.71123], [-4.09296, 38.70997], [-4.09351, 38.71032], [-4.09329, 38.71088]]], [[[-4.07648, 38.71556], [-4.0784, 38.71433], [-4.07853, 38.71446], [-4.07826, 38.7177], [-4.07417, 38.71788], [-4.07334, 38.71824], [-4.07333, 38.71757], [-4.07648, 38.71556]]], [[[-4.07796, 38.71881], [-4.07779, 38.71881], [-4.07777, 38.71836], [-4.07809, 38.71835], [-4.07796, 38.71881]]], [[[-4.0734, 38.72065], [-4.07519, 38.72061], [-4.07521, 38.72128], [-4.07542, 38.72152], [-4.07663, 38.72154], [-4.07699, 38.72343], [-4.0762, 38.72403], [-4.07651, 38.72521], [-4.07637, 38.72579], [-4.0741, 38.72633], [-4.07345, 38.72624], [-4.0734, 38.72255], [-4.07356, 38.72237], [-4.0734, 38.72232], [-4.0734, 38.72065]]], [[[-4.08405, 38.72464], [-4.0831, 38.7249], [-4.08237, 38.72473], [-4.08267, 38.7244], [-4.08345, 38.72429], [-4.08388, 38.72443], [-4.08416, 38.7242], [-4.08467, 38.72413], [-4.08502, 38.72281], [-4.08541, 38.72335], [-4.08715, 38.72433], [-4.08787, 38.72457], [-4.08824, 38.72444], [-4.08868, 38.72455], [-4.08837, 38.72548], [-4.08684, 38.72548], [-4.08563, 38.72479], [-4.08405, 38.72464]]], [[[-4.09483, 38.72761], [-4.09292, 38.72749], [-4.08878, 38.72682], [-4.08899, 38.7262], [-4.09056, 38.72609], [-4.09149, 38.72646], [-4.0921, 38.72643], [-4.09293, 38.72675], [-4.0939, 38.72684], [-4.09448, 38.72666], [-4.09519, 38.72591], [-4.09554, 38.72589], [-4.09483, 38.72761]]], [[[-4.07395, 38.72686], [-4.07432, 38.72749], [-4.07426, 38.72788], [-4.07348, 38.72818], [-4.07346, 38.72678], [-4.07395, 38.72686]]], [[[-4.08689, 38.72794], [-4.08713, 38.72719], [-4.08776, 38.72727], [-4.0875, 38.72805], [-4.08677, 38.72805], [-4.08689, 38.72794]]], [[[-4.0886, 38.72734], [-4.09193, 38.72788], [-4.09268, 38.728], [-4.08837, 38.72804], [-4.0886, 38.72734]]], [[[-4.0857, 38.72798], [-4.08577, 38.72806], [-4.08443, 38.72808], [-4.08466, 38.72778], [-4.0857, 38.72798]]]]}, "properties": {"kind": "pv", "area_km2": 3.29, "mw": 164.4}}]}