{"type": "FeatureCollection", "features": [{"type": "Feature", "geometry": {"type": "MultiPolygon", "coordinates": [[[[-4.09859, 38.70191], [-4.09524, 38.70374], [-4.09477, 38.70418], [-4.09484, 38.70451], [-4.09525, 38.70454], [-4.09998, 38.70175], [-4.09678, 38.70497], [-4.09447, 38.70829], [-4.09335, 38.70871], [-4.09269, 38.70866], [-4.09203, 38.7089], [-4.08899, 38.7085], [-4.08928, 38.70744], [-4.08966, 38.70695], [-4.09223, 38.70436], [-4.0937, 38.7032], [-4.09812, 38.70091], [-4.10007, 38.7009], [-4.09859, 38.70191]], [[-4.0926, 38.70672], [-4.09229, 38.70703], [-4.09289, 38.707], [-4.09355, 38.70583], [-4.0926, 38.70672]]], [[[-4.09843, 38.70432], [-4.09859, 38.70415], [-4.09878, 38.70412], [-4.0987, 38.70416], [-4.09843, 38.70432]]], [[[-4.09843, 38.70678], [-4.10061, 38.70781], [-4.10063, 38.7082], [-4.10105, 38.70861], [-4.10274, 38.70922], [-4.10383, 38.70895], [-4.1058, 38.70942], [-4.10589, 38.70969], [-4.10437, 38.71166], [-4.10089, 38.71408], [-4.09971, 38.71537], [-4.09881, 38.7172], [-4.09838, 38.72025], [-4.09804, 38.72132], [-4.09571, 38.72536], [-4.09486, 38.72542], [-4.09378, 38.72631], [-4.09224, 38.7259], [-4.09161, 38.72592], [-4.09065, 38.72554], [-4.08917, 38.72567], [-4.09416, 38.71091], [-4.0957, 38.71237], [-4.09606, 38.71307], [-4.09585, 38.71796], [-4.09653, 38.71948], [-4.09686, 38.71959], [-4.09713, 38.71941], [-4.09648, 38.71744], [-4.09682, 38.7138], [-4.09672, 38.71293], [-4.09628, 38.71208], [-4.0944, 38.7103], [-4.09525, 38.70854], [-4.09843, 38.70678]], [[-4.09733, 38.70966], [-4.09725, 38.70952], [-4.09694, 38.70968], [-4.09681, 38.70995], [-4.09821, 38.71139], [-4.09894, 38.71332], [-4.1009, 38.71184], [-4.09865, 38.71092], [-4.09733, 38.70966]], [[-4.09316, 38.72413], [-4.09425, 38.72364], [-4.09588, 38.72111], [-4.09467, 38.72029], [-4.09361, 38.72137], [-4.09261, 38.72193], [-4.09227, 38.72295], [-4.09243, 38.72406], [-4.09316, 38.72413]]], [[[-4.10771, 38.70983], [-4.10845, 38.70983], [-4.10822, 38.71067], [-4.10824, 38.71209], [-4.1087, 38.71297], [-4.10833, 38.71593], [-4.10923, 38.71736], [-4.10968, 38.71997], [-4.1099, 38.72028], [-4.1103, 38.72041], [-4.11064, 38.72013], [-4.11034, 38.7198], [-4.11009, 38.71786], [-4.10975, 38.71683], [-4.10909, 38.7161], [-4.10896, 38.71539], [-4.10939, 38.71299], [-4.10893, 38.71205], [-4.10891, 38.7107], [-4.10913, 38.7099], [-4.11129, 38.71], [-4.11295, 38.71038], [-4.11457, 38.71014], [-4.11474, 38.71161], [-4.11417, 38.71274], [-4.11413, 38.71337], [-4.11463, 38.71523], [-4.11429, 38.71792], [-4.11463, 38.7184], [-4.11499, 38.71981], [-4.11531, 38.71998], [-4.11565, 38.71971], [-4.11529, 38.71823], [-4.11498, 38.71783], [-4.11533, 38.71519], [-4.11482, 38.71339], [-4.11485, 38.71286], [-4.11543, 38.71167], [-4.11525, 38.71023], [-4.11619, 38.71014], [-4.1166, 38.70975], [-4.11921, 38.70973], [-4.11925, 38.71198], [-4.11809, 38.71271], [-4.1171, 38.71302], [-4.11695, 38.71326], [-4.11745, 38.71513], [-4.11711, 38.71737], [-4.11773, 38.71933], [-4.11773, 38.72009], [-4.11721, 38.72093], [-4.11647, 38.72141], [-4.11531, 38.72164], [-4.11436, 38.72149], [-4.11356, 38.72107], [-4.11313, 38.72062], [-4.11231, 38.71856], [-4.11273, 38.72045], [-4.11239, 38.72116], [-4.11173, 38.72171], [-4.11085, 38.72202], [-4.10966, 38.72201], [-4.10848, 38.72151], [-4.10784, 38.72081], [-4.10751, 38.72176], [-4.10666, 38.72243], [-4.10552, 38.72271], [-4.10418, 38.72247], [-4.10328, 38.72397], [-4.10695, 38.72403], [-4.10969, 38.72337], [-4.11221, 38.72341], [-4.11469, 38.7232], [-4.11651, 38.72285], [-4.11708, 38.72261], [-4.11819, 38.72086], [-4.11938, 38.72019], [-4.11943, 38.72345], [-4.11874, 38.724], [-4.11726, 38.72462], [-4.11592, 38.72478], [-4.11535, 38.72505], [-4.11229, 38.72527], [-4.11017, 38.72517], [-4.10723, 38.72586], [-4.10147, 38.72567], [-4.10151, 38.72501], [-4.10419, 38.7248], [-4.10438, 38.72505], [-4.10578, 38.72515], [-4.10653, 38.72508], [-4.10716, 38.72465], [-4.10813, 38.72436], [-4.10601, 38.72471], [-4.10406, 38.72447], [-4.10223, 38.72465], [-4.1015, 38.72498], [-4.10102, 38.72477], [-4.09981, 38.72511], [-4.10061, 38.7245], [-4.10208, 38.72214], [-4.10291, 38.71947], [-4.10389, 38.71972], [-4.10496, 38.72056], [-4.1052, 38.72102], [-4.10569, 38.7209], [-4.10564, 38.7204], [-4.10499, 38.71979], [-4.10426, 38.71927], [-4.10312, 38.71895], [-4.10518, 38.71382], [-4.10649, 38.71143], [-4.10711, 38.70963], [-4.10771, 38.70983]], [[-4.10703, 38.71768], [-4.1063, 38.71643], [-4.10568, 38.71802], [-4.10749, 38.71959], [-4.10731, 38.71825], [-4.10703, 38.71768]], [[-4.11179, 38.71639], [-4.11217, 38.71757], [-4.11247, 38.71534], [-4.11209, 38.71433], [-4.11201, 38.71327], [-4.1115, 38.71318], [-4.11109, 38.71542], [-4.11179, 38.71639]]], [[[-4.10589, 38.71111], [-4.10587, 38.71118], [-4.10583, 38.7112], [-4.10589, 38.71111]]], [[[-4.10371, 38.71343], [-4.1052, 38.7123], [-4.10325, 38.71662], [-4.10208, 38.71973], [-4.1018, 38.72108], [-4.09937, 38.72155], [-4.10028, 38.71666], [-4.10075, 38.71582], [-4.10156, 38.71499], [-4.10371, 38.71343]]], [[[-4.10155, 38.72168], [-4.10003, 38.7242], [-4.09895, 38.72507], [-4.09713, 38.72536], [-4.0974, 38.72442], [-4.09921, 38.72215], [-4.10155, 38.72168]]], [[[-4.10083, 38.72545], [-4.1008, 38.72554], [-4.1007, 38.72551], [-4.10083, 38.72545]]], [[[-4.10917, 38.72589], [-4.11022, 38.72571], [-4.11153, 38.72575], [-4.11081, 38.72574], [-4.10917, 38.72589]]], [[[-4.11337, 38.72635], [-4.11471, 38.72594], [-4.1143, 38.72558], [-4.11552, 38.72558], [-4.11613, 38.7253], [-4.11749, 38.72513], [-4.11944, 38.72422], [-4.11947, 38.72639], [-4.11807, 38.72691], [-4.11568, 38.72742], [-4.11228, 38.72765], [-4.1104, 38.72756], [-4.10975, 38.72784], [-4.10799, 38.72786], [-4.10801, 38.72903], [-4.10649, 38.72943], [-4.10544, 38.72935], [-4.10252, 38.72838], [-4.10223, 38.72944], [-4.10457, 38.73021], [-4.10804, 38.73098], [-4.10807, 38.73273], [-4.10375, 38.73175], [-4.10198, 38.7311], [-4.09965, 38.73073], [-4.10059, 38.72756], [-4.10127, 38.72619], [-4.10268, 38.72633], [-4.10301, 38.72659], [-4.10217, 38.7277], [-4.10337, 38.72791], [-4.10723, 38.72787], [-4.10724, 38.72772], [-4.10863, 38.72769], [-4.10974, 38.72725], [-4.11337, 38.72635]]], [[[-4.108, 38.72643], [-4.10796, 38.7263], [-4.10882, 38.72601], [-4.1088, 38.72624], [-4.108, 38.72643]]], [[[-4.09697, 38.72599], [-4.09895, 38.72562], [-4.10059, 38.72605], [-4.09993, 38.72741], [-4.09899, 38.73056], [-4.09764, 38.72984], [-4.09587, 38.72845], [-4.09643, 38.72606], [-4.09697, 38.72599]]], [[[-4.09912, 38.73265], [-4.0995, 38.73126], [-4.10179, 38.73162], [-4.10352, 38.73226], [-4.1075, 38.73315], [-4.10808, 38.73331], [-4.1081, 38.73516], [-4.10287, 38.73384], [-4.10115, 38.73321], [-4.10009, 38.73643], [-4.10165, 38.73693], [-4.09765, 38.73696], [-4.09912, 38.73265]]], [[[-4.09393, 38.70239], [-4.09222, 38.70353], [-4.08752, 38.70815], [-4.08583, 38.70892], [-4.08003, 38.71247], [-4.0779, 38.71316], [-4.07771, 38.71353], [-4.07803, 38.71387], [-4.0679, 38.72044], [-4.0661, 38.72211], [-4.06517, 38.72347], [-4.06394, 38.72647], [-4.06379, 38.72827], [-4.06198, 38.72828], [-4.06195, 38.72587], [-4.06252, 38.72418], [-4.06434, 38.72118], [-4.0664, 38.71926], [-4.0756, 38.71328], [-4.07592, 38.71246], [-4.07657, 38.71186], [-4.07879, 38.71112], [-4.08451, 38.70762], [-4.08604, 38.70696], [-4.08928, 38.70376], [-4.09082, 38.70351], [-4.09126, 38.7025], [-4.09107, 38.7021], [-4.09201, 38.70144], [-4.0929, 38.7014], [-4.09352, 38.70096], [-4.09688, 38.70093], [-4.09393, 38.70239]]], [[[-4.09738, 38.70558], [-4.09747, 38.70615], [-4.09787, 38.70634], [-4.09779, 38.70648], [-4.09581, 38.70762], [-4.09738, 38.70558]]], [[[-4.08832, 38.70826], [-4.08831, 38.70848], [-4.08807, 38.70848], [-4.08832, 38.70826]]], [[[-4.09277, 38.70939], [-4.09264, 38.7093], [-4.09276, 38.7092], [-4.09288, 38.70931], [-4.09277, 38.70939]]], [[[-4.08801, 38.70937], [-4.08728, 38.70967], [-4.08582, 38.70962], [-4.08703, 38.70915], [-4.08824, 38.70902], [-4.08801, 38.70937]]], [[[-4.09357, 38.70939], [-4.09403, 38.70916], [-4.09375, 38.70973], [-4.09357, 38.70939]]], [[[-4.08854, 38.70971], [-4.08894, 38.70904], [-4.0917, 38.7095], [-4.09222, 38.70978], [-4.0921, 38.71111], [-4.09145, 38.71316], [-4.09104, 38.71236], [-4.09025, 38.71243], [-4.09056, 38.7137], [-4.08985, 38.71393], [-4.08968, 38.71458], [-4.08895, 38.71408], [-4.08756, 38.71423], [-4.08733, 38.71458], [-4.08713, 38.71458], [-4.08705, 38.71492], [-4.08647, 38.71527], [-4.08649, 38.71639], [-4.08576, 38.71588], [-4.08677, 38.714], [-4.08656, 38.71372], [-4.08619, 38.71377], [-4.08507, 38.7158], [-4.08515, 38.71639], [-4.08468, 38.71653], [-4.08429, 38.71705], [-4.08448, 38.71762], [-4.08528, 38.71811], [-4.08392, 38.71943], [-4.08361, 38.71934], [-4.08333, 38.71947], [-4.08332, 38.71973], [-4.08363, 38.71994], [-4.0836, 38.72046], [-4.08296, 38.72052], [-4.08246, 38.72105], [-4.08249, 38.72197], [-4.0821, 38.72122], [-4.07997, 38.72072], [-4.0791, 38.72147], [-4.07913, 38.72208], [-4.0788, 38.72272], [-4.0783, 38.72265], [-4.0776, 38.72288], [-4.07735, 38.72141], [-4.07839, 38.71979], [-4.07917, 38.71661], [-4.07909, 38.71504], [-4.07945, 38.71413], [-4.08025, 38.71332], [-4.08512, 38.71026], [-4.0874, 38.7102], [-4.08854, 38.70971]], [[-4.08038, 38.71906], [-4.07961, 38.71896], [-4.07913, 38.71923], [-4.07904, 38.71974], [-4.07941, 38.7202], [-4.08011, 38.72027], [-4.08056, 38.72004], [-4.08064, 38.71943], [-4.08038, 38.71906]], [[-4.08996, 38.71097], [-4.08983, 38.71107], [-4.08968, 38.71118], [-4.08988, 38.71121], [-4.08996, 38.71097]], [[-4.08211, 38.71435], [-4.08319, 38.71378], [-4.08354, 38.71335], [-4.08169, 38.71455], [-4.08122, 38.71522], [-4.08211, 38.71435]]], [[[-4.09299, 38.70993], [-4.09351, 38.71032], [-4.09116, 38.71711], [-4.09094, 38.71682], [-4.08997, 38.71636], [-4.09182, 38.71411], [-4.09277, 38.71123], [-4.09299, 38.70993]]], [[[-4.08516, 38.72298], [-4.08541, 38.72335], [-4.08715, 38.72433], [-4.08787, 38.72457], [-4.08824, 38.72444], [-4.08868, 38.72455], [-4.08837, 38.72548], [-4.08684, 38.72548], [-4.08508, 38.72464], [-4.08405, 38.72464], [-4.0831, 38.7249], [-4.08237, 38.72473], [-4.08267, 38.7244], [-4.08345, 38.72429], [-4.08388, 38.72443], [-4.08416, 38.7242], [-4.08467, 38.72413], [-4.08485, 38.723], [-4.08502, 38.72281], [-4.08516, 38.72298]]], [[[-4.09329, 38.72751], [-4.08878, 38.72682], [-4.08899, 38.7262], [-4.09056, 38.72609], [-4.09149, 38.72646], [-4.0921, 38.72643], [-4.09293, 38.72675], [-4.09386, 38.72685], [-4.09448, 38.72666], [-4.09519, 38.72591], [-4.09554, 38.72589], [-4.0949, 38.72762], [-4.09329, 38.72751]]], [[[-4.08693, 38.7279], [-4.08713, 38.72719], [-4.08776, 38.72727], [-4.08542, 38.73424], [-4.08533, 38.73391], [-4.08445, 38.73311], [-4.08471, 38.73291], [-4.08466, 38.73265], [-4.08524, 38.73284], [-4.08557, 38.73268], [-4.08551, 38.73238], [-4.085, 38.73215], [-4.08565, 38.73234], [-4.08593, 38.732], [-4.08528, 38.73166], [-4.08541, 38.73135], [-4.08524, 38.73113], [-4.08479, 38.7312], [-4.08456, 38.73092], [-4.08415, 38.73105], [-4.08354, 38.73088], [-4.08378, 38.73062], [-4.08363, 38.72819], [-4.08452, 38.72807], [-4.08466, 38.72778], [-4.08599, 38.72815], [-4.08674, 38.72816], [-4.08693, 38.7279]]], [[[-4.09268, 38.728], [-4.09521, 38.7283], [-4.095, 38.72879], [-4.09469, 38.72925], [-4.0944, 38.72958], [-4.09475, 38.72907], [-4.09441, 38.7288], [-4.09396, 38.7291], [-4.09222, 38.73162], [-4.08793, 38.73566], [-4.08691, 38.73518], [-4.086, 38.73506], [-4.0886, 38.72734], [-4.09268, 38.728]], [[-4.09015, 38.72929], [-4.0898, 38.73032], [-4.08929, 38.73182], [-4.09046, 38.73069], [-4.09128, 38.72947], [-4.09015, 38.72929]]], [[[-4.09072, 38.7369], [-4.08873, 38.73602], [-4.09277, 38.73224], [-4.09367, 38.73105], [-4.09362, 38.73075], [-4.09422, 38.72983], [-4.09436, 38.73011], [-4.09477, 38.7301], [-4.09565, 38.72896], [-4.09719, 38.73026], [-4.09883, 38.7311], [-4.09814, 38.73381], [-4.09692, 38.73697], [-4.09072, 38.7369]], [[-4.09441, 38.7333], [-4.09391, 38.73379], [-4.09218, 38.7354], [-4.09319, 38.73555], [-4.09529, 38.73548], [-4.09645, 38.73191], [-4.09584, 38.73153], [-4.09567, 38.73161], [-4.09441, 38.7333]]], [[[-4.08786, 38.7368], [-4.08827, 38.73644], [-4.08962, 38.73704], [-4.08755, 38.73706], [-4.08786, 38.7368]]], [[[-4.0784, 38.71433], [-4.07848, 38.71656], [-4.07826, 38.7177], [-4.07417, 38.71788], [-4.07299, 38.71852], [-4.07326, 38.72058], [-4.07519, 38.72061], [-4.07521, 38.72128], [-4.07542, 38.72152], [-4.07663, 38.72154], [-4.07699, 38.72343], [-4.0762, 38.72403], [-4.07651, 38.72521], [-4.07637, 38.72579], [-4.07424, 38.72632], [-4.07281, 38.72635], [-4.07206, 38.727], [-4.07037, 38.7276], [-4.07007, 38.72821], [-4.06448, 38.72826], [-4.06462, 38.72658], [-4.06513, 38.72499], [-4.06667, 38.72242], [-4.06839, 38.72082], [-4.0784, 38.71433]], [[-4.07346, 38.72232], [-4.0721, 38.72197], [-4.07123, 38.72112], [-4.0699, 38.722], [-4.06844, 38.72335], [-4.06706, 38.72578], [-4.06818, 38.72623], [-4.06875, 38.72627], [-4.07049, 38.72554], [-4.07168, 38.72473], [-4.07262, 38.72447], [-4.07286, 38.72342], [-4.07346, 38.72232]]], [[[-4.07796, 38.71881], [-4.07779, 38.71881], [-4.07777, 38.71836], [-4.07809, 38.71835], [-4.07796, 38.71881]]], [[[-4.07432, 38.72749], [-4.07426, 38.72788], [-4.07348, 38.7282], [-4.07076, 38.7282], [-4.07082, 38.72803], [-4.07246, 38.72744], [-4.07329, 38.72679], [-4.07395, 38.72686], [-4.07432, 38.72749]]], [[[-4.07362, 38.73394], [-4.07387, 38.73422], [-4.07427, 38.73409], [-4.07452, 38.73243], [-4.07684, 38.73222], [-4.07728, 38.73101], [-4.07757, 38.73103], [-4.07787, 38.73156], [-4.07859, 38.73168], [-4.07792, 38.73715], [-4.07636, 38.73671], [-4.07586, 38.73685], [-4.0756, 38.73717], [-4.07362, 38.73719], [-4.0736, 38.73608], [-4.07435, 38.73591], [-4.07477, 38.73502], [-4.07444, 38.73452], [-4.07358, 38.73449], [-4.07355, 38.73249], [-4.07383, 38.73247], [-4.07362, 38.73394]]], [[[-4.08225, 38.73503], [-4.08209, 38.73521], [-4.07894, 38.73507], [-4.07904, 38.73373], [-4.08153, 38.73373], [-4.08161, 38.73402], [-4.08189, 38.73415], [-4.08253, 38.73383], [-4.08275, 38.73413], [-4.08224, 38.73452], [-4.08225, 38.73503]]], [[[-4.08454, 38.7345], [-4.084, 38.73482], [-4.08388, 38.7347], [-4.08444, 38.73444], [-4.08454, 38.7345]]], [[[-4.08226, 38.73575], [-4.08495, 38.73564], [-4.08446, 38.73709], [-4.07861, 38.73714], [-4.07887, 38.73561], [-4.08226, 38.73575]]], [[[-4.08747, 38.73608], [-4.08622, 38.73707], [-4.08533, 38.73708], [-4.08582, 38.73561], [-4.08662, 38.73567], [-4.08747, 38.73608]]]]}, "properties": {"kind": "pv", "area_km2": 7.83, "mw": 391.7}}]}