{"type": "FeatureCollection", "features": [{"type": "Feature", "geometry": {"type": "MultiPolygon", "coordinates": [[[[4.35498, 49.14516], [4.35389, 49.14473], [4.35285, 49.14402], [4.35363, 49.14588], [4.35498, 49.14516]]], [[[4.35032, 49.1287], [4.35001, 49.12921], [4.35072, 49.12913], [4.35032, 49.1287]]], [[[4.37337, 49.14921], [4.37299, 49.15084], [4.37193, 49.15146], [4.37054, 49.15169], [4.35822, 49.14841], [4.35596, 49.14961], [4.36136, 49.15584], [4.36522, 49.15913], [4.37432, 49.16488], [4.37947, 49.1673], [4.39073, 49.17107], [4.39673, 49.1724], [4.40373, 49.1734], [4.40115, 49.16758], [4.39967, 49.16702], [4.39897, 49.16621], [4.39893, 49.16527], [4.39971, 49.16435], [4.39905, 49.16289], [4.39722, 49.16259], [4.39553, 49.16184], [4.39345, 49.15943], [4.39361, 49.15739], [4.39592, 49.15547], [4.39578, 49.15511], [4.39388, 49.15458], [4.39305, 49.1536], [4.39318, 49.15248], [4.39431, 49.15155], [4.39363, 49.14991], [4.38019, 49.14613], [4.37864, 49.1466], [4.37665, 49.14654], [4.37337, 49.14921]]], [[[4.38358, 49.14286], [4.38872, 49.14422], [4.38517, 49.14057], [4.38439, 49.13774], [4.38457, 49.13596], [4.38211, 49.1358], [4.37868, 49.13765], [4.37824, 49.13826], [4.38223, 49.14024], [4.38324, 49.14134], [4.38358, 49.14286]]], [[[4.39074, 49.13706], [4.39108, 49.13941], [4.39866, 49.14618], [4.39985, 49.14787], [4.4131, 49.15656], [4.42228, 49.16076], [4.44122, 49.1632], [4.44368, 49.161], [4.46476, 49.14792], [4.46774, 49.14693], [4.47472, 49.14635], [4.47775, 49.13916], [4.47874, 49.13089], [4.47831, 49.12675], [4.47561, 49.11865], [4.47055, 49.11105], [4.46333, 49.10425], [4.45423, 49.0985], [4.4436, 49.09403], [4.43184, 49.091], [4.41942, 49.08954], [4.40679, 49.08969], [4.39446, 49.09146], [4.38855, 49.09293], [4.37752, 49.09697], [4.37337, 49.09907], [4.36662, 49.10387], [4.37394, 49.10602], [4.37591, 49.10722], [4.37874, 49.10983], [4.38042, 49.11229], [4.38259, 49.11738], [4.38685, 49.11958], [4.3908, 49.12297], [4.39166, 49.1245], [4.39282, 49.12992], [4.39707, 49.1299], [4.4001, 49.13115], [4.40297, 49.13043], [4.40603, 49.13066], [4.40859, 49.13199], [4.40953, 49.13427], [4.41474, 49.13118], [4.41689, 49.13073], [4.41896, 49.13086], [4.42122, 49.13155], [4.42275, 49.13248], [4.42374, 49.13368], [4.42395, 49.13505], [4.42335, 49.13636], [4.42191, 49.1375], [4.4187, 49.13829], [4.41645, 49.13939], [4.41442, 49.1397], [4.41236, 49.13948], [4.41023, 49.13851], [4.40908, 49.13718], [4.4088, 49.1358], [4.40723, 49.13696], [4.40552, 49.13756], [4.40731, 49.13814], [4.40869, 49.13916], [4.40938, 49.14046], [4.40922, 49.14191], [4.4076, 49.14365], [4.40478, 49.1445], [4.40213, 49.14431], [4.39998, 49.14334], [4.39868, 49.14148], [4.39666, 49.14088], [4.39517, 49.13986], [4.39441, 49.13858], [4.39445, 49.13724], [4.39074, 49.13706]], [[4.456, 49.14087], [4.45511, 49.14206], [4.4532, 49.14313], [4.45121, 49.14353], [4.44914, 49.1434], [4.4473, 49.14276], [4.44592, 49.14166], [4.44531, 49.14034], [4.44551, 49.13898], [4.44649, 49.13777], [4.44822, 49.13685], [4.45027, 49.13644], [4.45234, 49.13657], [4.45418, 49.13721], [4.45553, 49.13828], [4.45614, 49.13955], [4.456, 49.14087]]], [[[4.37679, 49.1185], [4.37462, 49.11343], [4.37111, 49.10965], [4.36226, 49.10684], [4.35988, 49.11047], [4.36068, 49.1127], [4.37077, 49.11389], [4.37316, 49.1152], [4.37494, 49.11791], [4.37679, 49.1185]]], [[[4.40444, 49.16122], [4.41009, 49.17388], [4.42182, 49.17371], [4.42806, 49.17302], [4.44009, 49.17047], [4.44677, 49.16821], [4.41981, 49.16487], [4.40889, 49.15988], [4.405, 49.15741], [4.40534, 49.15951], [4.40444, 49.16122]]], [[[4.4475, 49.16438], [4.45413, 49.1649], [4.46075, 49.16104], [4.46858, 49.15453], [4.47194, 49.15061], [4.46851, 49.15117], [4.4475, 49.16438]]]]}, "properties": {"kind": "windland", "area_km2": 49.97}}, {"type": "Feature", "geometry": {"type": "Point", "coordinates": [4.41018, 49.13268]}, "properties": {"kind": "turbine", "i": 0, "mw": 6.0, "hub_m": 120.0, "rotor_m": 150.0}}, {"type": "Feature", "geometry": {"type": "Point", "coordinates": [4.4149, 49.12277]}, "properties": {"kind": "turbine", "i": 1, "mw": 6.0, "hub_m": 120.0, "rotor_m": 150.0}}, {"type": "Feature", "geometry": {"type": "Point", "coordinates": [4.42538, 49.13907]}, "properties": {"kind": "turbine", "i": 2, "mw": 6.0, "hub_m": 120.0, "rotor_m": 150.0}}, {"type": "Feature", "geometry": {"type": "Point", "coordinates": [4.4301, 49.12915]}, "properties": {"kind": "turbine", "i": 3, "mw": 6.0, "hub_m": 120.0, "rotor_m": 150.0}}, {"type": "Feature", "geometry": {"type": "Point", "coordinates": [4.41046, 49.14254]}, "properties": {"kind": "turbine", "i": 4, "mw": 6.0, "hub_m": 120.0, "rotor_m": 150.0}}, {"type": "Feature", "geometry": {"type": "Point", "coordinates": [4.39508, 49.12958]}, "properties": {"kind": "turbine", "i": 5, "mw": 6.0, "hub_m": 120.0, "rotor_m": 150.0}}, {"type": "Feature", "geometry": {"type": "Point", "coordinates": [4.3998, 49.11967]}, "properties": {"kind": "turbine", "i": 6, "mw": 6.0, "hub_m": 120.0, "rotor_m": 150.0}}, {"type": "Feature", "geometry": {"type": "Point", "coordinates": [4.43482, 49.11924]}, "properties": {"kind": "turbine", "i": 7, "mw": 6.0, "hub_m": 120.0, "rotor_m": 150.0}}, {"type": "Feature", "geometry": {"type": "Point", "coordinates": [4.4404, 49.13888]}, "properties": {"kind": "turbine", "i": 8, "mw": 6.0, "hub_m": 120.0, "rotor_m": 150.0}}, {"type": "Feature", "geometry": {"type": "Point", "coordinates": [4.42566, 49.14892]}, "properties": {"kind": "turbine", "i": 9, "mw": 6.0, "hub_m": 120.0, "rotor_m": 150.0}}, {"type": "Feature", "geometry": {"type": "Point", "coordinates": [4.41963, 49.11286]}, "properties": {"kind": "turbine", "i": 10, "mw": 6.0, "hub_m": 120.0, "rotor_m": 150.0}}, {"type": "Feature", "geometry": {"type": "Point", "coordinates": [4.44511, 49.12897]}, "properties": {"kind": "turbine", "i": 11, "mw": 6.0, "hub_m": 120.0, "rotor_m": 150.0}}, {"type": "Feature", "geometry": {"type": "Point", "coordinates": [4.41074, 49.15239]}, "properties": {"kind": "turbine", "i": 12, "mw": 6.0, "hub_m": 120.0, "rotor_m": 150.0}}, {"type": "Feature", "geometry": {"type": "Point", "coordinates": [4.38544, 49.14284]}, "properties": {"kind": "turbine", "i": 13, "mw": 6.0, "hub_m": 120.0, "rotor_m": 150.0}}, {"type": "Feature", "geometry": {"type": "Point", "coordinates": [4.40453, 49.10976]}, "properties": {"kind": "turbine", "i": 14, "mw": 6.0, "hub_m": 120.0, "rotor_m": 150.0}}, {"type": "Feature", "geometry": {"type": "Point", "coordinates": [4.44068, 49.14873]}, "properties": {"kind": "turbine", "i": 15, "mw": 6.0, "hub_m": 120.0, "rotor_m": 150.0}}, {"type": "Feature", "geometry": {"type": "Point", "coordinates": [4.3847, 49.11657]}, "properties": {"kind": "turbine", "i": 16, "mw": 6.0, "hub_m": 120.0, "rotor_m": 150.0}}, {"type": "Feature", "geometry": {"type": "Point", "coordinates": [4.44983, 49.11905]}, "properties": {"kind": "turbine", "i": 17, "mw": 6.0, "hub_m": 120.0, "rotor_m": 150.0}}, {"type": "Feature", "geometry": {"type": "Point", "coordinates": [4.43954, 49.10933]}, "properties": {"kind": "turbine", "i": 18, "mw": 6.0, "hub_m": 120.0, "rotor_m": 150.0}}, {"type": "Feature", "geometry": {"type": "Point", "coordinates": [4.42595, 49.15877]}, "properties": {"kind": "turbine", "i": 19, "mw": 6.0, "hub_m": 120.0, "rotor_m": 150.0}}, {"type": "Feature", "geometry": {"type": "Point", "coordinates": [4.42435, 49.10295]}, "properties": {"kind": "turbine", "i": 20, "mw": 6.0, "hub_m": 120.0, "rotor_m": 150.0}}, {"type": "Feature", "geometry": {"type": "Point", "coordinates": [4.38943, 49.10666]}, "properties": {"kind": "turbine", "i": 21, "mw": 6.0, "hub_m": 120.0, "rotor_m": 150.0}}, {"type": "Feature", "geometry": {"type": "Point", "coordinates": [4.46012, 49.12878]}, "properties": {"kind": "turbine", "i": 22, "mw": 6.0, "hub_m": 120.0, "rotor_m": 150.0}}, {"type": "Feature", "geometry": {"type": "Point", "coordinates": [4.3807, 49.15275]}, "properties": {"kind": "turbine", "i": 23, "mw": 6.0, "hub_m": 120.0, "rotor_m": 150.0}}, {"type": "Feature", "geometry": {"type": "Point", "coordinates": [4.41102, 49.16224]}, "properties": {"kind": "turbine", "i": 24, "mw": 6.0, "hub_m": 120.0, "rotor_m": 150.0}}, {"type": "Feature", "geometry": {"type": "Point", "coordinates": [4.46041, 49.13863]}, "properties": {"kind": "turbine", "i": 25, "mw": 6.0, "hub_m": 120.0, "rotor_m": 150.0}}, {"type": "Feature", "geometry": {"type": "Point", "coordinates": [4.4557, 49.14854]}, "properties": {"kind": "turbine", "i": 26, "mw": 6.0, "hub_m": 120.0, "rotor_m": 150.0}}, {"type": "Feature", "geometry": {"type": "Point", "coordinates": [4.40925, 49.09985]}, "properties": {"kind": "turbine", "i": 27, "mw": 6.0, "hub_m": 120.0, "rotor_m": 150.0}}, {"type": "Feature", "geometry": {"type": "Point", "coordinates": [4.44097, 49.15858]}, "properties": {"kind": "turbine", "i": 28, "mw": 6.0, "hub_m": 120.0, "rotor_m": 150.0}}, {"type": "Feature", "geometry": {"type": "Point", "coordinates": [4.396, 49.16242]}, "properties": {"kind": "turbine", "i": 29, "mw": 6.0, "hub_m": 120.0, "rotor_m": 150.0}}, {"type": "Feature", "geometry": {"type": "Point", "coordinates": [4.45454, 49.10914]}, "properties": {"kind": "turbine", "i": 30, "mw": 6.0, "hub_m": 120.0, "rotor_m": 150.0}}, {"type": "Feature", "geometry": {"type": "Point", "coordinates": [4.46484, 49.11886]}, "properties": {"kind": "turbine", "i": 31, "mw": 6.0, "hub_m": 120.0, "rotor_m": 150.0}}, {"type": "Feature", "geometry": {"type": "Point", "coordinates": [4.39416, 49.09675]}, "properties": {"kind": "turbine", "i": 32, "mw": 6.0, "hub_m": 120.0, "rotor_m": 150.0}}]}