{"type": "FeatureCollection", "features": [{"type": "Feature", "geometry": {"type": "MultiPolygon", "coordinates": [[[[4.40257, 49.13046], [4.40554, 49.13056], [4.40789, 49.13145], [4.4091, 49.1326], [4.40953, 49.13427], [4.41387, 49.13157], [4.41637, 49.13078], [4.41946, 49.13097], [4.4224, 49.13222], [4.42395, 49.13436], [4.42335, 49.13636], [4.42149, 49.1377], [4.4187, 49.13829], [4.41657, 49.13935], [4.4201, 49.13851], [4.42286, 49.13711], [4.42489, 49.13525], [4.426, 49.13308], [4.42592, 49.13003], [4.42406, 49.12724], [4.42072, 49.12513], [4.4164, 49.12402], [4.41176, 49.12408], [4.40751, 49.12529], [4.40429, 49.12749], [4.40286, 49.12957], [4.40257, 49.13046]]], [[[4.41183, 49.13932], [4.40937, 49.13765], [4.4088, 49.1358], [4.40618, 49.13739], [4.40889, 49.13865], [4.41183, 49.13932]]]]}, "properties": {"kind": "windland", "area_km2": 1.28}}, {"type": "Feature", "geometry": {"type": "Point", "coordinates": [4.41018, 49.13268]}, "properties": {"kind": "turbine", "i": 0, "mw": 6.0, "hub_m": 120.0, "rotor_m": 150.0}}]}