{"type": "FeatureCollection", "features": [{"type": "Feature", "geometry": {"type": "MultiPolygon", "coordinates": [[[[4.37337, 49.14921], [4.37336, 49.15033], [4.37262, 49.15113], [4.37139, 49.15161], [4.3697, 49.1516], [4.37685, 49.15719], [4.38515, 49.1615], [4.38974, 49.16323], [4.39887, 49.1656], [4.39971, 49.16435], [4.39905, 49.16289], [4.39722, 49.16259], [4.39553, 49.16184], [4.39345, 49.15943], [4.39361, 49.15739], [4.39592, 49.15547], [4.39578, 49.15511], [4.39388, 49.15458], [4.39305, 49.1536], [4.39318, 49.15248], [4.39431, 49.15155], [4.39363, 49.14991], [4.38019, 49.14613], [4.37864, 49.1466], [4.37665, 49.14654], [4.37337, 49.14921]]], [[[4.38358, 49.14286], [4.38872, 49.14422], [4.38517, 49.14057], [4.38439, 49.13774], [4.38457, 49.13596], [4.38211, 49.1358], [4.37868, 49.13765], [4.37824, 49.13826], [4.38223, 49.14024], [4.38324, 49.14134], [4.38358, 49.14286]]], [[[4.39074, 49.13706], [4.39108, 49.13941], [4.39866, 49.14618], [4.39985, 49.14787], [4.4131, 49.15656], [4.42228, 49.16076], [4.43949, 49.16297], [4.44268, 49.16176], [4.45912, 49.15137], [4.46236, 49.14779], [4.46454, 49.14462], [4.46622, 49.14133], [4.46808, 49.1345], [4.46788, 49.12756], [4.46562, 49.12078], [4.46138, 49.11442], [4.45534, 49.10873], [4.44772, 49.10391], [4.43883, 49.10017], [4.42899, 49.09763], [4.41858, 49.09641], [4.40802, 49.09654], [4.39769, 49.09802], [4.388, 49.10079], [4.38351, 49.10263], [4.37565, 49.10702], [4.37874, 49.10983], [4.38017, 49.11185], [4.38259, 49.11738], [4.3863, 49.11921], [4.3905, 49.12258], [4.39166, 49.1245], [4.39282, 49.12992], [4.39707, 49.1299], [4.4001, 49.13115], [4.40297, 49.13043], [4.40603, 49.13066], [4.40859, 49.13199], [4.40953, 49.13427], [4.41474, 49.13118], [4.41689, 49.13073], [4.41896, 49.13086], [4.42122, 49.13155], [4.42275, 49.13248], [4.42374, 49.13368], [4.42395, 49.13505], [4.42335, 49.13636], [4.42191, 49.1375], [4.4187, 49.13829], [4.41645, 49.13939], [4.41442, 49.1397], [4.41236, 49.13948], [4.41023, 49.13851], [4.40908, 49.13718], [4.4088, 49.1358], [4.40723, 49.13696], [4.40552, 49.13756], [4.40731, 49.13814], [4.40869, 49.13916], [4.40938, 49.14046], [4.40922, 49.14191], [4.4076, 49.14365], [4.40478, 49.1445], [4.40213, 49.14431], [4.39998, 49.14334], [4.39868, 49.14148], [4.39666, 49.14088], [4.39517, 49.13986], [4.39441, 49.13858], [4.39445, 49.13724], [4.39074, 49.13706]], [[4.456, 49.14087], [4.45511, 49.14206], [4.4532, 49.14313], [4.45121, 49.14353], [4.44914, 49.1434], [4.4473, 49.14276], [4.44592, 49.14166], [4.44531, 49.14034], [4.44551, 49.13898], [4.44649, 49.13777], [4.44822, 49.13685], [4.45027, 49.13644], [4.45234, 49.13657], [4.45418, 49.13721], [4.45553, 49.13828], [4.45614, 49.13955], [4.456, 49.14087]]], [[[4.37679, 49.1185], [4.37462, 49.11343], [4.37162, 49.11008], [4.36796, 49.11365], [4.36977, 49.11369], [4.3717, 49.11422], [4.37423, 49.11638], [4.37494, 49.11791], [4.37679, 49.1185]]], [[[4.40444, 49.16122], [4.4069, 49.16673], [4.41001, 49.16699], [4.42059, 49.16686], [4.4276, 49.16597], [4.42114, 49.16514], [4.4185, 49.16446], [4.40883, 49.15984], [4.405, 49.15741], [4.40534, 49.15951], [4.40444, 49.16122]]]]}, "properties": {"kind": "windland", "area_km2": 35.0}}, {"type": "Feature", "geometry": {"type": "Point", "coordinates": [4.41018, 49.13268]}, "properties": {"kind": "turbine", "i": 0, "mw": 6.0, "hub_m": 120.0, "rotor_m": 150.0}}, {"type": "Feature", "geometry": {"type": "Point", "coordinates": [4.4149, 49.12277]}, "properties": {"kind": "turbine", "i": 1, "mw": 6.0, "hub_m": 120.0, "rotor_m": 150.0}}, {"type": "Feature", "geometry": {"type": "Point", "coordinates": [4.42538, 49.13907]}, "properties": {"kind": "turbine", "i": 2, "mw": 6.0, "hub_m": 120.0, "rotor_m": 150.0}}, {"type": "Feature", "geometry": {"type": "Point", "coordinates": [4.4301, 49.12915]}, "properties": {"kind": "turbine", "i": 3, "mw": 6.0, "hub_m": 120.0, "rotor_m": 150.0}}, {"type": "Feature", "geometry": {"type": "Point", "coordinates": [4.41046, 49.14254]}, "properties": {"kind": "turbine", "i": 4, "mw": 6.0, "hub_m": 120.0, "rotor_m": 150.0}}, {"type": "Feature", "geometry": {"type": "Point", "coordinates": [4.39508, 49.12958]}, "properties": {"kind": "turbine", "i": 5, "mw": 6.0, "hub_m": 120.0, "rotor_m": 150.0}}, {"type": "Feature", "geometry": {"type": "Point", "coordinates": [4.3998, 49.11967]}, "properties": {"kind": "turbine", "i": 6, "mw": 6.0, "hub_m": 120.0, "rotor_m": 150.0}}, {"type": "Feature", "geometry": {"type": "Point", "coordinates": [4.43482, 49.11924]}, "properties": {"kind": "turbine", "i": 7, "mw": 6.0, "hub_m": 120.0, "rotor_m": 150.0}}, {"type": "Feature", "geometry": {"type": "Point", "coordinates": [4.4404, 49.13888]}, "properties": {"kind": "turbine", "i": 8, "mw": 6.0, "hub_m": 120.0, "rotor_m": 150.0}}, {"type": "Feature", "geometry": {"type": "Point", "coordinates": [4.42566, 49.14892]}, "properties": {"kind": "turbine", "i": 9, "mw": 6.0, "hub_m": 120.0, "rotor_m": 150.0}}, {"type": "Feature", "geometry": {"type": "Point", "coordinates": [4.41963, 49.11286]}, "properties": {"kind": "turbine", "i": 10, "mw": 6.0, "hub_m": 120.0, "rotor_m": 150.0}}, {"type": "Feature", "geometry": {"type": "Point", "coordinates": [4.44511, 49.12897]}, "properties": {"kind": "turbine", "i": 11, "mw": 6.0, "hub_m": 120.0, "rotor_m": 150.0}}, {"type": "Feature", "geometry": {"type": "Point", "coordinates": [4.41074, 49.15239]}, "properties": {"kind": "turbine", "i": 12, "mw": 6.0, "hub_m": 120.0, "rotor_m": 150.0}}, {"type": "Feature", "geometry": {"type": "Point", "coordinates": [4.38544, 49.14284]}, "properties": {"kind": "turbine", "i": 13, "mw": 6.0, "hub_m": 120.0, "rotor_m": 150.0}}, {"type": "Feature", "geometry": {"type": "Point", "coordinates": [4.40453, 49.10976]}, "properties": {"kind": "turbine", "i": 14, "mw": 6.0, "hub_m": 120.0, "rotor_m": 150.0}}, {"type": "Feature", "geometry": {"type": "Point", "coordinates": [4.44068, 49.14873]}, "properties": {"kind": "turbine", "i": 15, "mw": 6.0, "hub_m": 120.0, "rotor_m": 150.0}}, {"type": "Feature", "geometry": {"type": "Point", "coordinates": [4.3847, 49.11657]}, "properties": {"kind": "turbine", "i": 16, "mw": 6.0, "hub_m": 120.0, "rotor_m": 150.0}}, {"type": "Feature", "geometry": {"type": "Point", "coordinates": [4.44983, 49.11905]}, "properties": {"kind": "turbine", "i": 17, "mw": 6.0, "hub_m": 120.0, "rotor_m": 150.0}}, {"type": "Feature", "geometry": {"type": "Point", "coordinates": [4.43954, 49.10933]}, "properties": {"kind": "turbine", "i": 18, "mw": 6.0, "hub_m": 120.0, "rotor_m": 150.0}}, {"type": "Feature", "geometry": {"type": "Point", "coordinates": [4.42595, 49.15877]}, "properties": {"kind": "turbine", "i": 19, "mw": 6.0, "hub_m": 120.0, "rotor_m": 150.0}}, {"type": "Feature", "geometry": {"type": "Point", "coordinates": [4.42435, 49.10295]}, "properties": {"kind": "turbine", "i": 20, "mw": 6.0, "hub_m": 120.0, "rotor_m": 150.0}}, {"type": "Feature", "geometry": {"type": "Point", "coordinates": [4.38943, 49.10666]}, "properties": {"kind": "turbine", "i": 21, "mw": 6.0, "hub_m": 120.0, "rotor_m": 150.0}}, {"type": "Feature", "geometry": {"type": "Point", "coordinates": [4.46012, 49.12878]}, "properties": {"kind": "turbine", "i": 22, "mw": 6.0, "hub_m": 120.0, "rotor_m": 150.0}}, {"type": "Feature", "geometry": {"type": "Point", "coordinates": [4.3807, 49.15275]}, "properties": {"kind": "turbine", "i": 23, "mw": 6.0, "hub_m": 120.0, "rotor_m": 150.0}}]}