{"type": "FeatureCollection", "features": [{"type": "Feature", "geometry": {"type": "MultiPolygon", "coordinates": [[[[4.28393, 49.16145], [4.29666, 49.1519], [4.31478, 49.14233], [4.31038, 49.13924], [4.3075, 49.13915], [4.29429, 49.13716], [4.2896, 49.13694], [4.28334, 49.13758], [4.27684, 49.13953], [4.27932, 49.15096], [4.28284, 49.15955], [4.28393, 49.16145]]], [[[4.30931, 49.15016], [4.31062, 49.15137], [4.31046, 49.15285], [4.31371, 49.15352], [4.31558, 49.15516], [4.31575, 49.15724], [4.31418, 49.15898], [4.3124, 49.15969], [4.31035, 49.15991], [4.3069, 49.15903], [4.30564, 49.15795], [4.3051, 49.15664], [4.30609, 49.15432], [4.30371, 49.1531], [4.30038, 49.15491], [4.29794, 49.15675], [4.2996, 49.15714], [4.30061, 49.15804], [4.30054, 49.16155], [4.30653, 49.16333], [4.30987, 49.16384], [4.31103, 49.16439], [4.31171, 49.16579], [4.31082, 49.16709], [4.30963, 49.16758], [4.30823, 49.16766], [4.30026, 49.16574], [4.2996, 49.16792], [4.29852, 49.16854], [4.29694, 49.16876], [4.29267, 49.16766], [4.28748, 49.16466], [4.2863, 49.16556], [4.29363, 49.17584], [4.29845, 49.18091], [4.3054, 49.17566], [4.30539, 49.17475], [4.30605, 49.17392], [4.30722, 49.17339], [4.30859, 49.17328], [4.3115, 49.17107], [4.31195, 49.16878], [4.31468, 49.16644], [4.31796, 49.16548], [4.3193, 49.16469], [4.32116, 49.16457], [4.32309, 49.16357], [4.33008, 49.16114], [4.32814, 49.16002], [4.32719, 49.15842], [4.32735, 49.15705], [4.32875, 49.15545], [4.32892, 49.15414], [4.32467, 49.1507], [4.32238, 49.15014], [4.32069, 49.14906], [4.31982, 49.14746], [4.32013, 49.14568], [4.31827, 49.14544], [4.30931, 49.15016]]], [[[4.33028, 49.1491], [4.3332, 49.15148], [4.33618, 49.15165], [4.3394, 49.15126], [4.3426, 49.15173], [4.34437, 49.15238], [4.35005, 49.14784], [4.35498, 49.14516], [4.35285, 49.14402], [4.35031, 49.14554], [4.34777, 49.14601], [4.34622, 49.14693], [4.34477, 49.14708], [4.34239, 49.14649], [4.33857, 49.14478], [4.33517, 49.14419], [4.3313, 49.14291], [4.32907, 49.14429], [4.33086, 49.14626], [4.33028, 49.1491]]], [[[4.33773, 49.1366], [4.33951, 49.13616], [4.33826, 49.13567], [4.33773, 49.1366]]], [[[4.33689, 49.13069], [4.33909, 49.12953], [4.34123, 49.12838], [4.33532, 49.13008], [4.33689, 49.13069]]], [[[4.35008, 49.12865], [4.34915, 49.12915], [4.34816, 49.12968], [4.35072, 49.12913], [4.35008, 49.12865]]], [[[4.34427, 49.13173], [4.34379, 49.13199], [4.34297, 49.13242], [4.34397, 49.13224], [4.34427, 49.13173]]], [[[4.37337, 49.14921], [4.37344, 49.15014], [4.37282, 49.15099], [4.37167, 49.15154], [4.37025, 49.15168], [4.35822, 49.14841], [4.35424, 49.15055], [4.34723, 49.15614], [4.34664, 49.15957], [4.34692, 49.16217], [4.34512, 49.16448], [4.34334, 49.1652], [4.34127, 49.16542], [4.33934, 49.16512], [4.33579, 49.16524], [4.33299, 49.1645], [4.32621, 49.16685], [4.32364, 49.16824], [4.32351, 49.1704], [4.32143, 49.17307], [4.31878, 49.17414], [4.31542, 49.174], [4.30749, 49.17996], [4.3085, 49.18058], [4.30898, 49.18146], [4.30813, 49.18302], [4.30605, 49.18358], [4.3036, 49.1829], [4.30182, 49.18426], [4.30907, 49.19044], [4.31451, 49.19424], [4.31617, 49.19379], [4.31834, 49.19375], [4.32329, 49.19507], [4.33191, 49.19408], [4.34493, 49.19321], [4.34595, 49.19241], [4.34729, 49.19208], [4.35067, 49.19273], [4.37524, 49.19024], [4.37606, 49.18899], [4.37783, 49.18841], [4.37977, 49.1887], [4.38088, 49.18957], [4.39821, 49.18751], [4.39888, 49.1864], [4.40059, 49.18574], [4.40255, 49.18594], [4.40382, 49.18684], [4.40861, 49.18626], [4.40926, 49.1856], [4.40757, 49.18188], [4.40592, 49.18155], [4.40476, 49.18049], [4.40478, 49.17937], [4.40597, 49.17834], [4.40115, 49.16758], [4.39967, 49.16702], [4.39897, 49.16621], [4.39893, 49.16527], [4.39971, 49.16435], [4.39905, 49.16289], [4.39722, 49.16259], [4.39553, 49.16184], [4.39345, 49.15943], [4.39361, 49.15739], [4.39592, 49.15547], [4.39578, 49.15511], [4.39388, 49.15458], [4.39305, 49.1536], [4.39318, 49.15248], [4.39431, 49.15155], [4.39363, 49.14991], [4.38019, 49.14613], [4.37864, 49.1466], [4.37665, 49.14654], [4.37337, 49.14921]]], [[[4.38358, 49.14286], [4.38872, 49.14422], [4.38517, 49.14057], [4.38439, 49.13774], [4.38457, 49.13596], [4.38211, 49.1358], [4.37868, 49.13765], [4.37824, 49.13826], [4.38223, 49.14024], [4.38324, 49.14134], [4.38358, 49.14286]]], [[[4.39074, 49.13706], [4.39108, 49.13941], [4.39866, 49.14618], [4.39985, 49.14787], [4.4131, 49.15656], [4.42228, 49.16076], [4.44122, 49.1632], [4.44368, 49.161], [4.4652, 49.14771], [4.46741, 49.14698], [4.47539, 49.14629], [4.48015, 49.14528], [4.48457, 49.14209], [4.48474, 49.13663], [4.48601, 49.13453], [4.50529, 49.12579], [4.50745, 49.12428], [4.50948, 49.12192], [4.50938, 49.12084], [4.51001, 49.11948], [4.50219, 49.1156], [4.49819, 49.11167], [4.49534, 49.11123], [4.49367, 49.11053], [4.49134, 49.10805], [4.48509, 49.10396], [4.48292, 49.10166], [4.48061, 49.10017], [4.47984, 49.09784], [4.4812, 49.09428], [4.48325, 49.0929], [4.48658, 49.09211], [4.4618, 49.06696], [4.45798, 49.06875], [4.45511, 49.069], [4.45336, 49.06864], [4.45169, 49.06777], [4.45032, 49.06572], [4.37705, 49.09681], [4.36662, 49.10387], [4.37394, 49.10602], [4.37591, 49.10722], [4.37874, 49.10983], [4.38042, 49.11229], [4.38259, 49.11738], [4.38685, 49.11958], [4.3908, 49.12297], [4.39166, 49.1245], [4.39282, 49.12992], [4.39707, 49.1299], [4.4001, 49.13115], [4.40297, 49.13043], [4.40603, 49.13066], [4.40859, 49.13199], [4.40953, 49.13427], [4.41474, 49.13118], [4.41637, 49.13078], [4.41846, 49.13078], [4.42077, 49.13138], [4.4224, 49.13222], [4.42395, 49.13436], [4.42357, 49.13605], [4.42191, 49.1375], [4.41494, 49.13967], [4.41286, 49.13958], [4.41059, 49.13876], [4.40908, 49.13718], [4.4088, 49.1358], [4.40723, 49.13696], [4.40552, 49.13756], [4.40731, 49.13814], [4.40869, 49.13916], [4.40938, 49.14046], [4.40922, 49.14191], [4.4076, 49.14365], [4.40478, 49.1445], [4.40213, 49.14431], [4.39998, 49.14334], [4.39868, 49.14148], [4.39666, 49.14088], [4.39517, 49.13986], [4.39441, 49.13858], [4.39445, 49.13724], [4.39074, 49.13706]], [[4.456, 49.14087], [4.45511, 49.14206], [4.4532, 49.14313], [4.45121, 49.14353], [4.44914, 49.1434], [4.4473, 49.14276], [4.44592, 49.14166], [4.44531, 49.14034], [4.44551, 49.13898], [4.44649, 49.13777], [4.44822, 49.13685], [4.45027, 49.13644], [4.45234, 49.13657], [4.45418, 49.13721], [4.45553, 49.13828], [4.45614, 49.13955], [4.456, 49.14087]]], [[[4.37679, 49.1185], [4.37462, 49.11343], [4.37111, 49.10965], [4.36208, 49.10678], [4.35988, 49.11047], [4.36068, 49.1127], [4.37077, 49.11389], [4.37316, 49.1152], [4.37494, 49.11791], [4.37679, 49.1185]]], [[[4.35432, 49.1118], [4.35178, 49.11107], [4.35001, 49.10936], [4.34993, 49.10661], [4.35176, 49.10472], [4.35063, 49.10154], [4.35044, 49.09751], [4.3483, 49.09683], [4.34362, 49.09923], [4.3427, 49.10128], [4.33994, 49.10309], [4.338, 49.10377], [4.336, 49.10389], [4.33004, 49.10879], [4.32988, 49.1102], [4.3288, 49.11167], [4.3246, 49.11496], [4.32235, 49.1159], [4.3218, 49.12098], [4.32482, 49.12149], [4.32695, 49.12298], [4.32746, 49.12499], [4.32638, 49.12686], [4.33235, 49.12666], [4.3394, 49.12469], [4.34797, 49.12404], [4.34884, 49.12266], [4.35102, 49.12132], [4.35199, 49.11983], [4.34973, 49.1181], [4.34959, 49.1157], [4.35179, 49.11382], [4.35484, 49.11325], [4.35432, 49.1118]]], [[[4.35645, 49.1009], [4.35718, 49.103], [4.35953, 49.10356], [4.36039, 49.10247], [4.36817, 49.0969], [4.37391, 49.0934], [4.43443, 49.06769], [4.4268, 49.06651], [4.42469, 49.06575], [4.42299, 49.06606], [4.41165, 49.07123], [4.41297, 49.0731], [4.41296, 49.07481], [4.41083, 49.07735], [4.40946, 49.07802], [4.40749, 49.07803], [4.40359, 49.07665], [4.40168, 49.07723], [4.39934, 49.0786], [4.39609, 49.07892], [4.39386, 49.07852], [4.39216, 49.07761], [4.38819, 49.07704], [4.38514, 49.07873], [4.38174, 49.07882], [4.37855, 49.07961], [4.37708, 49.08132], [4.37367, 49.08228], [4.3728, 49.08344], [4.37018, 49.08442], [4.36816, 49.08635], [4.36121, 49.08728], [4.36067, 49.08933], [4.36094, 49.09083], [4.36388, 49.09059], [4.36667, 49.09148], [4.36825, 49.093], [4.36836, 49.09504], [4.36672, 49.09682], [4.36331, 49.09831], [4.3594, 49.09865], [4.35632, 49.09753], [4.35645, 49.1009]]], [[[4.47509, 49.06624], [4.47232, 49.06653], [4.47029, 49.06753], [4.48689, 49.08456], [4.48882, 49.08311], [4.49192, 49.08239], [4.49484, 49.08287], [4.497, 49.08436], [4.49755, 49.08631], [4.49669, 49.08787], [4.4945, 49.08924], [4.49187, 49.08966], [4.49449, 49.09234], [4.49732, 49.09324], [4.50018, 49.09571], [4.50154, 49.0982], [4.5016, 49.09964], [4.51799, 49.11644], [4.5207, 49.11593], [4.5258, 49.11622], [4.52642, 49.11549], [4.52066, 49.10118], [4.51234, 49.09053], [4.51041, 49.08907], [4.50018, 49.08354], [4.48444, 49.06896], [4.48131, 49.06755], [4.47509, 49.06624]]], [[[4.53869, 49.09262], [4.539, 49.09424], [4.53997, 49.09432], [4.53869, 49.09262]]], [[[4.54343, 49.09995], [4.54156, 49.10141], [4.5436, 49.10423], [4.54379, 49.10559], [4.54006, 49.11338], [4.54338, 49.11353], [4.54616, 49.11504], [4.55006, 49.11575], [4.54917, 49.11229], [4.54561, 49.1037], [4.54343, 49.09995]]], [[[4.53199, 49.11409], [4.53388, 49.11464], [4.5343, 49.11254], [4.53786, 49.10525], [4.53519, 49.10149], [4.53346, 49.10024], [4.53274, 49.09866], [4.5335, 49.09634], [4.53285, 49.09199], [4.53442, 49.08708], [4.52756, 49.0799], [4.51928, 49.07286], [4.50999, 49.06639], [4.49978, 49.06055], [4.49458, 49.05812], [4.49135, 49.0589], [4.48822, 49.05828], [4.47963, 49.06302], [4.48475, 49.06437], [4.48862, 49.06625], [4.50467, 49.08105], [4.51434, 49.0862], [4.51724, 49.08841], [4.52604, 49.0996], [4.53199, 49.11409]]], [[[4.44432, 49.05804], [4.44595, 49.05799], [4.44625, 49.05769], [4.44432, 49.05804]]], [[[4.44876, 49.05644], [4.44874, 49.0564], [4.4484, 49.05654], [4.44876, 49.05644]]], [[[4.45864, 49.05424], [4.45835, 49.05501], [4.45902, 49.05569], [4.46217, 49.05608], [4.46474, 49.05741], [4.46579, 49.05859], [4.46607, 49.05976], [4.46778, 49.05871], [4.47047, 49.05817], [4.47473, 49.05849], [4.47742, 49.05926], [4.48589, 49.05432], [4.48075, 49.05238], [4.47841, 49.05193], [4.47322, 49.0537], [4.46761, 49.05314], [4.46321, 49.05393], [4.46046, 49.05347], [4.45864, 49.05424]]], [[[4.42064, 49.05766], [4.42106, 49.05724], [4.41864, 49.05697], [4.41697, 49.05623], [4.40114, 49.06056], [4.40801, 49.06051], [4.42064, 49.05766]]], [[[4.43005, 49.05266], [4.43333, 49.05605], [4.43453, 49.05614], [4.4473, 49.05101], [4.44504, 49.04869], [4.43005, 49.05266]]], [[[4.45083, 49.04729], [4.45302, 49.04956], [4.46472, 49.04734], [4.45756, 49.04576], [4.45083, 49.04729]]], [[[4.4474, 49.04396], [4.44775, 49.04387], [4.44724, 49.0438], [4.4474, 49.04396]]], [[[4.44177, 49.04533], [4.43908, 49.04256], [4.42766, 49.04156], [4.42618, 49.04739], [4.42659, 49.04904], [4.42682, 49.04932], [4.44177, 49.04533]]], [[[4.41577, 49.05231], [4.41775, 49.05074], [4.42094, 49.05014], [4.42031, 49.04722], [4.42174, 49.04129], [4.41173, 49.04109], [4.4057, 49.04136], [4.4038, 49.04252], [4.40175, 49.0432], [4.40095, 49.0449], [4.39942, 49.04607], [4.40115, 49.04817], [4.40272, 49.04899], [4.40374, 49.05019], [4.40399, 49.05155], [4.40337, 49.05304], [4.40123, 49.0545], [4.3974, 49.05509], [4.39447, 49.05444], [4.39234, 49.05287], [4.39123, 49.05377], [4.39243, 49.05508], [4.39279, 49.05646], [4.39248, 49.05782], [4.39154, 49.05896], [4.41577, 49.05231]]], [[[4.3811, 49.04515], [4.38291, 49.04392], [4.38264, 49.04355], [4.38009, 49.04401], [4.3811, 49.04515]]], [[[4.32405, 49.06318], [4.32563, 49.06478], [4.3257, 49.06668], [4.32803, 49.06586], [4.33112, 49.06597], [4.33476, 49.06797], [4.33581, 49.06929], [4.3361, 49.07059], [4.33854, 49.06938], [4.33808, 49.06682], [4.33522, 49.06081], [4.33273, 49.06068], [4.33055, 49.0598], [4.32483, 49.06269], [4.32405, 49.06318]]], [[[4.33952, 49.05567], [4.34039, 49.05872], [4.34246, 49.05703], [4.34681, 49.05497], [4.35086, 49.05132], [4.33952, 49.05567]]], [[[4.37166, 49.04556], [4.37371, 49.04563], [4.37485, 49.04586], [4.37393, 49.0451], [4.37166, 49.04556]]], [[[4.36889, 49.06536], [4.37204, 49.0636], [4.37348, 49.06181], [4.37072, 49.0589], [4.37027, 49.05756], [4.37063, 49.05621], [4.37279, 49.05378], [4.3707, 49.05356], [4.3673, 49.0523], [4.36601, 49.05146], [4.36511, 49.0501], [4.36102, 49.04816], [4.35752, 49.04916], [4.35585, 49.05362], [4.35105, 49.05765], [4.3466, 49.05978], [4.34256, 49.06351], [4.34384, 49.06607], [4.34463, 49.07029], [4.34765, 49.07299], [4.36126, 49.06816], [4.36226, 49.06675], [4.36423, 49.06567], [4.36621, 49.06524], [4.36889, 49.06536]]], [[[4.34224, 49.07511], [4.34056, 49.07322], [4.33558, 49.07569], [4.33342, 49.076], [4.33173, 49.07548], [4.32975, 49.07394], [4.3259, 49.07275], [4.32417, 49.07136], [4.31941, 49.07075], [4.31329, 49.07176], [4.31105, 49.07172], [4.30483, 49.07659], [4.30445, 49.07803], [4.30766, 49.08728], [4.32748, 49.08031], [4.32771, 49.0791], [4.32887, 49.07828], [4.33082, 49.07804], [4.33242, 49.07857], [4.34224, 49.07511]]], [[[4.30226, 49.0891], [4.29964, 49.08136], [4.29141, 49.09041], [4.28925, 49.09355], [4.29414, 49.09204], [4.29509, 49.09056], [4.29725, 49.08941], [4.29926, 49.08907], [4.30174, 49.08937], [4.30226, 49.0891]]], [[[4.29654, 49.09562], [4.29409, 49.09648], [4.29972, 49.10177], [4.30132, 49.10086], [4.30325, 49.10042], [4.30516, 49.09912], [4.30677, 49.0987], [4.30413, 49.09448], [4.30281, 49.09542], [4.30078, 49.09608], [4.2987, 49.09615], [4.29654, 49.09562]]], [[[4.309, 49.09124], [4.30969, 49.09324], [4.31344, 49.09913], [4.31824, 49.10241], [4.31875, 49.10238], [4.33427, 49.09272], [4.33369, 49.0915], [4.33396, 49.0898], [4.33492, 49.08858], [4.33652, 49.08766], [4.33107, 49.08347], [4.309, 49.09124]]], [[[4.33638, 49.0816], [4.339, 49.08363], [4.3392, 49.08177], [4.34068, 49.08033], [4.34332, 49.07923], [4.34708, 49.07891], [4.3462, 49.07814], [4.33638, 49.0816]]], [[[4.35148, 49.07633], [4.35464, 49.07847], [4.35866, 49.07515], [4.35475, 49.07548], [4.35148, 49.07633]]], [[[4.31269, 49.10415], [4.31077, 49.10513], [4.31096, 49.10596], [4.31244, 49.10601], [4.31332, 49.1046], [4.31269, 49.10415]]], [[[4.29667, 49.10564], [4.28866, 49.09839], [4.28528, 49.09958], [4.28375, 49.10254], [4.29494, 49.1065], [4.29667, 49.10564]]], [[[4.28935, 49.10891], [4.28184, 49.10625], [4.27914, 49.11356], [4.28063, 49.11361], [4.28213, 49.11256], [4.28408, 49.112], [4.28573, 49.1103], [4.28935, 49.10891]]], [[[4.27811, 49.12524], [4.27919, 49.12523], [4.28133, 49.1237], [4.28591, 49.1222], [4.28843, 49.1206], [4.2944, 49.11964], [4.29478, 49.11873], [4.29585, 49.11794], [4.28934, 49.11774], [4.28753, 49.11866], [4.28542, 49.119], [4.28524, 49.1202], [4.28429, 49.12142], [4.27902, 49.12434], [4.27811, 49.12524]]], [[[4.30228, 49.12202], [4.30022, 49.1218], [4.29801, 49.12342], [4.29219, 49.12473], [4.29084, 49.12582], [4.28754, 49.1265], [4.2862, 49.12807], [4.28379, 49.12928], [4.27866, 49.12986], [4.2764, 49.1296], [4.27629, 49.1341], [4.27825, 49.13353], [4.29023, 49.13196], [4.29638, 49.12999], [4.2952, 49.12872], [4.29491, 49.12737], [4.29545, 49.12601], [4.29671, 49.12492], [4.29851, 49.12423], [4.30188, 49.12371], [4.30397, 49.12383], [4.30599, 49.12446], [4.30705, 49.12392], [4.30655, 49.12275], [4.30419, 49.12267], [4.30228, 49.12202]]], [[[4.31195, 49.12046], [4.31324, 49.12415], [4.31551, 49.12429], [4.31604, 49.11917], [4.31195, 49.12046]]], [[[4.3003, 49.13302], [4.29813, 49.13373], [4.30266, 49.13443], [4.3003, 49.13302]]], [[[4.40085, 49.06442], [4.39456, 49.06427], [4.38828, 49.06411], [4.38869, 49.06606], [4.38984, 49.06685], [4.39107, 49.06917], [4.39262, 49.06755], [4.39596, 49.06605], [4.39852, 49.06588], [4.40081, 49.06648], [4.40265, 49.06609], [4.40085, 49.06442]]], [[[4.38139, 49.06995], [4.38052, 49.06625], [4.37738, 49.06723], [4.37545, 49.06904], [4.36371, 49.0773], [4.37262, 49.07314], [4.38014, 49.07091], [4.38139, 49.06995]]], [[[4.37222, 49.07811], [4.37256, 49.0781], [4.37273, 49.07785], [4.37222, 49.07811]]], [[[4.36636, 49.08076], [4.36773, 49.08048], [4.36784, 49.08017], [4.36636, 49.08076]]], [[[4.36359, 49.08186], [4.36355, 49.08281], [4.36392, 49.08279], [4.36574, 49.08101], [4.36359, 49.08186]]], [[[4.4417, 49.22047], [4.43874, 49.21859], [4.43192, 49.21585], [4.42265, 49.2096], [4.42148, 49.2098], [4.41976, 49.21104], [4.41498, 49.21208], [4.41483, 49.21266], [4.41637, 49.21286], [4.41761, 49.2135], [4.41855, 49.21513], [4.41758, 49.21668], [4.41471, 49.21738], [4.41524, 49.21969], [4.41449, 49.22204], [4.41688, 49.22231], [4.43043, 49.22171], [4.4417, 49.22047]]], [[[4.40444, 49.16122], [4.41191, 49.1779], [4.41409, 49.17668], [4.41722, 49.17639], [4.41961, 49.17706], [4.42144, 49.1787], [4.42158, 49.18076], [4.41997, 49.1825], [4.4171, 49.18337], [4.41427, 49.18313], [4.41483, 49.18435], [4.41754, 49.18518], [4.42975, 49.18355], [4.43175, 49.1828], [4.43115, 49.1814], [4.43143, 49.18004], [4.4339, 49.178], [4.43609, 49.1772], [4.43815, 49.177], [4.44018, 49.17733], [4.44231, 49.17843], [4.44331, 49.17696], [4.44601, 49.17495], [4.44782, 49.17456], [4.44968, 49.17493], [4.4512, 49.17454], [4.4495, 49.17319], [4.44926, 49.17177], [4.44994, 49.17088], [4.45173, 49.17017], [4.4533, 49.16872], [4.44215, 49.16783], [4.41998, 49.16491], [4.40889, 49.15988], [4.405, 49.15741], [4.40534, 49.15951], [4.40444, 49.16122]]], [[[4.33372, 49.2052], [4.3404, 49.20466], [4.3425, 49.2055], [4.3435, 49.20712], [4.34322, 49.20931], [4.35138, 49.21239], [4.36419, 49.21614], [4.36624, 49.20917], [4.36732, 49.2083], [4.36917, 49.20797], [4.37629, 49.21012], [4.37825, 49.21153], [4.38299, 49.21356], [4.39038, 49.21575], [4.40003, 49.21742], [4.40131, 49.21639], [4.40301, 49.21575], [4.40808, 49.21534], [4.40941, 49.21073], [4.40838, 49.20921], [4.40867, 49.20652], [4.40739, 49.20486], [4.40738, 49.20315], [4.40884, 49.20135], [4.4111, 49.20047], [4.41139, 49.19886], [4.41327, 49.19634], [4.41168, 49.1918], [4.40904, 49.19014], [4.36396, 49.19548], [4.32588, 49.19873], [4.32563, 49.20109], [4.32857, 49.20278], [4.33372, 49.2052]]], [[[4.39835, 49.22161], [4.39849, 49.22114], [4.38845, 49.2194], [4.38026, 49.217], [4.37447, 49.2145], [4.37299, 49.21335], [4.37114, 49.21277], [4.36982, 49.21739], [4.37662, 49.21889], [4.38985, 49.2209], [4.39835, 49.22161]]], [[[4.44636, 49.06262], [4.44627, 49.0622], [4.44559, 49.06217], [4.44216, 49.0635], [4.44145, 49.064], [4.44137, 49.06474], [4.44636, 49.06262]]], [[[4.45809, 49.06396], [4.45623, 49.06302], [4.45526, 49.06343], [4.4561, 49.06497], [4.45809, 49.06396]]], [[[4.42555, 49.05538], [4.42527, 49.05568], [4.42511, 49.05582], [4.42608, 49.05575], [4.42555, 49.05538]]], [[[4.29453, 49.16364], [4.29468, 49.16049], [4.29485, 49.15909], [4.29134, 49.16174], [4.29453, 49.16364]]], [[[4.43013, 49.18756], [4.42001, 49.18881], [4.41913, 49.19038], [4.41757, 49.19138], [4.41889, 49.19515], [4.42117, 49.19577], [4.42278, 49.19666], [4.42393, 49.19894], [4.42481, 49.19906], [4.4263, 49.19755], [4.42784, 49.19706], [4.42979, 49.19729], [4.43095, 49.19811], [4.43117, 49.1994], [4.42951, 49.20145], [4.42978, 49.20364], [4.42815, 49.20551], [4.42747, 49.20713], [4.43549, 49.21276], [4.44222, 49.21546], [4.44843, 49.21942], [4.45693, 49.21791], [4.47156, 49.21412], [4.4733, 49.20698], [4.47167, 49.2015], [4.47014, 49.2007], [4.4691, 49.19949], [4.46921, 49.19712], [4.46327, 49.19512], [4.46212, 49.19365], [4.46291, 49.19227], [4.46496, 49.19166], [4.47201, 49.19373], [4.47201, 49.19348], [4.47063, 49.19133], [4.46983, 49.18785], [4.46866, 49.1856], [4.46507, 49.18322], [4.46345, 49.18144], [4.4612, 49.18047], [4.45994, 49.17885], [4.4592, 49.1785], [4.45773, 49.17869], [4.45695, 49.17993], [4.45552, 49.1809], [4.45364, 49.18143], [4.45174, 49.18148], [4.44937, 49.18246], [4.44726, 49.18265], [4.44504, 49.18222], [4.44398, 49.18262], [4.44264, 49.18449], [4.44099, 49.18531], [4.43901, 49.18566], [4.43666, 49.18541], [4.43013, 49.18756]], [[4.43863, 49.18944], [4.43817, 49.18762], [4.44038, 49.18556], [4.44314, 49.1852], [4.44564, 49.18625], [4.44618, 49.18725], [4.44595, 49.18864], [4.44431, 49.19023], [4.44124, 49.19058], [4.43863, 49.18944]]], [[[4.52922, 49.1819], [4.52668, 49.18111], [4.52376, 49.18145], [4.52137, 49.1809], [4.51698, 49.17841], [4.51617, 49.17715], [4.51625, 49.17553], [4.50985, 49.17405], [4.48348, 49.17325], [4.47447, 49.17417], [4.47357, 49.17648], [4.47511, 49.17813], [4.47564, 49.18082], [4.47506, 49.18253], [4.47382, 49.18371], [4.47547, 49.18674], [4.47631, 49.19031], [4.47777, 49.19264], [4.47759, 49.19529], [4.4792, 49.19645], [4.47987, 49.19806], [4.47915, 49.2], [4.47756, 49.20125], [4.47922, 49.20684], [4.47791, 49.21205], [4.49328, 49.20607], [4.50085, 49.20224], [4.49787, 49.20123], [4.49643, 49.19939], [4.4968, 49.19734], [4.49875, 49.19581], [4.50166, 49.19523], [4.50427, 49.19564], [4.50623, 49.19679], [4.50712, 49.19871], [4.51389, 49.19453], [4.5228, 49.18782], [4.52922, 49.1819]]], [[[4.5188, 49.17202], [4.52006, 49.17116], [4.52197, 49.17057], [4.52566, 49.17085], [4.52768, 49.17198], [4.53023, 49.17527], [4.53414, 49.17658], [4.53739, 49.17285], [4.53982, 49.1693], [4.53552, 49.15104], [4.52862, 49.15302], [4.52254, 49.15213], [4.51839, 49.14913], [4.5145, 49.14821], [4.51008, 49.14618], [4.50389, 49.13829], [4.49602, 49.14161], [4.49743, 49.14309], [4.4979, 49.14507], [4.49745, 49.14642], [4.49603, 49.1477], [4.49405, 49.14854], [4.49149, 49.14877], [4.48861, 49.14812], [4.48691, 49.14714], [4.48344, 49.15002], [4.48542, 49.15037], [4.48689, 49.15104], [4.48855, 49.15316], [4.48803, 49.15519], [4.48605, 49.1567], [4.48538, 49.15977], [4.48779, 49.16033], [4.49163, 49.15995], [4.49441, 49.16084], [4.49608, 49.16292], [4.49609, 49.1642], [4.49538, 49.16549], [4.49257, 49.16698], [4.48896, 49.16708], [4.48598, 49.16575], [4.48496, 49.16377], [4.48234, 49.16312], [4.47996, 49.16531], [4.4767, 49.1661], [4.47579, 49.16697], [4.47499, 49.16971], [4.47541, 49.17017], [4.48345, 49.16939], [4.51035, 49.17018], [4.5188, 49.17202]]], [[[4.53335, 49.14177], [4.53128, 49.14054], [4.53042, 49.13855], [4.52809, 49.13839], [4.52549, 49.13737], [4.5225, 49.13716], [4.52035, 49.13628], [4.51835, 49.13654], [4.5163, 49.13628], [4.51456, 49.13553], [4.51334, 49.13431], [4.51118, 49.13522], [4.5097, 49.13706], [4.51451, 49.14364], [4.51772, 49.14496], [4.52175, 49.14596], [4.5257, 49.14884], [4.52772, 49.14912], [4.53462, 49.1472], [4.53335, 49.14177]]], [[[4.4475, 49.16438], [4.45614, 49.16506], [4.45719, 49.16409], [4.45893, 49.16333], [4.46149, 49.16309], [4.46375, 49.16357], [4.46596, 49.1625], [4.46542, 49.1614], [4.46552, 49.16006], [4.46799, 49.15762], [4.4686, 49.15624], [4.47253, 49.15364], [4.47533, 49.15307], [4.47704, 49.15014], [4.46948, 49.15081], [4.46851, 49.15117], [4.4475, 49.16438]]], [[[4.49547, 49.13499], [4.49092, 49.13704], [4.49084, 49.13802], [4.4927, 49.13753], [4.49441, 49.1377], [4.49866, 49.13591], [4.49547, 49.13499]]], [[[4.51051, 49.12809], [4.50551, 49.13052], [4.50737, 49.13076], [4.50913, 49.1315], [4.51269, 49.13006], [4.51813, 49.12858], [4.5171, 49.126], [4.51501, 49.12594], [4.51341, 49.12549], [4.51051, 49.12809]]], [[[4.5051, 49.11057], [4.50462, 49.11087], [4.50652, 49.11279], [4.50835, 49.11372], [4.5051, 49.11057]]], [[[4.49934, 49.10775], [4.49764, 49.10609], [4.49703, 49.10652], [4.4979, 49.10754], [4.49934, 49.10775]]], [[[4.54927, 49.15051], [4.54301, 49.15539], [4.54451, 49.16166], [4.54725, 49.15631], [4.54927, 49.15051]]], [[[4.54116, 49.1497], [4.54135, 49.1505], [4.54222, 49.14981], [4.54116, 49.1497]]], [[[4.54023, 49.14575], [4.5449, 49.1463], [4.54674, 49.14615], [4.55075, 49.14269], [4.55135, 49.14208], [4.55199, 49.13882], [4.55214, 49.13533], [4.55145, 49.1354], [4.5515, 49.13655], [4.55081, 49.13784], [4.54821, 49.13951], [4.54463, 49.13976], [4.54167, 49.13868], [4.54114, 49.14014], [4.53925, 49.14158], [4.54023, 49.14575]]]]}, "properties": {"kind": "windland", "area_km2": 187.67}}, {"type": "Feature", "geometry": {"type": "Point", "coordinates": [4.41018, 49.13268]}, "properties": {"kind": "turbine", "i": 0, "mw": 6.0, "hub_m": 120.0, "rotor_m": 150.0}}, {"type": "Feature", "geometry": {"type": "Point", "coordinates": [4.4149, 49.12277]}, "properties": {"kind": "turbine", "i": 1, "mw": 6.0, "hub_m": 120.0, "rotor_m": 150.0}}, {"type": "Feature", "geometry": {"type": "Point", "coordinates": [4.42538, 49.13907]}, "properties": {"kind": "turbine", "i": 2, "mw": 6.0, "hub_m": 120.0, "rotor_m": 150.0}}, {"type": "Feature", "geometry": {"type": "Point", "coordinates": [4.4301, 49.12915]}, "properties": {"kind": "turbine", "i": 3, "mw": 6.0, "hub_m": 120.0, "rotor_m": 150.0}}, {"type": "Feature", "geometry": {"type": "Point", "coordinates": [4.41046, 49.14254]}, "properties": {"kind": "turbine", "i": 4, "mw": 6.0, "hub_m": 120.0, "rotor_m": 150.0}}, {"type": "Feature", "geometry": {"type": "Point", "coordinates": [4.39508, 49.12958]}, "properties": {"kind": "turbine", "i": 5, "mw": 6.0, "hub_m": 120.0, "rotor_m": 150.0}}, {"type": "Feature", "geometry": {"type": "Point", "coordinates": [4.3998, 49.11967]}, "properties": {"kind": "turbine", "i": 6, "mw": 6.0, "hub_m": 120.0, "rotor_m": 150.0}}, {"type": "Feature", "geometry": {"type": "Point", "coordinates": [4.43482, 49.11924]}, "properties": {"kind": "turbine", "i": 7, "mw": 6.0, "hub_m": 120.0, "rotor_m": 150.0}}, {"type": "Feature", "geometry": {"type": "Point", "coordinates": [4.4404, 49.13888]}, "properties": {"kind": "turbine", "i": 8, "mw": 6.0, "hub_m": 120.0, "rotor_m": 150.0}}, {"type": "Feature", "geometry": {"type": "Point", "coordinates": [4.42566, 49.14892]}, "properties": {"kind": "turbine", "i": 9, "mw": 6.0, "hub_m": 120.0, "rotor_m": 150.0}}, {"type": "Feature", "geometry": {"type": "Point", "coordinates": [4.41963, 49.11286]}, "properties": {"kind": "turbine", "i": 10, "mw": 6.0, "hub_m": 120.0, "rotor_m": 150.0}}, {"type": "Feature", "geometry": {"type": "Point", "coordinates": [4.44511, 49.12897]}, "properties": {"kind": "turbine", "i": 11, "mw": 6.0, "hub_m": 120.0, "rotor_m": 150.0}}, {"type": "Feature", "geometry": {"type": "Point", "coordinates": [4.41074, 49.15239]}, "properties": {"kind": "turbine", "i": 12, "mw": 6.0, "hub_m": 120.0, "rotor_m": 150.0}}, {"type": "Feature", "geometry": {"type": "Point", "coordinates": [4.38544, 49.14284]}, "properties": {"kind": "turbine", "i": 13, "mw": 6.0, "hub_m": 120.0, "rotor_m": 150.0}}, {"type": "Feature", "geometry": {"type": "Point", "coordinates": [4.40453, 49.10976]}, "properties": {"kind": "turbine", "i": 14, "mw": 6.0, "hub_m": 120.0, "rotor_m": 150.0}}, {"type": "Feature", "geometry": {"type": "Point", "coordinates": [4.44068, 49.14873]}, "properties": {"kind": "turbine", "i": 15, "mw": 6.0, "hub_m": 120.0, "rotor_m": 150.0}}, {"type": "Feature", "geometry": {"type": "Point", "coordinates": [4.3847, 49.11657]}, "properties": {"kind": "turbine", "i": 16, "mw": 6.0, "hub_m": 120.0, "rotor_m": 150.0}}, {"type": "Feature", "geometry": {"type": "Point", "coordinates": [4.44983, 49.11905]}, "properties": {"kind": "turbine", "i": 17, "mw": 6.0, "hub_m": 120.0, "rotor_m": 150.0}}, {"type": "Feature", "geometry": {"type": "Point", "coordinates": [4.43954, 49.10933]}, "properties": {"kind": "turbine", "i": 18, "mw": 6.0, "hub_m": 120.0, "rotor_m": 150.0}}, {"type": "Feature", "geometry": {"type": "Point", "coordinates": [4.42595, 49.15877]}, "properties": {"kind": "turbine", "i": 19, "mw": 6.0, "hub_m": 120.0, "rotor_m": 150.0}}, {"type": "Feature", "geometry": {"type": "Point", "coordinates": [4.42435, 49.10295]}, "properties": {"kind": "turbine", "i": 20, "mw": 6.0, "hub_m": 120.0, "rotor_m": 150.0}}, {"type": "Feature", "geometry": {"type": "Point", "coordinates": [4.38943, 49.10666]}, "properties": {"kind": "turbine", "i": 21, "mw": 6.0, "hub_m": 120.0, "rotor_m": 150.0}}, {"type": "Feature", "geometry": {"type": "Point", "coordinates": [4.46012, 49.12878]}, "properties": {"kind": "turbine", "i": 22, "mw": 6.0, "hub_m": 120.0, "rotor_m": 150.0}}, {"type": "Feature", "geometry": {"type": "Point", "coordinates": [4.3807, 49.15275]}, "properties": {"kind": "turbine", "i": 23, "mw": 6.0, "hub_m": 120.0, "rotor_m": 150.0}}, {"type": "Feature", "geometry": {"type": "Point", "coordinates": [4.41102, 49.16224]}, "properties": {"kind": "turbine", "i": 24, "mw": 6.0, "hub_m": 120.0, "rotor_m": 150.0}}, {"type": "Feature", "geometry": {"type": "Point", "coordinates": [4.46041, 49.13863]}, "properties": {"kind": "turbine", "i": 25, "mw": 6.0, "hub_m": 120.0, "rotor_m": 150.0}}, {"type": "Feature", "geometry": {"type": "Point", "coordinates": [4.4557, 49.14854]}, "properties": {"kind": "turbine", "i": 26, "mw": 6.0, "hub_m": 120.0, "rotor_m": 150.0}}, {"type": "Feature", "geometry": {"type": "Point", "coordinates": [4.40925, 49.09985]}, "properties": {"kind": "turbine", "i": 27, "mw": 6.0, "hub_m": 120.0, "rotor_m": 150.0}}, {"type": "Feature", "geometry": {"type": "Point", "coordinates": [4.44097, 49.15858]}, "properties": {"kind": "turbine", "i": 28, "mw": 6.0, "hub_m": 120.0, "rotor_m": 150.0}}, {"type": "Feature", "geometry": {"type": "Point", "coordinates": [4.396, 49.16242]}, "properties": {"kind": "turbine", "i": 29, "mw": 6.0, "hub_m": 120.0, "rotor_m": 150.0}}, {"type": "Feature", "geometry": {"type": "Point", "coordinates": [4.45454, 49.10914]}, "properties": {"kind": "turbine", "i": 30, "mw": 6.0, "hub_m": 120.0, "rotor_m": 150.0}}, {"type": "Feature", "geometry": {"type": "Point", "coordinates": [4.46484, 49.11886]}, "properties": {"kind": "turbine", "i": 31, "mw": 6.0, "hub_m": 120.0, "rotor_m": 150.0}}, {"type": "Feature", "geometry": {"type": "Point", "coordinates": [4.39416, 49.09675]}, "properties": {"kind": "turbine", "i": 32, "mw": 6.0, "hub_m": 120.0, "rotor_m": 150.0}}, {"type": "Feature", "geometry": {"type": "Point", "coordinates": [4.42623, 49.16862]}, "properties": {"kind": "turbine", "i": 33, "mw": 6.0, "hub_m": 120.0, "rotor_m": 150.0}}, {"type": "Feature", "geometry": {"type": "Point", "coordinates": [4.38098, 49.1626]}, "properties": {"kind": "turbine", "i": 34, "mw": 6.0, "hub_m": 120.0, "rotor_m": 150.0}}, {"type": "Feature", "geometry": {"type": "Point", "coordinates": [4.36569, 49.15293]}, "properties": {"kind": "turbine", "i": 35, "mw": 6.0, "hub_m": 120.0, "rotor_m": 150.0}}, {"type": "Feature", "geometry": {"type": "Point", "coordinates": [4.36451, 49.11024]}, "properties": {"kind": "turbine", "i": 36, "mw": 6.0, "hub_m": 120.0, "rotor_m": 150.0}}, {"type": "Feature", "geometry": {"type": "Point", "coordinates": [4.44926, 49.09935]}, "properties": {"kind": "turbine", "i": 37, "mw": 6.0, "hub_m": 120.0, "rotor_m": 150.0}}, {"type": "Feature", "geometry": {"type": "Point", "coordinates": [4.47514, 49.12859]}, "properties": {"kind": "turbine", "i": 38, "mw": 6.0, "hub_m": 120.0, "rotor_m": 150.0}}, {"type": "Feature", "geometry": {"type": "Point", "coordinates": [4.4113, 49.17209]}, "properties": {"kind": "turbine", "i": 39, "mw": 6.0, "hub_m": 120.0, "rotor_m": 150.0}}, {"type": "Feature", "geometry": {"type": "Point", "coordinates": [4.45608, 49.16168]}, "properties": {"kind": "turbine", "i": 40, "mw": 6.0, "hub_m": 120.0, "rotor_m": 150.0}}, {"type": "Feature", "geometry": {"type": "Point", "coordinates": [4.47543, 49.13844]}, "properties": {"kind": "turbine", "i": 41, "mw": 6.0, "hub_m": 120.0, "rotor_m": 150.0}}, {"type": "Feature", "geometry": {"type": "Point", "coordinates": [4.44125, 49.16843]}, "properties": {"kind": "turbine", "i": 42, "mw": 6.0, "hub_m": 120.0, "rotor_m": 150.0}}, {"type": "Feature", "geometry": {"type": "Point", "coordinates": [4.43406, 49.09297]}, "properties": {"kind": "turbine", "i": 43, "mw": 6.0, "hub_m": 120.0, "rotor_m": 150.0}}, {"type": "Feature", "geometry": {"type": "Point", "coordinates": [4.37424, 49.10027]}, "properties": {"kind": "turbine", "i": 44, "mw": 6.0, "hub_m": 120.0, "rotor_m": 150.0}}, {"type": "Feature", "geometry": {"type": "Point", "coordinates": [4.41897, 49.08987]}, "properties": {"kind": "turbine", "i": 45, "mw": 6.0, "hub_m": 120.0, "rotor_m": 150.0}}, {"type": "Feature", "geometry": {"type": "Point", "coordinates": [4.47081, 49.15164]}, "properties": {"kind": "turbine", "i": 46, "mw": 6.0, "hub_m": 120.0, "rotor_m": 150.0}}, {"type": "Feature", "geometry": {"type": "Point", "coordinates": [4.46955, 49.10895]}, "properties": {"kind": "turbine", "i": 47, "mw": 6.0, "hub_m": 120.0, "rotor_m": 150.0}}, {"type": "Feature", "geometry": {"type": "Point", "coordinates": [4.39127, 49.17233]}, "properties": {"kind": "turbine", "i": 48, "mw": 6.0, "hub_m": 120.0, "rotor_m": 150.0}}, {"type": "Feature", "geometry": {"type": "Point", "coordinates": [4.36596, 49.16278]}, "properties": {"kind": "turbine", "i": 49, "mw": 6.0, "hub_m": 120.0, "rotor_m": 150.0}}, {"type": "Feature", "geometry": {"type": "Point", "coordinates": [4.35049, 49.14654]}, "properties": {"kind": "turbine", "i": 50, "mw": 6.0, "hub_m": 120.0, "rotor_m": 150.0}}, {"type": "Feature", "geometry": {"type": "Point", "coordinates": [4.47985, 49.11867]}, "properties": {"kind": "turbine", "i": 51, "mw": 6.0, "hub_m": 120.0, "rotor_m": 150.0}}, {"type": "Feature", "geometry": {"type": "Point", "coordinates": [4.40388, 49.08677]}, "properties": {"kind": "turbine", "i": 52, "mw": 6.0, "hub_m": 120.0, "rotor_m": 150.0}}, {"type": "Feature", "geometry": {"type": "Point", "coordinates": [4.46426, 49.09916]}, "properties": {"kind": "turbine", "i": 53, "mw": 6.0, "hub_m": 120.0, "rotor_m": 150.0}}, {"type": "Feature", "geometry": {"type": "Point", "coordinates": [4.37897, 49.09036]}, "properties": {"kind": "turbine", "i": 54, "mw": 6.0, "hub_m": 120.0, "rotor_m": 150.0}}, {"type": "Feature", "geometry": {"type": "Point", "coordinates": [4.42651, 49.17847]}, "properties": {"kind": "turbine", "i": 55, "mw": 6.0, "hub_m": 120.0, "rotor_m": 150.0}}, {"type": "Feature", "geometry": {"type": "Point", "coordinates": [4.37624, 49.17251]}, "properties": {"kind": "turbine", "i": 56, "mw": 6.0, "hub_m": 120.0, "rotor_m": 150.0}}, {"type": "Feature", "geometry": {"type": "Point", "coordinates": [4.44897, 49.0895]}, "properties": {"kind": "turbine", "i": 57, "mw": 6.0, "hub_m": 120.0, "rotor_m": 150.0}}, {"type": "Feature", "geometry": {"type": "Point", "coordinates": [4.35076, 49.15639]}, "properties": {"kind": "turbine", "i": 58, "mw": 6.0, "hub_m": 120.0, "rotor_m": 150.0}}, {"type": "Feature", "geometry": {"type": "Point", "coordinates": [4.34942, 49.10713]}, "properties": {"kind": "turbine", "i": 59, "mw": 6.0, "hub_m": 120.0, "rotor_m": 150.0}}, {"type": "Feature", "geometry": {"type": "Point", "coordinates": [4.48573, 49.14816]}, "properties": {"kind": "turbine", "i": 60, "mw": 6.0, "hub_m": 120.0, "rotor_m": 150.0}}, {"type": "Feature", "geometry": {"type": "Point", "coordinates": [4.43378, 49.08312]}, "properties": {"kind": "turbine", "i": 61, "mw": 6.0, "hub_m": 120.0, "rotor_m": 150.0}}, {"type": "Feature", "geometry": {"type": "Point", "coordinates": [4.40657, 49.182]}, "properties": {"kind": "turbine", "i": 62, "mw": 6.0, "hub_m": 120.0, "rotor_m": 150.0}}, {"type": "Feature", "geometry": {"type": "Point", "coordinates": [4.33968, 49.1171]}, "properties": {"kind": "turbine", "i": 63, "mw": 6.0, "hub_m": 120.0, "rotor_m": 150.0}}, {"type": "Feature", "geometry": {"type": "Point", "coordinates": [4.48455, 49.10876]}, "properties": {"kind": "turbine", "i": 64, "mw": 6.0, "hub_m": 120.0, "rotor_m": 150.0}}, {"type": "Feature", "geometry": {"type": "Point", "coordinates": [4.41869, 49.08002]}, "properties": {"kind": "turbine", "i": 65, "mw": 6.0, "hub_m": 120.0, "rotor_m": 150.0}}, {"type": "Feature", "geometry": {"type": "Point", "coordinates": [4.39154, 49.18218]}, "properties": {"kind": "turbine", "i": 66, "mw": 6.0, "hub_m": 120.0, "rotor_m": 150.0}}, {"type": "Feature", "geometry": {"type": "Point", "coordinates": [4.49505, 49.12505]}, "properties": {"kind": "turbine", "i": 67, "mw": 6.0, "hub_m": 120.0, "rotor_m": 150.0}}, {"type": "Feature", "geometry": {"type": "Point", "coordinates": [4.46397, 49.08931]}, "properties": {"kind": "turbine", "i": 68, "mw": 6.0, "hub_m": 120.0, "rotor_m": 150.0}}, {"type": "Feature", "geometry": {"type": "Point", "coordinates": [4.47926, 49.09897]}, "properties": {"kind": "turbine", "i": 69, "mw": 6.0, "hub_m": 120.0, "rotor_m": 150.0}}, {"type": "Feature", "geometry": {"type": "Point", "coordinates": [4.36122, 49.17269]}, "properties": {"kind": "turbine", "i": 70, "mw": 6.0, "hub_m": 120.0, "rotor_m": 150.0}}, {"type": "Feature", "geometry": {"type": "Point", "coordinates": [4.48603, 49.15801]}, "properties": {"kind": "turbine", "i": 71, "mw": 6.0, "hub_m": 120.0, "rotor_m": 150.0}}, {"type": "Feature", "geometry": {"type": "Point", "coordinates": [4.47631, 49.16799]}, "properties": {"kind": "turbine", "i": 72, "mw": 6.0, "hub_m": 120.0, "rotor_m": 150.0}}, {"type": "Feature", "geometry": {"type": "Point", "coordinates": [4.34915, 49.09728]}, "properties": {"kind": "turbine", "i": 73, "mw": 6.0, "hub_m": 120.0, "rotor_m": 150.0}}, {"type": "Feature", "geometry": {"type": "Point", "coordinates": [4.4036, 49.07692]}, "properties": {"kind": "turbine", "i": 74, "mw": 6.0, "hub_m": 120.0, "rotor_m": 150.0}}, {"type": "Feature", "geometry": {"type": "Point", "coordinates": [4.36388, 49.08725]}, "properties": {"kind": "turbine", "i": 75, "mw": 6.0, "hub_m": 120.0, "rotor_m": 150.0}}, {"type": "Feature", "geometry": {"type": "Point", "coordinates": [4.3787, 49.08051]}, "properties": {"kind": "turbine", "i": 76, "mw": 6.0, "hub_m": 120.0, "rotor_m": 150.0}}, {"type": "Feature", "geometry": {"type": "Point", "coordinates": [4.33038, 49.14349]}, "properties": {"kind": "turbine", "i": 77, "mw": 6.0, "hub_m": 120.0, "rotor_m": 150.0}}, {"type": "Feature", "geometry": {"type": "Point", "coordinates": [4.37652, 49.18236]}, "properties": {"kind": "turbine", "i": 78, "mw": 6.0, "hub_m": 120.0, "rotor_m": 150.0}}, {"type": "Feature", "geometry": {"type": "Point", "coordinates": [4.34602, 49.1663]}, "properties": {"kind": "turbine", "i": 79, "mw": 6.0, "hub_m": 120.0, "rotor_m": 150.0}}, {"type": "Feature", "geometry": {"type": "Point", "coordinates": [4.45666, 49.18138]}, "properties": {"kind": "turbine", "i": 80, "mw": 6.0, "hub_m": 120.0, "rotor_m": 150.0}}, {"type": "Feature", "geometry": {"type": "Point", "coordinates": [4.4268, 49.18832]}, "properties": {"kind": "turbine", "i": 81, "mw": 6.0, "hub_m": 120.0, "rotor_m": 150.0}}, {"type": "Feature", "geometry": {"type": "Point", "coordinates": [4.33441, 49.10731]}, "properties": {"kind": "turbine", "i": 82, "mw": 6.0, "hub_m": 120.0, "rotor_m": 150.0}}, {"type": "Feature", "geometry": {"type": "Point", "coordinates": [4.45368, 49.07959]}, "properties": {"kind": "turbine", "i": 83, "mw": 6.0, "hub_m": 120.0, "rotor_m": 150.0}}, {"type": "Feature", "geometry": {"type": "Point", "coordinates": [4.49976, 49.11513]}, "properties": {"kind": "turbine", "i": 84, "mw": 6.0, "hub_m": 120.0, "rotor_m": 150.0}}, {"type": "Feature", "geometry": {"type": "Point", "coordinates": [4.50075, 49.14797]}, "properties": {"kind": "turbine", "i": 85, "mw": 6.0, "hub_m": 120.0, "rotor_m": 150.0}}, {"type": "Feature", "geometry": {"type": "Point", "coordinates": [4.47897, 49.08912]}, "properties": {"kind": "turbine", "i": 86, "mw": 6.0, "hub_m": 120.0, "rotor_m": 150.0}}, {"type": "Feature", "geometry": {"type": "Point", "coordinates": [4.32467, 49.11727]}, "properties": {"kind": "turbine", "i": 87, "mw": 6.0, "hub_m": 120.0, "rotor_m": 150.0}}, {"type": "Feature", "geometry": {"type": "Point", "coordinates": [4.4385, 49.07321]}, "properties": {"kind": "turbine", "i": 88, "mw": 6.0, "hub_m": 120.0, "rotor_m": 150.0}}, {"type": "Feature", "geometry": {"type": "Point", "coordinates": [4.39683, 49.19197]}, "properties": {"kind": "turbine", "i": 89, "mw": 6.0, "hub_m": 120.0, "rotor_m": 150.0}}, {"type": "Feature", "geometry": {"type": "Point", "coordinates": [4.36149, 49.18254]}, "properties": {"kind": "turbine", "i": 90, "mw": 6.0, "hub_m": 120.0, "rotor_m": 150.0}}, {"type": "Feature", "geometry": {"type": "Point", "coordinates": [4.4766, 49.17784]}, "properties": {"kind": "turbine", "i": 91, "mw": 6.0, "hub_m": 120.0, "rotor_m": 150.0}}, {"type": "Feature", "geometry": {"type": "Point", "coordinates": [4.32564, 49.15339]}, "properties": {"kind": "turbine", "i": 92, "mw": 6.0, "hub_m": 120.0, "rotor_m": 150.0}}, {"type": "Feature", "geometry": {"type": "Point", "coordinates": [4.49133, 49.1678]}, "properties": {"kind": "turbine", "i": 93, "mw": 6.0, "hub_m": 120.0, "rotor_m": 150.0}}, {"type": "Feature", "geometry": {"type": "Point", "coordinates": [4.44192, 49.19142]}, "properties": {"kind": "turbine", "i": 94, "mw": 6.0, "hub_m": 120.0, "rotor_m": 150.0}}, {"type": "Feature", "geometry": {"type": "Point", "coordinates": [4.50105, 49.15782]}, "properties": {"kind": "turbine", "i": 95, "mw": 6.0, "hub_m": 120.0, "rotor_m": 150.0}}, {"type": "Feature", "geometry": {"type": "Point", "coordinates": [4.34628, 49.17615]}, "properties": {"kind": "turbine", "i": 96, "mw": 6.0, "hub_m": 120.0, "rotor_m": 150.0}}, {"type": "Feature", "geometry": {"type": "Point", "coordinates": [4.46868, 49.0794]}, "properties": {"kind": "turbine", "i": 97, "mw": 6.0, "hub_m": 120.0, "rotor_m": 150.0}}, {"type": "Feature", "geometry": {"type": "Point", "coordinates": [4.41195, 49.19507]}, "properties": {"kind": "turbine", "i": 98, "mw": 6.0, "hub_m": 120.0, "rotor_m": 150.0}}, {"type": "Feature", "geometry": {"type": "Point", "coordinates": [4.51046, 49.13799]}, "properties": {"kind": "turbine", "i": 99, "mw": 6.0, "hub_m": 120.0, "rotor_m": 150.0}}, {"type": "Feature", "geometry": {"type": "Point", "coordinates": [4.33099, 49.16647]}, "properties": {"kind": "turbine", "i": 100, "mw": 6.0, "hub_m": 120.0, "rotor_m": 150.0}}, {"type": "Feature", "geometry": {"type": "Point", "coordinates": [4.42331, 49.06683]}, "properties": {"kind": "turbine", "i": 101, "mw": 6.0, "hub_m": 120.0, "rotor_m": 150.0}}, {"type": "Feature", "geometry": {"type": "Point", "coordinates": [4.45695, 49.19123]}, "properties": {"kind": "turbine", "i": 102, "mw": 6.0, "hub_m": 120.0, "rotor_m": 150.0}}, {"type": "Feature", "geometry": {"type": "Point", "coordinates": [4.51516, 49.12807]}, "properties": {"kind": "turbine", "i": 103, "mw": 6.0, "hub_m": 120.0, "rotor_m": 150.0}}, {"type": "Feature", "geometry": {"type": "Point", "coordinates": [4.38189, 49.19544]}, "properties": {"kind": "turbine", "i": 104, "mw": 6.0, "hub_m": 120.0, "rotor_m": 150.0}}, {"type": "Feature", "geometry": {"type": "Point", "coordinates": [4.35362, 49.07752]}, "properties": {"kind": "turbine", "i": 105, "mw": 6.0, "hub_m": 120.0, "rotor_m": 150.0}}, {"type": "Feature", "geometry": {"type": "Point", "coordinates": [4.50946, 49.10515]}, "properties": {"kind": "turbine", "i": 106, "mw": 6.0, "hub_m": 120.0, "rotor_m": 150.0}}, {"type": "Feature", "geometry": {"type": "Point", "coordinates": [4.49162, 49.17765]}, "properties": {"kind": "turbine", "i": 107, "mw": 6.0, "hub_m": 120.0, "rotor_m": 150.0}}, {"type": "Feature", "geometry": {"type": "Point", "coordinates": [4.45839, 49.06967]}, "properties": {"kind": "turbine", "i": 108, "mw": 6.0, "hub_m": 120.0, "rotor_m": 150.0}}, {"type": "Feature", "geometry": {"type": "Point", "coordinates": [4.37834, 49.06737]}, "properties": {"kind": "turbine", "i": 109, "mw": 6.0, "hub_m": 120.0, "rotor_m": 150.0}}, {"type": "Feature", "geometry": {"type": "Point", "coordinates": [4.32897, 49.09095]}, "properties": {"kind": "turbine", "i": 110, "mw": 6.0, "hub_m": 120.0, "rotor_m": 150.0}}, {"type": "Feature", "geometry": {"type": "Point", "coordinates": [4.47689, 49.18769]}, "properties": {"kind": "turbine", "i": 111, "mw": 6.0, "hub_m": 120.0, "rotor_m": 150.0}}, {"type": "Feature", "geometry": {"type": "Point", "coordinates": [4.48367, 49.07921]}, "properties": {"kind": "turbine", "i": 112, "mw": 6.0, "hub_m": 120.0, "rotor_m": 150.0}}, {"type": "Feature", "geometry": {"type": "Point", "coordinates": [4.31923, 49.10091]}, "properties": {"kind": "turbine", "i": 113, "mw": 6.0, "hub_m": 120.0, "rotor_m": 150.0}}, {"type": "Feature", "geometry": {"type": "Point", "coordinates": [4.49897, 49.08886]}, "properties": {"kind": "turbine", "i": 114, "mw": 6.0, "hub_m": 120.0, "rotor_m": 150.0}}, {"type": "Feature", "geometry": {"type": "Point", "coordinates": [4.50635, 49.1676]}, "properties": {"kind": "turbine", "i": 115, "mw": 6.0, "hub_m": 120.0, "rotor_m": 150.0}}, {"type": "Feature", "geometry": {"type": "Point", "coordinates": [4.33126, 49.17632]}, "properties": {"kind": "turbine", "i": 116, "mw": 6.0, "hub_m": 120.0, "rotor_m": 150.0}}, {"type": "Feature", "geometry": {"type": "Point", "coordinates": [4.31053, 49.15028]}, "properties": {"kind": "turbine", "i": 117, "mw": 6.0, "hub_m": 120.0, "rotor_m": 150.0}}, {"type": "Feature", "geometry": {"type": "Point", "coordinates": [4.43219, 49.20139]}, "properties": {"kind": "turbine", "i": 118, "mw": 6.0, "hub_m": 120.0, "rotor_m": 150.0}}, {"type": "Feature", "geometry": {"type": "Point", "coordinates": [4.44321, 49.06329]}, "properties": {"kind": "turbine", "i": 119, "mw": 6.0, "hub_m": 120.0, "rotor_m": 150.0}}, {"type": "Feature", "geometry": {"type": "Point", "coordinates": [4.39711, 49.20182]}, "properties": {"kind": "turbine", "i": 120, "mw": 6.0, "hub_m": 120.0, "rotor_m": 150.0}}, {"type": "Feature", "geometry": {"type": "Point", "coordinates": [4.36686, 49.19562]}, "properties": {"kind": "turbine", "i": 121, "mw": 6.0, "hub_m": 120.0, "rotor_m": 150.0}}, {"type": "Feature", "geometry": {"type": "Point", "coordinates": [4.51976, 49.11487]}, "properties": {"kind": "turbine", "i": 122, "mw": 6.0, "hub_m": 120.0, "rotor_m": 150.0}}, {"type": "Feature", "geometry": {"type": "Point", "coordinates": [4.40814, 49.06044]}, "properties": {"kind": "turbine", "i": 123, "mw": 6.0, "hub_m": 120.0, "rotor_m": 150.0}}, {"type": "Feature", "geometry": {"type": "Point", "coordinates": [4.51606, 49.15762]}, "properties": {"kind": "turbine", "i": 124, "mw": 6.0, "hub_m": 120.0, "rotor_m": 150.0}}, {"type": "Feature", "geometry": {"type": "Point", "coordinates": [4.31588, 49.16336]}, "properties": {"kind": "turbine", "i": 125, "mw": 6.0, "hub_m": 120.0, "rotor_m": 150.0}}, {"type": "Feature", "geometry": {"type": "Point", "coordinates": [4.30526, 49.14049]}, "properties": {"kind": "turbine", "i": 126, "mw": 6.0, "hub_m": 120.0, "rotor_m": 150.0}}, {"type": "Feature", "geometry": {"type": "Point", "coordinates": [4.44722, 49.20121]}, "properties": {"kind": "turbine", "i": 127, "mw": 6.0, "hub_m": 120.0, "rotor_m": 150.0}}, {"type": "Feature", "geometry": {"type": "Point", "coordinates": [4.52547, 49.13779]}, "properties": {"kind": "turbine", "i": 128, "mw": 6.0, "hub_m": 120.0, "rotor_m": 150.0}}, {"type": "Feature", "geometry": {"type": "Point", "coordinates": [4.47338, 49.06948]}, "properties": {"kind": "turbine", "i": 129, "mw": 6.0, "hub_m": 120.0, "rotor_m": 150.0}}, {"type": "Feature", "geometry": {"type": "Point", "coordinates": [4.35174, 49.19251]}, "properties": {"kind": "turbine", "i": 130, "mw": 6.0, "hub_m": 120.0, "rotor_m": 150.0}}, {"type": "Feature", "geometry": {"type": "Point", "coordinates": [4.35835, 49.06761]}, "properties": {"kind": "turbine", "i": 131, "mw": 6.0, "hub_m": 120.0, "rotor_m": 150.0}}, {"type": "Feature", "geometry": {"type": "Point", "coordinates": [4.33653, 49.18612]}, "properties": {"kind": "turbine", "i": 132, "mw": 6.0, "hub_m": 120.0, "rotor_m": 150.0}}, {"type": "Feature", "geometry": {"type": "Point", "coordinates": [4.52577, 49.14764]}, "properties": {"kind": "turbine", "i": 133, "mw": 6.0, "hub_m": 120.0, "rotor_m": 150.0}}, {"type": "Feature", "geometry": {"type": "Point", "coordinates": [4.51416, 49.09523]}, "properties": {"kind": "turbine", "i": 134, "mw": 6.0, "hub_m": 120.0, "rotor_m": 150.0}}, {"type": "Feature", "geometry": {"type": "Point", "coordinates": [4.49192, 49.1875]}, "properties": {"kind": "turbine", "i": 135, "mw": 6.0, "hub_m": 120.0, "rotor_m": 150.0}}, {"type": "Feature", "geometry": {"type": "Point", "coordinates": [4.39305, 49.05734]}, "properties": {"kind": "turbine", "i": 136, "mw": 6.0, "hub_m": 120.0, "rotor_m": 150.0}}, {"type": "Feature", "geometry": {"type": "Point", "coordinates": [4.33853, 49.07441]}, "properties": {"kind": "turbine", "i": 137, "mw": 6.0, "hub_m": 120.0, "rotor_m": 150.0}}, {"type": "Feature", "geometry": {"type": "Point", "coordinates": [4.50665, 49.17745]}, "properties": {"kind": "turbine", "i": 138, "mw": 6.0, "hub_m": 120.0, "rotor_m": 150.0}}, {"type": "Feature", "geometry": {"type": "Point", "coordinates": [4.46225, 49.20102]}, "properties": {"kind": "turbine", "i": 139, "mw": 6.0, "hub_m": 120.0, "rotor_m": 150.0}}, {"type": "Feature", "geometry": {"type": "Point", "coordinates": [4.31397, 49.09112]}, "properties": {"kind": "turbine", "i": 140, "mw": 6.0, "hub_m": 120.0, "rotor_m": 150.0}}, {"type": "Feature", "geometry": {"type": "Point", "coordinates": [4.32371, 49.08115]}, "properties": {"kind": "turbine", "i": 141, "mw": 6.0, "hub_m": 120.0, "rotor_m": 150.0}}, {"type": "Feature", "geometry": {"type": "Point", "coordinates": [4.31623, 49.1765]}, "properties": {"kind": "turbine", "i": 142, "mw": 6.0, "hub_m": 120.0, "rotor_m": 150.0}}, {"type": "Feature", "geometry": {"type": "Point", "coordinates": [4.37214, 49.20541]}, "properties": {"kind": "turbine", "i": 143, "mw": 6.0, "hub_m": 120.0, "rotor_m": 150.0}}, {"type": "Feature", "geometry": {"type": "Point", "coordinates": [4.52137, 49.16741]}, "properties": {"kind": "turbine", "i": 144, "mw": 6.0, "hub_m": 120.0, "rotor_m": 150.0}}, {"type": "Feature", "geometry": {"type": "Point", "coordinates": [4.50367, 49.07895]}, "properties": {"kind": "turbine", "i": 145, "mw": 6.0, "hub_m": 120.0, "rotor_m": 150.0}}, {"type": "Feature", "geometry": {"type": "Point", "coordinates": [4.4822, 49.19748]}, "properties": {"kind": "turbine", "i": 146, "mw": 6.0, "hub_m": 120.0, "rotor_m": 150.0}}, {"type": "Feature", "geometry": {"type": "Point", "coordinates": [4.41743, 49.21143]}, "properties": {"kind": "turbine", "i": 147, "mw": 6.0, "hub_m": 120.0, "rotor_m": 150.0}}, {"type": "Feature", "geometry": {"type": "Point", "coordinates": [4.30078, 49.16025]}, "properties": {"kind": "turbine", "i": 148, "mw": 6.0, "hub_m": 120.0, "rotor_m": 150.0}}, {"type": "Feature", "geometry": {"type": "Point", "coordinates": [4.29551, 49.15045]}, "properties": {"kind": "turbine", "i": 149, "mw": 6.0, "hub_m": 120.0, "rotor_m": 150.0}}, {"type": "Feature", "geometry": {"type": "Point", "coordinates": [4.52947, 49.10489]}, "properties": {"kind": "turbine", "i": 150, "mw": 6.0, "hub_m": 120.0, "rotor_m": 150.0}}, {"type": "Feature", "geometry": {"type": "Point", "coordinates": [4.4024, 49.21161]}, "properties": {"kind": "turbine", "i": 151, "mw": 6.0, "hub_m": 120.0, "rotor_m": 150.0}}, {"type": "Feature", "geometry": {"type": "Point", "coordinates": [4.53108, 49.15742]}, "properties": {"kind": "turbine", "i": 152, "mw": 6.0, "hub_m": 120.0, "rotor_m": 150.0}}, {"type": "Feature", "geometry": {"type": "Point", "coordinates": [4.43748, 49.21118]}, "properties": {"kind": "turbine", "i": 153, "mw": 6.0, "hub_m": 120.0, "rotor_m": 150.0}}, {"type": "Feature", "geometry": {"type": "Point", "coordinates": [4.49337, 49.06923]}, "properties": {"kind": "turbine", "i": 154, "mw": 6.0, "hub_m": 120.0, "rotor_m": 150.0}}, {"type": "Feature", "geometry": {"type": "Point", "coordinates": [4.41785, 49.05047]}, "properties": {"kind": "turbine", "i": 155, "mw": 6.0, "hub_m": 120.0, "rotor_m": 150.0}}, {"type": "Feature", "geometry": {"type": "Point", "coordinates": [4.28999, 49.13081]}, "properties": {"kind": "turbine", "i": 156, "mw": 6.0, "hub_m": 120.0, "rotor_m": 150.0}}, {"type": "Feature", "geometry": {"type": "Point", "coordinates": [4.3215, 49.18629]}, "properties": {"kind": "turbine", "i": 157, "mw": 6.0, "hub_m": 120.0, "rotor_m": 150.0}}, {"type": "Feature", "geometry": {"type": "Point", "coordinates": [4.34326, 49.0645]}, "properties": {"kind": "turbine", "i": 158, "mw": 6.0, "hub_m": 120.0, "rotor_m": 150.0}}, {"type": "Feature", "geometry": {"type": "Point", "coordinates": [4.29025, 49.14066]}, "properties": {"kind": "turbine", "i": 159, "mw": 6.0, "hub_m": 120.0, "rotor_m": 150.0}}, {"type": "Feature", "geometry": {"type": "Point", "coordinates": [4.38736, 49.2118]}, "properties": {"kind": "turbine", "i": 160, "mw": 6.0, "hub_m": 120.0, "rotor_m": 150.0}}, {"type": "Feature", "geometry": {"type": "Point", "coordinates": [4.50695, 49.1873]}, "properties": {"kind": "turbine", "i": 161, "mw": 6.0, "hub_m": 120.0, "rotor_m": 150.0}}, {"type": "Feature", "geometry": {"type": "Point", "coordinates": [4.35808, 49.05776]}, "properties": {"kind": "turbine", "i": 162, "mw": 6.0, "hub_m": 120.0, "rotor_m": 150.0}}, {"type": "Feature", "geometry": {"type": "Point", "coordinates": [4.29914, 49.09785]}, "properties": {"kind": "turbine", "i": 163, "mw": 6.0, "hub_m": 120.0, "rotor_m": 150.0}}, {"type": "Feature", "geometry": {"type": "Point", "coordinates": [4.51886, 49.08532]}, "properties": {"kind": "turbine", "i": 164, "mw": 6.0, "hub_m": 120.0, "rotor_m": 150.0}}, {"type": "Feature", "geometry": {"type": "Point", "coordinates": [4.35711, 49.20559]}, "properties": {"kind": "turbine", "i": 165, "mw": 6.0, "hub_m": 120.0, "rotor_m": 150.0}}, {"type": "Feature", "geometry": {"type": "Point", "coordinates": [4.45252, 49.21099]}, "properties": {"kind": "turbine", "i": 166, "mw": 6.0, "hub_m": 120.0, "rotor_m": 150.0}}, {"type": "Feature", "geometry": {"type": "Point", "coordinates": [4.54059, 49.14087]}, "properties": {"kind": "turbine", "i": 167, "mw": 6.0, "hub_m": 120.0, "rotor_m": 150.0}}, {"type": "Feature", "geometry": {"type": "Point", "coordinates": [4.30103, 49.1701]}, "properties": {"kind": "turbine", "i": 168, "mw": 6.0, "hub_m": 120.0, "rotor_m": 150.0}}, {"type": "Feature", "geometry": {"type": "Point", "coordinates": [4.44283, 49.05016]}, "properties": {"kind": "turbine", "i": 169, "mw": 6.0, "hub_m": 120.0, "rotor_m": 150.0}}, {"type": "Feature", "geometry": {"type": "Point", "coordinates": [4.52916, 49.09504]}, "properties": {"kind": "turbine", "i": 170, "mw": 6.0, "hub_m": 120.0, "rotor_m": 150.0}}, {"type": "Feature", "geometry": {"type": "Point", "coordinates": [4.40277, 49.04737]}, "properties": {"kind": "turbine", "i": 171, "mw": 6.0, "hub_m": 120.0, "rotor_m": 150.0}}, {"type": "Feature", "geometry": {"type": "Point", "coordinates": [4.34199, 49.20248]}, "properties": {"kind": "turbine", "i": 172, "mw": 6.0, "hub_m": 120.0, "rotor_m": 150.0}}, {"type": "Feature", "geometry": {"type": "Point", "coordinates": [4.30871, 49.08132]}, "properties": {"kind": "turbine", "i": 173, "mw": 6.0, "hub_m": 120.0, "rotor_m": 150.0}}, {"type": "Feature", "geometry": {"type": "Point", "coordinates": [4.28473, 49.12101]}, "properties": {"kind": "turbine", "i": 174, "mw": 6.0, "hub_m": 120.0, "rotor_m": 150.0}}]}