{"type": "FeatureCollection", "features": [{"type": "Feature", "geometry": {"type": "MultiPolygon", "coordinates": [[[[-91.2511, 40.70745], [-91.24916, 40.70731], [-91.24811, 40.70779], [-91.24749, 40.70855], [-91.24631, 40.70853], [-91.24631, 40.70273], [-91.2457, 40.70156], [-91.25218, 40.69582], [-91.25239, 40.69487], [-91.25168, 40.69111], [-91.25237, 40.6888], [-91.25562, 40.68882], [-91.25558, 40.69218], [-91.25684, 40.69353], [-91.259, 40.69364], [-91.2604, 40.69262], [-91.26052, 40.68625], [-91.25932, 40.68526], [-91.25725, 40.68497], [-91.25752, 40.68369], [-91.25665, 40.68256], [-91.25452, 40.68211], [-91.25803, 40.67954], [-91.26006, 40.68355], [-91.26114, 40.68814], [-91.26123, 40.69047], [-91.26051, 40.6951], [-91.25862, 40.69954], [-91.25725, 40.70162], [-91.25375, 40.70545], [-91.2511, 40.70745]]], [[[-91.23483, 40.66835], [-91.23245, 40.66832], [-91.23246, 40.66633], [-91.23671, 40.66678], [-91.24301, 40.6684], [-91.23483, 40.66835]]], [[[-91.23602, 40.71234], [-91.23781, 40.71234], [-91.23916, 40.71235], [-91.23894, 40.71277], [-91.23509, 40.71345], [-91.23602, 40.71234]]], [[[-91.23899, 40.70848], [-91.23969, 40.70735], [-91.24125, 40.70522], [-91.24123, 40.70849], [-91.23899, 40.70848]]], [[[-91.24668, 40.68749], [-91.2469, 40.68892], [-91.24559, 40.69141], [-91.24499, 40.68861], [-91.2442, 40.68861], [-91.24693, 40.68285], [-91.24668, 40.68749]]], [[[-91.24808, 40.68044], [-91.24876, 40.67906], [-91.25172, 40.67295], [-91.25217, 40.67328], [-91.25124, 40.67422], [-91.25109, 40.67601], [-91.2516, 40.67697], [-91.25269, 40.67764], [-91.24781, 40.68102], [-91.24808, 40.68044]]], [[[-91.24653, 40.67251], [-91.23848, 40.68916], [-91.23434, 40.68908], [-91.23436, 40.68863], [-91.22288, 40.68842], [-91.22311, 40.67561], [-91.22473, 40.67317], [-91.22725, 40.67218], [-91.24653, 40.67251]]], [[[-91.24209, 40.6932], [-91.24261, 40.69212], [-91.24285, 40.69157], [-91.24386, 40.69367], [-91.24352, 40.6941], [-91.24167, 40.69405], [-91.24209, 40.6932]]], [[[-91.22446, 40.66876], [-91.2224, 40.66961], [-91.21973, 40.67178], [-91.21834, 40.67411], [-91.21797, 40.67722], [-91.21563, 40.67905], [-91.20244, 40.67885], [-91.20626, 40.67455], [-91.21068, 40.67132], [-91.21318, 40.66997], [-91.21863, 40.66785], [-91.22154, 40.66711], [-91.22739, 40.66631], [-91.22738, 40.66831], [-91.22446, 40.66876]]], [[[-91.20338, 40.69734], [-91.22218, 40.6976], [-91.22205, 40.70976], [-91.22285, 40.71138], [-91.22517, 40.71218], [-91.22441, 40.71336], [-91.22033, 40.71261], [-91.21472, 40.71074], [-91.2097, 40.70807], [-91.20747, 40.70647], [-91.20331, 40.70231], [-91.20338, 40.69734]]], [[[-91.20353, 40.68273], [-91.2158, 40.68292], [-91.21789, 40.68259], [-91.21772, 40.69366], [-91.20343, 40.69348], [-91.20346, 40.6899], [-91.20474, 40.68916], [-91.20519, 40.6881], [-91.20478, 40.68702], [-91.20349, 40.68625], [-91.20353, 40.68273]]], [[[-91.23655, 40.70324], [-91.23982, 40.69788], [-91.2406, 40.6979], [-91.23653, 40.70326], [-91.23655, 40.70324]]], [[[-91.23388, 40.69848], [-91.22758, 40.70842], [-91.22716, 40.7084], [-91.22726, 40.69769], [-91.2343, 40.69779], [-91.23388, 40.69848]]]]}, "properties": {"kind": "windland", "area_km2": 10.05}}, {"type": "Feature", "geometry": {"type": "MultiPolygon", "coordinates": [[[[-91.23848, 40.68916], [-91.23871, 40.68863], [-91.24205, 40.68171], [-91.24192, 40.6868], [-91.23991, 40.69113], [-91.2407, 40.6892], [-91.23848, 40.68916]]], [[[-91.24187, 40.68862], [-91.24168, 40.69571], [-91.23857, 40.69566], [-91.24056, 40.69154], [-91.24187, 40.68862]]], [[[-91.23438, 40.69613], [-91.23749, 40.69618], [-91.23591, 40.6991], [-91.23353, 40.69906], [-91.2343, 40.69779], [-91.2298, 40.69772], [-91.22984, 40.69606], [-91.23438, 40.69613]]], [[[-91.23746, 40.69791], [-91.2383, 40.69619], [-91.24167, 40.69625], [-91.24159, 40.69919], [-91.23965, 40.69916], [-91.2406, 40.6979], [-91.23982, 40.69788], [-91.23914, 40.69915], [-91.23674, 40.69911], [-91.23746, 40.69791]]]]}, "properties": {"kind": "pv", "area_km2": 0.46, "mw": 22.9}}, {"type": "Feature", "geometry": {"type": "Point", "coordinates": [-91.22538, 40.68353]}, "properties": {"kind": "turbine", "i": 0, "mw": 6.0, "hub_m": 120.0, "rotor_m": 150.0}}, {"type": "Feature", "geometry": {"type": "Point", "coordinates": [-91.23834, 40.68373]}, "properties": {"kind": "turbine", "i": 1, "mw": 6.0, "hub_m": 120.0, "rotor_m": 150.0}}, {"type": "Feature", "geometry": {"type": "Point", "coordinates": [-91.22927, 40.70003]}, "properties": {"kind": "turbine", "i": 2, "mw": 6.0, "hub_m": 120.0, "rotor_m": 150.0}}, {"type": "Feature", "geometry": {"type": "Point", "coordinates": [-91.2424, 40.69365]}, "properties": {"kind": "turbine", "i": 3, "mw": 6.0, "hub_m": 120.0, "rotor_m": 150.0}}, {"type": "Feature", "geometry": {"type": "Point", "coordinates": [-91.21234, 40.68661]}, "properties": {"kind": "turbine", "i": 4, "mw": 6.0, "hub_m": 120.0, "rotor_m": 150.0}}, {"type": "Feature", "geometry": {"type": "Point", "coordinates": [-91.21631, 40.69983]}, "properties": {"kind": "turbine", "i": 5, "mw": 6.0, "hub_m": 120.0, "rotor_m": 150.0}}, {"type": "Feature", "geometry": {"type": "Point", "coordinates": [-91.22996, 40.67373]}, "properties": {"kind": "turbine", "i": 6, "mw": 6.0, "hub_m": 120.0, "rotor_m": 150.0}}, {"type": "Feature", "geometry": {"type": "Point", "coordinates": [-91.24292, 40.67393]}, "properties": {"kind": "turbine", "i": 7, "mw": 6.0, "hub_m": 120.0, "rotor_m": 150.0}}]}