{"type": "FeatureCollection", "features": [{"type": "Feature", "geometry": {"type": "MultiPolygon", "coordinates": [[[[-91.27361, 40.70151], [-91.26908, 40.70152], [-91.26692, 40.70197], [-91.2605, 40.70581], [-91.25281, 40.70851], [-91.25231, 40.70855], [-91.2511, 40.70745], [-91.2499, 40.70722], [-91.24849, 40.70755], [-91.24749, 40.70855], [-91.24631, 40.70853], [-91.24631, 40.70273], [-91.2457, 40.70156], [-91.25218, 40.69582], [-91.25239, 40.69487], [-91.25168, 40.69111], [-91.25237, 40.6888], [-91.25562, 40.68882], [-91.25558, 40.69218], [-91.25684, 40.69353], [-91.25803, 40.69377], [-91.25923, 40.69356], [-91.26056, 40.69226], [-91.26052, 40.68625], [-91.25932, 40.68526], [-91.25725, 40.68497], [-91.25752, 40.68369], [-91.25665, 40.68256], [-91.25452, 40.68211], [-91.25861, 40.67917], [-91.26043, 40.67902], [-91.2633, 40.67741], [-91.26586, 40.67974], [-91.2696, 40.68079], [-91.27169, 40.68226], [-91.27549, 40.68334], [-91.2786, 40.68344], [-91.27936, 40.69075], [-91.27822, 40.69806], [-91.27698, 40.70154], [-91.27361, 40.70151]]], [[[-91.27667, 40.67956], [-91.27424, 40.67891], [-91.27187, 40.67732], [-91.269, 40.67657], [-91.27074, 40.67662], [-91.27253, 40.67616], [-91.27396, 40.67525], [-91.27474, 40.67423], [-91.27741, 40.67957], [-91.27667, 40.67956]]], [[[-91.26809, 40.66643], [-91.26757, 40.66775], [-91.26575, 40.66965], [-91.26365, 40.67067], [-91.25867, 40.66916], [-91.25658, 40.66794], [-91.25802, 40.66461], [-91.25845, 40.66607], [-91.26037, 40.66705], [-91.26289, 40.66676], [-91.26429, 40.66557], [-91.26446, 40.66464], [-91.26404, 40.66365], [-91.26201, 40.66253], [-91.25968, 40.6627], [-91.25817, 40.66413], [-91.25974, 40.66095], [-91.26106, 40.66084], [-91.26207, 40.66143], [-91.26559, 40.66396], [-91.26809, 40.66643]]], [[[-91.23267, 40.65252], [-91.2406, 40.6533], [-91.24527, 40.65427], [-91.2498, 40.65558], [-91.25496, 40.65761], [-91.25149, 40.66258], [-91.24856, 40.66848], [-91.23245, 40.66832], [-91.23267, 40.65252]]], [[[-91.19075, 40.70386], [-91.1962, 40.70482], [-91.21018, 40.71376], [-91.21297, 40.71732], [-91.21439, 40.7183], [-91.2202, 40.71933], [-91.21725, 40.72085], [-91.21097, 40.72229], [-91.20911, 40.71934], [-91.20474, 40.71643], [-91.19026, 40.71223], [-91.18599, 40.70703], [-91.18372, 40.70301], [-91.19075, 40.70386]]], [[[-91.21941, 40.72499], [-91.22108, 40.72594], [-91.22396, 40.72657], [-91.22407, 40.7273], [-91.21633, 40.72607], [-91.21941, 40.72499]]], [[[-91.23431, 40.7274], [-91.23452, 40.7272], [-91.23502, 40.72735], [-91.23429, 40.72742], [-91.23431, 40.7274]]], [[[-91.23105, 40.72158], [-91.23143, 40.7228], [-91.22506, 40.72276], [-91.22863, 40.71986], [-91.23093, 40.72109], [-91.23105, 40.72158]]], [[[-91.24456, 40.71952], [-91.24583, 40.71885], [-91.24582, 40.72555], [-91.24445, 40.7259], [-91.23954, 40.72451], [-91.23621, 40.72148], [-91.23558, 40.7194], [-91.23746, 40.71901], [-91.23841, 40.71777], [-91.23888, 40.71871], [-91.24006, 40.71939], [-91.24228, 40.71921], [-91.24456, 40.71952]]], [[[-91.23436, 40.7143], [-91.23602, 40.71234], [-91.23916, 40.71235], [-91.23858, 40.71532], [-91.23883, 40.71649], [-91.23842, 40.71728], [-91.23773, 40.71615], [-91.23436, 40.7143]]], [[[-91.23899, 40.70848], [-91.23969, 40.70735], [-91.24125, 40.70522], [-91.24123, 40.70849], [-91.23899, 40.70848]]], [[[-91.24668, 40.68749], [-91.2469, 40.68892], [-91.24559, 40.69141], [-91.24499, 40.68861], [-91.2442, 40.68861], [-91.24693, 40.68285], [-91.24668, 40.68749]]], [[[-91.24808, 40.68044], [-91.25199, 40.67238], [-91.25491, 40.67244], [-91.25554, 40.67331], [-91.2566, 40.67383], [-91.25593, 40.67402], [-91.25512, 40.67329], [-91.25398, 40.67294], [-91.25191, 40.67344], [-91.25117, 40.67441], [-91.25109, 40.67601], [-91.2516, 40.67697], [-91.25269, 40.67764], [-91.24781, 40.68102], [-91.24808, 40.68044]]], [[[-91.24653, 40.67251], [-91.23848, 40.68916], [-91.23434, 40.68908], [-91.23436, 40.68863], [-91.22288, 40.68842], [-91.22311, 40.67561], [-91.22473, 40.67317], [-91.22725, 40.67218], [-91.24653, 40.67251]]], [[[-91.24209, 40.6932], [-91.24261, 40.69212], [-91.24285, 40.69157], [-91.24386, 40.69367], [-91.24352, 40.6941], [-91.24167, 40.69405], [-91.24209, 40.6932]]], [[[-91.25414, 40.71226], [-91.26316, 40.70911], [-91.26918, 40.70544], [-91.27502, 40.70539], [-91.27219, 40.70945], [-91.26951, 40.70947], [-91.26804, 40.71014], [-91.26752, 40.71174], [-91.26888, 40.71309], [-91.26421, 40.7171], [-91.26046, 40.71957], [-91.2509, 40.71949], [-91.25094, 40.71242], [-91.25414, 40.71226]]], [[[-91.2509, 40.72335], [-91.25269, 40.72336], [-91.2509, 40.724], [-91.2509, 40.72335]]], [[[-91.22446, 40.66876], [-91.2224, 40.66961], [-91.21973, 40.67178], [-91.21834, 40.67411], [-91.21797, 40.67722], [-91.21563, 40.67905], [-91.18419, 40.67868], [-91.18421, 40.67608], [-91.18479, 40.67491], [-91.18953, 40.66849], [-91.19249, 40.66558], [-91.19947, 40.66047], [-91.20342, 40.65834], [-91.21204, 40.655], [-91.22135, 40.653], [-91.22757, 40.65251], [-91.22738, 40.66831], [-91.22446, 40.66876]]], [[[-91.21751, 40.7151], [-91.21702, 40.71497], [-91.21396, 40.71117], [-91.20311, 40.70417], [-91.20338, 40.69734], [-91.22218, 40.6976], [-91.22207, 40.70993], [-91.22298, 40.71148], [-91.22517, 40.71218], [-91.2231, 40.71541], [-91.21956, 40.71546], [-91.21751, 40.7151]]], [[[-91.20353, 40.68273], [-91.2158, 40.68292], [-91.21789, 40.68259], [-91.21772, 40.69366], [-91.20343, 40.69348], [-91.20346, 40.6899], [-91.20474, 40.68916], [-91.20519, 40.6881], [-91.20478, 40.68702], [-91.20349, 40.68625], [-91.20353, 40.68273]]], [[[-91.23655, 40.70324], [-91.23982, 40.69788], [-91.2406, 40.6979], [-91.23653, 40.70326], [-91.23655, 40.70324]]], [[[-91.23388, 40.69848], [-91.22758, 40.70842], [-91.22716, 40.7084], [-91.22726, 40.69769], [-91.2343, 40.69779], [-91.23388, 40.69848]]], [[[-91.18415, 40.68255], [-91.19846, 40.68267], [-91.19842, 40.68611], [-91.18412, 40.68596], [-91.18415, 40.68255]]], [[[-91.18414, 40.69908], [-91.18411, 40.68983], [-91.19838, 40.68998], [-91.19825, 40.70127], [-91.18414, 40.69908]]]]}, "properties": {"kind": "windland", "area_km2": 29.53}}, {"type": "Feature", "geometry": {"type": "Point", "coordinates": [-91.22538, 40.68353]}, "properties": {"kind": "turbine", "i": 0, "mw": 6.0, "hub_m": 120.0, "rotor_m": 150.0}}, {"type": "Feature", "geometry": {"type": "Point", "coordinates": [-91.23834, 40.68373]}, "properties": {"kind": "turbine", "i": 1, "mw": 6.0, "hub_m": 120.0, "rotor_m": 150.0}}, {"type": "Feature", "geometry": {"type": "Point", "coordinates": [-91.22927, 40.70003]}, "properties": {"kind": "turbine", "i": 2, "mw": 6.0, "hub_m": 120.0, "rotor_m": 150.0}}, {"type": "Feature", "geometry": {"type": "Point", "coordinates": [-91.2424, 40.69365]}, "properties": {"kind": "turbine", "i": 3, "mw": 6.0, "hub_m": 120.0, "rotor_m": 150.0}}, {"type": "Feature", "geometry": {"type": "Point", "coordinates": [-91.21234, 40.68661]}, "properties": {"kind": "turbine", "i": 4, "mw": 6.0, "hub_m": 120.0, "rotor_m": 150.0}}, {"type": "Feature", "geometry": {"type": "Point", "coordinates": [-91.21631, 40.69983]}, "properties": {"kind": "turbine", "i": 5, "mw": 6.0, "hub_m": 120.0, "rotor_m": 150.0}}, {"type": "Feature", "geometry": {"type": "Point", "coordinates": [-91.22996, 40.67373]}, "properties": {"kind": "turbine", "i": 6, "mw": 6.0, "hub_m": 120.0, "rotor_m": 150.0}}, {"type": "Feature", "geometry": {"type": "Point", "coordinates": [-91.24292, 40.67393]}, "properties": {"kind": "turbine", "i": 7, "mw": 6.0, "hub_m": 120.0, "rotor_m": 150.0}}, {"type": "Feature", "geometry": {"type": "Point", "coordinates": [-91.25545, 40.69056]}, "properties": {"kind": "turbine", "i": 8, "mw": 6.0, "hub_m": 120.0, "rotor_m": 150.0}}, {"type": "Feature", "geometry": {"type": "Point", "coordinates": [-91.25078, 40.70365]}, "properties": {"kind": "turbine", "i": 9, "mw": 6.0, "hub_m": 120.0, "rotor_m": 150.0}}, {"type": "Feature", "geometry": {"type": "Point", "coordinates": [-91.22036, 40.70976]}, "properties": {"kind": "turbine", "i": 10, "mw": 6.0, "hub_m": 120.0, "rotor_m": 150.0}}, {"type": "Feature", "geometry": {"type": "Point", "coordinates": [-91.2171, 40.67024]}, "properties": {"kind": "turbine", "i": 11, "mw": 6.0, "hub_m": 120.0, "rotor_m": 150.0}}, {"type": "Feature", "geometry": {"type": "Point", "coordinates": [-91.20396, 40.67662]}, "properties": {"kind": "turbine", "i": 12, "mw": 6.0, "hub_m": 120.0, "rotor_m": 150.0}}, {"type": "Feature", "geometry": {"type": "Point", "coordinates": [-91.23756, 40.71332]}, "properties": {"kind": "turbine", "i": 13, "mw": 6.0, "hub_m": 120.0, "rotor_m": 150.0}}, {"type": "Feature", "geometry": {"type": "Point", "coordinates": [-91.19488, 40.69292]}, "properties": {"kind": "turbine", "i": 14, "mw": 6.0, "hub_m": 120.0, "rotor_m": 150.0}}, {"type": "Feature", "geometry": {"type": "Point", "coordinates": [-91.26383, 40.70056]}, "properties": {"kind": "turbine", "i": 15, "mw": 6.0, "hub_m": 120.0, "rotor_m": 150.0}}, {"type": "Feature", "geometry": {"type": "Point", "coordinates": [-91.20731, 40.71285]}, "properties": {"kind": "turbine", "i": 16, "mw": 6.0, "hub_m": 120.0, "rotor_m": 150.0}}, {"type": "Feature", "geometry": {"type": "Point", "coordinates": [-91.22599, 40.66051]}, "properties": {"kind": "turbine", "i": 17, "mw": 6.0, "hub_m": 120.0, "rotor_m": 150.0}}, {"type": "Feature", "geometry": {"type": "Point", "coordinates": [-91.23895, 40.66071]}, "properties": {"kind": "turbine", "i": 18, "mw": 6.0, "hub_m": 120.0, "rotor_m": 150.0}}, {"type": "Feature", "geometry": {"type": "Point", "coordinates": [-91.26866, 40.68089]}, "properties": {"kind": "turbine", "i": 19, "mw": 6.0, "hub_m": 120.0, "rotor_m": 150.0}}, {"type": "Feature", "geometry": {"type": "Point", "coordinates": [-91.19453, 40.70607]}, "properties": {"kind": "turbine", "i": 20, "mw": 6.0, "hub_m": 120.0, "rotor_m": 150.0}}, {"type": "Feature", "geometry": {"type": "Point", "coordinates": [-91.21304, 40.66031]}, "properties": {"kind": "turbine", "i": 21, "mw": 6.0, "hub_m": 120.0, "rotor_m": 150.0}}, {"type": "Feature", "geometry": {"type": "Point", "coordinates": [-91.27272, 40.69082]}, "properties": {"kind": "turbine", "i": 22, "mw": 6.0, "hub_m": 120.0, "rotor_m": 150.0}}, {"type": "Feature", "geometry": {"type": "Point", "coordinates": [-91.19101, 40.67641]}, "properties": {"kind": "turbine", "i": 23, "mw": 6.0, "hub_m": 120.0, "rotor_m": 150.0}}]}