{"type": "FeatureCollection", "features": [{"type": "Feature", "geometry": {"type": "MultiPolygon", "coordinates": [[[[27.38513, 44.59513], [27.38595, 44.59359], [27.38809, 44.59281], [27.37082, 44.59428], [27.37414, 44.5952], [27.37904, 44.59588], [27.38495, 44.59576], [27.38513, 44.59513]]], [[[27.36308, 44.59013], [27.3698, 44.59012], [27.38703, 44.58865], [27.38611, 44.58516], [27.38339, 44.58441], [27.38118, 44.58316], [27.38019, 44.58199], [27.37965, 44.57995], [27.37784, 44.57907], [27.35633, 44.58072], [27.35709, 44.58312], [27.35902, 44.58641], [27.36181, 44.58937], [27.36308, 44.59013]]], [[[27.39291, 44.56419], [27.39519, 44.56352], [27.39674, 44.56326], [27.39492, 44.56236], [27.39291, 44.56309], [27.39251, 44.5642], [27.39291, 44.56419]]], [[[27.39264, 44.58539], [27.3917, 44.58552], [27.39221, 44.58744], [27.39422, 44.58686], [27.39585, 44.58565], [27.39798, 44.585], [27.40445, 44.58545], [27.40581, 44.58296], [27.40673, 44.57961], [27.40102, 44.57779], [27.39624, 44.57768], [27.39669, 44.57956], [27.39599, 44.58107], [27.39594, 44.58306], [27.3947, 44.58452], [27.39264, 44.58539]]], [[[27.40092, 44.58934], [27.39918, 44.58917], [27.39756, 44.59041], [27.3933, 44.59167], [27.39366, 44.5937], [27.39766, 44.59177], [27.40092, 44.58934]]], [[[27.35928, 44.57656], [27.36848, 44.57586], [27.36802, 44.57431], [27.36555, 44.57439], [27.36269, 44.57381], [27.35883, 44.57399], [27.35731, 44.57671], [27.35928, 44.57656]]]]}, "properties": {"kind": "windland", "area_km2": 3.43}}, {"type": "Feature", "geometry": {"type": "MultiPolygon", "coordinates": [[[[27.34481, 44.54492], [27.34491, 44.54427], [27.34621, 44.54441], [27.34345, 44.54304], [27.34346, 44.54525], [27.34381, 44.54544], [27.34481, 44.54492]]], [[[27.35545, 44.54362], [27.35309, 44.54239], [27.35243, 44.54232], [27.34408, 44.54234], [27.3478, 44.54396], [27.34861, 44.54457], [27.34976, 44.54463], [27.35093, 44.54504], [27.35202, 44.54515], [27.3506, 44.5434], [27.35189, 44.54354], [27.3532, 44.5442], [27.35346, 44.54536], [27.35643, 44.54774], [27.35852, 44.54819], [27.35997, 44.54495], [27.35933, 44.54544], [27.35545, 44.54362]]], [[[27.33122, 44.5572], [27.33094, 44.55718], [27.33094, 44.55766], [27.33129, 44.55763], [27.33122, 44.5572]]], [[[27.33632, 44.55973], [27.33605, 44.5595], [27.33625, 44.55923], [27.33806, 44.55909], [27.33759, 44.55577], [27.33186, 44.55607], [27.33205, 44.55641], [27.33205, 44.55784], [27.33176, 44.55813], [27.33095, 44.5582], [27.33096, 44.56039], [27.32885, 44.56039], [27.32932, 44.56462], [27.33399, 44.56416], [27.33392, 44.56332], [27.33451, 44.56295], [27.33507, 44.56293], [27.33551, 44.56312], [27.33575, 44.56398], [27.33666, 44.5638], [27.33712, 44.56344], [27.33662, 44.56001], [27.33632, 44.55973]], [[27.33273, 44.55811], [27.33228, 44.55776], [27.33233, 44.55719], [27.33279, 44.55692], [27.33359, 44.55695], [27.33399, 44.55732], [27.33393, 44.55784], [27.33348, 44.55811], [27.33273, 44.55811]]], [[[27.34717, 44.56008], [27.35048, 44.56002], [27.35174, 44.5576], [27.34962, 44.55758], [27.34728, 44.5578], [27.34674, 44.56036], [27.34717, 44.56008]]], [[[27.3439, 44.56294], [27.34403, 44.56259], [27.34444, 44.56237], [27.3451, 44.56237], [27.3455, 44.56265], [27.34553, 44.56201], [27.34111, 44.5619], [27.34119, 44.56343], [27.34392, 44.56316], [27.3439, 44.56294]]], [[[27.32588, 44.56152], [27.32605, 44.56327], [27.31839, 44.56402], [27.3184, 44.56569], [27.32857, 44.56469], [27.32821, 44.56155], [27.32588, 44.56152]]], [[[27.32936, 44.56684], [27.33148, 44.56663], [27.33282, 44.56723], [27.33423, 44.56749], [27.33311, 44.56947], [27.332, 44.56957], [27.33091, 44.57009], [27.33037, 44.57074], [27.33021, 44.57132], [27.32915, 44.57198], [27.32871, 44.57287], [27.32882, 44.57362], [27.32935, 44.57431], [27.32917, 44.57503], [27.32939, 44.57577], [27.33018, 44.57651], [27.33112, 44.57686], [27.33146, 44.57777], [27.33237, 44.57855], [27.31923, 44.57856], [27.31847, 44.5783], [27.31848, 44.58022], [27.33329, 44.58018], [27.33495, 44.57769], [27.33381, 44.57724], [27.33347, 44.57691], [27.33399, 44.57573], [27.33173, 44.57526], [27.3315, 44.57496], [27.3319, 44.57474], [27.33423, 44.57521], [27.33473, 44.57404], [27.33126, 44.5733], [27.33102, 44.57303], [27.33147, 44.57279], [27.33495, 44.57353], [27.33552, 44.57224], [27.33278, 44.57165], [27.33253, 44.57135], [27.33293, 44.57112], [27.3344, 44.57141], [27.33718, 44.56672], [27.33775, 44.56566], [27.33594, 44.56519], [27.33639, 44.56447], [27.3184, 44.56624], [27.31841, 44.56792], [27.32936, 44.56684]]], [[[27.33689, 44.56866], [27.33566, 44.57087], [27.33513, 44.57157], [27.33579, 44.57173], [27.33856, 44.5669], [27.33798, 44.56674], [27.33689, 44.56866]]], [[[27.34925, 44.57229], [27.34954, 44.57229], [27.34837, 44.57202], [27.34801, 44.57224], [27.34744, 44.57227], [27.34685, 44.57187], [27.34612, 44.5719], [27.34511, 44.57422], [27.34655, 44.57236], [27.34925, 44.57229]]], [[[27.35141, 44.57937], [27.34948, 44.57924], [27.3453, 44.57957], [27.34658, 44.58021], [27.34839, 44.58075], [27.35164, 44.58107], [27.37784, 44.57907], [27.37965, 44.57995], [27.38019, 44.58199], [27.38118, 44.58316], [27.38339, 44.58441], [27.38566, 44.58491], [27.38611, 44.58516], [27.38703, 44.58865], [27.36845, 44.59016], [27.36442, 44.59027], [27.35655, 44.58947], [27.35359, 44.58818], [27.35207, 44.58793], [27.34958, 44.58796], [27.34803, 44.58754], [27.34392, 44.58579], [27.34237, 44.58535], [27.34111, 44.58418], [27.33843, 44.58296], [27.33986, 44.581], [27.34222, 44.57982], [27.33818, 44.58015], [27.33813, 44.57978], [27.33794, 44.57985], [27.33421, 44.58516], [27.33606, 44.58548], [27.33764, 44.58606], [27.34264, 44.58739], [27.34685, 44.58918], [27.3485, 44.58968], [27.35195, 44.58977], [27.3528, 44.58993], [27.35474, 44.59091], [27.35573, 44.59121], [27.36321, 44.59202], [27.37001, 44.59195], [27.38921, 44.59032], [27.38979, 44.59015], [27.38801, 44.58334], [27.38748, 44.58338], [27.38625, 44.58293], [27.38435, 44.58258], [27.3844, 44.58126], [27.38407, 44.58093], [27.38371, 44.57923], [27.38398, 44.57875], [27.38386, 44.57812], [27.37362, 44.57863], [27.37363, 44.57773], [27.35141, 44.57937]]], [[[27.32045, 44.58103], [27.32204, 44.58203], [27.32505, 44.58213], [27.32693, 44.58273], [27.32792, 44.58281], [27.33349, 44.585], [27.33702, 44.58013], [27.33473, 44.5806], [27.333, 44.58074], [27.31888, 44.58076], [27.32045, 44.58103]], [[27.33273, 44.58241], [27.33263, 44.58255], [27.33229, 44.58241], [27.33273, 44.58241]]], [[[27.32736, 44.58332], [27.32487, 44.58265], [27.32216, 44.58264], [27.321, 44.58224], [27.32016, 44.58153], [27.31848, 44.58122], [27.31849, 44.5832], [27.31882, 44.58324], [27.31953, 44.58374], [27.32181, 44.58447], [27.32405, 44.58441], [27.32527, 44.58484], [27.32701, 44.58514], [27.32838, 44.58573], [27.32641, 44.5883], [27.32579, 44.58945], [27.32559, 44.59047], [27.32598, 44.59181], [27.32264, 44.59642], [27.32526, 44.59641], [27.33316, 44.58548], [27.32825, 44.58351], [27.32736, 44.58332]]], [[[27.3384, 44.58935], [27.3375, 44.59093], [27.33751, 44.59137], [27.33653, 44.59255], [27.33503, 44.59203], [27.33403, 44.592], [27.33011, 44.5909], [27.32611, 44.59641], [27.32873, 44.5964], [27.33034, 44.5942], [27.33554, 44.59534], [27.33698, 44.59533], [27.33878, 44.59486], [27.33988, 44.5942], [27.34106, 44.59294], [27.34222, 44.58994], [27.34515, 44.59123], [27.34724, 44.59188], [27.34912, 44.59217], [27.35141, 44.59215], [27.35313, 44.59299], [27.35485, 44.5935], [27.36399, 44.59447], [27.37038, 44.59432], [27.38809, 44.59281], [27.38678, 44.59312], [27.38578, 44.59374], [27.38537, 44.59437], [27.38445, 44.59732], [27.38368, 44.59744], [27.38278, 44.59784], [27.38195, 44.59897], [27.38018, 44.59856], [27.37921, 44.59852], [27.37818, 44.59873], [27.37721, 44.5993], [27.37666, 44.60001], [27.37887, 44.60054], [27.37923, 44.60021], [27.37964, 44.60017], [27.38259, 44.60087], [27.38299, 44.60006], [27.38395, 44.60032], [27.38427, 44.59916], [27.38464, 44.59898], [27.385, 44.59923], [27.38481, 44.60019], [27.386, 44.60046], [27.38767, 44.59471], [27.38812, 44.59455], [27.3905, 44.59496], [27.39054, 44.59325], [27.38993, 44.59069], [27.38935, 44.59085], [27.37008, 44.59249], [27.36427, 44.59265], [27.35616, 44.59185], [27.35437, 44.59139], [27.35245, 44.59042], [27.34829, 44.5902], [27.34648, 44.58965], [27.34232, 44.58788], [27.3389, 44.58693], [27.33884, 44.58866], [27.3384, 44.58935]]], [[[27.33905, 44.60321], [27.33699, 44.60298], [27.33267, 44.60148], [27.33119, 44.60051], [27.3312, 44.60299], [27.33139, 44.60309], [27.33626, 44.60478], [27.33808, 44.60492], [27.33963, 44.60537], [27.34325, 44.60536], [27.34118, 44.60391], [27.33905, 44.60321]]], [[[27.35354, 44.60231], [27.35265, 44.60263], [27.35018, 44.60305], [27.3481, 44.60377], [27.34666, 44.60496], [27.34584, 44.60619], [27.34448, 44.60641], [27.34382, 44.60584], [27.34383, 44.60835], [27.34739, 44.60776], [27.34802, 44.60732], [27.34887, 44.60591], [27.35015, 44.60502], [27.35557, 44.6038], [27.3566, 44.6043], [27.35671, 44.60522], [27.35639, 44.60623], [27.35556, 44.60738], [27.35493, 44.61018], [27.35604, 44.60973], [27.35753, 44.60861], [27.35881, 44.60685], [27.35928, 44.6053], [27.35913, 44.60391], [27.3584, 44.60298], [27.35662, 44.60212], [27.35515, 44.60198], [27.35354, 44.60231]]], [[[27.36061, 44.53379], [27.36229, 44.53328], [27.35598, 44.5333], [27.35599, 44.53507], [27.36061, 44.53379]]], [[[27.37099, 44.53589], [27.37091, 44.53326], [27.36446, 44.53328], [27.36306, 44.53365], [27.36431, 44.5387], [27.36452, 44.54065], [27.36742, 44.53959], [27.36945, 44.5385], [27.37044, 44.5375], [27.37099, 44.53589]], [[27.36858, 44.53624], [27.36773, 44.53738], [27.3665, 44.53804], [27.36616, 44.53666], [27.36697, 44.53541], [27.36709, 44.53433], [27.36862, 44.5339], [27.36858, 44.53624]]], [[[27.37223, 44.538], [27.37223, 44.538], [27.37223, 44.538], [27.37223, 44.538]]], [[[27.37047, 44.539], [27.37088, 44.53894], [27.37069, 44.53894], [27.37085, 44.53828], [27.37149, 44.53787], [27.37182, 44.53681], [27.37168, 44.53636], [27.37113, 44.53772], [27.37, 44.53887], [27.3678, 44.54006], [27.36328, 44.54174], [27.36232, 44.54243], [27.36131, 44.54382], [27.3617, 44.54398], [27.36282, 44.54258], [27.36445, 44.54158], [27.37047, 44.539]]], [[[27.36342, 44.5408], [27.36383, 44.54036], [27.36345, 44.53833], [27.36124, 44.53893], [27.36131, 44.53928], [27.36002, 44.53907], [27.35858, 44.53913], [27.35796, 44.53795], [27.35702, 44.53715], [27.35765, 44.53697], [27.35901, 44.53782], [27.36031, 44.53819], [27.35932, 44.53472], [27.35599, 44.53565], [27.35603, 44.54105], [27.35876, 44.54246], [27.35942, 44.54202], [27.36022, 44.54221], [27.36051, 44.54264], [27.36021, 44.54326], [27.36141, 44.54198], [27.36342, 44.5408]]], [[[27.37188, 44.54106], [27.3736, 44.54086], [27.37521, 44.54122], [27.37357, 44.54019], [27.37283, 44.53932], [27.37305, 44.53884], [27.37276, 44.53866], [27.37293, 44.53904], [27.3727, 44.53932], [27.37046, 44.53957], [27.3649, 44.54202], [27.36339, 44.54294], [27.36232, 44.54439], [27.37467, 44.5546], [27.38046, 44.55841], [27.38056, 44.55737], [27.38423, 44.54421], [27.38674, 44.53809], [27.38566, 44.53788], [27.38529, 44.53746], [27.38436, 44.53751], [27.38301, 44.54066], [27.38256, 44.54068], [27.38234, 44.5414], [27.38334, 44.54182], [27.38237, 44.54397], [27.38196, 44.54389], [27.37884, 44.55514], [27.3764, 44.55349], [27.36507, 44.54412], [27.36627, 44.54336], [27.37144, 44.54111], [27.37188, 44.54106]]], [[[27.36572, 44.54798], [27.36106, 44.54434], [27.35923, 44.54839], [27.36012, 44.54891], [27.36036, 44.54951], [27.36098, 44.54982], [27.36202, 44.54748], [27.36728, 44.55177], [27.36522, 44.55111], [27.36198, 44.55055], [27.36214, 44.55109], [27.36309, 44.55203], [27.36384, 44.55247], [27.36382, 44.55273], [27.36613, 44.55344], [27.36682, 44.55396], [27.36783, 44.55521], [27.36881, 44.55587], [27.37337, 44.558], [27.37848, 44.56103], [27.38045, 44.56189], [27.38027, 44.56152], [27.37971, 44.56135], [27.37978, 44.56108], [27.38017, 44.56098], [27.37987, 44.56036], [27.37914, 44.55977], [27.37949, 44.55858], [27.37411, 44.55497], [27.36572, 44.54798]], [[27.37044, 44.55445], [27.36994, 44.55415], [27.3697, 44.55381], [27.37051, 44.55449], [27.37044, 44.55445]]], [[[27.35585, 44.55445], [27.35502, 44.55594], [27.35653, 44.55614], [27.35698, 44.55667], [27.35655, 44.55741], [27.3556, 44.55754], [27.35644, 44.55774], [27.35678, 44.5573], [27.35746, 44.55721], [27.35793, 44.55736], [27.35816, 44.5577], [27.35859, 44.55773], [27.35859, 44.55698], [27.35726, 44.55696], [27.35883, 44.55429], [27.35657, 44.55352], [27.35585, 44.55445]]], [[[27.35471, 44.55713], [27.35443, 44.557], [27.35429, 44.55725], [27.35488, 44.55739], [27.35497, 44.5572], [27.35471, 44.55713]]], [[[27.35092, 44.56071], [27.35061, 44.56126], [27.35095, 44.56136], [27.35195, 44.55994], [27.35142, 44.55978], [27.35092, 44.56071]]], [[[27.36199, 44.57288], [27.36135, 44.5728], [27.3615, 44.57212], [27.35923, 44.57192], [27.35815, 44.57464], [27.35883, 44.57399], [27.36162, 44.57384], [27.36269, 44.57381], [27.36603, 44.57442], [27.36777, 44.57425], [27.36802, 44.57431], [27.368, 44.57508], [27.36848, 44.57586], [27.35731, 44.57671], [27.3566, 44.57843], [27.37183, 44.57728], [27.38064, 44.57658], [27.3811, 44.57609], [27.38071, 44.57482], [27.37847, 44.57538], [27.37746, 44.57518], [27.37687, 44.57641], [27.37653, 44.57648], [27.3754, 44.57622], [27.37507, 44.57692], [27.37467, 44.57703], [27.37297, 44.57657], [27.37321, 44.5757], [27.37166, 44.57532], [27.37148, 44.57503], [27.37039, 44.57491], [27.37048, 44.57399], [27.37026, 44.57348], [27.36595, 44.57236], [27.3642, 44.57221], [27.36319, 44.57215], [27.36303, 44.57258], [27.36217, 44.57256], [27.36199, 44.57288]]], [[[27.37374, 44.57624], [27.3738, 44.57626], [27.37397, 44.57589], [27.37392, 44.57588], [27.37374, 44.57624]]], [[[27.38679, 44.53545], [27.38786, 44.53548], [27.38797, 44.53508], [27.3871, 44.53509], [27.38679, 44.53545]]], [[[27.3857, 44.53624], [27.3857, 44.53624], [27.3857, 44.53624], [27.3857, 44.53624]]], [[[27.38007, 44.53756], [27.37971, 44.53821], [27.3751, 44.53715], [27.37472, 44.53324], [27.3724, 44.53325], [27.37268, 44.53714], [27.37337, 44.53835], [27.37425, 44.5387], [27.37922, 44.53985], [27.38091, 44.53965], [27.38171, 44.53913], [27.38233, 44.53807], [27.38231, 44.53455], [27.3817, 44.5354], [27.38128, 44.53658], [27.38064, 44.53693], [27.38007, 44.53756]]], [[[27.39123, 44.53935], [27.39239, 44.53645], [27.39228, 44.53508], [27.39118, 44.53363], [27.39121, 44.53319], [27.38888, 44.5332], [27.38862, 44.53554], [27.38534, 44.54321], [27.38161, 44.5564], [27.38395, 44.55653], [27.3879, 44.54278], [27.38875, 44.54085], [27.39033, 44.54015], [27.39123, 44.53935]]], [[[27.38734, 44.55727], [27.38704, 44.55756], [27.38613, 44.55736], [27.38518, 44.55741], [27.38608, 44.55891], [27.3892, 44.55886], [27.38928, 44.55617], [27.38734, 44.55727]]], [[[27.38012, 44.55976], [27.38054, 44.56011], [27.38098, 44.56107], [27.38131, 44.56052], [27.38065, 44.55969], [27.38074, 44.55928], [27.38012, 44.55976]]], [[[27.38987, 44.56205], [27.38983, 44.56183], [27.38971, 44.56074], [27.38949, 44.56092], [27.38974, 44.56192], [27.38961, 44.56308], [27.38977, 44.56312], [27.38987, 44.56205]]], [[[27.39158, 44.56023], [27.39111, 44.56016], [27.39041, 44.56031], [27.39068, 44.56238], [27.3903, 44.56362], [27.38994, 44.56371], [27.38926, 44.56358], [27.38821, 44.56404], [27.38582, 44.5639], [27.38713, 44.56445], [27.38708, 44.56486], [27.3894, 44.56591], [27.39039, 44.56624], [27.39143, 44.56635], [27.39346, 44.56612], [27.39608, 44.56524], [27.3994, 44.56471], [27.40311, 44.5647], [27.40394, 44.56456], [27.4077, 44.56353], [27.40978, 44.56263], [27.41019, 44.56221], [27.41027, 44.56142], [27.4096, 44.55904], [27.40968, 44.55826], [27.4104, 44.55721], [27.41173, 44.55655], [27.41428, 44.55619], [27.41782, 44.55659], [27.41897, 44.55697], [27.41993, 44.5577], [27.42127, 44.55832], [27.42346, 44.55803], [27.42616, 44.55827], [27.42745, 44.55863], [27.42726, 44.55692], [27.4269, 44.55647], [27.42607, 44.55642], [27.42545, 44.55674], [27.42504, 44.55762], [27.4244, 44.55769], [27.42413, 44.55737], [27.42421, 44.55629], [27.42467, 44.55585], [27.42391, 44.55623], [27.4224, 44.55625], [27.42273, 44.55655], [27.42237, 44.55755], [27.42129, 44.55794], [27.42088, 44.55773], [27.42035, 44.5562], [27.41947, 44.55649], [27.41898, 44.55637], [27.41865, 44.55602], [27.4048, 44.55588], [27.40462, 44.5561], [27.40352, 44.55632], [27.40016, 44.55675], [27.39843, 44.55773], [27.39608, 44.55834], [27.39525, 44.55894], [27.39275, 44.55944], [27.39244, 44.55998], [27.39158, 44.56023]], [[27.39377, 44.56397], [27.39251, 44.5642], [27.39291, 44.56309], [27.39468, 44.56249], [27.39598, 44.56154], [27.39675, 44.56022], [27.39693, 44.55916], [27.39886, 44.5585], [27.40268, 44.55766], [27.40732, 44.55748], [27.40703, 44.55905], [27.40764, 44.56138], [27.40631, 44.56196], [27.40291, 44.56286], [27.39889, 44.56291], [27.39545, 44.56346], [27.39377, 44.56397]]], [[[27.38751, 44.56626], [27.38754, 44.56672], [27.38844, 44.56658], [27.38826, 44.56649], [27.38751, 44.56626]]], [[[27.39049, 44.56709], [27.38978, 44.56699], [27.38909, 44.56681], [27.38974, 44.56753], [27.39024, 44.56768], [27.39086, 44.56753], [27.39104, 44.56765], [27.39155, 44.56719], [27.39049, 44.56709]]], [[[27.38872, 44.56893], [27.3883, 44.56871], [27.38778, 44.56904], [27.38822, 44.56922], [27.38878, 44.56981], [27.38851, 44.57043], [27.38809, 44.57069], [27.38813, 44.57078], [27.38899, 44.57039], [27.38979, 44.5708], [27.39031, 44.57035], [27.39097, 44.57034], [27.3914, 44.57062], [27.39146, 44.57112], [27.39184, 44.57142], [27.39216, 44.57119], [27.39365, 44.57235], [27.39414, 44.57212], [27.39544, 44.57274], [27.3951, 44.57314], [27.39558, 44.57331], [27.3961, 44.57312], [27.39675, 44.57361], [27.39692, 44.57354], [27.3949, 44.57215], [27.39389, 44.5711], [27.39335, 44.571], [27.39287, 44.57058], [27.39272, 44.57018], [27.39308, 44.56954], [27.39262, 44.56926], [27.39227, 44.56926], [27.39205, 44.56942], [27.39218, 44.56963], [27.39136, 44.57013], [27.39033, 44.56927], [27.38999, 44.56949], [27.38872, 44.56893]]], [[[27.38722, 44.57602], [27.38725, 44.57618], [27.38779, 44.57613], [27.38733, 44.57592], [27.38722, 44.57602]]], [[[27.38862, 44.58106], [27.38826, 44.58101], [27.38831, 44.58127], [27.38843, 44.58115], [27.38862, 44.58106]]], [[[27.38797, 44.59622], [27.38702, 44.59957], [27.38751, 44.59969], [27.38909, 44.5968], [27.38954, 44.59541], [27.38828, 44.59514], [27.38797, 44.59622]]], [[[27.37919, 44.60277], [27.38039, 44.60267], [27.37991, 44.60371], [27.37895, 44.60409], [27.3783, 44.60468], [27.37802, 44.60541], [27.37808, 44.60597], [27.37851, 44.60666], [27.37927, 44.60718], [27.38241, 44.60799], [27.38229, 44.60949], [27.38249, 44.61099], [27.38416, 44.61655], [27.38505, 44.61842], [27.38602, 44.61984], [27.38905, 44.62322], [27.39178, 44.62321], [27.38794, 44.6189], [27.38663, 44.61668], [27.38471, 44.61039], [27.38462, 44.60675], [27.38101, 44.60596], [27.38036, 44.60563], [27.38069, 44.60528], [27.38207, 44.60201], [27.37923, 44.6013], [27.37867, 44.60275], [27.37919, 44.60277]]], [[[27.39178, 44.60967], [27.39127, 44.60989], [27.38877, 44.60956], [27.38749, 44.60933], [27.38735, 44.60895], [27.38541, 44.60867], [27.38564, 44.61103], [27.38714, 44.61601], [27.38786, 44.61751], [27.38861, 44.61864], [27.39266, 44.62321], [27.39434, 44.6232], [27.39434, 44.62198], [27.39063, 44.61781], [27.38985, 44.61661], [27.38805, 44.61114], [27.39143, 44.61155], [27.39252, 44.61136], [27.39354, 44.61078], [27.39529, 44.61078], [27.39657, 44.61012], [27.39726, 44.60902], [27.3992, 44.60477], [27.39923, 44.60405], [27.39889, 44.60338], [27.40075, 44.59935], [27.40146, 44.59907], [27.40215, 44.5985], [27.40243, 44.59797], [27.40246, 44.59722], [27.40208, 44.59651], [27.40113, 44.59587], [27.39366, 44.59402], [27.3933, 44.59167], [27.39756, 44.59041], [27.39918, 44.58917], [27.40755, 44.59002], [27.41094, 44.59127], [27.4125, 44.59154], [27.41991, 44.59188], [27.42709, 44.59274], [27.42846, 44.59273], [27.43076, 44.59237], [27.43297, 44.59182], [27.43515, 44.59174], [27.43287, 44.5926], [27.43079, 44.59371], [27.42965, 44.59456], [27.42546, 44.59278], [27.42301, 44.59247], [27.42155, 44.59266], [27.41826, 44.59356], [27.41556, 44.59476], [27.41319, 44.59692], [27.41212, 44.59878], [27.41091, 44.59951], [27.40991, 44.60064], [27.40943, 44.60209], [27.40966, 44.60561], [27.40911, 44.60619], [27.40646, 44.60774], [27.40458, 44.60835], [27.40365, 44.60891], [27.40276, 44.61016], [27.40265, 44.61125], [27.402, 44.61196], [27.40051, 44.61268], [27.39855, 44.61419], [27.40208, 44.61417], [27.40359, 44.61352], [27.40539, 44.61181], [27.40517, 44.61083], [27.40556, 44.61014], [27.4068, 44.6096], [27.40797, 44.60939], [27.40869, 44.60869], [27.4112, 44.60735], [27.41232, 44.60605], [27.41199, 44.6023], [27.41225, 44.6014], [27.4128, 44.60076], [27.41449, 44.59977], [27.41482, 44.59871], [27.41529, 44.59832], [27.41537, 44.59789], [27.41684, 44.5964], [27.41795, 44.59576], [27.41936, 44.59522], [27.4232, 44.5943], [27.42451, 44.59449], [27.42793, 44.59609], [27.42954, 44.59644], [27.4313, 44.59642], [27.43124, 44.59604], [27.4325, 44.59508], [27.43442, 44.59406], [27.43678, 44.59321], [27.43953, 44.59267], [27.44114, 44.59217], [27.44259, 44.59201], [27.44453, 44.59261], [27.44452, 44.59105], [27.43911, 44.58929], [27.4342, 44.58999], [27.43239, 44.59], [27.43038, 44.59055], [27.42733, 44.59092], [27.42026, 44.59005], [27.41297, 44.58973], [27.4115, 44.58944], [27.40834, 44.58825], [27.39929, 44.58733], [27.39798, 44.5875], [27.39619, 44.58886], [27.39064, 44.59047], [27.39129, 44.5932], [27.39121, 44.59521], [27.39992, 44.59729], [27.40017, 44.59753], [27.39983, 44.59781], [27.39684, 44.60417], [27.39692, 44.60444], [27.39476, 44.60907], [27.39436, 44.60922], [27.3928, 44.60883], [27.3923, 44.6097], [27.39178, 44.60967]]], [[[27.40022, 44.54903], [27.39895, 44.54928], [27.39815, 44.54976], [27.39767, 44.55043], [27.39752, 44.55134], [27.39932, 44.55115], [27.40032, 44.55003], [27.40033, 44.5491], [27.40097, 44.5491], [27.40022, 44.54903]]], [[[27.39396, 44.56694], [27.39344, 44.567], [27.39225, 44.56718], [27.393, 44.56766], [27.39416, 44.56702], [27.39396, 44.56694]]], [[[27.39477, 44.56865], [27.39507, 44.56871], [27.39477, 44.56831], [27.39465, 44.56837], [27.39477, 44.56865]]], [[[27.39053, 44.57451], [27.39016, 44.57397], [27.3875, 44.57306], [27.38725, 44.57347], [27.38687, 44.57362], [27.38763, 44.5754], [27.38845, 44.57608], [27.39557, 44.57552], [27.39457, 44.57532], [27.39064, 44.57565], [27.39044, 44.57546], [27.39053, 44.57451]]], [[[27.39661, 44.57598], [27.38923, 44.57656], [27.38952, 44.57782], [27.38976, 44.57784], [27.39001, 44.57863], [27.39197, 44.57857], [27.39239, 44.57879], [27.39256, 44.57919], [27.39217, 44.57973], [27.38979, 44.58031], [27.38978, 44.58061], [27.39085, 44.58046], [27.39142, 44.58071], [27.39151, 44.58129], [27.39201, 44.58192], [27.39184, 44.58237], [27.38998, 44.58276], [27.38864, 44.5828], [27.3905, 44.58993], [27.39578, 44.5884], [27.39722, 44.5872], [27.39865, 44.58678], [27.40853, 44.58773], [27.41182, 44.58895], [27.41309, 44.5892], [27.42034, 44.58952], [27.42741, 44.59038], [27.43017, 44.59003], [27.43223, 44.58947], [27.43411, 44.58945], [27.43899, 44.58876], [27.40297, 44.5765], [27.39966, 44.57594], [27.39661, 44.57598]], [[27.39204, 44.58549], [27.3931, 44.58527], [27.39434, 44.58475], [27.39578, 44.58339], [27.39614, 44.58239], [27.39599, 44.58107], [27.39669, 44.57956], [27.3966, 44.57853], [27.39624, 44.57768], [27.39948, 44.5776], [27.40211, 44.57805], [27.43091, 44.58787], [27.42759, 44.58854], [27.42056, 44.58769], [27.41345, 44.58738], [27.40902, 44.58593], [27.39875, 44.58494], [27.39642, 44.58539], [27.39536, 44.58594], [27.39422, 44.58686], [27.39221, 44.58744], [27.3917, 44.58552], [27.39204, 44.58549]]], [[[27.40994, 44.61303], [27.41091, 44.61342], [27.4123, 44.6135], [27.41368, 44.6131], [27.41473, 44.61238], [27.41526, 44.61137], [27.41523, 44.61038], [27.41668, 44.60877], [27.41727, 44.60754], [27.41745, 44.60534], [27.41719, 44.60446], [27.41737, 44.60369], [27.41889, 44.60272], [27.42046, 44.60097], [27.42298, 44.60081], [27.42568, 44.60242], [27.42776, 44.60421], [27.42941, 44.60507], [27.43203, 44.60506], [27.43202, 44.60375], [27.43138, 44.60387], [27.43113, 44.60347], [27.42962, 44.60294], [27.4274, 44.60104], [27.42512, 44.59978], [27.42404, 44.59884], [27.42143, 44.59898], [27.41891, 44.59934], [27.41689, 44.60156], [27.41496, 44.60288], [27.41456, 44.60468], [27.41487, 44.60532], [27.41473, 44.60722], [27.41438, 44.60795], [27.41279, 44.60973], [27.41261, 44.61135], [27.41169, 44.61167], [27.41018, 44.6106], [27.40916, 44.61105], [27.40782, 44.61124], [27.40701, 44.61257], [27.4055, 44.61416], [27.40864, 44.61415], [27.40971, 44.61287], [27.40994, 44.61303]]], [[[27.41654, 44.55288], [27.41592, 44.55245], [27.41496, 44.55214], [27.4139, 44.55212], [27.41292, 44.55239], [27.41307, 44.55428], [27.41397, 44.55417], [27.41407, 44.55384], [27.41444, 44.55376], [27.41509, 44.55453], [27.41639, 44.55466], [27.41783, 44.55454], [27.41874, 44.55478], [27.4189, 44.55535], [27.41957, 44.5549], [27.41914, 44.55403], [27.4194, 44.55374], [27.4198, 44.55382], [27.4203, 44.55474], [27.42075, 44.55492], [27.42005, 44.55371], [27.42215, 44.55386], [27.42361, 44.55345], [27.42545, 44.55382], [27.4273, 44.55465], [27.42732, 44.5535], [27.42777, 44.55329], [27.42806, 44.5535], [27.42815, 44.55496], [27.4294, 44.55545], [27.43069, 44.55679], [27.43167, 44.55728], [27.43165, 44.55435], [27.43067, 44.55537], [27.43018, 44.55281], [27.4296, 44.55219], [27.42872, 44.55177], [27.42769, 44.55162], [27.4269, 44.55171], [27.42597, 44.55207], [27.4253, 44.55266], [27.42362, 44.55279], [27.42177, 44.55196], [27.4194, 44.55181], [27.41792, 44.55216], [27.41654, 44.55288]]], [[[27.42547, 44.55546], [27.42531, 44.55554], [27.42623, 44.55544], [27.42583, 44.55545], [27.42547, 44.55546]]], [[[27.42727, 44.55555], [27.4272, 44.55553], [27.42731, 44.55559], [27.42727, 44.55555]]], [[[27.42153, 44.55627], [27.4212, 44.5557], [27.42102, 44.55575], [27.42116, 44.55626], [27.42166, 44.55627], [27.42178, 44.55626], [27.42153, 44.55627]]], [[[27.42134, 44.55681], [27.42151, 44.55733], [27.4219, 44.55679], [27.42134, 44.55681]]], [[[27.42881, 44.55879], [27.42889, 44.55893], [27.42874, 44.55837], [27.42875, 44.55856], [27.42881, 44.55879]]], [[[27.42885, 44.55924], [27.42872, 44.55935], [27.4289, 44.55947], [27.42889, 44.55914], [27.42885, 44.55924]]], [[[27.42309, 44.55911], [27.42084, 44.55923], [27.4195, 44.55968], [27.41771, 44.55966], [27.41771, 44.56002], [27.41944, 44.56079], [27.42072, 44.5611], [27.42214, 44.56108], [27.42416, 44.56074], [27.42563, 44.56085], [27.42685, 44.563], [27.42695, 44.56187], [27.42783, 44.56108], [27.42787, 44.56041], [27.42622, 44.55972], [27.42598, 44.55935], [27.42511, 44.55907], [27.42309, 44.55911]]], [[[27.44292, 44.56001], [27.44323, 44.56017], [27.44429, 44.56081], [27.44429, 44.56], [27.44292, 44.56001]]], [[[27.44388, 44.56127], [27.44354, 44.56106], [27.44328, 44.56129], [27.44169, 44.56043], [27.44079, 44.56056], [27.43994, 44.56132], [27.43997, 44.56238], [27.44088, 44.56254], [27.44272, 44.56215], [27.4443, 44.56167], [27.4443, 44.56141], [27.44388, 44.56127]]], [[[27.41355, 44.56288], [27.41368, 44.5631], [27.41391, 44.56239], [27.41354, 44.56259], [27.41355, 44.56288]]], [[[27.44305, 44.56264], [27.44095, 44.56308], [27.43994, 44.56293], [27.43991, 44.56339], [27.4387, 44.56345], [27.43826, 44.56551], [27.44432, 44.56402], [27.4443, 44.56222], [27.44305, 44.56264]]], [[[27.43188, 44.58575], [27.42263, 44.58249], [27.4178, 44.58095], [27.43359, 44.58635], [27.43188, 44.58575]]], [[[27.42145, 44.57969], [27.42118, 44.57961], [27.42087, 44.57988], [27.42076, 44.58046], [27.41998, 44.58083], [27.42001, 44.58106], [27.44451, 44.58958], [27.4445, 44.58772], [27.42145, 44.57969]]], [[[27.41679, 44.61345], [27.41557, 44.61413], [27.41949, 44.61411], [27.41948, 44.61303], [27.41815, 44.6131], [27.41679, 44.61345]]]]}, "properties": {"kind": "pv", "area_km2": 18.9, "mw": 945.2}}, {"type": "Feature", "geometry": {"type": "Point", "coordinates": [27.3724, 44.58119]}, "properties": {"kind": "turbine", "i": 0, "mw": 6.0, "hub_m": 120.0, "rotor_m": 150.0}}, {"type": "Feature", "geometry": {"type": "Point", "coordinates": [27.38624, 44.58772]}, "properties": {"kind": "turbine", "i": 1, "mw": 6.0, "hub_m": 120.0, "rotor_m": 150.0}}, {"type": "Feature", "geometry": {"type": "Point", "coordinates": [27.39997, 44.57781]}, "properties": {"kind": "turbine", "i": 2, "mw": 6.0, "hub_m": 120.0, "rotor_m": 150.0}}]}