{"type": "FeatureCollection", "features": [{"type": "Feature", "geometry": {"type": "MultiPolygon", "coordinates": [[[[27.3698, 44.59012], [27.38703, 44.58865], [27.38611, 44.58516], [27.38339, 44.58441], [27.38118, 44.58316], [27.38019, 44.58199], [27.37965, 44.57995], [27.37784, 44.57907], [27.36011, 44.58043], [27.36145, 44.58375], [27.36347, 44.58641], [27.36776, 44.58976], [27.36852, 44.59016], [27.3698, 44.59012]]], [[[27.39264, 44.58539], [27.3917, 44.58552], [27.39221, 44.58744], [27.39422, 44.58686], [27.39664, 44.58532], [27.39849, 44.58494], [27.4005, 44.58505], [27.40216, 44.58218], [27.40302, 44.57835], [27.40026, 44.57767], [27.39624, 44.57768], [27.39669, 44.57956], [27.39599, 44.58107], [27.39594, 44.58306], [27.3947, 44.58452], [27.39264, 44.58539]]], [[[27.36848, 44.57586], [27.36802, 44.57431], [27.36555, 44.57439], [27.36162, 44.57384], [27.36045, 44.57398], [27.35985, 44.57651], [27.36848, 44.57586]]]]}, "properties": {"kind": "windland", "area_km2": 2.41}}, {"type": "Feature", "geometry": {"type": "MultiPolygon", "coordinates": [[[[27.35818, 44.5481], [27.35852, 44.54819], [27.35997, 44.54495], [27.35933, 44.54544], [27.35604, 44.54395], [27.35607, 44.54743], [27.35643, 44.54774], [27.35818, 44.5481]]], [[[27.3559, 44.55441], [27.35502, 44.55594], [27.35653, 44.55614], [27.35698, 44.55667], [27.35655, 44.55741], [27.3556, 44.55754], [27.35644, 44.55774], [27.35678, 44.5573], [27.35746, 44.55721], [27.35793, 44.55736], [27.35816, 44.5577], [27.35859, 44.55773], [27.35859, 44.55698], [27.35726, 44.55696], [27.35883, 44.55429], [27.35657, 44.55352], [27.3559, 44.55441]]], [[[27.35497, 44.5572], [27.35443, 44.557], [27.35429, 44.55725], [27.35488, 44.55739], [27.35497, 44.5572]]], [[[27.3471, 44.5601], [27.35048, 44.56002], [27.35174, 44.5576], [27.34962, 44.55758], [27.34728, 44.5578], [27.34674, 44.56036], [27.3471, 44.5601]]], [[[27.35104, 44.56047], [27.35061, 44.56126], [27.35095, 44.56136], [27.35195, 44.55994], [27.35142, 44.55978], [27.35104, 44.56047]]], [[[27.33397, 44.5641], [27.33392, 44.56332], [27.33444, 44.56296], [27.33546, 44.56308], [27.33575, 44.56398], [27.33648, 44.56391], [27.33712, 44.56344], [27.33667, 44.56037], [27.33096, 44.56039], [27.33098, 44.56445], [27.33397, 44.5641]]], [[[27.3439, 44.56296], [27.34403, 44.56259], [27.34444, 44.56237], [27.3451, 44.56237], [27.3455, 44.56265], [27.34553, 44.56201], [27.34111, 44.5619], [27.34119, 44.56343], [27.34392, 44.56316], [27.3439, 44.56296]]], [[[27.33565, 44.56454], [27.33099, 44.565], [27.331, 44.56668], [27.33148, 44.56663], [27.33282, 44.56723], [27.33423, 44.56749], [27.33311, 44.56947], [27.332, 44.56957], [27.33101, 44.57002], [27.33103, 44.57299], [27.33147, 44.57279], [27.33495, 44.57353], [27.33552, 44.57224], [27.33278, 44.57165], [27.33253, 44.57138], [27.33293, 44.57112], [27.3344, 44.57141], [27.33775, 44.56566], [27.33594, 44.56519], [27.33639, 44.56447], [27.33565, 44.56454]]], [[[27.33788, 44.56692], [27.33566, 44.57087], [27.33513, 44.57157], [27.33579, 44.57173], [27.33648, 44.5706], [27.33856, 44.5669], [27.33798, 44.56674], [27.33788, 44.56692]]], [[[27.34755, 44.57231], [27.34954, 44.57229], [27.34837, 44.57202], [27.34801, 44.57224], [27.34744, 44.57227], [27.34685, 44.57187], [27.34612, 44.5719], [27.34511, 44.57422], [27.34655, 44.57236], [27.34755, 44.57231]]], [[[27.33357, 44.57707], [27.33347, 44.57665], [27.33399, 44.57573], [27.33173, 44.57526], [27.33151, 44.57493], [27.33194, 44.57474], [27.33423, 44.57521], [27.33473, 44.57404], [27.33129, 44.57331], [27.33103, 44.57312], [27.33105, 44.57684], [27.33146, 44.57777], [27.33237, 44.57855], [27.33106, 44.57855], [27.33107, 44.58021], [27.33329, 44.58018], [27.33495, 44.57769], [27.33357, 44.57707]]], [[[27.35819, 44.57831], [27.37183, 44.57728], [27.38064, 44.57658], [27.3811, 44.57609], [27.38098, 44.57531], [27.38071, 44.57482], [27.37847, 44.57538], [27.37746, 44.57518], [27.37687, 44.57641], [27.37653, 44.57648], [27.3754, 44.57622], [27.37507, 44.57692], [27.37467, 44.57703], [27.37297, 44.57657], [27.37321, 44.5757], [27.37166, 44.57532], [27.37148, 44.57503], [27.37039, 44.57491], [27.37048, 44.57399], [27.37026, 44.57348], [27.36595, 44.57236], [27.3642, 44.57221], [27.36319, 44.57215], [27.36303, 44.57258], [27.36217, 44.57256], [27.36199, 44.57288], [27.36135, 44.5728], [27.3615, 44.57212], [27.35923, 44.57192], [27.35815, 44.57464], [27.35883, 44.57399], [27.36162, 44.57384], [27.36269, 44.57381], [27.36603, 44.57442], [27.36777, 44.57425], [27.36802, 44.57431], [27.368, 44.57508], [27.36848, 44.57586], [27.35731, 44.57671], [27.3566, 44.57843], [27.35819, 44.57831]]], [[[27.35144, 44.57938], [27.34948, 44.57924], [27.3453, 44.57957], [27.34658, 44.58021], [27.34839, 44.58075], [27.35164, 44.58107], [27.37784, 44.57907], [27.37965, 44.57995], [27.38019, 44.58199], [27.38118, 44.58316], [27.38339, 44.58441], [27.38566, 44.58491], [27.38611, 44.58516], [27.38703, 44.58865], [27.36845, 44.59016], [27.36442, 44.59027], [27.35655, 44.58947], [27.35359, 44.58818], [27.35207, 44.58793], [27.34958, 44.58796], [27.34803, 44.58754], [27.34392, 44.58579], [27.34237, 44.58535], [27.34111, 44.58418], [27.33843, 44.58296], [27.33986, 44.581], [27.34222, 44.57982], [27.33818, 44.58015], [27.33813, 44.57978], [27.33794, 44.57985], [27.33421, 44.58516], [27.33606, 44.58548], [27.33764, 44.58606], [27.34264, 44.58739], [27.34685, 44.58918], [27.3485, 44.58968], [27.35195, 44.58977], [27.3528, 44.58993], [27.35474, 44.59091], [27.35573, 44.59121], [27.36321, 44.59202], [27.37001, 44.59195], [27.38921, 44.59032], [27.38979, 44.59015], [27.38801, 44.58334], [27.38748, 44.58338], [27.38625, 44.58293], [27.38435, 44.58258], [27.3844, 44.58126], [27.38407, 44.58093], [27.38371, 44.57923], [27.38398, 44.57875], [27.38386, 44.57812], [27.37362, 44.57863], [27.37363, 44.57773], [27.35144, 44.57938]]], [[[27.33613, 44.58136], [27.33702, 44.58013], [27.33471, 44.5806], [27.33108, 44.58075], [27.33109, 44.58404], [27.33349, 44.585], [27.33613, 44.58136]], [[27.33273, 44.58241], [27.33263, 44.58255], [27.33229, 44.58241], [27.33273, 44.58241]]], [[[27.33245, 44.58524], [27.3311, 44.58466], [27.33112, 44.58834], [27.33316, 44.58548], [27.33245, 44.58524]]], [[[27.33884, 44.58866], [27.3375, 44.59093], [27.33745, 44.59147], [27.33653, 44.59255], [27.33503, 44.59203], [27.3341, 44.59202], [27.33114, 44.59123], [27.33115, 44.59441], [27.33602, 44.59537], [27.33745, 44.59526], [27.33878, 44.59486], [27.33988, 44.5942], [27.34106, 44.59294], [27.34222, 44.58994], [27.34515, 44.59123], [27.34724, 44.59188], [27.34912, 44.59217], [27.35141, 44.59215], [27.35313, 44.59299], [27.35485, 44.5935], [27.36399, 44.59447], [27.37038, 44.59432], [27.38809, 44.59281], [27.38678, 44.59312], [27.38578, 44.59374], [27.38537, 44.59437], [27.38445, 44.59732], [27.38368, 44.59744], [27.38278, 44.59784], [27.38195, 44.59897], [27.37992, 44.59852], [27.37868, 44.59859], [27.3774, 44.59915], [27.37666, 44.60001], [27.37887, 44.60054], [27.37923, 44.60021], [27.37968, 44.60018], [27.38259, 44.60087], [27.38299, 44.60006], [27.38395, 44.60032], [27.38427, 44.59916], [27.38456, 44.59898], [27.385, 44.59921], [27.38481, 44.60019], [27.386, 44.60046], [27.38774, 44.59465], [27.38814, 44.59455], [27.39048, 44.59505], [27.39054, 44.59325], [27.38993, 44.59069], [27.38935, 44.59085], [27.37008, 44.59249], [27.36427, 44.59265], [27.35616, 44.59185], [27.35437, 44.59139], [27.35245, 44.59042], [27.34829, 44.5902], [27.34648, 44.58965], [27.34232, 44.58788], [27.3389, 44.58693], [27.33884, 44.58866]]], [[[27.35354, 44.60231], [27.34883, 44.60345], [27.3477, 44.60402], [27.34638, 44.60535], [27.3495, 44.60534], [27.35109, 44.60476], [27.35364, 44.60434], [27.35549, 44.6038], [27.35662, 44.60433], [27.35669, 44.60532], [27.35928, 44.60531], [27.35904, 44.60371], [27.35793, 44.6027], [27.35662, 44.60212], [27.35575, 44.60197], [27.35354, 44.60231]]], [[[27.36367, 44.54276], [27.36256, 44.54384], [27.36232, 44.54439], [27.37467, 44.5546], [27.38046, 44.55841], [27.38056, 44.55738], [27.38235, 44.55066], [27.38493, 44.54221], [27.38316, 44.54222], [27.38237, 44.54397], [27.38196, 44.54389], [27.37884, 44.55514], [27.3764, 44.55349], [27.36507, 44.54412], [27.36627, 44.54336], [27.36882, 44.54227], [27.36447, 44.54228], [27.36367, 44.54276]]], [[[27.35852, 44.54233], [27.35876, 44.54246], [27.3589, 44.5423], [27.35846, 44.5423], [27.35852, 44.54233]]], [[[27.36051, 44.54264], [27.36013, 44.54321], [27.36021, 44.54326], [27.36109, 44.54229], [27.36034, 44.54229], [27.36051, 44.54264]]], [[[27.3617, 44.54397], [27.36231, 44.54309], [27.36329, 44.54228], [27.36252, 44.54229], [27.36232, 44.54243], [27.36131, 44.54382], [27.3617, 44.54397]]], [[[27.36623, 44.5484], [27.36106, 44.54434], [27.35923, 44.54839], [27.36012, 44.54891], [27.36036, 44.54951], [27.36098, 44.54982], [27.36202, 44.54748], [27.36728, 44.55177], [27.36522, 44.55111], [27.36198, 44.55055], [27.36214, 44.55109], [27.36309, 44.55203], [27.36384, 44.55247], [27.36382, 44.55273], [27.36613, 44.55344], [27.36682, 44.55396], [27.36783, 44.55521], [27.36881, 44.55587], [27.37337, 44.558], [27.37848, 44.56103], [27.38045, 44.56189], [27.38027, 44.56152], [27.37971, 44.56135], [27.37978, 44.56108], [27.38017, 44.56098], [27.37987, 44.56036], [27.37914, 44.55977], [27.37949, 44.55858], [27.37411, 44.55497], [27.36623, 44.5484]], [[27.37051, 44.55449], [27.36994, 44.55415], [27.3697, 44.55381], [27.3705, 44.55448], [27.37051, 44.55449]]], [[[27.38006, 44.55972], [27.38054, 44.56011], [27.38098, 44.56107], [27.38131, 44.56052], [27.38065, 44.55969], [27.38074, 44.55928], [27.38006, 44.55972]]], [[[27.37392, 44.57588], [27.37374, 44.57624], [27.3738, 44.57626], [27.37397, 44.57589], [27.37392, 44.57588]]], [[[27.37919, 44.60277], [27.38039, 44.60267], [27.37991, 44.60371], [27.37895, 44.60409], [27.3782, 44.60485], [27.37802, 44.60559], [27.37825, 44.60633], [27.37885, 44.60695], [27.3797, 44.60737], [27.38241, 44.60799], [27.38239, 44.61052], [27.38344, 44.61424], [27.38582, 44.61423], [27.3847, 44.61037], [27.38462, 44.60675], [27.38101, 44.60596], [27.38035, 44.60561], [27.38069, 44.60528], [27.38207, 44.60201], [27.37923, 44.6013], [27.37867, 44.60275], [27.37919, 44.60277]]], [[[27.3863, 44.54784], [27.38816, 44.5422], [27.38572, 44.54221], [27.38403, 44.54751], [27.38161, 44.5564], [27.38395, 44.55653], [27.3863, 44.54784]]], [[[27.38767, 44.55701], [27.38704, 44.55756], [27.38613, 44.55736], [27.38518, 44.55741], [27.38608, 44.55891], [27.3892, 44.55886], [27.38928, 44.55617], [27.38767, 44.55701]]], [[[27.39267, 44.55961], [27.39249, 44.55994], [27.39202, 44.56019], [27.39041, 44.56031], [27.39068, 44.56238], [27.3903, 44.56362], [27.38994, 44.56371], [27.38926, 44.56358], [27.38821, 44.56404], [27.38582, 44.5639], [27.38713, 44.56445], [27.38708, 44.56486], [27.38964, 44.56601], [27.39071, 44.56629], [27.39265, 44.56628], [27.39412, 44.56596], [27.39608, 44.56524], [27.3994, 44.56471], [27.40345, 44.56466], [27.4077, 44.56353], [27.40978, 44.56263], [27.41019, 44.56221], [27.41027, 44.56142], [27.40959, 44.55872], [27.40996, 44.55764], [27.41071, 44.55699], [27.41176, 44.55654], [27.41395, 44.55619], [27.41782, 44.55659], [27.41908, 44.55704], [27.41908, 44.55642], [27.41865, 44.55602], [27.4048, 44.55588], [27.40462, 44.5561], [27.40352, 44.55632], [27.40016, 44.55675], [27.39843, 44.55773], [27.39608, 44.55834], [27.39525, 44.55894], [27.39275, 44.55944], [27.39267, 44.55961]], [[27.39373, 44.56399], [27.39251, 44.5642], [27.39291, 44.56309], [27.39468, 44.56249], [27.39598, 44.56154], [27.39675, 44.56022], [27.39693, 44.55916], [27.39886, 44.5585], [27.40268, 44.55766], [27.40732, 44.55748], [27.40703, 44.55905], [27.40764, 44.56138], [27.40631, 44.56196], [27.40291, 44.56286], [27.39889, 44.56291], [27.39545, 44.56346], [27.39373, 44.56399]]], [[[27.38987, 44.56206], [27.38983, 44.56183], [27.38971, 44.56074], [27.38949, 44.56092], [27.38974, 44.56192], [27.38961, 44.56308], [27.38977, 44.56312], [27.38987, 44.56206]]], [[[27.38751, 44.56626], [27.38754, 44.56672], [27.38844, 44.56658], [27.38826, 44.56649], [27.38751, 44.56626]]], [[[27.39403, 44.56694], [27.39344, 44.567], [27.39225, 44.56718], [27.393, 44.56766], [27.39416, 44.56702], [27.39403, 44.56694]]], [[[27.39049, 44.56709], [27.38978, 44.56699], [27.38909, 44.56681], [27.38974, 44.56753], [27.39024, 44.56768], [27.39086, 44.56753], [27.39104, 44.56765], [27.39155, 44.56719], [27.39049, 44.56709]]], [[[27.39477, 44.56865], [27.39507, 44.56871], [27.39477, 44.56831], [27.39465, 44.56837], [27.39477, 44.56865]]], [[[27.38877, 44.56897], [27.3883, 44.56871], [27.38778, 44.56904], [27.38822, 44.56922], [27.38878, 44.56981], [27.38851, 44.57043], [27.38809, 44.57069], [27.38813, 44.57078], [27.38899, 44.57039], [27.38979, 44.5708], [27.39031, 44.57035], [27.39097, 44.57034], [27.3914, 44.57062], [27.39146, 44.57112], [27.39184, 44.57142], [27.39216, 44.57119], [27.39365, 44.57235], [27.39414, 44.57212], [27.39544, 44.57274], [27.3951, 44.57314], [27.39558, 44.57331], [27.3961, 44.57312], [27.39675, 44.57361], [27.39692, 44.57354], [27.3949, 44.57215], [27.39389, 44.5711], [27.39335, 44.571], [27.39287, 44.57058], [27.39272, 44.57018], [27.39308, 44.56954], [27.39262, 44.56926], [27.39227, 44.56926], [27.39205, 44.56942], [27.39218, 44.56963], [27.39136, 44.57013], [27.39033, 44.56927], [27.38999, 44.56949], [27.38877, 44.56897]]], [[[27.39053, 44.57451], [27.39016, 44.57397], [27.3875, 44.57306], [27.38725, 44.57347], [27.38687, 44.57362], [27.38763, 44.5754], [27.38845, 44.57608], [27.39557, 44.57552], [27.39457, 44.57532], [27.39064, 44.57565], [27.39044, 44.57546], [27.39053, 44.57451]]], [[[27.38722, 44.57602], [27.38725, 44.57618], [27.38779, 44.57613], [27.38733, 44.57592], [27.38722, 44.57602]]], [[[27.39001, 44.57863], [27.39197, 44.57857], [27.39239, 44.57879], [27.39257, 44.57924], [27.39217, 44.57973], [27.38979, 44.58031], [27.38978, 44.58061], [27.39085, 44.58046], [27.39142, 44.58071], [27.39151, 44.58129], [27.39201, 44.58192], [27.39184, 44.58237], [27.38998, 44.58276], [27.38864, 44.5828], [27.3905, 44.58993], [27.39578, 44.5884], [27.39722, 44.5872], [27.39865, 44.58678], [27.40853, 44.58773], [27.41182, 44.58895], [27.41309, 44.5892], [27.41931, 44.58946], [27.4193, 44.58761], [27.413, 44.58732], [27.40902, 44.58593], [27.39971, 44.58497], [27.39824, 44.58496], [27.39664, 44.58532], [27.3956, 44.58578], [27.39422, 44.58686], [27.39221, 44.58744], [27.3917, 44.58552], [27.3931, 44.58527], [27.39434, 44.58475], [27.39532, 44.58399], [27.39594, 44.58306], [27.39617, 44.58204], [27.39599, 44.58107], [27.39669, 44.57956], [27.3966, 44.57853], [27.39624, 44.57768], [27.39681, 44.57764], [27.39948, 44.5776], [27.40211, 44.57805], [27.42858, 44.58707], [27.43189, 44.58706], [27.43189, 44.58636], [27.40501, 44.57718], [27.40163, 44.57619], [27.39814, 44.57592], [27.38923, 44.57656], [27.38952, 44.57782], [27.38976, 44.57784], [27.39001, 44.57863]]], [[[27.38855, 44.58109], [27.38826, 44.58101], [27.38831, 44.58127], [27.38843, 44.58115], [27.38855, 44.58109]]], [[[27.39129, 44.5932], [27.39121, 44.59521], [27.40014, 44.59742], [27.39684, 44.60417], [27.39657, 44.60519], [27.39902, 44.60518], [27.39926, 44.60424], [27.39889, 44.60338], [27.40075, 44.59935], [27.40166, 44.59894], [27.40227, 44.59833], [27.4025, 44.59759], [27.4024, 44.59703], [27.40193, 44.59636], [27.40089, 44.59578], [27.39366, 44.59402], [27.3933, 44.59167], [27.39756, 44.59041], [27.39918, 44.58917], [27.40755, 44.59002], [27.41126, 44.59136], [27.41454, 44.59168], [27.41933, 44.59184], [27.41932, 44.59], [27.41297, 44.58973], [27.4115, 44.58944], [27.40834, 44.58825], [27.39872, 44.58732], [27.3977, 44.58762], [27.39616, 44.58887], [27.39064, 44.59047], [27.39129, 44.5932]]], [[[27.38739, 44.598], [27.38702, 44.59957], [27.38751, 44.59969], [27.38909, 44.5968], [27.38954, 44.59541], [27.38828, 44.59514], [27.38739, 44.598]]], [[[27.39178, 44.60967], [27.39127, 44.60989], [27.38877, 44.60956], [27.38749, 44.60933], [27.38735, 44.60895], [27.38541, 44.60867], [27.38545, 44.61031], [27.38659, 44.61423], [27.38897, 44.61422], [27.38805, 44.61114], [27.39143, 44.61155], [27.39252, 44.61136], [27.39354, 44.61078], [27.39426, 44.61088], [27.39425, 44.6092], [27.3928, 44.60883], [27.3923, 44.6097], [27.39178, 44.60967]]], [[[27.40049, 44.54904], [27.39944, 44.54912], [27.39833, 44.54962], [27.39767, 44.55043], [27.39752, 44.55134], [27.39932, 44.55115], [27.40032, 44.55003], [27.40033, 44.5491], [27.40097, 44.5491], [27.40049, 44.54904]]], [[[27.41673, 44.55274], [27.41654, 44.55288], [27.4157, 44.55234], [27.4147, 44.5521], [27.41364, 44.55216], [27.41292, 44.55239], [27.41307, 44.55428], [27.41397, 44.55417], [27.41407, 44.55384], [27.41444, 44.55376], [27.41509, 44.55453], [27.41639, 44.55466], [27.41783, 44.55454], [27.41874, 44.55478], [27.4189, 44.55535], [27.41907, 44.55527], [27.41904, 44.55187], [27.41792, 44.55216], [27.41673, 44.55274]]], [[[27.41823, 44.56029], [27.41977, 44.5609], [27.42096, 44.56112], [27.42416, 44.56074], [27.42563, 44.56085], [27.42685, 44.563], [27.42695, 44.56187], [27.42783, 44.56108], [27.42788, 44.56074], [27.42787, 44.56041], [27.42711, 44.56007], [27.4191, 44.5601], [27.4191, 44.55967], [27.41771, 44.55966], [27.41771, 44.56002], [27.41823, 44.56029]]], [[[27.41354, 44.56259], [27.41355, 44.56288], [27.41368, 44.5631], [27.41391, 44.56239], [27.41354, 44.56259]]], [[[27.43106, 44.58546], [27.42263, 44.58249], [27.4178, 44.58095], [27.43188, 44.58576], [27.43106, 44.58546]]], [[[27.42147, 44.5797], [27.42118, 44.57961], [27.42087, 44.57988], [27.42076, 44.58046], [27.41998, 44.58083], [27.42001, 44.58106], [27.43188, 44.58514], [27.43187, 44.58329], [27.42147, 44.5797]]], [[[27.41654, 44.59423], [27.41484, 44.59525], [27.41305, 44.5971], [27.41212, 44.59878], [27.41091, 44.59951], [27.40991, 44.60064], [27.40943, 44.60209], [27.40959, 44.60515], [27.41218, 44.60514], [27.41199, 44.6023], [27.41225, 44.6014], [27.4128, 44.60076], [27.41449, 44.59977], [27.41482, 44.59871], [27.41529, 44.59832], [27.41536, 44.59791], [27.41684, 44.5964], [27.41935, 44.59522], [27.41934, 44.59327], [27.41654, 44.59423]]], [[[27.41896, 44.59934], [27.41689, 44.60156], [27.41507, 44.6027], [27.41456, 44.60468], [27.4148, 44.60513], [27.41743, 44.60512], [27.41719, 44.60446], [27.41737, 44.60369], [27.41873, 44.60285], [27.4194, 44.60216], [27.41938, 44.59921], [27.41896, 44.59934]]]]}, "properties": {"kind": "pv", "area_km2": 11.86, "mw": 593.2}}, {"type": "Feature", "geometry": {"type": "Point", "coordinates": [27.3724, 44.58119]}, "properties": {"kind": "turbine", "i": 0, "mw": 6.0, "hub_m": 120.0, "rotor_m": 150.0}}, {"type": "Feature", "geometry": {"type": "Point", "coordinates": [27.38624, 44.58772]}, "properties": {"kind": "turbine", "i": 1, "mw": 6.0, "hub_m": 120.0, "rotor_m": 150.0}}]}