{"type": "FeatureCollection", "features": [{"type": "Feature", "geometry": {"type": "MultiPolygon", "coordinates": [[[[27.37843, 44.5894], [27.38703, 44.58865], [27.38611, 44.58516], [27.38339, 44.58441], [27.38118, 44.58316], [27.38019, 44.58199], [27.37965, 44.57995], [27.37784, 44.57907], [27.36462, 44.58009], [27.36636, 44.58358], [27.36937, 44.58645], [27.37197, 44.58796], [27.37494, 44.58908], [27.37681, 44.58953], [27.37843, 44.5894]]], [[[27.39264, 44.58539], [27.3917, 44.58552], [27.39216, 44.58727], [27.3947, 44.58548], [27.39655, 44.58347], [27.39821, 44.58009], [27.39852, 44.57758], [27.39624, 44.57768], [27.39669, 44.57956], [27.39599, 44.58107], [27.39594, 44.58306], [27.3947, 44.58452], [27.39264, 44.58539]]], [[[27.36848, 44.57586], [27.36802, 44.57431], [27.365, 44.57431], [27.36447, 44.57617], [27.36848, 44.57586]]]]}, "properties": {"kind": "windland", "area_km2": 1.49}}, {"type": "Feature", "geometry": {"type": "MultiPolygon", "coordinates": [[[[27.37823, 44.55473], [27.3764, 44.55349], [27.37375, 44.55125], [27.37071, 44.55126], [27.375, 44.55486], [27.3804, 44.55841], [27.38129, 44.55487], [27.38127, 44.55123], [27.37987, 44.55123], [27.37884, 44.55514], [27.37823, 44.55473]]], [[[27.37922, 44.55991], [27.37949, 44.55858], [27.37446, 44.55523], [27.36972, 44.55127], [27.36868, 44.55127], [27.36871, 44.55581], [27.37337, 44.558], [27.37848, 44.56103], [27.38045, 44.56189], [27.38027, 44.56152], [27.37971, 44.56135], [27.37978, 44.56108], [27.38017, 44.56098], [27.37987, 44.56036], [27.37922, 44.55991]], [[27.3705, 44.55448], [27.36994, 44.55415], [27.3697, 44.55381], [27.3705, 44.55448]]], [[[27.38038, 44.55947], [27.38006, 44.55972], [27.38054, 44.56011], [27.38098, 44.56107], [27.38131, 44.56052], [27.38065, 44.55969], [27.38074, 44.55928], [27.38038, 44.55947]]], [[[27.36217, 44.57256], [27.36199, 44.57288], [27.36135, 44.5728], [27.3615, 44.57212], [27.35923, 44.57192], [27.35815, 44.57464], [27.35883, 44.57399], [27.36162, 44.57384], [27.36269, 44.57381], [27.36603, 44.57442], [27.36777, 44.57425], [27.36802, 44.57431], [27.368, 44.57508], [27.36848, 44.57586], [27.35731, 44.57671], [27.3566, 44.57843], [27.37183, 44.57728], [27.38064, 44.57658], [27.3811, 44.57609], [27.38071, 44.57482], [27.37847, 44.57538], [27.37746, 44.57518], [27.37687, 44.57641], [27.37653, 44.57648], [27.3754, 44.57622], [27.37507, 44.57692], [27.37464, 44.57703], [27.37297, 44.57657], [27.37321, 44.5757], [27.37166, 44.57532], [27.37148, 44.57503], [27.37039, 44.57491], [27.37048, 44.57399], [27.37026, 44.57348], [27.36595, 44.57236], [27.36319, 44.57215], [27.36303, 44.57258], [27.36217, 44.57256]]], [[[27.37397, 44.57589], [27.37392, 44.57588], [27.37374, 44.57624], [27.3738, 44.57626], [27.37397, 44.57589]]], [[[27.37067, 44.57796], [27.35626, 44.57905], [27.35627, 44.58072], [27.37784, 44.57907], [27.37965, 44.57995], [27.38019, 44.58199], [27.38118, 44.58316], [27.38339, 44.58441], [27.38566, 44.58491], [27.38611, 44.58516], [27.38703, 44.58865], [27.3698, 44.59012], [27.36442, 44.59027], [27.35632, 44.5894], [27.35633, 44.59132], [27.36432, 44.59211], [27.37001, 44.59195], [27.38921, 44.59032], [27.38979, 44.59015], [27.38801, 44.58334], [27.38748, 44.58338], [27.38625, 44.58293], [27.38435, 44.58258], [27.3844, 44.58126], [27.38407, 44.58093], [27.38371, 44.57923], [27.38398, 44.57875], [27.38386, 44.57812], [27.37362, 44.57863], [27.37363, 44.57773], [27.37067, 44.57796]]], [[[27.3755, 44.59204], [27.37005, 44.59249], [27.36432, 44.59265], [27.35634, 44.59187], [27.35635, 44.59372], [27.36399, 44.59447], [27.36869, 44.59437], [27.38809, 44.59281], [27.38678, 44.59312], [27.38578, 44.59374], [27.38537, 44.59437], [27.38482, 44.59623], [27.38719, 44.59622], [27.38764, 44.59477], [27.38796, 44.59456], [27.39048, 44.59505], [27.39054, 44.59325], [27.38993, 44.59069], [27.3755, 44.59204]]], [[[27.38992, 44.56225], [27.38983, 44.56183], [27.38971, 44.56074], [27.38949, 44.56092], [27.38974, 44.56192], [27.38961, 44.56308], [27.38977, 44.56312], [27.38992, 44.56225]]], [[[27.39173, 44.56023], [27.39041, 44.56031], [27.39068, 44.56238], [27.3903, 44.56362], [27.38994, 44.56371], [27.38926, 44.56358], [27.38821, 44.56404], [27.38582, 44.5639], [27.38713, 44.56445], [27.38708, 44.56486], [27.39039, 44.56624], [27.39265, 44.56628], [27.3964, 44.56518], [27.39945, 44.5647], [27.40345, 44.56466], [27.40654, 44.56387], [27.40652, 44.56188], [27.40291, 44.56286], [27.39889, 44.56291], [27.39545, 44.56346], [27.39346, 44.5641], [27.39251, 44.5642], [27.39291, 44.56309], [27.39409, 44.56275], [27.39539, 44.56206], [27.39622, 44.56125], [27.39676, 44.56018], [27.39173, 44.56023]]], [[[27.38772, 44.56635], [27.3875, 44.56626], [27.38754, 44.56672], [27.38844, 44.56658], [27.38772, 44.56635]]], [[[27.39102, 44.56715], [27.3901, 44.56705], [27.38909, 44.56681], [27.38974, 44.56753], [27.39024, 44.56768], [27.39086, 44.56753], [27.39104, 44.56765], [27.39155, 44.56719], [27.39102, 44.56715]]], [[[27.38882, 44.56901], [27.3883, 44.56871], [27.38778, 44.56904], [27.38822, 44.56922], [27.38878, 44.56981], [27.38851, 44.57043], [27.38809, 44.57069], [27.38813, 44.57078], [27.38899, 44.57039], [27.38979, 44.5708], [27.39031, 44.57035], [27.39097, 44.57034], [27.3914, 44.57062], [27.39146, 44.57112], [27.39184, 44.57142], [27.39216, 44.57119], [27.39365, 44.57235], [27.39414, 44.57212], [27.39544, 44.57274], [27.3951, 44.57314], [27.39558, 44.57331], [27.3961, 44.57312], [27.39675, 44.57361], [27.39692, 44.57354], [27.3949, 44.57215], [27.39389, 44.5711], [27.39335, 44.571], [27.39287, 44.57058], [27.39272, 44.57018], [27.39308, 44.56954], [27.39262, 44.56926], [27.39227, 44.56926], [27.39205, 44.56942], [27.39218, 44.56963], [27.39136, 44.57013], [27.39033, 44.56927], [27.38999, 44.56949], [27.38882, 44.56901]]], [[[27.39052, 44.57475], [27.39016, 44.57397], [27.3875, 44.57306], [27.38725, 44.57347], [27.38687, 44.57362], [27.38763, 44.5754], [27.38845, 44.57608], [27.39557, 44.57552], [27.39457, 44.57532], [27.39064, 44.57565], [27.39044, 44.57546], [27.39052, 44.57475]]], [[[27.3872, 44.57597], [27.38725, 44.57618], [27.38779, 44.57613], [27.38745, 44.57594], [27.3872, 44.57597]]], [[[27.38976, 44.57784], [27.39001, 44.57863], [27.39197, 44.57857], [27.39239, 44.57879], [27.39257, 44.57924], [27.39217, 44.57973], [27.38979, 44.58031], [27.38978, 44.58061], [27.39085, 44.58046], [27.39142, 44.58071], [27.39151, 44.58129], [27.39201, 44.58192], [27.39184, 44.58237], [27.38998, 44.58276], [27.38864, 44.5828], [27.3905, 44.58993], [27.39578, 44.5884], [27.39722, 44.5872], [27.39858, 44.58678], [27.4067, 44.58753], [27.40669, 44.58568], [27.39875, 44.58494], [27.39642, 44.58539], [27.39536, 44.58594], [27.39422, 44.58686], [27.39221, 44.58744], [27.3917, 44.58552], [27.3931, 44.58527], [27.39434, 44.58475], [27.39578, 44.58339], [27.39614, 44.58239], [27.39599, 44.58107], [27.39669, 44.57956], [27.3966, 44.57853], [27.39624, 44.57768], [27.39948, 44.5776], [27.40102, 44.57779], [27.40665, 44.57958], [27.40663, 44.57774], [27.40163, 44.57619], [27.39814, 44.57592], [27.38923, 44.57656], [27.38952, 44.57782], [27.38976, 44.57784]]], [[[27.38849, 44.58112], [27.38862, 44.58106], [27.38826, 44.58101], [27.38831, 44.58127], [27.38849, 44.58112]]], [[[27.38954, 44.59541], [27.38828, 44.59514], [27.38797, 44.59622], [27.38928, 44.59621], [27.38954, 44.59541]]], [[[27.39407, 44.56693], [27.39344, 44.567], [27.39225, 44.56718], [27.393, 44.56766], [27.39407, 44.56693]]], [[[27.39475, 44.56854], [27.39477, 44.56874], [27.39507, 44.56871], [27.39477, 44.56831], [27.39475, 44.56854]]], [[[27.39872, 44.58732], [27.3977, 44.58762], [27.39616, 44.58887], [27.39064, 44.59047], [27.39129, 44.5932], [27.39121, 44.59521], [27.39539, 44.59619], [27.40169, 44.59617], [27.40065, 44.59571], [27.39366, 44.59402], [27.3933, 44.59167], [27.39756, 44.59041], [27.39918, 44.58917], [27.40672, 44.58993], [27.40671, 44.58807], [27.39872, 44.58732]]]]}, "properties": {"kind": "pv", "area_km2": 5.02, "mw": 251.0}}, {"type": "Feature", "geometry": {"type": "Point", "coordinates": [27.3724, 44.58119]}, "properties": {"kind": "turbine", "i": 0, "mw": 6.0, "hub_m": 120.0, "rotor_m": 150.0}}]}