{"type": "FeatureCollection", "features": [{"type": "Feature", "geometry": {"type": "MultiPolygon", "coordinates": [[[[-95.29694, 36.25842], [-95.29649, 36.25714], [-95.29535, 36.25602], [-95.29198, 36.25519], [-95.29198, 36.2528], [-95.29097, 36.25174], [-95.28972, 36.2513], [-95.29942, 36.25156], [-95.3021, 36.25381], [-95.29887, 36.25712], [-95.29694, 36.25842]]], [[[-95.28733, 36.25145], [-95.28686, 36.25167], [-95.28664, 36.2514], [-95.28744, 36.25141], [-95.28733, 36.25145]]], [[[-95.28382, 36.2557], [-95.28564, 36.25682], [-95.28553, 36.25816], [-95.28661, 36.25951], [-95.28856, 36.26003], [-95.29182, 36.25965], [-95.29237, 36.26125], [-95.29065, 36.26197], [-95.28121, 36.26192], [-95.28125, 36.25862], [-95.28293, 36.25716], [-95.28358, 36.25543], [-95.28382, 36.2557]]], [[[-95.2761, 36.2619], [-95.26505, 36.26187], [-95.26023, 36.2594], [-95.25849, 36.25819], [-95.25852, 36.25291], [-95.25948, 36.25279], [-95.25872, 36.25128], [-95.26448, 36.25532], [-95.26549, 36.25678], [-95.26785, 36.25777], [-95.27015, 36.25765], [-95.27218, 36.25665], [-95.27313, 36.25525], [-95.2732, 36.2537], [-95.2744, 36.25678], [-95.27658, 36.25781], [-95.27644, 36.2619], [-95.2761, 36.2619]]], [[[-95.26954, 36.24236], [-95.26747, 36.24192], [-95.26738, 36.24102], [-95.26946, 36.2417], [-95.26954, 36.24236]]], [[[-95.26974, 36.23712], [-95.26968, 36.23661], [-95.27011, 36.23669], [-95.26984, 36.23721], [-95.26974, 36.23712]]], [[[-95.26636, 36.22995], [-95.26664, 36.23008], [-95.26574, 36.23089], [-95.26357, 36.23078], [-95.26357, 36.22564], [-95.26437, 36.22567], [-95.26426, 36.22629], [-95.26521, 36.22634], [-95.26538, 36.22991], [-95.26636, 36.22995]]], [[[-95.27202, 36.21831], [-95.27202, 36.21816], [-95.27298, 36.21802], [-95.27298, 36.21818], [-95.27202, 36.21831]]], [[[-95.30321, 36.23068], [-95.30107, 36.23447], [-95.29119, 36.23439], [-95.2897, 36.23245], [-95.28849, 36.23165], [-95.28877, 36.22897], [-95.28727, 36.2251], [-95.28727, 36.22465], [-95.28882, 36.22358], [-95.28962, 36.2222], [-95.28969, 36.22082], [-95.28903, 36.21944], [-95.29239, 36.22079], [-95.29349, 36.22369], [-95.29181, 36.22405], [-95.29182, 36.22429], [-95.29277, 36.2249], [-95.292, 36.22486], [-95.29225, 36.22587], [-95.29303, 36.2259], [-95.29382, 36.22859], [-95.29294, 36.22843], [-95.29041, 36.22913], [-95.2968, 36.22913], [-95.29687, 36.22337], [-95.30159, 36.22757], [-95.30354, 36.23021], [-95.30321, 36.23068]]], [[[-95.25579, 36.22654], [-95.2558, 36.22683], [-95.25531, 36.22658], [-95.25581, 36.22612], [-95.25579, 36.22654]]], [[[-95.25458, 36.23104], [-95.25532, 36.23073], [-95.25544, 36.23296], [-95.25469, 36.23289], [-95.25458, 36.23104]]], [[[-95.25227, 36.2513], [-95.25374, 36.25129], [-95.25374, 36.25359], [-95.25289, 36.25249], [-95.25227, 36.2513]]], [[[-95.26277, 36.24279], [-95.26286, 36.24336], [-95.26149, 36.24368], [-95.26027, 36.24458], [-95.25929, 36.24672], [-95.25854, 36.24742], [-95.25466, 36.24743], [-95.25464, 36.24118], [-95.25614, 36.24045], [-95.25663, 36.23921], [-95.25604, 36.238], [-95.25454, 36.23736], [-95.25455, 36.23677], [-95.26223, 36.23747], [-95.26277, 36.24279]]], [[[-95.24979, 36.23648], [-95.24986, 36.2419], [-95.24923, 36.24222], [-95.24924, 36.23925], [-95.24979, 36.23648]]]]}, "properties": {"kind": "windland", "area_km2": 3.86}}, {"type": "Feature", "geometry": {"type": "MultiPolygon", "coordinates": [[[[-95.28703, 36.2329], [-95.28555, 36.23297], [-95.2853, 36.23207], [-95.28881, 36.23201], [-95.28883, 36.23287], [-95.28703, 36.2329]]], [[[-95.27006, 36.23442], [-95.26968, 36.23425], [-95.26875, 36.23239], [-95.27166, 36.23233], [-95.27177, 36.23454], [-95.27006, 36.23442]]], [[[-95.26745, 36.23393], [-95.26732, 36.23459], [-95.26668, 36.2363], [-95.26659, 36.2332], [-95.26745, 36.23393]]], [[[-95.26842, 36.23307], [-95.26872, 36.23389], [-95.26947, 36.23484], [-95.2718, 36.23508], [-95.27215, 36.24049], [-95.27039, 36.23936], [-95.26975, 36.23933], [-95.26879, 36.23894], [-95.26803, 36.23833], [-95.26756, 36.2382], [-95.26705, 36.23759], [-95.26702, 36.23705], [-95.26752, 36.23607], [-95.26813, 36.23386], [-95.26736, 36.23295], [-95.26658, 36.23263], [-95.26657, 36.23243], [-95.26797, 36.2324], [-95.26842, 36.23307]], [[-95.2696, 36.23681], [-95.26953, 36.23695], [-95.26984, 36.23721], [-95.27011, 36.23669], [-95.26968, 36.23661], [-95.2696, 36.23681]]], [[[-95.26683, 36.23833], [-95.26843, 36.23939], [-95.26958, 36.23986], [-95.27014, 36.23987], [-95.27133, 36.24052], [-95.2717, 36.2409], [-95.27176, 36.24135], [-95.2683, 36.24141], [-95.26738, 36.24102], [-95.26742, 36.24143], [-95.26683, 36.24144], [-95.26674, 36.23821], [-95.26683, 36.23833]]], [[[-95.2874, 36.24909], [-95.28812, 36.24899], [-95.2893, 36.24889], [-95.28931, 36.24909], [-95.2874, 36.24909]]], [[[-95.2812, 36.24954], [-95.28094, 36.25018], [-95.2801, 36.2502], [-95.28011, 36.24956], [-95.2812, 36.24954]]], [[[-95.28169, 36.24998], [-95.28198, 36.24954], [-95.28421, 36.24981], [-95.28453, 36.24964], [-95.28932, 36.24963], [-95.28933, 36.25002], [-95.28162, 36.25017], [-95.28169, 36.24998]]]]}, "properties": {"kind": "pv", "area_km2": 0.44, "mw": 21.9}}, {"type": "Feature", "geometry": {"type": "Point", "coordinates": [-95.26132, 36.23903]}, "properties": {"kind": "turbine", "i": 0, "mw": 6.0, "hub_m": 120.0, "rotor_m": 150.0}}, {"type": "Feature", "geometry": {"type": "Point", "coordinates": [-95.2651, 36.22909]}, "properties": {"kind": "turbine", "i": 1, "mw": 6.0, "hub_m": 120.0, "rotor_m": 150.0}}, {"type": "Feature", "geometry": {"type": "Point", "coordinates": [-95.29419, 36.25157]}, "properties": {"kind": "turbine", "i": 2, "mw": 6.0, "hub_m": 120.0, "rotor_m": 150.0}}, {"type": "Feature", "geometry": {"type": "Point", "coordinates": [-95.2822, 36.25838]}, "properties": {"kind": "turbine", "i": 3, "mw": 6.0, "hub_m": 120.0, "rotor_m": 150.0}}, {"type": "Feature", "geometry": {"type": "Point", "coordinates": [-95.29768, 36.23176]}, "properties": {"kind": "turbine", "i": 4, "mw": 6.0, "hub_m": 120.0, "rotor_m": 150.0}}]}