{"type": "FeatureCollection", "features": [{"type": "Feature", "geometry": {"type": "MultiPolygon", "coordinates": [[[[-95.35354, 36.20042], [-95.35318, 36.2005], [-95.35318, 36.19971], [-95.35371, 36.20039], [-95.35354, 36.20042]]], [[[-95.34425, 36.19916], [-95.34605, 36.19837], [-95.34691, 36.19595], [-95.34788, 36.19538], [-95.34845, 36.19547], [-95.3484, 36.20121], [-95.34421, 36.20336], [-95.34425, 36.19916]]], [[[-95.3443, 36.20867], [-95.34519, 36.20776], [-95.3484, 36.20622], [-95.34846, 36.23326], [-95.34245, 36.23328], [-95.34343, 36.23002], [-95.34363, 36.2281], [-95.34329, 36.22689], [-95.34438, 36.22076], [-95.3443, 36.20867]]], [[[-95.34651, 36.23713], [-95.34843, 36.23712], [-95.34842, 36.23762], [-95.34544, 36.23921], [-95.34497, 36.24015], [-95.34501, 36.24155], [-95.34627, 36.24299], [-95.34846, 36.24315], [-95.34848, 36.24676], [-95.34694, 36.24744], [-95.34006, 36.24745], [-95.34021, 36.24609], [-95.34143, 36.24487], [-95.34188, 36.24342], [-95.34164, 36.24207], [-95.34098, 36.24107], [-95.34103, 36.23856], [-95.34203, 36.23715], [-95.34651, 36.23713]]], [[[-95.34349, 36.25457], [-95.34349, 36.26194], [-95.33999, 36.26194], [-95.33889, 36.26054], [-95.33759, 36.25966], [-95.33813, 36.25503], [-95.33901, 36.25208], [-95.3397, 36.25307], [-95.3408, 36.25363], [-95.34209, 36.2537], [-95.34349, 36.25313], [-95.34349, 36.25457]]], [[[-95.34351, 36.2658], [-95.34352, 36.26926], [-95.34145, 36.26928], [-95.33853, 36.26997], [-95.33738, 36.27117], [-95.33726, 36.27286], [-95.33774, 36.27408], [-95.33882, 36.27484], [-95.34353, 36.27506], [-95.34352, 36.27646], [-95.33363, 36.27645], [-95.33474, 36.27115], [-95.33566, 36.26983], [-95.33582, 36.26819], [-95.33819, 36.26742], [-95.33982, 36.26581], [-95.34351, 36.2658]]], [[[-95.33082, 36.2846], [-95.3323, 36.28575], [-95.33443, 36.28601], [-95.33512, 36.28744], [-95.33637, 36.28845], [-95.33573, 36.28941], [-95.33556, 36.29096], [-95.32821, 36.29092], [-95.33067, 36.28433], [-95.33082, 36.2846]]], [[[-95.3323, 36.29479], [-95.33988, 36.29486], [-95.33056, 36.30109], [-95.32869, 36.29983], [-95.32561, 36.30018], [-95.32771, 36.29479], [-95.3323, 36.29479]]], [[[-95.29433, 36.31269], [-95.29434, 36.3093], [-95.29464, 36.3093], [-95.29511, 36.3097], [-95.29433, 36.31269]]], [[[-95.28956, 36.31105], [-95.28955, 36.31271], [-95.28329, 36.31266], [-95.28189, 36.31331], [-95.28132, 36.31456], [-95.2764, 36.31455], [-95.27645, 36.30926], [-95.28403, 36.30928], [-95.28599, 36.30989], [-95.28956, 36.3098], [-95.28956, 36.31105]]], [[[-95.2817, 36.30541], [-95.25851, 36.30539], [-95.25851, 36.3046], [-95.25996, 36.30353], [-95.26001, 36.30211], [-95.2847, 36.30215], [-95.28299, 36.30331], [-95.2822, 36.30541], [-95.2817, 36.30541]]], [[[-95.28957, 36.30215], [-95.28957, 36.30241], [-95.28901, 36.30215], [-95.28957, 36.30215]]], [[[-95.29921, 36.30095], [-95.29627, 36.29904], [-95.29363, 36.29829], [-95.28326, 36.29809], [-95.28652, 36.2973], [-95.28793, 36.29613], [-95.28812, 36.29476], [-95.28959, 36.29477], [-95.29001, 36.29647], [-95.29169, 36.29742], [-95.30213, 36.29753], [-95.30245, 36.29936], [-95.30087, 36.30134], [-95.29921, 36.30095]]], [[[-95.32408, 36.28536], [-95.3222, 36.28468], [-95.32216, 36.2842], [-95.32311, 36.28401], [-95.32478, 36.28462], [-95.32443, 36.28554], [-95.32408, 36.28536]]], [[[-95.32554, 36.27205], [-95.32579, 36.27917], [-95.32542, 36.28], [-95.32396, 36.2796], [-95.32353, 36.2778], [-95.32225, 36.27654], [-95.32087, 36.27593], [-95.31875, 36.27589], [-95.31816, 36.27457], [-95.31711, 36.27371], [-95.31733, 36.27145], [-95.31688, 36.27021], [-95.31501, 36.2684], [-95.31286, 36.26791], [-95.31369, 36.2668], [-95.31609, 36.26574], [-95.32243, 36.26575], [-95.32332, 36.26712], [-95.32523, 36.26768], [-95.32554, 36.27205]]], [[[-95.32251, 36.26189], [-95.31717, 36.26188], [-95.31642, 36.25958], [-95.31873, 36.25954], [-95.31893, 36.26027], [-95.32203, 36.26097], [-95.32392, 36.26084], [-95.32543, 36.26024], [-95.32501, 36.26191], [-95.32251, 36.26189]]], [[[-95.30141, 36.26549], [-95.30049, 36.26524], [-95.30067, 36.26366], [-95.30033, 36.26261], [-95.29934, 36.26171], [-95.29828, 36.26133], [-95.29739, 36.26008], [-95.29633, 36.25694], [-95.29492, 36.2558], [-95.29198, 36.25519], [-95.29198, 36.2528], [-95.29097, 36.25174], [-95.28972, 36.2513], [-95.29942, 36.25156], [-95.30046, 36.25267], [-95.30305, 36.25435], [-95.30468, 36.25473], [-95.30609, 36.25465], [-95.30726, 36.25617], [-95.3056, 36.25734], [-95.30326, 36.25833], [-95.30136, 36.2611], [-95.30068, 36.26333], [-95.30141, 36.26549]]], [[[-95.28733, 36.25145], [-95.28686, 36.25167], [-95.28664, 36.2514], [-95.28744, 36.25141], [-95.28733, 36.25145]]], [[[-95.28382, 36.2557], [-95.28564, 36.25682], [-95.2856, 36.25836], [-95.28682, 36.25963], [-95.28856, 36.26003], [-95.29182, 36.25965], [-95.2933, 36.26274], [-95.29136, 36.26199], [-95.28121, 36.26192], [-95.28125, 36.25862], [-95.28293, 36.25716], [-95.28358, 36.25543], [-95.28382, 36.2557]]], [[[-95.282, 36.26579], [-95.28297, 36.2658], [-95.2828, 36.26773], [-95.28382, 36.26896], [-95.28514, 36.26929], [-95.28644, 36.26898], [-95.28772, 36.27006], [-95.28969, 36.27009], [-95.28971, 36.27587], [-95.288, 36.27659], [-95.28752, 36.27819], [-95.28856, 36.27941], [-95.29174, 36.28029], [-95.29129, 36.2823], [-95.28895, 36.2837], [-95.28831, 36.28458], [-95.28818, 36.2865], [-95.28871, 36.28955], [-95.28989, 36.29044], [-95.29135, 36.29064], [-95.29271, 36.29016], [-95.29409, 36.28868], [-95.29717, 36.28859], [-95.2976, 36.28969], [-95.29857, 36.29038], [-95.29856, 36.29092], [-95.27057, 36.29087], [-95.26961, 36.28996], [-95.26827, 36.28968], [-95.26696, 36.29005], [-95.26616, 36.29087], [-95.25851, 36.2909], [-95.25852, 36.27376], [-95.26319, 36.27371], [-95.26626, 36.27272], [-95.27801, 36.27245], [-95.27932, 36.27182], [-95.28043, 36.27067], [-95.28085, 36.26928], [-95.28088, 36.26578], [-95.282, 36.26579]]], [[[-95.25375, 36.27342], [-95.25221, 36.27433], [-95.25158, 36.27581], [-95.25217, 36.27702], [-95.25377, 36.27767], [-95.25374, 36.2909], [-95.22704, 36.29093], [-95.22642, 36.28945], [-95.22534, 36.28875], [-95.22396, 36.28866], [-95.22263, 36.28931], [-95.22266, 36.27442], [-95.22653, 36.27422], [-95.22653, 36.27293], [-95.23829, 36.27315], [-95.25374, 36.27276], [-95.25375, 36.27342]]], [[[-95.21789, 36.27347], [-95.21787, 36.29094], [-95.21133, 36.29097], [-95.20472, 36.28451], [-95.20474, 36.26582], [-95.21389, 36.26581], [-95.2124, 36.268], [-95.21211, 36.26925], [-95.2107, 36.26985], [-95.20958, 36.27093], [-95.20905, 36.27239], [-95.20924, 36.27332], [-95.21014, 36.27417], [-95.21148, 36.27447], [-95.21298, 36.27401], [-95.21377, 36.27292], [-95.21788, 36.2729], [-95.21789, 36.27347]]], [[[-95.23183, 36.26839], [-95.23217, 36.26824], [-95.23209, 36.26764], [-95.22924, 36.26754], [-95.22878, 36.26668], [-95.22748, 36.26652], [-95.22738, 36.26582], [-95.23585, 36.26584], [-95.23583, 36.2691], [-95.23188, 36.26909], [-95.23183, 36.26839]]], [[[-95.24062, 36.26582], [-95.25373, 36.2658], [-95.25374, 36.26889], [-95.2406, 36.26911], [-95.24062, 36.26582]]], [[[-95.25851, 36.26689], [-95.2585, 36.26577], [-95.27611, 36.26576], [-95.27609, 36.26882], [-95.25851, 36.26888], [-95.25851, 36.26689]]], [[[-95.2761, 36.2619], [-95.25851, 36.26191], [-95.25852, 36.25291], [-95.25948, 36.25279], [-95.25872, 36.25128], [-95.26448, 36.25532], [-95.26549, 36.25678], [-95.26785, 36.25777], [-95.27015, 36.25765], [-95.27218, 36.25665], [-95.27313, 36.25525], [-95.2732, 36.2537], [-95.2744, 36.25678], [-95.27658, 36.25781], [-95.27644, 36.2619], [-95.2761, 36.2619]]], [[[-95.26954, 36.24236], [-95.26747, 36.24192], [-95.26738, 36.24102], [-95.26946, 36.2417], [-95.26954, 36.24236]]], [[[-95.26974, 36.23712], [-95.26968, 36.23661], [-95.27011, 36.23669], [-95.26984, 36.23721], [-95.26974, 36.23712]]], [[[-95.26636, 36.22995], [-95.26664, 36.23008], [-95.26574, 36.23089], [-95.26357, 36.23078], [-95.26357, 36.22564], [-95.26437, 36.22567], [-95.26426, 36.22629], [-95.26521, 36.22634], [-95.26538, 36.22991], [-95.26636, 36.22995]]], [[[-95.27202, 36.21831], [-95.27202, 36.21601], [-95.27298, 36.21601], [-95.27298, 36.21818], [-95.27202, 36.21831]]], [[[-95.28557, 36.21675], [-95.28659, 36.21606], [-95.28886, 36.21607], [-95.28843, 36.21682], [-95.28926, 36.21692], [-95.28977, 36.21848], [-95.29085, 36.21823], [-95.2926, 36.21888], [-95.29326, 36.21879], [-95.29515, 36.22033], [-95.29741, 36.22034], [-95.29794, 36.21912], [-95.30043, 36.22039], [-95.30188, 36.22163], [-95.30483, 36.2256], [-95.30519, 36.22731], [-95.30107, 36.23447], [-95.29119, 36.23439], [-95.2897, 36.23245], [-95.28849, 36.23165], [-95.28877, 36.22897], [-95.28727, 36.22465], [-95.28925, 36.22299], [-95.28969, 36.22082], [-95.28911, 36.21953], [-95.28792, 36.21847], [-95.2862, 36.21785], [-95.28457, 36.21779], [-95.28447, 36.2175], [-95.28557, 36.21675]], [[-95.29236, 36.22072], [-95.29349, 36.22369], [-95.29181, 36.22405], [-95.29182, 36.22429], [-95.29277, 36.2249], [-95.292, 36.22486], [-95.29225, 36.22587], [-95.29303, 36.2259], [-95.29382, 36.22859], [-95.29294, 36.22843], [-95.29041, 36.22913], [-95.2968, 36.22913], [-95.29689, 36.22079], [-95.29236, 36.22072]]], [[[-95.29119, 36.21605], [-95.29096, 36.21636], [-95.29032, 36.21635], [-95.29028, 36.21606], [-95.29119, 36.21605]]], [[[-95.29193, 36.21604], [-95.29346, 36.21694], [-95.29334, 36.21733], [-95.2916, 36.21604], [-95.29193, 36.21604]]], [[[-95.28565, 36.21056], [-95.2856, 36.21167], [-95.28489, 36.21219], [-95.28225, 36.21215], [-95.28072, 36.21082], [-95.28113, 36.20924], [-95.28331, 36.20996], [-95.28564, 36.20973], [-95.28565, 36.21056]]], [[[-95.27745, 36.20997], [-95.27502, 36.21063], [-95.27949, 36.20741], [-95.27994, 36.2082], [-95.27745, 36.20997]]], [[[-95.28306, 36.17321], [-95.2847, 36.16756], [-95.29043, 36.16813], [-95.29072, 36.17042], [-95.29319, 36.17307], [-95.29418, 36.17366], [-95.29693, 36.174], [-95.30049, 36.17274], [-95.30375, 36.17316], [-95.29785, 36.17454], [-95.29371, 36.17491], [-95.28428, 36.17479], [-95.28306, 36.17321]]], [[[-95.30028, 36.20122], [-95.30007, 36.20146], [-95.29867, 36.20136], [-95.29839, 36.20275], [-95.29777, 36.20281], [-95.29774, 36.20146], [-95.29132, 36.2014], [-95.29115, 36.20111], [-95.30028, 36.20122]]], [[[-95.29395, 36.21209], [-95.29405, 36.21217], [-95.29384, 36.21202], [-95.29395, 36.21209]]], [[[-95.30706, 36.2158], [-95.30803, 36.21504], [-95.31467, 36.21516], [-95.31483, 36.21291], [-95.31649, 36.2129], [-95.31701, 36.21145], [-95.32182, 36.21139], [-95.32218, 36.21158], [-95.32222, 36.21309], [-95.32554, 36.21456], [-95.32589, 36.21698], [-95.3266, 36.21719], [-95.32841, 36.21641], [-95.32852, 36.21441], [-95.33057, 36.21524], [-95.33272, 36.21468], [-95.33263, 36.21874], [-95.33322, 36.21883], [-95.3334, 36.22132], [-95.33418, 36.22218], [-95.33527, 36.22262], [-95.33735, 36.22272], [-95.33852, 36.22241], [-95.33824, 36.22407], [-95.33763, 36.22406], [-95.33755, 36.22495], [-95.33537, 36.22645], [-95.33247, 36.22595], [-95.3309, 36.22624], [-95.3295, 36.22701], [-95.32833, 36.22882], [-95.3282, 36.23325], [-95.32787, 36.23325], [-95.32811, 36.22935], [-95.3241, 36.22923], [-95.32391, 36.22998], [-95.32155, 36.2279], [-95.32126, 36.22639], [-95.322, 36.22474], [-95.32269, 36.22472], [-95.32336, 36.22489], [-95.3238, 36.22557], [-95.32519, 36.22594], [-95.32807, 36.228], [-95.3281, 36.22554], [-95.32726, 36.22506], [-95.32727, 36.22465], [-95.32803, 36.22444], [-95.32808, 36.21987], [-95.3274, 36.21958], [-95.32562, 36.21978], [-95.32571, 36.22191], [-95.3219, 36.22231], [-95.32149, 36.22201], [-95.32006, 36.2221], [-95.31961, 36.22138], [-95.32025, 36.21987], [-95.32009, 36.21843], [-95.31929, 36.21722], [-95.31798, 36.21635], [-95.31478, 36.21586], [-95.31101, 36.21706], [-95.31126, 36.21753], [-95.31216, 36.2175], [-95.31175, 36.21812], [-95.31065, 36.21832], [-95.31143, 36.21947], [-95.31043, 36.21911], [-95.30779, 36.2159], [-95.30706, 36.2158]], [[-95.31114, 36.21595], [-95.31043, 36.21623], [-95.31004, 36.21583], [-95.3085, 36.2159], [-95.30968, 36.21727], [-95.31306, 36.21583], [-95.31114, 36.21595]]], [[[-95.33849, 36.21357], [-95.33737, 36.2134], [-95.33727, 36.2129], [-95.33644, 36.2126], [-95.33674, 36.21223], [-95.33745, 36.21254], [-95.33744, 36.2115], [-95.33846, 36.21072], [-95.33849, 36.21357]]], [[[-95.3176, 36.22387], [-95.31731, 36.22414], [-95.31673, 36.22363], [-95.31674, 36.22298], [-95.31863, 36.22228], [-95.31856, 36.22378], [-95.3176, 36.22387]]], [[[-95.30892, 36.23137], [-95.30997, 36.22657], [-95.30953, 36.22473], [-95.30832, 36.22267], [-95.30977, 36.22324], [-95.32108, 36.2332], [-95.31948, 36.23348], [-95.31734, 36.2346], [-95.31682, 36.23351], [-95.31567, 36.23288], [-95.30991, 36.23276], [-95.30845, 36.23331], [-95.30774, 36.23452], [-95.30643, 36.23451], [-95.30749, 36.23262], [-95.30892, 36.23137]]], [[[-95.31287, 36.25711], [-95.31283, 36.25722], [-95.31271, 36.2571], [-95.3129, 36.25703], [-95.31287, 36.25711]]], [[[-95.33051, 36.18968], [-95.33024, 36.18968], [-95.33051, 36.18963], [-95.33051, 36.18968]]], [[[-95.32836, 36.18967], [-95.3274, 36.18966], [-95.32656, 36.18882], [-95.32524, 36.18848], [-95.32391, 36.18879], [-95.32303, 36.18962], [-95.31715, 36.18958], [-95.31723, 36.18742], [-95.30996, 36.18976], [-95.30999, 36.18941], [-95.31492, 36.18785], [-95.31494, 36.1862], [-95.32163, 36.18625], [-95.32191, 36.18721], [-95.32268, 36.18791], [-95.32446, 36.18821], [-95.326, 36.18738], [-95.32783, 36.18913], [-95.32914, 36.18967], [-95.32836, 36.18967]]], [[[-95.36093, 36.23849], [-95.36301, 36.23805], [-95.36437, 36.2371], [-95.36637, 36.23709], [-95.36653, 36.24742], [-95.35325, 36.24743], [-95.3532, 36.23711], [-95.35718, 36.23711], [-95.35887, 36.23818], [-95.36093, 36.23849]]], [[[-95.35559, 36.23324], [-95.35323, 36.23325], [-95.3532, 36.22266], [-95.36591, 36.22256], [-95.36635, 36.22385], [-95.36637, 36.23323], [-95.36473, 36.23323], [-95.36318, 36.23189], [-95.36077, 36.23135], [-95.35851, 36.23182], [-95.35678, 36.23324], [-95.35559, 36.23324]]], [[[-95.35398, 36.2513], [-95.3614, 36.25129], [-95.3614, 36.25445], [-95.35853, 36.25444], [-95.35627, 36.2551], [-95.35425, 36.25708], [-95.35426, 36.25804], [-95.3549, 36.25892], [-95.35277, 36.25986], [-95.35182, 36.2619], [-95.34826, 36.26192], [-95.34826, 36.25458], [-95.34977, 36.25435], [-95.3509, 36.25349], [-95.35131, 36.25239], [-95.35102, 36.2513], [-95.35398, 36.2513]]], [[[-95.30825, 36.21354], [-95.30822, 36.21347], [-95.30848, 36.21384], [-95.30832, 36.21385], [-95.30825, 36.21354]]], [[[-95.30771, 36.21182], [-95.30738, 36.21189], [-95.30785, 36.2129], [-95.30622, 36.21216], [-95.29963, 36.21217], [-95.29941, 36.21143], [-95.2986, 36.21076], [-95.30239, 36.21051], [-95.3035, 36.20972], [-95.30362, 36.20778], [-95.3051, 36.20718], [-95.30644, 36.20812], [-95.30775, 36.20604], [-95.30953, 36.20602], [-95.31062, 36.20636], [-95.31095, 36.20722], [-95.3119, 36.20678], [-95.31194, 36.20737], [-95.31114, 36.20801], [-95.3088, 36.2091], [-95.30886, 36.20942], [-95.31125, 36.209], [-95.31011, 36.21023], [-95.31019, 36.21102], [-95.30959, 36.21081], [-95.30771, 36.21182]]], [[[-95.27395, 36.21152], [-95.27354, 36.21215], [-95.27292, 36.21215], [-95.27436, 36.21111], [-95.27395, 36.21152]]], [[[-95.26725, 36.216], [-95.26357, 36.21727], [-95.26357, 36.21631], [-95.26445, 36.216], [-95.26725, 36.216]]], [[[-95.2648, 36.20159], [-95.26525, 36.2021], [-95.26454, 36.2021], [-95.2648, 36.20159]]], [[[-95.25872, 36.21422], [-95.25775, 36.21355], [-95.25753, 36.21229], [-95.25869, 36.2123], [-95.25872, 36.21422]]], [[[-95.22917, 36.24084], [-95.22907, 36.24034], [-95.23288, 36.24026], [-95.23688, 36.23923], [-95.2405, 36.23766], [-95.24376, 36.23549], [-95.24328, 36.23752], [-95.24323, 36.24176], [-95.2416, 36.24386], [-95.24143, 36.24748], [-95.22919, 36.24737], [-95.22917, 36.24084]]], [[[-95.24619, 36.23277], [-95.24613, 36.23278], [-95.24597, 36.23181], [-95.24715, 36.23262], [-95.24619, 36.23277]]], [[[-95.18736, 36.23793], [-95.18867, 36.23754], [-95.19347, 36.23842], [-95.19385, 36.23858], [-95.19425, 36.24044], [-95.19578, 36.24141], [-95.19775, 36.24143], [-95.19983, 36.24051], [-95.20224, 36.24138], [-95.20594, 36.24188], [-95.2058, 36.24744], [-95.19671, 36.24745], [-95.19563, 36.24779], [-95.19479, 36.24869], [-95.19477, 36.24999], [-95.19558, 36.2509], [-95.19664, 36.25127], [-95.19868, 36.2513], [-95.19878, 36.25254], [-95.19992, 36.25353], [-95.19993, 36.25676], [-95.19577, 36.25686], [-95.19279, 36.25617], [-95.18915, 36.25652], [-95.18775, 36.24991], [-95.18711, 36.2427], [-95.18736, 36.23793]]], [[[-95.21054, 36.24236], [-95.21472, 36.24195], [-95.22133, 36.24202], [-95.2244, 36.24115], [-95.22437, 36.24744], [-95.21058, 36.24745], [-95.21054, 36.24236]]], [[[-95.20578, 36.22777], [-95.20578, 36.22782], [-95.19244, 36.22786], [-95.19297, 36.2275], [-95.20578, 36.22777]]], [[[-95.20579, 36.2262], [-95.19338, 36.22722], [-95.19376, 36.22686], [-95.20492, 36.22598], [-95.20492, 36.22511], [-95.20404, 36.2252], [-95.20403, 36.22434], [-95.20456, 36.22427], [-95.20333, 36.22247], [-95.20255, 36.22251], [-95.20222, 36.22323], [-95.20098, 36.22259], [-95.20164, 36.22371], [-95.20059, 36.22373], [-95.20073, 36.22289], [-95.20024, 36.22294], [-95.2, 36.22375], [-95.19913, 36.2237], [-95.1991, 36.22259], [-95.19274, 36.22275], [-95.19275, 36.22207], [-95.20578, 36.22211], [-95.20579, 36.2262]]], [[[-95.193, 36.2239], [-95.19439, 36.22389], [-95.19399, 36.22487], [-95.1936, 36.22435], [-95.193, 36.2239]]], [[[-95.21054, 36.22868], [-95.21055, 36.22211], [-95.22281, 36.22212], [-95.22269, 36.23293], [-95.2218, 36.23294], [-95.22183, 36.23219], [-95.22253, 36.23164], [-95.22225, 36.23107], [-95.22184, 36.23105], [-95.22177, 36.22793], [-95.22004, 36.22791], [-95.22086, 36.22913], [-95.22061, 36.23109], [-95.2115, 36.23102], [-95.21136, 36.22932], [-95.21054, 36.22868]]], [[[-95.23822, 36.2222], [-95.24104, 36.22224], [-95.24097, 36.22386], [-95.2387, 36.23114], [-95.23459, 36.23292], [-95.22732, 36.23459], [-95.22766, 36.23153], [-95.22758, 36.22209], [-95.23822, 36.2222]]], [[[-95.22952, 36.19901], [-95.22827, 36.20009], [-95.23007, 36.20015], [-95.23315, 36.20568], [-95.24116, 36.20565], [-95.242, 36.21238], [-95.2413, 36.21838], [-95.22758, 36.21822], [-95.22764, 36.20754], [-95.22929, 36.20696], [-95.22997, 36.20559], [-95.22925, 36.20423], [-95.22762, 36.20368], [-95.22765, 36.19925], [-95.22952, 36.19901]]], [[[-95.26989, 36.17884], [-95.26831, 36.18042], [-95.26629, 36.18109], [-95.2666, 36.17904], [-95.2654, 36.17965], [-95.26336, 36.17936], [-95.26361, 36.17896], [-95.26989, 36.17884]]], [[[-95.26212, 36.17912], [-95.26317, 36.17901], [-95.26298, 36.17983], [-95.26232, 36.17987], [-95.26212, 36.17912]]], [[[-95.26058, 36.17933], [-95.26082, 36.17943], [-95.25995, 36.17969], [-95.26068, 36.18024], [-95.25818, 36.1802], [-95.26058, 36.17933]]], [[[-95.26769, 36.17325], [-95.26791, 36.17314], [-95.26833, 36.17345], [-95.26797, 36.17332], [-95.26769, 36.17325]]], [[[-95.26899, 36.17378], [-95.26877, 36.17366], [-95.27294, 36.1747], [-95.26997, 36.17473], [-95.26899, 36.17378]]], [[[-95.26452, 36.16842], [-95.26525, 36.16993], [-95.26311, 36.17089], [-95.26144, 36.16867], [-95.26452, 36.16842]]], [[[-95.2964, 36.16963], [-95.29569, 36.16883], [-95.29758, 36.16917], [-95.2964, 36.16963]]], [[[-95.30233, 36.18776], [-95.30271, 36.18741], [-95.30302, 36.18779], [-95.30233, 36.18848], [-95.30233, 36.18776]]], [[[-95.31234, 36.18979], [-95.31211, 36.18974], [-95.31409, 36.18974], [-95.31323, 36.19025], [-95.31234, 36.18979]]], [[[-95.31074, 36.18979], [-95.31059, 36.18974], [-95.31097, 36.18974], [-95.31096, 36.18974], [-95.31074, 36.18979]]], [[[-95.30218, 36.20089], [-95.30219, 36.2005], [-95.30794, 36.20059], [-95.30822, 36.20098], [-95.30218, 36.20089]]], [[[-95.31732, 36.20063], [-95.31712, 36.201], [-95.31654, 36.20063], [-95.31731, 36.20063], [-95.31732, 36.20063]]], [[[-95.3328, 36.20839], [-95.33237, 36.20992], [-95.33131, 36.21018], [-95.33097, 36.20943], [-95.33147, 36.20758], [-95.33284, 36.20801], [-95.33433, 36.2079], [-95.33315, 36.20891], [-95.3328, 36.20839]]], [[[-95.27067, 36.21601], [-95.26444, 36.21827], [-95.26356, 36.21828], [-95.26357, 36.21779], [-95.26864, 36.21601], [-95.27067, 36.21601]]], [[[-95.25401, 36.22214], [-95.25548, 36.22215], [-95.2558, 36.22683], [-95.25443, 36.22638], [-95.25278, 36.22658], [-95.25225, 36.22307], [-95.25261, 36.22374], [-95.25438, 36.22327], [-95.25436, 36.2223], [-95.25401, 36.22214]]], [[[-95.25249, 36.22213], [-95.25336, 36.22214], [-95.25217, 36.22257], [-95.25208, 36.2221], [-95.25249, 36.22213]]], [[[-95.25458, 36.23104], [-95.25532, 36.23073], [-95.25544, 36.23296], [-95.25469, 36.23289], [-95.25458, 36.23104]]], [[[-95.26016, 36.29507], [-95.26022, 36.29476], [-95.27638, 36.29474], [-95.27606, 36.29603], [-95.27454, 36.29806], [-95.2585, 36.29807], [-95.25851, 36.29646], [-95.25961, 36.2959], [-95.26016, 36.29507]]], [[[-95.30438, 36.2764], [-95.29763, 36.27641], [-95.29774, 36.27537], [-95.29709, 36.27438], [-95.29586, 36.2737], [-95.29447, 36.27359], [-95.29447, 36.27152], [-95.2972, 36.27032], [-95.29802, 36.26896], [-95.30302, 36.27063], [-95.30514, 36.2707], [-95.30752, 36.27031], [-95.30749, 36.27635], [-95.30438, 36.2764]]], [[[-95.29439, 36.26425], [-95.29528, 36.26499], [-95.2957, 36.26692], [-95.29446, 36.26717], [-95.29439, 36.26425]]], [[[-95.36616, 36.25644], [-95.36617, 36.25129], [-95.36793, 36.2513], [-95.36615, 36.25877], [-95.36616, 36.25644]]], [[[-95.35317, 36.20608], [-95.35317, 36.2057], [-95.35503, 36.20689], [-95.35768, 36.20761], [-95.35886, 36.20756], [-95.36112, 36.2112], [-95.36459, 36.2187], [-95.35318, 36.21879], [-95.35317, 36.20608]]], [[[-95.34353, 36.28742], [-95.34354, 36.29011], [-95.34189, 36.28917], [-95.34157, 36.28692], [-95.3399, 36.28534], [-95.34009, 36.28356], [-95.33951, 36.28241], [-95.33777, 36.28132], [-95.33542, 36.2814], [-95.33444, 36.28032], [-95.34352, 36.28032], [-95.34353, 36.28742]]], [[[-95.32556, 36.17867], [-95.32702, 36.179], [-95.33041, 36.18094], [-95.33044, 36.18245], [-95.32629, 36.1824], [-95.326, 36.18077], [-95.32435, 36.1798], [-95.32276, 36.18], [-95.3217, 36.18096], [-95.32099, 36.18108], [-95.31958, 36.18063], [-95.31976, 36.17812], [-95.31734, 36.17619], [-95.31731, 36.17545], [-95.31893, 36.17524], [-95.32477, 36.17793], [-95.32556, 36.17867]]], [[[-95.34831, 36.28741], [-95.34829, 36.28033], [-95.35486, 36.28035], [-95.34966, 36.28635], [-95.34831, 36.28741]]], [[[-95.34829, 36.26742], [-95.34829, 36.26579], [-95.36135, 36.26576], [-95.36136, 36.27021], [-95.35756, 36.27649], [-95.3483, 36.27647], [-95.34829, 36.26742]]], [[[-95.35765, 36.25968], [-95.35733, 36.25937], [-95.35883, 36.25845], [-95.36138, 36.25831], [-95.36135, 36.26189], [-95.35758, 36.26189], [-95.35804, 36.26076], [-95.35765, 36.25968]]], [[[-95.3353, 36.19526], [-95.3355, 36.19356], [-95.33575, 36.19571], [-95.33747, 36.19689], [-95.3353, 36.19689], [-95.3353, 36.19526]]], [[[-95.31051, 36.1806], [-95.30958, 36.18177], [-95.30779, 36.18074], [-95.30869, 36.17894], [-95.30925, 36.17995], [-95.31051, 36.1806]]], [[[-95.30323, 36.17755], [-95.30381, 36.17741], [-95.30343, 36.17823], [-95.30255, 36.17773], [-95.30323, 36.17755]]], [[[-95.31247, 36.28038], [-95.31225, 36.27955], [-95.31248, 36.27931], [-95.31252, 36.27992], [-95.31247, 36.28038]]], [[[-95.31226, 36.2764], [-95.31226, 36.27559], [-95.31344, 36.27686], [-95.31354, 36.27789], [-95.31285, 36.27846], [-95.31226, 36.2764]]], [[[-95.24931, 36.30928], [-95.25374, 36.30926], [-95.25374, 36.31198], [-95.24408, 36.30929], [-95.24931, 36.30928]]], [[[-95.23392, 36.30214], [-95.25373, 36.3021], [-95.25373, 36.30539], [-95.23413, 36.30542], [-95.22745, 36.30215], [-95.23392, 36.30214]]], [[[-95.25012, 36.29521], [-95.25017, 36.29704], [-95.2508, 36.29807], [-95.22266, 36.2981], [-95.22266, 36.2948], [-95.24672, 36.29469], [-95.25011, 36.29475], [-95.25012, 36.29521]]], [[[-95.25374, 36.26038], [-95.25374, 36.26193], [-95.2406, 36.26196], [-95.24057, 36.26043], [-95.24342, 36.26047], [-95.24639, 36.25976], [-95.24874, 36.25795], [-95.24929, 36.25652], [-95.24951, 36.25129], [-95.25374, 36.25129], [-95.25374, 36.26038]]], [[[-95.22265, 36.25302], [-95.22265, 36.2513], [-95.24474, 36.25133], [-95.24453, 36.25603], [-95.24244, 36.25663], [-95.23915, 36.25659], [-95.23771, 36.25695], [-95.23755, 36.25487], [-95.23363, 36.25598], [-95.23355, 36.25675], [-95.22265, 36.25665], [-95.22265, 36.25302]]], [[[-95.23571, 36.26197], [-95.23496, 36.2617], [-95.23581, 36.2612], [-95.23583, 36.26197], [-95.23571, 36.26197]]], [[[-95.20469, 36.25507], [-95.2047, 36.2513], [-95.21788, 36.25131], [-95.21788, 36.26194], [-95.20545, 36.26196], [-95.20487, 36.25987], [-95.20469, 36.25507]]], [[[-95.2207, 36.20755], [-95.22287, 36.20753], [-95.22281, 36.21826], [-95.22177, 36.21827], [-95.22092, 36.21763], [-95.2198, 36.2174], [-95.21867, 36.21761], [-95.21778, 36.21827], [-95.2119, 36.21825], [-95.21281, 36.21742], [-95.21302, 36.21649], [-95.212, 36.21476], [-95.21048, 36.21416], [-95.21047, 36.20755], [-95.21571, 36.20757], [-95.21661, 36.20819], [-95.21775, 36.20839], [-95.21963, 36.20755], [-95.2207, 36.20755]]], [[[-95.203, 36.20752], [-95.2057, 36.20754], [-95.2057, 36.2101], [-95.20406, 36.20927], [-95.20229, 36.20964], [-95.20053, 36.21214], [-95.20036, 36.21307], [-95.20075, 36.21396], [-95.20161, 36.21459], [-95.20454, 36.21486], [-95.20374, 36.21579], [-95.20371, 36.21691], [-95.20009, 36.21677], [-95.1984, 36.21736], [-95.19754, 36.21823], [-95.19391, 36.21821], [-95.1941, 36.21656], [-95.1928, 36.21545], [-95.19708, 36.20749], [-95.203, 36.20752]]], [[[-95.20385, 36.19995], [-95.20571, 36.20019], [-95.20571, 36.20367], [-95.19978, 36.20364], [-95.2031, 36.19942], [-95.20385, 36.19995]]], [[[-95.22287, 36.20123], [-95.22285, 36.20367], [-95.21048, 36.20368], [-95.21048, 36.20025], [-95.21698, 36.2002], [-95.21821, 36.19963], [-95.21897, 36.19847], [-95.22289, 36.19851], [-95.22287, 36.20123]]], [[[-95.2148, 36.19533], [-95.21374, 36.19571], [-95.21305, 36.19641], [-95.2105, 36.19639], [-95.21118, 36.19453], [-95.21085, 36.19299], [-95.21699, 36.19299], [-95.21764, 36.19459], [-95.2148, 36.19533]]], [[[-95.2224, 36.19464], [-95.22207, 36.1942], [-95.22291, 36.19299], [-95.22291, 36.19464], [-95.2224, 36.19464]]], [[[-95.22287, 36.18475], [-95.22292, 36.18912], [-95.21358, 36.18913], [-95.21704, 36.18647], [-95.21703, 36.18745], [-95.22166, 36.18748], [-95.22161, 36.18337], [-95.22291, 36.18318], [-95.22287, 36.18475]]], [[[-95.26277, 36.24279], [-95.26286, 36.24336], [-95.26149, 36.24368], [-95.26027, 36.24458], [-95.25929, 36.24672], [-95.25854, 36.24742], [-95.25466, 36.24743], [-95.25464, 36.24118], [-95.25614, 36.24045], [-95.25663, 36.23921], [-95.25604, 36.238], [-95.25454, 36.23736], [-95.25455, 36.23677], [-95.26223, 36.23747], [-95.26277, 36.24279]]], [[[-95.23648, 36.17738], [-95.2369, 36.17702], [-95.23928, 36.17749], [-95.23966, 36.17662], [-95.24176, 36.17772], [-95.242, 36.17661], [-95.24307, 36.17662], [-95.24299, 36.17838], [-95.24511, 36.17838], [-95.24568, 36.17806], [-95.24571, 36.17739], [-95.24643, 36.17736], [-95.24656, 36.17667], [-95.24694, 36.17668], [-95.24707, 36.17797], [-95.24794, 36.17845], [-95.24718, 36.1801], [-95.24633, 36.18012], [-95.24602, 36.17951], [-95.24444, 36.17949], [-95.24419, 36.17996], [-95.2452, 36.18127], [-95.24726, 36.1814], [-95.24549, 36.18137], [-95.24584, 36.18193], [-95.2441, 36.18195], [-95.24202, 36.18076], [-95.24186, 36.17959], [-95.24095, 36.1786], [-95.23907, 36.17811], [-95.23752, 36.17847], [-95.23733, 36.17802], [-95.23878, 36.17766], [-95.23702, 36.17708], [-95.23648, 36.17738]]], [[[-95.23436, 36.17945], [-95.23493, 36.17889], [-95.23517, 36.17904], [-95.23472, 36.17936], [-95.23477, 36.18002], [-95.23437, 36.18006], [-95.23436, 36.17945]]], [[[-95.23405, 36.17975], [-95.2342, 36.18602], [-95.2323, 36.18849], [-95.23145, 36.18887], [-95.23029, 36.18876], [-95.23021, 36.18917], [-95.22987, 36.18918], [-95.22991, 36.18748], [-95.22953, 36.18675], [-95.22876, 36.1865], [-95.22959, 36.1891], [-95.22768, 36.18884], [-95.22767, 36.18247], [-95.23123, 36.18162], [-95.23405, 36.17975]]], [[[-95.26163, 36.31134], [-95.25852, 36.31183], [-95.25852, 36.30925], [-95.26056, 36.30927], [-95.26057, 36.30982], [-95.26231, 36.3098], [-95.2623, 36.30926], [-95.27167, 36.30925], [-95.27168, 36.31155], [-95.27091, 36.31184], [-95.26981, 36.31002], [-95.26817, 36.30935], [-95.26506, 36.31016], [-95.26391, 36.31131], [-95.26275, 36.31109], [-95.26163, 36.31134]]], [[[-95.22796, 36.19345], [-95.22802, 36.19369], [-95.22768, 36.19389], [-95.22768, 36.19344], [-95.22796, 36.19345]]], [[[-95.2479, 36.24282], [-95.24838, 36.23648], [-95.24979, 36.23648], [-95.24986, 36.2419], [-95.24852, 36.24309], [-95.24837, 36.24561], [-95.24751, 36.24497], [-95.24636, 36.24474], [-95.2479, 36.24282]]], [[[-95.21788, 36.2948], [-95.21788, 36.29615], [-95.21597, 36.29481], [-95.21788, 36.2948]]], [[[-95.19322, 36.26017], [-95.19494, 36.26074], [-95.20018, 36.26063], [-95.20055, 36.26196], [-95.19092, 36.26194], [-95.19072, 36.26136], [-95.19129, 36.26028], [-95.19322, 36.26017]]], [[[-95.1937, 36.26581], [-95.19395, 36.26773], [-95.19548, 36.26931], [-95.19741, 36.26992], [-95.19998, 36.2697], [-95.19999, 36.27646], [-95.19835, 36.27647], [-95.19481, 36.27075], [-95.19247, 36.26579], [-95.1937, 36.26581]]], [[[-95.20532, 36.21823], [-95.20539, 36.21825], [-95.20533, 36.21825], [-95.20532, 36.21823]]], [[[-95.25132, 36.2132], [-95.24914, 36.21165], [-95.25027, 36.21227], [-95.25136, 36.21313], [-95.25207, 36.21396], [-95.25228, 36.21484], [-95.25228, 36.2168], [-95.25207, 36.21435], [-95.25132, 36.2132]]], [[[-95.25202, 36.19163], [-95.25411, 36.18923], [-95.25596, 36.18791], [-95.26169, 36.18774], [-95.26051, 36.18933], [-95.26012, 36.19119], [-95.25874, 36.19272], [-95.25763, 36.19551], [-95.2561, 36.19714], [-95.25539, 36.19903], [-95.25581, 36.20167], [-95.25329, 36.20391], [-95.25261, 36.20571], [-95.24986, 36.20559], [-95.24834, 36.20663], [-95.24796, 36.20018], [-95.24858, 36.19906], [-95.24907, 36.19623], [-95.25202, 36.19163]]], [[[-95.24727, 36.17551], [-95.24739, 36.17651], [-95.24398, 36.17652], [-95.24388, 36.17613], [-95.24512, 36.17623], [-95.24652, 36.17559], [-95.2464, 36.17509], [-95.2471, 36.17382], [-95.24769, 36.17362], [-95.24765, 36.17507], [-95.24727, 36.17551]]], [[[-95.23567, 36.17913], [-95.23653, 36.17939], [-95.23626, 36.18005], [-95.23492, 36.18015], [-95.23498, 36.17933], [-95.23567, 36.17913]]]]}, "properties": {"kind": "windland", "area_km2": 58.38}}, {"type": "Feature", "geometry": {"type": "MultiPolygon", "coordinates": [[[[-95.31068, 36.21919], [-95.31069, 36.21943], [-95.31043, 36.21911], [-95.31068, 36.21919]]], [[[-95.30475, 36.22049], [-95.30478, 36.22028], [-95.30522, 36.22038], [-95.30516, 36.22063], [-95.30475, 36.22049]]], [[[-95.31021, 36.22061], [-95.31025, 36.22039], [-95.31071, 36.22018], [-95.31072, 36.22051], [-95.31021, 36.22061]]], [[[-95.30979, 36.22147], [-95.30981, 36.22128], [-95.31076, 36.22173], [-95.31078, 36.22257], [-95.31179, 36.22255], [-95.31304, 36.22393], [-95.314, 36.22448], [-95.32218, 36.23171], [-95.32226, 36.23464], [-95.31763, 36.2346], [-95.31909, 36.23363], [-95.32108, 36.2332], [-95.30977, 36.22324], [-95.30914, 36.22286], [-95.30832, 36.22267], [-95.30953, 36.22473], [-95.30996, 36.22645], [-95.30982, 36.22839], [-95.30908, 36.23016], [-95.30912, 36.22837], [-95.30886, 36.22788], [-95.30844, 36.22785], [-95.30889, 36.22756], [-95.30907, 36.22704], [-95.30868, 36.22689], [-95.30789, 36.22757], [-95.30793, 36.22685], [-95.30884, 36.22658], [-95.30834, 36.2259], [-95.30812, 36.22602], [-95.30781, 36.22593], [-95.30768, 36.22552], [-95.30786, 36.2254], [-95.30627, 36.22279], [-95.30644, 36.22209], [-95.30712, 36.2214], [-95.30853, 36.22117], [-95.30979, 36.22147]]], [[[-95.30563, 36.22222], [-95.30562, 36.22234], [-95.30534, 36.22196], [-95.30547, 36.22205], [-95.30563, 36.22222]]], [[[-95.31277, 36.22253], [-95.31297, 36.22253], [-95.31281, 36.22255], [-95.31277, 36.22253]]], [[[-95.31675, 36.22246], [-95.31839, 36.22242], [-95.31674, 36.22298], [-95.31675, 36.22246]]], [[[-95.31383, 36.22353], [-95.31397, 36.22343], [-95.31315, 36.22253], [-95.31449, 36.2225], [-95.31448, 36.22306], [-95.31484, 36.22332], [-95.31513, 36.22249], [-95.31572, 36.22248], [-95.31574, 36.22414], [-95.31634, 36.22434], [-95.31666, 36.22414], [-95.31673, 36.22363], [-95.31731, 36.22414], [-95.31637, 36.22507], [-95.31708, 36.2259], [-95.32002, 36.2283], [-95.32155, 36.22839], [-95.32155, 36.2279], [-95.32208, 36.22837], [-95.32212, 36.22979], [-95.32161, 36.22923], [-95.32022, 36.22919], [-95.31383, 36.22353]]], [[[-95.30321, 36.23068], [-95.305, 36.22805], [-95.30519, 36.22731], [-95.30512, 36.22627], [-95.3047, 36.2254], [-95.30171, 36.22144], [-95.30017, 36.22022], [-95.29794, 36.21912], [-95.29842, 36.21877], [-95.2985, 36.21822], [-95.29897, 36.21803], [-95.2996, 36.21804], [-95.30232, 36.21951], [-95.3033, 36.22039], [-95.30427, 36.22156], [-95.30439, 36.2223], [-95.3045, 36.2224], [-95.30473, 36.22221], [-95.30649, 36.22458], [-95.30713, 36.22592], [-95.30727, 36.22694], [-95.30705, 36.22835], [-95.30662, 36.22923], [-95.3044, 36.23235], [-95.30359, 36.23449], [-95.30107, 36.23447], [-95.30164, 36.23395], [-95.30241, 36.2319], [-95.30321, 36.23068]]], [[[-95.30671, 36.2302], [-95.3067, 36.23022], [-95.30668, 36.23024], [-95.30671, 36.2302]]], [[[-95.30624, 36.23295], [-95.30648, 36.23342], [-95.30588, 36.23404], [-95.30609, 36.23426], [-95.30675, 36.23358], [-95.30643, 36.23451], [-95.3043, 36.2345], [-95.30445, 36.23407], [-95.30471, 36.23411], [-95.30515, 36.23368], [-95.30552, 36.23293], [-95.30624, 36.23295]]], [[[-95.31006, 36.23442], [-95.30984, 36.23454], [-95.30774, 36.23452], [-95.30829, 36.23345], [-95.30945, 36.23283], [-95.31498, 36.23279], [-95.31589, 36.23294], [-95.31666, 36.23337], [-95.31717, 36.234], [-95.31734, 36.2346], [-95.31006, 36.23442]]], [[[-95.30413, 36.24896], [-95.30966, 36.24895], [-95.30897, 36.2491], [-95.28736, 36.2491], [-95.29101, 36.24884], [-95.30413, 36.24896]]], [[[-95.3113, 36.24896], [-95.31088, 36.2491], [-95.31032, 36.24911], [-95.31033, 36.24895], [-95.31174, 36.24895], [-95.3113, 36.24896]]], [[[-95.31195, 36.24896], [-95.31184, 36.24895], [-95.31242, 36.24894], [-95.31227, 36.24897], [-95.31195, 36.24896]]], [[[-95.3178, 36.24909], [-95.31424, 36.24897], [-95.31338, 36.24909], [-95.3126, 36.24894], [-95.32269, 36.24894], [-95.32269, 36.24907], [-95.3178, 36.24909]]], [[[-95.30744, 36.24967], [-95.30811, 36.2499], [-95.30854, 36.25027], [-95.30868, 36.25102], [-95.30918, 36.25119], [-95.30944, 36.25107], [-95.30967, 36.25126], [-95.30961, 36.25881], [-95.30869, 36.25894], [-95.30831, 36.2599], [-95.30862, 36.26053], [-95.3096, 36.26053], [-95.30959, 36.26162], [-95.3088, 36.26172], [-95.30855, 36.26222], [-95.30808, 36.26249], [-95.308, 36.26296], [-95.3073, 36.26325], [-95.30703, 36.26273], [-95.30746, 36.26164], [-95.30716, 36.26144], [-95.30684, 36.26159], [-95.30717, 36.26107], [-95.30713, 36.26058], [-95.30663, 36.26025], [-95.30593, 36.26037], [-95.30536, 36.26116], [-95.30532, 36.26167], [-95.30483, 36.26203], [-95.30504, 36.2627], [-95.30446, 36.26305], [-95.30437, 36.26353], [-95.30381, 36.2637], [-95.30378, 36.26541], [-95.3034, 36.26593], [-95.30376, 36.26618], [-95.30422, 36.26587], [-95.30444, 36.26551], [-95.30446, 36.26407], [-95.30509, 36.26406], [-95.30505, 36.26454], [-95.30532, 36.26483], [-95.307, 36.26514], [-95.30703, 36.26576], [-95.30736, 36.26608], [-95.30957, 36.26613], [-95.30955, 36.26766], [-95.30815, 36.26754], [-95.30746, 36.2677], [-95.3027, 36.26779], [-95.30189, 36.26741], [-95.30038, 36.26722], [-95.29905, 36.26668], [-95.29869, 36.26646], [-95.29822, 36.26549], [-95.29837, 36.26355], [-95.29792, 36.26315], [-95.29695, 36.26302], [-95.29654, 36.26259], [-95.29535, 36.26091], [-95.29477, 36.25967], [-95.29452, 36.25807], [-95.294, 36.25751], [-95.29194, 36.25703], [-95.29094, 36.25737], [-95.28842, 36.2576], [-95.28959, 36.25548], [-95.28994, 36.25369], [-95.28962, 36.25323], [-95.28842, 36.25307], [-95.28708, 36.25385], [-95.28655, 36.25455], [-95.28355, 36.25116], [-95.28282, 36.25114], [-95.28157, 36.25181], [-95.28159, 36.25029], [-95.28198, 36.24954], [-95.28421, 36.24981], [-95.28453, 36.24964], [-95.30269, 36.24962], [-95.30263, 36.25011], [-95.30303, 36.25054], [-95.30365, 36.25062], [-95.30423, 36.25035], [-95.30452, 36.25053], [-95.30433, 36.25114], [-95.30467, 36.25169], [-95.30519, 36.25177], [-95.30608, 36.2516], [-95.30628, 36.25182], [-95.3067, 36.25188], [-95.30704, 36.25173], [-95.30714, 36.25134], [-95.30667, 36.25103], [-95.30661, 36.2505], [-95.30619, 36.2502], [-95.30638, 36.24963], [-95.30744, 36.24967]], [[-95.30296, 36.25861], [-95.30427, 36.25771], [-95.3056, 36.25734], [-95.30637, 36.25664], [-95.30726, 36.25617], [-95.3066, 36.25552], [-95.30609, 36.25465], [-95.30468, 36.25473], [-95.30305, 36.25435], [-95.30046, 36.25267], [-95.29942, 36.25156], [-95.29807, 36.2517], [-95.29639, 36.25159], [-95.29529, 36.25129], [-95.28972, 36.2513], [-95.29097, 36.25174], [-95.29198, 36.2528], [-95.29221, 36.25375], [-95.29198, 36.25519], [-95.29492, 36.2558], [-95.29633, 36.25694], [-95.29685, 36.25801], [-95.29701, 36.25927], [-95.29739, 36.26008], [-95.29828, 36.26133], [-95.29954, 36.26185], [-95.30045, 36.26281], [-95.30067, 36.26366], [-95.30049, 36.26524], [-95.30107, 36.26546], [-95.3014, 36.26551], [-95.30145, 36.26536], [-95.30075, 36.26402], [-95.30077, 36.26264], [-95.30151, 36.26078], [-95.30296, 36.25861]], [[-95.28733, 36.25145], [-95.28744, 36.25141], [-95.28664, 36.2514], [-95.28686, 36.25167], [-95.28733, 36.25145]]], [[[-95.30876, 36.24964], [-95.30876, 36.24964], [-95.30876, 36.24964], [-95.30876, 36.24964]]], [[[-95.32097, 36.24986], [-95.32084, 36.2499], [-95.32084, 36.24962], [-95.32143, 36.24961], [-95.32143, 36.24986], [-95.32097, 36.24986]]], [[[-95.32248, 36.2497], [-95.32249, 36.24986], [-95.32219, 36.24986], [-95.32219, 36.24961], [-95.32248, 36.2497]]], [[[-95.30913, 36.25024], [-95.30907, 36.25008], [-95.30965, 36.25017], [-95.30966, 36.25088], [-95.3094, 36.25082], [-95.30947, 36.25027], [-95.30913, 36.25024]]], [[[-95.31033, 36.25073], [-95.31032, 36.25034], [-95.31139, 36.25076], [-95.31148, 36.25096], [-95.31206, 36.25107], [-95.31052, 36.25117], [-95.31033, 36.25073]]], [[[-95.312, 36.25084], [-95.31191, 36.25085], [-95.31191, 36.25084], [-95.312, 36.25084]]], [[[-95.31186, 36.2514], [-95.31166, 36.25129], [-95.3122, 36.25126], [-95.31222, 36.25086], [-95.31315, 36.25095], [-95.31357, 36.25068], [-95.31456, 36.25048], [-95.31493, 36.25008], [-95.31518, 36.2507], [-95.31607, 36.25079], [-95.31646, 36.25044], [-95.31657, 36.24963], [-95.32017, 36.24962], [-95.32017, 36.25048], [-95.32043, 36.25096], [-95.32115, 36.25095], [-95.3215, 36.25074], [-95.32155, 36.25043], [-95.3221, 36.25044], [-95.3221, 36.25069], [-95.32123, 36.25113], [-95.32133, 36.2515], [-95.32164, 36.25152], [-95.32275, 36.25102], [-95.32278, 36.25202], [-95.3222, 36.25271], [-95.31434, 36.25662], [-95.31433, 36.25847], [-95.31894, 36.25847], [-95.31184, 36.2586], [-95.31188, 36.26005], [-95.31027, 36.26005], [-95.3103, 36.25441], [-95.31122, 36.25439], [-95.31158, 36.25381], [-95.31104, 36.25301], [-95.31034, 36.25286], [-95.31034, 36.2515], [-95.31155, 36.25136], [-95.31174, 36.25142], [-95.3118, 36.25183], [-95.31186, 36.2514]], [[-95.31813, 36.25329], [-95.31774, 36.25271], [-95.31693, 36.2527], [-95.31659, 36.25302], [-95.3165, 36.2539], [-95.31688, 36.25417], [-95.31751, 36.25415], [-95.31813, 36.25329]], [[-95.31572, 36.25367], [-95.31548, 36.25298], [-95.31477, 36.25301], [-95.31461, 36.25338], [-95.31484, 36.25387], [-95.31543, 36.25402], [-95.31572, 36.25367]], [[-95.31271, 36.2571], [-95.31283, 36.25722], [-95.3129, 36.25703], [-95.31271, 36.2571]]], [[[-95.3067, 36.2619], [-95.30658, 36.26215], [-95.30652, 36.26203], [-95.3067, 36.2619]]], [[[-95.31184, 36.26335], [-95.31188, 36.26352], [-95.31167, 36.26352], [-95.31179, 36.26295], [-95.31126, 36.26235], [-95.3107, 36.26225], [-95.31025, 36.26243], [-95.31026, 36.26187], [-95.31194, 36.26206], [-95.31184, 36.26335]]], [[[-95.30589, 36.26301], [-95.30587, 36.26306], [-95.30585, 36.2631], [-95.30579, 36.26299], [-95.30589, 36.26301]]], [[[-95.30584, 36.26352], [-95.30584, 36.26352], [-95.30584, 36.26351], [-95.30584, 36.26352]]], [[[-95.30958, 36.26499], [-95.30905, 36.26499], [-95.30905, 36.26495], [-95.30958, 36.26495], [-95.30958, 36.26499]]], [[[-95.3103, 36.26563], [-95.31025, 36.26407], [-95.312, 36.26406], [-95.31211, 36.26761], [-95.31022, 36.26765], [-95.3103, 36.26563]]], [[[-95.29069, 36.21033], [-95.29046, 36.20881], [-95.29045, 36.20494], [-95.29122, 36.20492], [-95.29135, 36.21186], [-95.29069, 36.21033]]], [[[-95.28833, 36.21188], [-95.28835, 36.20577], [-95.28961, 36.20579], [-95.28922, 36.20683], [-95.28921, 36.20811], [-95.28999, 36.21023], [-95.28867, 36.21028], [-95.28894, 36.21213], [-95.28872, 36.21229], [-95.28866, 36.21278], [-95.28887, 36.21356], [-95.28925, 36.21344], [-95.28937, 36.21302], [-95.29021, 36.21214], [-95.29008, 36.21154], [-95.29023, 36.21102], [-95.29098, 36.21247], [-95.29212, 36.21383], [-95.28666, 36.21386], [-95.28814, 36.21311], [-95.28833, 36.21188]]], [[[-95.29157, 36.21221], [-95.29142, 36.21198], [-95.29259, 36.21165], [-95.29318, 36.21165], [-95.29441, 36.21246], [-95.29486, 36.21358], [-95.29939, 36.2136], [-95.2994, 36.21378], [-95.30827, 36.21361], [-95.30832, 36.21385], [-95.307, 36.21387], [-95.30782, 36.21504], [-95.30803, 36.21504], [-95.30699, 36.21587], [-95.30544, 36.2149], [-95.30344, 36.21504], [-95.29466, 36.21495], [-95.2937, 36.21437], [-95.30596, 36.21436], [-95.30629, 36.21406], [-95.30596, 36.21381], [-95.293, 36.21382], [-95.29157, 36.21221]]], [[[-95.29908, 36.21332], [-95.2993, 36.21274], [-95.29937, 36.21271], [-95.29939, 36.21341], [-95.29908, 36.21332]]], [[[-95.29357, 36.21498], [-95.29272, 36.21494], [-95.29281, 36.21615], [-95.29346, 36.21694], [-95.29193, 36.21604], [-95.29155, 36.21604], [-95.29124, 36.21554], [-95.29108, 36.21555], [-95.29119, 36.21605], [-95.29028, 36.21606], [-95.29027, 36.21513], [-95.28955, 36.21529], [-95.28886, 36.21607], [-95.28659, 36.21606], [-95.28447, 36.2175], [-95.28456, 36.21732], [-95.28372, 36.21584], [-95.28585, 36.2144], [-95.29272, 36.21436], [-95.29357, 36.21498]]], [[[-95.29714, 36.21616], [-95.29697, 36.21608], [-95.29701, 36.21608], [-95.29714, 36.21616]]], [[[-95.28608, 36.22128], [-95.28571, 36.22084], [-95.28503, 36.22073], [-95.28509, 36.22057], [-95.28576, 36.22048], [-95.28566, 36.22007], [-95.28679, 36.22008], [-95.28677, 36.21993], [-95.28647, 36.21965], [-95.28592, 36.21958], [-95.28511, 36.22003], [-95.28487, 36.21821], [-95.28457, 36.21779], [-95.2862, 36.21785], [-95.28792, 36.21847], [-95.28907, 36.21948], [-95.28961, 36.22048], [-95.28974, 36.22151], [-95.28934, 36.22285], [-95.28855, 36.22385], [-95.28727, 36.22465], [-95.28727, 36.2251], [-95.28608, 36.22128]]], [[[-95.28565, 36.23165], [-95.28829, 36.23184], [-95.28849, 36.23165], [-95.28996, 36.23273], [-95.2906, 36.2339], [-95.28935, 36.23286], [-95.28555, 36.23297], [-95.28505, 36.2307], [-95.28565, 36.23165]]], [[[-95.29122, 36.25787], [-95.29203, 36.25757], [-95.29372, 36.25807], [-95.29401, 36.25861], [-95.29412, 36.2598], [-95.29477, 36.26118], [-95.29649, 36.26343], [-95.29773, 36.26376], [-95.2975, 36.26434], [-95.29755, 36.26555], [-95.29814, 36.26677], [-95.29928, 36.26742], [-95.30099, 36.26787], [-95.30104, 36.26976], [-95.29949, 36.26949], [-95.29802, 36.26896], [-95.29777, 36.26972], [-95.2972, 36.27032], [-95.29562, 36.27121], [-95.29447, 36.27152], [-95.29447, 36.27359], [-95.29586, 36.2737], [-95.29709, 36.27438], [-95.29774, 36.27537], [-95.29763, 36.27641], [-95.30124, 36.27641], [-95.30125, 36.27683], [-95.29547, 36.27695], [-95.29548, 36.276], [-95.29571, 36.27566], [-95.29519, 36.27527], [-95.29473, 36.27524], [-95.29445, 36.27536], [-95.29433, 36.27574], [-95.29483, 36.27611], [-95.29476, 36.27696], [-95.29244, 36.277], [-95.29243, 36.27665], [-95.29374, 36.27649], [-95.29389, 36.27554], [-95.29352, 36.27508], [-95.29242, 36.27505], [-95.29242, 36.26952], [-95.29317, 36.26953], [-95.29364, 36.2698], [-95.29421, 36.26987], [-95.29584, 36.26907], [-95.29598, 36.26884], [-95.29585, 36.26864], [-95.29554, 36.26859], [-95.29411, 36.26933], [-95.29336, 36.269], [-95.29243, 36.26898], [-95.29239, 36.26461], [-95.29166, 36.26381], [-95.29107, 36.26363], [-95.27915, 36.26356], [-95.27924, 36.25824], [-95.27963, 36.25756], [-95.28122, 36.25622], [-95.28156, 36.25514], [-95.28157, 36.25253], [-95.28273, 36.25176], [-95.28325, 36.25166], [-95.28346, 36.2518], [-95.2857, 36.25467], [-95.28637, 36.25508], [-95.28705, 36.25499], [-95.28758, 36.25421], [-95.2881, 36.25383], [-95.28866, 36.25358], [-95.28916, 36.25364], [-95.28894, 36.25534], [-95.28785, 36.25724], [-95.28774, 36.25776], [-95.288, 36.25806], [-95.28865, 36.25819], [-95.29122, 36.25787]], [[-95.29022, 36.26196], [-95.29188, 36.26209], [-95.2933, 36.26274], [-95.29262, 36.26179], [-95.29182, 36.25965], [-95.28856, 36.26003], [-95.28682, 36.25963], [-95.28606, 36.25905], [-95.2856, 36.25836], [-95.28546, 36.25757], [-95.28564, 36.25682], [-95.28454, 36.25634], [-95.28358, 36.25543], [-95.28293, 36.25716], [-95.28124, 36.25864], [-95.28121, 36.26192], [-95.29022, 36.26196]], [[-95.29447, 36.26716], [-95.2957, 36.26692], [-95.29532, 36.26589], [-95.29528, 36.26499], [-95.29438, 36.26422], [-95.29447, 36.26716]]], [[[-95.29165, 36.26454], [-95.29173, 36.26626], [-95.29082, 36.26625], [-95.29042, 36.26489], [-95.2902, 36.26488], [-95.28955, 36.26416], [-95.291, 36.26417], [-95.29165, 36.26454]]], [[[-95.29175, 36.27466], [-95.29177, 36.27702], [-95.28764, 36.2771], [-95.28851, 36.2762], [-95.28971, 36.27587], [-95.28969, 36.27009], [-95.28863, 36.27022], [-95.28772, 36.27006], [-95.28695, 36.26963], [-95.28644, 36.26898], [-95.28491, 36.26928], [-95.28363, 36.26885], [-95.28304, 36.26827], [-95.2828, 36.26773], [-95.28297, 36.2658], [-95.28088, 36.26578], [-95.28085, 36.26928], [-95.2806, 36.27034], [-95.27965, 36.27157], [-95.27801, 36.27245], [-95.27662, 36.27269], [-95.26773, 36.27272], [-95.26769, 36.27106], [-95.27661, 36.27103], [-95.27748, 36.27083], [-95.27823, 36.27037], [-95.27875, 36.26952], [-95.27884, 36.26507], [-95.27915, 36.2641], [-95.28522, 36.26414], [-95.28432, 36.26744], [-95.28482, 36.26743], [-95.28514, 36.26763], [-95.28546, 36.26743], [-95.28621, 36.26742], [-95.2862, 36.26848], [-95.28816, 36.26933], [-95.29175, 36.26754], [-95.29175, 36.27466]]], [[[-95.29243, 36.27584], [-95.29242, 36.27559], [-95.29322, 36.27559], [-95.29321, 36.27611], [-95.29243, 36.27611], [-95.29243, 36.27584]]], [[[-95.2698, 36.21035], [-95.26986, 36.20737], [-95.26804, 36.20536], [-95.26995, 36.20744], [-95.27004, 36.21039], [-95.2698, 36.21035]]], [[[-95.28203, 36.21184], [-95.28225, 36.21215], [-95.28489, 36.21219], [-95.28563, 36.2116], [-95.28564, 36.20973], [-95.28458, 36.20997], [-95.28331, 36.20996], [-95.28228, 36.20975], [-95.28113, 36.20924], [-95.28165, 36.20724], [-95.28143, 36.20717], [-95.27994, 36.2082], [-95.27949, 36.20741], [-95.28033, 36.20681], [-95.28083, 36.20512], [-95.28127, 36.20511], [-95.28127, 36.2057], [-95.28362, 36.20573], [-95.28312, 36.20594], [-95.28295, 36.20642], [-95.28332, 36.20687], [-95.28387, 36.20703], [-95.28448, 36.20686], [-95.28469, 36.20634], [-95.28443, 36.20597], [-95.28372, 36.20573], [-95.28768, 36.20577], [-95.28762, 36.212], [-95.28726, 36.21267], [-95.28561, 36.21385], [-95.2794, 36.2138], [-95.27926, 36.21337], [-95.27836, 36.21325], [-95.27775, 36.21293], [-95.27703, 36.21313], [-95.27693, 36.21378], [-95.27448, 36.21382], [-95.2769, 36.21289], [-95.27702, 36.21238], [-95.27865, 36.21242], [-95.28042, 36.21202], [-95.28072, 36.21082], [-95.28203, 36.21184]], [[-95.28045, 36.21354], [-95.28038, 36.21354], [-95.28038, 36.21359], [-95.28045, 36.21359], [-95.28045, 36.21354]]], [[[-95.27044, 36.21381], [-95.27066, 36.21348], [-95.27124, 36.21336], [-95.27292, 36.21215], [-95.27354, 36.21215], [-95.27421, 36.21124], [-95.27515, 36.21055], [-95.27631, 36.21011], [-95.27745, 36.20997], [-95.27207, 36.21381], [-95.27044, 36.21381]]], [[[-95.27125, 36.21434], [-95.27082, 36.21464], [-95.27088, 36.21482], [-95.26996, 36.21505], [-95.27014, 36.21542], [-95.27201, 36.21481], [-95.27203, 36.21435], [-95.27503, 36.21436], [-95.27503, 36.21996], [-95.2615, 36.21995], [-95.2615, 36.21971], [-95.26355, 36.21973], [-95.26284, 36.21883], [-95.26151, 36.21928], [-95.26151, 36.21853], [-95.2621, 36.21811], [-95.26177, 36.2179], [-95.26151, 36.21801], [-95.26152, 36.21702], [-95.26357, 36.21631], [-95.26357, 36.21727], [-95.26206, 36.21779], [-95.26214, 36.21799], [-95.26267, 36.21811], [-95.26357, 36.21779], [-95.26356, 36.21828], [-95.26444, 36.21827], [-95.26301, 36.2188], [-95.26379, 36.21971], [-95.27202, 36.21977], [-95.27202, 36.21831], [-95.27298, 36.21818], [-95.27298, 36.21601], [-95.27202, 36.21601], [-95.27194, 36.21554], [-95.27067, 36.21601], [-95.26864, 36.21601], [-95.27003, 36.21551], [-95.26981, 36.21512], [-95.26725, 36.216], [-95.26445, 36.216], [-95.26922, 36.21434], [-95.27125, 36.21434]]], [[[-95.27726, 36.21739], [-95.27824, 36.2171], [-95.279, 36.21434], [-95.27939, 36.21434], [-95.27852, 36.21712], [-95.27874, 36.21719], [-95.27892, 36.217], [-95.27922, 36.21708], [-95.2802, 36.21607], [-95.28066, 36.21583], [-95.28105, 36.21435], [-95.28482, 36.21439], [-95.27962, 36.21794], [-95.27895, 36.21875], [-95.27875, 36.2197], [-95.27812, 36.21876], [-95.27774, 36.21998], [-95.2757, 36.21996], [-95.2757, 36.21913], [-95.27616, 36.21917], [-95.27643, 36.21898], [-95.27748, 36.21955], [-95.27767, 36.21897], [-95.27762, 36.21856], [-95.27732, 36.21858], [-95.27707, 36.21827], [-95.27706, 36.21779], [-95.27658, 36.21807], [-95.27591, 36.21772], [-95.27578, 36.21795], [-95.27609, 36.21881], [-95.2757, 36.21892], [-95.2757, 36.21433], [-95.27767, 36.21432], [-95.27757, 36.21702], [-95.27626, 36.21735], [-95.27653, 36.2175], [-95.27726, 36.21739]]], [[[-95.27942, 36.21947], [-95.27957, 36.21895], [-95.2801, 36.21831], [-95.28333, 36.2161], [-95.28349, 36.22001], [-95.27941, 36.21999], [-95.27942, 36.21947]]], [[[-95.2846, 36.22669], [-95.28433, 36.22308], [-95.28432, 36.22301], [-95.28463, 36.22599], [-95.2846, 36.22669]]], [[[-95.28469, 36.22799], [-95.28477, 36.2282], [-95.28477, 36.229], [-95.28469, 36.22799]]], [[[-95.26904, 36.23287], [-95.26813, 36.23155], [-95.26766, 36.23153], [-95.26763, 36.23201], [-95.26842, 36.23307], [-95.26917, 36.2346], [-95.26953, 36.23486], [-95.2704, 36.23504], [-95.2718, 36.23508], [-95.27215, 36.24049], [-95.27039, 36.23936], [-95.26975, 36.23933], [-95.26879, 36.23894], [-95.26803, 36.23833], [-95.26756, 36.2382], [-95.26705, 36.23759], [-95.26702, 36.23705], [-95.26752, 36.23607], [-95.26813, 36.23389], [-95.26729, 36.2329], [-95.26667, 36.23263], [-95.26514, 36.23275], [-95.26339, 36.23261], [-95.25932, 36.23323], [-95.25842, 36.23285], [-95.25812, 36.23168], [-95.25843, 36.2292], [-95.25909, 36.22758], [-95.25872, 36.22659], [-95.25867, 36.22294], [-95.25787, 36.21977], [-95.26084, 36.21873], [-95.26084, 36.2195], [-95.26059, 36.21955], [-95.26084, 36.21995], [-95.25838, 36.21994], [-95.25807, 36.22028], [-95.25842, 36.22056], [-95.26084, 36.22049], [-95.26091, 36.23078], [-95.26129, 36.23089], [-95.26152, 36.23066], [-95.26152, 36.22496], [-95.26216, 36.22558], [-95.26357, 36.22564], [-95.26357, 36.23078], [-95.26574, 36.23089], [-95.26664, 36.23008], [-95.26631, 36.22992], [-95.2713, 36.23001], [-95.2716, 36.2311], [-95.27177, 36.23454], [-95.26983, 36.23437], [-95.26904, 36.23287]], [[-95.26995, 36.23696], [-95.27011, 36.23669], [-95.26968, 36.23661], [-95.26953, 36.23695], [-95.26984, 36.23721], [-95.26995, 36.23696]], [[-95.26635, 36.23169], [-95.26544, 36.23169], [-95.26544, 36.23223], [-95.26605, 36.23223], [-95.26635, 36.23169]]], [[[-95.26826, 36.24615], [-95.26969, 36.24572], [-95.27228, 36.24329], [-95.27218, 36.24379], [-95.27141, 36.24502], [-95.26718, 36.24684], [-95.2678, 36.24624], [-95.26826, 36.24615]]], [[[-95.27542, 36.25189], [-95.27584, 36.25254], [-95.27406, 36.25086], [-95.27163, 36.24958], [-95.2755, 36.24958], [-95.27542, 36.25189]]], [[[-95.28098, 36.25002], [-95.2809, 36.25227], [-95.27687, 36.25543], [-95.27658, 36.2551], [-95.27652, 36.25369], [-95.2763, 36.25321], [-95.2772, 36.25376], [-95.27881, 36.25364], [-95.28006, 36.25244], [-95.28011, 36.24956], [-95.2812, 36.24954], [-95.28098, 36.25002]]], [[[-95.27192, 36.25036], [-95.27364, 36.25128], [-95.27552, 36.25307], [-95.27586, 36.25379], [-95.27593, 36.25526], [-95.27663, 36.25594], [-95.27722, 36.25593], [-95.2809, 36.25296], [-95.28089, 36.2551], [-95.28068, 36.25587], [-95.27908, 36.25726], [-95.27855, 36.25829], [-95.27849, 36.26357], [-95.25644, 36.26359], [-95.25646, 36.25292], [-95.25852, 36.25291], [-95.25851, 36.26191], [-95.27644, 36.2619], [-95.27658, 36.25781], [-95.27548, 36.25753], [-95.2744, 36.25678], [-95.27377, 36.25582], [-95.27361, 36.25417], [-95.2732, 36.2537], [-95.27313, 36.25525], [-95.27218, 36.25665], [-95.27015, 36.25765], [-95.26809, 36.25781], [-95.26716, 36.25757], [-95.26549, 36.25678], [-95.26498, 36.25629], [-95.26448, 36.25532], [-95.25912, 36.25129], [-95.25872, 36.25128], [-95.25844, 36.25073], [-95.25833, 36.25202], [-95.25646, 36.25209], [-95.25648, 36.25034], [-95.25813, 36.2504], [-95.25785, 36.24962], [-95.26041, 36.24963], [-95.26303, 36.25181], [-95.26636, 36.25422], [-95.26696, 36.25538], [-95.26831, 36.25597], [-95.26931, 36.25594], [-95.27062, 36.25532], [-95.27098, 36.25463], [-95.27094, 36.25389], [-95.27043, 36.25238], [-95.26959, 36.25136], [-95.26936, 36.25035], [-95.26972, 36.24993], [-95.27018, 36.2499], [-95.2709, 36.24991], [-95.27192, 36.25036]]], [[[-95.27271, 36.26407], [-95.27847, 36.26411], [-95.27818, 36.26503], [-95.2781, 36.26941], [-95.27771, 36.27002], [-95.2772, 36.27034], [-95.27658, 36.27049], [-95.26767, 36.27052], [-95.26762, 36.26885], [-95.27609, 36.26882], [-95.27611, 36.26576], [-95.2585, 36.26577], [-95.25851, 36.26864], [-95.25646, 36.26868], [-95.25644, 36.26413], [-95.27271, 36.26407]]], [[[-95.25482, 36.20612], [-95.25471, 36.20686], [-95.25467, 36.20561], [-95.25497, 36.20561], [-95.25482, 36.20612]]], [[[-95.25532, 36.20721], [-95.25566, 36.2056], [-95.25724, 36.20557], [-95.25699, 36.2059], [-95.25704, 36.2101], [-95.25776, 36.21046], [-95.26073, 36.21045], [-95.26086, 36.21495], [-95.25945, 36.21487], [-95.26085, 36.21638], [-95.26085, 36.21666], [-95.25874, 36.21435], [-95.25869, 36.2123], [-95.25753, 36.21229], [-95.25775, 36.21355], [-95.25485, 36.21158], [-95.25474, 36.20797], [-95.25532, 36.20721]]], [[[-95.26593, 36.21043], [-95.26702, 36.21042], [-95.26139, 36.21049], [-95.26139, 36.21045], [-95.26593, 36.21043]]], [[[-95.2567, 36.21668], [-95.25636, 36.21587], [-95.25647, 36.21605], [-95.2567, 36.21668]]], [[[-95.25765, 36.21889], [-95.25746, 36.21845], [-95.26085, 36.21731], [-95.26084, 36.21826], [-95.25776, 36.21931], [-95.25765, 36.21889]]], [[[-95.25307, 36.21993], [-95.25685, 36.21868], [-95.25713, 36.21951], [-95.25577, 36.21995], [-95.25307, 36.21993]]], [[[-95.25662, 36.22044], [-95.25677, 36.22019], [-95.25655, 36.21996], [-95.25724, 36.21996], [-95.25801, 36.223], [-95.25805, 36.22664], [-95.25842, 36.22761], [-95.25777, 36.22908], [-95.25745, 36.23166], [-95.25782, 36.23309], [-95.25824, 36.23349], [-95.25931, 36.23377], [-95.2634, 36.23315], [-95.26514, 36.23329], [-95.26657, 36.23318], [-95.26688, 36.23333], [-95.26745, 36.23393], [-95.26688, 36.23591], [-95.26635, 36.23695], [-95.26643, 36.23779], [-95.26713, 36.23863], [-95.26763, 36.23879], [-95.26841, 36.23938], [-95.26958, 36.23986], [-95.27014, 36.23987], [-95.27133, 36.24052], [-95.27176, 36.24113], [-95.27185, 36.24265], [-95.27157, 36.24325], [-95.26923, 36.24532], [-95.26834, 36.2456], [-95.26783, 36.24556], [-95.2668, 36.24639], [-95.26522, 36.24715], [-95.26468, 36.24718], [-95.26387, 36.24578], [-95.26347, 36.24545], [-95.26306, 36.24521], [-95.26261, 36.24529], [-95.26186, 36.24597], [-95.26153, 36.24737], [-95.26041, 36.24846], [-95.26023, 36.24909], [-95.25261, 36.24909], [-95.2526, 36.23968], [-95.25342, 36.23947], [-95.25432, 36.23954], [-95.25458, 36.23927], [-95.25439, 36.23904], [-95.25363, 36.23893], [-95.25258, 36.23914], [-95.25262, 36.23488], [-95.26414, 36.23599], [-95.26502, 36.24381], [-95.26549, 36.24406], [-95.26768, 36.24413], [-95.26894, 36.24508], [-95.26937, 36.24485], [-95.26797, 36.24362], [-95.26563, 36.24352], [-95.2648, 36.23586], [-95.26459, 36.23556], [-95.25264, 36.23434], [-95.25259, 36.23147], [-95.25225, 36.2309], [-95.25115, 36.22999], [-95.2499, 36.2216], [-95.24899, 36.22043], [-95.24992, 36.22042], [-95.24993, 36.22086], [-95.25053, 36.22093], [-95.25221, 36.22034], [-95.25247, 36.22047], [-95.25427, 36.22048], [-95.25087, 36.22173], [-95.25115, 36.22215], [-95.25584, 36.22049], [-95.25662, 36.22044]], [[-95.25808, 36.24741], [-95.25854, 36.24742], [-95.25929, 36.24672], [-95.2598, 36.24519], [-95.26055, 36.24431], [-95.26171, 36.24359], [-95.26286, 36.24336], [-95.26223, 36.23747], [-95.25455, 36.23677], [-95.25454, 36.23736], [-95.2553, 36.23754], [-95.25604, 36.238], [-95.25642, 36.23848], [-95.25663, 36.23921], [-95.25655, 36.23978], [-95.25614, 36.24045], [-95.25544, 36.24095], [-95.25464, 36.24118], [-95.25466, 36.24743], [-95.25808, 36.24741]], [[-95.25544, 36.23296], [-95.25519, 36.23187], [-95.25532, 36.23073], [-95.25454, 36.23094], [-95.25469, 36.23289], [-95.25544, 36.23296]], [[-95.25562, 36.22672], [-95.2558, 36.22683], [-95.25587, 36.2249], [-95.25548, 36.22215], [-95.25401, 36.22214], [-95.25372, 36.22201], [-95.25336, 36.22214], [-95.25208, 36.2221], [-95.25278, 36.22658], [-95.25443, 36.22638], [-95.25562, 36.22672]], [[-95.26747, 36.24192], [-95.26841, 36.24199], [-95.26945, 36.24245], [-95.26954, 36.24236], [-95.26946, 36.2417], [-95.26738, 36.24102], [-95.26747, 36.24192]], [[-95.25072, 36.22226], [-95.25051, 36.22187], [-95.2502, 36.22196], [-95.25033, 36.22243], [-95.25072, 36.22226]], [[-95.25362, 36.22907], [-95.25445, 36.229], [-95.25458, 36.22857], [-95.25438, 36.22827], [-95.25352, 36.22836], [-95.25343, 36.22874], [-95.25362, 36.22907]]], [[[-95.26521, 36.22641], [-95.26523, 36.22634], [-95.26521, 36.22709], [-95.26521, 36.22691], [-95.26521, 36.22641]]], [[[-95.26174, 36.24816], [-95.26218, 36.24752], [-95.26246, 36.24621], [-95.26292, 36.24578], [-95.2633, 36.24607], [-95.26417, 36.24754], [-95.26471, 36.24774], [-95.26392, 36.24803], [-95.2646, 36.24906], [-95.26089, 36.24909], [-95.26112, 36.24858], [-95.26174, 36.24816]]], [[[-95.26495, 36.2496], [-95.26531, 36.25239], [-95.26641, 36.2528], [-95.26765, 36.25279], [-95.26851, 36.25185], [-95.26841, 36.24958], [-95.2692, 36.24958], [-95.26872, 36.25018], [-95.26868, 36.25067], [-95.26922, 36.25202], [-95.26981, 36.25259], [-95.27029, 36.25399], [-95.27031, 36.25458], [-95.26972, 36.25519], [-95.26848, 36.25544], [-95.26747, 36.25499], [-95.26689, 36.25388], [-95.26122, 36.24963], [-95.26495, 36.2496]]], [[[-95.24382, 36.21483], [-95.24399, 36.21483], [-95.24385, 36.2162], [-95.24382, 36.21483]]], [[[-95.24914, 36.21608], [-95.24959, 36.2173], [-95.24996, 36.21988], [-95.24884, 36.2199], [-95.24867, 36.21905], [-95.2491, 36.21875], [-95.24911, 36.21827], [-95.24832, 36.21772], [-95.24793, 36.21665], [-95.24742, 36.21651], [-95.24738, 36.21631], [-95.24787, 36.21632], [-95.24791, 36.21572], [-95.24886, 36.2157], [-95.24914, 36.21608]], [[-95.24796, 36.21636], [-95.24883, 36.21636], [-95.24883, 36.21576], [-95.24796, 36.21576], [-95.24796, 36.21636]]], [[[-95.25224, 36.21969], [-95.25217, 36.2197], [-95.25217, 36.21663], [-95.25228, 36.2168], [-95.25224, 36.21969]]], [[[-95.24768, 36.21877], [-95.24821, 36.21905], [-95.24831, 36.21994], [-95.24784, 36.21983], [-95.24786, 36.2194], [-95.24759, 36.2192], [-95.24759, 36.21894], [-95.24728, 36.21894], [-95.24732, 36.21857], [-95.24768, 36.21877]]], [[[-95.24679, 36.22226], [-95.24682, 36.22212], [-95.2484, 36.2221], [-95.24819, 36.22088], [-95.24709, 36.22096], [-95.24714, 36.22078], [-95.24814, 36.22071], [-95.24808, 36.2205], [-95.24821, 36.22054], [-95.24866, 36.22095], [-95.2485, 36.22096], [-95.2487, 36.22194], [-95.24912, 36.22181], [-95.24906, 36.22141], [-95.24925, 36.22171], [-95.25001, 36.22631], [-95.2495, 36.2271], [-95.25019, 36.22764], [-95.25042, 36.22944], [-95.24869, 36.22821], [-95.24614, 36.22759], [-95.2467, 36.22621], [-95.24738, 36.22599], [-95.24746, 36.22557], [-95.24796, 36.22593], [-95.24813, 36.22586], [-95.24928, 36.22699], [-95.24973, 36.22599], [-95.2495, 36.22341], [-95.24837, 36.22331], [-95.24795, 36.22335], [-95.24686, 36.22452], [-95.24723, 36.22482], [-95.24681, 36.22509], [-95.24703, 36.22525], [-95.24646, 36.22531], [-95.24615, 36.22583], [-95.24528, 36.22822], [-95.24545, 36.22903], [-95.24581, 36.22968], [-95.24626, 36.22969], [-95.24638, 36.22946], [-95.24598, 36.22811], [-95.24665, 36.22827], [-95.24647, 36.22903], [-95.24663, 36.22938], [-95.24708, 36.22969], [-95.24688, 36.23019], [-95.24722, 36.23043], [-95.24751, 36.23029], [-95.24827, 36.22866], [-95.24894, 36.22906], [-95.24877, 36.22929], [-95.24887, 36.22953], [-95.24918, 36.22959], [-95.24944, 36.22942], [-95.24965, 36.22959], [-95.24932, 36.22997], [-95.24833, 36.23021], [-95.24816, 36.23067], [-95.24825, 36.2311], [-95.24889, 36.23153], [-95.24939, 36.2315], [-95.2499, 36.23205], [-95.25018, 36.23201], [-95.25032, 36.23178], [-95.24996, 36.23122], [-95.25014, 36.23079], [-95.24991, 36.23022], [-95.25013, 36.22996], [-95.25051, 36.23024], [-95.25106, 36.23367], [-95.25092, 36.23405], [-95.25032, 36.23428], [-95.24669, 36.23438], [-95.246, 36.2351], [-95.24532, 36.23769], [-95.24525, 36.24234], [-95.2439, 36.24368], [-95.24356, 36.24435], [-95.2434, 36.24915], [-95.23367, 36.24912], [-95.23362, 36.24745], [-95.24143, 36.24748], [-95.2416, 36.24386], [-95.24221, 36.24274], [-95.24323, 36.24176], [-95.24328, 36.23752], [-95.24376, 36.23549], [-95.2405, 36.23766], [-95.23893, 36.23842], [-95.23665, 36.23931], [-95.23341, 36.24016], [-95.23336, 36.23828], [-95.23588, 36.23758], [-95.23915, 36.23618], [-95.24243, 36.23398], [-95.24316, 36.23286], [-95.24343, 36.23295], [-95.24382, 36.2328], [-95.24382, 36.23239], [-95.24334, 36.23166], [-95.24363, 36.23051], [-95.24445, 36.22909], [-95.24465, 36.22771], [-95.24582, 36.22544], [-95.24617, 36.22421], [-95.24654, 36.22449], [-95.24762, 36.22335], [-95.24648, 36.22331], [-95.24657, 36.223], [-95.24797, 36.22299], [-95.2484, 36.22252], [-95.24671, 36.22253], [-95.24679, 36.22226]], [[-95.24933, 36.22228], [-95.24882, 36.22243], [-95.24899, 36.22289], [-95.24937, 36.22277], [-95.24933, 36.22228]], [[-95.24855, 36.22273], [-95.24823, 36.223], [-95.24858, 36.22299], [-95.24855, 36.22273]], [[-95.24633, 36.23196], [-95.24597, 36.23181], [-95.24613, 36.23278], [-95.24715, 36.23262], [-95.24633, 36.23196]]], [[[-95.23882, 36.23089], [-95.2391, 36.22922], [-95.24096, 36.2239], [-95.24324, 36.22386], [-95.24131, 36.22963], [-95.24104, 36.23136], [-95.24045, 36.23234], [-95.23883, 36.23341], [-95.23327, 36.23521], [-95.23322, 36.23329], [-95.23772, 36.23179], [-95.23882, 36.23089]]], [[[-95.24729, 36.22841], [-95.24764, 36.22849], [-95.24733, 36.22919], [-95.24714, 36.22896], [-95.24729, 36.22841]]], [[[-95.24909, 36.2305], [-95.24943, 36.23061], [-95.24936, 36.23096], [-95.24888, 36.2309], [-95.24887, 36.23057], [-95.24909, 36.2305]]], [[[-95.25197, 36.23455], [-95.25181, 36.23692], [-95.25194, 36.24383], [-95.25085, 36.24341], [-95.25047, 36.2436], [-95.25039, 36.24781], [-95.25079, 36.24822], [-95.25193, 36.24825], [-95.25194, 36.2491], [-95.25141, 36.2491], [-95.25174, 36.24885], [-95.2515, 36.24857], [-95.24987, 36.24857], [-95.24984, 36.24815], [-95.24952, 36.24799], [-95.2492, 36.24821], [-95.24921, 36.24908], [-95.24662, 36.24909], [-95.24664, 36.2465], [-95.2442, 36.24642], [-95.24422, 36.24446], [-95.24446, 36.24398], [-95.24559, 36.24291], [-95.24596, 36.24219], [-95.24598, 36.23775], [-95.24662, 36.23528], [-95.24695, 36.23489], [-95.24728, 36.23482], [-95.25039, 36.23482], [-95.25147, 36.23437], [-95.25173, 36.23368], [-95.25128, 36.23084], [-95.25194, 36.23161], [-95.25197, 36.23455]], [[-95.24976, 36.23687], [-95.24979, 36.23648], [-95.24838, 36.23648], [-95.24803, 36.23793], [-95.24798, 36.24252], [-95.24759, 36.24345], [-95.24636, 36.24474], [-95.24751, 36.24497], [-95.24837, 36.24561], [-95.24852, 36.24309], [-95.24908, 36.24233], [-95.24986, 36.2419], [-95.24976, 36.23687]]], [[[-95.25113, 36.24413], [-95.25192, 36.24439], [-95.25193, 36.24771], [-95.25106, 36.24769], [-95.25113, 36.24413]]], [[[-95.24418, 36.24696], [-95.24603, 36.24694], [-95.24596, 36.24911], [-95.24407, 36.24914], [-95.24418, 36.24696]]], [[[-95.24481, 36.24967], [-95.24679, 36.24962], [-95.24644, 36.25676], [-95.24544, 36.25768], [-95.24387, 36.25789], [-95.24298, 36.25829], [-95.23942, 36.25824], [-95.23853, 36.25847], [-95.23785, 36.2593], [-95.23783, 36.26001], [-95.23727, 36.26002], [-95.23779, 36.25802], [-95.23771, 36.25695], [-95.23915, 36.25659], [-95.24244, 36.25663], [-95.24453, 36.25603], [-95.24474, 36.25133], [-95.23373, 36.25132], [-95.23368, 36.24966], [-95.24481, 36.24967]]], [[[-95.25228, 36.24964], [-95.25582, 36.24964], [-95.25577, 36.26359], [-95.24521, 36.26361], [-95.24516, 36.26195], [-95.25374, 36.26193], [-95.25374, 36.25129], [-95.24951, 36.25129], [-95.2493, 36.25631], [-95.24907, 36.25732], [-95.24862, 36.25809], [-95.24697, 36.25951], [-95.24511, 36.25996], [-95.2385, 36.26], [-95.23849, 36.25946], [-95.23887, 36.25895], [-95.23949, 36.25878], [-95.24315, 36.25882], [-95.24409, 36.2584], [-95.24576, 36.25817], [-95.24703, 36.25703], [-95.24725, 36.25629], [-95.24745, 36.2496], [-95.25228, 36.24964]]], [[[-95.25577, 36.26413], [-95.25579, 36.26869], [-95.25374, 36.26873], [-95.25373, 36.2658], [-95.24527, 36.26582], [-95.24523, 36.26415], [-95.25577, 36.26413]]]]}, "properties": {"kind": "pv", "area_km2": 17.45, "mw": 872.5}}, {"type": "Feature", "geometry": {"type": "Point", "coordinates": [-95.26132, 36.23903]}, "properties": {"kind": "turbine", "i": 0, "mw": 6.0, "hub_m": 120.0, "rotor_m": 150.0}}, {"type": "Feature", "geometry": {"type": "Point", "coordinates": [-95.2651, 36.22909]}, "properties": {"kind": "turbine", "i": 1, "mw": 6.0, "hub_m": 120.0, "rotor_m": 150.0}}, {"type": "Feature", "geometry": {"type": "Point", "coordinates": [-95.29419, 36.25157]}, "properties": {"kind": "turbine", "i": 2, "mw": 6.0, "hub_m": 120.0, "rotor_m": 150.0}}, {"type": "Feature", "geometry": {"type": "Point", "coordinates": [-95.2822, 36.25838]}, "properties": {"kind": "turbine", "i": 3, "mw": 6.0, "hub_m": 120.0, "rotor_m": 150.0}}, {"type": "Feature", "geometry": {"type": "Point", "coordinates": [-95.29768, 36.23176]}, "properties": {"kind": "turbine", "i": 4, "mw": 6.0, "hub_m": 120.0, "rotor_m": 150.0}}, {"type": "Feature", "geometry": {"type": "Point", "coordinates": [-95.26595, 36.25869]}, "properties": {"kind": "turbine", "i": 5, "mw": 6.0, "hub_m": 120.0, "rotor_m": 150.0}}, {"type": "Feature", "geometry": {"type": "Point", "coordinates": [-95.25358, 36.25234]}, "properties": {"kind": "turbine", "i": 6, "mw": 6.0, "hub_m": 120.0, "rotor_m": 150.0}}, {"type": "Feature", "geometry": {"type": "Point", "coordinates": [-95.28917, 36.21875]}, "properties": {"kind": "turbine", "i": 7, "mw": 6.0, "hub_m": 120.0, "rotor_m": 150.0}}, {"type": "Feature", "geometry": {"type": "Point", "coordinates": [-95.25282, 36.22603]}, "properties": {"kind": "turbine", "i": 8, "mw": 6.0, "hub_m": 120.0, "rotor_m": 150.0}}, {"type": "Feature", "geometry": {"type": "Point", "coordinates": [-95.29854, 36.26136]}, "properties": {"kind": "turbine", "i": 9, "mw": 6.0, "hub_m": 120.0, "rotor_m": 150.0}}, {"type": "Feature", "geometry": {"type": "Point", "coordinates": [-95.30145, 36.22181]}, "properties": {"kind": "turbine", "i": 10, "mw": 6.0, "hub_m": 120.0, "rotor_m": 150.0}}, {"type": "Feature", "geometry": {"type": "Point", "coordinates": [-95.27436, 36.2684]}, "properties": {"kind": "turbine", "i": 11, "mw": 6.0, "hub_m": 120.0, "rotor_m": 150.0}}, {"type": "Feature", "geometry": {"type": "Point", "coordinates": [-95.24111, 36.2427]}, "properties": {"kind": "turbine", "i": 12, "mw": 6.0, "hub_m": 120.0, "rotor_m": 150.0}}, {"type": "Feature", "geometry": {"type": "Point", "coordinates": [-95.28665, 36.27146]}, "properties": {"kind": "turbine", "i": 13, "mw": 6.0, "hub_m": 120.0, "rotor_m": 150.0}}, {"type": "Feature", "geometry": {"type": "Point", "coordinates": [-95.31382, 36.22815]}, "properties": {"kind": "turbine", "i": 14, "mw": 6.0, "hub_m": 120.0, "rotor_m": 150.0}}, {"type": "Feature", "geometry": {"type": "Point", "coordinates": [-95.23733, 36.25265]}, "properties": {"kind": "turbine", "i": 15, "mw": 6.0, "hub_m": 120.0, "rotor_m": 150.0}}, {"type": "Feature", "geometry": {"type": "Point", "coordinates": [-95.24055, 36.22297]}, "properties": {"kind": "turbine", "i": 16, "mw": 6.0, "hub_m": 120.0, "rotor_m": 150.0}}, {"type": "Feature", "geometry": {"type": "Point", "coordinates": [-95.24999, 36.26887]}, "properties": {"kind": "turbine", "i": 17, "mw": 6.0, "hub_m": 120.0, "rotor_m": 150.0}}, {"type": "Feature", "geometry": {"type": "Point", "coordinates": [-95.26237, 36.27521]}, "properties": {"kind": "turbine", "i": 18, "mw": 6.0, "hub_m": 120.0, "rotor_m": 150.0}}, {"type": "Feature", "geometry": {"type": "Point", "coordinates": [-95.23271, 36.23299]}, "properties": {"kind": "turbine", "i": 19, "mw": 6.0, "hub_m": 120.0, "rotor_m": 150.0}}, {"type": "Feature", "geometry": {"type": "Point", "coordinates": [-95.30696, 36.27107]}, "properties": {"kind": "turbine", "i": 20, "mw": 6.0, "hub_m": 120.0, "rotor_m": 150.0}}, {"type": "Feature", "geometry": {"type": "Point", "coordinates": [-95.31885, 36.26097]}, "properties": {"kind": "turbine", "i": 21, "mw": 6.0, "hub_m": 120.0, "rotor_m": 150.0}}, {"type": "Feature", "geometry": {"type": "Point", "coordinates": [-95.27474, 36.28156]}, "properties": {"kind": "turbine", "i": 22, "mw": 6.0, "hub_m": 120.0, "rotor_m": 150.0}}, {"type": "Feature", "geometry": {"type": "Point", "coordinates": [-95.30918, 36.20849]}, "properties": {"kind": "turbine", "i": 23, "mw": 6.0, "hub_m": 120.0, "rotor_m": 150.0}}, {"type": "Feature", "geometry": {"type": "Point", "coordinates": [-95.291, 36.28125]}, "properties": {"kind": "turbine", "i": 24, "mw": 6.0, "hub_m": 120.0, "rotor_m": 150.0}}, {"type": "Feature", "geometry": {"type": "Point", "coordinates": [-95.23365, 36.26588]}, "properties": {"kind": "turbine", "i": 25, "mw": 6.0, "hub_m": 120.0, "rotor_m": 150.0}}, {"type": "Feature", "geometry": {"type": "Point", "coordinates": [-95.32145, 36.21155]}, "properties": {"kind": "turbine", "i": 26, "mw": 6.0, "hub_m": 120.0, "rotor_m": 150.0}}, {"type": "Feature", "geometry": {"type": "Point", "coordinates": [-95.24008, 36.20652]}, "properties": {"kind": "turbine", "i": 27, "mw": 6.0, "hub_m": 120.0, "rotor_m": 150.0}}, {"type": "Feature", "geometry": {"type": "Point", "coordinates": [-95.25207, 36.19971]}, "properties": {"kind": "turbine", "i": 28, "mw": 6.0, "hub_m": 120.0, "rotor_m": 150.0}}, {"type": "Feature", "geometry": {"type": "Point", "coordinates": [-95.22081, 36.24308]}, "properties": {"kind": "turbine", "i": 29, "mw": 6.0, "hub_m": 120.0, "rotor_m": 150.0}}, {"type": "Feature", "geometry": {"type": "Point", "coordinates": [-95.32986, 36.22126]}, "properties": {"kind": "turbine", "i": 30, "mw": 6.0, "hub_m": 120.0, "rotor_m": 150.0}}, {"type": "Feature", "geometry": {"type": "Point", "coordinates": [-95.25037, 36.28202]}, "properties": {"kind": "turbine", "i": 31, "mw": 6.0, "hub_m": 120.0, "rotor_m": 150.0}}, {"type": "Feature", "geometry": {"type": "Point", "coordinates": [-95.3232, 36.27076]}, "properties": {"kind": "turbine", "i": 32, "mw": 6.0, "hub_m": 120.0, "rotor_m": 150.0}}, {"type": "Feature", "geometry": {"type": "Point", "coordinates": [-95.23799, 36.27567]}, "properties": {"kind": "turbine", "i": 33, "mw": 6.0, "hub_m": 120.0, "rotor_m": 150.0}}, {"type": "Feature", "geometry": {"type": "Point", "coordinates": [-95.26275, 36.28837]}, "properties": {"kind": "turbine", "i": 34, "mw": 6.0, "hub_m": 120.0, "rotor_m": 150.0}}, {"type": "Feature", "geometry": {"type": "Point", "coordinates": [-95.22809, 36.21332]}, "properties": {"kind": "turbine", "i": 35, "mw": 6.0, "hub_m": 120.0, "rotor_m": 150.0}}, {"type": "Feature", "geometry": {"type": "Point", "coordinates": [-95.22025, 36.22334]}, "properties": {"kind": "turbine", "i": 36, "mw": 6.0, "hub_m": 120.0, "rotor_m": 150.0}}, {"type": "Feature", "geometry": {"type": "Point", "coordinates": [-95.21703, 36.25303]}, "properties": {"kind": "turbine", "i": 37, "mw": 6.0, "hub_m": 120.0, "rotor_m": 150.0}}, {"type": "Feature", "geometry": {"type": "Point", "coordinates": [-95.34263, 36.24076]}, "properties": {"kind": "turbine", "i": 38, "mw": 6.0, "hub_m": 120.0, "rotor_m": 150.0}}, {"type": "Feature", "geometry": {"type": "Point", "coordinates": [-95.2599, 36.18969]}, "properties": {"kind": "turbine", "i": 39, "mw": 6.0, "hub_m": 120.0, "rotor_m": 150.0}}, {"type": "Feature", "geometry": {"type": "Point", "coordinates": [-95.34302, 36.25391]}, "properties": {"kind": "turbine", "i": 40, "mw": 6.0, "hub_m": 120.0, "rotor_m": 150.0}}, {"type": "Feature", "geometry": {"type": "Point", "coordinates": [-95.33353, 36.20802]}, "properties": {"kind": "turbine", "i": 41, "mw": 6.0, "hub_m": 120.0, "rotor_m": 150.0}}, {"type": "Feature", "geometry": {"type": "Point", "coordinates": [-95.3463, 36.22752]}, "properties": {"kind": "turbine", "i": 42, "mw": 6.0, "hub_m": 120.0, "rotor_m": 150.0}}, {"type": "Feature", "geometry": {"type": "Point", "coordinates": [-95.23421, 36.28562]}, "properties": {"kind": "turbine", "i": 43, "mw": 6.0, "hub_m": 120.0, "rotor_m": 150.0}}, {"type": "Feature", "geometry": {"type": "Point", "coordinates": [-95.22772, 36.20017]}, "properties": {"kind": "turbine", "i": 44, "mw": 6.0, "hub_m": 120.0, "rotor_m": 150.0}}, {"type": "Feature", "geometry": {"type": "Point", "coordinates": [-95.21334, 36.26626]}, "properties": {"kind": "turbine", "i": 45, "mw": 6.0, "hub_m": 120.0, "rotor_m": 150.0}}, {"type": "Feature", "geometry": {"type": "Point", "coordinates": [-95.34342, 36.26707]}, "properties": {"kind": "turbine", "i": 46, "mw": 6.0, "hub_m": 120.0, "rotor_m": 150.0}}, {"type": "Feature", "geometry": {"type": "Point", "coordinates": [-95.2996, 36.29754]}, "properties": {"kind": "turbine", "i": 47, "mw": 6.0, "hub_m": 120.0, "rotor_m": 150.0}}, {"type": "Feature", "geometry": {"type": "Point", "coordinates": [-95.20457, 36.24338]}, "properties": {"kind": "turbine", "i": 48, "mw": 6.0, "hub_m": 120.0, "rotor_m": 150.0}}, {"type": "Feature", "geometry": {"type": "Point", "coordinates": [-95.24668, 36.29526]}, "properties": {"kind": "turbine", "i": 49, "mw": 6.0, "hub_m": 120.0, "rotor_m": 150.0}}, {"type": "Feature", "geometry": {"type": "Point", "coordinates": [-95.21768, 36.27605]}, "properties": {"kind": "turbine", "i": 50, "mw": 6.0, "hub_m": 120.0, "rotor_m": 150.0}}, {"type": "Feature", "geometry": {"type": "Point", "coordinates": [-95.21185, 36.21363]}, "properties": {"kind": "turbine", "i": 51, "mw": 6.0, "hub_m": 120.0, "rotor_m": 150.0}}, {"type": "Feature", "geometry": {"type": "Point", "coordinates": [-95.33568, 36.28039]}, "properties": {"kind": "turbine", "i": 52, "mw": 6.0, "hub_m": 120.0, "rotor_m": 150.0}}, {"type": "Feature", "geometry": {"type": "Point", "coordinates": [-95.3459, 36.21436]}, "properties": {"kind": "turbine", "i": 53, "mw": 6.0, "hub_m": 120.0, "rotor_m": 150.0}}, {"type": "Feature", "geometry": {"type": "Point", "coordinates": [-95.26773, 36.17967]}, "properties": {"kind": "turbine", "i": 54, "mw": 6.0, "hub_m": 120.0, "rotor_m": 150.0}}, {"type": "Feature", "geometry": {"type": "Point", "coordinates": [-95.35471, 36.23723]}, "properties": {"kind": "turbine", "i": 55, "mw": 6.0, "hub_m": 120.0, "rotor_m": 150.0}}, {"type": "Feature", "geometry": {"type": "Point", "coordinates": [-95.21563, 36.20368]}, "properties": {"kind": "turbine", "i": 56, "mw": 6.0, "hub_m": 120.0, "rotor_m": 150.0}}, {"type": "Feature", "geometry": {"type": "Point", "coordinates": [-95.27948, 36.30451]}, "properties": {"kind": "turbine", "i": 57, "mw": 6.0, "hub_m": 120.0, "rotor_m": 150.0}}, {"type": "Feature", "geometry": {"type": "Point", "coordinates": [-95.32483, 36.18844]}, "properties": {"kind": "turbine", "i": 58, "mw": 6.0, "hub_m": 120.0, "rotor_m": 150.0}}, {"type": "Feature", "geometry": {"type": "Point", "coordinates": [-95.26322, 36.30482]}, "properties": {"kind": "turbine", "i": 59, "mw": 6.0, "hub_m": 120.0, "rotor_m": 150.0}}, {"type": "Feature", "geometry": {"type": "Point", "coordinates": [-95.19995, 36.22372]}, "properties": {"kind": "turbine", "i": 60, "mw": 6.0, "hub_m": 120.0, "rotor_m": 150.0}}, {"type": "Feature", "geometry": {"type": "Point", "coordinates": [-95.33192, 36.29033]}, "properties": {"kind": "turbine", "i": 61, "mw": 6.0, "hub_m": 120.0, "rotor_m": 150.0}}, {"type": "Feature", "geometry": {"type": "Point", "coordinates": [-95.35907, 36.24702]}, "properties": {"kind": "turbine", "i": 62, "mw": 6.0, "hub_m": 120.0, "rotor_m": 150.0}}, {"type": "Feature", "geometry": {"type": "Point", "coordinates": [-95.23043, 36.29556]}, "properties": {"kind": "turbine", "i": 63, "mw": 6.0, "hub_m": 120.0, "rotor_m": 150.0}}, {"type": "Feature", "geometry": {"type": "Point", "coordinates": [-95.19672, 36.2534]}, "properties": {"kind": "turbine", "i": 64, "mw": 6.0, "hub_m": 120.0, "rotor_m": 150.0}}, {"type": "Feature", "geometry": {"type": "Point", "coordinates": [-95.24339, 36.18013]}, "properties": {"kind": "turbine", "i": 65, "mw": 6.0, "hub_m": 120.0, "rotor_m": 150.0}}, {"type": "Feature", "geometry": {"type": "Point", "coordinates": [-95.35838, 36.22399]}, "properties": {"kind": "turbine", "i": 66, "mw": 6.0, "hub_m": 120.0, "rotor_m": 150.0}}, {"type": "Feature", "geometry": {"type": "Point", "coordinates": [-95.34551, 36.20121]}, "properties": {"kind": "turbine", "i": 67, "mw": 6.0, "hub_m": 120.0, "rotor_m": 150.0}}, {"type": "Feature", "geometry": {"type": "Point", "coordinates": [-95.21389, 36.286]}, "properties": {"kind": "turbine", "i": 68, "mw": 6.0, "hub_m": 120.0, "rotor_m": 150.0}}, {"type": "Feature", "geometry": {"type": "Point", "coordinates": [-95.23131, 36.18364]}, "properties": {"kind": "turbine", "i": 69, "mw": 6.0, "hub_m": 120.0, "rotor_m": 150.0}}]}