{"type": "FeatureCollection", "features": [{"type": "Feature", "geometry": {"type": "MultiPolygon", "coordinates": [[[[2.99657, 50.36839], [2.99977, 50.36716], [3.00193, 50.36717], [3.00424, 50.36785], [3.0048, 50.36664], [3.00836, 50.36704], [3.00895, 50.36567], [3.0062, 50.3643], [3.00141, 50.36026], [2.99626, 50.36866], [2.99657, 50.36839]]], [[[3.00732, 50.36948], [3.00595, 50.36928], [3.00758, 50.36979], [3.00732, 50.36948]]], [[[3.00709, 50.36989], [3.00696, 50.3703], [3.0096, 50.37059], [3.00915, 50.37021], [3.00616, 50.36968], [3.00709, 50.36989]]], [[[3.05224, 50.32494], [3.05263, 50.32471], [3.05273, 50.32449], [3.05202, 50.32477], [3.05224, 50.32494]]], [[[3.03779, 50.40384], [3.03736, 50.40338], [3.03608, 50.40371], [3.03464, 50.40597], [3.03296, 50.40712], [3.031, 50.40766], [3.02893, 50.40776], [3.02885, 50.40994], [3.02944, 50.41097], [3.03076, 50.40986], [3.03304, 50.40906], [3.03584, 50.40684], [3.03744, 50.40502], [3.03779, 50.40384]]], [[[3.05169, 50.45209], [3.05018, 50.45032], [3.04987, 50.44915], [3.04903, 50.45146], [3.05169, 50.45209]]], [[[3.16162, 50.3736], [3.16255, 50.37356], [3.16349, 50.37437], [3.16448, 50.37303], [3.16699, 50.37169], [3.16786, 50.37035], [3.17017, 50.36849], [3.16883, 50.36738], [3.16821, 50.36597], [3.16693, 50.36667], [3.16627, 50.36621], [3.16699, 50.36525], [3.16537, 50.3646], [3.16387, 50.36292], [3.16377, 50.36357], [3.16315, 50.36365], [3.16332, 50.3641], [3.16209, 50.36432], [3.15783, 50.36426], [3.15489, 50.36333], [3.15077, 50.36387], [3.15113, 50.36425], [3.14735, 50.36596], [3.14803, 50.36707], [3.15023, 50.36586], [3.15442, 50.36529], [3.15655, 50.36575], [3.15752, 50.36654], [3.15906, 50.36949], [3.16084, 50.36996], [3.1618, 50.3708], [3.16207, 50.3721], [3.16162, 50.3736]], [[3.16326, 50.36603], [3.16256, 50.36588], [3.16373, 50.36422], [3.16441, 50.3644], [3.16326, 50.36603]], [[3.1629, 50.37198], [3.16225, 50.37131], [3.1622, 50.37117], [3.16349, 50.37171], [3.1629, 50.37198]]], [[[3.14779, 50.36765], [3.14785, 50.36745], [3.14791, 50.36729], [3.14756, 50.36744], [3.14779, 50.36765]]], [[[3.14837, 50.37287], [3.14878, 50.37365], [3.14959, 50.37404], [3.14979, 50.37372], [3.14867, 50.37223], [3.14812, 50.37258], [3.14837, 50.37287]]], [[[3.14833, 50.37117], [3.14822, 50.37093], [3.14808, 50.37113], [3.14896, 50.37201], [3.14833, 50.37117]]], [[[3.14981, 50.37264], [3.149, 50.37212], [3.15107, 50.37451], [3.15257, 50.37366], [3.15045, 50.37327], [3.15074, 50.37309], [3.14981, 50.37264]]], [[[3.04427, 50.32809], [3.04466, 50.32833], [3.0449, 50.32851], [3.04513, 50.32794], [3.04415, 50.32784], [3.04427, 50.32809]]], [[[3.0495, 50.44809], [3.04998, 50.44847], [3.05022, 50.44792], [3.04957, 50.44766], [3.0495, 50.44809]]], [[[3.064, 50.32098], [3.06431, 50.32117], [3.06451, 50.32075], [3.06412, 50.32086], [3.064, 50.32098]]], [[[2.99179, 50.38094], [2.99295, 50.3818], [3.00344, 50.37927], [3.00339, 50.37879], [3.00005, 50.37862], [2.99796, 50.37802], [2.99638, 50.37689], [2.9954, 50.37534], [2.99291, 50.37664], [2.99179, 50.38094]]], [[[3.02266, 50.43306], [3.02249, 50.43297], [3.02281, 50.43342], [3.02285, 50.43323], [3.02266, 50.43306]]], [[[2.99207, 50.40442], [2.99415, 50.40556], [2.99515, 50.4074], [2.99648, 50.40736], [2.99878, 50.40672], [3.00111, 50.40657], [3.00307, 50.40516], [3.00592, 50.40451], [3.00962, 50.4014], [3.01127, 50.40053], [3.01385, 50.40011], [3.0161, 50.40042], [3.0186, 50.39876], [3.01464, 50.39741], [3.01312, 50.39645], [3.01221, 50.39485], [3.01236, 50.39261], [3.01374, 50.39082], [3.01677, 50.38855], [3.01855, 50.38778], [3.02113, 50.38752], [3.0237, 50.38577], [3.02269, 50.38431], [3.02146, 50.38389], [3.0178, 50.38385], [3.0146, 50.38224], [3.01134, 50.38306], [3.00903, 50.38284], [3.0075, 50.38226], [2.99333, 50.38575], [2.99065, 50.38731], [2.99024, 50.39273], [2.99082, 50.40041], [2.99207, 50.40442]], [[2.99519, 50.40445], [2.99893, 50.40227], [2.99899, 50.40229], [2.99528, 50.40458], [2.99519, 50.40445]]], [[[3.00451, 50.35646], [3.00824, 50.35986], [3.01132, 50.36197], [3.01808, 50.35574], [3.01836, 50.35381], [3.0191, 50.35267], [3.01638, 50.35214], [3.0143, 50.3508], [3.0136, 50.34911], [3.01441, 50.34726], [3.01301, 50.34738], [3.01087, 50.34923], [3.00451, 50.35646]]], [[[3.119, 50.45569], [3.11837, 50.45497], [3.11782, 50.45623], [3.11353, 50.45588], [3.11375, 50.45814], [3.11512, 50.45889], [3.119, 50.45569]]], [[[3.11178, 50.33384], [3.11049, 50.33433], [3.11267, 50.33666], [3.11303, 50.33907], [3.11378, 50.33943], [3.1187, 50.33886], [3.12136, 50.33795], [3.12019, 50.32469], [3.11644, 50.32621], [3.11251, 50.32708], [3.11195, 50.32963], [3.11479, 50.32898], [3.11696, 50.32902], [3.11881, 50.32995], [3.11931, 50.33121], [3.11883, 50.3321], [3.11775, 50.33273], [3.1155, 50.33289], [3.11178, 50.33384]]], [[[3.12687, 50.32709], [3.12738, 50.33767], [3.13336, 50.34093], [3.13502, 50.34305], [3.13845, 50.34213], [3.13967, 50.34086], [3.13976, 50.33942], [3.14071, 50.33813], [3.1439, 50.3367], [3.14712, 50.33674], [3.14939, 50.33767], [3.1507, 50.33918], [3.15075, 50.34103], [3.15597, 50.33962], [3.15445, 50.33728], [3.15494, 50.33529], [3.15375, 50.33432], [3.14922, 50.33533], [3.14606, 50.33516], [3.1439, 50.33416], [3.14268, 50.33261], [3.1408, 50.33198], [3.13865, 50.33057], [3.1372, 50.32889], [3.13688, 50.32719], [3.13764, 50.32522], [3.14, 50.32361], [3.13772, 50.32334], [3.13596, 50.32256], [3.13458, 50.32124], [3.13422, 50.31954], [3.1338, 50.31939], [3.13042, 50.32166], [3.12653, 50.32323], [3.12949, 50.32366], [3.13078, 50.32508], [3.13055, 50.32601], [3.12966, 50.32675], [3.12832, 50.32714], [3.12687, 50.32709]]], [[[3.07929, 50.44376], [3.08069, 50.44463], [3.08119, 50.44422], [3.07898, 50.44331], [3.07929, 50.44376]]], [[[3.08693, 50.3398], [3.08761, 50.34001], [3.08784, 50.33978], [3.08731, 50.33956], [3.08693, 50.3398]]], [[[3.08717, 50.33236], [3.0895, 50.33281], [3.09207, 50.33129], [3.09029, 50.33013], [3.08932, 50.32887], [3.0892, 50.32748], [3.08979, 50.32633], [3.08876, 50.32453], [3.0875, 50.32469], [3.08728, 50.32752], [3.08438, 50.33112], [3.08717, 50.33236]]], [[[3.07495, 50.33652], [3.07485, 50.33835], [3.07678, 50.33993], [3.07887, 50.33935], [3.08455, 50.33584], [3.08103, 50.33433], [3.07823, 50.33549], [3.07466, 50.33539], [3.07495, 50.33652]]], [[[3.10056, 50.33252], [3.10016, 50.33206], [3.09806, 50.33328], [3.09947, 50.3328], [3.10056, 50.33252]]], [[[3.10617, 50.32423], [3.10676, 50.32346], [3.1037, 50.32358], [3.10119, 50.32275], [3.10113, 50.32433], [3.1003, 50.32547], [3.10124, 50.32676], [3.10598, 50.32491], [3.10617, 50.32423]]], [[[3.15565, 50.3246], [3.15814, 50.32759], [3.15836, 50.33183], [3.16012, 50.33327], [3.16109, 50.33318], [3.16126, 50.33111], [3.16087, 50.33082], [3.16036, 50.32582], [3.16278, 50.32584], [3.16322, 50.33017], [3.16638, 50.32932], [3.16746, 50.32762], [3.16893, 50.3265], [3.16889, 50.32606], [3.16765, 50.32543], [3.16485, 50.32542], [3.16279, 50.32474], [3.16237, 50.32482], [3.1627, 50.3255], [3.16048, 50.32483], [3.15916, 50.32411], [3.16042, 50.32377], [3.15887, 50.32262], [3.15565, 50.3246]]], [[[3.16211, 50.32436], [3.16232, 50.32476], [3.16266, 50.32467], [3.16206, 50.32431], [3.16211, 50.32436]]], [[[3.15442, 50.3198], [3.15497, 50.31928], [3.14442, 50.31713], [3.14579, 50.31892], [3.14542, 50.32089], [3.14684, 50.32209], [3.15081, 50.32216], [3.15442, 50.3198]]], [[[3.13685, 50.31607], [3.13762, 50.31634], [3.13828, 50.31615], [3.13693, 50.31593], [3.13685, 50.31607]]], [[[3.14887, 50.45185], [3.14872, 50.45135], [3.14813, 50.45123], [3.14933, 50.45337], [3.14887, 50.45185]]], [[[3.14663, 50.38253], [3.14668, 50.38184], [3.14587, 50.38194], [3.14608, 50.38262], [3.14663, 50.38253]]], [[[3.14679, 50.38389], [3.14694, 50.38358], [3.146, 50.38367], [3.14526, 50.38499], [3.14599, 50.3865], [3.14679, 50.38389]]], [[[3.12975, 50.44978], [3.12985, 50.4489], [3.12878, 50.44855], [3.12962, 50.4502], [3.12975, 50.44978]]], [[[3.19808, 50.35872], [3.19709, 50.35897], [3.19738, 50.35956], [3.19918, 50.35949], [3.19808, 50.35872]]], [[[3.20929, 50.36421], [3.21131, 50.36477], [3.21223, 50.36456], [3.21149, 50.3635], [3.20898, 50.3638], [3.20929, 50.36421]]], [[[3.20938, 50.37079], [3.20872, 50.37037], [3.20827, 50.36996], [3.20887, 50.37078], [3.20938, 50.37079]]], [[[3.20586, 50.36497], [3.20789, 50.36425], [3.20758, 50.36365], [3.2054, 50.36289], [3.20296, 50.36314], [3.20409, 50.36422], [3.20586, 50.36497]]], [[[3.18549, 50.34592], [3.18545, 50.34761], [3.18378, 50.34869], [3.18408, 50.35019], [3.18311, 50.35048], [3.1827, 50.34905], [3.18269, 50.34905], [3.18239, 50.35053], [3.18029, 50.35164], [3.18389, 50.35226], [3.18732, 50.35446], [3.19017, 50.35306], [3.1869, 50.35192], [3.1879, 50.35151], [3.1897, 50.35175], [3.19121, 50.35254], [3.19327, 50.35096], [3.19117, 50.35037], [3.18948, 50.34921], [3.18799, 50.34541], [3.18549, 50.34592]]], [[[3.17819, 50.352], [3.1781, 50.35198], [3.17803, 50.35202], [3.1782, 50.35205], [3.17819, 50.352]]], [[[3.04554, 50.42848], [3.04554, 50.42841], [3.04522, 50.42818], [3.0451, 50.42844], [3.04554, 50.42848]]], [[[3.14589, 50.38876], [3.14588, 50.38925], [3.1465, 50.38932], [3.14634, 50.38872], [3.14589, 50.38876]]], [[[3.0868, 50.46428], [3.08523, 50.46382], [3.08368, 50.4628], [3.08337, 50.46401], [3.0857, 50.46561], [3.08706, 50.46787], [3.08879, 50.46825], [3.09014, 50.46713], [3.09206, 50.46645], [3.09165, 50.46569], [3.09071, 50.46526], [3.0868, 50.46428]]], [[[3.10758, 50.47082], [3.10922, 50.47087], [3.11168, 50.46913], [3.11148, 50.46728], [3.10583, 50.46497], [3.10598, 50.46583], [3.10777, 50.46753], [3.10832, 50.46745], [3.10758, 50.47082]]], [[[3.13198, 50.46989], [3.13138, 50.46885], [3.12808, 50.46868], [3.12789, 50.46926], [3.12702, 50.46902], [3.12734, 50.46866], [3.12493, 50.46835], [3.12483, 50.4706], [3.13198, 50.46989]]], [[[3.21186, 50.35705], [3.21209, 50.35689], [3.21038, 50.35541], [3.21109, 50.35687], [3.21186, 50.35705]]], [[[3.15726, 50.46389], [3.15873, 50.46422], [3.16099, 50.46383], [3.16315, 50.46396], [3.16574, 50.46318], [3.16501, 50.46265], [3.16339, 50.46239], [3.16066, 50.4638], [3.15726, 50.46389]]], [[[3.15569, 50.46356], [3.15602, 50.46374], [3.15645, 50.4637], [3.15627, 50.46365], [3.15569, 50.46356]]], [[[3.15343, 50.46285], [3.15371, 50.4629], [3.15349, 50.46277], [3.15343, 50.46285]]], [[[3.17896, 50.3343], [3.17955, 50.33317], [3.17892, 50.33314], [3.1782, 50.33609], [3.17902, 50.33579], [3.17896, 50.3343]]]]}, "properties": {"kind": "windland", "area_km2": 11.37}}, {"type": "Feature", "geometry": {"type": "Point", "coordinates": [3.1594, 50.36646]}, "properties": {"kind": "turbine", "i": 0, "mw": 6.0, "hub_m": 120.0, "rotor_m": 150.0}}, {"type": "Feature", "geometry": {"type": "Point", "coordinates": [3.03621, 50.40598]}, "properties": {"kind": "turbine", "i": 1, "mw": 6.0, "hub_m": 120.0, "rotor_m": 150.0}}, {"type": "Feature", "geometry": {"type": "Point", "coordinates": [3.13365, 50.34023]}, "properties": {"kind": "turbine", "i": 2, "mw": 6.0, "hub_m": 120.0, "rotor_m": 150.0}}, {"type": "Feature", "geometry": {"type": "Point", "coordinates": [3.11312, 50.33696]}, "properties": {"kind": "turbine", "i": 3, "mw": 6.0, "hub_m": 120.0, "rotor_m": 150.0}}, {"type": "Feature", "geometry": {"type": "Point", "coordinates": [3.12881, 50.4486]}, "properties": {"kind": "turbine", "i": 4, "mw": 6.0, "hub_m": 120.0, "rotor_m": 150.0}}, {"type": "Feature", "geometry": {"type": "Point", "coordinates": [3.0772, 50.33699]}, "properties": {"kind": "turbine", "i": 5, "mw": 6.0, "hub_m": 120.0, "rotor_m": 150.0}}, {"type": "Feature", "geometry": {"type": "Point", "coordinates": [3.14904, 50.33692]}, "properties": {"kind": "turbine", "i": 6, "mw": 6.0, "hub_m": 120.0, "rotor_m": 150.0}}, {"type": "Feature", "geometry": {"type": "Point", "coordinates": [3.01564, 50.38299]}, "properties": {"kind": "turbine", "i": 7, "mw": 6.0, "hub_m": 120.0, "rotor_m": 150.0}}, {"type": "Feature", "geometry": {"type": "Point", "coordinates": [3.185, 50.35001]}, "properties": {"kind": "turbine", "i": 8, "mw": 6.0, "hub_m": 120.0, "rotor_m": 150.0}}, {"type": "Feature", "geometry": {"type": "Point", "coordinates": [3.13362, 50.33037]}, "properties": {"kind": "turbine", "i": 9, "mw": 6.0, "hub_m": 120.0, "rotor_m": 150.0}}, {"type": "Feature", "geometry": {"type": "Point", "coordinates": [3.11823, 50.32711]}, "properties": {"kind": "turbine", "i": 10, "mw": 6.0, "hub_m": 120.0, "rotor_m": 150.0}}, {"type": "Feature", "geometry": {"type": "Point", "coordinates": [3.20559, 50.36311]}, "properties": {"kind": "turbine", "i": 11, "mw": 6.0, "hub_m": 120.0, "rotor_m": 150.0}}, {"type": "Feature", "geometry": {"type": "Point", "coordinates": [3.08745, 50.32713]}, "properties": {"kind": "turbine", "i": 12, "mw": 6.0, "hub_m": 120.0, "rotor_m": 150.0}}, {"type": "Feature", "geometry": {"type": "Point", "coordinates": [3.00537, 50.39285]}, "properties": {"kind": "turbine", "i": 13, "mw": 6.0, "hub_m": 120.0, "rotor_m": 150.0}}, {"type": "Feature", "geometry": {"type": "Point", "coordinates": [3.10283, 50.32384]}, "properties": {"kind": "turbine", "i": 14, "mw": 6.0, "hub_m": 120.0, "rotor_m": 150.0}}, {"type": "Feature", "geometry": {"type": "Point", "coordinates": [3.00538, 50.4027]}, "properties": {"kind": "turbine", "i": 15, "mw": 6.0, "hub_m": 120.0, "rotor_m": 150.0}}, {"type": "Feature", "geometry": {"type": "Point", "coordinates": [3.05167, 50.45194]}, "properties": {"kind": "turbine", "i": 16, "mw": 6.0, "hub_m": 120.0, "rotor_m": 150.0}}, {"type": "Feature", "geometry": {"type": "Point", "coordinates": [3.0105, 50.36001]}, "properties": {"kind": "turbine", "i": 17, "mw": 6.0, "hub_m": 120.0, "rotor_m": 150.0}}, {"type": "Feature", "geometry": {"type": "Point", "coordinates": [3.1336, 50.32052]}, "properties": {"kind": "turbine", "i": 18, "mw": 6.0, "hub_m": 120.0, "rotor_m": 150.0}}]}