{"type": "FeatureCollection", "features": [{"type": "Feature", "geometry": {"type": "MultiPolygon", "coordinates": [[[[3.16162, 50.3736], [3.16255, 50.37356], [3.16349, 50.37437], [3.16448, 50.37303], [3.16699, 50.37169], [3.16786, 50.37035], [3.17017, 50.36849], [3.16883, 50.36738], [3.16821, 50.36597], [3.16693, 50.36667], [3.16627, 50.36621], [3.16699, 50.36525], [3.16537, 50.3646], [3.16387, 50.36292], [3.16377, 50.36357], [3.16315, 50.36365], [3.16332, 50.3641], [3.16209, 50.36432], [3.15783, 50.36426], [3.15489, 50.36333], [3.15077, 50.36387], [3.15113, 50.36425], [3.14735, 50.36596], [3.14803, 50.36707], [3.15023, 50.36586], [3.15442, 50.36529], [3.15655, 50.36575], [3.15752, 50.36654], [3.15906, 50.36949], [3.16084, 50.36996], [3.1618, 50.3708], [3.16207, 50.3721], [3.16162, 50.3736]], [[3.16326, 50.36603], [3.16256, 50.36588], [3.16373, 50.36422], [3.16441, 50.3644], [3.16326, 50.36603]], [[3.1629, 50.37198], [3.16225, 50.37131], [3.1622, 50.37117], [3.16349, 50.37171], [3.1629, 50.37198]]], [[[3.14779, 50.36765], [3.14785, 50.36745], [3.14791, 50.36729], [3.14756, 50.36744], [3.14779, 50.36765]]], [[[3.14837, 50.37287], [3.14878, 50.37365], [3.14959, 50.37404], [3.14979, 50.37372], [3.14867, 50.37223], [3.14812, 50.37258], [3.14837, 50.37287]]], [[[3.14833, 50.37117], [3.14822, 50.37093], [3.14808, 50.37113], [3.14896, 50.37201], [3.14833, 50.37117]]], [[[3.14981, 50.37264], [3.149, 50.37212], [3.15107, 50.37451], [3.15257, 50.37366], [3.15045, 50.37327], [3.15074, 50.37309], [3.14981, 50.37264]]], [[[3.14663, 50.38253], [3.14668, 50.38184], [3.14587, 50.38194], [3.14608, 50.38262], [3.14663, 50.38253]]], [[[3.14679, 50.38389], [3.14694, 50.38358], [3.146, 50.38367], [3.14526, 50.38499], [3.14599, 50.3865], [3.14679, 50.38389]]], [[[3.14589, 50.38876], [3.14588, 50.38925], [3.1465, 50.38932], [3.14634, 50.38872], [3.14589, 50.38876]]]]}, "properties": {"kind": "windland", "area_km2": 0.75}}, {"type": "Feature", "geometry": {"type": "Point", "coordinates": [3.1594, 50.36646]}, "properties": {"kind": "turbine", "i": 0, "mw": 6.0, "hub_m": 120.0, "rotor_m": 150.0}}]}