{"type": "FeatureCollection", "features": [{"type": "Feature", "geometry": {"type": "MultiPolygon", "coordinates": [[[[2.97662, 50.42431], [2.97695, 50.42499], [2.97719, 50.42497], [2.97651, 50.42405], [2.97672, 50.42362], [2.97784, 50.42273], [2.97945, 50.42246], [2.97793, 50.42308], [2.97731, 50.42379], [2.97823, 50.42514], [2.97941, 50.42492], [2.98047, 50.42204], [2.97685, 50.42144], [2.97535, 50.42213], [2.97591, 50.42223], [2.97565, 50.42266], [2.97603, 50.4225], [2.97591, 50.42312], [2.97662, 50.42431]], [[2.97636, 50.42257], [2.9761, 50.42249], [2.97677, 50.42218], [2.97675, 50.4224], [2.97636, 50.42257]], [[2.97657, 50.42255], [2.97689, 50.42243], [2.97695, 50.42244], [2.97636, 50.42271], [2.97657, 50.42255]]], [[[2.97766, 50.4257], [2.97786, 50.42561], [2.97718, 50.42507], [2.97725, 50.42552], [2.97766, 50.4257]]], [[[2.97788, 50.42533], [2.97843, 50.42535], [2.97764, 50.42489], [2.97749, 50.42493], [2.97788, 50.42533]]], [[[2.98466, 50.34936], [2.98627, 50.35046], [2.98702, 50.35211], [2.98639, 50.3543], [2.98453, 50.3562], [2.98581, 50.35792], [2.98575, 50.35934], [2.98465, 50.36077], [2.98564, 50.36168], [2.98809, 50.35697], [2.99138, 50.35335], [2.99107, 50.35264], [2.99135, 50.35238], [2.99321, 50.3526], [2.98855, 50.3568], [2.98596, 50.36187], [2.98794, 50.36389], [2.99099, 50.36422], [2.99335, 50.36559], [2.99411, 50.36723], [2.99343, 50.36915], [2.99569, 50.36938], [2.99734, 50.3679], [2.99977, 50.36716], [3.00193, 50.36717], [3.00424, 50.36785], [3.0048, 50.36664], [3.00836, 50.36704], [3.00895, 50.36567], [3.00422, 50.36285], [3.00117, 50.36003], [2.9946, 50.35512], [2.99367, 50.35367], [2.99341, 50.35175], [2.99002, 50.35126], [2.98773, 50.34977], [2.98728, 50.34736], [2.99035, 50.34391], [2.98971, 50.34386], [2.98701, 50.34675], [2.9864, 50.34835], [2.98577, 50.34806], [2.98466, 50.34936]]], [[[2.99111, 50.34353], [2.99289, 50.34303], [2.99502, 50.34297], [2.99703, 50.34344], [2.99884, 50.34442], [3.00144, 50.34305], [3.00545, 50.34277], [3.00078, 50.34152], [2.9956, 50.33828], [2.99008, 50.34347], [2.99111, 50.34353]]], [[[3.03706, 50.31753], [3.03967, 50.31787], [3.04202, 50.31913], [3.04372, 50.31743], [3.04437, 50.31764], [3.0426, 50.31939], [3.04219, 50.3193], [3.04292, 50.3206], [3.04331, 50.31886], [3.04479, 50.31746], [3.04601, 50.31699], [3.04791, 50.31686], [3.05054, 50.31775], [3.0505, 50.31606], [3.04752, 50.31579], [3.04273, 50.31442], [3.04022, 50.31254], [3.03972, 50.31418], [3.03848, 50.31534], [3.03669, 50.31608], [3.03468, 50.31633], [3.03546, 50.31751], [3.03706, 50.31753]]], [[[3.03091, 50.32008], [3.03068, 50.32047], [3.03196, 50.32069], [3.03294, 50.31883], [3.03102, 50.31912], [3.03091, 50.32008]]], [[[3.00732, 50.36948], [3.00595, 50.36928], [3.00758, 50.36979], [3.00732, 50.36948]]], [[[3.00709, 50.36989], [3.00696, 50.3703], [3.0096, 50.37059], [3.00915, 50.37021], [3.00616, 50.36968], [3.00709, 50.36989]]], [[[3.0394, 50.47249], [3.03955, 50.472], [3.03889, 50.47171], [3.03805, 50.47198], [3.0357, 50.47006], [3.03483, 50.47053], [3.03508, 50.47089], [3.0394, 50.47249]]], [[[3.04753, 50.32213], [3.04824, 50.32288], [3.04891, 50.32249], [3.05224, 50.32494], [3.05428, 50.3225], [3.0512, 50.31995], [3.04959, 50.32136], [3.04753, 50.32213]]], [[[3.03779, 50.40384], [3.03736, 50.40338], [3.03608, 50.40371], [3.03464, 50.40597], [3.03296, 50.40712], [3.031, 50.40766], [3.02893, 50.40776], [3.02885, 50.40994], [3.02944, 50.41097], [3.03076, 50.40986], [3.03304, 50.40906], [3.03584, 50.40684], [3.03744, 50.40502], [3.03779, 50.40384]]], [[[3.05169, 50.45209], [3.05018, 50.45032], [3.04987, 50.44915], [3.04903, 50.45146], [3.05169, 50.45209]]], [[[3.07753, 50.4824], [3.07742, 50.48237], [3.07688, 50.48224], [3.07686, 50.48238], [3.07753, 50.4824]]], [[[3.07666, 50.48219], [3.07651, 50.48214], [3.07644, 50.48231], [3.07664, 50.48235], [3.07666, 50.48219]]], [[[3.08585, 50.30167], [3.08531, 50.30273], [3.08716, 50.30328], [3.09468, 50.30393], [3.09483, 50.30334], [3.09327, 50.30221], [3.09376, 50.30213], [3.09502, 50.30298], [3.09589, 50.30162], [3.09514, 50.30075], [3.08585, 50.30167]]], [[[3.08215, 50.30668], [3.0821, 50.30602], [3.0798, 50.30526], [3.07822, 50.30551], [3.07689, 50.30668], [3.07443, 50.30749], [3.07222, 50.30753], [3.07018, 50.30701], [3.07012, 50.30871], [3.06889, 50.31016], [3.06876, 50.31234], [3.0714, 50.31549], [3.07224, 50.31753], [3.07356, 50.31718], [3.07377, 50.31577], [3.07508, 50.31355], [3.07772, 50.31196], [3.07839, 50.30976], [3.07987, 50.30846], [3.08161, 50.30761], [3.08215, 50.30668]]], [[[3.16162, 50.3736], [3.16255, 50.37356], [3.16349, 50.37437], [3.16448, 50.37303], [3.16699, 50.37169], [3.16786, 50.37035], [3.17017, 50.36849], [3.16883, 50.36738], [3.16821, 50.36597], [3.16693, 50.36667], [3.16627, 50.36621], [3.16699, 50.36525], [3.16537, 50.3646], [3.16387, 50.36292], [3.16377, 50.36357], [3.16315, 50.36365], [3.16332, 50.3641], [3.16209, 50.36432], [3.15783, 50.36426], [3.15489, 50.36333], [3.15077, 50.36387], [3.15113, 50.36425], [3.14735, 50.36596], [3.14803, 50.36707], [3.15023, 50.36586], [3.15442, 50.36529], [3.15655, 50.36575], [3.15752, 50.36654], [3.15906, 50.36949], [3.16084, 50.36996], [3.1618, 50.3708], [3.16207, 50.3721], [3.16162, 50.3736]], [[3.16326, 50.36603], [3.16256, 50.36588], [3.16373, 50.36422], [3.16441, 50.3644], [3.16326, 50.36603]], [[3.1629, 50.37198], [3.16225, 50.37131], [3.1622, 50.37117], [3.16349, 50.37171], [3.1629, 50.37198]]], [[[3.14779, 50.36765], [3.14785, 50.36745], [3.14791, 50.36729], [3.14756, 50.36744], [3.14779, 50.36765]]], [[[3.14837, 50.37287], [3.14878, 50.37365], [3.14959, 50.37404], [3.14979, 50.37372], [3.14867, 50.37223], [3.14812, 50.37258], [3.14837, 50.37287]]], [[[3.14833, 50.37117], [3.14822, 50.37093], [3.14808, 50.37113], [3.14896, 50.37201], [3.14833, 50.37117]]], [[[3.14981, 50.37264], [3.149, 50.37212], [3.15107, 50.37451], [3.15257, 50.37366], [3.15045, 50.37327], [3.15074, 50.37309], [3.14981, 50.37264]]], [[[3.04384, 50.32789], [3.04427, 50.32809], [3.0449, 50.32851], [3.04513, 50.32794], [3.04324, 50.32766], [3.04384, 50.32789]]], [[[3.03951, 50.32687], [3.04079, 50.32697], [3.04063, 50.32587], [3.03882, 50.32674], [3.03639, 50.32725], [3.03648, 50.32746], [3.03951, 50.32687]]], [[[3.0356, 50.32703], [3.03581, 50.32727], [3.03593, 50.32735], [3.03587, 50.32705], [3.0356, 50.32703]]], [[[3.04136, 50.32526], [3.04113, 50.32544], [3.04134, 50.32613], [3.04132, 50.32531], [3.04236, 50.32499], [3.04236, 50.32456], [3.04136, 50.32526]]], [[[3.04248, 50.32405], [3.04267, 50.32401], [3.04256, 50.32391], [3.04248, 50.32405]]], [[[3.0495, 50.44809], [3.04998, 50.44847], [3.05022, 50.44792], [3.04957, 50.44766], [3.0495, 50.44809]]], [[[3.06644, 50.31861], [3.06526, 50.31626], [3.06541, 50.31859], [3.064, 50.32098], [3.06431, 50.32117], [3.06528, 50.31983], [3.06666, 50.319], [3.06644, 50.31861]]], [[[2.98007, 50.3792], [2.9821, 50.38205], [2.98294, 50.38204], [2.98516, 50.38065], [2.98725, 50.3802], [2.99042, 50.38041], [2.99295, 50.3818], [3.00344, 50.37927], [3.00332, 50.37876], [3.00005, 50.37862], [2.99796, 50.37802], [2.99638, 50.37689], [2.9954, 50.37534], [2.99192, 50.37703], [2.98974, 50.37876], [2.9873, 50.3793], [2.98517, 50.37917], [2.98325, 50.37853], [2.98184, 50.37746], [2.98127, 50.37507], [2.97949, 50.3756], [2.97922, 50.37629], [2.97907, 50.37795], [2.98007, 50.3792]]], [[[2.96948, 50.37982], [2.97106, 50.37951], [2.97151, 50.37896], [2.97005, 50.37669], [2.96948, 50.37982]]], [[[3.00738, 50.43866], [3.00659, 50.43721], [3.00497, 50.43751], [3.00853, 50.43937], [3.01, 50.4395], [3.00738, 50.43866]]], [[[3.02266, 50.43306], [3.02249, 50.43297], [3.02281, 50.43342], [3.02285, 50.43323], [3.02266, 50.43306]]], [[[2.9863, 50.39974], [2.98725, 50.40424], [2.99001, 50.40405], [2.99254, 50.40459], [2.99444, 50.40586], [2.99515, 50.4074], [3.00111, 50.40657], [3.00307, 50.40516], [3.00592, 50.40451], [3.01081, 50.40071], [3.01331, 50.40013], [3.0161, 50.40042], [3.0186, 50.39876], [3.01464, 50.39741], [3.01312, 50.39645], [3.01229, 50.39519], [3.01223, 50.39295], [3.01374, 50.39082], [3.01677, 50.38855], [3.01855, 50.38778], [3.02168, 50.38727], [3.0237, 50.38577], [3.02354, 50.38507], [3.02146, 50.38389], [3.01932, 50.38407], [3.01732, 50.38372], [3.0146, 50.38224], [3.01134, 50.38306], [3.00903, 50.38284], [3.0075, 50.38226], [2.99333, 50.38575], [2.99058, 50.38733], [2.98708, 50.38765], [2.98486, 50.3888], [2.98536, 50.39217], [2.98687, 50.39367], [2.98741, 50.395], [2.98708, 50.39642], [2.98603, 50.39757], [2.9863, 50.39974]], [[2.99519, 50.40445], [2.99893, 50.40227], [2.99899, 50.40229], [2.99528, 50.40458], [2.99519, 50.40445]]], [[[3.00609, 50.34966], [3.00044, 50.35156], [2.99948, 50.35204], [2.99947, 50.35258], [3.01132, 50.36197], [3.01808, 50.35574], [3.01836, 50.35381], [3.0191, 50.35267], [3.01638, 50.35214], [3.0143, 50.3508], [3.0136, 50.34911], [3.01441, 50.34726], [3.01156, 50.34728], [3.00609, 50.34966]]], [[[3.01074, 50.32809], [3.01315, 50.32914], [3.01543, 50.32683], [3.01895, 50.32593], [3.0196, 50.32222], [3.0192, 50.32196], [3.00937, 50.32776], [3.01074, 50.32809]]], [[[3.23369, 50.36224], [3.23086, 50.36401], [3.22978, 50.36614], [3.2301, 50.36637], [3.23251, 50.36671], [3.23283, 50.36618], [3.23187, 50.36594], [3.23236, 50.3649], [3.23585, 50.36486], [3.23594, 50.36262], [3.23369, 50.36224]]], [[[3.22791, 50.35523], [3.22751, 50.35502], [3.22746, 50.35499], [3.22747, 50.3553], [3.22791, 50.35523]]], [[[3.23925, 50.3499], [3.23874, 50.34977], [3.23874, 50.34979], [3.23925, 50.3499]]], [[[3.23003, 50.34705], [3.22844, 50.34785], [3.22679, 50.34826], [3.22798, 50.34894], [3.23003, 50.34705]]], [[[3.119, 50.45569], [3.11837, 50.45497], [3.11782, 50.45623], [3.11353, 50.45588], [3.11375, 50.45814], [3.11512, 50.45889], [3.119, 50.45569]]], [[[3.11178, 50.33384], [3.11049, 50.33433], [3.11267, 50.33666], [3.11303, 50.33907], [3.11378, 50.33943], [3.1187, 50.33886], [3.12136, 50.33795], [3.12019, 50.32469], [3.11644, 50.32621], [3.11251, 50.32708], [3.11195, 50.32963], [3.11479, 50.32898], [3.11696, 50.32902], [3.11881, 50.32995], [3.11931, 50.33121], [3.11883, 50.3321], [3.11775, 50.33273], [3.1155, 50.33289], [3.11178, 50.33384]]], [[[3.12687, 50.32709], [3.12738, 50.33767], [3.13336, 50.34093], [3.13502, 50.34305], [3.13845, 50.34213], [3.13967, 50.34086], [3.13976, 50.33942], [3.14071, 50.33813], [3.1439, 50.3367], [3.14712, 50.33674], [3.14939, 50.33767], [3.1507, 50.33918], [3.15075, 50.34103], [3.15597, 50.33962], [3.15445, 50.33728], [3.15494, 50.33529], [3.15375, 50.33432], [3.14922, 50.33533], [3.14606, 50.33516], [3.1439, 50.33416], [3.14268, 50.33261], [3.1408, 50.33198], [3.13865, 50.33057], [3.1372, 50.32889], [3.13688, 50.32719], [3.13764, 50.32522], [3.14, 50.32361], [3.13772, 50.32334], [3.13596, 50.32256], [3.13458, 50.32124], [3.13422, 50.31954], [3.1338, 50.31939], [3.13042, 50.32166], [3.12653, 50.32323], [3.12949, 50.32366], [3.13078, 50.32508], [3.13055, 50.32601], [3.12966, 50.32675], [3.12832, 50.32714], [3.12687, 50.32709]]], [[[3.0799, 50.47879], [3.07987, 50.47877], [3.07951, 50.47875], [3.08007, 50.4789], [3.0799, 50.47879]]], [[[3.07929, 50.44376], [3.08069, 50.44463], [3.08119, 50.44422], [3.07898, 50.44331], [3.07929, 50.44376]]], [[[3.08693, 50.3398], [3.08761, 50.34001], [3.08784, 50.33978], [3.08731, 50.33956], [3.08693, 50.3398]]], [[[3.08717, 50.33236], [3.0895, 50.33281], [3.09207, 50.33129], [3.09029, 50.33013], [3.08932, 50.32887], [3.0892, 50.32748], [3.08979, 50.32633], [3.08876, 50.32453], [3.0875, 50.32469], [3.08728, 50.32752], [3.08438, 50.33112], [3.08717, 50.33236]]], [[[3.07495, 50.33652], [3.07485, 50.33835], [3.07678, 50.33993], [3.07887, 50.33935], [3.08455, 50.33584], [3.08103, 50.33433], [3.07823, 50.33549], [3.07466, 50.33539], [3.07495, 50.33652]]], [[[3.10056, 50.33252], [3.10016, 50.33206], [3.09806, 50.33328], [3.09947, 50.3328], [3.10056, 50.33252]]], [[[3.10617, 50.32423], [3.10676, 50.32346], [3.1037, 50.32358], [3.10119, 50.32275], [3.10113, 50.32433], [3.1003, 50.32547], [3.10124, 50.32676], [3.10598, 50.32491], [3.10617, 50.32423]]], [[[3.15565, 50.3246], [3.15814, 50.32759], [3.15836, 50.33183], [3.16012, 50.33327], [3.16109, 50.33318], [3.16126, 50.33111], [3.16087, 50.33082], [3.16036, 50.32582], [3.16278, 50.32584], [3.16322, 50.33017], [3.16638, 50.32932], [3.16746, 50.32762], [3.16893, 50.3265], [3.16889, 50.32606], [3.16765, 50.32543], [3.16485, 50.32542], [3.16279, 50.32474], [3.16237, 50.32482], [3.1627, 50.3255], [3.16048, 50.32483], [3.15916, 50.32411], [3.16042, 50.32377], [3.15887, 50.32262], [3.15565, 50.3246]]], [[[3.16211, 50.32436], [3.16232, 50.32476], [3.16266, 50.32467], [3.16206, 50.32431], [3.16211, 50.32436]]], [[[3.17766, 50.31003], [3.17744, 50.31232], [3.17589, 50.31371], [3.17395, 50.31439], [3.1742, 50.31535], [3.17613, 50.31576], [3.17774, 50.31663], [3.18252, 50.3167], [3.18398, 50.31372], [3.18528, 50.31257], [3.17766, 50.31003]]], [[[3.15442, 50.3198], [3.15507, 50.31951], [3.15489, 50.31827], [3.15549, 50.31696], [3.15515, 50.31453], [3.15462, 50.31456], [3.15421, 50.31293], [3.15469, 50.31236], [3.15748, 50.31207], [3.15748, 50.31243], [3.16049, 50.31185], [3.16073, 50.31143], [3.15854, 50.31053], [3.15879, 50.30977], [3.15976, 50.3091], [3.16128, 50.3088], [3.16247, 50.30897], [3.16072, 50.30904], [3.1617, 50.31047], [3.16599, 50.30882], [3.16879, 50.30724], [3.16156, 50.30553], [3.1616, 50.30576], [3.15974, 50.30609], [3.1596, 50.30702], [3.15648, 50.30884], [3.15491, 50.30895], [3.155, 50.3096], [3.15445, 50.30969], [3.15433, 50.30892], [3.15169, 50.30823], [3.15083, 50.30631], [3.15216, 50.30626], [3.15314, 50.30552], [3.15385, 50.30382], [3.14171, 50.30189], [3.14077, 50.30221], [3.13793, 50.30448], [3.13807, 50.30504], [3.14396, 50.30601], [3.14509, 50.30687], [3.14528, 50.30798], [3.14426, 50.3091], [3.14238, 50.30956], [3.14099, 50.31135], [3.13896, 50.31223], [3.13685, 50.31607], [3.13762, 50.31634], [3.14096, 50.31596], [3.14405, 50.31689], [3.14568, 50.31859], [3.14542, 50.32089], [3.14684, 50.32209], [3.15081, 50.32216], [3.15442, 50.3198]], [[3.15683, 50.31069], [3.15563, 50.31067], [3.15546, 50.30959], [3.15655, 50.30955], [3.15683, 50.31069]]], [[[3.13329, 50.30179], [3.13423, 50.30112], [3.12742, 50.30048], [3.12621, 50.30159], [3.12773, 50.3028], [3.13019, 50.30188], [3.13329, 50.30179]]], [[[3.14887, 50.45185], [3.14872, 50.45135], [3.14813, 50.45123], [3.14933, 50.45337], [3.14887, 50.45185]]], [[[3.14663, 50.38253], [3.14668, 50.38184], [3.14587, 50.38194], [3.14608, 50.38262], [3.14663, 50.38253]]], [[[3.14679, 50.38389], [3.14694, 50.38358], [3.146, 50.38367], [3.14526, 50.38499], [3.14599, 50.3865], [3.14679, 50.38389]]], [[[3.12975, 50.44978], [3.12985, 50.4489], [3.12878, 50.44855], [3.12962, 50.4502], [3.12975, 50.44978]]], [[[3.19808, 50.35872], [3.19709, 50.35897], [3.19738, 50.35956], [3.19918, 50.35949], [3.19808, 50.35872]]], [[[3.20929, 50.36421], [3.21131, 50.36477], [3.21223, 50.36456], [3.21149, 50.3635], [3.20898, 50.3638], [3.20929, 50.36421]]], [[[3.20938, 50.37079], [3.20872, 50.37037], [3.20827, 50.36996], [3.20887, 50.37078], [3.20938, 50.37079]]], [[[3.20586, 50.36497], [3.20789, 50.36425], [3.20758, 50.36365], [3.2054, 50.36289], [3.20296, 50.36314], [3.20409, 50.36422], [3.20586, 50.36497]]], [[[3.18549, 50.34592], [3.18545, 50.34761], [3.18378, 50.34869], [3.18408, 50.35019], [3.18311, 50.35048], [3.1827, 50.34905], [3.18269, 50.34905], [3.18239, 50.35053], [3.18029, 50.35164], [3.18389, 50.35226], [3.18732, 50.35446], [3.19017, 50.35306], [3.1869, 50.35192], [3.1879, 50.35151], [3.1897, 50.35175], [3.19121, 50.35254], [3.19327, 50.35096], [3.19117, 50.35037], [3.18948, 50.34921], [3.18799, 50.34541], [3.18549, 50.34592]]], [[[3.17819, 50.352], [3.1781, 50.35198], [3.17803, 50.35202], [3.1782, 50.35205], [3.17819, 50.352]]], [[[3.19757, 50.32893], [3.19769, 50.32978], [3.19958, 50.33064], [3.20087, 50.33177], [3.20063, 50.32951], [3.20192, 50.32763], [3.19859, 50.32658], [3.19757, 50.32893]]], [[[3.21211, 50.32576], [3.20958, 50.32693], [3.21155, 50.32906], [3.21119, 50.33155], [3.21269, 50.33171], [3.21371, 50.33138], [3.21329, 50.32896], [3.21479, 50.32689], [3.21211, 50.32576]]], [[[3.04554, 50.42848], [3.04554, 50.42841], [3.04522, 50.42818], [3.0451, 50.42844], [3.04554, 50.42848]]], [[[3.2514, 50.36727], [3.25127, 50.36733], [3.25219, 50.36768], [3.25195, 50.36708], [3.2514, 50.36727]]], [[[3.14666, 50.47212], [3.14605, 50.47215], [3.14488, 50.47428], [3.14645, 50.47431], [3.14709, 50.47361], [3.14798, 50.47227], [3.14666, 50.47212]]], [[[3.14589, 50.38876], [3.14588, 50.38925], [3.1465, 50.38932], [3.14634, 50.38872], [3.14589, 50.38876]]], [[[3.0868, 50.46428], [3.08523, 50.46382], [3.08368, 50.4628], [3.08337, 50.46401], [3.0857, 50.46561], [3.08706, 50.46787], [3.08879, 50.46825], [3.09014, 50.46713], [3.09206, 50.46645], [3.09165, 50.46569], [3.09071, 50.46526], [3.0868, 50.46428]]], [[[3.1076, 50.47091], [3.10872, 50.4717], [3.10996, 50.47013], [3.11168, 50.46913], [3.11148, 50.46728], [3.10583, 50.46497], [3.10598, 50.46583], [3.10777, 50.46753], [3.10832, 50.46745], [3.1076, 50.47091]]], [[[3.12505, 50.47472], [3.12768, 50.47536], [3.12963, 50.47647], [3.13053, 50.47637], [3.13133, 50.47566], [3.13153, 50.47473], [3.13086, 50.47518], [3.12936, 50.47436], [3.13069, 50.47319], [3.13195, 50.47406], [3.1336, 50.47281], [3.13451, 50.47143], [3.13259, 50.47046], [3.13138, 50.46885], [3.12808, 50.46868], [3.12789, 50.46926], [3.12702, 50.46902], [3.12734, 50.46866], [3.12493, 50.46835], [3.12505, 50.47472]]], [[[3.11229, 50.30541], [3.11227, 50.30521], [3.11198, 50.30547], [3.11231, 50.30555], [3.11229, 50.30541]]], [[[3.21186, 50.35705], [3.21209, 50.35689], [3.21038, 50.35541], [3.21109, 50.35687], [3.21186, 50.35705]]], [[[3.15726, 50.46389], [3.15873, 50.46422], [3.16099, 50.46383], [3.16336, 50.46401], [3.16679, 50.46366], [3.16501, 50.46265], [3.16339, 50.46239], [3.16066, 50.4638], [3.15726, 50.46389]]], [[[3.15569, 50.46356], [3.15602, 50.46374], [3.15645, 50.4637], [3.15627, 50.46365], [3.15569, 50.46356]]], [[[3.15343, 50.46285], [3.15371, 50.4629], [3.15349, 50.46277], [3.15343, 50.46285]]], [[[3.17896, 50.3343], [3.17955, 50.33317], [3.17892, 50.33314], [3.1782, 50.33609], [3.17902, 50.33579], [3.17896, 50.3343]]]]}, "properties": {"kind": "windland", "area_km2": 18.69}}, {"type": "Feature", "geometry": {"type": "Point", "coordinates": [3.1594, 50.36646]}, "properties": {"kind": "turbine", "i": 0, "mw": 6.0, "hub_m": 120.0, "rotor_m": 150.0}}, {"type": "Feature", "geometry": {"type": "Point", "coordinates": [3.03621, 50.40598]}, "properties": {"kind": "turbine", "i": 1, "mw": 6.0, "hub_m": 120.0, "rotor_m": 150.0}}, {"type": "Feature", "geometry": {"type": "Point", "coordinates": [3.13365, 50.34023]}, "properties": {"kind": "turbine", "i": 2, "mw": 6.0, "hub_m": 120.0, "rotor_m": 150.0}}, {"type": "Feature", "geometry": {"type": "Point", "coordinates": [3.11312, 50.33696]}, "properties": {"kind": "turbine", "i": 3, "mw": 6.0, "hub_m": 120.0, "rotor_m": 150.0}}, {"type": "Feature", "geometry": {"type": "Point", "coordinates": [3.12881, 50.4486]}, "properties": {"kind": "turbine", "i": 4, "mw": 6.0, "hub_m": 120.0, "rotor_m": 150.0}}, {"type": "Feature", "geometry": {"type": "Point", "coordinates": [3.0772, 50.33699]}, "properties": {"kind": "turbine", "i": 5, "mw": 6.0, "hub_m": 120.0, "rotor_m": 150.0}}, {"type": "Feature", "geometry": {"type": "Point", "coordinates": [3.14904, 50.33692]}, "properties": {"kind": "turbine", "i": 6, "mw": 6.0, "hub_m": 120.0, "rotor_m": 150.0}}, {"type": "Feature", "geometry": {"type": "Point", "coordinates": [3.01564, 50.38299]}, "properties": {"kind": "turbine", "i": 7, "mw": 6.0, "hub_m": 120.0, "rotor_m": 150.0}}, {"type": "Feature", "geometry": {"type": "Point", "coordinates": [3.185, 50.35001]}, "properties": {"kind": "turbine", "i": 8, "mw": 6.0, "hub_m": 120.0, "rotor_m": 150.0}}, {"type": "Feature", "geometry": {"type": "Point", "coordinates": [3.13362, 50.33037]}, "properties": {"kind": "turbine", "i": 9, "mw": 6.0, "hub_m": 120.0, "rotor_m": 150.0}}, {"type": "Feature", "geometry": {"type": "Point", "coordinates": [3.11823, 50.32711]}, "properties": {"kind": "turbine", "i": 10, "mw": 6.0, "hub_m": 120.0, "rotor_m": 150.0}}, {"type": "Feature", "geometry": {"type": "Point", "coordinates": [3.20559, 50.36311]}, "properties": {"kind": "turbine", "i": 11, "mw": 6.0, "hub_m": 120.0, "rotor_m": 150.0}}, {"type": "Feature", "geometry": {"type": "Point", "coordinates": [3.08745, 50.32713]}, "properties": {"kind": "turbine", "i": 12, "mw": 6.0, "hub_m": 120.0, "rotor_m": 150.0}}, {"type": "Feature", "geometry": {"type": "Point", "coordinates": [3.00537, 50.39285]}, "properties": {"kind": "turbine", "i": 13, "mw": 6.0, "hub_m": 120.0, "rotor_m": 150.0}}, {"type": "Feature", "geometry": {"type": "Point", "coordinates": [3.10283, 50.32384]}, "properties": {"kind": "turbine", "i": 14, "mw": 6.0, "hub_m": 120.0, "rotor_m": 150.0}}, {"type": "Feature", "geometry": {"type": "Point", "coordinates": [3.00538, 50.4027]}, "properties": {"kind": "turbine", "i": 15, "mw": 6.0, "hub_m": 120.0, "rotor_m": 150.0}}, {"type": "Feature", "geometry": {"type": "Point", "coordinates": [3.05167, 50.45194]}, "properties": {"kind": "turbine", "i": 16, "mw": 6.0, "hub_m": 120.0, "rotor_m": 150.0}}, {"type": "Feature", "geometry": {"type": "Point", "coordinates": [3.0105, 50.36001]}, "properties": {"kind": "turbine", "i": 17, "mw": 6.0, "hub_m": 120.0, "rotor_m": 150.0}}, {"type": "Feature", "geometry": {"type": "Point", "coordinates": [3.1336, 50.32052]}, "properties": {"kind": "turbine", "i": 18, "mw": 6.0, "hub_m": 120.0, "rotor_m": 150.0}}, {"type": "Feature", "geometry": {"type": "Point", "coordinates": [3.0877, 50.46506]}, "properties": {"kind": "turbine", "i": 19, "mw": 6.0, "hub_m": 120.0, "rotor_m": 150.0}}, {"type": "Feature", "geometry": {"type": "Point", "coordinates": [3.15925, 50.32377]}, "properties": {"kind": "turbine", "i": 20, "mw": 6.0, "hub_m": 120.0, "rotor_m": 150.0}}, {"type": "Feature", "geometry": {"type": "Point", "coordinates": [3.10829, 50.46833]}, "properties": {"kind": "turbine", "i": 21, "mw": 6.0, "hub_m": 120.0, "rotor_m": 150.0}}, {"type": "Feature", "geometry": {"type": "Point", "coordinates": [2.9951, 50.37971]}, "properties": {"kind": "turbine", "i": 22, "mw": 6.0, "hub_m": 120.0, "rotor_m": 150.0}}, {"type": "Feature", "geometry": {"type": "Point", "coordinates": [2.98996, 50.38956]}, "properties": {"kind": "turbine", "i": 23, "mw": 6.0, "hub_m": 120.0, "rotor_m": 150.0}}, {"type": "Feature", "geometry": {"type": "Point", "coordinates": [2.98996, 50.39941]}, "properties": {"kind": "turbine", "i": 24, "mw": 6.0, "hub_m": 120.0, "rotor_m": 150.0}}, {"type": "Feature", "geometry": {"type": "Point", "coordinates": [3.05153, 50.32387]}, "properties": {"kind": "turbine", "i": 25, "mw": 6.0, "hub_m": 120.0, "rotor_m": 150.0}}, {"type": "Feature", "geometry": {"type": "Point", "coordinates": [3.12888, 50.47159]}, "properties": {"kind": "turbine", "i": 26, "mw": 6.0, "hub_m": 120.0, "rotor_m": 150.0}}, {"type": "Feature", "geometry": {"type": "Point", "coordinates": [3.23128, 50.36634]}, "properties": {"kind": "turbine", "i": 27, "mw": 6.0, "hub_m": 120.0, "rotor_m": 150.0}}, {"type": "Feature", "geometry": {"type": "Point", "coordinates": [3.00537, 50.35015]}, "properties": {"kind": "turbine", "i": 28, "mw": 6.0, "hub_m": 120.0, "rotor_m": 150.0}}, {"type": "Feature", "geometry": {"type": "Point", "coordinates": [2.98997, 50.36329]}, "properties": {"kind": "turbine", "i": 29, "mw": 6.0, "hub_m": 120.0, "rotor_m": 150.0}}, {"type": "Feature", "geometry": {"type": "Point", "coordinates": [3.14383, 50.31066]}, "properties": {"kind": "turbine", "i": 30, "mw": 6.0, "hub_m": 120.0, "rotor_m": 150.0}}, {"type": "Feature", "geometry": {"type": "Point", "coordinates": [3.07203, 50.31072]}, "properties": {"kind": "turbine", "i": 31, "mw": 6.0, "hub_m": 120.0, "rotor_m": 150.0}}, {"type": "Feature", "geometry": {"type": "Point", "coordinates": [2.9797, 50.37642]}, "properties": {"kind": "turbine", "i": 32, "mw": 6.0, "hub_m": 120.0, "rotor_m": 150.0}}, {"type": "Feature", "geometry": {"type": "Point", "coordinates": [2.98997, 50.35344]}, "properties": {"kind": "turbine", "i": 33, "mw": 6.0, "hub_m": 120.0, "rotor_m": 150.0}}]}