{"type": "FeatureCollection", "features": [{"type": "Feature", "geometry": {"type": "MultiPolygon", "coordinates": [[[[2.92999, 50.37593], [2.93491, 50.37111], [2.93357, 50.36861], [2.93357, 50.3669], [2.9349, 50.36518], [2.93709, 50.36415], [2.93531, 50.36365], [2.93378, 50.36266], [2.93195, 50.36733], [2.9324, 50.36735], [2.93252, 50.36939], [2.93143, 50.36931], [2.92949, 50.37631], [2.92999, 50.37593]]], [[[2.94154, 50.35091], [2.9417, 50.35098], [2.94012, 50.35006], [2.94001, 50.35026], [2.94154, 50.35091]]], [[[2.9437, 50.34618], [2.95354, 50.35193], [2.95876, 50.34444], [2.96549, 50.33867], [2.96579, 50.33673], [2.96759, 50.33517], [2.95994, 50.3359], [2.94991, 50.33634], [2.9433, 50.34511], [2.9437, 50.34618]]], [[[2.97557, 50.31376], [2.97627, 50.31516], [2.97781, 50.31623], [2.97925, 50.31633], [2.9794, 50.31065], [2.97537, 50.31349], [2.97557, 50.31376]]], [[[2.96717, 50.36272], [2.96952, 50.36313], [2.97106, 50.36107], [2.97479, 50.35929], [2.97517, 50.35699], [2.97352, 50.35627], [2.97233, 50.35513], [2.97214, 50.35271], [2.97403, 50.35068], [2.9786, 50.34908], [2.97893, 50.34652], [2.9749, 50.34621], [2.97301, 50.34557], [2.97142, 50.3442], [2.97102, 50.34259], [2.97021, 50.34185], [2.96943, 50.34172], [2.964, 50.34637], [2.96012, 50.3523], [2.95788, 50.35478], [2.96717, 50.36272]]], [[[2.97362, 50.42269], [2.97377, 50.42275], [2.97436, 50.42394], [2.9744, 50.4225], [2.97362, 50.42269]]], [[[2.97485, 50.42259], [2.9745, 50.42246], [2.97506, 50.42335], [2.97675, 50.42449], [2.97667, 50.42526], [2.97766, 50.4257], [2.97747, 50.42521], [2.97688, 50.42515], [2.97736, 50.42488], [2.97652, 50.42388], [2.97784, 50.42273], [2.97945, 50.42246], [2.97793, 50.42308], [2.97731, 50.42379], [2.97823, 50.42514], [2.97941, 50.42492], [2.98047, 50.42204], [2.97685, 50.42144], [2.97522, 50.42219], [2.97592, 50.42245], [2.97514, 50.42307], [2.97485, 50.42259]], [[2.97636, 50.42257], [2.9761, 50.42249], [2.97677, 50.42218], [2.97675, 50.4224], [2.97636, 50.42257]], [[2.97657, 50.42255], [2.97689, 50.42243], [2.97695, 50.42244], [2.97636, 50.42271], [2.97657, 50.42255]], [[2.97555, 50.42332], [2.97523, 50.42312], [2.97603, 50.4225], [2.97622, 50.4228], [2.97555, 50.42332]]], [[[2.97788, 50.42533], [2.97843, 50.42535], [2.97764, 50.42489], [2.97749, 50.42493], [2.97788, 50.42533]]], [[[2.96587, 50.45393], [2.96656, 50.45358], [2.96656, 50.45307], [2.96578, 50.44938], [2.96349, 50.44938], [2.96205, 50.45022], [2.96557, 50.45414], [2.96595, 50.457], [2.9656, 50.45882], [2.96629, 50.4591], [2.96735, 50.45741], [2.96678, 50.45432], [2.96649, 50.45447], [2.96587, 50.45393]]], [[[2.98824, 50.45144], [2.98821, 50.45127], [2.98765, 50.45167], [2.9883, 50.45161], [2.98824, 50.45144]]], [[[2.99106, 50.47981], [2.99154, 50.47922], [2.98974, 50.4794], [2.99052, 50.47958], [2.99106, 50.47981]]], [[[2.99549, 50.31306], [2.99713, 50.31386], [2.99964, 50.31424], [2.9981, 50.31443], [2.99606, 50.31407], [2.99631, 50.3167], [3.00242, 50.31466], [3.01229, 50.31211], [3.01509, 50.31086], [3.01432, 50.30948], [3.01437, 50.30812], [3.01649, 50.3059], [3.01488, 50.3051], [3.01209, 50.30442], [3.00862, 50.30396], [3.00164, 50.30056], [2.99981, 50.30057], [2.99764, 50.30002], [2.99609, 50.30075], [2.99276, 50.31154], [2.99549, 50.31306]], [[2.99919, 50.30803], [2.99526, 50.31085], [2.99378, 50.31005], [2.99486, 50.30973], [2.99637, 50.30858], [2.99568, 50.3082], [2.99676, 50.30743], [2.99919, 50.30803]], [[2.99775, 50.31134], [2.99607, 50.31037], [2.99744, 50.30937], [2.99907, 50.31068], [2.99775, 50.31134]]], [[[2.98666, 50.34375], [2.98608, 50.3437], [2.98554, 50.34474], [2.98585, 50.34518], [2.98522, 50.34519], [2.98458, 50.34814], [2.98466, 50.34936], [2.98652, 50.35077], [2.98704, 50.3524], [2.98639, 50.3543], [2.98453, 50.3562], [2.98588, 50.35827], [2.9856, 50.35967], [2.98465, 50.36077], [2.98502, 50.36136], [2.98564, 50.36168], [2.98809, 50.35697], [2.99138, 50.35335], [2.99107, 50.35264], [2.993, 50.35238], [2.99321, 50.3526], [2.98855, 50.3568], [2.98596, 50.36187], [2.98794, 50.36389], [2.99099, 50.36422], [2.99335, 50.36559], [2.99411, 50.36723], [2.99343, 50.36915], [2.99569, 50.36938], [2.99734, 50.3679], [2.99977, 50.36716], [3.00193, 50.36717], [3.00424, 50.36785], [3.0048, 50.36664], [3.00836, 50.36704], [3.00895, 50.36567], [3.00422, 50.36285], [3.00117, 50.36003], [2.9946, 50.35512], [2.99367, 50.35367], [2.99341, 50.35175], [2.99028, 50.35135], [2.98801, 50.35007], [2.98721, 50.34877], [2.98728, 50.34736], [2.99035, 50.34391], [2.98666, 50.34375]], [[2.98702, 50.34683], [2.9864, 50.34835], [2.98599, 50.34829], [2.98622, 50.3465], [2.98702, 50.34683]]], [[[2.98616, 50.34324], [2.99111, 50.34353], [2.99289, 50.34303], [2.99502, 50.34297], [2.99703, 50.34344], [2.99884, 50.34442], [3.00144, 50.34305], [3.00545, 50.34277], [3.00029, 50.34129], [2.99622, 50.33877], [2.99506, 50.33762], [2.99341, 50.33941], [2.98616, 50.34265], [2.98616, 50.34324]]], [[[3.00641, 50.29621], [3.0063, 50.29805], [3.00872, 50.29936], [3.0115, 50.30058], [3.01348, 50.30063], [3.01739, 50.3016], [3.01746, 50.30128], [3.01594, 50.3007], [3.0157, 50.30089], [3.01562, 50.29962], [3.01647, 50.29927], [3.01828, 50.30002], [3.01926, 50.29928], [3.01755, 50.29843], [3.01438, 50.29825], [3.01414, 50.29752], [3.01726, 50.29715], [3.02011, 50.29763], [3.0209, 50.2986], [3.02307, 50.29832], [3.02533, 50.29866], [3.02769, 50.29473], [3.02617, 50.29375], [3.02135, 50.29355], [3.01831, 50.29273], [3.01625, 50.29334], [3.01628, 50.29451], [3.01381, 50.29449], [3.01356, 50.29331], [3.01272, 50.29312], [3.01116, 50.29372], [3.01104, 50.29443], [3.01019, 50.29439], [3.01024, 50.29407], [3.00627, 50.29592], [3.00641, 50.29621]]], [[[3.02278, 50.28959], [3.02265, 50.28931], [3.02221, 50.28948], [3.02278, 50.28959]]], [[[3.03706, 50.31753], [3.03967, 50.31787], [3.04202, 50.31913], [3.04372, 50.31743], [3.04437, 50.31764], [3.0426, 50.31939], [3.04219, 50.3193], [3.04292, 50.3206], [3.04331, 50.31886], [3.04479, 50.31746], [3.04601, 50.31699], [3.04791, 50.31686], [3.05054, 50.31775], [3.0505, 50.31606], [3.04752, 50.31579], [3.04273, 50.31442], [3.04014, 50.31242], [3.03991, 50.31386], [3.03885, 50.31509], [3.03718, 50.31594], [3.03468, 50.31633], [3.03546, 50.31751], [3.03706, 50.31753]]], [[[3.03116, 50.30091], [3.03286, 50.30098], [3.03131, 50.29953], [3.03059, 50.30057], [3.03116, 50.30091]]], [[[3.03091, 50.32008], [3.03068, 50.32047], [3.03196, 50.32069], [3.03294, 50.31883], [3.03102, 50.31912], [3.03091, 50.32008]]], [[[3.00732, 50.36948], [3.00595, 50.36928], [3.00758, 50.36979], [3.00732, 50.36948]]], [[[3.00709, 50.36989], [3.00696, 50.3703], [3.0096, 50.37059], [3.00915, 50.37021], [3.00616, 50.36968], [3.00709, 50.36989]]], [[[3.03464, 50.47286], [3.03698, 50.47451], [3.03888, 50.47389], [3.03955, 50.472], [3.03889, 50.47171], [3.03805, 50.47198], [3.0357, 50.47006], [3.03483, 50.47053], [3.03525, 50.47158], [3.03464, 50.47286]]], [[[3.04753, 50.32213], [3.04824, 50.32288], [3.04891, 50.32249], [3.05224, 50.32494], [3.05428, 50.3225], [3.0512, 50.31995], [3.04959, 50.32136], [3.04753, 50.32213]]], [[[3.03779, 50.40384], [3.03736, 50.40338], [3.03608, 50.40371], [3.03464, 50.40597], [3.03296, 50.40712], [3.031, 50.40766], [3.02893, 50.40776], [3.02885, 50.40994], [3.02944, 50.41097], [3.03076, 50.40986], [3.03304, 50.40906], [3.03584, 50.40684], [3.03744, 50.40502], [3.03779, 50.40384]]], [[[3.05169, 50.45209], [3.05018, 50.45032], [3.04987, 50.44915], [3.04903, 50.45146], [3.05169, 50.45209]]], [[[3.07579, 50.48674], [3.07896, 50.48663], [3.07958, 50.48627], [3.07788, 50.4849], [3.07753, 50.4824], [3.07688, 50.48224], [3.07711, 50.48443], [3.07579, 50.48674]]], [[[3.07663, 50.4824], [3.07651, 50.48214], [3.0753, 50.48364], [3.07343, 50.48451], [3.07565, 50.48651], [3.07684, 50.48441], [3.07663, 50.4824]]], [[[3.08415, 50.29744], [3.08585, 50.30063], [3.08531, 50.30273], [3.08773, 50.3034], [3.09468, 50.30393], [3.09483, 50.30334], [3.09327, 50.30221], [3.09536, 50.30286], [3.09589, 50.30162], [3.0948, 50.29978], [3.0952, 50.29772], [3.09659, 50.29625], [3.09867, 50.29532], [3.09998, 50.29164], [3.09817, 50.29085], [3.09698, 50.2897], [3.09483, 50.28899], [3.09321, 50.28764], [3.08544, 50.29155], [3.08319, 50.29349], [3.08098, 50.29452], [3.08109, 50.29678], [3.08422, 50.29816], [3.08371, 50.29754], [3.08415, 50.29744]]], [[[3.08215, 50.30668], [3.0821, 50.30602], [3.0798, 50.30526], [3.07822, 50.30551], [3.07689, 50.30668], [3.07443, 50.30749], [3.07222, 50.30753], [3.07018, 50.30701], [3.07012, 50.30871], [3.06889, 50.31016], [3.06876, 50.31234], [3.0714, 50.31549], [3.07224, 50.31753], [3.07356, 50.31718], [3.07377, 50.31577], [3.07508, 50.31355], [3.07772, 50.31196], [3.07839, 50.30976], [3.07987, 50.30846], [3.08161, 50.30761], [3.08215, 50.30668]]], [[[2.96618, 50.32112], [2.96577, 50.32086], [2.96564, 50.32097], [2.96618, 50.32112]]], [[[2.96372, 50.33027], [2.96251, 50.33168], [2.96646, 50.33126], [2.96593, 50.33018], [2.96374, 50.33005], [2.96372, 50.33027]]], [[[3.16162, 50.3736], [3.16255, 50.37356], [3.16349, 50.37437], [3.16448, 50.37303], [3.16699, 50.37169], [3.16786, 50.37035], [3.17017, 50.36849], [3.16883, 50.36738], [3.16821, 50.36597], [3.16693, 50.36667], [3.16627, 50.36621], [3.16699, 50.36525], [3.16537, 50.3646], [3.16387, 50.36292], [3.16377, 50.36357], [3.16315, 50.36365], [3.16332, 50.3641], [3.16209, 50.36432], [3.15783, 50.36426], [3.15489, 50.36333], [3.15077, 50.36387], [3.15113, 50.36425], [3.14735, 50.36596], [3.14803, 50.36707], [3.15023, 50.36586], [3.15442, 50.36529], [3.15655, 50.36575], [3.15752, 50.36654], [3.15906, 50.36949], [3.16084, 50.36996], [3.1618, 50.3708], [3.16207, 50.3721], [3.16162, 50.3736]], [[3.16326, 50.36603], [3.16256, 50.36588], [3.16373, 50.36422], [3.16441, 50.3644], [3.16326, 50.36603]], [[3.1629, 50.37198], [3.16225, 50.37131], [3.1622, 50.37117], [3.16349, 50.37171], [3.1629, 50.37198]]], [[[3.14779, 50.36765], [3.14785, 50.36745], [3.14791, 50.36729], [3.14756, 50.36744], [3.14779, 50.36765]]], [[[3.14837, 50.37287], [3.14878, 50.37365], [3.14959, 50.37404], [3.14979, 50.37372], [3.14867, 50.37223], [3.14812, 50.37258], [3.14837, 50.37287]]], [[[3.14833, 50.37117], [3.14822, 50.37093], [3.14808, 50.37113], [3.14896, 50.37201], [3.14833, 50.37117]]], [[[3.14981, 50.37264], [3.149, 50.37212], [3.15107, 50.37451], [3.15257, 50.37366], [3.15045, 50.37327], [3.15074, 50.37309], [3.14981, 50.37264]]], [[[3.12344, 50.27467], [3.12311, 50.27509], [3.12595, 50.27563], [3.12796, 50.27711], [3.13001, 50.27721], [3.12823, 50.27545], [3.12671, 50.27523], [3.12559, 50.27464], [3.12344, 50.27467]]], [[[3.08639, 50.27883], [3.08433, 50.27924], [3.08532, 50.28047], [3.09153, 50.28149], [3.09278, 50.28025], [3.08942, 50.27979], [3.08708, 50.2787], [3.08639, 50.27883]]], [[[3.04384, 50.32789], [3.04427, 50.32809], [3.0449, 50.32851], [3.04513, 50.32794], [3.04324, 50.32766], [3.04384, 50.32789]]], [[[3.03951, 50.32687], [3.04079, 50.32697], [3.04063, 50.32587], [3.03882, 50.32674], [3.03639, 50.32725], [3.03648, 50.32746], [3.03951, 50.32687]]], [[[3.0356, 50.32703], [3.03581, 50.32727], [3.03593, 50.32735], [3.03587, 50.32705], [3.0356, 50.32703]]], [[[3.04136, 50.32526], [3.04113, 50.32544], [3.04134, 50.32613], [3.04132, 50.32531], [3.04236, 50.32499], [3.04236, 50.32456], [3.04136, 50.32526]]], [[[3.04248, 50.32405], [3.04267, 50.32401], [3.04256, 50.32391], [3.04248, 50.32405]]], [[[3.06657, 50.50321], [3.06682, 50.50258], [3.06639, 50.50234], [3.06369, 50.5027], [3.06326, 50.50426], [3.06354, 50.50454], [3.06524, 50.50428], [3.06657, 50.50321]]], [[[3.05641, 50.49726], [3.05659, 50.49826], [3.05809, 50.49813], [3.05896, 50.49742], [3.05911, 50.49713], [3.05844, 50.49694], [3.05874, 50.49632], [3.05646, 50.4956], [3.05687, 50.49494], [3.05871, 50.49552], [3.05952, 50.49397], [3.05628, 50.4924], [3.0544, 50.49434], [3.05491, 50.49563], [3.05641, 50.49726]]], [[[3.0495, 50.44809], [3.04998, 50.44847], [3.05022, 50.44792], [3.04957, 50.44766], [3.0495, 50.44809]]], [[[3.06644, 50.31861], [3.06526, 50.31626], [3.06541, 50.31859], [3.064, 50.32098], [3.06431, 50.32117], [3.06528, 50.31983], [3.06666, 50.319], [3.06644, 50.31861]]], [[[3.04072, 50.30884], [3.04135, 50.30837], [3.03845, 50.30768], [3.03894, 50.30884], [3.03863, 50.31034], [3.03972, 50.3114], [3.03983, 50.3101], [3.04072, 50.30884]]], [[[3.05584, 50.30351], [3.05448, 50.30242], [3.05352, 50.30252], [3.05346, 50.30455], [3.05461, 50.30465], [3.05584, 50.30351]]], [[[3.07148, 50.28755], [3.07164, 50.28691], [3.06884, 50.28693], [3.06461, 50.28965], [3.06132, 50.29037], [3.05784, 50.2896], [3.05571, 50.28763], [3.05437, 50.28781], [3.0553, 50.28913], [3.05663, 50.29335], [3.05588, 50.29495], [3.05426, 50.29607], [3.05679, 50.2981], [3.05939, 50.29624], [3.06234, 50.29569], [3.06417, 50.2944], [3.06736, 50.29345], [3.06906, 50.29229], [3.07114, 50.29175], [3.07148, 50.28755]]], [[[2.98007, 50.3792], [2.9821, 50.38205], [2.98294, 50.38204], [2.98516, 50.38065], [2.98725, 50.3802], [2.99042, 50.38041], [2.99295, 50.3818], [3.00344, 50.37927], [3.00332, 50.37876], [3.00005, 50.37862], [2.99796, 50.37802], [2.99638, 50.37689], [2.9954, 50.37534], [2.99192, 50.37703], [2.98974, 50.37876], [2.9873, 50.3793], [2.98517, 50.37917], [2.98325, 50.37853], [2.98184, 50.37746], [2.98127, 50.37507], [2.97949, 50.3756], [2.97922, 50.37629], [2.97907, 50.37795], [2.98007, 50.3792]]], [[[2.95742, 50.39666], [2.95589, 50.39548], [2.95397, 50.39496], [2.95154, 50.39684], [2.95023, 50.39957], [2.94673, 50.40175], [2.95011, 50.40345], [2.95059, 50.402], [2.95241, 50.40051], [2.95419, 50.39984], [2.95662, 50.39965], [2.95742, 50.39913], [2.95789, 50.39696], [2.95742, 50.39666]]], [[[2.93294, 50.37966], [2.92848, 50.38315], [2.93057, 50.38329], [2.93277, 50.38411], [2.93629, 50.38384], [2.93888, 50.38459], [2.9411, 50.38659], [2.94126, 50.38795], [2.94074, 50.38907], [2.94657, 50.38953], [2.95004, 50.38913], [2.95245, 50.38971], [2.95744, 50.38769], [2.9585, 50.38477], [2.96112, 50.38257], [2.96349, 50.38181], [2.96665, 50.38196], [2.96819, 50.38039], [2.97106, 50.37951], [2.97151, 50.37896], [2.96665, 50.37215], [2.96484, 50.37104], [2.96238, 50.3678], [2.96035, 50.3688], [2.95752, 50.36907], [2.95616, 50.36979], [2.95413, 50.37024], [2.95147, 50.37005], [2.94883, 50.36891], [2.94749, 50.36932], [2.94675, 50.37134], [2.94515, 50.37288], [2.94238, 50.3739], [2.93957, 50.37384], [2.93294, 50.37966]]], [[[2.94049, 50.35526], [2.9403, 50.35517], [2.94027, 50.35534], [2.94041, 50.35528], [2.94049, 50.35526]]], [[[2.95251, 50.44037], [2.95062, 50.43888], [2.95377, 50.44304], [2.95354, 50.44569], [2.95753, 50.44763], [2.9584, 50.44712], [2.95766, 50.44569], [2.95791, 50.44426], [2.95458, 50.44137], [2.95251, 50.44037]]], [[[3.03002, 50.49407], [3.02947, 50.49411], [3.02847, 50.49595], [3.03017, 50.49468], [3.03049, 50.49424], [3.03002, 50.49407]]], [[[3.00738, 50.43866], [3.00659, 50.43721], [3.00497, 50.43751], [3.00853, 50.43937], [3.01, 50.4395], [3.00738, 50.43866]]], [[[3.02266, 50.43306], [3.02249, 50.43297], [3.02281, 50.43342], [3.02285, 50.43323], [3.02266, 50.43306]]], [[[2.9863, 50.39974], [2.98725, 50.40424], [2.99001, 50.40405], [2.99254, 50.40459], [2.99444, 50.40586], [2.99515, 50.4074], [3.00111, 50.40657], [3.00307, 50.40516], [3.00592, 50.40451], [3.01081, 50.40071], [3.01331, 50.40013], [3.0161, 50.40042], [3.0186, 50.39876], [3.01464, 50.39741], [3.01312, 50.39645], [3.01229, 50.39519], [3.01223, 50.39295], [3.01374, 50.39082], [3.01677, 50.38855], [3.01855, 50.38778], [3.02168, 50.38727], [3.0237, 50.38577], [3.02354, 50.38507], [3.02146, 50.38389], [3.01932, 50.38407], [3.01732, 50.38372], [3.0146, 50.38224], [3.01134, 50.38306], [3.00903, 50.38284], [3.0075, 50.38226], [2.99333, 50.38575], [2.99058, 50.38733], [2.98708, 50.38765], [2.98486, 50.3888], [2.98536, 50.39217], [2.98687, 50.39367], [2.98741, 50.395], [2.98708, 50.39642], [2.98603, 50.39757], [2.9863, 50.39974]], [[2.99519, 50.40445], [2.99893, 50.40227], [2.99899, 50.40229], [2.99528, 50.40458], [2.99519, 50.40445]]], [[[3.00609, 50.34966], [3.00044, 50.35156], [2.99948, 50.35204], [2.99947, 50.35258], [3.01132, 50.36197], [3.01808, 50.35574], [3.01836, 50.35381], [3.0191, 50.35267], [3.01638, 50.35214], [3.0143, 50.3508], [3.0136, 50.34911], [3.01441, 50.34726], [3.01156, 50.34728], [3.00609, 50.34966]]], [[[3.01074, 50.32809], [3.01315, 50.32914], [3.01543, 50.32683], [3.01895, 50.32593], [3.0196, 50.32222], [3.01804, 50.32062], [3.01794, 50.31891], [3.01937, 50.31707], [3.02233, 50.31593], [3.02309, 50.3145], [3.02249, 50.31424], [3.02068, 50.31438], [3.01855, 50.31402], [3.01508, 50.31554], [3.00488, 50.31818], [2.99878, 50.32042], [2.99874, 50.32098], [3.00161, 50.32257], [3.00302, 50.32417], [3.00458, 50.32513], [3.00558, 50.3267], [3.01074, 50.32809]]], [[[2.98701, 50.3063], [2.98596, 50.30879], [2.98554, 50.31072], [2.987, 50.31032], [2.98864, 50.30499], [2.98701, 50.3063]]], [[[3.03541, 50.4966], [3.03628, 50.49703], [3.03624, 50.49564], [3.03689, 50.49448], [3.03541, 50.4966]]], [[[3.05, 50.299], [3.0461, 50.29571], [3.04097, 50.29611], [3.03764, 50.29526], [3.03483, 50.29592], [3.03737, 50.2984], [3.03909, 50.29763], [3.04166, 50.29734], [3.04651, 50.29815], [3.04914, 50.29925], [3.05, 50.299]]], [[[3.22096, 50.48264], [3.22074, 50.48323], [3.22293, 50.48288], [3.22123, 50.48186], [3.22096, 50.48264]]], [[[3.20452, 50.47057], [3.20549, 50.47271], [3.20611, 50.47312], [3.21254, 50.47374], [3.2125, 50.47336], [3.20932, 50.47252], [3.20601, 50.46985], [3.2045, 50.46991], [3.20452, 50.47057]]], [[[3.21222, 50.46636], [3.21295, 50.46721], [3.2132, 50.46627], [3.21212, 50.46614], [3.21222, 50.46636]]], [[[3.21206, 50.46917], [3.21323, 50.46942], [3.21408, 50.46886], [3.21324, 50.46805], [3.21206, 50.46917]]], [[[3.23466, 50.45091], [3.22818, 50.45171], [3.22743, 50.4523], [3.22905, 50.45398], [3.22836, 50.45446], [3.2292, 50.45571], [3.22913, 50.45736], [3.22788, 50.45881], [3.2258, 50.45975], [3.22363, 50.46139], [3.22493, 50.46008], [3.22302, 50.46041], [3.2209, 50.46027], [3.21784, 50.45885], [3.2167, 50.45971], [3.21871, 50.46118], [3.21922, 50.46311], [3.22341, 50.46487], [3.22736, 50.46358], [3.23036, 50.46366], [3.23202, 50.4632], [3.23424, 50.4619], [3.23648, 50.46153], [3.23414, 50.46009], [3.23281, 50.45733], [3.23318, 50.45447], [3.23549, 50.45267], [3.23508, 50.45083], [3.23466, 50.45091]]], [[[3.23369, 50.36224], [3.23086, 50.36401], [3.22978, 50.36614], [3.2301, 50.36637], [3.23251, 50.36671], [3.23283, 50.36618], [3.23187, 50.36594], [3.23236, 50.3649], [3.23585, 50.36486], [3.23594, 50.36262], [3.23369, 50.36224]]], [[[3.22791, 50.35523], [3.22751, 50.35502], [3.22746, 50.35499], [3.22747, 50.3553], [3.22791, 50.35523]]], [[[3.23925, 50.3499], [3.23874, 50.34977], [3.23874, 50.34979], [3.23925, 50.3499]]], [[[3.23003, 50.34705], [3.22844, 50.34785], [3.22679, 50.34826], [3.22798, 50.34894], [3.23003, 50.34705]]], [[[3.22991, 50.31107], [3.23499, 50.31425], [3.23861, 50.31453], [3.24027, 50.31533], [3.24133, 50.31644], [3.24433, 50.31514], [3.244, 50.31437], [3.24129, 50.31277], [3.23785, 50.31227], [3.23532, 50.31045], [3.23492, 50.3091], [3.23531, 50.30712], [3.23728, 50.30526], [3.22982, 50.30095], [3.22894, 50.30053], [3.22831, 50.30072], [3.22807, 50.30012], [3.21745, 50.29511], [3.21584, 50.29554], [3.21382, 50.29673], [3.21607, 50.29695], [3.21828, 50.29787], [3.21969, 50.29947], [3.21986, 50.30107], [3.22209, 50.30137], [3.2242, 50.3024], [3.22619, 50.30283], [3.22873, 50.30464], [3.22934, 50.30597], [3.2291, 50.30735], [3.22804, 50.30856], [3.22637, 50.30942], [3.22991, 50.31107]], [[3.24018, 50.31396], [3.24105, 50.31355], [3.24146, 50.31386], [3.24045, 50.31427], [3.24018, 50.31396]]], [[[3.20582, 50.29054], [3.20742, 50.29315], [3.20701, 50.29523], [3.20759, 50.29567], [3.2117, 50.29271], [3.20582, 50.29054]]], [[[3.11728, 50.49434], [3.11864, 50.4952], [3.11975, 50.49407], [3.12153, 50.49326], [3.12522, 50.49307], [3.1254, 50.49169], [3.12673, 50.48931], [3.12138, 50.49122], [3.11931, 50.49366], [3.11728, 50.49434]]], [[[3.11587, 50.48925], [3.11669, 50.48873], [3.11566, 50.4882], [3.11365, 50.48806], [3.10989, 50.4865], [3.11014, 50.48702], [3.11555, 50.4895], [3.11587, 50.48925]]], [[[3.119, 50.45569], [3.11837, 50.45497], [3.11782, 50.45623], [3.11353, 50.45588], [3.11375, 50.45814], [3.11512, 50.45889], [3.119, 50.45569]]], [[[3.11178, 50.33384], [3.11049, 50.33433], [3.11267, 50.33666], [3.11303, 50.33907], [3.11378, 50.33943], [3.1187, 50.33886], [3.12136, 50.33795], [3.12019, 50.32469], [3.11644, 50.32621], [3.11251, 50.32708], [3.11195, 50.32963], [3.11479, 50.32898], [3.11696, 50.32902], [3.11881, 50.32995], [3.11931, 50.33121], [3.11883, 50.3321], [3.11775, 50.33273], [3.1155, 50.33289], [3.11178, 50.33384]]], [[[3.12687, 50.32709], [3.12738, 50.33767], [3.13336, 50.34093], [3.13502, 50.34305], [3.13845, 50.34213], [3.13967, 50.34086], [3.13976, 50.33942], [3.14071, 50.33813], [3.1439, 50.3367], [3.14712, 50.33674], [3.14939, 50.33767], [3.1507, 50.33918], [3.15075, 50.34103], [3.15597, 50.33962], [3.15445, 50.33728], [3.15494, 50.33529], [3.15375, 50.33432], [3.14922, 50.33533], [3.14606, 50.33516], [3.1439, 50.33416], [3.14268, 50.33261], [3.1408, 50.33198], [3.13865, 50.33057], [3.1372, 50.32889], [3.13688, 50.32719], [3.13764, 50.32522], [3.14, 50.32361], [3.13772, 50.32334], [3.13596, 50.32256], [3.13458, 50.32124], [3.13422, 50.31954], [3.1338, 50.31939], [3.13042, 50.32166], [3.12653, 50.32323], [3.12949, 50.32366], [3.13078, 50.32508], [3.13055, 50.32601], [3.12966, 50.32675], [3.12832, 50.32714], [3.12687, 50.32709]]], [[[3.10558, 50.29387], [3.10468, 50.29589], [3.10549, 50.29646], [3.10766, 50.29476], [3.11402, 50.28692], [3.11018, 50.28658], [3.11016, 50.28797], [3.10942, 50.28925], [3.10796, 50.29026], [3.10614, 50.29088], [3.10558, 50.29387]]], [[[3.08696, 50.49514], [3.08774, 50.49479], [3.08729, 50.49432], [3.08684, 50.49431], [3.08606, 50.49528], [3.08632, 50.49555], [3.08696, 50.49514]]], [[[3.0799, 50.47879], [3.07987, 50.47877], [3.07951, 50.47875], [3.08007, 50.4789], [3.0799, 50.47879]]], [[[3.07929, 50.44376], [3.08069, 50.44463], [3.08119, 50.44422], [3.07898, 50.44331], [3.07929, 50.44376]]], [[[3.08693, 50.3398], [3.08761, 50.34001], [3.08784, 50.33978], [3.08731, 50.33956], [3.08693, 50.3398]]], [[[3.08717, 50.33236], [3.0895, 50.33281], [3.09207, 50.33129], [3.09029, 50.33013], [3.08932, 50.32887], [3.0892, 50.32748], [3.08979, 50.32633], [3.08876, 50.32453], [3.0875, 50.32469], [3.08728, 50.32752], [3.08438, 50.33112], [3.08717, 50.33236]]], [[[3.08725, 50.28588], [3.08889, 50.28496], [3.08383, 50.28422], [3.08119, 50.28628], [3.07777, 50.28688], [3.07716, 50.29153], [3.07864, 50.29089], [3.08146, 50.28865], [3.08725, 50.28588]]], [[[3.07495, 50.33652], [3.07485, 50.33835], [3.07678, 50.33993], [3.07887, 50.33935], [3.08455, 50.33584], [3.08103, 50.33433], [3.07823, 50.33549], [3.07466, 50.33539], [3.07495, 50.33652]]], [[[3.07409, 50.50822], [3.07359, 50.50686], [3.07403, 50.50538], [3.07204, 50.50489], [3.07141, 50.50553], [3.07262, 50.50692], [3.07284, 50.50824], [3.07429, 50.50847], [3.07409, 50.50822]]], [[[3.10056, 50.33252], [3.10016, 50.33206], [3.09806, 50.33328], [3.09947, 50.3328], [3.10056, 50.33252]]], [[[3.10617, 50.32423], [3.10676, 50.32346], [3.1037, 50.32358], [3.10119, 50.32275], [3.10113, 50.32433], [3.1003, 50.32547], [3.10124, 50.32676], [3.10598, 50.32491], [3.10617, 50.32423]]], [[[3.17456, 50.47711], [3.17418, 50.47709], [3.17372, 50.47707], [3.17463, 50.4775], [3.17456, 50.47711]]], [[[3.17879, 50.48464], [3.17905, 50.48585], [3.18234, 50.48505], [3.18238, 50.48438], [3.18094, 50.48305], [3.18053, 50.48162], [3.17711, 50.48027], [3.17629, 50.48233], [3.17879, 50.48464]]], [[[3.15565, 50.3246], [3.15814, 50.32759], [3.15836, 50.33183], [3.16012, 50.33327], [3.16109, 50.33318], [3.16126, 50.33111], [3.16087, 50.33082], [3.16036, 50.32582], [3.16278, 50.32584], [3.16322, 50.33017], [3.16638, 50.32932], [3.16746, 50.32762], [3.16893, 50.3265], [3.16889, 50.32606], [3.16765, 50.32543], [3.16485, 50.32542], [3.16279, 50.32474], [3.16237, 50.32482], [3.1627, 50.3255], [3.16048, 50.32483], [3.15916, 50.32411], [3.16042, 50.32377], [3.15887, 50.32262], [3.15565, 50.3246]]], [[[3.16211, 50.32436], [3.16232, 50.32476], [3.16266, 50.32467], [3.16206, 50.32431], [3.16211, 50.32436]]], [[[3.18608, 50.31126], [3.18579, 50.30907], [3.18136, 50.30856], [3.17966, 50.30956], [3.17766, 50.31003], [3.17744, 50.31232], [3.17589, 50.31371], [3.17395, 50.31439], [3.1742, 50.31535], [3.17613, 50.31576], [3.17774, 50.31663], [3.18252, 50.3167], [3.18398, 50.31372], [3.18589, 50.31226], [3.18608, 50.31126]]], [[[3.15442, 50.3198], [3.15507, 50.31951], [3.15489, 50.31827], [3.15549, 50.31696], [3.15515, 50.31453], [3.15462, 50.31456], [3.15421, 50.31293], [3.15469, 50.31236], [3.15748, 50.31207], [3.15748, 50.31243], [3.16049, 50.31185], [3.16073, 50.31143], [3.15854, 50.31053], [3.15903, 50.30953], [3.16021, 50.30893], [3.16247, 50.30897], [3.16072, 50.30904], [3.1617, 50.31047], [3.16599, 50.30882], [3.1681, 50.30744], [3.17126, 50.30693], [3.17188, 50.30485], [3.17138, 50.30243], [3.17198, 50.30115], [3.17078, 50.30013], [3.17202, 50.29976], [3.17274, 50.30044], [3.17447, 50.29961], [3.17422, 50.29824], [3.17465, 50.2969], [3.1768, 50.29522], [3.17536, 50.29192], [3.16982, 50.29298], [3.16909, 50.29514], [3.16811, 50.29636], [3.16619, 50.29752], [3.1634, 50.29843], [3.15943, 50.2987], [3.15674, 50.29783], [3.15326, 50.29854], [3.15038, 50.29793], [3.14764, 50.29945], [3.14398, 50.29959], [3.14148, 50.3016], [3.14176, 50.30187], [3.14077, 50.30221], [3.13793, 50.30448], [3.13807, 50.30504], [3.13969, 50.30548], [3.14396, 50.30601], [3.14496, 50.3067], [3.14532, 50.30779], [3.14448, 50.30897], [3.14238, 50.30956], [3.14134, 50.31109], [3.13896, 50.31223], [3.13685, 50.31607], [3.13762, 50.31634], [3.14096, 50.31596], [3.14405, 50.31689], [3.14568, 50.31859], [3.14542, 50.32089], [3.14684, 50.32209], [3.15081, 50.32216], [3.15442, 50.3198]], [[3.14428, 50.30158], [3.14272, 50.302], [3.14258, 50.30175], [3.14419, 50.30122], [3.14428, 50.30158]], [[3.17033, 50.29997], [3.16986, 50.29926], [3.17268, 50.2987], [3.17293, 50.29937], [3.17033, 50.29997]], [[3.16926, 50.30062], [3.16975, 50.30149], [3.16941, 50.30156], [3.16895, 50.3007], [3.16926, 50.30062]], [[3.16596, 50.30265], [3.16544, 50.3022], [3.16548, 50.30186], [3.16588, 50.30195], [3.16633, 50.30281], [3.1653, 50.30308], [3.16502, 50.30299], [3.1663, 50.30277], [3.16596, 50.30265]], [[3.16234, 50.30245], [3.16292, 50.30427], [3.16507, 50.30377], [3.16605, 50.30377], [3.1667, 50.30426], [3.16689, 50.30609], [3.16594, 50.30631], [3.16541, 50.30551], [3.1635, 50.30595], [3.16211, 50.30552], [3.16023, 50.30586], [3.1595, 50.30641], [3.1596, 50.30702], [3.15648, 50.30884], [3.15491, 50.30895], [3.155, 50.3096], [3.15445, 50.30969], [3.15433, 50.30892], [3.15169, 50.30823], [3.15083, 50.30631], [3.15216, 50.30626], [3.15314, 50.30552], [3.15405, 50.30338], [3.15505, 50.30349], [3.156, 50.30312], [3.15731, 50.30198], [3.1562, 50.30107], [3.15603, 50.30017], [3.15787, 50.29946], [3.15812, 50.29898], [3.1595, 50.29884], [3.15991, 50.2996], [3.16122, 50.29927], [3.16204, 50.30003], [3.16234, 50.30245]], [[3.15683, 50.31069], [3.15563, 50.31067], [3.15546, 50.30959], [3.15655, 50.30955], [3.15683, 50.31069]]], [[[3.1606, 50.27845], [3.16026, 50.27924], [3.16142, 50.28015], [3.16209, 50.28145], [3.16177, 50.28317], [3.16452, 50.28374], [3.16704, 50.28535], [3.16786, 50.28661], [3.16762, 50.28852], [3.16816, 50.28907], [3.17198, 50.28867], [3.1727, 50.28672], [3.17508, 50.28531], [3.17764, 50.28489], [3.18016, 50.28507], [3.17999, 50.2838], [3.18053, 50.28256], [3.16611, 50.27927], [3.1606, 50.27845]], [[3.16684, 50.28404], [3.16629, 50.28328], [3.1674, 50.28288], [3.16866, 50.28368], [3.16716, 50.28425], [3.16684, 50.28404]]], [[[3.13329, 50.30179], [3.13487, 50.3006], [3.13469, 50.29976], [3.13612, 50.2996], [3.13431, 50.29872], [3.13316, 50.2975], [3.13283, 50.29615], [3.13333, 50.29482], [3.13501, 50.29349], [3.13701, 50.29286], [3.13914, 50.29278], [3.14133, 50.29331], [3.14375, 50.2916], [3.14236, 50.28963], [3.14275, 50.28762], [3.14142, 50.2869], [3.13692, 50.28562], [3.12876, 50.28546], [3.12647, 50.28651], [3.12368, 50.29046], [3.12381, 50.29407], [3.12337, 50.29544], [3.12589, 50.29632], [3.12752, 50.29779], [3.12772, 50.29992], [3.12621, 50.30159], [3.12773, 50.3028], [3.13019, 50.30188], [3.13329, 50.30179]], [[3.13142, 50.29693], [3.13088, 50.29729], [3.13019, 50.29677], [3.13106, 50.29644], [3.13142, 50.29693]], [[3.13272, 50.29981], [3.13335, 50.30071], [3.1316, 50.30023], [3.13183, 50.29975], [3.13272, 50.29981]]], [[[3.144, 50.28341], [3.14546, 50.28401], [3.14608, 50.28382], [3.14497, 50.28228], [3.14201, 50.28104], [3.13817, 50.28184], [3.144, 50.28341]]], [[[3.15146, 50.2806], [3.15226, 50.27971], [3.15437, 50.27844], [3.15201, 50.27894], [3.15072, 50.28107], [3.15107, 50.28156], [3.15146, 50.2806]]], [[[3.16363, 50.50629], [3.16329, 50.50442], [3.15856, 50.50319], [3.1589, 50.5037], [3.16204, 50.50495], [3.16317, 50.50655], [3.16363, 50.50629]]], [[[3.14887, 50.45185], [3.14872, 50.45135], [3.14813, 50.45123], [3.14933, 50.45337], [3.14887, 50.45185]]], [[[3.14663, 50.38253], [3.14668, 50.38184], [3.14587, 50.38194], [3.14608, 50.38262], [3.14663, 50.38253]]], [[[3.14679, 50.38389], [3.14694, 50.38358], [3.146, 50.38367], [3.14526, 50.38499], [3.14599, 50.3865], [3.14679, 50.38389]]], [[[3.12975, 50.44978], [3.12985, 50.4489], [3.12878, 50.44855], [3.12962, 50.4502], [3.12975, 50.44978]]], [[[3.18804, 50.50065], [3.18796, 50.50063], [3.18686, 50.50115], [3.18832, 50.50071], [3.18804, 50.50065]]], [[[3.20717, 50.49154], [3.20892, 50.4915], [3.20556, 50.48948], [3.20414, 50.49166], [3.20127, 50.49427], [3.19875, 50.49554], [3.19998, 50.49589], [3.20143, 50.4953], [3.20205, 50.49378], [3.20333, 50.49254], [3.2051, 50.4918], [3.20717, 50.49154]]], [[[3.19808, 50.35872], [3.19709, 50.35897], [3.19738, 50.35956], [3.19918, 50.35949], [3.19808, 50.35872]]], [[[3.20929, 50.36421], [3.21131, 50.36477], [3.21223, 50.36456], [3.21149, 50.3635], [3.20898, 50.3638], [3.20929, 50.36421]]], [[[3.20938, 50.37079], [3.20872, 50.37037], [3.20827, 50.36996], [3.20887, 50.37078], [3.20938, 50.37079]]], [[[3.20586, 50.36497], [3.20789, 50.36425], [3.20758, 50.36365], [3.2054, 50.36289], [3.20296, 50.36314], [3.20409, 50.36422], [3.20586, 50.36497]]], [[[3.18549, 50.34592], [3.18545, 50.34761], [3.18378, 50.34869], [3.18408, 50.35019], [3.18311, 50.35048], [3.1827, 50.34905], [3.18269, 50.34905], [3.18239, 50.35053], [3.18029, 50.35164], [3.18389, 50.35226], [3.18732, 50.35446], [3.19017, 50.35306], [3.1869, 50.35192], [3.1879, 50.35151], [3.1897, 50.35175], [3.19121, 50.35254], [3.19327, 50.35096], [3.19117, 50.35037], [3.18948, 50.34921], [3.18799, 50.34541], [3.18549, 50.34592]]], [[[3.17819, 50.352], [3.1781, 50.35198], [3.17803, 50.35202], [3.1782, 50.35205], [3.17819, 50.352]]], [[[3.19757, 50.32893], [3.19769, 50.32978], [3.19958, 50.33064], [3.20087, 50.33177], [3.20063, 50.32951], [3.20192, 50.32763], [3.19859, 50.32658], [3.19757, 50.32893]]], [[[3.19211, 50.31132], [3.19197, 50.31218], [3.19368, 50.31327], [3.19531, 50.31589], [3.19788, 50.3152], [3.201, 50.31527], [3.20114, 50.31196], [3.20225, 50.3099], [3.19794, 50.30533], [3.19524, 50.30529], [3.19277, 50.30436], [3.19245, 50.30659], [3.19068, 50.3081], [3.19161, 50.30904], [3.19211, 50.31132]]], [[[3.18219, 50.29279], [3.18259, 50.29376], [3.1866, 50.29429], [3.18883, 50.2951], [3.19235, 50.29826], [3.19433, 50.29747], [3.19622, 50.29728], [3.19256, 50.29355], [3.19047, 50.29276], [3.18714, 50.29258], [3.18275, 50.29066], [3.18142, 50.29145], [3.18219, 50.29279]]], [[[3.18234, 50.49021], [3.1818, 50.48931], [3.17748, 50.49048], [3.18236, 50.49091], [3.18522, 50.49243], [3.18641, 50.49204], [3.18412, 50.49143], [3.18234, 50.49021]]], [[[3.21211, 50.32576], [3.20958, 50.32693], [3.21155, 50.32906], [3.21119, 50.33155], [3.21269, 50.33171], [3.21371, 50.33138], [3.21329, 50.32896], [3.21515, 50.32663], [3.21211, 50.32576]]], [[[3.22144, 50.32459], [3.22175, 50.32471], [3.22143, 50.3236], [3.21946, 50.32382], [3.22144, 50.32459]]], [[[3.22074, 50.31346], [3.22041, 50.3119], [3.21737, 50.31178], [3.21437, 50.31309], [3.21344, 50.31398], [3.21385, 50.31648], [3.21522, 50.31719], [3.21803, 50.31619], [3.22177, 50.31652], [3.22302, 50.31605], [3.22074, 50.31346]]], [[[3.24541, 50.34876], [3.24528, 50.34871], [3.24522, 50.34894], [3.24541, 50.34876]]], [[[3.246, 50.34467], [3.24575, 50.3445], [3.24566, 50.34451], [3.24569, 50.34471], [3.246, 50.34467]]], [[[3.2492, 50.34363], [3.24971, 50.3438], [3.24982, 50.34236], [3.24859, 50.34344], [3.2492, 50.34363]]], [[[3.23077, 50.31701], [3.23077, 50.31702], [3.23078, 50.31702], [3.23077, 50.31701]]], [[[3.24276, 50.45283], [3.24195, 50.45277], [3.24383, 50.45414], [3.2444, 50.45621], [3.24594, 50.45612], [3.24692, 50.45556], [3.24561, 50.45477], [3.24529, 50.45251], [3.24276, 50.45283]]], [[[3.25939, 50.4585], [3.25909, 50.45917], [3.26047, 50.45885], [3.26083, 50.45839], [3.25996, 50.45822], [3.25939, 50.4585]]], [[[3.02784, 50.47896], [3.02783, 50.47892], [3.02776, 50.47893], [3.02784, 50.47896]]], [[[3.02585, 50.47156], [3.02447, 50.47072], [3.02317, 50.47103], [3.02344, 50.47143], [3.02585, 50.47156]]], [[[3.04554, 50.42848], [3.04554, 50.42841], [3.04522, 50.42818], [3.0451, 50.42844], [3.04554, 50.42848]]], [[[3.25578, 50.36489], [3.25625, 50.36616], [3.25127, 50.36733], [3.25364, 50.36872], [3.2547, 50.36848], [3.25765, 50.36606], [3.25743, 50.36531], [3.25578, 50.36489]]], [[[3.14323, 50.49357], [3.14532, 50.49457], [3.14637, 50.49568], [3.14722, 50.4958], [3.14332, 50.49255], [3.14323, 50.49357]]], [[[3.14173, 50.48979], [3.14191, 50.48992], [3.14182, 50.48945], [3.14179, 50.48964], [3.14173, 50.48979]]], [[[3.14666, 50.47212], [3.14605, 50.47215], [3.14488, 50.47428], [3.14645, 50.47431], [3.14709, 50.47361], [3.14798, 50.47227], [3.14666, 50.47212]]], [[[3.14589, 50.38876], [3.14588, 50.38925], [3.1465, 50.38932], [3.14634, 50.38872], [3.14589, 50.38876]]], [[[3.0868, 50.46428], [3.08523, 50.46382], [3.08368, 50.4628], [3.08337, 50.46401], [3.0857, 50.46561], [3.08706, 50.46787], [3.08879, 50.46825], [3.09014, 50.46713], [3.09206, 50.46645], [3.09165, 50.46569], [3.09071, 50.46526], [3.0868, 50.46428]]], [[[3.1076, 50.47091], [3.10872, 50.4717], [3.10996, 50.47013], [3.11168, 50.46913], [3.11148, 50.46728], [3.10583, 50.46497], [3.10598, 50.46583], [3.10777, 50.46753], [3.10832, 50.46745], [3.1076, 50.47091]]], [[[3.12505, 50.47472], [3.12768, 50.47536], [3.12963, 50.47647], [3.13053, 50.47637], [3.13133, 50.47566], [3.13153, 50.47473], [3.13086, 50.47518], [3.12936, 50.47436], [3.13069, 50.47319], [3.13195, 50.47406], [3.1336, 50.47281], [3.13451, 50.47143], [3.13259, 50.47046], [3.13138, 50.46885], [3.12808, 50.46868], [3.12789, 50.46926], [3.12702, 50.46902], [3.12734, 50.46866], [3.12493, 50.46835], [3.12505, 50.47472]]], [[[3.13695, 50.50154], [3.13766, 50.50178], [3.13838, 50.50072], [3.13704, 50.49985], [3.13548, 50.50127], [3.13695, 50.50154]]], [[[3.11229, 50.30541], [3.11227, 50.30521], [3.11198, 50.30547], [3.11231, 50.30555], [3.11229, 50.30541]]], [[[3.21186, 50.35705], [3.21209, 50.35689], [3.21038, 50.35541], [3.21109, 50.35687], [3.21186, 50.35705]]], [[[3.16042, 50.4813], [3.16044, 50.48116], [3.16031, 50.48118], [3.16042, 50.4813]]], [[[3.15726, 50.46389], [3.15873, 50.46422], [3.16099, 50.46383], [3.16336, 50.46401], [3.16679, 50.46366], [3.16501, 50.46265], [3.16339, 50.46239], [3.16066, 50.4638], [3.15726, 50.46389]]], [[[3.15569, 50.46356], [3.15602, 50.46374], [3.15645, 50.4637], [3.15627, 50.46365], [3.15569, 50.46356]]], [[[3.15343, 50.46285], [3.15371, 50.4629], [3.15349, 50.46277], [3.15343, 50.46285]]], [[[3.17896, 50.3343], [3.17955, 50.33317], [3.17892, 50.33314], [3.1782, 50.33609], [3.17902, 50.33579], [3.17896, 50.3343]]], [[[3.19307, 50.47759], [3.19217, 50.47757], [3.19259, 50.47816], [3.1936, 50.47757], [3.19307, 50.47759]]], [[[3.26668, 50.32952], [3.26634, 50.32969], [3.26778, 50.3298], [3.26773, 50.32897], [3.26668, 50.32952]]]]}, "properties": {"kind": "windland", "area_km2": 42.16}}, {"type": "Feature", "geometry": {"type": "Point", "coordinates": [3.1594, 50.36646]}, "properties": {"kind": "turbine", "i": 0, "mw": 6.0, "hub_m": 120.0, "rotor_m": 150.0}}, {"type": "Feature", "geometry": {"type": "Point", "coordinates": [3.03621, 50.40598]}, "properties": {"kind": "turbine", "i": 1, "mw": 6.0, "hub_m": 120.0, "rotor_m": 150.0}}, {"type": "Feature", "geometry": {"type": "Point", "coordinates": [3.13365, 50.34023]}, "properties": {"kind": "turbine", "i": 2, "mw": 6.0, "hub_m": 120.0, "rotor_m": 150.0}}, {"type": "Feature", "geometry": {"type": "Point", "coordinates": [3.11312, 50.33696]}, "properties": {"kind": "turbine", "i": 3, "mw": 6.0, "hub_m": 120.0, "rotor_m": 150.0}}, {"type": "Feature", "geometry": {"type": "Point", "coordinates": [3.12881, 50.4486]}, "properties": {"kind": "turbine", "i": 4, "mw": 6.0, "hub_m": 120.0, "rotor_m": 150.0}}, {"type": "Feature", "geometry": {"type": "Point", "coordinates": [3.0772, 50.33699]}, "properties": {"kind": "turbine", "i": 5, "mw": 6.0, "hub_m": 120.0, "rotor_m": 150.0}}, {"type": "Feature", "geometry": {"type": "Point", "coordinates": [3.14904, 50.33692]}, "properties": {"kind": "turbine", "i": 6, "mw": 6.0, "hub_m": 120.0, "rotor_m": 150.0}}, {"type": "Feature", "geometry": {"type": "Point", "coordinates": [3.01564, 50.38299]}, "properties": {"kind": "turbine", "i": 7, "mw": 6.0, "hub_m": 120.0, "rotor_m": 150.0}}, {"type": "Feature", "geometry": {"type": "Point", "coordinates": [3.185, 50.35001]}, "properties": {"kind": "turbine", "i": 8, "mw": 6.0, "hub_m": 120.0, "rotor_m": 150.0}}, {"type": "Feature", "geometry": {"type": "Point", "coordinates": [3.13362, 50.33037]}, "properties": {"kind": "turbine", "i": 9, "mw": 6.0, "hub_m": 120.0, "rotor_m": 150.0}}, {"type": "Feature", "geometry": {"type": "Point", "coordinates": [3.11823, 50.32711]}, "properties": {"kind": "turbine", "i": 10, "mw": 6.0, "hub_m": 120.0, "rotor_m": 150.0}}, {"type": "Feature", "geometry": {"type": "Point", "coordinates": [3.20559, 50.36311]}, "properties": {"kind": "turbine", "i": 11, "mw": 6.0, "hub_m": 120.0, "rotor_m": 150.0}}, {"type": "Feature", "geometry": {"type": "Point", "coordinates": [3.08745, 50.32713]}, "properties": {"kind": "turbine", "i": 12, "mw": 6.0, "hub_m": 120.0, "rotor_m": 150.0}}, {"type": "Feature", "geometry": {"type": "Point", "coordinates": [3.00537, 50.39285]}, "properties": {"kind": "turbine", "i": 13, "mw": 6.0, "hub_m": 120.0, "rotor_m": 150.0}}, {"type": "Feature", "geometry": {"type": "Point", "coordinates": [3.10283, 50.32384]}, "properties": {"kind": "turbine", "i": 14, "mw": 6.0, "hub_m": 120.0, "rotor_m": 150.0}}, {"type": "Feature", "geometry": {"type": "Point", "coordinates": [3.00538, 50.4027]}, "properties": {"kind": "turbine", "i": 15, "mw": 6.0, "hub_m": 120.0, "rotor_m": 150.0}}, {"type": "Feature", "geometry": {"type": "Point", "coordinates": [3.05167, 50.45194]}, "properties": {"kind": "turbine", "i": 16, "mw": 6.0, "hub_m": 120.0, "rotor_m": 150.0}}, {"type": "Feature", "geometry": {"type": "Point", "coordinates": [3.0105, 50.36001]}, "properties": {"kind": "turbine", "i": 17, "mw": 6.0, "hub_m": 120.0, "rotor_m": 150.0}}, {"type": "Feature", "geometry": {"type": "Point", "coordinates": [3.1336, 50.32052]}, "properties": {"kind": "turbine", "i": 18, "mw": 6.0, "hub_m": 120.0, "rotor_m": 150.0}}, {"type": "Feature", "geometry": {"type": "Point", "coordinates": [3.0877, 50.46506]}, "properties": {"kind": "turbine", "i": 19, "mw": 6.0, "hub_m": 120.0, "rotor_m": 150.0}}, {"type": "Feature", "geometry": {"type": "Point", "coordinates": [3.15925, 50.32377]}, "properties": {"kind": "turbine", "i": 20, "mw": 6.0, "hub_m": 120.0, "rotor_m": 150.0}}, {"type": "Feature", "geometry": {"type": "Point", "coordinates": [3.10829, 50.46833]}, "properties": {"kind": "turbine", "i": 21, "mw": 6.0, "hub_m": 120.0, "rotor_m": 150.0}}, {"type": "Feature", "geometry": {"type": "Point", "coordinates": [2.9951, 50.37971]}, "properties": {"kind": "turbine", "i": 22, "mw": 6.0, "hub_m": 120.0, "rotor_m": 150.0}}, {"type": "Feature", "geometry": {"type": "Point", "coordinates": [2.98996, 50.38956]}, "properties": {"kind": "turbine", "i": 23, "mw": 6.0, "hub_m": 120.0, "rotor_m": 150.0}}, {"type": "Feature", "geometry": {"type": "Point", "coordinates": [2.98996, 50.39941]}, "properties": {"kind": "turbine", "i": 24, "mw": 6.0, "hub_m": 120.0, "rotor_m": 150.0}}, {"type": "Feature", "geometry": {"type": "Point", "coordinates": [3.05153, 50.32387]}, "properties": {"kind": "turbine", "i": 25, "mw": 6.0, "hub_m": 120.0, "rotor_m": 150.0}}, {"type": "Feature", "geometry": {"type": "Point", "coordinates": [3.12888, 50.47159]}, "properties": {"kind": "turbine", "i": 26, "mw": 6.0, "hub_m": 120.0, "rotor_m": 150.0}}, {"type": "Feature", "geometry": {"type": "Point", "coordinates": [3.23128, 50.36634]}, "properties": {"kind": "turbine", "i": 27, "mw": 6.0, "hub_m": 120.0, "rotor_m": 150.0}}, {"type": "Feature", "geometry": {"type": "Point", "coordinates": [3.00537, 50.35015]}, "properties": {"kind": "turbine", "i": 28, "mw": 6.0, "hub_m": 120.0, "rotor_m": 150.0}}, {"type": "Feature", "geometry": {"type": "Point", "coordinates": [2.98997, 50.36329]}, "properties": {"kind": "turbine", "i": 29, "mw": 6.0, "hub_m": 120.0, "rotor_m": 150.0}}, {"type": "Feature", "geometry": {"type": "Point", "coordinates": [3.14383, 50.31066]}, "properties": {"kind": "turbine", "i": 30, "mw": 6.0, "hub_m": 120.0, "rotor_m": 150.0}}, {"type": "Feature", "geometry": {"type": "Point", "coordinates": [3.07203, 50.31072]}, "properties": {"kind": "turbine", "i": 31, "mw": 6.0, "hub_m": 120.0, "rotor_m": 150.0}}, {"type": "Feature", "geometry": {"type": "Point", "coordinates": [2.9797, 50.37642]}, "properties": {"kind": "turbine", "i": 32, "mw": 6.0, "hub_m": 120.0, "rotor_m": 150.0}}, {"type": "Feature", "geometry": {"type": "Point", "coordinates": [2.98997, 50.35344]}, "properties": {"kind": "turbine", "i": 33, "mw": 6.0, "hub_m": 120.0, "rotor_m": 150.0}}, {"type": "Feature", "geometry": {"type": "Point", "coordinates": [2.97968, 50.4224]}, "properties": {"kind": "turbine", "i": 34, "mw": 6.0, "hub_m": 120.0, "rotor_m": 150.0}}, {"type": "Feature", "geometry": {"type": "Point", "coordinates": [3.1592, 50.30735]}, "properties": {"kind": "turbine", "i": 35, "mw": 6.0, "hub_m": 120.0, "rotor_m": 150.0}}, {"type": "Feature", "geometry": {"type": "Point", "coordinates": [3.21056, 50.32698]}, "properties": {"kind": "turbine", "i": 36, "mw": 6.0, "hub_m": 120.0, "rotor_m": 150.0}}, {"type": "Feature", "geometry": {"type": "Point", "coordinates": [3.04127, 50.31402]}, "properties": {"kind": "turbine", "i": 37, "mw": 6.0, "hub_m": 120.0, "rotor_m": 150.0}}, {"type": "Feature", "geometry": {"type": "Point", "coordinates": [2.99511, 50.3403]}, "properties": {"kind": "turbine", "i": 38, "mw": 6.0, "hub_m": 120.0, "rotor_m": 150.0}}, {"type": "Feature", "geometry": {"type": "Point", "coordinates": [3.17972, 50.31061]}, "properties": {"kind": "turbine", "i": 39, "mw": 6.0, "hub_m": 120.0, "rotor_m": 150.0}}, {"type": "Feature", "geometry": {"type": "Point", "coordinates": [3.03626, 50.47165]}, "properties": {"kind": "turbine", "i": 40, "mw": 6.0, "hub_m": 120.0, "rotor_m": 150.0}}, {"type": "Feature", "geometry": {"type": "Point", "coordinates": [3.0874, 50.30086]}, "properties": {"kind": "turbine", "i": 41, "mw": 6.0, "hub_m": 120.0, "rotor_m": 150.0}}, {"type": "Feature", "geometry": {"type": "Point", "coordinates": [3.1438, 50.30081]}, "properties": {"kind": "turbine", "i": 42, "mw": 6.0, "hub_m": 120.0, "rotor_m": 150.0}}, {"type": "Feature", "geometry": {"type": "Point", "coordinates": [3.07744, 50.48477]}, "properties": {"kind": "turbine", "i": 43, "mw": 6.0, "hub_m": 120.0, "rotor_m": 150.0}}, {"type": "Feature", "geometry": {"type": "Point", "coordinates": [3.11348, 50.48802]}, "properties": {"kind": "turbine", "i": 44, "mw": 6.0, "hub_m": 120.0, "rotor_m": 150.0}}, {"type": "Feature", "geometry": {"type": "Point", "coordinates": [3.12841, 50.29754]}, "properties": {"kind": "turbine", "i": 45, "mw": 6.0, "hub_m": 120.0, "rotor_m": 150.0}}, {"type": "Feature", "geometry": {"type": "Point", "coordinates": [3.25695, 50.36629]}, "properties": {"kind": "turbine", "i": 46, "mw": 6.0, "hub_m": 120.0, "rotor_m": 150.0}}, {"type": "Feature", "geometry": {"type": "Point", "coordinates": [3.23169, 50.45173]}, "properties": {"kind": "turbine", "i": 47, "mw": 6.0, "hub_m": 120.0, "rotor_m": 150.0}}, {"type": "Feature", "geometry": {"type": "Point", "coordinates": [3.01562, 50.31731]}, "properties": {"kind": "turbine", "i": 48, "mw": 6.0, "hub_m": 120.0, "rotor_m": 150.0}}, {"type": "Feature", "geometry": {"type": "Point", "coordinates": [3.22145, 50.4616]}, "properties": {"kind": "turbine", "i": 49, "mw": 6.0, "hub_m": 120.0, "rotor_m": 150.0}}, {"type": "Feature", "geometry": {"type": "Point", "coordinates": [2.96944, 50.35672]}, "properties": {"kind": "turbine", "i": 50, "mw": 6.0, "hub_m": 120.0, "rotor_m": 150.0}}, {"type": "Feature", "geometry": {"type": "Point", "coordinates": [3.20606, 50.47148]}, "properties": {"kind": "turbine", "i": 51, "mw": 6.0, "hub_m": 120.0, "rotor_m": 150.0}}, {"type": "Feature", "geometry": {"type": "Point", "coordinates": [2.97458, 50.34687]}, "properties": {"kind": "turbine", "i": 52, "mw": 6.0, "hub_m": 120.0, "rotor_m": 150.0}}, {"type": "Feature", "geometry": {"type": "Point", "coordinates": [3.19509, 50.3073]}, "properties": {"kind": "turbine", "i": 53, "mw": 6.0, "hub_m": 120.0, "rotor_m": 150.0}}, {"type": "Feature", "geometry": {"type": "Point", "coordinates": [2.95916, 50.36985]}, "properties": {"kind": "turbine", "i": 54, "mw": 6.0, "hub_m": 120.0, "rotor_m": 150.0}}, {"type": "Feature", "geometry": {"type": "Point", "coordinates": [2.954, 50.39612]}, "properties": {"kind": "turbine", "i": 55, "mw": 6.0, "hub_m": 120.0, "rotor_m": 150.0}}, {"type": "Feature", "geometry": {"type": "Point", "coordinates": [3.18038, 50.48466]}, "properties": {"kind": "turbine", "i": 56, "mw": 6.0, "hub_m": 120.0, "rotor_m": 150.0}}, {"type": "Feature", "geometry": {"type": "Point", "coordinates": [3.00024, 50.3206]}, "properties": {"kind": "turbine", "i": 57, "mw": 6.0, "hub_m": 120.0, "rotor_m": 150.0}}, {"type": "Feature", "geometry": {"type": "Point", "coordinates": [3.16942, 50.29749]}, "properties": {"kind": "turbine", "i": 58, "mw": 6.0, "hub_m": 120.0, "rotor_m": 150.0}}, {"type": "Feature", "geometry": {"type": "Point", "coordinates": [3.09763, 50.291]}, "properties": {"kind": "turbine", "i": 59, "mw": 6.0, "hub_m": 120.0, "rotor_m": 150.0}}, {"type": "Feature", "geometry": {"type": "Point", "coordinates": [2.95402, 50.3797]}, "properties": {"kind": "turbine", "i": 60, "mw": 6.0, "hub_m": 120.0, "rotor_m": 150.0}}, {"type": "Feature", "geometry": {"type": "Point", "coordinates": [3.21563, 50.31383]}, "properties": {"kind": "turbine", "i": 61, "mw": 6.0, "hub_m": 120.0, "rotor_m": 150.0}}, {"type": "Feature", "geometry": {"type": "Point", "coordinates": [3.113, 50.2877]}, "properties": {"kind": "turbine", "i": 62, "mw": 6.0, "hub_m": 120.0, "rotor_m": 150.0}}, {"type": "Feature", "geometry": {"type": "Point", "coordinates": [3.04212, 50.29726]}, "properties": {"kind": "turbine", "i": 63, "mw": 6.0, "hub_m": 120.0, "rotor_m": 150.0}}, {"type": "Feature", "geometry": {"type": "Point", "coordinates": [3.13351, 50.28768]}, "properties": {"kind": "turbine", "i": 64, "mw": 6.0, "hub_m": 120.0, "rotor_m": 150.0}}, {"type": "Feature", "geometry": {"type": "Point", "coordinates": [3.08225, 50.28773]}, "properties": {"kind": "turbine", "i": 65, "mw": 6.0, "hub_m": 120.0, "rotor_m": 150.0}}, {"type": "Feature", "geometry": {"type": "Point", "coordinates": [3.05662, 50.29103]}, "properties": {"kind": "turbine", "i": 66, "mw": 6.0, "hub_m": 120.0, "rotor_m": 150.0}}, {"type": "Feature", "geometry": {"type": "Point", "coordinates": [3.05687, 50.49463]}, "properties": {"kind": "turbine", "i": 67, "mw": 6.0, "hub_m": 120.0, "rotor_m": 150.0}}, {"type": "Feature", "geometry": {"type": "Point", "coordinates": [3.00024, 50.31075]}, "properties": {"kind": "turbine", "i": 68, "mw": 6.0, "hub_m": 120.0, "rotor_m": 150.0}}, {"type": "Feature", "geometry": {"type": "Point", "coordinates": [2.95404, 50.35015]}, "properties": {"kind": "turbine", "i": 69, "mw": 6.0, "hub_m": 120.0, "rotor_m": 150.0}}, {"type": "Feature", "geometry": {"type": "Point", "coordinates": [3.18991, 50.29417]}, "properties": {"kind": "turbine", "i": 70, "mw": 6.0, "hub_m": 120.0, "rotor_m": 150.0}}, {"type": "Feature", "geometry": {"type": "Point", "coordinates": [3.16939, 50.28764]}, "properties": {"kind": "turbine", "i": 71, "mw": 6.0, "hub_m": 120.0, "rotor_m": 150.0}}, {"type": "Feature", "geometry": {"type": "Point", "coordinates": [2.95919, 50.3403]}, "properties": {"kind": "turbine", "i": 72, "mw": 6.0, "hub_m": 120.0, "rotor_m": 150.0}}, {"type": "Feature", "geometry": {"type": "Point", "coordinates": [3.23615, 50.31379]}, "properties": {"kind": "turbine", "i": 73, "mw": 6.0, "hub_m": 120.0, "rotor_m": 150.0}}, {"type": "Feature", "geometry": {"type": "Point", "coordinates": [3.02074, 50.29761]}, "properties": {"kind": "turbine", "i": 74, "mw": 6.0, "hub_m": 120.0, "rotor_m": 150.0}}, {"type": "Feature", "geometry": {"type": "Point", "coordinates": [2.96423, 50.45195]}, "properties": {"kind": "turbine", "i": 75, "mw": 6.0, "hub_m": 120.0, "rotor_m": 150.0}}, {"type": "Feature", "geometry": {"type": "Point", "coordinates": [2.95396, 50.4421]}, "properties": {"kind": "turbine", "i": 76, "mw": 6.0, "hub_m": 120.0, "rotor_m": 150.0}}, {"type": "Feature", "geometry": {"type": "Point", "coordinates": [2.96432, 50.33045]}, "properties": {"kind": "turbine", "i": 77, "mw": 6.0, "hub_m": 120.0, "rotor_m": 150.0}}]}