{"type": "FeatureCollection", "features": [{"type": "Feature", "geometry": {"type": "MultiPolygon", "coordinates": [[[[-77.17392, 37.1489], [-77.18035, 37.1508], [-77.17932, 37.15164], [-77.17827, 37.15072], [-77.17696, 37.15026], [-77.17564, 37.15031], [-77.17452, 37.15078], [-77.17355, 37.1518], [-77.17322, 37.15304], [-77.17456, 37.1555], [-77.17407, 37.15589], [-77.17327, 37.15479], [-77.17193, 37.15425], [-77.16953, 37.15472], [-77.16804, 37.15629], [-77.16834, 37.1589], [-77.16607, 37.15991], [-77.16411, 37.15894], [-77.16157, 37.15895], [-77.15933, 37.16019], [-77.15838, 37.16201], [-77.15692, 37.16231], [-77.1537, 37.16205], [-77.15129, 37.16328], [-77.1493, 37.16304], [-77.14683, 37.16345], [-77.14477, 37.16266], [-77.14247, 37.1628], [-77.14099, 37.16348], [-77.13995, 37.16453], [-77.13757, 37.16523], [-77.13446, 37.168], [-77.13333, 37.16823], [-77.13203, 37.16539], [-77.13412, 37.16333], [-77.13471, 37.16135], [-77.13402, 37.15843], [-77.13267, 37.15675], [-77.13723, 37.15374], [-77.14081, 37.15194], [-77.14855, 37.14921], [-77.1568, 37.14773], [-77.16525, 37.14758], [-77.17392, 37.1489]]], [[[-77.12557, 37.16402], [-77.12524, 37.16425], [-77.12504, 37.16426], [-77.12541, 37.16374], [-77.12557, 37.16402]]], [[[-77.18849, 37.18461], [-77.18993, 37.18501], [-77.18975, 37.18523], [-77.18716, 37.18489], [-77.1811, 37.18608], [-77.17849, 37.1855], [-77.17575, 37.18588], [-77.17818, 37.18365], [-77.17813, 37.18081], [-77.17526, 37.17798], [-77.17348, 37.17718], [-77.17207, 37.17712], [-77.16972, 37.17773], [-77.16837, 37.17854], [-77.16729, 37.18012], [-77.16698, 37.18146], [-77.16757, 37.1832], [-77.17026, 37.18595], [-77.17222, 37.18661], [-77.17481, 37.18634], [-77.1717, 37.18755], [-77.1704, 37.18722], [-77.16936, 37.18624], [-77.16784, 37.18561], [-77.16348, 37.18549], [-77.16305, 37.18366], [-77.16169, 37.18233], [-77.16082, 37.18057], [-77.15823, 37.17915], [-77.15762, 37.17845], [-77.15821, 37.17655], [-77.15734, 37.17455], [-77.15866, 37.17326], [-77.16038, 37.17273], [-77.16174, 37.17178], [-77.16221, 37.17214], [-77.16223, 37.17335], [-77.16287, 37.17462], [-77.1638, 37.17546], [-77.1653, 37.17611], [-77.16785, 37.17613], [-77.17204, 37.1743], [-77.17309, 37.17295], [-77.17331, 37.17125], [-77.17215, 37.16923], [-77.16975, 37.16772], [-77.17019, 37.16608], [-77.16949, 37.16281], [-77.1758, 37.1599], [-77.18218, 37.15482], [-77.18439, 37.15473], [-77.18601, 37.15337], [-77.19179, 37.15704], [-77.1947, 37.1595], [-77.19819, 37.16329], [-77.19588, 37.16524], [-77.19342, 37.16567], [-77.19126, 37.16766], [-77.191, 37.16898], [-77.19161, 37.17093], [-77.19001, 37.17312], [-77.18983, 37.17448], [-77.18908, 37.17534], [-77.18868, 37.17681], [-77.18921, 37.17815], [-77.19143, 37.17914], [-77.1914, 37.17977], [-77.18978, 37.18206], [-77.18956, 37.18405], [-77.18879, 37.18402], [-77.18824, 37.18447], [-77.18849, 37.18461]]], [[[-77.20242, 37.17016], [-77.19959, 37.17016], [-77.19776, 37.17084], [-77.19811, 37.16984], [-77.19966, 37.16921], [-77.20108, 37.16977], [-77.20227, 37.16975], [-77.20242, 37.17016]]], [[[-77.12238, 37.1922], [-77.12099, 37.19272], [-77.11931, 37.18682], [-77.12141, 37.18702], [-77.12313, 37.18658], [-77.12472, 37.18767], [-77.12661, 37.18804], [-77.12413, 37.18988], [-77.12238, 37.1922]]], [[[-77.14259, 37.17919], [-77.14268, 37.17917], [-77.14268, 37.17918], [-77.14259, 37.17919]]], [[[-77.1468, 37.17998], [-77.14654, 37.17982], [-77.14652, 37.17937], [-77.1468, 37.17998]]], [[[-77.14711, 37.17982], [-77.14703, 37.18003], [-77.14677, 37.17929], [-77.14705, 37.17915], [-77.14711, 37.17982]]], [[[-77.152, 37.20706], [-77.15131, 37.20697], [-77.15168, 37.20616], [-77.15291, 37.20613], [-77.15312, 37.20506], [-77.15466, 37.20538], [-77.15523, 37.20618], [-77.15644, 37.20613], [-77.15741, 37.20661], [-77.1572, 37.20738], [-77.15609, 37.20762], [-77.15596, 37.20842], [-77.15528, 37.20879], [-77.15332, 37.20739], [-77.152, 37.20706]]], [[[-77.15527, 37.21112], [-77.15563, 37.21007], [-77.1558, 37.21146], [-77.1563, 37.21188], [-77.15704, 37.21119], [-77.1571, 37.21008], [-77.15776, 37.2089], [-77.16057, 37.20882], [-77.16004, 37.20953], [-77.15754, 37.20982], [-77.15766, 37.21007], [-77.15906, 37.21], [-77.15842, 37.21066], [-77.15839, 37.21157], [-77.15884, 37.21204], [-77.15726, 37.21204], [-77.15795, 37.21286], [-77.15787, 37.21362], [-77.15711, 37.21349], [-77.15713, 37.21295], [-77.15487, 37.21273], [-77.15527, 37.21112]]], [[[-77.13823, 37.1828], [-77.1378, 37.18253], [-77.13773, 37.18185], [-77.13922, 37.18174], [-77.13908, 37.18275], [-77.13823, 37.1828]]], [[[-77.1393, 37.18135], [-77.13931, 37.18149], [-77.13879, 37.18094], [-77.1392, 37.18108], [-77.1393, 37.18135]]], [[[-77.13997, 37.1805], [-77.13969, 37.18083], [-77.13897, 37.18072], [-77.1396, 37.17963], [-77.14037, 37.17937], [-77.14119, 37.17963], [-77.13997, 37.1805]]], [[[-77.14204, 37.17931], [-77.14162, 37.17944], [-77.14157, 37.17934], [-77.14218, 37.17927], [-77.14204, 37.17931]]]]}, "properties": {"kind": "windland", "area_km2": 11.45}}, {"type": "Feature", "geometry": {"type": "MultiPolygon", "coordinates": [[[[-77.17264, 37.1737], [-77.17134, 37.17476], [-77.16963, 37.17531], [-77.16865, 37.17587], [-77.16743, 37.17621], [-77.16614, 37.17625], [-77.1649, 37.17599], [-77.16348, 37.17523], [-77.16265, 37.17432], [-77.16217, 37.173], [-77.16593, 37.17294], [-77.1666, 37.17331], [-77.16733, 37.17291], [-77.17287, 37.17281], [-77.17289, 37.17333], [-77.17264, 37.1737]]], [[[-77.167, 37.18112], [-77.16765, 37.17942], [-77.16867, 37.1783], [-77.17011, 37.17759], [-77.17207, 37.17712], [-77.173, 37.17709], [-77.17306, 37.17917], [-77.17257, 37.17892], [-77.17198, 37.17934], [-77.17204, 37.1804], [-77.17118, 37.18049], [-77.17068, 37.18142], [-77.17088, 37.18185], [-77.17135, 37.18205], [-77.17197, 37.18187], [-77.17225, 37.18131], [-77.17312, 37.18149], [-77.17315, 37.18255], [-77.17259, 37.18258], [-77.17226, 37.18285], [-77.17102, 37.18287], [-77.17067, 37.18336], [-77.17097, 37.18363], [-77.17146, 37.18337], [-77.17228, 37.18339], [-77.17266, 37.18366], [-77.17319, 37.18367], [-77.17327, 37.18665], [-77.17139, 37.18644], [-77.16962, 37.18549], [-77.16738, 37.1829], [-77.16708, 37.18215], [-77.167, 37.18112]]], [[[-77.17307, 37.17948], [-77.17307, 37.17954], [-77.17306, 37.17954], [-77.17307, 37.17948]]], [[[-77.1626, 37.18308], [-77.16335, 37.18431], [-77.16348, 37.18549], [-77.16652, 37.18546], [-77.16784, 37.18561], [-77.16936, 37.18624], [-77.1704, 37.18722], [-77.1717, 37.18755], [-77.17328, 37.18682], [-77.17337, 37.19013], [-77.17235, 37.19048], [-77.17149, 37.19052], [-77.16685, 37.18954], [-77.16721, 37.18929], [-77.16729, 37.18892], [-77.16709, 37.18859], [-77.16667, 37.18843], [-77.16595, 37.18872], [-77.16605, 37.1894], [-77.16545, 37.1893], [-77.16541, 37.18871], [-77.16485, 37.1884], [-77.16413, 37.18872], [-77.16323, 37.18847], [-77.16267, 37.189], [-77.16207, 37.18899], [-77.16189, 37.18247], [-77.1626, 37.18308]]], [[[-77.16306, 37.18958], [-77.16242, 37.18966], [-77.1621, 37.18987], [-77.16209, 37.18953], [-77.16306, 37.18958]]], [[[-77.16799, 37.19031], [-77.16826, 37.19036], [-77.16799, 37.19048], [-77.16799, 37.19031]]], [[[-77.16697, 37.19082], [-77.16687, 37.19061], [-77.16731, 37.19072], [-77.16731, 37.19094], [-77.16697, 37.19094], [-77.16697, 37.19082]]]]}, "properties": {"kind": "pv", "area_km2": 1.05, "mw": 52.4}}, {"type": "Feature", "geometry": {"type": "Point", "coordinates": [-77.16083, 37.17567]}, "properties": {"kind": "turbine", "i": 0, "mw": 6.0, "hub_m": 120.0, "rotor_m": 150.0}}, {"type": "Feature", "geometry": {"type": "Point", "coordinates": [-77.17756, 37.18524]}, "properties": {"kind": "turbine", "i": 1, "mw": 6.0, "hub_m": 120.0, "rotor_m": 150.0}}, {"type": "Feature", "geometry": {"type": "Point", "coordinates": [-77.17718, 37.17208]}, "properties": {"kind": "turbine", "i": 2, "mw": 6.0, "hub_m": 120.0, "rotor_m": 150.0}}, {"type": "Feature", "geometry": {"type": "Point", "coordinates": [-77.17279, 37.16229]}, "properties": {"kind": "turbine", "i": 3, "mw": 6.0, "hub_m": 120.0, "rotor_m": 150.0}}, {"type": "Feature", "geometry": {"type": "Point", "coordinates": [-77.1898, 37.18172]}, "properties": {"kind": "turbine", "i": 4, "mw": 6.0, "hub_m": 120.0, "rotor_m": 150.0}}, {"type": "Feature", "geometry": {"type": "Point", "coordinates": [-77.15345, 37.20543]}, "properties": {"kind": "turbine", "i": 5, "mw": 6.0, "hub_m": 120.0, "rotor_m": 150.0}}, {"type": "Feature", "geometry": {"type": "Point", "coordinates": [-77.18942, 37.16857]}, "properties": {"kind": "turbine", "i": 6, "mw": 6.0, "hub_m": 120.0, "rotor_m": 150.0}}, {"type": "Feature", "geometry": {"type": "Point", "coordinates": [-77.13589, 37.16625]}, "properties": {"kind": "turbine", "i": 7, "mw": 6.0, "hub_m": 120.0, "rotor_m": 150.0}}, {"type": "Feature", "geometry": {"type": "Point", "coordinates": [-77.14383, 37.15624]}, "properties": {"kind": "turbine", "i": 8, "mw": 6.0, "hub_m": 120.0, "rotor_m": 150.0}}]}