{"type": "FeatureCollection", "features": [{"type": "Feature", "geometry": {"type": "MultiPolygon", "coordinates": [[[[-96.35188, 42.32437], [-96.35135, 42.31007], [-96.35519, 42.30928], [-96.35608, 42.3215], [-96.35188, 42.32437]]], [[[-96.3898, 42.32499], [-96.38653, 42.32329], [-96.38213, 42.32016], [-96.38024, 42.3183], [-96.37958, 42.31717], [-96.37641, 42.31403], [-96.37601, 42.31297], [-96.37419, 42.31084], [-96.37335, 42.30835], [-96.37642, 42.30921], [-96.38114, 42.31122], [-96.38701, 42.31542], [-96.39098, 42.3207], [-96.39262, 42.32598], [-96.3898, 42.32499]]], [[[-96.36711, 42.34338], [-96.3667, 42.3423], [-96.36552, 42.34147], [-96.37143, 42.34167], [-96.37361, 42.34226], [-96.38116, 42.34226], [-96.38606, 42.34059], [-96.38696, 42.34059], [-96.38403, 42.34302], [-96.37972, 42.34549], [-96.37484, 42.34728], [-96.36958, 42.34834], [-96.36729, 42.34853], [-96.36711, 42.34338]]], [[[-96.38864, 42.33119], [-96.39035, 42.3318], [-96.39197, 42.33292], [-96.39033, 42.33647], [-96.38866, 42.33877], [-96.38864, 42.33119]]], [[[-96.36468, 42.34124], [-96.35846, 42.34204], [-96.35471, 42.34413], [-96.35469, 42.33907], [-96.36014, 42.33842], [-96.36468, 42.34124]]], [[[-96.37013, 42.33389], [-96.37023, 42.33413], [-96.36815, 42.33495], [-96.3653, 42.33536], [-96.36633, 42.33387], [-96.36563, 42.33235], [-96.3645, 42.33177], [-96.36217, 42.33144], [-96.36043, 42.33095], [-96.36374, 42.33104], [-96.36598, 42.33044], [-96.36763, 42.32934], [-96.37182, 42.3287], [-96.37423, 42.32837], [-96.37498, 42.32836], [-96.37363, 42.32854], [-96.37351, 42.32993], [-96.37185, 42.33009], [-96.37049, 42.33096], [-96.37003, 42.33195], [-96.37013, 42.33389]]], [[[-96.3715, 42.31923], [-96.37198, 42.31977], [-96.36912, 42.32165], [-96.37016, 42.32238], [-96.36703, 42.32442], [-96.3655, 42.32363], [-96.36682, 42.32228], [-96.36628, 42.32052], [-96.36467, 42.31976], [-96.36155, 42.31969], [-96.36144, 42.31212], [-96.3651, 42.31152], [-96.36629, 42.31077], [-96.36749, 42.31333], [-96.36631, 42.31388], [-96.36566, 42.31473], [-96.36345, 42.31515], [-96.36346, 42.3163], [-96.36244, 42.3169], [-96.36302, 42.31735], [-96.36572, 42.31687], [-96.36648, 42.31777], [-96.36796, 42.31831], [-96.37044, 42.31794], [-96.3715, 42.31923]]], [[[-96.36011, 42.33084], [-96.36014, 42.33085], [-96.36041, 42.33094], [-96.36021, 42.33088], [-96.36011, 42.33084]]], [[[-96.34697, 42.33211], [-96.34705, 42.33759], [-96.34741, 42.34393], [-96.34475, 42.34212], [-96.34143, 42.33891], [-96.33901, 42.33529], [-96.3378, 42.33211], [-96.34697, 42.33211]]], [[[-96.34685, 42.32825], [-96.33725, 42.32825], [-96.33724, 42.32724], [-96.34323, 42.32519], [-96.34657, 42.32215], [-96.34685, 42.32825]]]]}, "properties": {"kind": "windland", "area_km2": 4.41}}, {"type": "Feature", "geometry": {"type": "Point", "coordinates": [-96.36818, 42.33152]}, "properties": {"kind": "turbine", "i": 0, "mw": 6.0, "hub_m": 120.0, "rotor_m": 150.0}}, {"type": "Feature", "geometry": {"type": "Point", "coordinates": [-96.36859, 42.32167]}, "properties": {"kind": "turbine", "i": 1, "mw": 6.0, "hub_m": 120.0, "rotor_m": 150.0}}, {"type": "Feature", "geometry": {"type": "Point", "coordinates": [-96.35531, 42.32136]}, "properties": {"kind": "turbine", "i": 2, "mw": 6.0, "hub_m": 120.0, "rotor_m": 150.0}}, {"type": "Feature", "geometry": {"type": "Point", "coordinates": [-96.35891, 42.34117]}, "properties": {"kind": "turbine", "i": 3, "mw": 6.0, "hub_m": 120.0, "rotor_m": 150.0}}, {"type": "Feature", "geometry": {"type": "Point", "coordinates": [-96.38201, 42.31869]}, "properties": {"kind": "turbine", "i": 4, "mw": 6.0, "hub_m": 120.0, "rotor_m": 150.0}}]}