{"type": "FeatureCollection", "features": [{"type": "Feature", "geometry": {"type": "MultiPolygon", "coordinates": [[[[-96.29235, 42.31268], [-96.29678, 42.31043], [-96.29745, 42.31043], [-96.29771, 42.32019], [-96.29235, 42.31268]]], [[[-96.30665, 42.33213], [-96.30779, 42.33213], [-96.30783, 42.33373], [-96.30665, 42.33216], [-96.30665, 42.33213]]], [[[-96.31316, 42.33942], [-96.313, 42.33226], [-96.31765, 42.33382], [-96.31783, 42.33509], [-96.31852, 42.33587], [-96.31963, 42.33632], [-96.32088, 42.33633], [-96.32249, 42.33726], [-96.32727, 42.34433], [-96.32773, 42.34589], [-96.32808, 42.36057], [-96.31319, 42.34086], [-96.31316, 42.33942]]], [[[-96.33521, 42.36848], [-96.34528, 42.36864], [-96.34635, 42.36994], [-96.34516, 42.37276], [-96.34534, 42.37533], [-96.34812, 42.3805], [-96.35065, 42.38265], [-96.34697, 42.38299], [-96.34465, 42.38274], [-96.33392, 42.36846], [-96.33521, 42.36848]]], [[[-96.35726, 42.37323], [-96.35698, 42.37292], [-96.3583, 42.37258], [-96.35829, 42.37305], [-96.35726, 42.37323]]], [[[-96.35604, 42.36392], [-96.35314, 42.36439], [-96.35294, 42.35296], [-96.35507, 42.35335], [-96.35686, 42.35244], [-96.35731, 42.35371], [-96.35761, 42.36366], [-96.35604, 42.36392]]], [[[-96.35188, 42.32437], [-96.35134, 42.30986], [-96.35519, 42.30928], [-96.35608, 42.3215], [-96.35188, 42.32437]]], [[[-96.34647, 42.29917], [-96.34366, 42.29911], [-96.34416, 42.29668], [-96.34969, 42.29344], [-96.35698, 42.29523], [-96.35514, 42.29617], [-96.35253, 42.29593], [-96.34984, 42.29648], [-96.34826, 42.29733], [-96.34647, 42.29917]]], [[[-96.33861, 42.29907], [-96.33823, 42.29907], [-96.33831, 42.29552], [-96.34612, 42.29111], [-96.3503, 42.29205], [-96.34324, 42.29625], [-96.34267, 42.2991], [-96.33861, 42.29907]]], [[[-96.33401, 42.29904], [-96.33141, 42.29902], [-96.33127, 42.29404], [-96.33956, 42.28853], [-96.3405, 42.28746], [-96.34509, 42.28915], [-96.33519, 42.29479], [-96.33509, 42.29905], [-96.33401, 42.29904]]], [[[-96.33275, 42.28233], [-96.33275, 42.28385], [-96.33478, 42.28653], [-96.32636, 42.2924], [-96.32621, 42.29905], [-96.3121, 42.29925], [-96.31202, 42.28842], [-96.32214, 42.28834], [-96.32366, 42.28769], [-96.32428, 42.28648], [-96.32355, 42.2851], [-96.32191, 42.2845], [-96.31197, 42.28456], [-96.31179, 42.27417], [-96.32154, 42.26958], [-96.32211, 42.27275], [-96.32551, 42.27861], [-96.33275, 42.28233]]], [[[-96.41868, 42.27999], [-96.41799, 42.2805], [-96.41667, 42.28051], [-96.41419, 42.2821], [-96.41477, 42.28261], [-96.41439, 42.28324], [-96.41484, 42.28336], [-96.41581, 42.28266], [-96.41758, 42.28444], [-96.41791, 42.28408], [-96.41675, 42.28148], [-96.41789, 42.28196], [-96.41805, 42.28237], [-96.41838, 42.2825], [-96.41848, 42.28223], [-96.41949, 42.28276], [-96.41953, 42.28329], [-96.42101, 42.28244], [-96.42118, 42.28456], [-96.42167, 42.2854], [-96.42132, 42.2854], [-96.42161, 42.28622], [-96.42106, 42.28652], [-96.42197, 42.28709], [-96.42207, 42.28765], [-96.42159, 42.28771], [-96.42118, 42.28721], [-96.42042, 42.28754], [-96.42013, 42.2861], [-96.41954, 42.2861], [-96.41969, 42.2856], [-96.41921, 42.28547], [-96.41812, 42.28625], [-96.41843, 42.28694], [-96.41798, 42.2874], [-96.41869, 42.28759], [-96.41867, 42.2879], [-96.41773, 42.28812], [-96.41714, 42.28881], [-96.42009, 42.28908], [-96.41784, 42.28967], [-96.41892, 42.28992], [-96.41879, 42.29032], [-96.42022, 42.2899], [-96.42024, 42.29079], [-96.41836, 42.29058], [-96.41602, 42.28901], [-96.41606, 42.29348], [-96.41865, 42.29431], [-96.41882, 42.29363], [-96.42141, 42.29523], [-96.42594, 42.29636], [-96.42617, 42.29529], [-96.42704, 42.29611], [-96.42665, 42.29505], [-96.42771, 42.29696], [-96.42893, 42.29768], [-96.42072, 42.29573], [-96.41371, 42.29315], [-96.41374, 42.29265], [-96.41497, 42.29309], [-96.41463, 42.29026], [-96.41505, 42.29024], [-96.41504, 42.28968], [-96.41451, 42.28753], [-96.41502, 42.2878], [-96.41437, 42.28632], [-96.41261, 42.28723], [-96.41137, 42.28716], [-96.40995, 42.28826], [-96.40908, 42.28845], [-96.40842, 42.28926], [-96.40925, 42.28777], [-96.41085, 42.28664], [-96.41136, 42.28537], [-96.41011, 42.28405], [-96.40816, 42.28333], [-96.40955, 42.2831], [-96.40959, 42.28264], [-96.40648, 42.28235], [-96.40713, 42.28185], [-96.40871, 42.2816], [-96.40794, 42.28106], [-96.40783, 42.28041], [-96.40722, 42.28027], [-96.4052, 42.28093], [-96.4051, 42.28218], [-96.40392, 42.28245], [-96.40322, 42.2822], [-96.40338, 42.28126], [-96.40259, 42.28135], [-96.4024, 42.2808], [-96.40423, 42.2809], [-96.40455, 42.2806], [-96.40431, 42.27946], [-96.40193, 42.27945], [-96.40172, 42.27897], [-96.39992, 42.27983], [-96.39991, 42.27914], [-96.39687, 42.27874], [-96.39692, 42.27772], [-96.39767, 42.27736], [-96.39967, 42.27835], [-96.39808, 42.27709], [-96.39937, 42.27726], [-96.39964, 42.27709], [-96.39887, 42.27675], [-96.39945, 42.27677], [-96.40187, 42.27775], [-96.40172, 42.27673], [-96.4024, 42.27676], [-96.40249, 42.27732], [-96.403, 42.27666], [-96.40345, 42.27664], [-96.40378, 42.27875], [-96.40419, 42.27865], [-96.40458, 42.27691], [-96.40573, 42.27673], [-96.40506, 42.27835], [-96.40515, 42.27889], [-96.40584, 42.2789], [-96.40598, 42.27957], [-96.40669, 42.27945], [-96.407, 42.27894], [-96.40636, 42.27819], [-96.40667, 42.27799], [-96.40647, 42.27714], [-96.40761, 42.27666], [-96.40805, 42.27691], [-96.40826, 42.27653], [-96.40967, 42.27666], [-96.41023, 42.27824], [-96.40924, 42.27917], [-96.40971, 42.27928], [-96.41037, 42.28072], [-96.41109, 42.27982], [-96.41105, 42.27794], [-96.41064, 42.27764], [-96.41109, 42.27664], [-96.4133, 42.27752], [-96.41385, 42.27679], [-96.41552, 42.2766], [-96.41841, 42.27907], [-96.41904, 42.2789], [-96.41902, 42.27831], [-96.41704, 42.27678], [-96.41854, 42.2768], [-96.4191, 42.27735], [-96.41946, 42.27673], [-96.42039, 42.27695], [-96.42062, 42.27767], [-96.4199, 42.27795], [-96.42011, 42.2782], [-96.4228, 42.27684], [-96.42036, 42.2784], [-96.42133, 42.27947], [-96.42247, 42.27872], [-96.42261, 42.27909], [-96.42102, 42.28107], [-96.42054, 42.28092], [-96.42069, 42.27907], [-96.4201, 42.27853], [-96.41918, 42.27913], [-96.41916, 42.28034], [-96.41868, 42.27999]], [[-96.41916, 42.27831], [-96.4192, 42.27871], [-96.41993, 42.27823], [-96.41949, 42.27787], [-96.41916, 42.27831]], [[-96.41587, 42.27981], [-96.4151, 42.27837], [-96.4154, 42.27808], [-96.41504, 42.27779], [-96.41381, 42.27803], [-96.41367, 42.2775], [-96.41321, 42.27787], [-96.41347, 42.27921], [-96.41232, 42.28018], [-96.41302, 42.28156], [-96.41405, 42.28185], [-96.41738, 42.27968], [-96.41587, 42.27981]], [[-96.41604, 42.28713], [-96.4162, 42.28658], [-96.416, 42.28633], [-96.41538, 42.28649], [-96.41549, 42.28776], [-96.41604, 42.28713]]], [[[-96.41898, 42.28118], [-96.42098, 42.28135], [-96.42099, 42.28222], [-96.42003, 42.28205], [-96.42011, 42.28154], [-96.41853, 42.28119], [-96.41916, 42.28034], [-96.41898, 42.28118]]], [[[-96.40769, 42.29005], [-96.39671, 42.28995], [-96.39669, 42.28627], [-96.39746, 42.28623], [-96.40332, 42.28841], [-96.40506, 42.28734], [-96.40588, 42.28774], [-96.40512, 42.28762], [-96.4036, 42.28849], [-96.40769, 42.29005]]], [[[-96.38684, 42.28275], [-96.3869, 42.28064], [-96.39051, 42.28275], [-96.38684, 42.28275]]], [[[-96.38138, 42.27338], [-96.38327, 42.27306], [-96.38493, 42.27348], [-96.38598, 42.27288], [-96.38539, 42.27362], [-96.38749, 42.27397], [-96.38803, 42.2737], [-96.38838, 42.27397], [-96.38608, 42.27412], [-96.38449, 42.27367], [-96.38278, 42.274], [-96.38186, 42.2738], [-96.38205, 42.27442], [-96.38165, 42.2747], [-96.38073, 42.27401], [-96.3802, 42.27408], [-96.38068, 42.27444], [-96.37989, 42.27445], [-96.37982, 42.27408], [-96.37848, 42.27436], [-96.37774, 42.2767], [-96.37843, 42.27769], [-96.38171, 42.27982], [-96.3816, 42.28462], [-96.38248, 42.28605], [-96.38414, 42.28661], [-96.39149, 42.28661], [-96.39156, 42.29198], [-96.39263, 42.29339], [-96.39434, 42.29382], [-96.40849, 42.29394], [-96.40913, 42.29544], [-96.41033, 42.29636], [-96.41465, 42.29761], [-96.41874, 42.2993], [-96.42687, 42.30123], [-96.4285, 42.30217], [-96.43272, 42.30366], [-96.4376, 42.30433], [-96.43857, 42.30482], [-96.42768, 42.30499], [-96.4259, 42.30633], [-96.42569, 42.30855], [-96.41006, 42.30832], [-96.40683, 42.30266], [-96.40572, 42.3016], [-96.40348, 42.30111], [-96.39929, 42.30209], [-96.39742, 42.2965], [-96.39629, 42.29514], [-96.39436, 42.29456], [-96.38811, 42.29498], [-96.38684, 42.29611], [-96.38702, 42.29759], [-96.38903, 42.29868], [-96.39263, 42.29847], [-96.39541, 42.30531], [-96.39699, 42.30615], [-96.3984, 42.30634], [-96.40274, 42.30531], [-96.4049, 42.30892], [-96.40527, 42.31094], [-96.40621, 42.31177], [-96.40753, 42.31213], [-96.42826, 42.31241], [-96.42955, 42.31203], [-96.43049, 42.31127], [-96.43089, 42.3087], [-96.44034, 42.30868], [-96.44052, 42.31338], [-96.44132, 42.31444], [-96.44337, 42.31569], [-96.44498, 42.31955], [-96.43318, 42.31965], [-96.43196, 42.3199], [-96.43059, 42.32145], [-96.43072, 42.3258], [-96.43182, 42.32703], [-96.43377, 42.32732], [-96.43492, 42.32692], [-96.43567, 42.32616], [-96.43584, 42.32346], [-96.44552, 42.32341], [-96.44574, 42.32688], [-96.43002, 42.32926], [-96.42384, 42.32914], [-96.41604, 42.33083], [-96.41306, 42.33094], [-96.41007, 42.33213], [-96.40886, 42.33199], [-96.40643, 42.33237], [-96.40255, 42.33011], [-96.40377, 42.32907], [-96.40419, 42.32764], [-96.40375, 42.32636], [-96.40228, 42.32528], [-96.40064, 42.3249], [-96.39861, 42.32527], [-96.39695, 42.32614], [-96.39614, 42.3273], [-96.3898, 42.32499], [-96.38653, 42.32329], [-96.38213, 42.32016], [-96.37641, 42.31403], [-96.37601, 42.31297], [-96.37419, 42.31084], [-96.3736, 42.30875], [-96.37281, 42.30768], [-96.37261, 42.30145], [-96.37319, 42.29808], [-96.37203, 42.28968], [-96.3675, 42.28184], [-96.36234, 42.27662], [-96.36418, 42.27642], [-96.36385, 42.27591], [-96.36469, 42.27619], [-96.36498, 42.27394], [-96.35859, 42.27393], [-96.35296, 42.27087], [-96.34645, 42.26829], [-96.34247, 42.26554], [-96.34133, 42.2643], [-96.3418, 42.26345], [-96.3482, 42.26266], [-96.34757, 42.26251], [-96.35019, 42.26209], [-96.35992, 42.26132], [-96.35936, 42.26177], [-96.35965, 42.26266], [-96.36086, 42.26189], [-96.36086, 42.2613], [-96.36409, 42.26126], [-96.36298, 42.26268], [-96.36613, 42.26291], [-96.36741, 42.26459], [-96.36903, 42.26828], [-96.37155, 42.27062], [-96.3773, 42.27316], [-96.37797, 42.27407], [-96.37902, 42.27393], [-96.37946, 42.27345], [-96.38119, 42.27328], [-96.38121, 42.27276], [-96.38138, 42.27338]]], [[[-96.38295, 42.27194], [-96.38223, 42.27299], [-96.38121, 42.27276], [-96.38125, 42.27157], [-96.38295, 42.27194]]], [[[-96.37952, 42.26298], [-96.37502, 42.26291], [-96.37502, 42.26164], [-96.37956, 42.26213], [-96.37952, 42.26298]]], [[[-96.45103, 42.32565], [-96.44973, 42.31716], [-96.44745, 42.31321], [-96.44557, 42.31186], [-96.44554, 42.30854], [-96.44778, 42.30801], [-96.45133, 42.3092], [-96.45381, 42.31697], [-96.45492, 42.32635], [-96.45107, 42.32634], [-96.45103, 42.32565]]], [[[-96.44552, 42.29882], [-96.4457, 42.29956], [-96.44513, 42.29892], [-96.44435, 42.29896], [-96.44526, 42.29831], [-96.44481, 42.29718], [-96.44582, 42.29858], [-96.44552, 42.29882]]], [[[-96.44209, 42.29443], [-96.44184, 42.2942], [-96.44211, 42.29361], [-96.4424, 42.29398], [-96.44209, 42.29443]]], [[[-96.43999, 42.29197], [-96.44009, 42.29226], [-96.43929, 42.29229], [-96.44001, 42.29116], [-96.43999, 42.29197]]], [[[-96.41424, 42.38293], [-96.41343, 42.38151], [-96.41355, 42.38001], [-96.41291, 42.37916], [-96.41282, 42.37614], [-96.41358, 42.3735], [-96.41632, 42.37066], [-96.41786, 42.36796], [-96.41617, 42.37031], [-96.41416, 42.37213], [-96.42084, 42.3635], [-96.42018, 42.36367], [-96.42307, 42.35363], [-96.42259, 42.35235], [-96.42205, 42.35264], [-96.42228, 42.35426], [-96.42192, 42.35552], [-96.42106, 42.34997], [-96.422, 42.35249], [-96.42265, 42.35203], [-96.42194, 42.34927], [-96.42214, 42.34844], [-96.42235, 42.34985], [-96.42327, 42.34925], [-96.42445, 42.34906], [-96.42534, 42.35025], [-96.42583, 42.35009], [-96.42544, 42.34862], [-96.42431, 42.34773], [-96.4221, 42.34707], [-96.42338, 42.34833], [-96.42215, 42.34839], [-96.42207, 42.34742], [-96.41986, 42.3468], [-96.41602, 42.34083], [-96.41575, 42.33972], [-96.41769, 42.34105], [-96.41806, 42.34027], [-96.4144, 42.33746], [-96.41341, 42.33795], [-96.41157, 42.3362], [-96.41451, 42.33502], [-96.41725, 42.33494], [-96.42497, 42.33329], [-96.4308, 42.33348], [-96.44546, 42.33122], [-96.4455, 42.33399], [-96.42353, 42.33429], [-96.42214, 42.33473], [-96.4214, 42.33549], [-96.42123, 42.33642], [-96.42167, 42.3373], [-96.42359, 42.33813], [-96.44565, 42.33785], [-96.4458, 42.34806], [-96.44185, 42.34761], [-96.43208, 42.34767], [-96.43055, 42.34831], [-96.42991, 42.34952], [-96.43031, 42.3506], [-96.43132, 42.35129], [-96.43045, 42.35372], [-96.43439, 42.35372], [-96.43438, 42.35143], [-96.44161, 42.35146], [-96.44321, 42.35186], [-96.44579, 42.35193], [-96.44579, 42.35738], [-96.44193, 42.36264], [-96.43404, 42.36231], [-96.42912, 42.35952], [-96.42762, 42.35942], [-96.42628, 42.35998], [-96.42625, 42.35906], [-96.42554, 42.35999], [-96.42583, 42.35909], [-96.42394, 42.36045], [-96.42583, 42.36046], [-96.42558, 42.36153], [-96.42618, 42.36256], [-96.43146, 42.36567], [-96.43357, 42.36616], [-96.43866, 42.36643], [-96.43286, 42.37195], [-96.42608, 42.37708], [-96.41876, 42.37708], [-96.41717, 42.37764], [-96.41643, 42.37882], [-96.41686, 42.38008], [-96.41803, 42.38079], [-96.41999, 42.38093], [-96.41467, 42.38368], [-96.41424, 42.38293]], [[-96.42453, 42.34466], [-96.42594, 42.345], [-96.42597, 42.34432], [-96.42698, 42.34385], [-96.42661, 42.34345], [-96.42487, 42.34365], [-96.4242, 42.34319], [-96.42326, 42.34314], [-96.42117, 42.34363], [-96.42337, 42.34357], [-96.42453, 42.34466]], [[-96.42161, 42.34716], [-96.42185, 42.347], [-96.42046, 42.34666], [-96.42093, 42.3469], [-96.42161, 42.34716]]], [[[-96.45233, 42.33392], [-96.45071, 42.33397], [-96.45066, 42.33057], [-96.45495, 42.33062], [-96.45461, 42.33387], [-96.45233, 42.33392]]], [[[-96.40781, 42.28805], [-96.40778, 42.2881], [-96.40768, 42.28805], [-96.40781, 42.28805]]], [[[-96.38026, 42.39383], [-96.37835, 42.39256], [-96.3797, 42.39181], [-96.38067, 42.39064], [-96.38103, 42.38908], [-96.38068, 42.38766], [-96.38565, 42.38771], [-96.38397, 42.38869], [-96.38301, 42.39025], [-96.38304, 42.39167], [-96.38402, 42.39323], [-96.38026, 42.39383]]], [[[-96.39515, 42.39085], [-96.39205, 42.38926], [-96.39204, 42.38873], [-96.39346, 42.38974], [-96.39521, 42.38979], [-96.39646, 42.38915], [-96.39702, 42.38792], [-96.39691, 42.38558], [-96.39618, 42.38457], [-96.39476, 42.38398], [-96.39201, 42.38391], [-96.39235, 42.37149], [-96.39204, 42.36597], [-96.3984, 42.36589], [-96.40769, 42.36348], [-96.41133, 42.36351], [-96.40426, 42.37231], [-96.40036, 42.37567], [-96.39871, 42.37835], [-96.40493, 42.37677], [-96.40528, 42.3819], [-96.40774, 42.38674], [-96.40501, 42.38787], [-96.39515, 42.39085]]], [[[-96.413, 42.35967], [-96.41138, 42.35965], [-96.4111, 42.35306], [-96.41046, 42.35195], [-96.40857, 42.35127], [-96.40353, 42.35127], [-96.40334, 42.34249], [-96.40586, 42.34319], [-96.40839, 42.34332], [-96.41066, 42.34531], [-96.4127, 42.34862], [-96.41357, 42.3509], [-96.4142, 42.35694], [-96.41392, 42.35845], [-96.41338, 42.35967], [-96.413, 42.35967]]], [[[-96.40128, 42.35128], [-96.39149, 42.3513], [-96.39101, 42.34729], [-96.38974, 42.3464], [-96.38775, 42.34637], [-96.38672, 42.34691], [-96.38615, 42.34775], [-96.38628, 42.35114], [-96.37952, 42.35114], [-96.37798, 42.35163], [-96.37689, 42.35254], [-96.37637, 42.35418], [-96.37667, 42.36182], [-96.36987, 42.36167], [-96.36279, 42.3628], [-96.3625, 42.35341], [-96.36185, 42.35129], [-96.36565, 42.35085], [-96.36673, 42.35015], [-96.36729, 42.34901], [-96.36709, 42.34318], [-96.36654, 42.34212], [-96.36552, 42.34147], [-96.37143, 42.34167], [-96.37361, 42.34226], [-96.38116, 42.34226], [-96.38606, 42.34059], [-96.38866, 42.3406], [-96.38864, 42.33119], [-96.39035, 42.3318], [-96.39258, 42.33335], [-96.39416, 42.33663], [-96.39911, 42.33977], [-96.40068, 42.34122], [-96.40313, 42.34245], [-96.40335, 42.35127], [-96.40128, 42.35128]]], [[[-96.36468, 42.34124], [-96.35846, 42.34204], [-96.35471, 42.34413], [-96.35469, 42.33907], [-96.36014, 42.33842], [-96.36468, 42.34124]]], [[[-96.36381, 42.36659], [-96.37033, 42.36552], [-96.38683, 42.36594], [-96.38713, 42.37105], [-96.38639, 42.37022], [-96.38527, 42.36979], [-96.37509, 42.36939], [-96.37297, 42.36883], [-96.36336, 42.37012], [-96.36294, 42.36674], [-96.36381, 42.36659]]], [[[-96.38712, 42.37252], [-96.38702, 42.37623], [-96.38227, 42.37617], [-96.3811, 42.37434], [-96.38001, 42.3735], [-96.38508, 42.37358], [-96.38712, 42.37252]]], [[[-96.36639, 42.37383], [-96.3661, 42.37375], [-96.36578, 42.37368], [-96.36639, 42.37358], [-96.36639, 42.37383]]], [[[-96.37013, 42.33389], [-96.37023, 42.33413], [-96.36815, 42.33495], [-96.3653, 42.33536], [-96.36633, 42.33387], [-96.36563, 42.33235], [-96.3645, 42.33177], [-96.36217, 42.33144], [-96.36043, 42.33095], [-96.36374, 42.33104], [-96.36598, 42.33044], [-96.36763, 42.32934], [-96.37182, 42.3287], [-96.37423, 42.32837], [-96.37498, 42.32836], [-96.37363, 42.32854], [-96.37351, 42.32993], [-96.37185, 42.33009], [-96.37049, 42.33096], [-96.37003, 42.33195], [-96.37013, 42.33389]]], [[[-96.3715, 42.31923], [-96.37198, 42.31977], [-96.36912, 42.32165], [-96.37016, 42.32238], [-96.36703, 42.32442], [-96.3655, 42.32363], [-96.36682, 42.32228], [-96.36628, 42.32052], [-96.36467, 42.31976], [-96.36155, 42.31969], [-96.36144, 42.31212], [-96.3651, 42.31152], [-96.36629, 42.31077], [-96.36749, 42.31333], [-96.36631, 42.31388], [-96.36566, 42.31473], [-96.36345, 42.31515], [-96.36346, 42.3163], [-96.36244, 42.3169], [-96.36302, 42.31735], [-96.36572, 42.31687], [-96.36648, 42.31777], [-96.36796, 42.31831], [-96.37044, 42.31794], [-96.3715, 42.31923]]], [[[-96.41548, 42.33938], [-96.41405, 42.33862], [-96.41434, 42.33824], [-96.41585, 42.33945], [-96.41548, 42.33938]]], [[[-96.39611, 42.27307], [-96.39654, 42.2731], [-96.39678, 42.27352], [-96.39562, 42.27358], [-96.39611, 42.27307]]], [[[-96.39163, 42.2676], [-96.39286, 42.26767], [-96.39339, 42.26836], [-96.3928, 42.26823], [-96.39281, 42.26854], [-96.39354, 42.26895], [-96.39371, 42.27018], [-96.39307, 42.26936], [-96.39227, 42.27008], [-96.39164, 42.26844], [-96.39149, 42.2698], [-96.39076, 42.26936], [-96.39163, 42.2676]]], [[[-96.40599, 42.26939], [-96.40641, 42.26958], [-96.40552, 42.26997], [-96.40562, 42.26978], [-96.40599, 42.26939]]], [[[-96.39131, 42.27773], [-96.39187, 42.27684], [-96.38898, 42.27682], [-96.38872, 42.27638], [-96.38745, 42.2764], [-96.38687, 42.27609], [-96.38768, 42.27623], [-96.38892, 42.27585], [-96.38939, 42.27668], [-96.39246, 42.27667], [-96.39138, 42.27833], [-96.3894, 42.27945], [-96.38696, 42.27884], [-96.38562, 42.27717], [-96.38625, 42.27493], [-96.38331, 42.27536], [-96.38542, 42.27504], [-96.38616, 42.27434], [-96.38646, 42.27499], [-96.38601, 42.27703], [-96.38768, 42.27869], [-96.38941, 42.27917], [-96.39131, 42.27773]]], [[[-96.38624, 42.26631], [-96.38573, 42.26627], [-96.38559, 42.2658], [-96.38596, 42.26589], [-96.38624, 42.26631]]], [[[-96.38693, 42.27571], [-96.38684, 42.27521], [-96.38704, 42.27516], [-96.38712, 42.27549], [-96.38693, 42.27571]]], [[[-96.35218, 42.30009], [-96.3528, 42.30233], [-96.355, 42.30384], [-96.35476, 42.30497], [-96.35268, 42.30528], [-96.35183, 42.30486], [-96.3517, 42.3004], [-96.35218, 42.30009]]], [[[-96.42344, 42.2778], [-96.42345, 42.27804], [-96.42351, 42.27844], [-96.42304, 42.27794], [-96.42344, 42.2778]]], [[[-96.42224, 42.28596], [-96.42255, 42.28646], [-96.42268, 42.28665], [-96.42261, 42.28666], [-96.42224, 42.28596]]], [[[-96.4447, 42.3047], [-96.44454, 42.30449], [-96.44509, 42.30446], [-96.44505, 42.30462], [-96.4447, 42.3047]]], [[[-96.43494, 42.30014], [-96.43448, 42.30001], [-96.43384, 42.29959], [-96.43498, 42.30015], [-96.43494, 42.30014]]], [[[-96.4244, 42.29417], [-96.42535, 42.29504], [-96.42525, 42.29593], [-96.42308, 42.29492], [-96.42306, 42.29409], [-96.42372, 42.29386], [-96.4244, 42.29417]]], [[[-96.42276, 42.29367], [-96.42071, 42.29291], [-96.4198, 42.29304], [-96.4201, 42.29261], [-96.41969, 42.29213], [-96.42182, 42.29212], [-96.42346, 42.29359], [-96.42276, 42.29367]]], [[[-96.32682, 42.38833], [-96.33365, 42.38817], [-96.33395, 42.38954], [-96.33495, 42.39095], [-96.32682, 42.38833]]], [[[-96.35085, 42.38773], [-96.35146, 42.38817], [-96.34995, 42.38823], [-96.34936, 42.38794], [-96.34988, 42.38653], [-96.35085, 42.38773]]], [[[-96.36724, 42.3882], [-96.36683, 42.38824], [-96.36649, 42.38774], [-96.36731, 42.38779], [-96.36724, 42.3882]]], [[[-96.38118, 42.38038], [-96.38162, 42.38003], [-96.38691, 42.38009], [-96.38681, 42.38386], [-96.37876, 42.38379], [-96.37816, 42.38158], [-96.38118, 42.38038]]], [[[-96.36011, 42.33084], [-96.36014, 42.33085], [-96.36041, 42.33094], [-96.36021, 42.33088], [-96.36011, 42.33084]]], [[[-96.45102, 42.34581], [-96.45086, 42.33783], [-96.45403, 42.33774], [-96.45276, 42.34303], [-96.45101, 42.34762], [-96.45102, 42.34581]]], [[[-96.38634, 42.3562], [-96.38664, 42.36207], [-96.38189, 42.36194], [-96.38158, 42.35495], [-96.38633, 42.355], [-96.38634, 42.3562]]], [[[-96.39186, 42.36211], [-96.39154, 42.35516], [-96.40594, 42.35512], [-96.40616, 42.3595], [-96.40482, 42.36026], [-96.39755, 42.36208], [-96.39186, 42.36211]]], [[[-96.34765, 42.34997], [-96.3479, 42.36314], [-96.33815, 42.3512], [-96.33261, 42.3431], [-96.33258, 42.33212], [-96.34697, 42.33211], [-96.34765, 42.34997]]], [[[-96.32516, 42.38448], [-96.32315, 42.38381], [-96.32076, 42.3839], [-96.31953, 42.38285], [-96.31742, 42.38216], [-96.31529, 42.3822], [-96.31354, 42.3828], [-96.3041, 42.37715], [-96.30405, 42.37563], [-96.32826, 42.37566], [-96.32729, 42.37703], [-96.32684, 42.37863], [-96.32722, 42.38008], [-96.32831, 42.38124], [-96.32831, 42.38441], [-96.32516, 42.38448]]], [[[-96.31605, 42.36114], [-96.32211, 42.36114], [-96.33011, 42.37181], [-96.30397, 42.37177], [-96.30369, 42.36109], [-96.31605, 42.36114]]], [[[-96.31443, 42.35438], [-96.31337, 42.35248], [-96.31333, 42.34945], [-96.31921, 42.35728], [-96.3169, 42.35728], [-96.31443, 42.35438]]], [[[-96.34685, 42.32825], [-96.31999, 42.32803], [-96.3126, 42.32173], [-96.3126, 42.31761], [-96.31743, 42.31743], [-96.3184, 42.31969], [-96.3197, 42.32065], [-96.32085, 42.32315], [-96.32273, 42.32528], [-96.32461, 42.3262], [-96.33064, 42.32746], [-96.3358, 42.32748], [-96.3408, 42.32621], [-96.34412, 42.32461], [-96.34657, 42.32215], [-96.34685, 42.32825]]], [[[-96.33663, 42.30292], [-96.33677, 42.30311], [-96.32691, 42.30341], [-96.3269, 42.30289], [-96.33663, 42.30292]]], [[[-96.31581, 42.31174], [-96.3169, 42.31358], [-96.3125, 42.31375], [-96.31239, 42.31046], [-96.31577, 42.31051], [-96.31581, 42.31174]]], [[[-96.31619, 42.30655], [-96.31228, 42.3066], [-96.31218, 42.30311], [-96.31763, 42.30304], [-96.31771, 42.30511], [-96.31619, 42.30655]]], [[[-96.33329, 42.35996], [-96.3331, 42.35286], [-96.34276, 42.36473], [-96.33333, 42.36459], [-96.33329, 42.35996]]], [[[-96.33352, 42.38245], [-96.33352, 42.38194], [-96.33511, 42.38116], [-96.33628, 42.38001], [-96.3381, 42.38244], [-96.33808, 42.38422], [-96.33352, 42.38431], [-96.33352, 42.38245]]], [[[-96.30816, 42.35236], [-96.30846, 42.35376], [-96.31068, 42.35726], [-96.30361, 42.35723], [-96.30341, 42.34668], [-96.3081, 42.34681], [-96.30816, 42.35236]]], [[[-96.28387, 42.34664], [-96.29821, 42.34659], [-96.2984, 42.3572], [-96.28397, 42.35713], [-96.28387, 42.34664]]], [[[-96.29308, 42.36103], [-96.29849, 42.36106], [-96.29876, 42.37175], [-96.29702, 42.37173], [-96.29361, 42.36875], [-96.2868, 42.361], [-96.29308, 42.36103]]], [[[-96.27866, 42.34649], [-96.27866, 42.34664], [-96.27866, 42.34682], [-96.27852, 42.34649], [-96.27866, 42.34649]]], [[[-96.30701, 42.30439], [-96.30707, 42.30656], [-96.30521, 42.30656], [-96.30361, 42.30316], [-96.30697, 42.30315], [-96.30701, 42.30439]]], [[[-96.30722, 42.31156], [-96.30677, 42.31042], [-96.30719, 42.31042], [-96.30722, 42.31156]]], [[[-96.30502, 42.32026], [-96.30675, 42.32286], [-96.31096, 42.32653], [-96.30878, 42.32682], [-96.3077, 42.32827], [-96.30565, 42.32827], [-96.30443, 42.32719], [-96.30315, 42.32666], [-96.30273, 42.31459], [-96.30502, 42.32026]]], [[[-96.29095, 42.29758], [-96.29834, 42.30452], [-96.29949, 42.30657], [-96.29762, 42.30657], [-96.29668, 42.30385], [-96.29501, 42.30267], [-96.2927, 42.3022], [-96.29253, 42.30075], [-96.29137, 42.29965], [-96.2902, 42.29935], [-96.2838, 42.29926], [-96.28737, 42.29421], [-96.29095, 42.29758]]], [[[-96.27808, 42.31086], [-96.27814, 42.31367], [-96.2771, 42.31366], [-96.27729, 42.31291], [-96.27808, 42.31086]]], [[[-96.3065, 42.27784], [-96.30677, 42.28463], [-96.29652, 42.28468], [-96.30119, 42.28097], [-96.30332, 42.28079], [-96.30538, 42.27998], [-96.30621, 42.27895], [-96.30649, 42.27732], [-96.3065, 42.27784]]], [[[-96.29496, 42.28856], [-96.30682, 42.28849], [-96.3069, 42.29929], [-96.30146, 42.29931], [-96.30021, 42.29966], [-96.29049, 42.29061], [-96.29238, 42.28857], [-96.29496, 42.28856]]], [[[-96.29169, 42.3206], [-96.29668, 42.32725], [-96.2937, 42.32707], [-96.29099, 42.32824], [-96.28369, 42.32818], [-96.28343, 42.31758], [-96.28947, 42.31765], [-96.29169, 42.3206]]], [[[-96.27822, 42.31753], [-96.27849, 42.32811], [-96.27505, 42.32809], [-96.27616, 42.31751], [-96.27822, 42.31753]]], [[[-96.2778, 42.33196], [-96.27855, 42.33197], [-96.27866, 42.34263], [-96.27723, 42.34262], [-96.27616, 42.33897], [-96.27515, 42.33245], [-96.27513, 42.33195], [-96.2778, 42.33196]]], [[[-96.28575, 42.31374], [-96.28631, 42.31346], [-96.28653, 42.31375], [-96.28575, 42.31374]]], [[[-96.2903, 42.3321], [-96.29122, 42.33309], [-96.29275, 42.33386], [-96.29493, 42.33414], [-96.29683, 42.33385], [-96.29804, 42.33436], [-96.29816, 42.34272], [-96.28386, 42.34267], [-96.28376, 42.33204], [-96.2903, 42.3321]]], [[[-96.30327, 42.33606], [-96.308, 42.34237], [-96.308, 42.34295], [-96.30336, 42.34281], [-96.30327, 42.33606]]]]}, "properties": {"kind": "windland", "area_km2": 68.22}}, {"type": "Feature", "geometry": {"type": "MultiPolygon", "coordinates": [[[[-96.37156, 42.31931], [-96.37142, 42.31914], [-96.37289, 42.31918], [-96.37198, 42.31977], [-96.37156, 42.31931]]], [[[-96.3659, 42.32022], [-96.36669, 42.32106], [-96.36686, 42.32207], [-96.36637, 42.32303], [-96.3655, 42.32363], [-96.36703, 42.32442], [-96.37016, 42.32238], [-96.37123, 42.32282], [-96.37197, 42.32342], [-96.36623, 42.32715], [-96.36502, 42.32751], [-96.36534, 42.31995], [-96.3659, 42.32022]]], [[[-96.37359, 42.32622], [-96.37125, 42.32654], [-96.36736, 42.32714], [-96.37207, 42.32407], [-96.37429, 42.32608], [-96.37359, 42.32622]]], [[[-96.36544, 42.328], [-96.37397, 42.32672], [-96.37534, 42.32671], [-96.37637, 42.32694], [-96.37602, 42.32829], [-96.37409, 42.32839], [-96.36763, 42.32934], [-96.36638, 42.33026], [-96.36489, 42.33075], [-96.365, 42.32807], [-96.36544, 42.328]]], [[[-96.3705, 42.33406], [-96.37023, 42.33413], [-96.37006, 42.33348], [-96.37003, 42.33195], [-96.37034, 42.33114], [-96.3716, 42.33018], [-96.37351, 42.32993], [-96.37344, 42.33078], [-96.37246, 42.33193], [-96.37208, 42.33275], [-96.37244, 42.33365], [-96.3705, 42.33406]]], [[[-96.36543, 42.3322], [-96.36618, 42.33306], [-96.36629, 42.33408], [-96.36557, 42.33517], [-96.36469, 42.33544], [-96.36484, 42.33188], [-96.36543, 42.3322]]]]}, "properties": {"kind": "pv", "area_km2": 0.57, "mw": 28.6}}, {"type": "Feature", "geometry": {"type": "Point", "coordinates": [-96.36818, 42.33152]}, "properties": {"kind": "turbine", "i": 0, "mw": 6.0, "hub_m": 120.0, "rotor_m": 150.0}}, {"type": "Feature", "geometry": {"type": "Point", "coordinates": [-96.36859, 42.32167]}, "properties": {"kind": "turbine", "i": 1, "mw": 6.0, "hub_m": 120.0, "rotor_m": 150.0}}, {"type": "Feature", "geometry": {"type": "Point", "coordinates": [-96.35531, 42.32136]}, "properties": {"kind": "turbine", "i": 2, "mw": 6.0, "hub_m": 120.0, "rotor_m": 150.0}}, {"type": "Feature", "geometry": {"type": "Point", "coordinates": [-96.35891, 42.34117]}, "properties": {"kind": "turbine", "i": 3, "mw": 6.0, "hub_m": 120.0, "rotor_m": 150.0}}, {"type": "Feature", "geometry": {"type": "Point", "coordinates": [-96.38201, 42.31869]}, "properties": {"kind": "turbine", "i": 4, "mw": 6.0, "hub_m": 120.0, "rotor_m": 150.0}}, {"type": "Feature", "geometry": {"type": "Point", "coordinates": [-96.36458, 42.31171]}, "properties": {"kind": "turbine", "i": 5, "mw": 6.0, "hub_m": 120.0, "rotor_m": 150.0}}, {"type": "Feature", "geometry": {"type": "Point", "coordinates": [-96.34577, 42.33758]}, "properties": {"kind": "turbine", "i": 6, "mw": 6.0, "hub_m": 120.0, "rotor_m": 150.0}}, {"type": "Feature", "geometry": {"type": "Point", "coordinates": [-96.34176, 42.32762]}, "properties": {"kind": "turbine", "i": 7, "mw": 6.0, "hub_m": 120.0, "rotor_m": 150.0}}, {"type": "Feature", "geometry": {"type": "Point", "coordinates": [-96.37206, 42.34476]}, "properties": {"kind": "turbine", "i": 8, "mw": 6.0, "hub_m": 120.0, "rotor_m": 150.0}}, {"type": "Feature", "geometry": {"type": "Point", "coordinates": [-96.39032, 42.33203]}, "properties": {"kind": "turbine", "i": 9, "mw": 6.0, "hub_m": 120.0, "rotor_m": 150.0}}, {"type": "Feature", "geometry": {"type": "Point", "coordinates": [-96.38548, 42.34178]}, "properties": {"kind": "turbine", "i": 10, "mw": 6.0, "hub_m": 120.0, "rotor_m": 150.0}}, {"type": "Feature", "geometry": {"type": "Point", "coordinates": [-96.37799, 42.30873]}, "properties": {"kind": "turbine", "i": 11, "mw": 6.0, "hub_m": 120.0, "rotor_m": 150.0}}, {"type": "Feature", "geometry": {"type": "Point", "coordinates": [-96.39529, 42.31899]}, "properties": {"kind": "turbine", "i": 12, "mw": 6.0, "hub_m": 120.0, "rotor_m": 150.0}}, {"type": "Feature", "geometry": {"type": "Point", "coordinates": [-96.34535, 42.34744]}, "properties": {"kind": "turbine", "i": 13, "mw": 6.0, "hub_m": 120.0, "rotor_m": 150.0}}, {"type": "Feature", "geometry": {"type": "Point", "coordinates": [-96.36279, 42.35442]}, "properties": {"kind": "turbine", "i": 14, "mw": 6.0, "hub_m": 120.0, "rotor_m": 150.0}}, {"type": "Feature", "geometry": {"type": "Point", "coordinates": [-96.32847, 42.32731]}, "properties": {"kind": "turbine", "i": 15, "mw": 6.0, "hub_m": 120.0, "rotor_m": 150.0}}, {"type": "Feature", "geometry": {"type": "Point", "coordinates": [-96.39127, 42.30903]}, "properties": {"kind": "turbine", "i": 16, "mw": 6.0, "hub_m": 120.0, "rotor_m": 150.0}}, {"type": "Feature", "geometry": {"type": "Point", "coordinates": [-96.37608, 42.35472]}, "properties": {"kind": "turbine", "i": 17, "mw": 6.0, "hub_m": 120.0, "rotor_m": 150.0}}, {"type": "Feature", "geometry": {"type": "Point", "coordinates": [-96.35171, 42.30155]}, "properties": {"kind": "turbine", "i": 18, "mw": 6.0, "hub_m": 120.0, "rotor_m": 150.0}}, {"type": "Feature", "geometry": {"type": "Point", "coordinates": [-96.39877, 42.34209]}, "properties": {"kind": "turbine", "i": 19, "mw": 6.0, "hub_m": 120.0, "rotor_m": 150.0}}, {"type": "Feature", "geometry": {"type": "Point", "coordinates": [-96.3784, 42.29887]}, "properties": {"kind": "turbine", "i": 20, "mw": 6.0, "hub_m": 120.0, "rotor_m": 150.0}}, {"type": "Feature", "geometry": {"type": "Point", "coordinates": [-96.34494, 42.35729]}, "properties": {"kind": "turbine", "i": 21, "mw": 6.0, "hub_m": 120.0, "rotor_m": 150.0}}, {"type": "Feature", "geometry": {"type": "Point", "coordinates": [-96.40857, 42.31929]}, "properties": {"kind": "turbine", "i": 22, "mw": 6.0, "hub_m": 120.0, "rotor_m": 150.0}}, {"type": "Feature", "geometry": {"type": "Point", "coordinates": [-96.32335, 42.34364]}, "properties": {"kind": "turbine", "i": 23, "mw": 6.0, "hub_m": 120.0, "rotor_m": 150.0}}, {"type": "Feature", "geometry": {"type": "Point", "coordinates": [-96.40455, 42.30933]}, "properties": {"kind": "turbine", "i": 24, "mw": 6.0, "hub_m": 120.0, "rotor_m": 150.0}}, {"type": "Feature", "geometry": {"type": "Point", "coordinates": [-96.39168, 42.29918]}, "properties": {"kind": "turbine", "i": 25, "mw": 6.0, "hub_m": 120.0, "rotor_m": 150.0}}, {"type": "Feature", "geometry": {"type": "Point", "coordinates": [-96.39823, 42.35523]}, "properties": {"kind": "turbine", "i": 26, "mw": 6.0, "hub_m": 120.0, "rotor_m": 150.0}}, {"type": "Feature", "geometry": {"type": "Point", "coordinates": [-96.31547, 42.32043]}, "properties": {"kind": "turbine", "i": 27, "mw": 6.0, "hub_m": 120.0, "rotor_m": 150.0}}, {"type": "Feature", "geometry": {"type": "Point", "coordinates": [-96.31491, 42.33357]}, "properties": {"kind": "turbine", "i": 28, "mw": 6.0, "hub_m": 120.0, "rotor_m": 150.0}}, {"type": "Feature", "geometry": {"type": "Point", "coordinates": [-96.32736, 42.35359]}, "properties": {"kind": "turbine", "i": 29, "mw": 6.0, "hub_m": 120.0, "rotor_m": 150.0}}, {"type": "Feature", "geometry": {"type": "Point", "coordinates": [-96.3477, 42.29159]}, "properties": {"kind": "turbine", "i": 30, "mw": 6.0, "hub_m": 120.0, "rotor_m": 150.0}}, {"type": "Feature", "geometry": {"type": "Point", "coordinates": [-96.41702, 42.32935]}, "properties": {"kind": "turbine", "i": 31, "mw": 6.0, "hub_m": 120.0, "rotor_m": 150.0}}, {"type": "Feature", "geometry": {"type": "Point", "coordinates": [-96.36667, 42.36766]}, "properties": {"kind": "turbine", "i": 32, "mw": 6.0, "hub_m": 120.0, "rotor_m": 150.0}}, {"type": "Feature", "geometry": {"type": "Point", "coordinates": [-96.37439, 42.28892]}, "properties": {"kind": "turbine", "i": 33, "mw": 6.0, "hub_m": 120.0, "rotor_m": 150.0}}, {"type": "Feature", "geometry": {"type": "Point", "coordinates": [-96.41178, 42.34896]}, "properties": {"kind": "turbine", "i": 34, "mw": 6.0, "hub_m": 120.0, "rotor_m": 150.0}}, {"type": "Feature", "geometry": {"type": "Point", "coordinates": [-96.40495, 42.29948]}, "properties": {"kind": "turbine", "i": 35, "mw": 6.0, "hub_m": 120.0, "rotor_m": 150.0}}, {"type": "Feature", "geometry": {"type": "Point", "coordinates": [-96.37996, 42.36796]}, "properties": {"kind": "turbine", "i": 36, "mw": 6.0, "hub_m": 120.0, "rotor_m": 150.0}}, {"type": "Feature", "geometry": {"type": "Point", "coordinates": [-96.38766, 42.28922]}, "properties": {"kind": "turbine", "i": 37, "mw": 6.0, "hub_m": 120.0, "rotor_m": 150.0}}, {"type": "Feature", "geometry": {"type": "Point", "coordinates": [-96.31617, 42.30401]}, "properties": {"kind": "turbine", "i": 38, "mw": 6.0, "hub_m": 120.0, "rotor_m": 150.0}}, {"type": "Feature", "geometry": {"type": "Point", "coordinates": [-96.42212, 42.31302]}, "properties": {"kind": "turbine", "i": 39, "mw": 6.0, "hub_m": 120.0, "rotor_m": 150.0}}, {"type": "Feature", "geometry": {"type": "Point", "coordinates": [-96.34438, 42.37043]}, "properties": {"kind": "turbine", "i": 40, "mw": 6.0, "hub_m": 120.0, "rotor_m": 150.0}}, {"type": "Feature", "geometry": {"type": "Point", "coordinates": [-96.39325, 42.36827]}, "properties": {"kind": "turbine", "i": 41, "mw": 6.0, "hub_m": 120.0, "rotor_m": 150.0}}, {"type": "Feature", "geometry": {"type": "Point", "coordinates": [-96.41138, 42.35881]}, "properties": {"kind": "turbine", "i": 42, "mw": 6.0, "hub_m": 120.0, "rotor_m": 150.0}}, {"type": "Feature", "geometry": {"type": "Point", "coordinates": [-96.32558, 42.29108]}, "properties": {"kind": "turbine", "i": 43, "mw": 6.0, "hub_m": 120.0, "rotor_m": 150.0}}, {"type": "Feature", "geometry": {"type": "Point", "coordinates": [-96.32251, 42.36335]}, "properties": {"kind": "turbine", "i": 44, "mw": 6.0, "hub_m": 120.0, "rotor_m": 150.0}}, {"type": "Feature", "geometry": {"type": "Point", "coordinates": [-96.41823, 42.29978]}, "properties": {"kind": "turbine", "i": 45, "mw": 6.0, "hub_m": 120.0, "rotor_m": 150.0}}, {"type": "Feature", "geometry": {"type": "Point", "coordinates": [-96.40536, 42.28962]}, "properties": {"kind": "turbine", "i": 46, "mw": 6.0, "hub_m": 120.0, "rotor_m": 150.0}}, {"type": "Feature", "geometry": {"type": "Point", "coordinates": [-96.43057, 42.32307]}, "properties": {"kind": "turbine", "i": 47, "mw": 6.0, "hub_m": 120.0, "rotor_m": 150.0}}, {"type": "Feature", "geometry": {"type": "Point", "coordinates": [-96.36595, 42.27886]}, "properties": {"kind": "turbine", "i": 48, "mw": 6.0, "hub_m": 120.0, "rotor_m": 150.0}}, {"type": "Feature", "geometry": {"type": "Point", "coordinates": [-96.30536, 42.34979]}, "properties": {"kind": "turbine", "i": 49, "mw": 6.0, "hub_m": 120.0, "rotor_m": 150.0}}, {"type": "Feature", "geometry": {"type": "Point", "coordinates": [-96.4299, 42.3395]}, "properties": {"kind": "turbine", "i": 50, "mw": 6.0, "hub_m": 120.0, "rotor_m": 150.0}}, {"type": "Feature", "geometry": {"type": "Point", "coordinates": [-96.37922, 42.27916]}, "properties": {"kind": "turbine", "i": 51, "mw": 6.0, "hub_m": 120.0, "rotor_m": 150.0}}, {"type": "Feature", "geometry": {"type": "Point", "coordinates": [-96.40654, 42.36857]}, "properties": {"kind": "turbine", "i": 52, "mw": 6.0, "hub_m": 120.0, "rotor_m": 150.0}}, {"type": "Feature", "geometry": {"type": "Point", "coordinates": [-96.31217, 42.29405]}, "properties": {"kind": "turbine", "i": 53, "mw": 6.0, "hub_m": 120.0, "rotor_m": 150.0}}, {"type": "Feature", "geometry": {"type": "Point", "coordinates": [-96.4295, 42.34936]}, "properties": {"kind": "turbine", "i": 54, "mw": 6.0, "hub_m": 120.0, "rotor_m": 150.0}}, {"type": "Feature", "geometry": {"type": "Point", "coordinates": [-96.33042, 42.28132]}, "properties": {"kind": "turbine", "i": 55, "mw": 6.0, "hub_m": 120.0, "rotor_m": 150.0}}, {"type": "Feature", "geometry": {"type": "Point", "coordinates": [-96.2932, 42.3232]}, "properties": {"kind": "turbine", "i": 56, "mw": 6.0, "hub_m": 120.0, "rotor_m": 150.0}}, {"type": "Feature", "geometry": {"type": "Point", "coordinates": [-96.30922, 42.36304]}, "properties": {"kind": "turbine", "i": 57, "mw": 6.0, "hub_m": 120.0, "rotor_m": 150.0}}, {"type": "Feature", "geometry": {"type": "Point", "coordinates": [-96.4354, 42.31332]}, "properties": {"kind": "turbine", "i": 58, "mw": 6.0, "hub_m": 120.0, "rotor_m": 150.0}}, {"type": "Feature", "geometry": {"type": "Point", "coordinates": [-96.34397, 42.38029]}, "properties": {"kind": "turbine", "i": 59, "mw": 6.0, "hub_m": 120.0, "rotor_m": 150.0}}, {"type": "Feature", "geometry": {"type": "Point", "coordinates": [-96.29362, 42.31334]}, "properties": {"kind": "turbine", "i": 60, "mw": 6.0, "hub_m": 120.0, "rotor_m": 150.0}}, {"type": "Feature", "geometry": {"type": "Point", "coordinates": [-96.38385, 42.3812]}, "properties": {"kind": "turbine", "i": 61, "mw": 6.0, "hub_m": 120.0, "rotor_m": 150.0}}, {"type": "Feature", "geometry": {"type": "Point", "coordinates": [-96.43137, 42.30336]}, "properties": {"kind": "turbine", "i": 62, "mw": 6.0, "hub_m": 120.0, "rotor_m": 150.0}}, {"type": "Feature", "geometry": {"type": "Point", "coordinates": [-96.41863, 42.28992]}, "properties": {"kind": "turbine", "i": 63, "mw": 6.0, "hub_m": 120.0, "rotor_m": 150.0}}, {"type": "Feature", "geometry": {"type": "Point", "coordinates": [-96.32639, 42.37659]}, "properties": {"kind": "turbine", "i": 64, "mw": 6.0, "hub_m": 120.0, "rotor_m": 150.0}}, {"type": "Feature", "geometry": {"type": "Point", "coordinates": [-96.4291, 42.35921]}, "properties": {"kind": "turbine", "i": 65, "mw": 6.0, "hub_m": 120.0, "rotor_m": 150.0}}, {"type": "Feature", "geometry": {"type": "Point", "coordinates": [-96.40576, 42.27977]}, "properties": {"kind": "turbine", "i": 66, "mw": 6.0, "hub_m": 120.0, "rotor_m": 150.0}}, {"type": "Feature", "geometry": {"type": "Point", "coordinates": [-96.28835, 42.33295]}, "properties": {"kind": "turbine", "i": 67, "mw": 6.0, "hub_m": 120.0, "rotor_m": 150.0}}, {"type": "Feature", "geometry": {"type": "Point", "coordinates": [-96.40171, 42.37832]}, "properties": {"kind": "turbine", "i": 68, "mw": 6.0, "hub_m": 120.0, "rotor_m": 150.0}}, {"type": "Feature", "geometry": {"type": "Point", "coordinates": [-96.41983, 42.36887]}, "properties": {"kind": "turbine", "i": 69, "mw": 6.0, "hub_m": 120.0, "rotor_m": 150.0}}, {"type": "Feature", "geometry": {"type": "Point", "coordinates": [-96.29207, 42.34948]}, "properties": {"kind": "turbine", "i": 70, "mw": 6.0, "hub_m": 120.0, "rotor_m": 150.0}}, {"type": "Feature", "geometry": {"type": "Point", "coordinates": [-96.44345, 42.33323]}, "properties": {"kind": "turbine", "i": 71, "mw": 6.0, "hub_m": 120.0, "rotor_m": 150.0}}, {"type": "Feature", "geometry": {"type": "Point", "coordinates": [-96.31715, 42.28101]}, "properties": {"kind": "turbine", "i": 72, "mw": 6.0, "hub_m": 120.0, "rotor_m": 150.0}}, {"type": "Feature", "geometry": {"type": "Point", "coordinates": [-96.36636, 42.269]}, "properties": {"kind": "turbine", "i": 73, "mw": 6.0, "hub_m": 120.0, "rotor_m": 150.0}}, {"type": "Feature", "geometry": {"type": "Point", "coordinates": [-96.44305, 42.34308]}, "properties": {"kind": "turbine", "i": 74, "mw": 6.0, "hub_m": 120.0, "rotor_m": 150.0}}, {"type": "Feature", "geometry": {"type": "Point", "coordinates": [-96.31309, 42.37628]}, "properties": {"kind": "turbine", "i": 75, "mw": 6.0, "hub_m": 120.0, "rotor_m": 150.0}}, {"type": "Feature", "geometry": {"type": "Point", "coordinates": [-96.29594, 42.36272]}, "properties": {"kind": "turbine", "i": 76, "mw": 6.0, "hub_m": 120.0, "rotor_m": 150.0}}]}