{"type": "FeatureCollection", "features": [{"type": "Feature", "geometry": {"type": "MultiPolygon", "coordinates": [[[[-96.31563, 42.33331], [-96.31765, 42.33382], [-96.31783, 42.33509], [-96.31871, 42.33599], [-96.32088, 42.33633], [-96.32249, 42.33726], [-96.32727, 42.34433], [-96.32773, 42.34589], [-96.32793, 42.35391], [-96.32464, 42.35105], [-96.31936, 42.34476], [-96.31583, 42.33783], [-96.31456, 42.33288], [-96.31563, 42.33331]]], [[[-96.35604, 42.36392], [-96.35314, 42.36439], [-96.35294, 42.35296], [-96.35507, 42.35335], [-96.35686, 42.35244], [-96.35731, 42.35371], [-96.35761, 42.36366], [-96.35604, 42.36392]]], [[[-96.35188, 42.32437], [-96.35134, 42.30986], [-96.35519, 42.30928], [-96.35608, 42.3215], [-96.35188, 42.32437]]], [[[-96.34647, 42.29917], [-96.34366, 42.29911], [-96.34416, 42.29668], [-96.34969, 42.29344], [-96.35698, 42.29523], [-96.35514, 42.29617], [-96.35253, 42.29593], [-96.34984, 42.29648], [-96.34826, 42.29733], [-96.34647, 42.29917]]], [[[-96.33861, 42.29907], [-96.33823, 42.29907], [-96.3383, 42.29584], [-96.34699, 42.29266], [-96.3503, 42.29205], [-96.34324, 42.29625], [-96.34267, 42.2991], [-96.33861, 42.29907]]], [[[-96.33401, 42.29904], [-96.33241, 42.29903], [-96.33513, 42.29745], [-96.33509, 42.29905], [-96.33401, 42.29904]]], [[[-96.40051, 42.30179], [-96.39929, 42.30209], [-96.39812, 42.29932], [-96.40136, 42.30159], [-96.40051, 42.30179]]], [[[-96.38908, 42.29476], [-96.38789, 42.29507], [-96.38703, 42.29577], [-96.38691, 42.29741], [-96.38877, 42.29864], [-96.39263, 42.29847], [-96.39541, 42.30531], [-96.39699, 42.30615], [-96.3984, 42.30634], [-96.40274, 42.30531], [-96.4049, 42.30892], [-96.40503, 42.31042], [-96.40571, 42.31143], [-96.40726, 42.3121], [-96.41119, 42.3122], [-96.41416, 42.31815], [-96.41522, 42.32177], [-96.41581, 42.32545], [-96.41572, 42.33087], [-96.41338, 42.33088], [-96.41007, 42.33213], [-96.40886, 42.33199], [-96.40643, 42.33237], [-96.40255, 42.33011], [-96.40363, 42.32927], [-96.40419, 42.32801], [-96.40387, 42.32654], [-96.40289, 42.3256], [-96.4012, 42.32495], [-96.39935, 42.32504], [-96.39695, 42.32614], [-96.39614, 42.3273], [-96.3898, 42.32499], [-96.38653, 42.32329], [-96.38213, 42.32016], [-96.37641, 42.31403], [-96.37601, 42.31297], [-96.37419, 42.31084], [-96.3736, 42.30875], [-96.37281, 42.30768], [-96.37261, 42.30145], [-96.37319, 42.29808], [-96.37204, 42.29059], [-96.38127, 42.2922], [-96.38908, 42.29476]]], [[[-96.41341, 42.33795], [-96.41157, 42.3362], [-96.41496, 42.33508], [-96.41422, 42.33755], [-96.41341, 42.33795]]], [[[-96.40503, 42.35126], [-96.40353, 42.35127], [-96.40334, 42.34249], [-96.40586, 42.34319], [-96.40839, 42.34332], [-96.41035, 42.34509], [-96.40503, 42.35126]]], [[[-96.40128, 42.35128], [-96.39149, 42.3513], [-96.39101, 42.34729], [-96.38974, 42.3464], [-96.38775, 42.34637], [-96.38672, 42.34691], [-96.38615, 42.34775], [-96.38628, 42.35114], [-96.37952, 42.35114], [-96.37798, 42.35163], [-96.37689, 42.35254], [-96.37637, 42.35418], [-96.37667, 42.36182], [-96.36987, 42.36167], [-96.36279, 42.3628], [-96.3625, 42.35341], [-96.36185, 42.35129], [-96.36565, 42.35085], [-96.36673, 42.35015], [-96.36729, 42.34901], [-96.36709, 42.34318], [-96.36654, 42.34212], [-96.36552, 42.34147], [-96.37143, 42.34167], [-96.37361, 42.34226], [-96.38116, 42.34226], [-96.38606, 42.34059], [-96.38866, 42.3406], [-96.38864, 42.33119], [-96.39035, 42.3318], [-96.39258, 42.33335], [-96.39416, 42.33663], [-96.39911, 42.33977], [-96.40068, 42.34122], [-96.40313, 42.34245], [-96.40335, 42.35127], [-96.40128, 42.35128]]], [[[-96.36468, 42.34124], [-96.35846, 42.34204], [-96.35471, 42.34413], [-96.35469, 42.33907], [-96.36014, 42.33842], [-96.36468, 42.34124]]], [[[-96.37022, 42.36553], [-96.37033, 42.36552], [-96.37049, 42.36552], [-96.36999, 42.36556], [-96.37022, 42.36553]]], [[[-96.37013, 42.33389], [-96.37023, 42.33413], [-96.36815, 42.33495], [-96.3653, 42.33536], [-96.36633, 42.33387], [-96.36563, 42.33235], [-96.3645, 42.33177], [-96.36217, 42.33144], [-96.36043, 42.33095], [-96.36374, 42.33104], [-96.36598, 42.33044], [-96.36763, 42.32934], [-96.37182, 42.3287], [-96.37423, 42.32837], [-96.37498, 42.32836], [-96.37363, 42.32854], [-96.37351, 42.32993], [-96.37185, 42.33009], [-96.37049, 42.33096], [-96.37003, 42.33195], [-96.37013, 42.33389]]], [[[-96.3715, 42.31923], [-96.37198, 42.31977], [-96.36912, 42.32165], [-96.37016, 42.32238], [-96.36703, 42.32442], [-96.3655, 42.32363], [-96.36682, 42.32228], [-96.36628, 42.32052], [-96.36467, 42.31976], [-96.36155, 42.31969], [-96.36144, 42.31212], [-96.3651, 42.31152], [-96.36629, 42.31077], [-96.36749, 42.31333], [-96.36631, 42.31388], [-96.36566, 42.31473], [-96.36345, 42.31515], [-96.36346, 42.3163], [-96.36244, 42.3169], [-96.36302, 42.31735], [-96.36572, 42.31687], [-96.36648, 42.31777], [-96.36796, 42.31831], [-96.37044, 42.31794], [-96.3715, 42.31923]]], [[[-96.35218, 42.30009], [-96.3528, 42.30233], [-96.355, 42.30384], [-96.35476, 42.30497], [-96.35268, 42.30528], [-96.35183, 42.30486], [-96.3517, 42.3004], [-96.35218, 42.30009]]], [[[-96.36011, 42.33084], [-96.36014, 42.33085], [-96.36041, 42.33094], [-96.36021, 42.33088], [-96.36011, 42.33084]]], [[[-96.38634, 42.3562], [-96.38664, 42.36207], [-96.38189, 42.36194], [-96.38158, 42.35495], [-96.38633, 42.355], [-96.38634, 42.3562]]], [[[-96.39172, 42.35962], [-96.39154, 42.35516], [-96.4004, 42.35514], [-96.39608, 42.35793], [-96.39174, 42.36015], [-96.39172, 42.35962]]], [[[-96.34765, 42.34997], [-96.3479, 42.36314], [-96.33815, 42.3512], [-96.33261, 42.3431], [-96.33258, 42.33212], [-96.34697, 42.33211], [-96.34765, 42.34997]]], [[[-96.34685, 42.32825], [-96.31999, 42.32803], [-96.31448, 42.32334], [-96.31616, 42.31748], [-96.31743, 42.31743], [-96.3184, 42.31969], [-96.3197, 42.32065], [-96.32085, 42.32315], [-96.32273, 42.32528], [-96.32443, 42.32614], [-96.32894, 42.32721], [-96.33522, 42.32753], [-96.33858, 42.32689], [-96.34323, 42.32519], [-96.34657, 42.32215], [-96.34685, 42.32825]]], [[[-96.33663, 42.30292], [-96.33677, 42.30311], [-96.32691, 42.30341], [-96.32698, 42.30289], [-96.33663, 42.30292]]], [[[-96.33322, 42.35679], [-96.3331, 42.35286], [-96.33947, 42.36069], [-96.33323, 42.35748], [-96.33322, 42.35679]]]]}, "properties": {"kind": "windland", "area_km2": 22.22}}, {"type": "Feature", "geometry": {"type": "MultiPolygon", "coordinates": [[[[-96.37156, 42.31931], [-96.37142, 42.31914], [-96.37289, 42.31918], [-96.37198, 42.31977], [-96.37156, 42.31931]]], [[[-96.36568, 42.3201], [-96.36658, 42.32087], [-96.36688, 42.32187], [-96.36652, 42.32285], [-96.3655, 42.32363], [-96.36703, 42.32442], [-96.37016, 42.32238], [-96.37123, 42.32282], [-96.37197, 42.32342], [-96.36623, 42.32715], [-96.36502, 42.32751], [-96.36534, 42.31995], [-96.36568, 42.3201]]], [[[-96.37384, 42.32619], [-96.37125, 42.32654], [-96.36736, 42.32714], [-96.37207, 42.32407], [-96.37429, 42.32608], [-96.37384, 42.32619]]], [[[-96.36544, 42.328], [-96.37397, 42.32672], [-96.37534, 42.32671], [-96.37637, 42.32694], [-96.37603, 42.32825], [-96.36544, 42.328]]]]}, "properties": {"kind": "pv", "area_km2": 0.35, "mw": 17.6}}, {"type": "Feature", "geometry": {"type": "Point", "coordinates": [-96.36818, 42.33152]}, "properties": {"kind": "turbine", "i": 0, "mw": 6.0, "hub_m": 120.0, "rotor_m": 150.0}}, {"type": "Feature", "geometry": {"type": "Point", "coordinates": [-96.36859, 42.32167]}, "properties": {"kind": "turbine", "i": 1, "mw": 6.0, "hub_m": 120.0, "rotor_m": 150.0}}, {"type": "Feature", "geometry": {"type": "Point", "coordinates": [-96.35531, 42.32136]}, "properties": {"kind": "turbine", "i": 2, "mw": 6.0, "hub_m": 120.0, "rotor_m": 150.0}}, {"type": "Feature", "geometry": {"type": "Point", "coordinates": [-96.35891, 42.34117]}, "properties": {"kind": "turbine", "i": 3, "mw": 6.0, "hub_m": 120.0, "rotor_m": 150.0}}, {"type": "Feature", "geometry": {"type": "Point", "coordinates": [-96.38201, 42.31869]}, "properties": {"kind": "turbine", "i": 4, "mw": 6.0, "hub_m": 120.0, "rotor_m": 150.0}}, {"type": "Feature", "geometry": {"type": "Point", "coordinates": [-96.36458, 42.31171]}, "properties": {"kind": "turbine", "i": 5, "mw": 6.0, "hub_m": 120.0, "rotor_m": 150.0}}, {"type": "Feature", "geometry": {"type": "Point", "coordinates": [-96.34577, 42.33758]}, "properties": {"kind": "turbine", "i": 6, "mw": 6.0, "hub_m": 120.0, "rotor_m": 150.0}}, {"type": "Feature", "geometry": {"type": "Point", "coordinates": [-96.34176, 42.32762]}, "properties": {"kind": "turbine", "i": 7, "mw": 6.0, "hub_m": 120.0, "rotor_m": 150.0}}, {"type": "Feature", "geometry": {"type": "Point", "coordinates": [-96.37206, 42.34476]}, "properties": {"kind": "turbine", "i": 8, "mw": 6.0, "hub_m": 120.0, "rotor_m": 150.0}}, {"type": "Feature", "geometry": {"type": "Point", "coordinates": [-96.39032, 42.33203]}, "properties": {"kind": "turbine", "i": 9, "mw": 6.0, "hub_m": 120.0, "rotor_m": 150.0}}, {"type": "Feature", "geometry": {"type": "Point", "coordinates": [-96.38548, 42.34178]}, "properties": {"kind": "turbine", "i": 10, "mw": 6.0, "hub_m": 120.0, "rotor_m": 150.0}}, {"type": "Feature", "geometry": {"type": "Point", "coordinates": [-96.37799, 42.30873]}, "properties": {"kind": "turbine", "i": 11, "mw": 6.0, "hub_m": 120.0, "rotor_m": 150.0}}, {"type": "Feature", "geometry": {"type": "Point", "coordinates": [-96.39529, 42.31899]}, "properties": {"kind": "turbine", "i": 12, "mw": 6.0, "hub_m": 120.0, "rotor_m": 150.0}}, {"type": "Feature", "geometry": {"type": "Point", "coordinates": [-96.34535, 42.34744]}, "properties": {"kind": "turbine", "i": 13, "mw": 6.0, "hub_m": 120.0, "rotor_m": 150.0}}, {"type": "Feature", "geometry": {"type": "Point", "coordinates": [-96.36279, 42.35442]}, "properties": {"kind": "turbine", "i": 14, "mw": 6.0, "hub_m": 120.0, "rotor_m": 150.0}}, {"type": "Feature", "geometry": {"type": "Point", "coordinates": [-96.32847, 42.32731]}, "properties": {"kind": "turbine", "i": 15, "mw": 6.0, "hub_m": 120.0, "rotor_m": 150.0}}, {"type": "Feature", "geometry": {"type": "Point", "coordinates": [-96.39127, 42.30903]}, "properties": {"kind": "turbine", "i": 16, "mw": 6.0, "hub_m": 120.0, "rotor_m": 150.0}}, {"type": "Feature", "geometry": {"type": "Point", "coordinates": [-96.37608, 42.35472]}, "properties": {"kind": "turbine", "i": 17, "mw": 6.0, "hub_m": 120.0, "rotor_m": 150.0}}, {"type": "Feature", "geometry": {"type": "Point", "coordinates": [-96.35171, 42.30155]}, "properties": {"kind": "turbine", "i": 18, "mw": 6.0, "hub_m": 120.0, "rotor_m": 150.0}}, {"type": "Feature", "geometry": {"type": "Point", "coordinates": [-96.39877, 42.34209]}, "properties": {"kind": "turbine", "i": 19, "mw": 6.0, "hub_m": 120.0, "rotor_m": 150.0}}, {"type": "Feature", "geometry": {"type": "Point", "coordinates": [-96.3784, 42.29887]}, "properties": {"kind": "turbine", "i": 20, "mw": 6.0, "hub_m": 120.0, "rotor_m": 150.0}}, {"type": "Feature", "geometry": {"type": "Point", "coordinates": [-96.34494, 42.35729]}, "properties": {"kind": "turbine", "i": 21, "mw": 6.0, "hub_m": 120.0, "rotor_m": 150.0}}]}