{"type": "FeatureCollection", "features": [{"type": "Feature", "geometry": {"type": "MultiPolygon", "coordinates": [[[[16.75907, 45.44123], [16.7585, 45.44222], [16.76346, 45.44159], [16.76627, 45.44096], [16.76847, 45.43975], [16.77018, 45.43801], [16.76612, 45.4408], [16.76468, 45.44126], [16.76378, 45.44138], [16.76299, 45.44083], [16.76169, 45.44089], [16.7608, 45.44026], [16.75919, 45.44087], [16.75907, 45.44123]]], [[[16.75497, 45.443], [16.75648, 45.44236], [16.75773, 45.44206], [16.75824, 45.44124], [16.75739, 45.44156], [16.75582, 45.44076], [16.75432, 45.44127], [16.75257, 45.43937], [16.75043, 45.43971], [16.75045, 45.44044], [16.75356, 45.44379], [16.75497, 45.443]]], [[[16.75819, 45.44322], [16.75624, 45.44374], [16.75088, 45.44659], [16.75126, 45.44714], [16.75068, 45.44762], [16.75071, 45.44871], [16.75168, 45.4502], [16.75375, 45.45462], [16.75478, 45.45763], [16.76343, 45.45615], [16.76351, 45.45569], [16.76398, 45.45544], [16.76485, 45.45554], [16.7651, 45.45613], [16.76906, 45.45401], [16.77318, 45.4523], [16.77437, 45.4511], [16.7742, 45.45067], [16.77287, 45.4495], [16.77274, 45.44916], [16.77362, 45.44827], [16.7716, 45.44675], [16.77078, 45.44677], [16.77007, 45.44707], [16.76961, 45.44836], [16.76894, 45.44841], [16.76861, 45.44933], [16.76789, 45.44975], [16.76608, 45.44856], [16.76592, 45.45027], [16.76639, 45.45124], [16.76706, 45.45196], [16.76584, 45.45261], [16.76408, 45.45245], [16.76203, 45.4528], [16.76047, 45.45362], [16.75941, 45.45495], [16.75646, 45.45545], [16.75392, 45.44968], [16.75305, 45.44832], [16.75362, 45.44722], [16.75785, 45.44501], [16.76017, 45.44458], [16.76119, 45.44403], [16.76376, 45.44342], [16.76547, 45.44386], [16.76633, 45.44367], [16.76844, 45.44297], [16.76978, 45.44232], [16.7717, 45.44098], [16.77316, 45.43954], [16.7731, 45.43926], [16.77174, 45.43857], [16.77395, 45.43633], [16.77322, 45.43639], [16.76999, 45.43984], [16.76734, 45.4415], [16.76438, 45.44236], [16.75819, 45.44322]], [[16.77093, 45.44899], [16.77145, 45.44902], [16.77217, 45.44937], [16.77282, 45.45009], [16.77284, 45.45056], [16.77235, 45.45088], [16.77124, 45.45079], [16.77018, 45.44995], [16.77014, 45.44937], [16.77093, 45.44899]]], [[[16.75209, 45.45572], [16.75183, 45.45662], [16.75264, 45.45753], [16.7539, 45.45736], [16.75301, 45.45478], [16.75075, 45.45006], [16.75093, 45.45574], [16.75209, 45.45572]]], [[[16.76387, 45.45653], [16.75587, 45.458], [16.75553, 45.45879], [16.7555, 45.46016], [16.75635, 45.46043], [16.75697, 45.46089], [16.76436, 45.45656], [16.76387, 45.45653]]], [[[16.75954, 45.46036], [16.7605, 45.46033], [16.76359, 45.46068], [16.76187, 45.46161], [16.76383, 45.46391], [16.76449, 45.46479], [16.76069, 45.46041], [16.75956, 45.4604], [16.75758, 45.46138], [16.75913, 45.46277], [16.7622, 45.46648], [16.76638, 45.4645], [16.76627, 45.46423], [16.76583, 45.46406], [16.76503, 45.46333], [16.76387, 45.46389], [16.76365, 45.46364], [16.76688, 45.4617], [16.76763, 45.46151], [16.76813, 45.46162], [16.76844, 45.46189], [16.76854, 45.46225], [16.76833, 45.46256], [16.77084, 45.46554], [16.77154, 45.46534], [16.77206, 45.4654], [16.77241, 45.46567], [16.77252, 45.46614], [16.77359, 45.46583], [16.77381, 45.46532], [16.77451, 45.46507], [16.77398, 45.4642], [16.77378, 45.4643], [16.77349, 45.46401], [16.77375, 45.46389], [16.7729, 45.46265], [16.77317, 45.46248], [16.77353, 45.46255], [16.77429, 45.46205], [16.7748, 45.46225], [16.77388, 45.46296], [16.77498, 45.46462], [16.77543, 45.46422], [16.77527, 45.46385], [16.77558, 45.46315], [16.77534, 45.46229], [16.77569, 45.46197], [16.77568, 45.46158], [16.77611, 45.46154], [16.7759, 45.46015], [16.7749, 45.46023], [16.77507, 45.45946], [16.77577, 45.45942], [16.77564, 45.45876], [16.77535, 45.45878], [16.77526, 45.45847], [16.77556, 45.45841], [16.77547, 45.45794], [16.77467, 45.45798], [16.77475, 45.45668], [16.77533, 45.45656], [16.77476, 45.45647], [16.77441, 45.45611], [16.77447, 45.45447], [16.77373, 45.45429], [16.77308, 45.45454], [16.77243, 45.45446], [16.77052, 45.4547], [16.77028, 45.45477], [16.77032, 45.45548], [16.76971, 45.45577], [16.76902, 45.45562], [16.76865, 45.455], [16.76512, 45.45697], [16.76569, 45.4573], [16.76724, 45.4575], [16.76567, 45.45745], [16.76446, 45.45796], [16.76521, 45.45903], [16.76457, 45.45935], [16.76387, 45.46034], [16.76303, 45.45975], [16.76279, 45.45876], [16.76313, 45.45814], [16.76334, 45.45846], [16.76472, 45.45856], [16.76398, 45.45763], [16.75909, 45.46049], [16.75954, 45.46036]], [[16.76131, 45.46135], [16.76113, 45.4616], [16.7611, 45.46165], [16.76099, 45.46154], [16.76131, 45.46135]], [[16.76594, 45.45975], [16.76529, 45.45899], [16.76597, 45.45872], [16.76661, 45.45947], [16.76594, 45.45975]], [[16.7711, 45.46239], [16.7707, 45.46254], [16.77027, 45.46245], [16.77005, 45.46218], [16.77016, 45.46188], [16.77058, 45.46172], [16.77099, 45.4618], [16.77122, 45.46207], [16.7711, 45.46239]], [[16.77299, 45.46367], [16.77305, 45.46418], [16.77246, 45.46454], [16.7718, 45.46451], [16.77137, 45.46414], [16.77142, 45.46367], [16.77197, 45.46336], [16.77257, 45.46337], [16.77299, 45.46367]], [[16.76965, 45.45874], [16.77161, 45.45845], [16.77297, 45.45915], [16.77271, 45.45987], [16.77227, 45.46019], [16.77172, 45.46001], [16.77063, 45.45923], [16.76922, 45.45872], [16.76965, 45.45874]], [[16.76803, 45.45856], [16.76791, 45.45855], [16.76777, 45.45855], [16.76783, 45.45851], [16.76803, 45.45856]]], [[[16.75101, 45.45831], [16.75101, 45.4585], [16.75132, 45.45845], [16.75101, 45.45831]]], [[[16.75267, 45.45878], [16.75103, 45.45905], [16.75222, 45.46029], [16.75289, 45.46012], [16.75298, 45.45925], [16.75267, 45.45878]]], [[[16.75273, 45.46073], [16.75368, 45.46152], [16.75329, 45.46063], [16.75273, 45.46073]]], [[[16.75588, 45.46086], [16.75583, 45.46083], [16.7561, 45.4614], [16.75638, 45.46124], [16.75588, 45.46086]]], [[[16.75506, 45.46181], [16.75496, 45.46175], [16.7549, 45.46212], [16.75536, 45.46184], [16.75506, 45.46181]]], [[[16.75336, 45.46245], [16.75117, 45.46366], [16.75119, 45.46429], [16.75378, 45.46277], [16.75336, 45.46245]]], [[[16.75699, 45.46173], [16.75585, 45.4624], [16.75672, 45.46261], [16.757, 45.46305], [16.75763, 45.46332], [16.75797, 45.46396], [16.7579, 45.46466], [16.75753, 45.46498], [16.75787, 45.46548], [16.75767, 45.46604], [16.75782, 45.46659], [16.75927, 45.46743], [16.75972, 45.46747], [16.76153, 45.46675], [16.75849, 45.46307], [16.75699, 45.46173]]], [[[16.75404, 45.46498], [16.75355, 45.4641], [16.75375, 45.46376], [16.75427, 45.4635], [16.75417, 45.46338], [16.75122, 45.46512], [16.75137, 45.46998], [16.75315, 45.47087], [16.75494, 45.47214], [16.75627, 45.47258], [16.75741, 45.47271], [16.7584, 45.47397], [16.7601, 45.47472], [16.76105, 45.47573], [16.76235, 45.47637], [16.76306, 45.47709], [16.76403, 45.47764], [16.764, 45.47776], [16.75977, 45.47849], [16.76175, 45.47986], [16.76551, 45.47919], [16.76704, 45.47868], [16.76754, 45.47844], [16.76697, 45.47769], [16.76625, 45.47704], [16.76418, 45.47585], [16.76429, 45.47561], [16.75861, 45.47258], [16.75735, 45.46981], [16.75552, 45.46816], [16.75472, 45.46813], [16.75424, 45.46768], [16.75424, 45.46726], [16.75461, 45.46698], [16.75443, 45.46566], [16.75404, 45.46498]]], [[[16.76339, 45.46714], [16.76284, 45.46684], [16.76021, 45.46789], [16.7601, 45.46886], [16.76131, 45.47085], [16.76662, 45.47517], [16.76668, 45.47552], [16.76688, 45.47544], [16.76709, 45.4757], [16.76761, 45.47556], [16.76901, 45.47754], [16.77045, 45.47667], [16.77019, 45.47627], [16.77149, 45.47513], [16.77095, 45.47436], [16.771, 45.47395], [16.77154, 45.4738], [16.77247, 45.47398], [16.7727, 45.47365], [16.7731, 45.47354], [16.77285, 45.47294], [16.77211, 45.47262], [16.77209, 45.47206], [16.77247, 45.47181], [16.77365, 45.47154], [16.77372, 45.47108], [16.77435, 45.47079], [16.77131, 45.46716], [16.76785, 45.4687], [16.76748, 45.4685], [16.76764, 45.4682], [16.76545, 45.46589], [16.76491, 45.46615], [16.76499, 45.46652], [16.76472, 45.46684], [16.76339, 45.46714]], [[16.76717, 45.47368], [16.76632, 45.47301], [16.76526, 45.47258], [16.76412, 45.47143], [16.76311, 45.47098], [16.76392, 45.4701], [16.7647, 45.47001], [16.76609, 45.47078], [16.76807, 45.47118], [16.7678, 45.47239], [16.7683, 45.47432], [16.76811, 45.47445], [16.76759, 45.47425], [16.76717, 45.47368]]], [[[16.75918, 45.47859], [16.75629, 45.4791], [16.758, 45.4805], [16.76163, 45.47988], [16.7597, 45.4785], [16.75918, 45.47859]]], [[[16.75525, 45.48109], [16.75797, 45.4805], [16.75624, 45.47911], [16.75169, 45.48034], [16.75175, 45.48212], [16.75525, 45.48109]]], [[[16.76546, 45.48137], [16.766, 45.48154], [16.76698, 45.48069], [16.76769, 45.48049], [16.76833, 45.48077], [16.76877, 45.48175], [16.76933, 45.48154], [16.76824, 45.48042], [16.76763, 45.47905], [16.766, 45.47976], [16.76222, 45.48033], [16.76231, 45.48046], [16.76085, 45.48071], [16.76235, 45.48329], [16.76444, 45.48284], [16.76412, 45.48245], [16.76413, 45.48197], [16.76546, 45.48137]]], [[[16.76037, 45.48065], [16.75652, 45.48134], [16.75176, 45.4827], [16.75185, 45.48559], [16.75561, 45.48472], [16.75739, 45.48378], [16.7571, 45.48349], [16.75736, 45.48323], [16.75824, 45.48348], [16.75865, 45.4834], [16.75922, 45.48378], [16.75913, 45.48409], [16.76228, 45.4833], [16.76079, 45.48072], [16.76037, 45.48065]]], [[[16.76632, 45.48311], [16.76543, 45.4833], [16.76556, 45.48378], [16.76609, 45.48348], [16.76716, 45.48331], [16.767, 45.48294], [16.76632, 45.48311]]], [[[16.76096, 45.48428], [16.76121, 45.48429], [16.76119, 45.48418], [16.76078, 45.48427], [16.76096, 45.48428]]], [[[16.75915, 45.48511], [16.75923, 45.48532], [16.75925, 45.48532], [16.75924, 45.4851], [16.75915, 45.48511]]], [[[16.75855, 45.48536], [16.75898, 45.48565], [16.75939, 45.48637], [16.75979, 45.48659], [16.75981, 45.48608], [16.7593, 45.48544], [16.75896, 45.48538], [16.75887, 45.48514], [16.75855, 45.48536]]], [[[16.76356, 45.48669], [16.76353, 45.48667], [16.76306, 45.48675], [16.76383, 45.48677], [16.76356, 45.48669]]], [[[16.75995, 45.48692], [16.75957, 45.48744], [16.76024, 45.48822], [16.7604, 45.4873], [16.75995, 45.48692]]], [[[16.75545, 45.48669], [16.75725, 45.48809], [16.75725, 45.48858], [16.75773, 45.48905], [16.75794, 45.48968], [16.75788, 45.49054], [16.75817, 45.48915], [16.75781, 45.48831], [16.75801, 45.48788], [16.75754, 45.48759], [16.75733, 45.48696], [16.75754, 45.48651], [16.75696, 45.48629], [16.75667, 45.48595], [16.75525, 45.48634], [16.75545, 45.48669]]], [[[16.76023, 45.48855], [16.76045, 45.48885], [16.76056, 45.48883], [16.76027, 45.48836], [16.76023, 45.48855]]], [[[16.76389, 45.491], [16.76252, 45.48987], [16.76185, 45.48869], [16.7617, 45.48752], [16.76214, 45.48687], [16.76153, 45.48663], [16.76126, 45.48588], [16.76021, 45.48584], [16.76092, 45.4874], [16.76144, 45.48732], [16.76145, 45.48778], [16.76109, 45.48764], [16.76071, 45.48799], [16.76087, 45.48859], [16.76128, 45.48862], [16.76176, 45.49045], [16.76227, 45.4905], [16.76244, 45.49077], [16.76289, 45.49067], [16.76299, 45.4911], [16.76326, 45.49104], [16.76334, 45.49123], [16.76447, 45.49122], [16.76362, 45.49156], [16.76368, 45.49173], [16.76434, 45.49174], [16.76452, 45.49216], [16.76485, 45.49215], [16.7649, 45.49351], [16.76549, 45.49368], [16.76576, 45.49406], [16.76573, 45.49438], [16.76492, 45.49409], [16.76497, 45.49596], [16.76527, 45.49551], [16.76641, 45.49527], [16.76675, 45.49539], [16.76609, 45.49264], [16.76653, 45.49237], [16.76644, 45.49202], [16.76675, 45.49191], [16.76389, 45.491]]], [[[16.76047, 45.48911], [16.76056, 45.4893], [16.76066, 45.48927], [16.76048, 45.48896], [16.76047, 45.48911]]], [[[16.75505, 45.49187], [16.75523, 45.49136], [16.75457, 45.49093], [16.75433, 45.49047], [16.75449, 45.49012], [16.7553, 45.48963], [16.75484, 45.48862], [16.75368, 45.48769], [16.75316, 45.48687], [16.7519, 45.48719], [16.75206, 45.49235], [16.75494, 45.4923], [16.75505, 45.49187]]], [[[16.76411, 45.49029], [16.76381, 45.49002], [16.76363, 45.49004], [16.764, 45.49037], [16.76411, 45.49029]]], [[[16.76125, 45.49082], [16.76086, 45.48943], [16.7606, 45.48933], [16.7607, 45.4899], [16.76021, 45.49048], [16.7601, 45.49124], [16.7602, 45.49208], [16.76036, 45.49222], [16.76267, 45.49218], [16.76233, 45.49149], [16.76129, 45.4916], [16.76103, 45.49133], [16.76144, 45.49112], [16.76125, 45.49082]]], [[[16.75696, 45.49209], [16.75694, 45.49215], [16.75695, 45.49224], [16.75702, 45.49198], [16.75696, 45.49209]]], [[[16.76404, 45.49216], [16.76396, 45.49215], [16.76379, 45.49217], [16.76404, 45.49216]]], [[[16.76671, 45.49917], [16.76702, 45.49867], [16.76499, 45.4964], [16.76505, 45.49826], [16.76552, 45.49833], [16.76571, 45.49871], [16.7657, 45.49893], [16.76534, 45.49894], [16.76533, 45.49968], [16.76509, 45.49982], [16.76609, 45.49989], [16.76555, 45.5003], [16.7658, 45.50072], [16.76574, 45.50089], [16.76549, 45.50087], [16.76556, 45.50114], [16.76595, 45.50112], [16.76671, 45.49917]]], [[[16.77466, 45.43308], [16.77442, 45.43414], [16.77296, 45.43588], [16.77392, 45.43574], [16.77444, 45.4359], [16.7753, 45.43515], [16.77492, 45.43228], [16.77695, 45.43131], [16.77654, 45.4297], [16.77911, 45.43021], [16.78031, 45.4302], [16.78128, 45.43046], [16.7822, 45.43048], [16.78501, 45.42991], [16.78646, 45.42916], [16.78935, 45.42941], [16.79036, 45.42874], [16.77373, 45.429], [16.77466, 45.43308]]], [[[16.77372, 45.43393], [16.77351, 45.43389], [16.77356, 45.43416], [16.77372, 45.43393]]], [[[16.77342, 45.43435], [16.77344, 45.43433], [16.77334, 45.43445], [16.77342, 45.43435]]], [[[16.7722, 45.44609], [16.77099, 45.44602], [16.77139, 45.44645], [16.77263, 45.44645], [16.77549, 45.44874], [16.77529, 45.45065], [16.77494, 45.45171], [16.77922, 45.45056], [16.7823, 45.44998], [16.78898, 45.44933], [16.78399, 45.44957], [16.78204, 45.4487], [16.78128, 45.44973], [16.77727, 45.45082], [16.7756, 45.45098], [16.77624, 45.44835], [16.77488, 45.44711], [16.77356, 45.44645], [16.7722, 45.44609]]], [[[16.77207, 45.45396], [16.77249, 45.45341], [16.7733, 45.45341], [16.77382, 45.45308], [16.77607, 45.45282], [16.7766, 45.45238], [16.77719, 45.45239], [16.77762, 45.45267], [16.7783, 45.4521], [16.77914, 45.45207], [16.77998, 45.45177], [16.78079, 45.45209], [16.7809, 45.45253], [16.78069, 45.45286], [16.78112, 45.4531], [16.78173, 45.45408], [16.78118, 45.45475], [16.78157, 45.45528], [16.78115, 45.45589], [16.78179, 45.45607], [16.78206, 45.45651], [16.78207, 45.45756], [16.78243, 45.45816], [16.78183, 45.45891], [16.78197, 45.45941], [16.78231, 45.45957], [16.78204, 45.45961], [16.78209, 45.45978], [16.78233, 45.45974], [16.78225, 45.46039], [16.78265, 45.46058], [16.78233, 45.46066], [16.78238, 45.46082], [16.78269, 45.46075], [16.78297, 45.46105], [16.78248, 45.46119], [16.78257, 45.46152], [16.78285, 45.46145], [16.7827, 45.46159], [16.78287, 45.46183], [16.78244, 45.4622], [16.78197, 45.4621], [16.78142, 45.46021], [16.78123, 45.46013], [16.78112, 45.45917], [16.78021, 45.45906], [16.77954, 45.45994], [16.77951, 45.4609], [16.77873, 45.46145], [16.77815, 45.46151], [16.77893, 45.46258], [16.77859, 45.46305], [16.77766, 45.46335], [16.77796, 45.46445], [16.78184, 45.46263], [16.78355, 45.46157], [16.78413, 45.46096], [16.78465, 45.4609], [16.78504, 45.46116], [16.7849, 45.46159], [16.781, 45.46376], [16.7765, 45.46555], [16.77682, 45.46606], [16.77647, 45.46666], [16.77584, 45.46683], [16.77533, 45.46674], [16.77528, 45.4672], [16.77616, 45.46744], [16.7765, 45.46787], [16.77615, 45.46841], [16.77644, 45.46869], [16.77645, 45.46918], [16.77594, 45.46959], [16.77631, 45.47005], [16.7762, 45.47079], [16.77861, 45.46956], [16.77818, 45.46913], [16.7782, 45.46869], [16.77883, 45.46821], [16.77942, 45.46812], [16.78007, 45.46841], [16.78018, 45.46894], [16.78075, 45.46953], [16.78078, 45.46979], [16.77933, 45.47077], [16.78008, 45.47127], [16.79333, 45.46366], [16.79547, 45.46266], [16.81366, 45.4556], [16.82793, 45.45134], [16.83177, 45.45065], [16.83129, 45.44964], [16.83053, 45.44909], [16.82999, 45.449], [16.82934, 45.44859], [16.82879, 45.44779], [16.82816, 45.44773], [16.82747, 45.44718], [16.82586, 45.44729], [16.82546, 45.44698], [16.82537, 45.44639], [16.82296, 45.44603], [16.82187, 45.44516], [16.82136, 45.44552], [16.82048, 45.44566], [16.82122, 45.44559], [16.82169, 45.44575], [16.82193, 45.44623], [16.82168, 45.44661], [16.81968, 45.44699], [16.8191, 45.4469], [16.81862, 45.44599], [16.81883, 45.44536], [16.81943, 45.44508], [16.81987, 45.44443], [16.8194, 45.4443], [16.81723, 45.44514], [16.81732, 45.44565], [16.81827, 45.44673], [16.81804, 45.44739], [16.81373, 45.44912], [16.8101, 45.45023], [16.81001, 45.45057], [16.80961, 45.45081], [16.8091, 45.45086], [16.80862, 45.45063], [16.8053, 45.45138], [16.80518, 45.45179], [16.80456, 45.4521], [16.80401, 45.45215], [16.80356, 45.45196], [16.80308, 45.45129], [16.80262, 45.44989], [16.80303, 45.44931], [16.80693, 45.44851], [16.81126, 45.44722], [16.81562, 45.44557], [16.81606, 45.44492], [16.81939, 45.44375], [16.81904, 45.44344], [16.81532, 45.4452], [16.81213, 45.44644], [16.80856, 45.44756], [16.80485, 45.44847], [16.7986, 45.44945], [16.78691, 45.45011], [16.78248, 45.45062], [16.77671, 45.45188], [16.77325, 45.45301], [16.7704, 45.45417], [16.77207, 45.45396]], [[16.80819, 45.45583], [16.79995, 45.45902], [16.79895, 45.45798], [16.79877, 45.45713], [16.79806, 45.45603], [16.79629, 45.45487], [16.79116, 45.45611], [16.79091, 45.4551], [16.78995, 45.45571], [16.78917, 45.45659], [16.7888, 45.45759], [16.78885, 45.45862], [16.78942, 45.45976], [16.79027, 45.46059], [16.79144, 45.46122], [16.79285, 45.46158], [16.79297, 45.46179], [16.78631, 45.46542], [16.78382, 45.46698], [16.78287, 45.46618], [16.78184, 45.46564], [16.78201, 45.46529], [16.78654, 45.46279], [16.78714, 45.46221], [16.78742, 45.46153], [16.78714, 45.46039], [16.78618, 45.4596], [16.78664, 45.45787], [16.78611, 45.4557], [16.78764, 45.45473], [16.78854, 45.45319], [16.78538, 45.45417], [16.78538, 45.45459], [16.78462, 45.45444], [16.78504, 45.45173], [16.78398, 45.45104], [16.78504, 45.45068], [16.78725, 45.4503], [16.80071, 45.4494], [16.8016, 45.45128], [16.79952, 45.45143], [16.79965, 45.45309], [16.8003, 45.45383], [16.80138, 45.45452], [16.8027, 45.45496], [16.80414, 45.45512], [16.80616, 45.45484], [16.80832, 45.45376], [16.81016, 45.45377], [16.81161, 45.45342], [16.81343, 45.45229], [16.81421, 45.45098], [16.81766, 45.4497], [16.81991, 45.44995], [16.82299, 45.44948], [16.82401, 45.44995], [16.82547, 45.45027], [16.81274, 45.45408], [16.80819, 45.45583]], [[16.78408, 45.4531], [16.78344, 45.45322], [16.78256, 45.45293], [16.78229, 45.45256], [16.78249, 45.45212], [16.78309, 45.45193], [16.78411, 45.45219], [16.78439, 45.45268], [16.78408, 45.4531]], [[16.79535, 45.45781], [16.79575, 45.45793], [16.79863, 45.46099], [16.79847, 45.46124], [16.79628, 45.46207], [16.7959, 45.46193], [16.79393, 45.45869], [16.79335, 45.45856], [16.79299, 45.45808], [16.79316, 45.45763], [16.79374, 45.4574], [16.79438, 45.45753], [16.79475, 45.45804], [16.79535, 45.45781]]], [[[16.77922, 45.45546], [16.77985, 45.45515], [16.77992, 45.45492], [16.77908, 45.4547], [16.77872, 45.45426], [16.77868, 45.45381], [16.77804, 45.45429], [16.77749, 45.45431], [16.77707, 45.45411], [16.77671, 45.45459], [16.77694, 45.45498], [16.7769, 45.45627], [16.77739, 45.45938], [16.77655, 45.45944], [16.7769, 45.4617], [16.77738, 45.46114], [16.7769, 45.46059], [16.77695, 45.46012], [16.77753, 45.45942], [16.77796, 45.45921], [16.77866, 45.45809], [16.77987, 45.45781], [16.77948, 45.45676], [16.77973, 45.45632], [16.77925, 45.45602], [16.77922, 45.45546]]], [[[16.76839, 45.46443], [16.76749, 45.46489], [16.76818, 45.46516], [16.76907, 45.46484], [16.76917, 45.46494], [16.76821, 45.46547], [16.76897, 45.46573], [16.77017, 45.46702], [16.77089, 45.46666], [16.76871, 45.46405], [16.76839, 45.46443]]], [[[16.76644, 45.46512], [16.76579, 45.46543], [16.7661, 45.46574], [16.76568, 45.46548], [16.76533, 45.46565], [16.76571, 45.46596], [16.76661, 45.46638], [16.76605, 45.46584], [16.76648, 45.46612], [16.76714, 45.4656], [16.76734, 45.46568], [16.76767, 45.46539], [16.76791, 45.46553], [16.76728, 45.46493], [16.76691, 45.4649], [16.76644, 45.46512]]], [[[16.77541, 45.46529], [16.77527, 45.46523], [16.77504, 45.46519], [16.77524, 45.46535], [16.77541, 45.46529]]], [[[16.77238, 45.46737], [16.77261, 45.46765], [16.77381, 45.46908], [16.77331, 45.46831], [16.77371, 45.46763], [16.77279, 45.46757], [16.77236, 45.46677], [16.77197, 45.46689], [16.77238, 45.46737]]], [[[16.77485, 45.47378], [16.77497, 45.47393], [16.77504, 45.47388], [16.7749, 45.47376], [16.77485, 45.47378]]], [[[16.77921, 45.47498], [16.77974, 45.47474], [16.77967, 45.47456], [16.77913, 45.47484], [16.77921, 45.47498]]], [[[16.77581, 45.47655], [16.77587, 45.47678], [16.7762, 45.47665], [16.77521, 45.47535], [16.77485, 45.47564], [16.77581, 45.47655]]], [[[16.77161, 45.47763], [16.77107, 45.47783], [16.77078, 45.4775], [16.76993, 45.47783], [16.77022, 45.47824], [16.77015, 45.47858], [16.77086, 45.47949], [16.77125, 45.47925], [16.7712, 45.47888], [16.7718, 45.47863], [16.77154, 45.47808], [16.77101, 45.47802], [16.77192, 45.47764], [16.77161, 45.47763]]], [[[16.76939, 45.48288], [16.7698, 45.48276], [16.76927, 45.48227], [16.76773, 45.48276], [16.76843, 45.48375], [16.76856, 45.48318], [16.76939, 45.48288]]], [[[16.76913, 45.48918], [16.76875, 45.48919], [16.76835, 45.48874], [16.76795, 45.48726], [16.76761, 45.48727], [16.76751, 45.48708], [16.76766, 45.48687], [16.76714, 45.4866], [16.76674, 45.48585], [16.76611, 45.48568], [16.76593, 45.48632], [16.7661, 45.48753], [16.7669, 45.48819], [16.76682, 45.48901], [16.76763, 45.48969], [16.76753, 45.4913], [16.76801, 45.49136], [16.76827, 45.49072], [16.76819, 45.49008], [16.76855, 45.48983], [16.7694, 45.49091], [16.7691, 45.49103], [16.76919, 45.49145], [16.76786, 45.49206], [16.76809, 45.49243], [16.76866, 45.49237], [16.76883, 45.49262], [16.76997, 45.49243], [16.77006, 45.49258], [16.76879, 45.49286], [16.76912, 45.49354], [16.76875, 45.49355], [16.76926, 45.49457], [16.76975, 45.49484], [16.76948, 45.49495], [16.76964, 45.49538], [16.77021, 45.49607], [16.76998, 45.49656], [16.77006, 45.49668], [16.77039, 45.49661], [16.7705, 45.49676], [16.77026, 45.49687], [16.77105, 45.49721], [16.77212, 45.4967], [16.77196, 45.49627], [16.77121, 45.49646], [16.77111, 45.49632], [16.77191, 45.49609], [16.77127, 45.49491], [16.77177, 45.49472], [16.77172, 45.49455], [16.7714, 45.49461], [16.77135, 45.49428], [16.77185, 45.49402], [16.77156, 45.49358], [16.7705, 45.49361], [16.77044, 45.49348], [16.7708, 45.49339], [16.77085, 45.49314], [16.77171, 45.49293], [16.77146, 45.49212], [16.77116, 45.49215], [16.77107, 45.49187], [16.77049, 45.49192], [16.77017, 45.49163], [16.7707, 45.49148], [16.77067, 45.49136], [16.76913, 45.48918]]], [[[16.77237, 45.48893], [16.7724, 45.48892], [16.77238, 45.48891], [16.77238, 45.48891], [16.77237, 45.48893]]], [[[16.77273, 45.48908], [16.77244, 45.48895], [16.77143, 45.48936], [16.77154, 45.48949], [16.77187, 45.48936], [16.772, 45.48951], [16.77285, 45.48917], [16.77273, 45.48908]]], [[[16.77159, 45.48925], [16.77149, 45.48926], [16.77135, 45.48926], [16.7714, 45.48932], [16.77159, 45.48925]]], [[[16.77283, 45.49015], [16.77377, 45.49027], [16.77293, 45.48921], [16.77317, 45.48951], [16.77223, 45.4899], [16.77249, 45.49029], [16.77283, 45.49015]]], [[[16.77402, 45.49054], [16.77403, 45.4908], [16.77416, 45.49085], [16.7742, 45.49084], [16.77402, 45.49054]]], [[[16.77958, 45.49147], [16.77979, 45.49099], [16.78007, 45.49089], [16.78003, 45.49076], [16.77924, 45.49089], [16.77959, 45.49171], [16.77977, 45.49161], [16.77958, 45.49147]]], [[[16.78062, 45.49148], [16.78072, 45.49176], [16.78102, 45.49104], [16.78085, 45.49088], [16.78012, 45.49105], [16.78004, 45.49125], [16.78047, 45.49126], [16.78062, 45.49148]]], [[[16.77455, 45.49171], [16.7745, 45.4916], [16.77447, 45.49148], [16.77456, 45.49188], [16.77455, 45.49171]]], [[[16.77454, 45.49228], [16.7745, 45.49212], [16.77454, 45.49192], [16.77435, 45.49198], [16.77454, 45.49228]]], [[[16.77261, 45.49337], [16.77303, 45.4946], [16.77278, 45.49482], [16.77314, 45.49511], [16.77334, 45.49575], [16.77425, 45.4957], [16.7736, 45.49584], [16.77407, 45.49637], [16.77443, 45.49639], [16.77446, 45.49675], [16.77418, 45.49694], [16.77506, 45.49699], [16.77506, 45.49725], [16.77433, 45.49728], [16.77435, 45.49765], [16.77484, 45.49767], [16.77501, 45.49806], [16.77399, 45.49792], [16.77364, 45.49752], [16.77326, 45.49773], [16.77316, 45.49752], [16.77289, 45.49755], [16.77295, 45.49809], [16.77247, 45.49823], [16.7721, 45.49785], [16.77185, 45.49788], [16.77154, 45.49882], [16.77091, 45.49885], [16.77094, 45.49952], [16.77041, 45.49966], [16.76973, 45.49915], [16.76902, 45.4994], [16.76861, 45.49895], [16.76918, 45.49894], [16.76963, 45.49857], [16.7694, 45.49822], [16.77026, 45.4977], [16.77065, 45.49799], [16.77113, 45.49772], [16.77084, 45.49739], [16.77064, 45.49749], [16.76992, 45.49728], [16.76987, 45.49665], [16.76929, 45.4966], [16.76821, 45.49717], [16.76802, 45.4975], [16.7686, 45.49936], [16.76805, 45.5001], [16.76791, 45.5011], [16.77334, 45.50102], [16.77425, 45.50044], [16.77452, 45.49896], [16.77543, 45.49795], [16.7755, 45.49712], [16.77577, 45.49677], [16.77552, 45.49524], [16.77566, 45.49431], [16.77536, 45.49431], [16.77492, 45.49389], [16.77396, 45.49412], [16.77386, 45.49388], [16.77411, 45.4938], [16.77424, 45.49396], [16.77486, 45.49379], [16.77478, 45.49332], [16.77369, 45.49249], [16.773, 45.49261], [16.77174, 45.492], [16.77239, 45.49253], [16.77261, 45.49337]], [[16.77358, 45.49545], [16.77434, 45.49539], [16.77438, 45.49552], [16.77351, 45.4956], [16.77345, 45.49529], [16.77435, 45.4952], [16.77355, 45.49533], [16.77358, 45.49545]]], [[[16.78016, 45.49374], [16.77974, 45.4939], [16.78002, 45.49402], [16.78064, 45.4939], [16.78062, 45.49303], [16.77986, 45.49343], [16.78017, 45.4935], [16.78016, 45.49374]]], [[[16.76754, 45.49493], [16.76757, 45.4955], [16.7688, 45.4952], [16.7685, 45.4947], [16.76754, 45.49493]]], [[[16.77831, 45.49737], [16.77909, 45.49749], [16.77943, 45.49797], [16.77976, 45.49787], [16.77945, 45.49607], [16.78016, 45.49442], [16.77963, 45.49432], [16.77892, 45.49601], [16.77794, 45.49589], [16.77797, 45.49716], [16.77773, 45.49754], [16.77724, 45.49773], [16.77735, 45.49857], [16.77701, 45.4991], [16.77818, 45.49916], [16.77931, 45.50084], [16.77831, 45.49902], [16.7784, 45.49885], [16.7779, 45.4987], [16.7776, 45.49834], [16.77771, 45.49769], [16.77831, 45.49737]]], [[[16.77692, 45.50006], [16.777, 45.49982], [16.77705, 45.49918], [16.77667, 45.4997], [16.77665, 45.50004], [16.77692, 45.50006]]], [[[16.78147, 45.50003], [16.78064, 45.50045], [16.78019, 45.50091], [16.78123, 45.5009], [16.78117, 45.50073], [16.78158, 45.50061], [16.78122, 45.50046], [16.7812, 45.50024], [16.78163, 45.50019], [16.78147, 45.50003]]], [[[16.77635, 45.5005], [16.77611, 45.50091], [16.77612, 45.50098], [16.77645, 45.50097], [16.77631, 45.50078], [16.77652, 45.50033], [16.77635, 45.5005]]], [[[16.78941, 45.47286], [16.78906, 45.47296], [16.78804, 45.47186], [16.78906, 45.47128], [16.78844, 45.47074], [16.78783, 45.47108], [16.78796, 45.47147], [16.78776, 45.4718], [16.7863, 45.47267], [16.78701, 45.47331], [16.78775, 45.47308], [16.78838, 45.47324], [16.78874, 45.4738], [16.78845, 45.47433], [16.79093, 45.47338], [16.78941, 45.47286]]], [[[16.78978, 45.47467], [16.7908, 45.47538], [16.79089, 45.47534], [16.78977, 45.47445], [16.78947, 45.47456], [16.78978, 45.47467]]], [[[16.78746, 45.47536], [16.78752, 45.47529], [16.78722, 45.47541], [16.78724, 45.47543], [16.78746, 45.47536]]], [[[16.78193, 45.47619], [16.7818, 45.476], [16.78169, 45.47602], [16.78183, 45.47622], [16.78193, 45.47619]]], [[[16.78917, 45.47704], [16.78869, 45.47707], [16.78944, 45.47762], [16.78999, 45.47759], [16.79059, 45.47783], [16.79136, 45.4775], [16.79048, 45.4775], [16.78989, 45.47684], [16.78917, 45.47704]]], [[[16.78916, 45.47758], [16.78923, 45.47758], [16.78929, 45.47759], [16.7892, 45.47752], [16.78916, 45.47758]]], [[[16.78682, 45.47791], [16.78731, 45.47796], [16.78733, 45.47767], [16.78697, 45.47763], [16.7864, 45.4779], [16.78682, 45.47791]]], [[[16.78414, 45.47804], [16.78441, 45.47805], [16.78475, 45.47793], [16.78414, 45.47796], [16.78414, 45.47804]]], [[[16.78432, 45.47836], [16.78457, 45.47854], [16.78483, 45.479], [16.78516, 45.47879], [16.78479, 45.47825], [16.78432, 45.47836]]], [[[16.78949, 45.47968], [16.78904, 45.47997], [16.78812, 45.48006], [16.78833, 45.4803], [16.78901, 45.48004], [16.7896, 45.4801], [16.7901, 45.48054], [16.79018, 45.48097], [16.78871, 45.48202], [16.78857, 45.48275], [16.78809, 45.48306], [16.78895, 45.48469], [16.79012, 45.48546], [16.79273, 45.48441], [16.7925, 45.48411], [16.79187, 45.48394], [16.79211, 45.48342], [16.79196, 45.48322], [16.79132, 45.48346], [16.79175, 45.48321], [16.7916, 45.48303], [16.7912, 45.48321], [16.79101, 45.48292], [16.78959, 45.48368], [16.78948, 45.48356], [16.79136, 45.48239], [16.79093, 45.48236], [16.7912, 45.48194], [16.791, 45.48172], [16.79065, 45.48187], [16.79079, 45.48127], [16.79054, 45.48099], [16.7903, 45.48107], [16.79049, 45.48091], [16.78949, 45.47968]]], [[[16.78293, 45.48368], [16.78344, 45.48489], [16.78303, 45.48595], [16.7839, 45.48546], [16.78389, 45.4847], [16.78255, 45.48281], [16.78293, 45.48368]]], [[[16.78162, 45.48286], [16.7816, 45.48285], [16.78152, 45.48287], [16.78168, 45.48289], [16.78162, 45.48286]]], [[[16.78752, 45.48671], [16.78942, 45.48775], [16.78887, 45.48829], [16.78968, 45.48898], [16.79055, 45.48906], [16.79064, 45.48854], [16.79174, 45.48855], [16.7928, 45.48826], [16.792, 45.48827], [16.79118, 45.48788], [16.79093, 45.48799], [16.79053, 45.48784], [16.79086, 45.48764], [16.79057, 45.48728], [16.78811, 45.48592], [16.78798, 45.48567], [16.78745, 45.48544], [16.78706, 45.48483], [16.7871, 45.48552], [16.78786, 45.48628], [16.78752, 45.48671]]], [[[16.78326, 45.48724], [16.78244, 45.48683], [16.7819, 45.48687], [16.7823, 45.48819], [16.78314, 45.48785], [16.78386, 45.48794], [16.78374, 45.48749], [16.78326, 45.48724]]], [[[16.78441, 45.48719], [16.78459, 45.48834], [16.78484, 45.48827], [16.78512, 45.4887], [16.7855, 45.48856], [16.78441, 45.48719]]], [[[16.78346, 45.48964], [16.78394, 45.48917], [16.78397, 45.48889], [16.78317, 45.48902], [16.78274, 45.48962], [16.78292, 45.49034], [16.78315, 45.49033], [16.78346, 45.48964]]], [[[16.78509, 45.4907], [16.78491, 45.48965], [16.78522, 45.48941], [16.78559, 45.48951], [16.78568, 45.48983], [16.78749, 45.49042], [16.7882, 45.49028], [16.78755, 45.48964], [16.78475, 45.48906], [16.78395, 45.4902], [16.78403, 45.49099], [16.78462, 45.49098], [16.78509, 45.4907]]], [[[16.78529, 45.49131], [16.78539, 45.49146], [16.78531, 45.49129], [16.78529, 45.49131]]], [[[16.78289, 45.49162], [16.78279, 45.49171], [16.78295, 45.49371], [16.78387, 45.49335], [16.78318, 45.49236], [16.78313, 45.49163], [16.78289, 45.49162]]], [[[16.786, 45.49182], [16.78552, 45.4917], [16.7853, 45.49168], [16.78574, 45.49193], [16.786, 45.49182]]], [[[16.78391, 45.49219], [16.78398, 45.4923], [16.78388, 45.49207], [16.78391, 45.49219]]], [[[16.7872, 45.49358], [16.78473, 45.49205], [16.78493, 45.49284], [16.78476, 45.49339], [16.7852, 45.49338], [16.78541, 45.49386], [16.78468, 45.49405], [16.7844, 45.49383], [16.78365, 45.494], [16.78345, 45.49429], [16.78421, 45.49431], [16.78485, 45.49474], [16.787, 45.49446], [16.78682, 45.49379], [16.78731, 45.49375], [16.7872, 45.49358]]], [[[16.79025, 45.49298], [16.79007, 45.49271], [16.78627, 45.49187], [16.78641, 45.4922], [16.78626, 45.49226], [16.7867, 45.49262], [16.78788, 45.49311], [16.78831, 45.49373], [16.78828, 45.49441], [16.78895, 45.49526], [16.7899, 45.49562], [16.79016, 45.49566], [16.79021, 45.4955], [16.79158, 45.49586], [16.79372, 45.49597], [16.79383, 45.4953], [16.79308, 45.49506], [16.79313, 45.49472], [16.79255, 45.49476], [16.7925, 45.49501], [16.79049, 45.49511], [16.79032, 45.49485], [16.78893, 45.49523], [16.78887, 45.4951], [16.78945, 45.4948], [16.78936, 45.49452], [16.78857, 45.4942], [16.78889, 45.49368], [16.78828, 45.49294], [16.78864, 45.49278], [16.79055, 45.49358], [16.79025, 45.49298]]], [[[16.78453, 45.49593], [16.78449, 45.49557], [16.78451, 45.49552], [16.78425, 45.49574], [16.78453, 45.49593]]], [[[16.78354, 45.49684], [16.7837, 45.49653], [16.78409, 45.49638], [16.78349, 45.49594], [16.78349, 45.4956], [16.78413, 45.49494], [16.78312, 45.4948], [16.78295, 45.49516], [16.7832, 45.49553], [16.78313, 45.49644], [16.78324, 45.49686], [16.78354, 45.49684]]], [[[16.79109, 45.49633], [16.79056, 45.49625], [16.79055, 45.49679], [16.79101, 45.4968], [16.79104, 45.49711], [16.79178, 45.49709], [16.79132, 45.49706], [16.79136, 45.49638], [16.79109, 45.49633]]], [[[16.78403, 45.49736], [16.78401, 45.49736], [16.78403, 45.49736], [16.78403, 45.49736]]], [[[16.7834, 45.49741], [16.78348, 45.49739], [16.78327, 45.49749], [16.78337, 45.49743], [16.7834, 45.49741]]], [[[16.78628, 45.49894], [16.78736, 45.49955], [16.78776, 45.49928], [16.78848, 45.49956], [16.7892, 45.49923], [16.78797, 45.49815], [16.78827, 45.49801], [16.78804, 45.49781], [16.7889, 45.49745], [16.78852, 45.49715], [16.78693, 45.49752], [16.78641, 45.49699], [16.78609, 45.49699], [16.78607, 45.49679], [16.78682, 45.49637], [16.78707, 45.49642], [16.7875, 45.49705], [16.78858, 45.49684], [16.78953, 45.49767], [16.79032, 45.49749], [16.78915, 45.49689], [16.78873, 45.49618], [16.78817, 45.49647], [16.78757, 45.49583], [16.78623, 45.496], [16.78607, 45.49576], [16.78553, 45.4959], [16.78566, 45.49619], [16.78504, 45.4964], [16.78469, 45.49681], [16.786, 45.49799], [16.78647, 45.49763], [16.78702, 45.49761], [16.78836, 45.49853], [16.78842, 45.49881], [16.78788, 45.49894], [16.78678, 45.49818], [16.78638, 45.4985], [16.78583, 45.49853], [16.78472, 45.49766], [16.78394, 45.49877], [16.78471, 45.49927], [16.78476, 45.49955], [16.78415, 45.49969], [16.78357, 45.49926], [16.78322, 45.49945], [16.78333, 45.49997], [16.78499, 45.49979], [16.78557, 45.49948], [16.7858, 45.49886], [16.78628, 45.49894]]], [[[16.78327, 45.49851], [16.78357, 45.4981], [16.78313, 45.49786], [16.78286, 45.49863], [16.78316, 45.49868], [16.78327, 45.49851]]], [[[16.7823, 45.49927], [16.78247, 45.49928], [16.78258, 45.49913], [16.78236, 45.49911], [16.7823, 45.49927]]], [[[16.78251, 45.49974], [16.78225, 45.49963], [16.78232, 45.49992], [16.78255, 45.49991], [16.78251, 45.49974]]], [[[16.78239, 45.50012], [16.78248, 45.50038], [16.78252, 45.50038], [16.78254, 45.50011], [16.78239, 45.50012]]], [[[16.80044, 45.43143], [16.79967, 45.43012], [16.79897, 45.43048], [16.79828, 45.43049], [16.79701, 45.42934], [16.79609, 45.42941], [16.79686, 45.42994], [16.79689, 45.43078], [16.79961, 45.43185], [16.80275, 45.4324], [16.80259, 45.43198], [16.80317, 45.43154], [16.80263, 45.43147], [16.80137, 45.43168], [16.80044, 45.43143]]], [[[16.79427, 45.43702], [16.79422, 45.43702], [16.79332, 45.43707], [16.7946, 45.43728], [16.7949, 45.43705], [16.79427, 45.43702]]], [[[16.7995, 45.44794], [16.79873, 45.44709], [16.79517, 45.44739], [16.79591, 45.44857], [16.79828, 45.44824], [16.79854, 45.44862], [16.79957, 45.4485], [16.79961, 45.44819], [16.80122, 45.44806], [16.80198, 45.44832], [16.80453, 45.44786], [16.80695, 45.44729], [16.80822, 45.44695], [16.81171, 45.44586], [16.81477, 45.44467], [16.81848, 45.44292], [16.81689, 45.44142], [16.81797, 45.44288], [16.81552, 45.4438], [16.80887, 45.4461], [16.80502, 45.44716], [16.80412, 45.44621], [16.8009, 45.44679], [16.80126, 45.44762], [16.7995, 45.44794]], [[16.80916, 45.44661], [16.80557, 45.44761], [16.80368, 45.44788], [16.80511, 45.44759], [16.80541, 45.44736], [16.81195, 45.44538], [16.81673, 45.44372], [16.81359, 45.44509], [16.80916, 45.44661]]], [[[16.79889, 45.44875], [16.80063, 45.44854], [16.80175, 45.44836], [16.79889, 45.44875]]], [[[16.80134, 45.461], [16.80482, 45.45992], [16.80514, 45.46024], [16.8069, 45.45991], [16.81026, 45.45866], [16.81071, 45.45873], [16.81063, 45.45913], [16.80623, 45.46088], [16.80793, 45.46319], [16.80597, 45.46391], [16.80723, 45.4665], [16.81703, 45.46278], [16.82602, 45.45998], [16.83091, 45.45897], [16.83599, 45.45815], [16.83588, 45.45739], [16.83665, 45.45699], [16.83571, 45.45651], [16.8354, 45.45574], [16.83562, 45.45523], [16.83537, 45.45491], [16.83542, 45.45451], [16.83592, 45.454], [16.83577, 45.45377], [16.83492, 45.45367], [16.83452, 45.45306], [16.83298, 45.45215], [16.83274, 45.45173], [16.83295, 45.45112], [16.82979, 45.45146], [16.81398, 45.4561], [16.80134, 45.461]], [[16.81434, 45.46189], [16.80999, 45.46355], [16.80915, 45.46158], [16.81195, 45.46051], [16.81254, 45.46012], [16.81311, 45.45927], [16.81304, 45.45835], [16.815, 45.45759], [16.82907, 45.45339], [16.83115, 45.45505], [16.83156, 45.45715], [16.82511, 45.45845], [16.81434, 45.46189]]], [[[16.79703, 45.46299], [16.79766, 45.4625], [16.79391, 45.4641], [16.79595, 45.46348], [16.79703, 45.46299]]], [[[16.80731, 45.46708], [16.79912, 45.47023], [16.79923, 45.47046], [16.80028, 45.47131], [16.80135, 45.4715], [16.8018, 45.47199], [16.80281, 45.4722], [16.80369, 45.47262], [16.80486, 45.4729], [16.80648, 45.47267], [16.80747, 45.47358], [16.8083, 45.47327], [16.80889, 45.47332], [16.80939, 45.47378], [16.80917, 45.47428], [16.80987, 45.47475], [16.81104, 45.47501], [16.81147, 45.47563], [16.81225, 45.47512], [16.81233, 45.47546], [16.81399, 45.47476], [16.8133, 45.4736], [16.81312, 45.47366], [16.81298, 45.47346], [16.81328, 45.47313], [16.8138, 45.47315], [16.81458, 45.47413], [16.81486, 45.47421], [16.81523, 45.47397], [16.81514, 45.47385], [16.81594, 45.47346], [16.81616, 45.47302], [16.81626, 45.47317], [16.81677, 45.47288], [16.8166, 45.47273], [16.81514, 45.47327], [16.81474, 45.47311], [16.81485, 45.4728], [16.8162, 45.47227], [16.81569, 45.47154], [16.81585, 45.47126], [16.81628, 45.47126], [16.81682, 45.47157], [16.81683, 45.47182], [16.81707, 45.47177], [16.81717, 45.47199], [16.81691, 45.47204], [16.81751, 45.47265], [16.81878, 45.47169], [16.81968, 45.47132], [16.81942, 45.47136], [16.81923, 45.47112], [16.8195, 45.47105], [16.81941, 45.47088], [16.81995, 45.47077], [16.82016, 45.47111], [16.82027, 45.47084], [16.82074, 45.47088], [16.82053, 45.47051], [16.82087, 45.47039], [16.82125, 45.47071], [16.8215, 45.47064], [16.82124, 45.4705], [16.8221, 45.47017], [16.82223, 45.47033], [16.82272, 45.4701], [16.82281, 45.47027], [16.82307, 45.4702], [16.8229, 45.46991], [16.82379, 45.46967], [16.82374, 45.46938], [16.82388, 45.46963], [16.82412, 45.46928], [16.82395, 45.469], [16.8242, 45.46894], [16.82448, 45.46912], [16.82492, 45.46872], [16.82472, 45.46866], [16.82495, 45.46847], [16.82482, 45.46825], [16.82532, 45.46799], [16.82515, 45.46783], [16.82551, 45.46796], [16.82544, 45.46747], [16.8261, 45.46712], [16.82591, 45.46678], [16.82623, 45.46668], [16.82638, 45.46682], [16.82617, 45.46722], [16.82647, 45.4671], [16.8267, 45.46648], [16.8273, 45.46595], [16.82709, 45.46477], [16.82745, 45.46312], [16.82518, 45.46481], [16.82444, 45.46608], [16.82319, 45.46757], [16.82183, 45.46876], [16.81999, 45.46927], [16.818, 45.47012], [16.81658, 45.46959], [16.815, 45.46971], [16.81378, 45.47043], [16.81333, 45.47141], [16.81239, 45.47158], [16.81089, 45.47071], [16.80708, 45.46973], [16.80759, 45.46885], [16.81841, 45.46476], [16.82796, 45.46187], [16.82816, 45.46139], [16.82876, 45.46131], [16.8289, 45.46168], [16.83206, 45.46103], [16.83209, 45.46128], [16.82978, 45.46195], [16.82867, 45.46249], [16.82909, 45.46344], [16.83091, 45.46505], [16.83159, 45.46463], [16.83274, 45.46426], [16.83326, 45.46428], [16.83363, 45.4645], [16.83401, 45.46393], [16.83491, 45.46374], [16.83729, 45.46228], [16.83718, 45.46195], [16.83634, 45.46131], [16.8362, 45.4604], [16.83644, 45.46], [16.8361, 45.45868], [16.8311, 45.45949], [16.8263, 45.46048], [16.81737, 45.46326], [16.80731, 45.46708]]], [[[16.79506, 45.47084], [16.79526, 45.471], [16.79648, 45.47045], [16.79718, 45.47036], [16.7977, 45.47005], [16.79731, 45.46955], [16.79701, 45.46949], [16.7949, 45.47073], [16.79506, 45.47084]]], [[[16.79386, 45.47327], [16.79407, 45.47318], [16.79424, 45.47336], [16.79577, 45.47226], [16.79546, 45.47206], [16.79507, 45.47224], [16.79362, 45.47314], [16.79386, 45.47327]]], [[[16.79879, 45.47345], [16.79828, 45.47313], [16.79823, 45.47271], [16.79745, 45.47269], [16.79689, 45.47213], [16.79636, 45.47234], [16.79587, 45.47229], [16.79388, 45.4737], [16.79439, 45.47408], [16.7928, 45.47409], [16.79311, 45.47429], [16.7947, 45.47429], [16.79714, 45.47623], [16.79764, 45.47686], [16.7969, 45.47626], [16.79682, 45.47644], [16.79643, 45.47641], [16.79582, 45.47669], [16.79622, 45.47734], [16.7969, 45.47777], [16.79726, 45.4785], [16.79697, 45.47901], [16.79717, 45.47909], [16.79745, 45.47867], [16.79809, 45.47853], [16.79869, 45.4788], [16.79877, 45.47926], [16.80241, 45.47944], [16.80562, 45.47744], [16.80561, 45.47722], [16.8063, 45.47712], [16.80715, 45.47643], [16.80767, 45.47633], [16.80707, 45.47605], [16.80616, 45.47517], [16.8053, 45.47487], [16.80473, 45.47438], [16.80382, 45.47417], [16.80299, 45.47422], [16.80221, 45.47371], [16.80168, 45.47427], [16.80103, 45.47438], [16.79965, 45.47397], [16.79914, 45.47347], [16.79879, 45.47345]], [[16.80294, 45.47733], [16.80255, 45.47763], [16.80228, 45.47727], [16.80269, 45.47719], [16.80294, 45.47733]]], [[[16.79109, 45.47524], [16.79097, 45.4753], [16.7911, 45.47524], [16.79141, 45.47507], [16.79098, 45.47515], [16.79109, 45.47524]]], [[[16.79518, 45.47555], [16.79552, 45.47591], [16.79594, 45.47583], [16.79574, 45.47558], [16.79518, 45.47555]]], [[[16.79218, 45.47714], [16.79221, 45.47702], [16.792, 45.47724], [16.79216, 45.47721], [16.79218, 45.47714]]], [[[16.79644, 45.47853], [16.79647, 45.47854], [16.79645, 45.47853], [16.79644, 45.47853]]], [[[16.81401, 45.47842], [16.8138, 45.47832], [16.81346, 45.47847], [16.81315, 45.47806], [16.81243, 45.47791], [16.81273, 45.47775], [16.8126, 45.47767], [16.81079, 45.47679], [16.81064, 45.47692], [16.81041, 45.47681], [16.81056, 45.47665], [16.80977, 45.47635], [16.80891, 45.47682], [16.80738, 45.47705], [16.80702, 45.47736], [16.80721, 45.47756], [16.80689, 45.47786], [16.80829, 45.47911], [16.80812, 45.47945], [16.80837, 45.47959], [16.80858, 45.47941], [16.80961, 45.48011], [16.80985, 45.48008], [16.81098, 45.48105], [16.81072, 45.4817], [16.81113, 45.48206], [16.81136, 45.48195], [16.81182, 45.48257], [16.81158, 45.48273], [16.81178, 45.48341], [16.81208, 45.48333], [16.81242, 45.48395], [16.81184, 45.48405], [16.81183, 45.4859], [16.81146, 45.48594], [16.81141, 45.48619], [16.81166, 45.48622], [16.81169, 45.48707], [16.81254, 45.48709], [16.81253, 45.48756], [16.81224, 45.48757], [16.81199, 45.48719], [16.81137, 45.48712], [16.81138, 45.48737], [16.81154, 45.48764], [16.81179, 45.4876], [16.81228, 45.48884], [16.81267, 45.48918], [16.81367, 45.48895], [16.8137, 45.48803], [16.81444, 45.48739], [16.81447, 45.48658], [16.81492, 45.48567], [16.81546, 45.48564], [16.81572, 45.48581], [16.81522, 45.48668], [16.8151, 45.48773], [16.81443, 45.48821], [16.81455, 45.48914], [16.81424, 45.4897], [16.81354, 45.48995], [16.81429, 45.48978], [16.8147, 45.48922], [16.81589, 45.48864], [16.81555, 45.48791], [16.81543, 45.48668], [16.81649, 45.48524], [16.81716, 45.48524], [16.81588, 45.48401], [16.81419, 45.48415], [16.81395, 45.48256], [16.81252, 45.48077], [16.81162, 45.48042], [16.81039, 45.47926], [16.80908, 45.47869], [16.80869, 45.47809], [16.80792, 45.47809], [16.80732, 45.47782], [16.8076, 45.47742], [16.80943, 45.47775], [16.80971, 45.4781], [16.81047, 45.47848], [16.81145, 45.47815], [16.81179, 45.4783], [16.81125, 45.47867], [16.81164, 45.47888], [16.81164, 45.47929], [16.81275, 45.47979], [16.81347, 45.47967], [16.81324, 45.47902], [16.81364, 45.47918], [16.8151, 45.47903], [16.81607, 45.4792], [16.81601, 45.47938], [16.81444, 45.47939], [16.8139, 45.47981], [16.81338, 45.47992], [16.81339, 45.48008], [16.8149, 45.48052], [16.81435, 45.47984], [16.8147, 45.47974], [16.81599, 45.48008], [16.8172, 45.47973], [16.8172, 45.48022], [16.8179, 45.48101], [16.81861, 45.48085], [16.81805, 45.47999], [16.8171, 45.4795], [16.81696, 45.47961], [16.81642, 45.47949], [16.81653, 45.47922], [16.81628, 45.4791], [16.81596, 45.47902], [16.81587, 45.47916], [16.81517, 45.47881], [16.81493, 45.47896], [16.8147, 45.4788], [16.81448, 45.47889], [16.81401, 45.47842]]], [[[16.81163, 45.47954], [16.81167, 45.47954], [16.81163, 45.47951], [16.81163, 45.47954]]], [[[16.80952, 45.48185], [16.80771, 45.48035], [16.80731, 45.48014], [16.80694, 45.48025], [16.80662, 45.4798], [16.80686, 45.47952], [16.80572, 45.47901], [16.80488, 45.4791], [16.80461, 45.4793], [16.80478, 45.47944], [16.80353, 45.48005], [16.80407, 45.48105], [16.8037, 45.48117], [16.80409, 45.48175], [16.80465, 45.48154], [16.80493, 45.48216], [16.80454, 45.4824], [16.8049, 45.48257], [16.8052, 45.48368], [16.80424, 45.48375], [16.80379, 45.48256], [16.80326, 45.48225], [16.80226, 45.48043], [16.80127, 45.48051], [16.80237, 45.48341], [16.80255, 45.48338], [16.80287, 45.48414], [16.80236, 45.48416], [16.8033, 45.48573], [16.80376, 45.48433], [16.8041, 45.4843], [16.80511, 45.48464], [16.8054, 45.48356], [16.80597, 45.48346], [16.80642, 45.48284], [16.80666, 45.4823], [16.80612, 45.48224], [16.80572, 45.48142], [16.80594, 45.48079], [16.8074, 45.48164], [16.80791, 45.48132], [16.8072, 45.48032], [16.80788, 45.48058], [16.80781, 45.48072], [16.80836, 45.48127], [16.80936, 45.48199], [16.80975, 45.4818], [16.8096, 45.48209], [16.80981, 45.48246], [16.80885, 45.48246], [16.80833, 45.48291], [16.80928, 45.484], [16.8095, 45.48397], [16.80968, 45.48446], [16.80895, 45.48464], [16.8092, 45.48522], [16.80961, 45.48522], [16.80958, 45.48569], [16.81041, 45.48573], [16.81102, 45.48434], [16.81107, 45.48399], [16.81083, 45.48398], [16.81057, 45.48297], [16.81085, 45.48292], [16.81073, 45.48269], [16.81022, 45.48283], [16.80978, 45.48236], [16.80994, 45.48192], [16.80978, 45.48172], [16.80952, 45.48185]]], [[[16.79392, 45.4796], [16.79323, 45.47978], [16.79175, 45.47944], [16.79089, 45.47949], [16.79191, 45.48072], [16.7926, 45.48061], [16.79304, 45.48093], [16.79218, 45.48114], [16.79271, 45.48164], [16.79365, 45.48181], [16.79402, 45.4826], [16.79556, 45.48214], [16.7948, 45.4812], [16.79497, 45.48029], [16.79523, 45.48039], [16.79661, 45.48271], [16.7972, 45.48439], [16.79705, 45.48452], [16.79559, 45.48317], [16.79612, 45.48283], [16.79492, 45.48306], [16.79503, 45.48337], [16.79403, 45.48349], [16.79479, 45.48448], [16.795, 45.4844], [16.79637, 45.48559], [16.79621, 45.4857], [16.79837, 45.48775], [16.79886, 45.48759], [16.79919, 45.48782], [16.7988, 45.48816], [16.7994, 45.48824], [16.7996, 45.48809], [16.80076, 45.48802], [16.80087, 45.48834], [16.8013, 45.48824], [16.80247, 45.48873], [16.80315, 45.48847], [16.80274, 45.48788], [16.80294, 45.48626], [16.80222, 45.48625], [16.80192, 45.48565], [16.80139, 45.48585], [16.80154, 45.4861], [16.80106, 45.48636], [16.8002, 45.48639], [16.79767, 45.48273], [16.79796, 45.4823], [16.79662, 45.48029], [16.79392, 45.4796]]], [[[16.79874, 45.48028], [16.80089, 45.48429], [16.80159, 45.48416], [16.80166, 45.48366], [16.80044, 45.4804], [16.79874, 45.48028]]], [[[16.79267, 45.48462], [16.79262, 45.48498], [16.79068, 45.48583], [16.79224, 45.48703], [16.79319, 45.48758], [16.79399, 45.48749], [16.79509, 45.4879], [16.79587, 45.48778], [16.79702, 45.488], [16.79752, 45.4878], [16.79578, 45.48619], [16.79513, 45.48627], [16.79385, 45.4848], [16.79406, 45.48466], [16.79357, 45.4849], [16.79364, 45.48503], [16.7933, 45.48517], [16.7929, 45.48449], [16.79267, 45.48462]], [[16.79486, 45.48737], [16.79373, 45.48717], [16.79299, 45.48638], [16.7933, 45.48598], [16.79494, 45.48695], [16.79486, 45.48737]]], [[[16.81051, 45.48745], [16.80982, 45.48813], [16.81129, 45.48853], [16.81053, 45.48748], [16.81069, 45.4859], [16.81054, 45.48587], [16.81051, 45.48694], [16.80989, 45.48727], [16.81051, 45.48745]]], [[[16.81139, 45.49121], [16.81189, 45.48978], [16.81167, 45.4901], [16.81117, 45.49008], [16.811, 45.49049], [16.81004, 45.49061], [16.81003, 45.49169], [16.80963, 45.49137], [16.80937, 45.49231], [16.80999, 45.49259], [16.81298, 45.49196], [16.81327, 45.4908], [16.81268, 45.49049], [16.81261, 45.49], [16.81209, 45.49139], [16.81162, 45.49149], [16.81139, 45.49121]]], [[[16.80457, 45.49228], [16.80424, 45.49296], [16.80364, 45.49296], [16.80347, 45.49319], [16.80367, 45.49352], [16.8042, 45.49349], [16.80634, 45.49274], [16.80598, 45.49236], [16.80428, 45.49149], [16.80421, 45.49177], [16.80457, 45.49228]]], [[[16.79932, 45.49263], [16.79859, 45.49271], [16.79884, 45.49307], [16.80038, 45.49286], [16.8011, 45.49368], [16.8004, 45.49385], [16.79983, 45.49427], [16.79953, 45.49423], [16.79863, 45.49524], [16.7961, 45.49535], [16.7953, 45.49497], [16.79546, 45.49436], [16.79503, 45.49446], [16.79498, 45.49515], [16.79476, 45.49512], [16.79451, 45.49573], [16.79385, 45.49613], [16.79546, 45.4962], [16.7963, 45.49593], [16.79788, 45.49587], [16.7979, 45.49575], [16.79929, 45.49574], [16.79925, 45.4959], [16.79959, 45.49594], [16.80009, 45.49547], [16.79949, 45.4952], [16.79961, 45.49499], [16.80019, 45.49517], [16.80049, 45.49491], [16.80006, 45.49464], [16.80187, 45.49371], [16.80212, 45.49373], [16.80199, 45.49359], [16.80228, 45.49346], [16.80141, 45.49272], [16.80106, 45.49283], [16.80078, 45.49204], [16.79967, 45.49245], [16.79943, 45.4922], [16.79913, 45.49233], [16.79932, 45.49263]]], [[[16.79396, 45.4974], [16.79428, 45.4974], [16.79427, 45.49769], [16.79494, 45.49765], [16.79504, 45.49731], [16.79626, 45.49746], [16.7962, 45.49691], [16.79742, 45.49672], [16.79763, 45.49695], [16.79871, 45.49696], [16.79911, 45.49648], [16.79694, 45.49642], [16.796, 45.49664], [16.79593, 45.49683], [16.79495, 45.49684], [16.79476, 45.49745], [16.79442, 45.49738], [16.79451, 45.49678], [16.79377, 45.49666], [16.79351, 45.49729], [16.79269, 45.49714], [16.79272, 45.4965], [16.79222, 45.49645], [16.79208, 45.49711], [16.79244, 45.49715], [16.7924, 45.49747], [16.79378, 45.4976], [16.79396, 45.4974]]], [[[16.8048, 45.50053], [16.80427, 45.50043], [16.80418, 45.50054], [16.8048, 45.50053]]], [[[16.82205, 45.44081], [16.82622, 45.43768], [16.83108, 45.43309], [16.83099, 45.43304], [16.83051, 45.4334], [16.83011, 45.43344], [16.82818, 45.43534], [16.82696, 45.43593], [16.82662, 45.43634], [16.82695, 45.43652], [16.82573, 45.43761], [16.81985, 45.44171], [16.82019, 45.44196], [16.82205, 45.44081]]], [[[16.8196, 45.4423], [16.81835, 45.44138], [16.81788, 45.44139], [16.81908, 45.44259], [16.8196, 45.4423]]], [[[16.81972, 45.44307], [16.81965, 45.44311], [16.82042, 45.44374], [16.82016, 45.44349], [16.81972, 45.44307]]], [[[16.82112, 45.4435], [16.82179, 45.44415], [16.82215, 45.44454], [16.82176, 45.44365], [16.82122, 45.44312], [16.82033, 45.44275], [16.82112, 45.4435]]], [[[16.81982, 45.47121], [16.81984, 45.47124], [16.82004, 45.47116], [16.82003, 45.47115], [16.81982, 45.47121]]], [[[16.82172, 45.47116], [16.82135, 45.47126], [16.82137, 45.47129], [16.82172, 45.47116]]], [[[16.8203, 45.47167], [16.82049, 45.47163], [16.82047, 45.47161], [16.8203, 45.47167]]], [[[16.82299, 45.47185], [16.82253, 45.47115], [16.82239, 45.4712], [16.82243, 45.47097], [16.82165, 45.47151], [16.82112, 45.47134], [16.82071, 45.47151], [16.82075, 45.47179], [16.82043, 45.47176], [16.82056, 45.47217], [16.82024, 45.47217], [16.81998, 45.47183], [16.81953, 45.47207], [16.81967, 45.47222], [16.8195, 45.47232], [16.81934, 45.47219], [16.81929, 45.47243], [16.81855, 45.47273], [16.81859, 45.47328], [16.81894, 45.4737], [16.81864, 45.47383], [16.81912, 45.47392], [16.81921, 45.47419], [16.81896, 45.47423], [16.81909, 45.47452], [16.81891, 45.47474], [16.81859, 45.47486], [16.81871, 45.47507], [16.81962, 45.47499], [16.81955, 45.47463], [16.8202, 45.47453], [16.81981, 45.47377], [16.8202, 45.47376], [16.82005, 45.47298], [16.82073, 45.4729], [16.82107, 45.47332], [16.82132, 45.4732], [16.82171, 45.47377], [16.82166, 45.47507], [16.82199, 45.47553], [16.82302, 45.47567], [16.82289, 45.47619], [16.82151, 45.47654], [16.82161, 45.47695], [16.82342, 45.47681], [16.82413, 45.478], [16.82384, 45.47823], [16.8245, 45.47863], [16.82662, 45.47829], [16.8281, 45.47844], [16.82842, 45.47826], [16.82821, 45.47741], [16.82781, 45.47694], [16.82648, 45.47678], [16.82606, 45.47579], [16.82581, 45.47386], [16.82445, 45.47271], [16.82478, 45.4732], [16.82492, 45.47486], [16.82466, 45.47645], [16.82602, 45.47803], [16.826, 45.4783], [16.82547, 45.47838], [16.82471, 45.47775], [16.82384, 45.47624], [16.82415, 45.47486], [16.82403, 45.47331], [16.82299, 45.47185]]], [[[16.81735, 45.47327], [16.81735, 45.47348], [16.81708, 45.4734], [16.81675, 45.47359], [16.81635, 45.47418], [16.81601, 45.4742], [16.81512, 45.4748], [16.81511, 45.47513], [16.81479, 45.47523], [16.81489, 45.47538], [16.81279, 45.4759], [16.81287, 45.47605], [16.81194, 45.47657], [16.81221, 45.47672], [16.81221, 45.47658], [16.81251, 45.4766], [16.81278, 45.47704], [16.81366, 45.47751], [16.81454, 45.47715], [16.81402, 45.47749], [16.81414, 45.4776], [16.81473, 45.47741], [16.81445, 45.47778], [16.81454, 45.47801], [16.81488, 45.47773], [16.81553, 45.47764], [16.81563, 45.47781], [16.81491, 45.47814], [16.81621, 45.47799], [16.81631, 45.47809], [16.81603, 45.47818], [16.81616, 45.47844], [16.81661, 45.47847], [16.81673, 45.47866], [16.81706, 45.47845], [16.81721, 45.47866], [16.817, 45.47879], [16.81893, 45.47976], [16.81913, 45.48035], [16.81941, 45.48022], [16.8199, 45.48061], [16.81959, 45.48086], [16.81987, 45.48109], [16.82029, 45.48083], [16.82079, 45.48114], [16.82048, 45.48145], [16.82079, 45.48169], [16.82101, 45.48148], [16.82128, 45.48172], [16.82105, 45.48196], [16.82118, 45.48215], [16.82159, 45.48196], [16.82172, 45.48283], [16.82141, 45.48287], [16.8216, 45.48348], [16.8218, 45.4834], [16.82215, 45.48374], [16.822, 45.4839], [16.82242, 45.48408], [16.82237, 45.48388], [16.82275, 45.48366], [16.82314, 45.48394], [16.82282, 45.48423], [16.82388, 45.48446], [16.8239, 45.48371], [16.8245, 45.48331], [16.82457, 45.48295], [16.82379, 45.48271], [16.82364, 45.48214], [16.82249, 45.48292], [16.82182, 45.48264], [16.82235, 45.48193], [16.82217, 45.48163], [16.82298, 45.48101], [16.82258, 45.48061], [16.82249, 45.48052], [16.82133, 45.48136], [16.82027, 45.48024], [16.82119, 45.4795], [16.8207, 45.4788], [16.82015, 45.47891], [16.81979, 45.47861], [16.81889, 45.47917], [16.81863, 45.47873], [16.81992, 45.47822], [16.8178, 45.47717], [16.81576, 45.47659], [16.81672, 45.476], [16.81802, 45.47648], [16.81926, 45.47646], [16.81906, 45.47566], [16.81816, 45.47527], [16.81738, 45.47417], [16.81731, 45.47373], [16.81778, 45.47373], [16.81796, 45.47417], [16.81798, 45.47418], [16.81771, 45.47317], [16.81735, 45.47327]]], [[[16.81563, 45.47367], [16.81564, 45.4737], [16.81571, 45.47365], [16.81563, 45.47367]]], [[[16.82133, 45.47462], [16.82111, 45.47383], [16.82072, 45.47378], [16.82133, 45.47462]]], [[[16.8199, 45.48229], [16.82054, 45.48247], [16.82006, 45.48191], [16.81913, 45.48132], [16.81893, 45.48168], [16.8199, 45.48229]]], [[[16.82018, 45.48288], [16.8206, 45.48281], [16.82058, 45.48265], [16.81928, 45.48326], [16.81963, 45.48354], [16.82068, 45.48325], [16.82064, 45.48302], [16.82023, 45.48305], [16.82018, 45.48288]]], [[[16.82126, 45.48421], [16.82107, 45.48399], [16.8214, 45.48465], [16.82171, 45.48441], [16.82126, 45.48421]]], [[[16.82311, 45.48496], [16.82275, 45.48482], [16.82253, 45.48509], [16.82295, 45.48517], [16.8234, 45.48501], [16.82311, 45.48496]]], [[[16.81925, 45.49101], [16.81962, 45.49105], [16.82099, 45.49086], [16.82393, 45.49095], [16.82417, 45.49082], [16.82454, 45.49092], [16.82461, 45.49128], [16.8251, 45.49132], [16.82509, 45.4907], [16.82312, 45.49055], [16.82242, 45.4899], [16.8199, 45.49021], [16.8196, 45.49101], [16.81897, 45.49099], [16.81925, 45.49101]]], [[[16.8172, 45.49052], [16.81694, 45.49101], [16.81879, 45.49098], [16.81761, 45.49038], [16.81726, 45.49036], [16.8172, 45.49052]]], [[[16.816, 45.49061], [16.81493, 45.4905], [16.81455, 45.49073], [16.81513, 45.49129], [16.81559, 45.4912], [16.81546, 45.49101], [16.81596, 45.49114], [16.81683, 45.49102], [16.81651, 45.49045], [16.816, 45.49061]]], [[[16.81547, 45.49178], [16.8151, 45.49186], [16.81557, 45.49234], [16.81621, 45.49228], [16.81651, 45.49192], [16.81693, 45.49182], [16.8177, 45.49193], [16.81769, 45.49221], [16.8185, 45.49222], [16.81867, 45.49201], [16.81968, 45.49204], [16.82034, 45.49225], [16.82153, 45.49309], [16.82223, 45.49311], [16.82247, 45.49309], [16.82149, 45.49228], [16.82152, 45.49202], [16.82253, 45.49212], [16.82268, 45.49232], [16.82356, 45.49173], [16.82475, 45.49191], [16.82485, 45.49186], [16.82307, 45.49141], [16.82055, 45.49142], [16.82046, 45.49163], [16.8171, 45.49153], [16.81612, 45.49167], [16.81615, 45.49208], [16.81604, 45.49173], [16.8158, 45.49186], [16.81547, 45.49178]]], [[[16.83177, 45.43186], [16.83144, 45.43191], [16.83206, 45.43214], [16.83633, 45.42801], [16.83577, 45.42802], [16.83177, 45.43186]]], [[[16.83447, 45.43298], [16.83416, 45.43322], [16.83513, 45.43371], [16.83599, 45.43388], [16.83601, 45.43352], [16.83634, 45.43324], [16.83729, 45.43303], [16.83792, 45.4333], [16.83888, 45.43299], [16.83907, 45.43261], [16.8397, 45.43239], [16.83959, 45.42897], [16.83925, 45.42911], [16.83958, 45.4288], [16.83955, 45.42796], [16.83749, 45.428], [16.83281, 45.43253], [16.83396, 45.43312], [16.83429, 45.43286], [16.83447, 45.43298]]], [[[16.8311, 45.4324], [16.83154, 45.43266], [16.83161, 45.43258], [16.83128, 45.43243], [16.8311, 45.4324]]], [[[16.82791, 45.43337], [16.82874, 45.43261], [16.82585, 45.43301], [16.82641, 45.43355], [16.82711, 45.43328], [16.82754, 45.43358], [16.82791, 45.43337]]], [[[16.8334, 45.43349], [16.83327, 45.43368], [16.83378, 45.43369], [16.8334, 45.43349]]], [[[16.83941, 45.43476], [16.83869, 45.43481], [16.83816, 45.43509], [16.83754, 45.43507], [16.83711, 45.43486], [16.83694, 45.43447], [16.83556, 45.43458], [16.83431, 45.43425], [16.8332, 45.43424], [16.83206, 45.43386], [16.83175, 45.43356], [16.82619, 45.43871], [16.82412, 45.4403], [16.82093, 45.44238], [16.82174, 45.44272], [16.82243, 45.44338], [16.82305, 45.44505], [16.82709, 45.44562], [16.82828, 45.44563], [16.82858, 45.44453], [16.82845, 45.44399], [16.82922, 45.44342], [16.82986, 45.44334], [16.83046, 45.44364], [16.8323, 45.44291], [16.8364, 45.4419], [16.83965, 45.4414], [16.84075, 45.44094], [16.84484, 45.43857], [16.84679, 45.43778], [16.84819, 45.43682], [16.83985, 45.43696], [16.83977, 45.43455], [16.83941, 45.43476]], [[16.8397, 45.43937], [16.83863, 45.43989], [16.83534, 45.44042], [16.83405, 45.44002], [16.83247, 45.4399], [16.83009, 45.44038], [16.82841, 45.44048], [16.82662, 45.44109], [16.82485, 45.44243], [16.82463, 45.44227], [16.82797, 45.4398], [16.83128, 45.43682], [16.83253, 45.43694], [16.83394, 45.43681], [16.83509, 45.43751], [16.8369, 45.438], [16.83861, 45.43804], [16.84043, 45.43764], [16.84092, 45.43772], [16.84179, 45.43824], [16.8397, 45.43937]], [[16.82725, 45.43874], [16.82747, 45.43872], [16.82749, 45.43881], [16.82727, 45.43883], [16.82725, 45.43874]]], [[[16.83762, 45.4423], [16.83396, 45.44312], [16.83351, 45.44325], [16.83356, 45.44337], [16.83685, 45.44304], [16.83875, 45.44303], [16.83883, 45.44377], [16.83988, 45.44399], [16.84118, 45.44343], [16.84174, 45.44351], [16.84354, 45.44481], [16.84369, 45.44527], [16.8434, 45.44593], [16.84357, 45.44611], [16.84531, 45.44655], [16.84634, 45.44568], [16.84708, 45.44562], [16.84794, 45.44589], [16.84843, 45.44525], [16.84896, 45.44508], [16.84975, 45.44543], [16.85069, 45.44462], [16.85287, 45.44426], [16.85281, 45.44238], [16.85083, 45.44264], [16.84684, 45.44379], [16.84576, 45.44389], [16.84353, 45.44216], [16.84633, 45.44058], [16.84873, 45.44093], [16.85017, 45.44077], [16.85149, 45.44039], [16.85274, 45.4404], [16.85265, 45.43739], [16.852, 45.43745], [16.85154, 45.43724], [16.8507, 45.43746], [16.84991, 45.43711], [16.84953, 45.43776], [16.84868, 45.43797], [16.84796, 45.43781], [16.84529, 45.43902], [16.84063, 45.44164], [16.83856, 45.44221], [16.83762, 45.4423]]], [[[16.83098, 45.44407], [16.83101, 45.44424], [16.83158, 45.44404], [16.83141, 45.44384], [16.83098, 45.44407]]], [[[16.82921, 45.44487], [16.82953, 45.44475], [16.82927, 45.44479], [16.82913, 45.44495], [16.82903, 45.44543], [16.82926, 45.44522], [16.82921, 45.44487]]], [[[16.83916, 45.44447], [16.83294, 45.44454], [16.83223, 45.4447], [16.83259, 45.44479], [16.83889, 45.45007], [16.85303, 45.44922], [16.85298, 45.44756], [16.85102, 45.44766], [16.85202, 45.44721], [16.85262, 45.44669], [16.85295, 45.44665], [16.85289, 45.4448], [16.85109, 45.44509], [16.84998, 45.44598], [16.84894, 45.44568], [16.84861, 45.44624], [16.84813, 45.44642], [16.84661, 45.44619], [16.84619, 45.44676], [16.8453, 45.44713], [16.84473, 45.44693], [16.84397, 45.44696], [16.84324, 45.44667], [16.84089, 45.4446], [16.83916, 45.44447]], [[16.83763, 45.44603], [16.84007, 45.44636], [16.84073, 45.4474], [16.84181, 45.4482], [16.84025, 45.44829], [16.83744, 45.44596], [16.83763, 45.44603]]], [[[16.83192, 45.44504], [16.83201, 45.44478], [16.82991, 45.44552], [16.83039, 45.44574], [16.83088, 45.44659], [16.83214, 45.44732], [16.83242, 45.4477], [16.83369, 45.44801], [16.83434, 45.44934], [16.83541, 45.44967], [16.83571, 45.45032], [16.83804, 45.45014], [16.83192, 45.44504]]], [[[16.82795, 45.46448], [16.82766, 45.46498], [16.82828, 45.46585], [16.82769, 45.46672], [16.83012, 45.46599], [16.83003, 45.46564], [16.83027, 45.46532], [16.8289, 45.46351], [16.82847, 45.46331], [16.82839, 45.46394], [16.82795, 45.46448]]], [[[16.83673, 45.46852], [16.83609, 45.4683], [16.83629, 45.46823], [16.83626, 45.46765], [16.83682, 45.46733], [16.83636, 45.46718], [16.83612, 45.46685], [16.83651, 45.46549], [16.83606, 45.46572], [16.83534, 45.46568], [16.83416, 45.46605], [16.83347, 45.46647], [16.83549, 45.46819], [16.83558, 45.46901], [16.83665, 45.4693], [16.837, 45.4688], [16.83673, 45.46852]]], [[[16.82628, 45.46848], [16.82677, 45.46814], [16.82702, 45.46805], [16.82674, 45.46815], [16.82628, 45.46848]]], [[[16.82696, 45.46772], [16.82702, 45.46805], [16.82737, 45.46792], [16.82774, 45.46868], [16.82702, 45.46916], [16.82736, 45.46968], [16.82797, 45.46973], [16.82811, 45.47022], [16.82924, 45.47015], [16.82987, 45.47057], [16.83033, 45.47146], [16.83096, 45.47186], [16.83104, 45.47213], [16.83124, 45.47206], [16.83116, 45.47132], [16.83174, 45.47095], [16.83219, 45.47029], [16.83163, 45.47007], [16.83142, 45.46963], [16.83074, 45.46915], [16.83081, 45.46874], [16.83136, 45.46843], [16.83124, 45.46802], [16.83072, 45.46784], [16.83049, 45.46745], [16.82969, 45.46754], [16.82905, 45.46737], [16.82868, 45.46705], [16.82721, 45.46742], [16.82719, 45.46762], [16.82693, 45.46754], [16.82696, 45.46772]]], [[[16.83784, 45.46905], [16.83793, 45.46896], [16.83773, 45.469], [16.83784, 45.46905]]], [[[16.8367, 45.47259], [16.8369, 45.47228], [16.83635, 45.47177], [16.83674, 45.47111], [16.8362, 45.47062], [16.83638, 45.4697], [16.83505, 45.46971], [16.83433, 45.46935], [16.83432, 45.46788], [16.83274, 45.46643], [16.83246, 45.46636], [16.83215, 45.46668], [16.83284, 45.46735], [16.83357, 45.46756], [16.83413, 45.46856], [16.83413, 45.46916], [16.83372, 45.46972], [16.83398, 45.47038], [16.8336, 45.47077], [16.83409, 45.4705], [16.83385, 45.4712], [16.83423, 45.47087], [16.83506, 45.47061], [16.83486, 45.47028], [16.83455, 45.47024], [16.83458, 45.46984], [16.83586, 45.46997], [16.83587, 45.47041], [16.83561, 45.47051], [16.83593, 45.47076], [16.83588, 45.47158], [16.83618, 45.47171], [16.83629, 45.47209], [16.83562, 45.47231], [16.83451, 45.47219], [16.83442, 45.47276], [16.8351, 45.47312], [16.8366, 45.47324], [16.83664, 45.47338], [16.83611, 45.47349], [16.83599, 45.47411], [16.83686, 45.47431], [16.83779, 45.47582], [16.83773, 45.47623], [16.83886, 45.47651], [16.83828, 45.47545], [16.83706, 45.47415], [16.83709, 45.47357], [16.8367, 45.47259]]], [[[16.82598, 45.46897], [16.82582, 45.46885], [16.82602, 45.46869], [16.82547, 45.46911], [16.82588, 45.46944], [16.82539, 45.46928], [16.82514, 45.46943], [16.82531, 45.46959], [16.82498, 45.46955], [16.82455, 45.4699], [16.82479, 45.47013], [16.82423, 45.47047], [16.8242, 45.47076], [16.82392, 45.4706], [16.82355, 45.47094], [16.82335, 45.4707], [16.82317, 45.47075], [16.82384, 45.47184], [16.82384, 45.47141], [16.82542, 45.47257], [16.82633, 45.47161], [16.82605, 45.47123], [16.82685, 45.47056], [16.82613, 45.46968], [16.82616, 45.46888], [16.82628, 45.46848], [16.8265, 45.46808], [16.82651, 45.46776], [16.82608, 45.46842], [16.8261, 45.46906], [16.82598, 45.46897]]], [[[16.82695, 45.47105], [16.82715, 45.47094], [16.82702, 45.47078], [16.82695, 45.47105]]], [[[16.83281, 45.47308], [16.83251, 45.47348], [16.83292, 45.4736], [16.83327, 45.47341], [16.8329, 45.47298], [16.83281, 45.47308]]], [[[16.83109, 45.47356], [16.83075, 45.47394], [16.83097, 45.47405], [16.83097, 45.47382], [16.83109, 45.47356]]], [[[16.82933, 45.47701], [16.82985, 45.47732], [16.83011, 45.47713], [16.83093, 45.4772], [16.8328, 45.4778], [16.83456, 45.4778], [16.83361, 45.47886], [16.83414, 45.47906], [16.83505, 45.4782], [16.83466, 45.47772], [16.8349, 45.4769], [16.8347, 45.47617], [16.83404, 45.47557], [16.83354, 45.47553], [16.83259, 45.47507], [16.83227, 45.47525], [16.83312, 45.47557], [16.83344, 45.47653], [16.83269, 45.47698], [16.83232, 45.47694], [16.832, 45.4762], [16.83029, 45.47667], [16.8283, 45.47522], [16.82791, 45.47579], [16.82825, 45.47639], [16.82893, 45.47645], [16.82857, 45.47665], [16.82933, 45.47701]]], [[[16.83609, 45.47664], [16.83654, 45.47705], [16.83657, 45.47744], [16.83699, 45.47726], [16.83758, 45.47642], [16.83724, 45.47629], [16.83704, 45.47661], [16.83609, 45.47664]]], [[[16.82625, 45.48484], [16.82856, 45.48583], [16.83213, 45.48535], [16.832, 45.48368], [16.83115, 45.48378], [16.83142, 45.48505], [16.83, 45.48496], [16.82911, 45.4841], [16.8285, 45.48379], [16.82806, 45.48403], [16.82886, 45.48502], [16.8282, 45.48539], [16.82647, 45.48415], [16.82583, 45.48484], [16.82625, 45.48484]]], [[[16.83402, 45.48511], [16.8326, 45.48536], [16.83662, 45.48526], [16.83921, 45.4854], [16.83927, 45.48514], [16.83839, 45.48477], [16.83702, 45.48462], [16.83578, 45.48502], [16.83402, 45.48511]]], [[[16.827, 45.48585], [16.82616, 45.48538], [16.82471, 45.48564], [16.8255, 45.48588], [16.82603, 45.48659], [16.82736, 45.48638], [16.827, 45.48585]]], [[[16.83098, 45.48605], [16.83102, 45.48607], [16.83222, 45.48589], [16.83182, 45.48587], [16.83098, 45.48605]]], [[[16.84046, 45.4901], [16.84027, 45.49015], [16.84002, 45.4899], [16.83608, 45.49082], [16.8378, 45.49073], [16.83825, 45.49094], [16.83876, 45.4908], [16.84027, 45.49091], [16.84072, 45.49077], [16.84046, 45.4901]]], [[[16.82805, 45.49154], [16.82883, 45.49166], [16.82881, 45.49114], [16.83096, 45.49111], [16.82868, 45.49055], [16.82678, 45.49049], [16.82603, 45.49137], [16.82805, 45.49154]]], [[[16.82794, 45.49207], [16.82774, 45.49243], [16.8276, 45.49204], [16.82616, 45.49215], [16.82613, 45.49192], [16.8259, 45.4919], [16.82674, 45.493], [16.82886, 45.49259], [16.82885, 45.49222], [16.82872, 45.49251], [16.82848, 45.49251], [16.82847, 45.49215], [16.82794, 45.49207]]], [[[16.83839, 45.44423], [16.8377, 45.44359], [16.83717, 45.4437], [16.83655, 45.44432], [16.83853, 45.44429], [16.83839, 45.44423]]], [[[16.83561, 45.45093], [16.83557, 45.45111], [16.83616, 45.45132], [16.83716, 45.45216], [16.8372, 45.45261], [16.83821, 45.45441], [16.8393, 45.45428], [16.84131, 45.45437], [16.84202, 45.45478], [16.84268, 45.45482], [16.8431, 45.45516], [16.84299, 45.45625], [16.84196, 45.45679], [16.84017, 45.45647], [16.83957, 45.45661], [16.83873, 45.45647], [16.83881, 45.45784], [16.85325, 45.4566], [16.85313, 45.45216], [16.85104, 45.45326], [16.84973, 45.45443], [16.84821, 45.45526], [16.84735, 45.4554], [16.84704, 45.45413], [16.84633, 45.45322], [16.8452, 45.45244], [16.84391, 45.45195], [16.85311, 45.45142], [16.85305, 45.44976], [16.84064, 45.45048], [16.83561, 45.45093]]], [[[16.84233, 45.45981], [16.8425, 45.45953], [16.84354, 45.45921], [16.84378, 45.45954], [16.84326, 45.45984], [16.84356, 45.46022], [16.84399, 45.46006], [16.8441, 45.46023], [16.84368, 45.46039], [16.84438, 45.46122], [16.84626, 45.46084], [16.84682, 45.46054], [16.84656, 45.46027], [16.84485, 45.46008], [16.84471, 45.45978], [16.84539, 45.45944], [16.84499, 45.4593], [16.84622, 45.45882], [16.84688, 45.45905], [16.84637, 45.45943], [16.84713, 45.45965], [16.84745, 45.45948], [16.84699, 45.45887], [16.84737, 45.45845], [16.84796, 45.45833], [16.84845, 45.45846], [16.8491, 45.45818], [16.8496, 45.45826], [16.84999, 45.45794], [16.85107, 45.45768], [16.85122, 45.45736], [16.83886, 45.45838], [16.83958, 45.45934], [16.83953, 45.45971], [16.83919, 45.45996], [16.83958, 45.46048], [16.84, 45.46186], [16.84108, 45.46154], [16.84175, 45.4618], [16.8416, 45.46155], [16.84177, 45.46064], [16.84146, 45.46014], [16.8405, 45.46034], [16.83974, 45.45998], [16.84027, 45.45961], [16.84191, 45.45986], [16.84239, 45.46056], [16.84295, 45.46058], [16.84233, 45.45981]], [[16.84596, 45.4603], [16.84636, 45.46075], [16.84583, 45.46064], [16.84596, 45.4603]]], [[[16.84787, 45.46023], [16.84769, 45.46054], [16.8481, 45.46064], [16.84845, 45.45981], [16.84832, 45.45966], [16.84787, 45.46023]]], [[[16.8528, 45.45872], [16.85231, 45.45923], [16.85148, 45.45941], [16.85103, 45.45981], [16.85008, 45.4598], [16.84918, 45.46013], [16.84909, 45.46053], [16.84974, 45.46301], [16.85207, 45.4627], [16.85346, 45.46223], [16.85334, 45.45855], [16.8528, 45.45872]]], [[[16.84281, 45.46213], [16.84319, 45.46195], [16.84355, 45.4617], [16.8437, 45.46147], [16.84318, 45.46085], [16.84196, 45.46129], [16.84248, 45.46216], [16.84281, 45.46213]], [[16.84289, 45.46205], [16.84266, 45.46167], [16.84284, 45.46161], [16.84309, 45.46199], [16.84289, 45.46205]]], [[[16.84186, 45.46203], [16.84188, 45.46223], [16.84199, 45.46221], [16.84184, 45.46196], [16.84186, 45.46203]]], [[[16.84862, 45.46211], [16.8478, 45.46177], [16.84725, 45.46107], [16.8469, 45.46124], [16.84715, 45.46144], [16.84685, 45.46159], [16.84671, 45.46139], [16.84634, 45.46138], [16.84494, 45.46164], [16.84513, 45.46183], [16.84471, 45.46207], [16.84446, 45.46182], [16.84442, 45.46185], [16.84512, 45.46249], [16.84555, 45.46228], [16.8457, 45.4624], [16.84522, 45.46272], [16.84684, 45.46328], [16.84874, 45.46518], [16.85098, 45.46506], [16.8512, 45.46497], [16.85032, 45.46387], [16.84999, 45.46399], [16.84922, 45.4637], [16.84862, 45.46211]]], [[[16.84447, 45.46321], [16.84254, 45.4627], [16.84168, 45.4629], [16.84197, 45.46412], [16.84176, 45.46482], [16.84239, 45.46484], [16.8427, 45.46527], [16.84278, 45.46509], [16.84207, 45.4645], [16.84203, 45.46372], [16.84273, 45.46343], [16.84261, 45.4632], [16.84307, 45.46319], [16.84303, 45.46299], [16.84326, 45.46309], [16.84334, 45.46329], [16.84247, 45.46363], [16.84218, 45.46409], [16.8425, 45.46432], [16.84338, 45.46422], [16.84367, 45.46439], [16.84297, 45.46468], [16.84323, 45.46477], [16.84298, 45.46486], [16.8431, 45.4653], [16.84376, 45.46587], [16.84414, 45.4658], [16.84413, 45.46554], [16.84469, 45.46497], [16.84531, 45.46559], [16.8456, 45.46549], [16.84529, 45.46495], [16.8453, 45.46433], [16.84481, 45.4642], [16.84428, 45.46364], [16.84476, 45.46343], [16.84447, 45.46321]]], [[[16.84072, 45.46379], [16.84085, 45.46412], [16.84103, 45.46426], [16.84101, 45.46354], [16.84072, 45.46379]]], [[[16.83971, 45.46407], [16.83941, 45.46401], [16.839, 45.46546], [16.8401, 45.46487], [16.8403, 45.464], [16.83971, 45.46407]]], [[[16.83852, 45.46569], [16.83857, 45.46566], [16.83852, 45.46567], [16.83852, 45.46569]]], [[[16.84597, 45.46623], [16.84603, 45.46613], [16.84584, 45.46613], [16.84597, 45.46623]]], [[[16.8446, 45.46675], [16.84479, 45.46717], [16.84504, 45.4671], [16.84482, 45.4669], [16.8446, 45.46675]]], [[[16.84456, 45.46823], [16.84427, 45.4674], [16.84338, 45.46657], [16.84257, 45.46542], [16.84176, 45.46524], [16.84217, 45.46736], [16.84545, 45.46997], [16.84608, 45.47138], [16.84716, 45.47264], [16.84714, 45.47319], [16.84803, 45.47362], [16.84829, 45.47454], [16.84908, 45.47491], [16.85003, 45.4743], [16.84972, 45.47383], [16.84835, 45.47329], [16.84662, 45.47154], [16.8481, 45.47056], [16.84779, 45.47023], [16.84679, 45.47038], [16.84582, 45.46963], [16.84553, 45.46887], [16.84456, 45.46823]]], [[[16.85079, 45.4668], [16.8502, 45.46687], [16.85083, 45.46773], [16.85147, 45.46963], [16.85229, 45.47064], [16.85241, 45.47227], [16.85317, 45.47282], [16.85336, 45.47328], [16.85277, 45.47388], [16.8522, 45.47366], [16.85157, 45.47395], [16.85178, 45.47447], [16.85319, 45.47467], [16.85365, 45.47427], [16.8533, 45.47368], [16.85383, 45.47345], [16.85379, 45.47243], [16.85301, 45.47212], [16.85262, 45.4709], [16.85312, 45.47071], [16.85157, 45.46885], [16.85171, 45.46784], [16.85079, 45.4668]]], [[[16.85075, 45.46981], [16.85068, 45.46967], [16.85088, 45.47001], [16.85077, 45.46985], [16.85075, 45.46981]]], [[[16.839, 45.47073], [16.83869, 45.47044], [16.83889, 45.46996], [16.83841, 45.46921], [16.83782, 45.47023], [16.83775, 45.47092], [16.83809, 45.47154], [16.8378, 45.47212], [16.83829, 45.47236], [16.83845, 45.47278], [16.83824, 45.47312], [16.83777, 45.47329], [16.83779, 45.47395], [16.83946, 45.47585], [16.83961, 45.47639], [16.84066, 45.47605], [16.8414, 45.47626], [16.84161, 45.47669], [16.84151, 45.47728], [16.84245, 45.47602], [16.84137, 45.47608], [16.8407, 45.47541], [16.84044, 45.47448], [16.83858, 45.47222], [16.83923, 45.47192], [16.83895, 45.47149], [16.84022, 45.47089], [16.84024, 45.47036], [16.83968, 45.4703], [16.839, 45.47073]]], [[[16.84536, 45.47157], [16.84481, 45.47027], [16.84368, 45.46948], [16.84338, 45.46971], [16.8451, 45.47106], [16.84614, 45.47313], [16.84637, 45.47321], [16.84644, 45.47285], [16.84536, 45.47157]]], [[[16.84928, 45.47635], [16.85015, 45.47593], [16.84991, 45.4755], [16.84807, 45.47551], [16.84709, 45.47694], [16.84704, 45.47864], [16.84775, 45.47831], [16.84764, 45.47769], [16.84823, 45.47743], [16.84811, 45.4768], [16.84928, 45.47635]]], [[[16.84343, 45.47728], [16.84389, 45.47771], [16.84445, 45.47781], [16.84491, 45.47814], [16.84591, 45.47843], [16.84626, 45.47835], [16.84633, 45.47687], [16.84663, 45.47616], [16.84578, 45.47651], [16.846, 45.47786], [16.84533, 45.4779], [16.84454, 45.47758], [16.84366, 45.47685], [16.84366, 45.47642], [16.84329, 45.47638], [16.84302, 45.47696], [16.84343, 45.47728]]], [[[16.8386, 45.47754], [16.83841, 45.47799], [16.83826, 45.47814], [16.83908, 45.47799], [16.83899, 45.47733], [16.8386, 45.47754]]], [[[16.84483, 45.4787], [16.84482, 45.47872], [16.8449, 45.47872], [16.84483, 45.4787]]], [[[16.84291, 45.47862], [16.84236, 45.47869], [16.84198, 45.47889], [16.84159, 45.47891], [16.84197, 45.47926], [16.84243, 45.47874], [16.84324, 45.47859], [16.84291, 45.47862]]], [[[16.84542, 45.47891], [16.84542, 45.47888], [16.84519, 45.47881], [16.84541, 45.47892], [16.84542, 45.47891]]], [[[16.84778, 45.47935], [16.84817, 45.47969], [16.84905, 45.47968], [16.8491, 45.47944], [16.84964, 45.47943], [16.84964, 45.47887], [16.84832, 45.47888], [16.84816, 45.47917], [16.8474, 45.47914], [16.84778, 45.47935]]], [[[16.84922, 45.481], [16.84923, 45.48101], [16.84935, 45.48107], [16.84924, 45.48095], [16.84922, 45.481]]], [[[16.84992, 45.48144], [16.8501, 45.48171], [16.85051, 45.48179], [16.85142, 45.48166], [16.85106, 45.48082], [16.85062, 45.4807], [16.85058, 45.48135], [16.84976, 45.48132], [16.84992, 45.48144]]]]}, "properties": {"kind": "pv", "area_km2": 18.67, "mw": 933.3}}]}