{"type": "FeatureCollection", "features": [{"type": "Feature", "geometry": {"type": "MultiPolygon", "coordinates": [[[[0.20252, 49.37785], [0.20344, 49.37701], [0.20376, 49.37543], [0.20294, 49.37362], [0.20313, 49.3751], [0.20252, 49.37785]]], [[[0.19834, 49.37482], [0.19793, 49.3754], [0.19723, 49.37605], [0.19825, 49.37606], [0.19834, 49.37482]]], [[[0.19132, 49.38091], [0.19267, 49.38107], [0.1922, 49.37921], [0.19359, 49.37721], [0.19133, 49.377], [0.18928, 49.37628], [0.18805, 49.38037], [0.18891, 49.3812], [0.19112, 49.38091], [0.19144, 49.38029], [0.18838, 49.37952], [0.1917, 49.3802], [0.19132, 49.38091]]], [[[0.17747, 49.37526], [0.17724, 49.37521], [0.17718, 49.37528], [0.17747, 49.37526]]], [[[0.17037, 49.38806], [0.17081, 49.38716], [0.17075, 49.38691], [0.17004, 49.38764], [0.17037, 49.38806]]], [[[0.08165, 49.54075], [0.08523, 49.53966], [0.09282, 49.53854], [0.09032, 49.53494], [0.08833, 49.53476], [0.08618, 49.53387], [0.0848, 49.53369], [0.08345, 49.53459], [0.08166, 49.53516], [0.07773, 49.53521], [0.08165, 49.54075]]], [[[0.13387, 49.54417], [0.13235, 49.54385], [0.13072, 49.54503], [0.13101, 49.54691], [0.13178, 49.54703], [0.13196, 49.54548], [0.13387, 49.54417]]], [[[0.13787, 49.54811], [0.13784, 49.54805], [0.13781, 49.54798], [0.13768, 49.54805], [0.13787, 49.54811]]], [[[0.14424, 49.557], [0.14365, 49.55756], [0.1438, 49.55764], [0.14453, 49.55755], [0.14424, 49.557]]], [[[0.13605, 49.56437], [0.13554, 49.56428], [0.13482, 49.56409], [0.13506, 49.56438], [0.13605, 49.56437]]], [[[0.16764, 49.57376], [0.16441, 49.57562], [0.16251, 49.57616], [0.16894, 49.58157], [0.16944, 49.58133], [0.16636, 49.57896], [0.16553, 49.57735], [0.16578, 49.57599], [0.16764, 49.57376]]], [[[0.23246, 49.57378], [0.23229, 49.57458], [0.23369, 49.57657], [0.23478, 49.57657], [0.23246, 49.57378]]], [[[0.22911, 49.58235], [0.22849, 49.58144], [0.22709, 49.58143], [0.22609, 49.58363], [0.22642, 49.58377], [0.22911, 49.58235]]], [[[0.22564, 49.55374], [0.22384, 49.55303], [0.22223, 49.55165], [0.22142, 49.55171], [0.22265, 49.55323], [0.22457, 49.55378], [0.22622, 49.5548], [0.22606, 49.55382], [0.22564, 49.55374]]], [[[0.35271, 49.48534], [0.35367, 49.48717], [0.35536, 49.48871], [0.35664, 49.48847], [0.35682, 49.48703], [0.35245, 49.48512], [0.35271, 49.48534]]], [[[0.2138, 49.46776], [0.21292, 49.46843], [0.2132, 49.46936], [0.21418, 49.46952], [0.21712, 49.46905], [0.21674, 49.46741], [0.2138, 49.46776]]], [[[0.33365, 49.43111], [0.33373, 49.4314], [0.33956, 49.43213], [0.33888, 49.43133], [0.33624, 49.43123], [0.33427, 49.43049], [0.33331, 49.43055], [0.33365, 49.43111]]], [[[0.2933, 49.42293], [0.29222, 49.42146], [0.29054, 49.42271], [0.2933, 49.42293]]], [[[0.29264, 49.42055], [0.29335, 49.42009], [0.29182, 49.41914], [0.29149, 49.41769], [0.29251, 49.41646], [0.29418, 49.41583], [0.29604, 49.4159], [0.29756, 49.41659], [0.29833, 49.41799], [0.29766, 49.41928], [0.29934, 49.41986], [0.3002, 49.41945], [0.30012, 49.41826], [0.30061, 49.41795], [0.30126, 49.41992], [0.30354, 49.41871], [0.307, 49.41805], [0.30598, 49.4171], [0.29995, 49.41487], [0.29684, 49.41532], [0.29183, 49.41432], [0.28924, 49.41427], [0.28931, 49.41851], [0.29174, 49.41938], [0.29238, 49.42105], [0.29264, 49.42055]], [[0.30033, 49.41655], [0.29825, 49.41686], [0.29783, 49.41573], [0.29878, 49.41572], [0.2993, 49.41632], [0.30018, 49.41567], [0.30034, 49.41594], [0.29984, 49.41602], [0.30017, 49.41642], [0.29963, 49.41656], [0.30033, 49.41655]]], [[[0.32251, 49.42805], [0.32307, 49.42782], [0.32183, 49.42718], [0.32251, 49.42805]]], [[[0.32513, 49.42844], [0.32426, 49.42933], [0.32588, 49.4298], [0.32499, 49.43013], [0.32222, 49.42922], [0.3219, 49.43006], [0.32696, 49.43047], [0.32813, 49.4297], [0.32705, 49.42897], [0.32669, 49.42908], [0.32614, 49.42832], [0.32513, 49.42844]]], [[[0.10632, 49.57219], [0.10612, 49.57237], [0.10642, 49.57245], [0.10642, 49.57221], [0.10632, 49.57219]]], [[[0.22318, 49.46092], [0.22113, 49.45912], [0.2201, 49.45919], [0.22078, 49.46039], [0.22045, 49.46319], [0.22248, 49.46279], [0.22318, 49.46092]]], [[[0.28233, 49.42203], [0.28221, 49.4144], [0.27834, 49.41446], [0.2779, 49.4167], [0.27829, 49.41893], [0.28077, 49.4192], [0.2819, 49.42035], [0.28114, 49.42154], [0.28028, 49.42172], [0.28017, 49.42231], [0.28137, 49.42217], [0.2817, 49.42242], [0.28233, 49.42203]]], [[[0.28023, 49.42277], [0.28115, 49.4231], [0.28154, 49.42257], [0.28023, 49.42277]]], [[[0.27075, 49.46017], [0.2704, 49.45903], [0.26919, 49.45793], [0.26906, 49.45593], [0.26332, 49.45632], [0.26353, 49.45703], [0.26521, 49.45831], [0.26586, 49.45988], [0.26717, 49.46065], [0.26812, 49.46189], [0.26908, 49.46072], [0.27075, 49.46017]]], [[[0.28178, 49.45507], [0.27511, 49.45551], [0.27731, 49.46154], [0.29107, 49.46024], [0.29011, 49.45541], [0.28178, 49.45507]]], [[[0.1772, 49.56715], [0.1741, 49.56767], [0.17114, 49.56709], [0.17047, 49.56819], [0.17156, 49.57008], [0.17682, 49.56828], [0.17751, 49.5673], [0.1772, 49.56715]]], [[[0.165, 49.56155], [0.16924, 49.56207], [0.17175, 49.5602], [0.1674, 49.55875], [0.165, 49.56155]]], [[[0.19396, 49.57645], [0.19339, 49.57539], [0.19138, 49.57526], [0.18833, 49.57447], [0.18613, 49.57284], [0.18403, 49.57203], [0.18409, 49.57395], [0.18247, 49.5765], [0.18437, 49.57699], [0.18588, 49.57794], [0.18742, 49.58122], [0.18973, 49.58037], [0.19241, 49.58022], [0.19396, 49.57645]]], [[[0.19851, 49.58138], [0.20088, 49.5832], [0.2017, 49.58134], [0.20365, 49.58001], [0.20098, 49.57844], [0.19935, 49.57851], [0.19816, 49.58117], [0.19851, 49.58138]]], [[[0.21697, 49.5441], [0.2163, 49.54629], [0.2184, 49.54493], [0.22076, 49.5445], [0.21785, 49.54368], [0.21697, 49.5441]]], [[[0.12003, 49.38225], [0.12046, 49.38287], [0.12081, 49.38386], [0.1211, 49.38162], [0.11978, 49.38199], [0.12003, 49.38225]]], [[[0.28452, 49.3917], [0.28432, 49.39176], [0.2854, 49.39151], [0.28507, 49.39146], [0.28452, 49.3917]]], [[[0.20017, 49.52902], [0.2001, 49.52918], [0.20109, 49.52956], [0.20022, 49.5289], [0.20017, 49.52902]]], [[[0.20378, 49.5318], [0.20358, 49.53442], [0.20581, 49.53418], [0.20784, 49.53451], [0.20765, 49.53374], [0.20365, 49.53152], [0.20378, 49.5318]]], [[[0.15054, 49.55706], [0.1504, 49.55699], [0.15047, 49.55725], [0.15054, 49.55706]]], [[[0.16532, 49.58562], [0.16577, 49.58577], [0.16631, 49.58523], [0.16507, 49.58451], [0.16532, 49.58562]]], [[[0.34752, 49.51047], [0.34582, 49.51131], [0.34218, 49.51208], [0.34435, 49.51285], [0.34692, 49.51307], [0.34757, 49.5126], [0.34932, 49.51265], [0.34849, 49.51156], [0.34829, 49.51034], [0.34752, 49.51047]]], [[[0.27819, 49.54827], [0.2803, 49.5481], [0.28229, 49.54845], [0.28318, 49.5482], [0.28347, 49.54697], [0.28081, 49.54618], [0.27947, 49.54747], [0.27778, 49.54825], [0.27819, 49.54827]]], [[[0.23567, 49.56701], [0.23436, 49.56766], [0.2344, 49.56816], [0.2367, 49.57057], [0.23612, 49.56698], [0.23567, 49.56701]]], [[[0.2263, 49.54038], [0.22612, 49.54149], [0.22982, 49.54257], [0.23041, 49.54032], [0.22982, 49.53982], [0.22933, 49.54008], [0.22981, 49.54053], [0.2292, 49.54014], [0.2263, 49.54038]]], [[[0.24293, 49.56842], [0.24529, 49.56821], [0.24587, 49.56731], [0.2423, 49.56764], [0.24246, 49.56856], [0.24293, 49.56842]]], [[[0.25194, 49.54962], [0.25209, 49.54953], [0.24995, 49.548], [0.25007, 49.54981], [0.25111, 49.54997], [0.25194, 49.54962]]], [[[0.24769, 49.54572], [0.24951, 49.54733], [0.24928, 49.5456], [0.25036, 49.54236], [0.24694, 49.53866], [0.24614, 49.53641], [0.24395, 49.53715], [0.24414, 49.53898], [0.24649, 49.54008], [0.2476, 49.54124], [0.24789, 49.54293], [0.24704, 49.54462], [0.24769, 49.54572]]], [[[0.24684, 49.51055], [0.24746, 49.51005], [0.24756, 49.50876], [0.24573, 49.50946], [0.24632, 49.51086], [0.24684, 49.51055]]], [[[0.24778, 49.50884], [0.24909, 49.50762], [0.24885, 49.50731], [0.24758, 49.50875], [0.24778, 49.50884]]], [[[0.2458, 49.50481], [0.2455, 49.50472], [0.24583, 49.50512], [0.2458, 49.50481]]], [[[0.25185, 49.50868], [0.25114, 49.50813], [0.24902, 49.5098], [0.25119, 49.50999], [0.25222, 49.5089], [0.25185, 49.50868]]], [[[0.29059, 49.56397], [0.29062, 49.56394], [0.29017, 49.56375], [0.29017, 49.56382], [0.29059, 49.56397]]], [[[0.31038, 49.55363], [0.31309, 49.55335], [0.31423, 49.55217], [0.31383, 49.55176], [0.31081, 49.55086], [0.30733, 49.55373], [0.31038, 49.55363]]], [[[0.29101, 49.52205], [0.29033, 49.52253], [0.29056, 49.52295], [0.29386, 49.5224], [0.29219, 49.5219], [0.29101, 49.52205]]], [[[0.29745, 49.51167], [0.29711, 49.51184], [0.29749, 49.51179], [0.29745, 49.51167]]], [[[0.3084, 49.51088], [0.30672, 49.51232], [0.31312, 49.51498], [0.31207, 49.51407], [0.31057, 49.51153], [0.3084, 49.51088]]], [[[0.29426, 49.53323], [0.29399, 49.53319], [0.29269, 49.53309], [0.29303, 49.53363], [0.29464, 49.53328], [0.29426, 49.53323]]], [[[0.33188, 49.5286], [0.33112, 49.52881], [0.33129, 49.5292], [0.33286, 49.52884], [0.33188, 49.5286]]], [[[0.33886, 49.52629], [0.33933, 49.52576], [0.33836, 49.52487], [0.33684, 49.52528], [0.33665, 49.5257], [0.33886, 49.52629]]], [[[0.31394, 49.48951], [0.31295, 49.49062], [0.31314, 49.49125], [0.31368, 49.49136], [0.31758, 49.48971], [0.31581, 49.48893], [0.31407, 49.48923], [0.31394, 49.48951]]], [[[0.31368, 49.52751], [0.31591, 49.5282], [0.31634, 49.52698], [0.31585, 49.52672], [0.31315, 49.52679], [0.31368, 49.52751]]], [[[0.30603, 49.51476], [0.30622, 49.51479], [0.30559, 49.51453], [0.30599, 49.51475], [0.30603, 49.51476]]], [[[0.32563, 49.50991], [0.32637, 49.50996], [0.3246, 49.50966], [0.32479, 49.50994], [0.32563, 49.50991]]], [[[0.33042, 49.51095], [0.32988, 49.51041], [0.32824, 49.5104], [0.33065, 49.51155], [0.33042, 49.51095]]], [[[0.33243, 49.51308], [0.33312, 49.51304], [0.33119, 49.51188], [0.33233, 49.5131], [0.33243, 49.51308]]], [[[0.3309, 49.49517], [0.33087, 49.49488], [0.33063, 49.49518], [0.3296, 49.49501], [0.32982, 49.4966], [0.32917, 49.49785], [0.33088, 49.49698], [0.33279, 49.49661], [0.33222, 49.49521], [0.33134, 49.49493], [0.3309, 49.49517]]], [[[0.33747, 49.49668], [0.34314, 49.49716], [0.34474, 49.49633], [0.34677, 49.49594], [0.34406, 49.49477], [0.34204, 49.49233], [0.33718, 49.49434], [0.33559, 49.49398], [0.33362, 49.4949], [0.33551, 49.49612], [0.33747, 49.49668]]], [[[0.19045, 49.45582], [0.19041, 49.45578], [0.1904, 49.45578], [0.19042, 49.45586], [0.19045, 49.45582]]], [[[0.24496, 49.45771], [0.24392, 49.4576], [0.2439, 49.45835], [0.24486, 49.45796], [0.24496, 49.45771]]], [[[0.26498, 49.54513], [0.26485, 49.54562], [0.26634, 49.54518], [0.2669, 49.54351], [0.26954, 49.54125], [0.26471, 49.54158], [0.26498, 49.54513]]], [[[0.26476, 49.54607], [0.26478, 49.54668], [0.2634, 49.54777], [0.26754, 49.54734], [0.26613, 49.54601], [0.26557, 49.54617], [0.26506, 49.54581], [0.26476, 49.54607]]], [[[0.30135, 49.54103], [0.30102, 49.54105], [0.30181, 49.54148], [0.30475, 49.54068], [0.30492, 49.54027], [0.30135, 49.54103]]], [[[0.27785, 49.55823], [0.27646, 49.55738], [0.27566, 49.55825], [0.27577, 49.55925], [0.27785, 49.55823]]], [[[0.13484, 49.58302], [0.13705, 49.58268], [0.13971, 49.58307], [0.14001, 49.58284], [0.1396, 49.58212], [0.13707, 49.58255], [0.13402, 49.58225], [0.13088, 49.58073], [0.1309, 49.58245], [0.13397, 49.58325], [0.13484, 49.58302]]], [[[0.14069, 49.57506], [0.14055, 49.57546], [0.14168, 49.57647], [0.14225, 49.57795], [0.14657, 49.57712], [0.14457, 49.57619], [0.1432, 49.57485], [0.1428, 49.5735], [0.1432, 49.57176], [0.14092, 49.57104], [0.14126, 49.5729], [0.14069, 49.57506]]], [[[0.27869, 49.57264], [0.27888, 49.57296], [0.27944, 49.57271], [0.27861, 49.57254], [0.27869, 49.57264]]], [[[0.26213, 49.57885], [0.26125, 49.57781], [0.2604, 49.57818], [0.26068, 49.57935], [0.26213, 49.57885]]], [[[0.30598, 49.47019], [0.30491, 49.47001], [0.30358, 49.4703], [0.30658, 49.47026], [0.30598, 49.47019]]], [[[0.32849, 49.49851], [0.32841, 49.49857], [0.32821, 49.4987], [0.32831, 49.49874], [0.32849, 49.49851]]], [[[0.2961, 49.42012], [0.29681, 49.42047], [0.29709, 49.4197], [0.29664, 49.41993], [0.2961, 49.42012]]]]}, "properties": {"kind": "windland", "area_km2": 4.6}}, {"type": "Feature", "geometry": {"type": "Point", "coordinates": [0.21528, 49.46929]}, "properties": {"kind": "turbine", "i": 0, "mw": 6.0, "hub_m": 120.0, "rotor_m": 150.0}}, {"type": "Feature", "geometry": {"type": "Point", "coordinates": [0.22087, 49.45957]}, "properties": {"kind": "turbine", "i": 1, "mw": 6.0, "hub_m": 120.0, "rotor_m": 150.0}}, {"type": "Feature", "geometry": {"type": "Point", "coordinates": [0.26635, 49.45737]}, "properties": {"kind": "turbine", "i": 2, "mw": 6.0, "hub_m": 120.0, "rotor_m": 150.0}}, {"type": "Feature", "geometry": {"type": "Point", "coordinates": [0.28648, 49.45784]}, "properties": {"kind": "turbine", "i": 3, "mw": 6.0, "hub_m": 120.0, "rotor_m": 150.0}}, {"type": "Feature", "geometry": {"type": "Point", "coordinates": [0.24665, 49.53903]}, "properties": {"kind": "turbine", "i": 4, "mw": 6.0, "hub_m": 120.0, "rotor_m": 150.0}}, {"type": "Feature", "geometry": {"type": "Point", "coordinates": [0.26663, 49.54278]}, "properties": {"kind": "turbine", "i": 5, "mw": 6.0, "hub_m": 120.0, "rotor_m": 150.0}}, {"type": "Feature", "geometry": {"type": "Point", "coordinates": [0.16971, 49.56016]}, "properties": {"kind": "turbine", "i": 6, "mw": 6.0, "hub_m": 120.0, "rotor_m": 150.0}}, {"type": "Feature", "geometry": {"type": "Point", "coordinates": [0.30877, 49.51092]}, "properties": {"kind": "turbine", "i": 7, "mw": 6.0, "hub_m": 120.0, "rotor_m": 150.0}}, {"type": "Feature", "geometry": {"type": "Point", "coordinates": [0.08535, 49.53507]}, "properties": {"kind": "turbine", "i": 8, "mw": 6.0, "hub_m": 120.0, "rotor_m": 150.0}}, {"type": "Feature", "geometry": {"type": "Point", "coordinates": [0.27878, 49.41495]}, "properties": {"kind": "turbine", "i": 9, "mw": 6.0, "hub_m": 120.0, "rotor_m": 150.0}}, {"type": "Feature", "geometry": {"type": "Point", "coordinates": [0.2349, 49.56831]}, "properties": {"kind": "turbine", "i": 10, "mw": 6.0, "hub_m": 120.0, "rotor_m": 150.0}}, {"type": "Feature", "geometry": {"type": "Point", "coordinates": [0.33485, 49.4951]}, "properties": {"kind": "turbine", "i": 11, "mw": 6.0, "hub_m": 120.0, "rotor_m": 150.0}}, {"type": "Feature", "geometry": {"type": "Point", "coordinates": [0.18894, 49.57706]}, "properties": {"kind": "turbine", "i": 12, "mw": 6.0, "hub_m": 120.0, "rotor_m": 150.0}}, {"type": "Feature", "geometry": {"type": "Point", "coordinates": [0.29889, 49.41543]}, "properties": {"kind": "turbine", "i": 13, "mw": 6.0, "hub_m": 120.0, "rotor_m": 150.0}}, {"type": "Feature", "geometry": {"type": "Point", "coordinates": [0.16371, 49.57644]}, "properties": {"kind": "turbine", "i": 14, "mw": 6.0, "hub_m": 120.0, "rotor_m": 150.0}}, {"type": "Feature", "geometry": {"type": "Point", "coordinates": [0.14354, 49.57594]}, "properties": {"kind": "turbine", "i": 15, "mw": 6.0, "hub_m": 120.0, "rotor_m": 150.0}}, {"type": "Feature", "geometry": {"type": "Point", "coordinates": [0.19033, 49.3767]}, "properties": {"kind": "turbine", "i": 16, "mw": 6.0, "hub_m": 120.0, "rotor_m": 150.0}}]}