{"type": "FeatureCollection", "features": [{"type": "Feature", "geometry": {"type": "MultiPolygon", "coordinates": [[[[18.81327, 52.65216], [18.81646, 52.65085], [18.81793, 52.64974], [18.81405, 52.64966], [18.81217, 52.64891], [18.81099, 52.64792], [18.81037, 52.64559], [18.8125, 52.64312], [18.80327, 52.64477], [18.79728, 52.65044], [18.79887, 52.65156], [18.79956, 52.65302], [18.80154, 52.65346], [18.80332, 52.65442], [18.80457, 52.6562], [18.80605, 52.65619], [18.80758, 52.65664], [18.81139, 52.65422], [18.81327, 52.65216]], [[18.80605, 52.65523], [18.80588, 52.65569], [18.80516, 52.6549], [18.80551, 52.6549], [18.80605, 52.65523]], [[18.80702, 52.65559], [18.8067, 52.65527], [18.80685, 52.6552], [18.80715, 52.65552], [18.80702, 52.65559]]], [[[18.80927, 52.70369], [18.80928, 52.70371], [18.80929, 52.70371], [18.80927, 52.70369]]], [[[18.85483, 52.61268], [18.85496, 52.61271], [18.85642, 52.61196], [18.85602, 52.61176], [18.85412, 52.61256], [18.85483, 52.61268]]], [[[18.86122, 52.61971], [18.85198, 52.62171], [18.84847, 52.62299], [18.83931, 52.62475], [18.83653, 52.62585], [18.83446, 52.62624], [18.83315, 52.6285], [18.83437, 52.62992], [18.83646, 52.62981], [18.84295, 52.62825], [18.84557, 52.62857], [18.84772, 52.62939], [18.85124, 52.62969], [18.85224, 52.62877], [18.8499, 52.62597], [18.84977, 52.62427], [18.85143, 52.62237], [18.85437, 52.62141], [18.8566, 52.62141], [18.85975, 52.62218], [18.86221, 52.62386], [18.86455, 52.62302], [18.86678, 52.62289], [18.87406, 52.62488], [18.87457, 52.62328], [18.87595, 52.62212], [18.87291, 52.62124], [18.87068, 52.61976], [18.86971, 52.61848], [18.86528, 52.62007], [18.86336, 52.62018], [18.86122, 52.61971]]], [[[18.86306, 52.73605], [18.86684, 52.73698], [18.86821, 52.73806], [18.86879, 52.73916], [18.87115, 52.73801], [18.87378, 52.73771], [18.87429, 52.7356], [18.87301, 52.73462], [18.87195, 52.73443], [18.8692, 52.73556], [18.86306, 52.73605]]], [[[18.89717, 52.66466], [18.90003, 52.66169], [18.89427, 52.66058], [18.89426, 52.66311], [18.89304, 52.66464], [18.8938, 52.66521], [18.89717, 52.66466]]], [[[19.04626, 52.61513], [19.04653, 52.61507], [19.04658, 52.61496], [19.04587, 52.61513], [19.04626, 52.61513]]], [[[19.04421, 52.61089], [19.04683, 52.61018], [19.04625, 52.60955], [19.04367, 52.61095], [19.04421, 52.61089]]], [[[18.89213, 52.82091], [18.89233, 52.82096], [18.89365, 52.81927], [18.89187, 52.81913], [18.89213, 52.82091]]], [[[18.89678, 52.63877], [18.89592, 52.63884], [18.89549, 52.63988], [18.89579, 52.63975], [18.89678, 52.63877]]], [[[18.92051, 52.6728], [18.91886, 52.67394], [18.92862, 52.67376], [18.92855, 52.67265], [18.92509, 52.67267], [18.92334, 52.67238], [18.92236, 52.67178], [18.92358, 52.67079], [18.92438, 52.67102], [18.92559, 52.67077], [18.92591, 52.67004], [18.92806, 52.66927], [18.9284, 52.67035], [18.92967, 52.67033], [18.92783, 52.66823], [18.92747, 52.66692], [18.92593, 52.66705], [18.92506, 52.66824], [18.92343, 52.66889], [18.92199, 52.67008], [18.9181, 52.67118], [18.91636, 52.67124], [18.91666, 52.6717], [18.92051, 52.6728]]], [[[18.91084, 52.70801], [18.91119, 52.70779], [18.90803, 52.70768], [18.90903, 52.70827], [18.90763, 52.70923], [18.91002, 52.70888], [18.91084, 52.70801]]], [[[18.89783, 52.69801], [18.89767, 52.698], [18.89803, 52.69835], [18.89807, 52.69801], [18.89783, 52.69801]]], [[[18.89668, 52.698], [18.89644, 52.69799], [18.89665, 52.69812], [18.89668, 52.698]]], [[[18.90017, 52.70082], [18.89974, 52.70078], [18.9, 52.69934], [18.89807, 52.69976], [18.89795, 52.70169], [18.89991, 52.70174], [18.90017, 52.70082]]], [[[18.90073, 52.71274], [18.90272, 52.7121], [18.90338, 52.71135], [18.90329, 52.71054], [18.89992, 52.71146], [18.89925, 52.71265], [18.90073, 52.71274]]], [[[18.94304, 52.69465], [18.94336, 52.6945], [18.93842, 52.69505], [18.93989, 52.69507], [18.94304, 52.69465]]], [[[18.90195, 52.69182], [18.90231, 52.69203], [18.90256, 52.69121], [18.90184, 52.69151], [18.90195, 52.69182]]], [[[18.94123, 52.6969], [18.94139, 52.69685], [18.93989, 52.69654], [18.93961, 52.69659], [18.94123, 52.6969]]], [[[18.92004, 52.71419], [18.9199, 52.71429], [18.91975, 52.71462], [18.92029, 52.71441], [18.92004, 52.71419]]], [[[18.9222, 52.71309], [18.92165, 52.71313], [18.92172, 52.71376], [18.92261, 52.71352], [18.9222, 52.71309]]], [[[18.92262, 52.71303], [18.92363, 52.71304], [18.92396, 52.71247], [18.92339, 52.71284], [18.92262, 52.71303]]], [[[18.92513, 52.71236], [18.92554, 52.71209], [18.92429, 52.71205], [18.92439, 52.71231], [18.92513, 52.71236]]], [[[18.91969, 52.7258], [18.91951, 52.72553], [18.91935, 52.72534], [18.91935, 52.72583], [18.91969, 52.7258]]], [[[18.93901, 52.80964], [18.93796, 52.80957], [18.93781, 52.8101], [18.93983, 52.80978], [18.93901, 52.80964]]], [[[18.93783, 52.80876], [18.93784, 52.809], [18.93812, 52.80838], [18.93793, 52.80866], [18.93783, 52.80876]]], [[[18.9377, 52.80997], [18.93777, 52.80972], [18.93774, 52.80956], [18.93765, 52.81006], [18.9377, 52.80997]]], [[[18.93254, 52.81369], [18.93211, 52.81429], [18.92992, 52.81406], [18.92846, 52.81444], [18.92863, 52.81487], [18.93076, 52.8151], [18.9302, 52.81631], [18.92897, 52.81615], [18.9287, 52.8174], [18.92932, 52.81747], [18.92906, 52.8166], [18.93092, 52.81676], [18.93135, 52.81729], [18.9335, 52.81612], [18.93296, 52.8163], [18.93282, 52.81557], [18.9345, 52.81395], [18.93444, 52.81321], [18.93254, 52.81369]]], [[[18.93481, 52.81466], [18.93409, 52.81541], [18.93569, 52.81562], [18.93506, 52.81502], [18.93481, 52.81466]]], [[[18.96798, 52.63592], [18.96858, 52.63519], [18.96731, 52.63605], [18.96795, 52.63644], [18.96714, 52.63635], [18.96673, 52.63585], [18.96638, 52.63591], [18.96674, 52.6362], [18.96594, 52.63617], [18.96542, 52.63659], [18.96671, 52.63693], [18.9663, 52.63657], [18.96668, 52.63637], [18.96768, 52.63691], [18.96829, 52.63654], [18.96798, 52.63592]]], [[[18.96665, 52.6386], [18.96449, 52.63964], [18.96713, 52.64055], [18.96671, 52.63899], [18.96853, 52.63878], [18.96905, 52.63897], [18.96871, 52.63928], [18.96888, 52.64022], [18.96947, 52.6398], [18.96937, 52.63936], [18.96881, 52.63936], [18.96934, 52.63922], [18.96904, 52.6384], [18.96808, 52.63874], [18.96665, 52.6386]], [[18.96526, 52.63952], [18.96527, 52.63955], [18.96523, 52.63963], [18.96519, 52.63946], [18.96526, 52.63952]], [[18.96622, 52.63967], [18.96627, 52.63961], [18.96633, 52.63963], [18.96632, 52.63966], [18.96622, 52.63967]], [[18.96633, 52.63975], [18.96639, 52.6399], [18.96639, 52.64011], [18.9663, 52.63982], [18.96633, 52.63975]]], [[[18.96923, 52.63808], [18.97004, 52.63708], [18.96931, 52.63699], [18.96887, 52.63732], [18.96858, 52.63696], [18.96831, 52.63723], [18.96917, 52.63745], [18.96915, 52.63807], [18.96783, 52.63796], [18.96765, 52.63813], [18.96923, 52.63808]]], [[[18.96727, 52.63766], [18.96681, 52.6378], [18.9657, 52.63705], [18.96528, 52.63728], [18.96607, 52.63739], [18.9661, 52.63794], [18.96709, 52.63813], [18.96727, 52.63766]]], [[[18.96776, 52.63706], [18.96744, 52.63718], [18.9676, 52.63736], [18.96801, 52.6372], [18.96776, 52.63706]]], [[[18.96657, 52.68967], [18.96661, 52.69033], [18.96831, 52.68991], [18.96835, 52.68936], [18.97054, 52.68915], [18.97076, 52.68889], [18.96249, 52.68934], [18.96216, 52.68973], [18.96657, 52.68967]]], [[[19.02782, 52.6639], [19.02807, 52.66383], [19.0282, 52.66372], [19.02735, 52.66391], [19.02782, 52.6639]]], [[[18.914, 52.68341], [18.91222, 52.68358], [18.91238, 52.68441], [18.91414, 52.68426], [18.914, 52.68341]]], [[[18.91612, 52.68384], [18.91514, 52.68387], [18.91522, 52.68455], [18.9162, 52.68454], [18.91612, 52.68384]]], [[[18.86619, 52.63348], [18.86873, 52.63361], [18.87098, 52.63256], [18.86644, 52.63181], [18.8631, 52.63395], [18.86029, 52.63489], [18.86392, 52.63377], [18.86619, 52.63348]]], [[[18.77997, 52.67585], [18.77945, 52.67586], [18.77928, 52.67622], [18.77997, 52.67585]]], [[[18.77563, 52.68485], [18.77748, 52.68347], [18.77971, 52.68259], [18.78266, 52.68035], [18.78896, 52.67794], [18.78969, 52.67663], [18.78141, 52.68064], [18.77782, 52.68319], [18.77571, 52.68414], [18.77563, 52.68485]]], [[[18.79593, 52.67086], [18.79351, 52.6743], [18.7948, 52.67398], [18.80034, 52.67113], [18.80217, 52.66977], [18.80044, 52.66827], [18.79988, 52.66687], [18.79581, 52.66962], [18.79593, 52.67086]]], [[[18.80726, 52.6624], [18.80641, 52.66272], [18.80752, 52.6628], [18.80726, 52.6624]]], [[[18.90382, 52.64066], [18.90237, 52.64131], [18.90229, 52.64158], [18.90396, 52.6412], [18.90409, 52.64042], [18.90382, 52.64066]]], [[[18.97587, 52.65051], [18.97562, 52.65083], [18.97688, 52.65113], [18.97711, 52.65176], [18.97874, 52.65176], [18.97756, 52.65002], [18.97603, 52.65015], [18.97587, 52.65051]]], [[[18.98492, 52.64584], [18.98388, 52.64576], [18.98318, 52.64604], [18.98547, 52.64628], [18.98582, 52.64577], [18.98492, 52.64584]]], [[[19.01029, 52.69014], [19.0108, 52.68967], [19.01134, 52.68926], [19.0101, 52.68939], [19.01029, 52.69014]]], [[[19.00318, 52.69701], [19.00257, 52.69716], [19.00168, 52.69729], [19.00249, 52.69779], [19.00318, 52.69701]]], [[[18.9901, 52.71135], [18.99626, 52.7051], [18.99763, 52.70353], [18.99481, 52.70297], [18.99367, 52.70346], [18.99623, 52.70439], [18.9958, 52.70471], [18.99293, 52.70367], [18.98972, 52.70382], [18.99001, 52.70468], [18.98954, 52.70463], [18.98746, 52.70685], [18.98729, 52.70779], [18.98806, 52.7083], [18.98716, 52.70795], [18.98802, 52.70842], [18.98895, 52.70797], [18.98814, 52.7085], [18.98945, 52.70996], [18.98987, 52.7117], [18.9901, 52.71135]]], [[[19.03182, 52.70301], [19.03186, 52.70301], [19.03182, 52.70297], [19.03182, 52.70301]]], [[[19.16081, 52.68247], [19.15922, 52.68235], [19.15916, 52.68283], [19.16113, 52.6827], [19.16081, 52.68247]]], [[[19.01216, 52.63938], [19.01528, 52.6377], [19.0166, 52.63703], [19.01096, 52.63982], [19.01216, 52.63938]]], [[[18.99512, 52.63642], [18.99542, 52.63578], [18.99427, 52.63488], [18.99503, 52.63662], [18.99512, 52.63642]]], [[[18.99917, 52.63856], [18.99824, 52.6384], [18.99853, 52.63923], [18.9988, 52.63921], [18.99917, 52.63856]]], [[[18.99818, 52.6392], [18.99785, 52.63895], [18.99749, 52.63888], [18.99775, 52.63935], [18.99818, 52.6392]]], [[[18.98428, 52.60924], [18.98361, 52.60901], [18.98506, 52.60872], [18.98504, 52.60646], [18.98144, 52.60908], [18.98428, 52.60924]]], [[[18.98882, 52.60578], [18.98844, 52.60474], [18.98774, 52.60447], [18.98614, 52.6059], [18.98882, 52.60578]]], [[[18.8867, 52.63284], [18.88681, 52.63257], [18.8869, 52.63217], [18.88632, 52.63257], [18.8867, 52.63284]]], [[[19.06891, 52.68458], [19.06881, 52.6849], [19.06947, 52.68491], [19.06907, 52.68456], [19.06891, 52.68458]]], [[[19.02713, 52.74153], [19.02669, 52.7404], [19.02596, 52.74011], [19.02472, 52.74045], [19.02586, 52.74083], [19.02672, 52.74166], [19.02491, 52.74337], [19.02713, 52.74153]]], [[[19.04142, 52.74622], [19.04224, 52.74624], [19.04419, 52.7454], [19.04384, 52.74505], [19.04322, 52.74535], [19.04242, 52.74483], [19.04142, 52.74622]]], [[[19.07082, 52.74054], [19.07067, 52.74053], [19.07042, 52.74056], [19.07082, 52.74054]]], [[[19.07824, 52.74055], [19.07692, 52.74074], [19.08227, 52.74089], [19.08215, 52.74068], [19.07824, 52.74055]]], [[[19.07737, 52.74827], [19.0772, 52.74867], [19.07627, 52.74815], [19.07193, 52.74814], [19.07227, 52.74882], [19.07409, 52.74938], [19.07468, 52.75058], [19.0762, 52.75162], [19.0768, 52.75148], [19.07732, 52.75217], [19.0787, 52.75221], [19.0787, 52.75322], [19.07922, 52.7536], [19.08097, 52.75392], [19.08163, 52.75284], [19.07986, 52.75354], [19.0792, 52.7533], [19.07989, 52.75275], [19.07823, 52.75075], [19.07733, 52.75073], [19.07803, 52.74988], [19.07911, 52.74989], [19.07857, 52.74839], [19.07737, 52.74827]]], [[[19.07712, 52.75711], [19.07731, 52.75589], [19.07714, 52.75571], [19.07606, 52.75633], [19.07712, 52.75711]]], [[[19.02996, 52.7638], [19.0324, 52.76393], [19.03186, 52.7626], [19.02871, 52.76291], [19.02931, 52.76387], [19.02996, 52.7638]]], [[[19.02774, 52.76423], [19.02591, 52.76444], [19.02525, 52.7631], [19.02046, 52.76401], [19.0252, 52.76483], [19.02656, 52.76476], [19.02774, 52.76423]]], [[[18.98591, 52.76604], [18.98818, 52.76347], [18.98577, 52.76227], [18.98255, 52.76196], [18.9817, 52.76382], [18.982, 52.76623], [18.98112, 52.76767], [18.97859, 52.769], [18.97526, 52.77292], [18.97345, 52.77377], [18.97127, 52.77415], [18.96948, 52.77511], [18.97078, 52.7755], [18.97527, 52.77482], [18.97818, 52.77532], [18.97935, 52.77298], [18.98206, 52.77174], [18.98189, 52.77024], [18.98288, 52.76833], [18.98591, 52.76604]]], [[[18.92847, 52.82531], [18.92812, 52.82572], [18.93093, 52.82582], [18.93118, 52.82513], [18.92957, 52.82491], [18.92847, 52.82531]]], [[[18.98639, 52.82365], [18.98775, 52.82466], [18.98773, 52.82643], [18.98988, 52.82542], [18.98982, 52.82497], [18.98754, 52.82333], [18.98658, 52.82364], [18.98605, 52.82317], [18.98639, 52.82365]]], [[[18.98841, 52.82035], [18.98921, 52.82061], [18.98999, 52.81965], [18.98905, 52.81919], [18.98795, 52.81951], [18.98841, 52.82035]]], [[[18.95721, 52.81356], [18.95499, 52.81355], [18.9532, 52.81413], [18.95539, 52.81707], [18.95724, 52.81668], [18.95786, 52.8155], [18.95933, 52.81439], [18.95923, 52.81381], [18.96329, 52.81345], [18.96554, 52.81369], [18.96612, 52.81331], [18.96205, 52.81094], [18.96049, 52.81248], [18.95721, 52.81356]]], [[[18.9732, 52.81619], [18.97207, 52.81582], [18.97086, 52.81615], [18.96905, 52.81608], [18.96905, 52.81878], [18.97076, 52.81705], [18.9732, 52.81619]]], [[[18.96856, 52.82007], [18.96596, 52.82031], [18.96525, 52.82166], [18.96547, 52.82243], [18.96839, 52.8221], [18.9685, 52.82241], [18.96604, 52.82268], [18.96789, 52.8234], [18.96967, 52.82472], [18.97146, 52.8239], [18.97233, 52.82279], [18.97027, 52.82181], [18.96904, 52.81997], [18.96856, 52.82007]]], [[[19.00669, 52.78272], [19.00653, 52.78268], [19.00661, 52.78283], [19.00669, 52.78272]]], [[[19.04884, 52.79018], [19.04864, 52.79043], [19.04827, 52.79066], [19.04897, 52.79003], [19.04884, 52.79018]]], [[[18.99628, 52.7749], [18.99647, 52.77458], [18.99515, 52.77475], [18.99515, 52.77545], [18.99588, 52.77555], [18.99628, 52.7749]]], [[[18.99421, 52.77491], [18.99379, 52.77465], [18.99375, 52.77487], [18.99421, 52.77491]]], [[[18.99571, 52.77366], [18.99623, 52.77363], [18.99562, 52.77143], [18.99519, 52.77176], [18.99571, 52.77366]]], [[[18.9973, 52.77201], [18.99843, 52.77192], [18.99787, 52.76986], [18.99859, 52.76937], [18.998, 52.7696], [18.99691, 52.77069], [18.9973, 52.77201]]], [[[18.99903, 52.77075], [18.99964, 52.77076], [18.99931, 52.77015], [18.9999, 52.77093], [19.00127, 52.77081], [19.00086, 52.76926], [19.00151, 52.76904], [19.00157, 52.76944], [19.00239, 52.7693], [19.00229, 52.76898], [19.00152, 52.76868], [18.99959, 52.76958], [18.9992, 52.76907], [18.99864, 52.76935], [18.99903, 52.77075]]], [[[19.00243, 52.7675], [19.00176, 52.76801], [19.00514, 52.76898], [19.00414, 52.76748], [19.00428, 52.76596], [19.00314, 52.76585], [19.00243, 52.7675]]], [[[19.01902, 52.77467], [19.01856, 52.77479], [19.01767, 52.77477], [19.01941, 52.77528], [19.01951, 52.77457], [19.01902, 52.77467]]], [[[19.0459, 52.77355], [19.04895, 52.77502], [19.05116, 52.77507], [19.05191, 52.77412], [19.05355, 52.77368], [19.05437, 52.77428], [19.05694, 52.77269], [19.0565, 52.77217], [19.05474, 52.77176], [19.05437, 52.77263], [19.05153, 52.77256], [19.05127, 52.7735], [19.05097, 52.77295], [19.04992, 52.77284], [19.0459, 52.77355]]], [[[18.89729, 52.67514], [18.89619, 52.67608], [18.8967, 52.67665], [18.89693, 52.67601], [18.89729, 52.67514]]], [[[18.97989, 52.71509], [18.97966, 52.71533], [18.98, 52.71552], [18.98032, 52.71502], [18.97989, 52.71509]]], [[[18.97877, 52.71518], [18.97875, 52.71517], [18.97876, 52.71518], [18.97877, 52.71518]]], [[[18.97855, 52.71491], [18.97902, 52.71469], [18.97792, 52.71417], [18.97777, 52.71425], [18.97855, 52.71491]]], [[[18.97672, 52.71323], [18.97658, 52.71301], [18.97648, 52.71303], [18.9767, 52.71324], [18.97672, 52.71323]]], [[[18.78329, 52.72722], [18.78275, 52.72717], [18.78246, 52.72765], [18.78299, 52.72747], [18.78329, 52.72722]]], [[[18.78433, 52.71321], [18.78383, 52.71356], [18.78439, 52.71627], [18.78525, 52.71601], [18.78521, 52.71452], [18.78607, 52.71326], [18.78895, 52.71181], [18.78813, 52.71125], [18.78547, 52.71185], [18.78433, 52.71321]]], [[[18.78395, 52.69279], [18.78717, 52.69202], [18.79039, 52.69244], [18.79198, 52.68923], [18.79017, 52.68794], [18.78693, 52.68876], [18.78227, 52.69122], [18.78103, 52.69227], [18.77787, 52.69358], [18.77919, 52.69473], [18.78184, 52.69452], [18.78395, 52.69279]]], [[[18.77215, 52.69766], [18.77388, 52.69684], [18.77355, 52.69656], [18.77222, 52.69703], [18.77215, 52.69766]]], [[[18.77132, 52.71628], [18.77176, 52.71565], [18.77225, 52.7152], [18.7712, 52.71574], [18.77122, 52.71652], [18.77132, 52.71628]]], [[[18.85501, 52.78941], [18.85492, 52.78939], [18.85485, 52.78945], [18.85501, 52.78941]]], [[[18.85918, 52.78042], [18.85889, 52.78034], [18.8587, 52.78027], [18.85901, 52.78051], [18.85918, 52.78042]]], [[[18.87233, 52.78168], [18.87123, 52.77975], [18.86979, 52.77999], [18.86483, 52.78257], [18.87095, 52.78294], [18.87216, 52.78236], [18.87233, 52.78168]]], [[[18.85482, 52.74861], [18.85525, 52.7482], [18.85284, 52.74861], [18.85472, 52.74875], [18.85482, 52.74861]]], [[[18.85232, 52.7395], [18.85098, 52.74044], [18.85435, 52.74029], [18.8544, 52.73971], [18.85232, 52.7395]]], [[[18.86035, 52.71933], [18.86087, 52.71946], [18.8611, 52.71901], [18.86049, 52.71864], [18.86035, 52.71933]]], [[[18.85223, 52.70924], [18.85451, 52.7074], [18.85328, 52.70684], [18.85163, 52.70703], [18.84997, 52.70801], [18.8519, 52.70991], [18.85223, 52.70924]]], [[[18.86, 52.70244], [18.85732, 52.70307], [18.85729, 52.70383], [18.85968, 52.70494], [18.86144, 52.7047], [18.86273, 52.70371], [18.86424, 52.70319], [18.86883, 52.70317], [18.87007, 52.70223], [18.86321, 52.70139], [18.86, 52.70244]]], [[[18.86815, 52.70801], [18.86873, 52.70821], [18.87002, 52.70807], [18.86879, 52.70703], [18.86776, 52.70701], [18.86815, 52.70801]]], [[[18.85659, 52.6766], [18.85807, 52.67769], [18.85868, 52.67888], [18.86039, 52.67873], [18.85964, 52.67709], [18.85727, 52.67529], [18.85724, 52.673], [18.85637, 52.67266], [18.85573, 52.67326], [18.85683, 52.67479], [18.85659, 52.6766]]], [[[18.84552, 52.67405], [18.84681, 52.6729], [18.84976, 52.67177], [18.8469, 52.67219], [18.84441, 52.67317], [18.84457, 52.67437], [18.84552, 52.67405]]], [[[18.86566, 52.66829], [18.8665, 52.66812], [18.8656, 52.66689], [18.86474, 52.66736], [18.86566, 52.66829]]], [[[18.85986, 52.65151], [18.85793, 52.65438], [18.85964, 52.65423], [18.8604, 52.6526], [18.86792, 52.64559], [18.86357, 52.64513], [18.86135, 52.64448], [18.86091, 52.64565], [18.86164, 52.64785], [18.85986, 52.65151]]], [[[18.82388, 52.6306], [18.82732, 52.63142], [18.82829, 52.63116], [18.82715, 52.62983], [18.82532, 52.62935], [18.82298, 52.62927], [18.81985, 52.63125], [18.82388, 52.6306]]], [[[18.8678, 52.60878], [18.86812, 52.60871], [18.86755, 52.60754], [18.8669, 52.60768], [18.8678, 52.60878]]], [[[18.81349, 52.74918], [18.81269, 52.74949], [18.81366, 52.74924], [18.81454, 52.74871], [18.81349, 52.74918]]], [[[18.81591, 52.74806], [18.81532, 52.74838], [18.81673, 52.748], [18.81638, 52.74771], [18.81591, 52.74806]]], [[[18.81681, 52.72189], [18.81458, 52.7226], [18.81193, 52.72266], [18.81488, 52.72339], [18.81851, 52.72279], [18.81862, 52.7216], [18.81961, 52.7203], [18.82201, 52.71864], [18.82443, 52.71799], [18.82544, 52.71698], [18.82445, 52.71616], [18.82207, 52.71747], [18.81879, 52.71803], [18.81879, 52.72012], [18.81681, 52.72189]]], [[[18.81873, 52.69324], [18.81901, 52.69327], [18.81836, 52.69271], [18.81834, 52.69283], [18.81873, 52.69324]]], [[[18.8208, 52.69761], [18.82095, 52.69732], [18.82129, 52.69687], [18.82091, 52.69695], [18.8208, 52.69761]]], [[[18.81736, 52.68966], [18.81785, 52.68885], [18.81887, 52.688], [18.81718, 52.68877], [18.81736, 52.68966]]], [[[18.7977, 52.74806], [18.79798, 52.74751], [18.79714, 52.74718], [18.79693, 52.74851], [18.79752, 52.74873], [18.7977, 52.74806]]], [[[18.79547, 52.7428], [18.79298, 52.74301], [18.79205, 52.74383], [18.79494, 52.74472], [18.79547, 52.7428]]], [[[18.80362, 52.70639], [18.80053, 52.70812], [18.80136, 52.70976], [18.80352, 52.70933], [18.80433, 52.70621], [18.80362, 52.70639]]], [[[18.80481, 52.69213], [18.80537, 52.69163], [18.80435, 52.69194], [18.80177, 52.69395], [18.80377, 52.69344], [18.80481, 52.69213]]], [[[18.83105, 52.6763], [18.83295, 52.6778], [18.83318, 52.68009], [18.83435, 52.68114], [18.83778, 52.68125], [18.83921, 52.67903], [18.83927, 52.67757], [18.83562, 52.67714], [18.83306, 52.67537], [18.832, 52.67551], [18.83105, 52.6763]]], [[[18.82888, 52.65763], [18.82771, 52.65779], [18.82943, 52.65921], [18.8298, 52.66109], [18.83325, 52.65938], [18.8337, 52.6582], [18.83529, 52.65658], [18.83518, 52.65596], [18.83221, 52.6574], [18.82888, 52.65763]]], [[[18.84379, 52.66208], [18.84267, 52.66383], [18.84125, 52.66506], [18.84516, 52.66428], [18.84379, 52.66208]]], [[[18.83799, 52.63784], [18.83666, 52.6384], [18.83769, 52.63882], [18.83808, 52.63778], [18.83799, 52.63784]]], [[[18.84119, 52.75972], [18.83873, 52.75959], [18.83717, 52.75968], [18.83749, 52.76051], [18.84085, 52.7607], [18.84366, 52.76024], [18.84358, 52.75955], [18.84119, 52.75972]]], [[[18.84748, 52.74843], [18.84252, 52.74869], [18.84436, 52.74991], [18.84512, 52.75146], [18.84731, 52.75152], [18.84914, 52.7495], [18.85211, 52.74865], [18.84898, 52.74819], [18.84748, 52.74843]]], [[[18.83785, 52.72367], [18.83689, 52.7234], [18.83664, 52.72369], [18.83771, 52.72409], [18.83785, 52.72367]]], [[[18.83257, 52.75202], [18.83184, 52.75183], [18.82969, 52.75202], [18.8291, 52.7523], [18.83257, 52.75202]]], [[[18.83533, 52.73344], [18.83551, 52.7339], [18.83728, 52.73357], [18.83666, 52.73341], [18.83533, 52.73344]]], [[[18.85431, 52.65597], [18.8534, 52.65605], [18.854, 52.65676], [18.85461, 52.65592], [18.85431, 52.65597]]], [[[18.85124, 52.7146], [18.85105, 52.71495], [18.85073, 52.71542], [18.85202, 52.71499], [18.85158, 52.71433], [18.85124, 52.7146]]], [[[18.84725, 52.77914], [18.84732, 52.77915], [18.84731, 52.77891], [18.84725, 52.77914]]], [[[18.89612, 52.81132], [18.89594, 52.81172], [18.89724, 52.81209], [18.90129, 52.81278], [18.90075, 52.81232], [18.89806, 52.81177], [18.89622, 52.81099], [18.89612, 52.81132]]], [[[18.90593, 52.76347], [18.90579, 52.76354], [18.90694, 52.76401], [18.90691, 52.76343], [18.90593, 52.76347]]], [[[18.89957, 52.74369], [18.90376, 52.74376], [18.90612, 52.74431], [18.90865, 52.74426], [18.91054, 52.74465], [18.91015, 52.7434], [18.91059, 52.74201], [18.90984, 52.73941], [18.90848, 52.73798], [18.90713, 52.73514], [18.90718, 52.72496], [18.90364, 52.72671], [18.90321, 52.72785], [18.90172, 52.72926], [18.89984, 52.73001], [18.89751, 52.73027], [18.89892, 52.73197], [18.89886, 52.73371], [18.89748, 52.7352], [18.89503, 52.7362], [18.89668, 52.73665], [18.89828, 52.73761], [18.89928, 52.73973], [18.89808, 52.74191], [18.89481, 52.74331], [18.89957, 52.74369]]], [[[18.9044, 52.62979], [18.90437, 52.6298], [18.9044, 52.62981], [18.9044, 52.62979]]], [[[18.90956, 52.62188], [18.90791, 52.6219], [18.90734, 52.62234], [18.9094, 52.62332], [18.9106, 52.62452], [18.91186, 52.6235], [18.91363, 52.62284], [18.91139, 52.62175], [18.90956, 52.62188]]], [[[18.87923, 52.67747], [18.87881, 52.68001], [18.87971, 52.68059], [18.8822, 52.68092], [18.88266, 52.68067], [18.88231, 52.67613], [18.87899, 52.67563], [18.87923, 52.67747]]], [[[18.8768, 52.66362], [18.8776, 52.66631], [18.87646, 52.66816], [18.87718, 52.66877], [18.88028, 52.668], [18.88102, 52.66572], [18.8833, 52.66419], [18.88204, 52.66295], [18.88112, 52.66274], [18.87585, 52.66285], [18.8768, 52.66362]]], [[[18.89275, 52.79511], [18.89074, 52.79461], [18.89003, 52.79659], [18.89295, 52.79523], [18.89275, 52.79511]]], [[[18.89482, 52.77097], [18.89284, 52.77239], [18.89163, 52.77302], [18.89422, 52.77303], [18.8976, 52.77232], [18.89503, 52.77076], [18.89482, 52.77097]]], [[[18.8956, 52.7189], [18.89408, 52.72183], [18.89423, 52.72199], [18.89548, 52.7218], [18.89936, 52.71968], [18.89953, 52.71764], [18.89781, 52.7185], [18.8956, 52.7189]]], [[[18.88824, 52.78458], [18.88824, 52.78471], [18.88832, 52.78464], [18.88824, 52.78458]]], [[[18.88735, 52.78001], [18.88748, 52.78057], [18.88749, 52.78123], [18.88859, 52.78011], [18.88735, 52.78001]]], [[[18.9436, 52.62762], [18.94723, 52.62746], [18.94981, 52.62809], [18.95013, 52.62724], [18.94884, 52.62505], [18.94803, 52.62412], [18.94599, 52.623], [18.94482, 52.62112], [18.9421, 52.62117], [18.93719, 52.62033], [18.93548, 52.61969], [18.93307, 52.62009], [18.93068, 52.61986], [18.92952, 52.62124], [18.92726, 52.62224], [18.92354, 52.62247], [18.9208, 52.62182], [18.91826, 52.6229], [18.92124, 52.6247], [18.92247, 52.62663], [18.92344, 52.62975], [18.92448, 52.63052], [18.92928, 52.63007], [18.93172, 52.6285], [18.93741, 52.62724], [18.9408, 52.62712], [18.9436, 52.62762]]], [[[18.95393, 52.61315], [18.95381, 52.61416], [18.95623, 52.61591], [18.95759, 52.61824], [18.96019, 52.6208], [18.96154, 52.62012], [18.96413, 52.61606], [18.96825, 52.61194], [18.96735, 52.60953], [18.9649, 52.6095], [18.96187, 52.60858], [18.96008, 52.60842], [18.95799, 52.60931], [18.95446, 52.60984], [18.95052, 52.60959], [18.95256, 52.61095], [18.95393, 52.61315]]], [[[18.97164, 52.61706], [18.97376, 52.61617], [18.97387, 52.61585], [18.9727, 52.61512], [18.97046, 52.61741], [18.97103, 52.61755], [18.97164, 52.61706]]], [[[18.94736, 52.60417], [18.94865, 52.60326], [18.94778, 52.60293], [18.94543, 52.60338], [18.94652, 52.60529], [18.94736, 52.60417]]], [[[18.94573, 52.5957], [18.94584, 52.59707], [18.94423, 52.59901], [18.94451, 52.59952], [18.9453, 52.59937], [18.94663, 52.59761], [18.94841, 52.59677], [18.95232, 52.59641], [18.95541, 52.59529], [18.9582, 52.59524], [18.95893, 52.59259], [18.95804, 52.59037], [18.94478, 52.59115], [18.94351, 52.59158], [18.94513, 52.59338], [18.94573, 52.5957]]], [[[18.92638, 52.60727], [18.92695, 52.6086], [18.9267, 52.61106], [18.92992, 52.61093], [18.93221, 52.61124], [18.93661, 52.6138], [18.93909, 52.61336], [18.93368, 52.60714], [18.93058, 52.60643], [18.92675, 52.60645], [18.92599, 52.60686], [18.92638, 52.60727]]], [[[18.94367, 52.75618], [18.94401, 52.75644], [18.9448, 52.75564], [18.94466, 52.75512], [18.94361, 52.75537], [18.94367, 52.75618]]], [[[18.92615, 52.76679], [18.92716, 52.76757], [18.92799, 52.76686], [18.92607, 52.76617], [18.92615, 52.76679]]], [[[18.93201, 52.74524], [18.93223, 52.74503], [18.93193, 52.7449], [18.93178, 52.74535], [18.93201, 52.74524]]], [[[18.9489, 52.79412], [18.9506, 52.79361], [18.94961, 52.79287], [18.94883, 52.79386], [18.9489, 52.79412]]], [[[19.12909, 52.76899], [19.12908, 52.76899], [19.12898, 52.76905], [19.12917, 52.76899], [19.12909, 52.76899]]], [[[19.11806, 52.7241], [19.1212, 52.72369], [19.12441, 52.72405], [19.12432, 52.72244], [19.12177, 52.72021], [19.11891, 52.72053], [19.11632, 52.72002], [19.11602, 52.72067], [19.11745, 52.7221], [19.11756, 52.72416], [19.11806, 52.7241]]], [[[19.06008, 52.73204], [19.05994, 52.73212], [19.06034, 52.73213], [19.0603, 52.73199], [19.06008, 52.73204]]], [[[19.05588, 52.70335], [19.05639, 52.70294], [19.05425, 52.70343], [19.05588, 52.70335]]], [[[19.05878, 52.71322], [19.0582, 52.71219], [19.05612, 52.71271], [19.05623, 52.71306], [19.05878, 52.71322]]], [[[19.02424, 52.72515], [19.02388, 52.72568], [19.02583, 52.72593], [19.02465, 52.72458], [19.02424, 52.72515]]], [[[19.02311, 52.72854], [19.02288, 52.72882], [19.0229, 52.72882], [19.02331, 52.72854], [19.02311, 52.72854]]], [[[19.0468, 52.79743], [19.04677, 52.79743], [19.04792, 52.79765], [19.04784, 52.79725], [19.0468, 52.79743]]], [[[19.06979, 52.76309], [19.06976, 52.76306], [19.06967, 52.76295], [19.06971, 52.76309], [19.06979, 52.76309]]], [[[19.09608, 52.79655], [19.09605, 52.79651], [19.09565, 52.79661], [19.09619, 52.79666], [19.09608, 52.79655]]], [[[19.10156, 52.79922], [19.1011, 52.79905], [19.10084, 52.79897], [19.10105, 52.7994], [19.10156, 52.79922]]], [[[19.11112, 52.76342], [19.11219, 52.76308], [19.1119, 52.7624], [19.11142, 52.76254], [19.11112, 52.76342]]], [[[19.1128, 52.70602], [19.11269, 52.70755], [19.11351, 52.71022], [19.11735, 52.70886], [19.11572, 52.70503], [19.11391, 52.70387], [19.11316, 52.70241], [19.11179, 52.70284], [19.11193, 52.70448], [19.1128, 52.70602]]], [[[19.13621, 52.76935], [19.13694, 52.76918], [19.13409, 52.76869], [19.13496, 52.76887], [19.13621, 52.76935]]], [[[19.15452, 52.69462], [19.1554, 52.69492], [19.15584, 52.69408], [19.15433, 52.69452], [19.15452, 52.69462]]], [[[19.07889, 52.75582], [19.07971, 52.7558], [19.07988, 52.75631], [19.07932, 52.75676], [19.0801, 52.75709], [19.08058, 52.75492], [19.08017, 52.7541], [19.07915, 52.75413], [19.07959, 52.7553], [19.07851, 52.75559], [19.07889, 52.75582]]], [[[18.99777, 52.77484], [18.9984, 52.77476], [18.99827, 52.77407], [18.99808, 52.77475], [18.99704, 52.77485], [18.99777, 52.77484]]], [[[19.00082, 52.77371], [19.00086, 52.77438], [19.00248, 52.77434], [19.00185, 52.77257], [19.00119, 52.77268], [19.00082, 52.77371]]], [[[19.03261, 52.78613], [19.03188, 52.78599], [19.03173, 52.78524], [19.02982, 52.78499], [19.02897, 52.78398], [19.02738, 52.78326], [19.02688, 52.78393], [19.02896, 52.78552], [19.02885, 52.78592], [19.03124, 52.78642], [19.03148, 52.78609], [19.03222, 52.7866], [19.03261, 52.78613]]], [[[19.04892, 52.60051], [19.04899, 52.60085], [19.05, 52.60075], [19.04894, 52.60046], [19.04892, 52.60051]]], [[[19.0629, 52.608], [19.06305, 52.60839], [19.06224, 52.60811], [19.06134, 52.60828], [19.06149, 52.60923], [19.06212, 52.6091], [19.06409, 52.60986], [19.06431, 52.60763], [19.0629, 52.608]]], [[[19.10546, 52.62853], [19.10542, 52.62812], [19.10545, 52.62838], [19.10546, 52.62853]]], [[[19.10434, 52.623], [19.10434, 52.623], [19.10542, 52.62812], [19.10496, 52.62592], [19.10434, 52.623]]]]}, "properties": {"kind": "windland", "area_km2": 12.13}}, {"type": "Feature", "geometry": {"type": "Point", "coordinates": [18.99218, 52.7043]}, "properties": {"kind": "turbine", "i": 0, "mw": 6.0, "hub_m": 120.0, "rotor_m": 150.0}}, {"type": "Feature", "geometry": {"type": "Point", "coordinates": [18.8999, 52.71255]}, "properties": {"kind": "turbine", "i": 1, "mw": 6.0, "hub_m": 120.0, "rotor_m": 150.0}}, {"type": "Feature", "geometry": {"type": "Point", "coordinates": [18.90451, 52.72905]}, "properties": {"kind": "turbine", "i": 2, "mw": 6.0, "hub_m": 120.0, "rotor_m": 150.0}}, {"type": "Feature", "geometry": {"type": "Point", "coordinates": [18.90404, 52.73889]}, "properties": {"kind": "turbine", "i": 3, "mw": 6.0, "hub_m": 120.0, "rotor_m": 150.0}}, {"type": "Feature", "geometry": {"type": "Point", "coordinates": [18.92353, 52.67029]}, "properties": {"kind": "turbine", "i": 4, "mw": 6.0, "hub_m": 120.0, "rotor_m": 150.0}}, {"type": "Feature", "geometry": {"type": "Point", "coordinates": [18.98405, 52.76326]}, "properties": {"kind": "turbine", "i": 5, "mw": 6.0, "hub_m": 120.0, "rotor_m": 150.0}}, {"type": "Feature", "geometry": {"type": "Point", "coordinates": [18.9784, 52.65154]}, "properties": {"kind": "turbine", "i": 6, "mw": 6.0, "hub_m": 120.0, "rotor_m": 150.0}}, {"type": "Feature", "geometry": {"type": "Point", "coordinates": [19.02191, 52.7639]}, "properties": {"kind": "turbine", "i": 7, "mw": 6.0, "hub_m": 120.0, "rotor_m": 150.0}}, {"type": "Feature", "geometry": {"type": "Point", "coordinates": [18.99998, 52.7701]}, "properties": {"kind": "turbine", "i": 8, "mw": 6.0, "hub_m": 120.0, "rotor_m": 150.0}}, {"type": "Feature", "geometry": {"type": "Point", "coordinates": [18.97819, 52.77301]}, "properties": {"kind": "turbine", "i": 9, "mw": 6.0, "hub_m": 120.0, "rotor_m": 150.0}}, {"type": "Feature", "geometry": {"type": "Point", "coordinates": [18.87177, 52.73503]}, "properties": {"kind": "turbine", "i": 10, "mw": 6.0, "hub_m": 120.0, "rotor_m": 150.0}}, {"type": "Feature", "geometry": {"type": "Point", "coordinates": [18.88004, 52.67608]}, "properties": {"kind": "turbine", "i": 11, "mw": 6.0, "hub_m": 120.0, "rotor_m": 150.0}}, {"type": "Feature", "geometry": {"type": "Point", "coordinates": [18.86257, 52.70203]}, "properties": {"kind": "turbine", "i": 12, "mw": 6.0, "hub_m": 120.0, "rotor_m": 150.0}}, {"type": "Feature", "geometry": {"type": "Point", "coordinates": [18.88067, 52.66296]}, "properties": {"kind": "turbine", "i": 13, "mw": 6.0, "hub_m": 120.0, "rotor_m": 150.0}}, {"type": "Feature", "geometry": {"type": "Point", "coordinates": [18.85112, 52.71496]}, "properties": {"kind": "turbine", "i": 14, "mw": 6.0, "hub_m": 120.0, "rotor_m": 150.0}}, {"type": "Feature", "geometry": {"type": "Point", "coordinates": [19.04851, 52.77419]}, "properties": {"kind": "turbine", "i": 15, "mw": 6.0, "hub_m": 120.0, "rotor_m": 150.0}}, {"type": "Feature", "geometry": {"type": "Point", "coordinates": [18.84782, 52.67222]}, "properties": {"kind": "turbine", "i": 16, "mw": 6.0, "hub_m": 120.0, "rotor_m": 150.0}}, {"type": "Feature", "geometry": {"type": "Point", "coordinates": [18.94727, 52.62473]}, "properties": {"kind": "turbine", "i": 17, "mw": 6.0, "hub_m": 120.0, "rotor_m": 150.0}}, {"type": "Feature", "geometry": {"type": "Point", "coordinates": [18.82395, 52.71775]}, "properties": {"kind": "turbine", "i": 18, "mw": 6.0, "hub_m": 120.0, "rotor_m": 150.0}}, {"type": "Feature", "geometry": {"type": "Point", "coordinates": [19.11458, 52.70634]}, "properties": {"kind": "turbine", "i": 19, "mw": 6.0, "hub_m": 120.0, "rotor_m": 150.0}}, {"type": "Feature", "geometry": {"type": "Point", "coordinates": [18.86529, 52.64627]}, "properties": {"kind": "turbine", "i": 20, "mw": 6.0, "hub_m": 120.0, "rotor_m": 150.0}}, {"type": "Feature", "geometry": {"type": "Point", "coordinates": [18.93125, 52.62117]}, "properties": {"kind": "turbine", "i": 21, "mw": 6.0, "hub_m": 120.0, "rotor_m": 150.0}}, {"type": "Feature", "geometry": {"type": "Point", "coordinates": [18.86953, 52.78096]}, "properties": {"kind": "turbine", "i": 22, "mw": 6.0, "hub_m": 120.0, "rotor_m": 150.0}}, {"type": "Feature", "geometry": {"type": "Point", "coordinates": [19.1211, 52.72283]}, "properties": {"kind": "turbine", "i": 23, "mw": 6.0, "hub_m": 120.0, "rotor_m": 150.0}}, {"type": "Feature", "geometry": {"type": "Point", "coordinates": [18.83228, 52.6588]}, "properties": {"kind": "turbine", "i": 24, "mw": 6.0, "hub_m": 120.0, "rotor_m": 150.0}}, {"type": "Feature", "geometry": {"type": "Point", "coordinates": [18.95327, 52.6117]}, "properties": {"kind": "turbine", "i": 25, "mw": 6.0, "hub_m": 120.0, "rotor_m": 150.0}}, {"type": "Feature", "geometry": {"type": "Point", "coordinates": [18.86593, 52.63315]}, "properties": {"kind": "turbine", "i": 26, "mw": 6.0, "hub_m": 120.0, "rotor_m": 150.0}}, {"type": "Feature", "geometry": {"type": "Point", "coordinates": [18.80284, 52.70751]}, "properties": {"kind": "turbine", "i": 27, "mw": 6.0, "hub_m": 120.0, "rotor_m": 150.0}}, {"type": "Feature", "geometry": {"type": "Point", "coordinates": [18.93187, 52.60805]}, "properties": {"kind": "turbine", "i": 28, "mw": 6.0, "hub_m": 120.0, "rotor_m": 150.0}}, {"type": "Feature", "geometry": {"type": "Point", "coordinates": [18.95455, 52.81528]}, "properties": {"kind": "turbine", "i": 29, "mw": 6.0, "hub_m": 120.0, "rotor_m": 150.0}}, {"type": "Feature", "geometry": {"type": "Point", "coordinates": [18.93289, 52.81491]}, "properties": {"kind": "turbine", "i": 30, "mw": 6.0, "hub_m": 120.0, "rotor_m": 150.0}}, {"type": "Feature", "geometry": {"type": "Point", "coordinates": [18.79942, 52.66805]}, "properties": {"kind": "turbine", "i": 31, "mw": 6.0, "hub_m": 120.0, "rotor_m": 150.0}}, {"type": "Feature", "geometry": {"type": "Point", "coordinates": [18.86117, 52.61993]}, "properties": {"kind": "turbine", "i": 32, "mw": 6.0, "hub_m": 120.0, "rotor_m": 150.0}}, {"type": "Feature", "geometry": {"type": "Point", "coordinates": [18.97049, 52.82212]}, "properties": {"kind": "turbine", "i": 33, "mw": 6.0, "hub_m": 120.0, "rotor_m": 150.0}}, {"type": "Feature", "geometry": {"type": "Point", "coordinates": [18.78747, 52.69081]}, "properties": {"kind": "turbine", "i": 34, "mw": 6.0, "hub_m": 120.0, "rotor_m": 150.0}}, {"type": "Feature", "geometry": {"type": "Point", "coordinates": [18.83929, 52.6261]}, "properties": {"kind": "turbine", "i": 35, "mw": 6.0, "hub_m": 120.0, "rotor_m": 150.0}}]}