{"type": "FeatureCollection", "features": [{"type": "Feature", "geometry": {"type": "MultiPolygon", "coordinates": [[[[-104.95133, 41.07292], [-104.94362, 41.07109], [-104.94126, 41.07021], [-104.92927, 41.05859], [-104.9245, 41.05552], [-104.93385, 41.05848], [-104.94277, 41.063], [-104.95035, 41.06875], [-104.95491, 41.07374], [-104.95133, 41.07292]]], [[[-104.93337, 41.13153], [-104.9315, 41.13155], [-104.93001, 41.13255], [-104.92937, 41.13217], [-104.93034, 41.131], [-104.93032, 41.12968], [-104.93275, 41.12927], [-104.93469, 41.12779], [-104.93626, 41.12896], [-104.93841, 41.12945], [-104.93337, 41.13153]]], [[[-104.94346, 41.12646], [-104.94307, 41.12435], [-104.94125, 41.12285], [-104.93954, 41.12239], [-104.93751, 41.12245], [-104.93587, 41.12304], [-104.93455, 41.12421], [-104.93351, 41.12329], [-104.93181, 41.12263], [-104.93107, 41.12128], [-104.92928, 41.11961], [-104.92765, 41.11901], [-104.92601, 41.1189], [-104.92346, 41.11956], [-104.92182, 41.12118], [-104.92158, 41.12304], [-104.92248, 41.12532], [-104.92061, 41.12704], [-104.9204, 41.12816], [-104.92086, 41.12921], [-104.9128, 41.12811], [-104.91405, 41.1264], [-104.91444, 41.12417], [-104.91437, 41.11966], [-104.91313, 41.11788], [-104.92393, 41.11617], [-104.95739, 41.11279], [-104.95351, 41.11804], [-104.95031, 41.12131], [-104.94346, 41.12646]]], [[[-104.96095, 41.10483], [-104.95905, 41.10506], [-104.95752, 41.10576], [-104.95629, 41.10716], [-104.95602, 41.10856], [-104.95424, 41.10868], [-104.95392, 41.10724], [-104.95294, 41.10609], [-104.95141, 41.10529], [-104.94918, 41.10501], [-104.94704, 41.10556], [-104.94565, 41.10661], [-104.94492, 41.1079], [-104.94502, 41.10962], [-104.92253, 41.11199], [-104.90697, 41.11439], [-104.88906, 41.11455], [-104.8891, 41.10649], [-104.90784, 41.09942], [-104.91164, 41.09929], [-104.91349, 41.10033], [-104.91573, 41.10057], [-104.91771, 41.10013], [-104.9205, 41.09842], [-104.92163, 41.09962], [-104.92326, 41.10039], [-104.92505, 41.10059], [-104.92742, 41.10023], [-104.92929, 41.09926], [-104.9302, 41.09808], [-104.93044, 41.09672], [-104.92994, 41.09525], [-104.93217, 41.09595], [-104.935, 41.09556], [-104.93697, 41.09416], [-104.93754, 41.09198], [-104.94887, 41.08849], [-104.95032, 41.09047], [-104.95275, 41.09134], [-104.9557, 41.09102], [-104.95745, 41.09155], [-104.95926, 41.09151], [-104.96111, 41.09089], [-104.96231, 41.09001], [-104.96276, 41.09503], [-104.96249, 41.09909], [-104.96095, 41.10483]]], [[[-104.91982, 41.1353], [-104.91875, 41.1342], [-104.91487, 41.13279], [-104.91325, 41.13283], [-104.91097, 41.13369], [-104.91033, 41.13233], [-104.91363, 41.132], [-104.92251, 41.13343], [-104.92482, 41.13439], [-104.91982, 41.1353]]], [[[-104.89996, 41.13592], [-104.89997, 41.13593], [-104.89996, 41.13593], [-104.89996, 41.13592]]], [[[-104.89104, 41.08903], [-104.8947, 41.08869], [-104.89729, 41.09308], [-104.8963, 41.09492], [-104.8962, 41.09666], [-104.89444, 41.09791], [-104.89183, 41.09873], [-104.89096, 41.09811], [-104.88964, 41.09782], [-104.88641, 41.09858], [-104.88323, 41.09821], [-104.88034, 41.09841], [-104.87848, 41.1], [-104.87841, 41.10148], [-104.87936, 41.10273], [-104.87835, 41.10328], [-104.87789, 41.10162], [-104.8737, 41.099], [-104.87364, 41.09721], [-104.8717, 41.09554], [-104.8901, 41.08882], [-104.89104, 41.08903]]], [[[-104.85998, 41.1122], [-104.8578, 41.11149], [-104.85563, 41.1071], [-104.85719, 41.10586], [-104.85815, 41.1041], [-104.85788, 41.10198], [-104.85906, 41.10001], [-104.85906, 41.09846], [-104.85978, 41.09684], [-104.85959, 41.09526], [-104.86589, 41.0955], [-104.86384, 41.09704], [-104.86329, 41.09964], [-104.86415, 41.10122], [-104.86611, 41.10237], [-104.86705, 41.10447], [-104.86917, 41.10535], [-104.87152, 41.10463], [-104.87549, 41.10516], [-104.87076, 41.10809], [-104.85998, 41.1122]]], [[[-104.92482, 41.0911], [-104.92226, 41.0919], [-104.91889, 41.09206], [-104.91741, 41.09058], [-104.91535, 41.0899], [-104.91336, 41.08996], [-104.91162, 41.09057], [-104.90761, 41.08971], [-104.90466, 41.08999], [-104.90301, 41.08919], [-104.90089, 41.08934], [-104.89897, 41.08586], [-104.89416, 41.06543], [-104.895, 41.06393], [-104.89466, 41.06187], [-104.89577, 41.05955], [-104.89596, 41.05813], [-104.89843, 41.05619], [-104.90041, 41.05563], [-104.90289, 41.05564], [-104.9169, 41.05742], [-104.92192, 41.05896], [-104.92569, 41.0615], [-104.93833, 41.07378], [-104.96024, 41.08333], [-104.95529, 41.08255], [-104.95154, 41.08285], [-104.92482, 41.0911]]], [[[-104.8704, 41.06897], [-104.87034, 41.069], [-104.86977, 41.06935], [-104.87052, 41.06867], [-104.8704, 41.06897]]], [[[-104.88358, 41.12831], [-104.87569, 41.12839], [-104.87034, 41.12502], [-104.87069, 41.12344], [-104.8702, 41.12207], [-104.86853, 41.12066], [-104.86576, 41.12009], [-104.86602, 41.11875], [-104.88391, 41.11885], [-104.88358, 41.12831]]], [[[-104.86965, 41.11377], [-104.8808, 41.10958], [-104.88398, 41.1084], [-104.88395, 41.11458], [-104.86738, 41.11463], [-104.86965, 41.11377]]], [[[-104.86405, 41.07468], [-104.86362, 41.0751], [-104.86288, 41.07576], [-104.86405, 41.07468]]]]}, "properties": {"kind": "windland", "area_km2": 31.28}}, {"type": "Feature", "geometry": {"type": "MultiPolygon", "coordinates": [[[[-104.90035, 41.09426], [-104.90028, 41.09297], [-104.89986, 41.09158], [-104.89785, 41.08853], [-104.89704, 41.08686], [-104.89462, 41.07697], [-104.89685, 41.07697], [-104.89917, 41.08645], [-104.90089, 41.08934], [-104.90301, 41.08919], [-104.904, 41.08951], [-104.90466, 41.08999], [-104.90625, 41.08967], [-104.90761, 41.08971], [-104.90879, 41.09001], [-104.91021, 41.09011], [-104.91162, 41.09057], [-104.91336, 41.08996], [-104.91535, 41.0899], [-104.91741, 41.09058], [-104.91836, 41.09132], [-104.91889, 41.09206], [-104.92102, 41.09175], [-104.92226, 41.0919], [-104.93182, 41.08884], [-104.93182, 41.09071], [-104.92177, 41.09386], [-104.92116, 41.09359], [-104.91942, 41.09385], [-104.91902, 41.09414], [-104.91905, 41.09449], [-104.91589, 41.09497], [-104.91578, 41.09445], [-104.91522, 41.09453], [-104.91531, 41.09329], [-104.91484, 41.09285], [-104.91405, 41.0929], [-104.91289, 41.09373], [-104.91229, 41.09356], [-104.91155, 41.09386], [-104.90957, 41.09303], [-104.90755, 41.09319], [-104.90703, 41.09266], [-104.90607, 41.09275], [-104.90482, 41.0922], [-104.90421, 41.09158], [-104.90254, 41.09099], [-104.90174, 41.09086], [-104.90067, 41.09115], [-104.90049, 41.09142], [-104.90092, 41.09473], [-104.90018, 41.09539], [-104.9001, 41.09644], [-104.90062, 41.09811], [-104.90121, 41.09838], [-104.89901, 41.09955], [-104.88417, 41.1051], [-104.88417, 41.10326], [-104.89464, 41.10035], [-104.89725, 41.09912], [-104.89829, 41.09831], [-104.8995, 41.09685], [-104.90013, 41.09547], [-104.90035, 41.09426]]], [[[-104.93182, 41.09136], [-104.93182, 41.09137], [-104.92607, 41.09315], [-104.93182, 41.09136]]], [[[-104.92562, 41.09498], [-104.92579, 41.09454], [-104.92519, 41.09438], [-104.92502, 41.09406], [-104.93182, 41.09196], [-104.93181, 41.0959], [-104.92994, 41.09525], [-104.93039, 41.09637], [-104.93033, 41.09774], [-104.92957, 41.09899], [-104.92824, 41.09993], [-104.92699, 41.10033], [-104.9255, 41.10056], [-104.9237, 41.10049], [-104.92171, 41.09968], [-104.9205, 41.09842], [-104.91771, 41.10013], [-104.91573, 41.10057], [-104.91349, 41.10033], [-104.91164, 41.09929], [-104.90984, 41.0992], [-104.90782, 41.09943], [-104.8891, 41.10649], [-104.88907, 41.113], [-104.88687, 41.113], [-104.8869, 41.10546], [-104.90847, 41.09741], [-104.91077, 41.09688], [-104.91469, 41.09629], [-104.91432, 41.09663], [-104.91438, 41.09713], [-104.91485, 41.09753], [-104.9154, 41.09761], [-104.91602, 41.09742], [-104.91623, 41.09703], [-104.91602, 41.09642], [-104.91547, 41.09618], [-104.91609, 41.09608], [-104.91637, 41.09662], [-104.91712, 41.09671], [-104.91759, 41.0964], [-104.91755, 41.09585], [-104.92059, 41.09527], [-104.92429, 41.09428], [-104.92427, 41.09488], [-104.9245, 41.09511], [-104.92562, 41.09498]], [[-104.92482, 41.09584], [-104.92415, 41.09619], [-104.92413, 41.0973], [-104.9248, 41.09763], [-104.92619, 41.0974], [-104.92653, 41.09701], [-104.92636, 41.09645], [-104.92482, 41.09584]]], [[[-104.90822, 41.09691], [-104.90682, 41.09734], [-104.88417, 41.10587], [-104.90689, 41.09728], [-104.90801, 41.09694], [-104.90877, 41.09676], [-104.90822, 41.09691]]], [[[-104.92258, 41.11198], [-104.93058, 41.11117], [-104.9318, 41.11102], [-104.9318, 41.1127], [-104.92842, 41.11303], [-104.91588, 41.11302], [-104.92258, 41.11198]]], [[[-104.89496, 41.08916], [-104.8947, 41.08869], [-104.89207, 41.0891], [-104.8901, 41.08882], [-104.89614, 41.08661], [-104.8971, 41.08872], [-104.89899, 41.09153], [-104.89946, 41.09283], [-104.89943, 41.09511], [-104.89838, 41.09718], [-104.89683, 41.09861], [-104.89499, 41.09957], [-104.88417, 41.10261], [-104.88417, 41.10166], [-104.886, 41.10182], [-104.8874, 41.10162], [-104.8878, 41.10104], [-104.88861, 41.10078], [-104.8899, 41.09992], [-104.88945, 41.09967], [-104.88691, 41.10042], [-104.88634, 41.10076], [-104.88575, 41.10035], [-104.88471, 41.10032], [-104.88418, 41.10016], [-104.88418, 41.0983], [-104.88641, 41.09858], [-104.88882, 41.09789], [-104.88964, 41.09782], [-104.89096, 41.09811], [-104.89183, 41.09873], [-104.89444, 41.09791], [-104.8962, 41.09666], [-104.89641, 41.09458], [-104.89733, 41.09328], [-104.89686, 41.092], [-104.89496, 41.08916]]], [[[-104.88416, 41.10648], [-104.88619, 41.10572], [-104.88615, 41.113], [-104.88415, 41.11299], [-104.88416, 41.10648]]]]}, "properties": {"kind": "pv", "area_km2": 3.54, "mw": 177.1}}, {"type": "Feature", "geometry": {"type": "Point", "coordinates": [-104.91216, 41.08856]}, "properties": {"kind": "turbine", "i": 0, "mw": 6.0, "hub_m": 120.0, "rotor_m": 150.0}}, {"type": "Feature", "geometry": {"type": "Point", "coordinates": [-104.90345, 41.10171]}, "properties": {"kind": "turbine", "i": 1, "mw": 6.0, "hub_m": 120.0, "rotor_m": 150.0}}, {"type": "Feature", "geometry": {"type": "Point", "coordinates": [-104.89476, 41.09183]}, "properties": {"kind": "turbine", "i": 2, "mw": 6.0, "hub_m": 120.0, "rotor_m": 150.0}}, {"type": "Feature", "geometry": {"type": "Point", "coordinates": [-104.92084, 41.10172]}, "properties": {"kind": "turbine", "i": 3, "mw": 6.0, "hub_m": 120.0, "rotor_m": 150.0}}, {"type": "Feature", "geometry": {"type": "Point", "coordinates": [-104.92521, 41.08528]}, "properties": {"kind": "turbine", "i": 4, "mw": 6.0, "hub_m": 120.0, "rotor_m": 150.0}}, {"type": "Feature", "geometry": {"type": "Point", "coordinates": [-104.90783, 41.07868]}, "properties": {"kind": "turbine", "i": 5, "mw": 6.0, "hub_m": 120.0, "rotor_m": 150.0}}, {"type": "Feature", "geometry": {"type": "Point", "coordinates": [-104.90778, 41.11158]}, "properties": {"kind": "turbine", "i": 6, "mw": 6.0, "hub_m": 120.0, "rotor_m": 150.0}}, {"type": "Feature", "geometry": {"type": "Point", "coordinates": [-104.89039, 41.10827]}, "properties": {"kind": "turbine", "i": 7, "mw": 6.0, "hub_m": 120.0, "rotor_m": 150.0}}, {"type": "Feature", "geometry": {"type": "Point", "coordinates": [-104.88172, 41.09511]}, "properties": {"kind": "turbine", "i": 8, "mw": 6.0, "hub_m": 120.0, "rotor_m": 150.0}}, {"type": "Feature", "geometry": {"type": "Point", "coordinates": [-104.92518, 41.11159]}, "properties": {"kind": "turbine", "i": 9, "mw": 6.0, "hub_m": 120.0, "rotor_m": 150.0}}, {"type": "Feature", "geometry": {"type": "Point", "coordinates": [-104.92087, 41.0754]}, "properties": {"kind": "turbine", "i": 10, "mw": 6.0, "hub_m": 120.0, "rotor_m": 150.0}}, {"type": "Feature", "geometry": {"type": "Point", "coordinates": [-104.93824, 41.09186]}, "properties": {"kind": "turbine", "i": 11, "mw": 6.0, "hub_m": 120.0, "rotor_m": 150.0}}, {"type": "Feature", "geometry": {"type": "Point", "coordinates": [-104.93823, 41.10173]}, "properties": {"kind": "turbine", "i": 12, "mw": 6.0, "hub_m": 120.0, "rotor_m": 150.0}}, {"type": "Feature", "geometry": {"type": "Point", "coordinates": [-104.90784, 41.06882]}, "properties": {"kind": "turbine", "i": 13, "mw": 6.0, "hub_m": 120.0, "rotor_m": 150.0}}, {"type": "Feature", "geometry": {"type": "Point", "coordinates": [-104.93825, 41.08199]}, "properties": {"kind": "turbine", "i": 14, "mw": 6.0, "hub_m": 120.0, "rotor_m": 150.0}}, {"type": "Feature", "geometry": {"type": "Point", "coordinates": [-104.91647, 41.12145]}, "properties": {"kind": "turbine", "i": 15, "mw": 6.0, "hub_m": 120.0, "rotor_m": 150.0}}, {"type": "Feature", "geometry": {"type": "Point", "coordinates": [-104.873, 41.10497]}, "properties": {"kind": "turbine", "i": 16, "mw": 6.0, "hub_m": 120.0, "rotor_m": 150.0}}, {"type": "Feature", "geometry": {"type": "Point", "coordinates": [-104.93391, 41.07212]}, "properties": {"kind": "turbine", "i": 17, "mw": 6.0, "hub_m": 120.0, "rotor_m": 150.0}}, {"type": "Feature", "geometry": {"type": "Point", "coordinates": [-104.93387, 41.12146]}, "properties": {"kind": "turbine", "i": 18, "mw": 6.0, "hub_m": 120.0, "rotor_m": 150.0}}, {"type": "Feature", "geometry": {"type": "Point", "coordinates": [-104.88167, 41.12142]}, "properties": {"kind": "turbine", "i": 19, "mw": 6.0, "hub_m": 120.0, "rotor_m": 150.0}}, {"type": "Feature", "geometry": {"type": "Point", "coordinates": [-104.92089, 41.06225]}, "properties": {"kind": "turbine", "i": 20, "mw": 6.0, "hub_m": 120.0, "rotor_m": 150.0}}, {"type": "Feature", "geometry": {"type": "Point", "coordinates": [-104.94692, 41.11489]}, "properties": {"kind": "turbine", "i": 21, "mw": 6.0, "hub_m": 120.0, "rotor_m": 150.0}}, {"type": "Feature", "geometry": {"type": "Point", "coordinates": [-104.95563, 41.09187]}, "properties": {"kind": "turbine", "i": 22, "mw": 6.0, "hub_m": 120.0, "rotor_m": 150.0}}, {"type": "Feature", "geometry": {"type": "Point", "coordinates": [-104.90351, 41.05895]}, "properties": {"kind": "turbine", "i": 23, "mw": 6.0, "hub_m": 120.0, "rotor_m": 150.0}}, {"type": "Feature", "geometry": {"type": "Point", "coordinates": [-104.85997, 41.09837]}, "properties": {"kind": "turbine", "i": 24, "mw": 6.0, "hub_m": 120.0, "rotor_m": 150.0}}]}