{"type": "FeatureCollection", "features": [{"type": "Feature", "geometry": {"type": "MultiPolygon", "coordinates": [[[[-104.96808, 41.07678], [-104.96753, 41.07665], [-104.96915, 41.0756], [-104.96992, 41.07433], [-104.97162, 41.07758], [-104.96808, 41.07678]]], [[[-104.96691, 41.07014], [-104.96219, 41.06972], [-104.9596, 41.07031], [-104.95773, 41.07221], [-104.95774, 41.07438], [-104.94362, 41.07109], [-104.94043, 41.0696], [-104.92927, 41.05859], [-104.92691, 41.05684], [-104.92397, 41.05529], [-104.91777, 41.05352], [-104.90294, 41.05156], [-104.89818, 41.05149], [-104.90768, 41.04848], [-104.91711, 41.04959], [-104.91945, 41.0495], [-104.92134, 41.04886], [-104.92272, 41.04786], [-104.92392, 41.04524], [-104.92772, 41.04597], [-104.93397, 41.04767], [-104.93998, 41.04982], [-104.94568, 41.05241], [-104.95101, 41.05541], [-104.95593, 41.05879], [-104.96039, 41.06251], [-104.96435, 41.06656], [-104.96727, 41.07025], [-104.96691, 41.07014]], [[-104.94252, 41.05532], [-104.94353, 41.05377], [-104.94283, 41.05215], [-104.94099, 41.0512], [-104.93867, 41.05159], [-104.93759, 41.05318], [-104.93843, 41.0551], [-104.94032, 41.05588], [-104.94252, 41.05532]]], [[[-104.94889, 41.13567], [-104.94485, 41.13362], [-104.94245, 41.13328], [-104.93815, 41.13417], [-104.93679, 41.13508], [-104.93608, 41.13611], [-104.93556, 41.13581], [-104.93626, 41.13365], [-104.93513, 41.13226], [-104.93257, 41.13142], [-104.93101, 41.13173], [-104.93001, 41.13255], [-104.92937, 41.13217], [-104.93034, 41.131], [-104.93032, 41.12968], [-104.93275, 41.12927], [-104.93469, 41.12779], [-104.93588, 41.12877], [-104.93752, 41.12935], [-104.93956, 41.12943], [-104.94126, 41.12896], [-104.94307, 41.12745], [-104.94351, 41.12568], [-104.9426, 41.12376], [-104.93999, 41.12245], [-104.93665, 41.12268], [-104.93455, 41.12421], [-104.93351, 41.12329], [-104.93181, 41.12263], [-104.92963, 41.11983], [-104.92765, 41.11901], [-104.92425, 41.11921], [-104.922, 41.12086], [-104.92154, 41.1227], [-104.92248, 41.12532], [-104.92061, 41.12704], [-104.9204, 41.12816], [-104.92086, 41.12921], [-104.9128, 41.12811], [-104.91405, 41.1264], [-104.91444, 41.12417], [-104.91437, 41.11966], [-104.91313, 41.11788], [-104.92284, 41.1163], [-104.93382, 41.11513], [-104.95539, 41.11292], [-104.97199, 41.11169], [-104.96774, 41.11919], [-104.96432, 41.12351], [-104.96035, 41.12754], [-104.95588, 41.13127], [-104.94889, 41.13567]], [[-104.96926, 41.11222], [-104.96927, 41.11241], [-104.97001, 41.11239], [-104.97001, 41.11221], [-104.96926, 41.11222]]], [[[-104.97369, 41.10712], [-104.96538, 41.10794], [-104.96497, 41.10686], [-104.96388, 41.10574], [-104.96231, 41.10503], [-104.96049, 41.10484], [-104.95864, 41.10519], [-104.95721, 41.106], [-104.95629, 41.10716], [-104.95602, 41.10856], [-104.95424, 41.10868], [-104.95392, 41.10724], [-104.95294, 41.10609], [-104.95141, 41.10529], [-104.94918, 41.10501], [-104.94704, 41.10556], [-104.94565, 41.10661], [-104.94492, 41.1079], [-104.94502, 41.10962], [-104.92253, 41.11199], [-104.90697, 41.11439], [-104.88906, 41.11455], [-104.8891, 41.10649], [-104.90784, 41.09942], [-104.91164, 41.09929], [-104.91349, 41.10033], [-104.91573, 41.10057], [-104.91771, 41.10013], [-104.9205, 41.09842], [-104.92163, 41.09962], [-104.92326, 41.10039], [-104.92505, 41.10059], [-104.92742, 41.10023], [-104.92929, 41.09926], [-104.9302, 41.09808], [-104.93044, 41.09672], [-104.92994, 41.09525], [-104.93217, 41.09595], [-104.935, 41.09556], [-104.93697, 41.09416], [-104.93754, 41.09198], [-104.94887, 41.08849], [-104.95032, 41.09047], [-104.95275, 41.09134], [-104.9557, 41.09102], [-104.95745, 41.09155], [-104.9597, 41.09142], [-104.96181, 41.09044], [-104.96318, 41.08868], [-104.97554, 41.09183], [-104.97542, 41.10006], [-104.97369, 41.10712]], [[-104.96719, 41.09278], [-104.96591, 41.09286], [-104.96602, 41.09364], [-104.96723, 41.09342], [-104.96719, 41.09278]]], [[[-104.90932, 41.14593], [-104.90793, 41.1441], [-104.90586, 41.14323], [-104.90729, 41.14087], [-104.90694, 41.13903], [-104.90603, 41.13804], [-104.90776, 41.13776], [-104.90929, 41.13704], [-104.90983, 41.13824], [-104.91113, 41.13917], [-104.91451, 41.14006], [-104.91616, 41.14008], [-104.91851, 41.13902], [-104.91996, 41.13623], [-104.91971, 41.13509], [-104.91896, 41.13433], [-104.91514, 41.13285], [-104.91351, 41.13277], [-104.91097, 41.13369], [-104.91033, 41.13233], [-104.91128, 41.1321], [-104.91363, 41.132], [-104.92345, 41.1337], [-104.93669, 41.14137], [-104.92761, 41.14406], [-104.92116, 41.14528], [-104.91457, 41.14601], [-104.90941, 41.1462], [-104.90932, 41.14593]]], [[[-104.90002, 41.13747], [-104.89988, 41.13657], [-104.89996, 41.13592], [-104.90192, 41.13698], [-104.90002, 41.13747]]], [[[-104.841, 41.09061], [-104.84063, 41.08968], [-104.84158, 41.08493], [-104.84309, 41.08039], [-104.84563, 41.07944], [-104.84693, 41.07766], [-104.84699, 41.07588], [-104.84607, 41.07433], [-104.84676, 41.07324], [-104.8491, 41.07316], [-104.85052, 41.07235], [-104.85091, 41.07145], [-104.85085, 41.06758], [-104.8557, 41.06243], [-104.86017, 41.05871], [-104.8651, 41.05534], [-104.87044, 41.05235], [-104.87615, 41.04977], [-104.88614, 41.04655], [-104.88394, 41.05187], [-104.88328, 41.05246], [-104.87716, 41.0546], [-104.87559, 41.05556], [-104.87408, 41.05718], [-104.87351, 41.05855], [-104.85183, 41.07862], [-104.84999, 41.07975], [-104.841, 41.09061]]], [[[-104.91859, 41.0446], [-104.91875, 41.04534], [-104.91803, 41.04577], [-104.90954, 41.04461], [-104.90632, 41.04474], [-104.89654, 41.04781], [-104.89513, 41.04469], [-104.90144, 41.04399], [-104.90807, 41.04375], [-104.91471, 41.044], [-104.91859, 41.0446]]], [[[-104.89104, 41.08903], [-104.8947, 41.08869], [-104.89729, 41.09308], [-104.8963, 41.09492], [-104.8962, 41.09666], [-104.89444, 41.09791], [-104.89183, 41.09873], [-104.89096, 41.09811], [-104.88964, 41.09782], [-104.88641, 41.09858], [-104.88323, 41.09821], [-104.88034, 41.09841], [-104.87848, 41.1], [-104.87841, 41.10148], [-104.87936, 41.10273], [-104.87835, 41.10328], [-104.87789, 41.10162], [-104.8737, 41.099], [-104.87364, 41.09721], [-104.8717, 41.09554], [-104.8901, 41.08882], [-104.89104, 41.08903]]], [[[-104.85998, 41.1122], [-104.85681, 41.11127], [-104.85348, 41.11121], [-104.85338, 41.108], [-104.85665, 41.10642], [-104.85803, 41.10443], [-104.85824, 41.10307], [-104.85788, 41.10198], [-104.85906, 41.10001], [-104.85906, 41.09846], [-104.85978, 41.09684], [-104.85959, 41.09526], [-104.86589, 41.0955], [-104.86384, 41.09704], [-104.86329, 41.09964], [-104.86415, 41.10122], [-104.86611, 41.10237], [-104.86705, 41.10447], [-104.86917, 41.10535], [-104.87152, 41.10463], [-104.87549, 41.10516], [-104.87076, 41.10809], [-104.85998, 41.1122]]], [[[-104.92482, 41.0911], [-104.92226, 41.0919], [-104.91889, 41.09206], [-104.91741, 41.09058], [-104.91535, 41.0899], [-104.91336, 41.08996], [-104.91162, 41.09057], [-104.90761, 41.08971], [-104.90466, 41.08999], [-104.90301, 41.08919], [-104.90089, 41.08934], [-104.89897, 41.08586], [-104.89416, 41.06543], [-104.895, 41.06393], [-104.89466, 41.06187], [-104.89577, 41.05955], [-104.89596, 41.05813], [-104.89843, 41.05619], [-104.90041, 41.05563], [-104.90289, 41.05564], [-104.9169, 41.05742], [-104.92192, 41.05896], [-104.92569, 41.0615], [-104.93833, 41.07378], [-104.96024, 41.08333], [-104.95529, 41.08255], [-104.95154, 41.08285], [-104.92482, 41.0911]]], [[[-104.97421, 41.0855], [-104.96579, 41.08146], [-104.96111, 41.07919], [-104.97346, 41.08203], [-104.97458, 41.08569], [-104.97421, 41.0855]]], [[[-104.8704, 41.06897], [-104.87034, 41.069], [-104.86977, 41.06935], [-104.87052, 41.06867], [-104.8704, 41.06897]]], [[[-104.88358, 41.12831], [-104.87891, 41.12851], [-104.86932, 41.12818], [-104.86738, 41.1286], [-104.86609, 41.12936], [-104.86215, 41.12851], [-104.85734, 41.12895], [-104.85212, 41.12394], [-104.85232, 41.12366], [-104.85417, 41.12529], [-104.85583, 41.12565], [-104.85741, 41.12544], [-104.85872, 41.12457], [-104.86125, 41.12392], [-104.86165, 41.12513], [-104.86288, 41.12637], [-104.86453, 41.12707], [-104.86672, 41.12719], [-104.86866, 41.1266], [-104.86981, 41.12575], [-104.87069, 41.12344], [-104.8702, 41.12207], [-104.86921, 41.12105], [-104.8678, 41.12036], [-104.86576, 41.12009], [-104.86602, 41.11875], [-104.88391, 41.11885], [-104.88358, 41.12831]]], [[[-104.86965, 41.11377], [-104.8808, 41.10958], [-104.88398, 41.1084], [-104.88395, 41.11458], [-104.86738, 41.11463], [-104.86965, 41.11377]]], [[[-104.86405, 41.07468], [-104.86362, 41.0751], [-104.86288, 41.07576], [-104.86405, 41.07468]]]]}, "properties": {"kind": "windland", "area_km2": 48.26}}, {"type": "Feature", "geometry": {"type": "MultiPolygon", "coordinates": [[[[-104.94373, 41.08698], [-104.92177, 41.09386], [-104.92116, 41.09359], [-104.91942, 41.09385], [-104.91902, 41.09414], [-104.91905, 41.09449], [-104.91589, 41.09497], [-104.91578, 41.09445], [-104.91522, 41.09453], [-104.91531, 41.09329], [-104.91484, 41.09285], [-104.91405, 41.0929], [-104.91289, 41.09373], [-104.91229, 41.09356], [-104.91155, 41.09386], [-104.90957, 41.09303], [-104.90755, 41.09319], [-104.90703, 41.09266], [-104.90607, 41.09275], [-104.90482, 41.0922], [-104.90421, 41.09158], [-104.90254, 41.09099], [-104.90174, 41.09086], [-104.90067, 41.09115], [-104.90049, 41.09142], [-104.90092, 41.09473], [-104.90018, 41.09539], [-104.9001, 41.09644], [-104.90062, 41.09811], [-104.90121, 41.09838], [-104.89901, 41.09955], [-104.88417, 41.1051], [-104.88417, 41.10399], [-104.8823, 41.10398], [-104.88529, 41.10291], [-104.89551, 41.10005], [-104.89784, 41.0987], [-104.89902, 41.09751], [-104.89981, 41.09629], [-104.90031, 41.09469], [-104.90021, 41.09258], [-104.89974, 41.09135], [-104.89785, 41.08853], [-104.8971, 41.08704], [-104.89462, 41.07697], [-104.89612, 41.07697], [-104.89613, 41.07393], [-104.89897, 41.08586], [-104.89965, 41.08751], [-104.90089, 41.08934], [-104.90301, 41.08919], [-104.904, 41.08951], [-104.90466, 41.08999], [-104.90625, 41.08967], [-104.90761, 41.08971], [-104.90879, 41.09001], [-104.91021, 41.09011], [-104.91162, 41.09057], [-104.91336, 41.08996], [-104.91535, 41.0899], [-104.91741, 41.09058], [-104.91836, 41.09132], [-104.91889, 41.09206], [-104.92102, 41.09175], [-104.92226, 41.0919], [-104.93104, 41.08902], [-104.93225, 41.08878], [-104.94108, 41.08601], [-104.94373, 41.08601], [-104.94373, 41.08698]]], [[[-104.93182, 41.09137], [-104.92607, 41.09315], [-104.94373, 41.08764], [-104.94373, 41.08769], [-104.93182, 41.09137]]], [[[-104.94373, 41.09007], [-104.93754, 41.09198], [-104.93746, 41.0932], [-104.93697, 41.09416], [-104.93612, 41.09497], [-104.935, 41.09556], [-104.93353, 41.09593], [-104.93217, 41.09595], [-104.93086, 41.09567], [-104.92994, 41.09525], [-104.93044, 41.09672], [-104.9302, 41.09808], [-104.92929, 41.09926], [-104.92742, 41.10023], [-104.92505, 41.10059], [-104.92326, 41.10039], [-104.92163, 41.09962], [-104.9205, 41.09842], [-104.91771, 41.10013], [-104.91573, 41.10057], [-104.91349, 41.10033], [-104.91164, 41.09929], [-104.90984, 41.0992], [-104.90784, 41.09942], [-104.8891, 41.10649], [-104.88907, 41.113], [-104.88687, 41.113], [-104.8869, 41.10546], [-104.90847, 41.09741], [-104.91077, 41.09688], [-104.91469, 41.09629], [-104.9143, 41.09668], [-104.91445, 41.09722], [-104.91498, 41.09758], [-104.91571, 41.09756], [-104.91611, 41.09734], [-104.91622, 41.09698], [-104.91602, 41.09642], [-104.91547, 41.09618], [-104.91609, 41.09608], [-104.91637, 41.09662], [-104.91712, 41.09671], [-104.91759, 41.0964], [-104.91755, 41.09585], [-104.92059, 41.09527], [-104.92429, 41.09428], [-104.92427, 41.09488], [-104.9245, 41.09511], [-104.92559, 41.09499], [-104.92581, 41.09457], [-104.92519, 41.09438], [-104.92502, 41.09406], [-104.94373, 41.08828], [-104.94373, 41.09007]], [[-104.93288, 41.093], [-104.93349, 41.09277], [-104.93366, 41.09237], [-104.93339, 41.09188], [-104.93281, 41.09171], [-104.93219, 41.09191], [-104.93196, 41.09234], [-104.93229, 41.09288], [-104.93288, 41.093]], [[-104.92482, 41.09584], [-104.92415, 41.09619], [-104.92413, 41.0973], [-104.9248, 41.09763], [-104.92619, 41.0974], [-104.92653, 41.09701], [-104.92636, 41.09645], [-104.92482, 41.09584]]], [[[-104.908, 41.09697], [-104.90566, 41.09777], [-104.88417, 41.10587], [-104.90689, 41.09728], [-104.90801, 41.09694], [-104.90877, 41.09676], [-104.908, 41.09697]]], [[[-104.92509, 41.11171], [-104.9318, 41.11102], [-104.9318, 41.1127], [-104.92842, 41.11303], [-104.91989, 41.11303], [-104.91988, 41.11406], [-104.90718, 41.11605], [-104.89606, 41.11619], [-104.89606, 41.11453], [-104.90697, 41.11439], [-104.92104, 41.11218], [-104.92509, 41.11171]]], [[[-104.91988, 41.11506], [-104.91988, 41.11676], [-104.91313, 41.11788], [-104.91391, 41.11869], [-104.91437, 41.11966], [-104.91445, 41.12203], [-104.91053, 41.12203], [-104.91063, 41.11716], [-104.9057, 41.11725], [-104.90552, 41.12202], [-104.9035, 41.12202], [-104.90506, 41.12088], [-104.90515, 41.11777], [-104.90482, 41.11754], [-104.89808, 41.11758], [-104.89606, 41.11801], [-104.89606, 41.11716], [-104.90556, 41.11712], [-104.90869, 41.11691], [-104.91988, 41.11506]]], [[[-104.89496, 41.08916], [-104.8947, 41.08869], [-104.89207, 41.0891], [-104.8901, 41.08882], [-104.89614, 41.08661], [-104.8971, 41.08872], [-104.89907, 41.0917], [-104.89958, 41.09364], [-104.89943, 41.09511], [-104.89896, 41.0963], [-104.89802, 41.09759], [-104.89665, 41.09873], [-104.89455, 41.09973], [-104.88457, 41.10248], [-104.88082, 41.10398], [-104.87226, 41.10397], [-104.87226, 41.10287], [-104.87345, 41.10259], [-104.87447, 41.10327], [-104.87493, 41.10336], [-104.87581, 41.10308], [-104.87598, 41.10284], [-104.87553, 41.10246], [-104.87514, 41.10249], [-104.87395, 41.1013], [-104.87227, 41.10055], [-104.87228, 41.09588], [-104.87331, 41.09675], [-104.87374, 41.09741], [-104.87386, 41.09815], [-104.8737, 41.099], [-104.87552, 41.0999], [-104.87656, 41.1008], [-104.87773, 41.10147], [-104.87833, 41.10235], [-104.87835, 41.10328], [-104.87936, 41.10273], [-104.87841, 41.10148], [-104.87848, 41.1], [-104.87901, 41.09925], [-104.88034, 41.09841], [-104.88144, 41.09819], [-104.88323, 41.09821], [-104.88641, 41.09858], [-104.88882, 41.09789], [-104.88964, 41.09782], [-104.89096, 41.09811], [-104.89183, 41.09873], [-104.89383, 41.09815], [-104.89522, 41.09747], [-104.8962, 41.09666], [-104.89641, 41.09458], [-104.89733, 41.0933], [-104.89686, 41.092], [-104.89496, 41.08916]], [[-104.88435, 41.10168], [-104.886, 41.10182], [-104.88743, 41.10161], [-104.8878, 41.10104], [-104.88975, 41.10015], [-104.88986, 41.09981], [-104.88941, 41.09968], [-104.88691, 41.10042], [-104.88634, 41.10076], [-104.88547, 41.10028], [-104.88471, 41.10032], [-104.88312, 41.10005], [-104.8815, 41.10003], [-104.88082, 41.1005], [-104.88079, 41.10106], [-104.88226, 41.1025], [-104.88369, 41.10202], [-104.88396, 41.10165], [-104.88435, 41.10168]]], [[[-104.88619, 41.10572], [-104.88615, 41.113], [-104.88415, 41.11299], [-104.88416, 41.10648], [-104.88619, 41.10572]]]]}, "properties": {"kind": "pv", "area_km2": 5.21, "mw": 260.4}}, {"type": "Feature", "geometry": {"type": "Point", "coordinates": [-104.91216, 41.08856]}, "properties": {"kind": "turbine", "i": 0, "mw": 6.0, "hub_m": 120.0, "rotor_m": 150.0}}, {"type": "Feature", "geometry": {"type": "Point", "coordinates": [-104.90345, 41.10171]}, "properties": {"kind": "turbine", "i": 1, "mw": 6.0, "hub_m": 120.0, "rotor_m": 150.0}}, {"type": "Feature", "geometry": {"type": "Point", "coordinates": [-104.89476, 41.09183]}, "properties": {"kind": "turbine", "i": 2, "mw": 6.0, "hub_m": 120.0, "rotor_m": 150.0}}, {"type": "Feature", "geometry": {"type": "Point", "coordinates": [-104.92084, 41.10172]}, "properties": {"kind": "turbine", "i": 3, "mw": 6.0, "hub_m": 120.0, "rotor_m": 150.0}}, {"type": "Feature", "geometry": {"type": "Point", "coordinates": [-104.92521, 41.08528]}, "properties": {"kind": "turbine", "i": 4, "mw": 6.0, "hub_m": 120.0, "rotor_m": 150.0}}, {"type": "Feature", "geometry": {"type": "Point", "coordinates": [-104.90783, 41.07868]}, "properties": {"kind": "turbine", "i": 5, "mw": 6.0, "hub_m": 120.0, "rotor_m": 150.0}}, {"type": "Feature", "geometry": {"type": "Point", "coordinates": [-104.90778, 41.11158]}, "properties": {"kind": "turbine", "i": 6, "mw": 6.0, "hub_m": 120.0, "rotor_m": 150.0}}, {"type": "Feature", "geometry": {"type": "Point", "coordinates": [-104.89039, 41.10827]}, "properties": {"kind": "turbine", "i": 7, "mw": 6.0, "hub_m": 120.0, "rotor_m": 150.0}}, {"type": "Feature", "geometry": {"type": "Point", "coordinates": [-104.88172, 41.09511]}, "properties": {"kind": "turbine", "i": 8, "mw": 6.0, "hub_m": 120.0, "rotor_m": 150.0}}, {"type": "Feature", "geometry": {"type": "Point", "coordinates": [-104.92518, 41.11159]}, "properties": {"kind": "turbine", "i": 9, "mw": 6.0, "hub_m": 120.0, "rotor_m": 150.0}}, {"type": "Feature", "geometry": {"type": "Point", "coordinates": [-104.92087, 41.0754]}, "properties": {"kind": "turbine", "i": 10, "mw": 6.0, "hub_m": 120.0, "rotor_m": 150.0}}, {"type": "Feature", "geometry": {"type": "Point", "coordinates": [-104.93824, 41.09186]}, "properties": {"kind": "turbine", "i": 11, "mw": 6.0, "hub_m": 120.0, "rotor_m": 150.0}}, {"type": "Feature", "geometry": {"type": "Point", "coordinates": [-104.93823, 41.10173]}, "properties": {"kind": "turbine", "i": 12, "mw": 6.0, "hub_m": 120.0, "rotor_m": 150.0}}, {"type": "Feature", "geometry": {"type": "Point", "coordinates": [-104.90784, 41.06882]}, "properties": {"kind": "turbine", "i": 13, "mw": 6.0, "hub_m": 120.0, "rotor_m": 150.0}}, {"type": "Feature", "geometry": {"type": "Point", "coordinates": [-104.93825, 41.08199]}, "properties": {"kind": "turbine", "i": 14, "mw": 6.0, "hub_m": 120.0, "rotor_m": 150.0}}, {"type": "Feature", "geometry": {"type": "Point", "coordinates": [-104.91647, 41.12145]}, "properties": {"kind": "turbine", "i": 15, "mw": 6.0, "hub_m": 120.0, "rotor_m": 150.0}}, {"type": "Feature", "geometry": {"type": "Point", "coordinates": [-104.873, 41.10497]}, "properties": {"kind": "turbine", "i": 16, "mw": 6.0, "hub_m": 120.0, "rotor_m": 150.0}}, {"type": "Feature", "geometry": {"type": "Point", "coordinates": [-104.93391, 41.07212]}, "properties": {"kind": "turbine", "i": 17, "mw": 6.0, "hub_m": 120.0, "rotor_m": 150.0}}, {"type": "Feature", "geometry": {"type": "Point", "coordinates": [-104.93387, 41.12146]}, "properties": {"kind": "turbine", "i": 18, "mw": 6.0, "hub_m": 120.0, "rotor_m": 150.0}}, {"type": "Feature", "geometry": {"type": "Point", "coordinates": [-104.88167, 41.12142]}, "properties": {"kind": "turbine", "i": 19, "mw": 6.0, "hub_m": 120.0, "rotor_m": 150.0}}, {"type": "Feature", "geometry": {"type": "Point", "coordinates": [-104.92089, 41.06225]}, "properties": {"kind": "turbine", "i": 20, "mw": 6.0, "hub_m": 120.0, "rotor_m": 150.0}}, {"type": "Feature", "geometry": {"type": "Point", "coordinates": [-104.94692, 41.11489]}, "properties": {"kind": "turbine", "i": 21, "mw": 6.0, "hub_m": 120.0, "rotor_m": 150.0}}, {"type": "Feature", "geometry": {"type": "Point", "coordinates": [-104.95563, 41.09187]}, "properties": {"kind": "turbine", "i": 22, "mw": 6.0, "hub_m": 120.0, "rotor_m": 150.0}}, {"type": "Feature", "geometry": {"type": "Point", "coordinates": [-104.90351, 41.05895]}, "properties": {"kind": "turbine", "i": 23, "mw": 6.0, "hub_m": 120.0, "rotor_m": 150.0}}, {"type": "Feature", "geometry": {"type": "Point", "coordinates": [-104.85997, 41.09837]}, "properties": {"kind": "turbine", "i": 24, "mw": 6.0, "hub_m": 120.0, "rotor_m": 150.0}}, {"type": "Feature", "geometry": {"type": "Point", "coordinates": [-104.95563, 41.10174]}, "properties": {"kind": "turbine", "i": 25, "mw": 6.0, "hub_m": 120.0, "rotor_m": 150.0}}, {"type": "Feature", "geometry": {"type": "Point", "coordinates": [-104.95564, 41.082]}, "properties": {"kind": "turbine", "i": 26, "mw": 6.0, "hub_m": 120.0, "rotor_m": 150.0}}, {"type": "Feature", "geometry": {"type": "Point", "coordinates": [-104.85995, 41.10824]}, "properties": {"kind": "turbine", "i": 27, "mw": 6.0, "hub_m": 120.0, "rotor_m": 150.0}}, {"type": "Feature", "geometry": {"type": "Point", "coordinates": [-104.9208, 41.13461]}, "properties": {"kind": "turbine", "i": 28, "mw": 6.0, "hub_m": 120.0, "rotor_m": 150.0}}, {"type": "Feature", "geometry": {"type": "Point", "coordinates": [-104.93393, 41.05897]}, "properties": {"kind": "turbine", "i": 29, "mw": 6.0, "hub_m": 120.0, "rotor_m": 150.0}}, {"type": "Feature", "geometry": {"type": "Point", "coordinates": [-104.93386, 41.13133]}, "properties": {"kind": "turbine", "i": 30, "mw": 6.0, "hub_m": 120.0, "rotor_m": 150.0}}, {"type": "Feature", "geometry": {"type": "Point", "coordinates": [-104.94691, 41.12476]}, "properties": {"kind": "turbine", "i": 31, "mw": 6.0, "hub_m": 120.0, "rotor_m": 150.0}}, {"type": "Feature", "geometry": {"type": "Point", "coordinates": [-104.95565, 41.07213]}, "properties": {"kind": "turbine", "i": 32, "mw": 6.0, "hub_m": 120.0, "rotor_m": 150.0}}, {"type": "Feature", "geometry": {"type": "Point", "coordinates": [-104.90774, 41.13789]}, "properties": {"kind": "turbine", "i": 33, "mw": 6.0, "hub_m": 120.0, "rotor_m": 150.0}}, {"type": "Feature", "geometry": {"type": "Point", "coordinates": [-104.91655, 41.05238]}, "properties": {"kind": "turbine", "i": 34, "mw": 6.0, "hub_m": 120.0, "rotor_m": 150.0}}, {"type": "Feature", "geometry": {"type": "Point", "coordinates": [-104.86874, 41.0622]}, "properties": {"kind": "turbine", "i": 35, "mw": 6.0, "hub_m": 120.0, "rotor_m": 150.0}}, {"type": "Feature", "geometry": {"type": "Point", "coordinates": [-104.95131, 41.06226]}, "properties": {"kind": "turbine", "i": 36, "mw": 6.0, "hub_m": 120.0, "rotor_m": 150.0}}]}