{"type": "FeatureCollection", "features": [{"type": "Feature", "geometry": {"type": "MultiPolygon", "coordinates": [[[[-90.96559, 30.07457], [-90.96488, 30.07681], [-90.96408, 30.0782], [-90.96303, 30.07741], [-90.96332, 30.07679], [-90.96294, 30.07588], [-90.96212, 30.07593], [-90.96181, 30.07632], [-90.96154, 30.07685], [-90.96174, 30.07716], [-90.96088, 30.078], [-90.96219, 30.07901], [-90.96307, 30.07815], [-90.96371, 30.07863], [-90.96278, 30.07945], [-90.96218, 30.07906], [-90.95951, 30.07695], [-90.95932, 30.07055], [-90.95913, 30.07012], [-90.95846, 30.07005], [-90.95821, 30.07032], [-90.95835, 30.07054], [-90.9587, 30.07058], [-90.95888, 30.0768], [-90.94824, 30.0688], [-90.95121, 30.06885], [-90.95686, 30.07308], [-90.95681, 30.07156], [-90.9564, 30.07089], [-90.9563, 30.07033], [-90.95639, 30.06977], [-90.95679, 30.0691], [-90.95696, 30.06894], [-90.96055, 30.069], [-90.96119, 30.07008], [-90.96131, 30.07319], [-90.96303, 30.07308], [-90.96417, 30.07333], [-90.96615, 30.06999], [-90.96387, 30.06905], [-90.96876, 30.06922], [-90.96559, 30.07457]]], [[[-90.96787, 30.07553], [-90.96704, 30.07808], [-90.96585, 30.07983], [-90.96701, 30.08071], [-90.96791, 30.08058], [-90.96908, 30.08069], [-90.97017, 30.0811], [-90.97111, 30.08177], [-90.97191, 30.08296], [-90.97212, 30.08434], [-90.97233, 30.08465], [-90.97842, 30.08907], [-90.97838, 30.09111], [-90.9745, 30.08848], [-90.97061, 30.08555], [-90.97051, 30.08526], [-90.97018, 30.08523], [-90.96871, 30.08416], [-90.96851, 30.08371], [-90.9679, 30.08357], [-90.96307, 30.07995], [-90.9642, 30.07897], [-90.96523, 30.07753], [-90.96607, 30.07496], [-90.96951, 30.06914], [-90.97165, 30.06917], [-90.96787, 30.07553]]], [[[-90.9602, 30.08188], [-90.96104, 30.08159], [-90.96239, 30.08065], [-90.96738, 30.08432], [-90.95632, 30.082], [-90.9602, 30.08188]]], [[[-90.96749, 30.08515], [-90.96776, 30.08527], [-90.9655, 30.10096], [-90.96501, 30.10089], [-90.96509, 30.10014], [-90.96482, 30.09992], [-90.9645, 30.10009], [-90.96439, 30.10083], [-90.96327, 30.10074], [-90.96327, 30.10002], [-90.96299, 30.09981], [-90.96268, 30.09999], [-90.96263, 30.10068], [-90.96113, 30.10055], [-90.96034, 30.10078], [-90.9603, 30.09839], [-90.96048, 30.09799], [-90.9603, 30.09665], [-90.96102, 30.09642], [-90.96122, 30.09606], [-90.96061, 30.09417], [-90.96123, 30.09289], [-90.96259, 30.09284], [-90.96256, 30.09164], [-90.96349, 30.09276], [-90.96444, 30.09494], [-90.96559, 30.08692], [-90.96479, 30.08622], [-90.95956, 30.08513], [-90.96061, 30.0883], [-90.95956, 30.0883], [-90.95952, 30.08695], [-90.95886, 30.08711], [-90.95854, 30.08613], [-90.95794, 30.08628], [-90.95747, 30.08452], [-90.95743, 30.08298], [-90.96749, 30.08515]], [[-90.96388, 30.0983], [-90.96396, 30.09835], [-90.96409, 30.09741], [-90.96388, 30.09775], [-90.96388, 30.0983]]], [[[-90.96946, 30.08634], [-90.96975, 30.08636], [-90.97573, 30.09075], [-90.97836, 30.0924], [-90.97806, 30.09286], [-90.97834, 30.09302], [-90.97819, 30.10068], [-90.97627, 30.10039], [-90.97534, 30.10261], [-90.9723, 30.10205], [-90.97319, 30.09841], [-90.97294, 30.09812], [-90.97258, 30.0983], [-90.97169, 30.10193], [-90.96663, 30.10119], [-90.96686, 30.09955], [-90.9667, 30.09929], [-90.96639, 30.09922], [-90.96834, 30.08558], [-90.96946, 30.08634]], [[-90.97554, 30.09563], [-90.97552, 30.09531], [-90.97377, 30.09529], [-90.97253, 30.09491], [-90.97089, 30.09364], [-90.97022, 30.09255], [-90.96991, 30.09146], [-90.97005, 30.0901], [-90.97056, 30.08915], [-90.96983, 30.08861], [-90.96842, 30.09851], [-90.96871, 30.09912], [-90.96877, 30.0998], [-90.97021, 30.09998], [-90.97093, 30.09745], [-90.97167, 30.09676], [-90.97269, 30.09646], [-90.97376, 30.09661], [-90.97462, 30.09718], [-90.97507, 30.09803], [-90.97496, 30.09918], [-90.97611, 30.09869], [-90.97783, 30.0989], [-90.97796, 30.09845], [-90.97703, 30.09797], [-90.97623, 30.09722], [-90.97554, 30.09563]], [[-90.9751, 30.09236], [-90.97589, 30.09173], [-90.97595, 30.09121], [-90.97487, 30.09033], [-90.97409, 30.09021], [-90.97338, 30.09083], [-90.97336, 30.09139], [-90.97407, 30.09227], [-90.9751, 30.09236]]], [[[-90.96004, 30.10142], [-90.96115, 30.1011], [-90.96511, 30.10144], [-90.97586, 30.10326], [-90.97681, 30.10382], [-90.97812, 30.10401], [-90.97809, 30.1053], [-90.97258, 30.1037], [-90.96892, 30.10284], [-90.96585, 30.10235], [-90.96341, 30.10217], [-90.95844, 30.10244], [-90.95236, 30.10424], [-90.95079, 30.10493], [-90.94814, 30.10489], [-90.94987, 30.10366], [-90.95392, 30.10197], [-90.95678, 30.10137], [-90.96004, 30.10142]]], [[[-90.97651, 30.10292], [-90.97596, 30.10273], [-90.97667, 30.10092], [-90.97818, 30.10124], [-90.97813, 30.10346], [-90.97704, 30.10331], [-90.97651, 30.10292]]], [[[-90.95302, 30.07308], [-90.95436, 30.07411], [-90.95324, 30.07451], [-90.9494, 30.07718], [-90.94897, 30.07781], [-90.94899, 30.07871], [-90.95035, 30.08271], [-90.94878, 30.08313], [-90.94706, 30.08405], [-90.93825, 30.09229], [-90.93684, 30.09315], [-90.93688, 30.09112], [-90.9453, 30.08321], [-90.9466, 30.08227], [-90.94798, 30.08162], [-90.94701, 30.07852], [-90.9472, 30.07718], [-90.94799, 30.07605], [-90.95111, 30.07386], [-90.94515, 30.06944], [-90.9434, 30.07153], [-90.9372, 30.07572], [-90.93725, 30.07358], [-90.94212, 30.07029], [-90.94339, 30.06873], [-90.94726, 30.06879], [-90.95302, 30.07308]]], [[[-90.9516, 30.07634], [-90.95378, 30.07483], [-90.95454, 30.07465], [-90.95608, 30.07542], [-90.95759, 30.07655], [-90.95686, 30.07666], [-90.95606, 30.07709], [-90.95527, 30.07823], [-90.95457, 30.07881], [-90.95142, 30.07972], [-90.95079, 30.0802], [-90.95036, 30.08083], [-90.9496, 30.07859], [-90.94957, 30.07797], [-90.94984, 30.07756], [-90.9516, 30.07634]], [[-90.95342, 30.07745], [-90.9537, 30.07727], [-90.95392, 30.07686], [-90.95286, 30.07759], [-90.95342, 30.07745]]], [[[-90.95666, 30.07736], [-90.95745, 30.0771], [-90.95825, 30.07723], [-90.96088, 30.07902], [-90.9596, 30.07872], [-90.95932, 30.07843], [-90.95748, 30.07887], [-90.95623, 30.07968], [-90.95483, 30.08117], [-90.95391, 30.08159], [-90.95125, 30.08224], [-90.95101, 30.08242], [-90.951, 30.08132], [-90.95168, 30.08038], [-90.95225, 30.08006], [-90.95491, 30.07926], [-90.95576, 30.07856], [-90.95666, 30.07736]]], [[[-90.96048, 30.07945], [-90.96191, 30.0803], [-90.96072, 30.08113], [-90.95946, 30.08146], [-90.95696, 30.08139], [-90.95552, 30.0816], [-90.95701, 30.08004], [-90.95787, 30.07953], [-90.95911, 30.07925], [-90.96048, 30.07945]]], [[[-90.95683, 30.08411], [-90.95665, 30.08282], [-90.9568, 30.08285], [-90.95683, 30.08411]]], [[[-90.95409, 30.08273], [-90.95602, 30.08269], [-90.95662, 30.08717], [-90.95531, 30.0875], [-90.95438, 30.08648], [-90.95298, 30.08683], [-90.95182, 30.0833], [-90.95409, 30.08273]], [[-90.95443, 30.08518], [-90.95432, 30.0844], [-90.95418, 30.08444], [-90.95443, 30.08518]]], [[[-90.95701, 30.08536], [-90.95712, 30.08574], [-90.95706, 30.08576], [-90.95706, 30.08566], [-90.95701, 30.08536]]], [[[-90.94265, 30.06872], [-90.94154, 30.07002], [-90.93726, 30.07289], [-90.93731, 30.07076], [-90.94036, 30.06868], [-90.94265, 30.06872]]], [[[-90.94069, 30.09417], [-90.93838, 30.09313], [-90.94135, 30.09043], [-90.94495, 30.09515], [-90.94292, 30.09603], [-90.94183, 30.09497], [-90.94069, 30.09417]]], [[[-90.93739, 30.09371], [-90.93788, 30.09346], [-90.94038, 30.09464], [-90.9424, 30.09635], [-90.93979, 30.09837], [-90.93911, 30.09788], [-90.93675, 30.09762], [-90.93683, 30.09395], [-90.93739, 30.09371]], [[-90.93716, 30.09562], [-90.9371, 30.09599], [-90.93965, 30.09624], [-90.9378, 30.0954], [-90.93716, 30.09562]]], [[[-90.94712, 30.09792], [-90.94959, 30.10107], [-90.95087, 30.10271], [-90.95022, 30.10292], [-90.94336, 30.09645], [-90.94531, 30.0956], [-90.94712, 30.09792]]], [[[-90.94283, 30.09928], [-90.94409, 30.09829], [-90.94422, 30.09841], [-90.94298, 30.0994], [-90.94283, 30.09928]]], [[[-90.94589, 30.1], [-90.94482, 30.10085], [-90.94466, 30.10073], [-90.94575, 30.09986], [-90.94589, 30.1]]], [[[-90.93958, 30.09894], [-90.93997, 30.09896], [-90.94282, 30.09675], [-90.9436, 30.09746], [-90.94367, 30.09789], [-90.94214, 30.09911], [-90.94214, 30.09947], [-90.94306, 30.10003], [-90.94464, 30.09881], [-90.94478, 30.09894], [-90.94345, 30.10001], [-90.94348, 30.10036], [-90.94387, 30.1004], [-90.9452, 30.09934], [-90.94533, 30.09946], [-90.94396, 30.10056], [-90.94399, 30.10092], [-90.94486, 30.10149], [-90.94631, 30.10039], [-90.94677, 30.10045], [-90.94962, 30.10316], [-90.94757, 30.10461], [-90.94686, 30.10405], [-90.94654, 30.10405], [-90.94641, 30.10439], [-90.94698, 30.10487], [-90.94617, 30.10486], [-90.94058, 30.1006], [-90.94033, 30.10078], [-90.9404, 30.10105], [-90.94495, 30.10463], [-90.94464, 30.1046], [-90.94445, 30.10483], [-90.93836, 30.10474], [-90.93878, 30.10428], [-90.93952, 30.10388], [-90.94108, 30.10383], [-90.93875, 30.10189], [-90.93844, 30.10119], [-90.9385, 30.10032], [-90.93806, 30.09999], [-90.9367, 30.09984], [-90.93674, 30.09817], [-90.93891, 30.0984], [-90.93958, 30.09894]]], [[[-90.94522, 30.10484], [-90.94507, 30.10472], [-90.94523, 30.10484], [-90.94522, 30.10484]]]]}, "properties": {"kind": "pv", "area_km2": 6.53, "mw": 326.4}}]}