{"type": "FeatureCollection", "features": [{"type": "Feature", "geometry": {"type": "MultiPolygon", "coordinates": [[[[-90.95145, 30.04261], [-90.9511, 30.04349], [-90.95127, 30.04442], [-90.95192, 30.04517], [-90.9529, 30.04557], [-90.95619, 30.04502], [-90.95708, 30.04376], [-90.95657, 30.0422], [-90.95892, 30.04213], [-90.96896, 30.04315], [-90.97385, 30.0443], [-90.98009, 30.0465], [-90.9682, 30.06655], [-90.96266, 30.06419], [-90.94967, 30.05753], [-90.94743, 30.05588], [-90.94181, 30.05003], [-90.94241, 30.04943], [-90.94364, 30.04965], [-90.94487, 30.0493], [-90.94579, 30.04805], [-90.94825, 30.04634], [-90.94847, 30.04454], [-90.94715, 30.04318], [-90.95145, 30.04261]]], [[[-90.94289, 30.04419], [-90.94229, 30.0454], [-90.94051, 30.04564], [-90.93891, 30.04704], [-90.93772, 30.04579], [-90.94289, 30.04419]]], [[[-90.97783, 30.0989], [-90.97611, 30.09869], [-90.97496, 30.09918], [-90.97507, 30.09803], [-90.97462, 30.09718], [-90.97376, 30.09661], [-90.97269, 30.09646], [-90.97167, 30.09676], [-90.97093, 30.09745], [-90.97021, 30.09998], [-90.96877, 30.0998], [-90.96842, 30.09851], [-90.96983, 30.08861], [-90.97056, 30.08915], [-90.96991, 30.09146], [-90.97089, 30.09364], [-90.97289, 30.09506], [-90.97552, 30.09531], [-90.97602, 30.09693], [-90.97796, 30.09845], [-90.97783, 30.0989]]], [[[-90.97636, 30.08766], [-90.97233, 30.08465], [-90.97176, 30.08264], [-90.97083, 30.08153], [-90.96908, 30.08069], [-90.96701, 30.08071], [-90.96585, 30.07983], [-90.96704, 30.07808], [-90.96787, 30.07553], [-90.98403, 30.0483], [-90.98651, 30.04965], [-90.98641, 30.05169], [-90.98713, 30.05283], [-90.98896, 30.05329], [-90.99061, 30.05227], [-90.99143, 30.05282], [-90.99642, 30.05713], [-91.0014, 30.06273], [-91.00392, 30.06655], [-91.00763, 30.07473], [-91.00878, 30.07902], [-91.00949, 30.08485], [-91.00586, 30.08438], [-91.00444, 30.08334], [-91.00307, 30.0834], [-91.00111, 30.07819], [-91.00038, 30.0775], [-90.99936, 30.07719], [-90.99791, 30.07752], [-90.99697, 30.07875], [-90.99853, 30.08377], [-90.99753, 30.08375], [-90.99382, 30.07564], [-90.99306, 30.07498], [-90.99181, 30.0747], [-90.99027, 30.07534], [-90.9897, 30.07673], [-90.99273, 30.08403], [-90.9914, 30.08499], [-90.98656, 30.09338], [-90.98157, 30.09098], [-90.97636, 30.08766]]], [[[-90.98224, 30.12624], [-90.98188, 30.12676], [-90.9815, 30.12695], [-90.98193, 30.12631], [-90.98224, 30.12624]]], [[[-90.99066, 30.12171], [-90.99112, 30.121], [-90.99154, 30.12104], [-90.99066, 30.12171], [-90.99066, 30.12171]]], [[[-90.97689, 30.12852], [-90.97837, 30.12777], [-90.97896, 30.12795], [-90.97576, 30.12909], [-90.97689, 30.12852]]], [[[-90.97721, 30.12388], [-90.96748, 30.12878], [-90.96571, 30.12698], [-90.96465, 30.12678], [-90.96361, 30.12703], [-90.96283, 30.12767], [-90.96248, 30.12876], [-90.96361, 30.13072], [-90.96159, 30.13174], [-90.957, 30.13186], [-90.956, 30.1311], [-90.95468, 30.13098], [-90.95633, 30.1239], [-90.95766, 30.12326], [-90.96116, 30.12355], [-90.96241, 30.12298], [-90.96309, 30.12209], [-90.9627, 30.11899], [-90.96319, 30.11806], [-90.96309, 30.11713], [-90.96221, 30.11578], [-90.96034, 30.11504], [-90.96903, 30.11686], [-90.96778, 30.11867], [-90.96784, 30.12071], [-90.96829, 30.12177], [-90.96955, 30.12247], [-90.97084, 30.1224], [-90.97236, 30.12151], [-90.97315, 30.12047], [-90.9733, 30.11959], [-90.97465, 30.11915], [-90.97541, 30.11819], [-90.97746, 30.11854], [-90.97641, 30.12093], [-90.97721, 30.12388]]], [[[-90.96198, 30.07308], [-90.96131, 30.07319], [-90.96119, 30.07008], [-90.96016, 30.06871], [-90.95807, 30.06842], [-90.95666, 30.06926], [-90.9563, 30.07033], [-90.95681, 30.07156], [-90.95686, 30.07308], [-90.93486, 30.05657], [-90.9388, 30.05293], [-90.9441, 30.05845], [-90.94706, 30.06066], [-90.96046, 30.06755], [-90.96615, 30.06999], [-90.96417, 30.07333], [-90.96198, 30.07308]]], [[[-90.9596, 30.08526], [-90.96479, 30.08622], [-90.96559, 30.08692], [-90.96444, 30.09494], [-90.96349, 30.09276], [-90.96256, 30.09164], [-90.96248, 30.0883], [-90.96061, 30.0883], [-90.9596, 30.08526]]], [[[-90.96389, 30.09796], [-90.96388, 30.09775], [-90.96409, 30.09741], [-90.96396, 30.09835], [-90.96389, 30.09796]]], [[[-90.92993, 30.09943], [-90.93026, 30.09918], [-90.93076, 30.09944], [-90.92775, 30.10197], [-90.92626, 30.10175], [-90.92598, 30.10087], [-90.92798, 30.10093], [-90.92993, 30.09943]]], [[[-90.92501, 30.10004], [-90.92477, 30.09999], [-90.92479, 30.09956], [-90.92491, 30.09987], [-90.92501, 30.10004]]], [[[-90.92522, 30.09782], [-90.9248, 30.09852], [-90.92472, 30.09922], [-90.92361, 30.09799], [-90.92522, 30.09782]]], [[[-90.93128, 30.08875], [-90.92999, 30.08964], [-90.92841, 30.08882], [-90.9268, 30.08922], [-90.92538, 30.08684], [-90.92442, 30.08615], [-90.92409, 30.08522], [-90.92588, 30.08475], [-90.92695, 30.08267], [-90.94323, 30.07166], [-90.94515, 30.06944], [-90.95111, 30.07386], [-90.94799, 30.07605], [-90.9472, 30.07718], [-90.94701, 30.07852], [-90.94798, 30.08162], [-90.9453, 30.08321], [-90.93679, 30.09119], [-90.93562, 30.09177], [-90.93575, 30.08969], [-90.9347, 30.08853], [-90.93285, 30.08808], [-90.93128, 30.08875]]], [[[-90.91979, 30.07122], [-90.93184, 30.0594], [-90.94177, 30.0669], [-90.94031, 30.06874], [-90.92513, 30.07894], [-90.92361, 30.07833], [-90.92198, 30.07887], [-90.92159, 30.07785], [-90.92276, 30.07705], [-90.92107, 30.07522], [-90.92, 30.07595], [-90.91886, 30.0752], [-90.9175, 30.07343], [-90.91979, 30.07122]]], [[[-90.91909, 30.0658], [-90.91175, 30.07313], [-90.91063, 30.07085], [-90.92473, 30.0541], [-90.92844, 30.0569], [-90.91909, 30.0658]]], [[[-90.92754, 30.05085], [-90.93331, 30.04765], [-90.93586, 30.05], [-90.93147, 30.05406], [-90.92754, 30.05085]]], [[[-90.95443, 30.08518], [-90.95418, 30.08444], [-90.95432, 30.0844], [-90.95443, 30.08518]]], [[[-90.9249, 30.11899], [-90.92408, 30.11797], [-90.92272, 30.11156], [-90.93669, 30.09984], [-90.93806, 30.09999], [-90.9385, 30.10032], [-90.93875, 30.10189], [-90.94108, 30.10383], [-90.93912, 30.10405], [-90.93809, 30.10543], [-90.93864, 30.10699], [-90.93795, 30.10862], [-90.93895, 30.11015], [-90.93791, 30.11258], [-90.93776, 30.114], [-90.9387, 30.11674], [-90.93935, 30.12516], [-90.93747, 30.12817], [-90.93286, 30.12619], [-90.92596, 30.12212], [-90.92485, 30.12019], [-90.9249, 30.11899]]], [[[-90.93737, 30.09601], [-90.93708, 30.09565], [-90.9378, 30.0954], [-90.93965, 30.09624], [-90.93737, 30.09601]]], [[[-90.95665, 30.11759], [-90.95664, 30.11753], [-90.95658, 30.11721], [-90.95671, 30.11745], [-90.95665, 30.11759]]], [[[-90.9567, 30.11933], [-90.9567, 30.11918], [-90.95677, 30.11929], [-90.9567, 30.11933]]], [[[-90.91878, 30.09457], [-90.91866, 30.09418], [-90.923, 30.09125], [-90.92385, 30.09232], [-90.92159, 30.09397], [-90.91878, 30.09457]]], [[[-90.92079, 30.09848], [-90.92058, 30.09864], [-90.92007, 30.09899], [-90.91996, 30.09862], [-90.92079, 30.09848]]], [[[-90.95342, 30.07745], [-90.95286, 30.07759], [-90.95392, 30.07686], [-90.9537, 30.07727], [-90.95342, 30.07745]]]]}, "properties": {"kind": "windland", "area_km2": 30.08}}, {"type": "Feature", "geometry": {"type": "MultiPolygon", "coordinates": [[[[-90.99773, 30.07763], [-90.99849, 30.07727], [-90.99936, 30.07719], [-91.00019, 30.0774], [-91.00086, 30.07788], [-91.00128, 30.07854], [-91.00307, 30.0834], [-91.00444, 30.08334], [-91.00521, 30.08368], [-91.00586, 30.08438], [-91.00882, 30.08465], [-91.00963, 30.08493], [-91.00955, 30.08871], [-91.00856, 30.08631], [-91.00445, 30.08591], [-91.00412, 30.08508], [-91.00387, 30.08494], [-91.00354, 30.08519], [-91.00377, 30.08586], [-91.00192, 30.08567], [-90.99945, 30.07904], [-90.99921, 30.07885], [-90.99893, 30.07893], [-90.99886, 30.0792], [-91.00125, 30.08562], [-90.9978, 30.08539], [-90.99704, 30.08558], [-90.99644, 30.08602], [-90.99535, 30.08337], [-90.99471, 30.08262], [-90.9922, 30.07652], [-90.99181, 30.07638], [-90.99162, 30.07673], [-90.99414, 30.08283], [-90.99482, 30.08371], [-90.99605, 30.08661], [-90.99462, 30.08896], [-90.9943, 30.08913], [-90.99575, 30.08672], [-90.99554, 30.08635], [-90.99505, 30.08643], [-90.995, 30.08683], [-90.99273, 30.09051], [-90.99225, 30.09028], [-90.99438, 30.08664], [-90.99419, 30.08637], [-90.99381, 30.08647], [-90.99163, 30.08998], [-90.99383, 30.08602], [-90.99367, 30.08571], [-90.99316, 30.08569], [-90.98831, 30.09411], [-90.98755, 30.09481], [-90.98655, 30.09509], [-90.98547, 30.09489], [-90.98243, 30.09338], [-90.97762, 30.09063], [-90.97061, 30.08555], [-90.97051, 30.08526], [-90.97018, 30.08523], [-90.96871, 30.08416], [-90.96851, 30.08371], [-90.9679, 30.08357], [-90.96307, 30.07995], [-90.9642, 30.07897], [-90.96523, 30.07753], [-90.96615, 30.0748], [-90.98013, 30.05126], [-90.98226, 30.05129], [-90.96787, 30.07553], [-90.96704, 30.07808], [-90.96585, 30.07983], [-90.96701, 30.08071], [-90.9687, 30.08062], [-90.97052, 30.0813], [-90.97176, 30.08264], [-90.97233, 30.08465], [-90.97947, 30.08974], [-90.9834, 30.09195], [-90.98646, 30.09342], [-90.9914, 30.08499], [-90.99195, 30.0844], [-90.99273, 30.08403], [-90.98976, 30.07711], [-90.98972, 30.07635], [-90.99001, 30.07564], [-90.99077, 30.07498], [-90.99159, 30.07472], [-90.99267, 30.07481], [-90.99356, 30.07534], [-90.99401, 30.07598], [-90.99644, 30.08189], [-90.99708, 30.08267], [-90.99753, 30.08375], [-90.99853, 30.08377], [-90.99694, 30.07932], [-90.99709, 30.07839], [-90.99773, 30.07763]]], [[[-91.00195, 30.08622], [-91.00363, 30.09058], [-91.00219, 30.091], [-91.00204, 30.09129], [-91.00223, 30.09149], [-91.00253, 30.09147], [-91.00402, 30.09544], [-91.00343, 30.09543], [-91.0028, 30.09379], [-91.0025, 30.09363], [-91.0022, 30.09391], [-91.00278, 30.09546], [-91.00251, 30.09548], [-90.99901, 30.08601], [-91.00195, 30.08622]]], [[[-91.00514, 30.08658], [-91.0052, 30.08674], [-91.00491, 30.08683], [-91.00479, 30.08649], [-91.00514, 30.08658]]], [[[-91.00431, 30.08699], [-91.00411, 30.08705], [-91.00387, 30.08641], [-91.00412, 30.08643], [-91.00431, 30.08699]]], [[[-91.0032, 30.08635], [-91.00352, 30.08722], [-91.00305, 30.08736], [-91.00264, 30.08629], [-91.0032, 30.08635]]], [[[-91.00628, 30.08665], [-91.00821, 30.08681], [-91.00952, 30.09041], [-91.00941, 30.09572], [-91.00923, 30.09572], [-91.00874, 30.09436], [-91.00908, 30.09421], [-91.00913, 30.09396], [-91.00892, 30.09379], [-91.00855, 30.09384], [-91.00694, 30.08959], [-91.00669, 30.08941], [-91.00642, 30.08949], [-91.00634, 30.08973], [-91.00856, 30.09568], [-91.00811, 30.09566], [-91.00771, 30.09536], [-91.00685, 30.0956], [-91.00668, 30.09513], [-91.0075, 30.0949], [-91.00762, 30.0946], [-91.00732, 30.09441], [-91.00649, 30.09462], [-91.00634, 30.09421], [-91.00731, 30.09393], [-91.00743, 30.09363], [-91.00709, 30.09344], [-91.00614, 30.0937], [-91.00601, 30.09336], [-91.00696, 30.09308], [-91.00712, 30.09287], [-91.00584, 30.0893], [-91.00696, 30.08898], [-91.00715, 30.08878], [-91.00698, 30.08849], [-91.00655, 30.08853], [-91.0058, 30.08659], [-91.00628, 30.08665]]], [[[-91.00564, 30.08879], [-91.00499, 30.08897], [-91.00443, 30.08753], [-91.00541, 30.08725], [-91.00596, 30.0887], [-91.00564, 30.08879]]], [[[-91.0037, 30.08855], [-91.00342, 30.08782], [-91.00384, 30.0877], [-91.0044, 30.08914], [-91.00397, 30.08926], [-91.0037, 30.08855]]], [[[-90.9989, 30.09218], [-90.99828, 30.09231], [-90.99813, 30.09192], [-90.99878, 30.09173], [-90.99889, 30.09145], [-90.9986, 30.09125], [-90.99794, 30.09141], [-90.9978, 30.09102], [-90.99845, 30.09082], [-90.99852, 30.09049], [-90.99824, 30.09035], [-90.99762, 30.09051], [-90.99748, 30.09013], [-90.9981, 30.08994], [-90.99817, 30.0896], [-90.9979, 30.08946], [-90.99729, 30.08961], [-90.99716, 30.08925], [-90.99776, 30.08907], [-90.99784, 30.08876], [-90.99755, 30.08859], [-90.99698, 30.08874], [-90.99684, 30.08836], [-90.99741, 30.08818], [-90.99749, 30.08787], [-90.9972, 30.0877], [-90.99665, 30.08784], [-90.9965, 30.08745], [-90.99715, 30.08717], [-90.99701, 30.08685], [-90.99659, 30.08687], [-90.99684, 30.08645], [-90.99771, 30.08595], [-90.99834, 30.08596], [-91.00189, 30.09555], [-90.99953, 30.09588], [-90.99941, 30.09552], [-91.00016, 30.09536], [-91.00031, 30.09509], [-91.00003, 30.09486], [-90.99922, 30.095], [-90.99908, 30.09462], [-90.9998, 30.09449], [-90.99997, 30.09423], [-90.99969, 30.09398], [-90.99889, 30.0941], [-90.99877, 30.09374], [-90.99946, 30.09362], [-90.99963, 30.09338], [-90.99938, 30.09312], [-90.99859, 30.09322], [-90.99846, 30.09283], [-90.99916, 30.09251], [-90.9989, 30.09218]]], [[[-91.00525, 30.08947], [-91.00586, 30.09108], [-91.00559, 30.09116], [-91.00498, 30.08955], [-91.00525, 30.08947]]], [[[-91.00632, 30.0924], [-91.00642, 30.09267], [-91.00582, 30.09285], [-91.00572, 30.09257], [-91.00632, 30.0924]]], [[[-91.00487, 30.09196], [-91.00488, 30.09209], [-91.00618, 30.09556], [-91.0056, 30.09553], [-91.00396, 30.09106], [-91.00433, 30.09077], [-91.00399, 30.08982], [-91.00423, 30.09024], [-91.00459, 30.09025], [-91.00518, 30.09169], [-91.00607, 30.09159], [-91.00612, 30.09189], [-91.00552, 30.09206], [-91.00517, 30.09174], [-91.00487, 30.09196]]], [[[-91.00466, 30.09539], [-91.00312, 30.0913], [-91.00337, 30.09123], [-91.00494, 30.0955], [-91.00466, 30.09539]]], [[[-91.0066, 30.09613], [-91.0094, 30.09627], [-91.0094, 30.09632], [-91.00628, 30.09611], [-91.0066, 30.09613]]], [[[-91.00233, 30.09604], [-91.00357, 30.09596], [-91.00566, 30.09618], [-91.00312, 30.09612], [-90.99681, 30.09669], [-91.00233, 30.09604]]], [[[-91.00467, 30.09695], [-91.00262, 30.09699], [-91.00083, 30.09711], [-91.00274, 30.09692], [-91.00479, 30.09695], [-91.00467, 30.09695]]], [[[-91.00333, 30.09788], [-91.00325, 30.09802], [-91.00258, 30.09791], [-91.0028, 30.09753], [-91.0037, 30.0975], [-91.00333, 30.09788]]], [[[-90.99899, 30.09808], [-90.99874, 30.0981], [-90.99885, 30.09778], [-91.00003, 30.0977], [-90.99986, 30.09803], [-90.99899, 30.09808]]], [[[-91.00365, 30.09846], [-91.00355, 30.09909], [-91.00282, 30.09896], [-91.00302, 30.09857], [-91.00365, 30.09846]]], [[[-91.00205, 30.09914], [-91.002, 30.09889], [-91.0023, 30.09839], [-91.00241, 30.09843], [-91.00205, 30.09914]]], [[[-90.99898, 30.09863], [-90.99957, 30.09859], [-90.99934, 30.09904], [-90.99852, 30.09869], [-90.99898, 30.09863]]], [[[-91.00372, 30.09917], [-91.00379, 30.09918], [-91.00377, 30.09921], [-91.00371, 30.09917], [-91.00372, 30.09917]]], [[[-90.99825, 30.10115], [-90.99509, 30.09962], [-90.99588, 30.09849], [-90.99675, 30.09811], [-90.99818, 30.09785], [-90.99772, 30.09936], [-90.99809, 30.0995], [-90.99833, 30.09922], [-90.99909, 30.09953], [-90.99825, 30.10115]]], [[[-90.99951, 30.10042], [-90.99976, 30.10108], [-91.00096, 30.1013], [-91.00157, 30.10098], [-91.00173, 30.10036], [-91.00196, 30.10004], [-91.00201, 30.10067], [-91.00285, 30.10102], [-91.00229, 30.10217], [-91.00242, 30.10242], [-91.00274, 30.10243], [-91.0035, 30.10109], [-91.00397, 30.10061], [-91.00398, 30.10014], [-91.00525, 30.0975], [-91.00572, 30.09751], [-91.00366, 30.1016], [-91.00336, 30.10186], [-91.0034, 30.10215], [-91.00304, 30.10295], [-90.99879, 30.10142], [-90.99944, 30.10016], [-90.99951, 30.10042]]], [[[-91.00677, 30.09753], [-91.00645, 30.09847], [-91.00676, 30.09873], [-91.00704, 30.09859], [-91.00745, 30.09753], [-91.00765, 30.09753], [-91.00721, 30.09846], [-91.00751, 30.09871], [-91.00779, 30.09858], [-91.00833, 30.09754], [-91.00873, 30.09756], [-91.007, 30.10083], [-91.00703, 30.10106], [-91.00729, 30.10119], [-91.00758, 30.10103], [-91.00938, 30.09764], [-91.00934, 30.09962], [-91.008, 30.10226], [-91.00819, 30.10252], [-91.00855, 30.10245], [-91.00931, 30.10101], [-91.00924, 30.10466], [-91.00363, 30.10312], [-91.0064, 30.09752], [-91.00677, 30.09753]]], [[[-90.9979, 30.10246], [-90.99762, 30.10234], [-90.99777, 30.10208], [-90.99805, 30.10221], [-90.9979, 30.10246]]], [[[-90.99875, 30.10222], [-90.99876, 30.10201], [-90.99911, 30.10215], [-90.99877, 30.10276], [-90.99849, 30.10267], [-90.99875, 30.10222]]], [[[-90.99937, 30.10291], [-90.99968, 30.10238], [-90.99991, 30.10247], [-90.99965, 30.10297], [-90.99937, 30.10291]]], [[[-91.00297, 30.1035], [-91.0017, 30.1033], [-91.00028, 30.10307], [-91.00049, 30.10268], [-91.00297, 30.1035]]], [[[-90.99823, 30.10316], [-90.99849, 30.10325], [-90.99833, 30.10355], [-90.99805, 30.10342], [-90.99823, 30.10316]]], [[[-90.99915, 30.10342], [-90.99939, 30.10347], [-90.99915, 30.10393], [-90.99888, 30.10381], [-90.99915, 30.10342]]], [[[-91.0011, 30.10389], [-91.001, 30.10385], [-91.00107, 30.10375], [-91.00118, 30.10377], [-91.0011, 30.10389]]], [[[-91.0003, 30.10385], [-91.00003, 30.10431], [-90.99971, 30.10417], [-91.00001, 30.10358], [-91.00042, 30.10365], [-91.0003, 30.10385]]], [[[-90.99805, 30.10404], [-90.99791, 30.10428], [-90.99764, 30.10416], [-90.99777, 30.10391], [-90.99805, 30.10404]]], [[[-91.00072, 30.10433], [-91.00083, 30.10437], [-91.0007, 30.10459], [-91.00059, 30.10454], [-91.00072, 30.10433]]], [[[-91.0017, 30.10545], [-91.0019, 30.10507], [-91.0013, 30.10477], [-91.00182, 30.10387], [-91.00382, 30.10422], [-91.00296, 30.10573], [-91.00075, 30.1057], [-91.00101, 30.10525], [-91.0017, 30.10545]]], [[[-90.99762, 30.10476], [-90.99747, 30.105], [-90.99721, 30.10489], [-90.99736, 30.10464], [-90.99762, 30.10476]]], [[[-90.99916, 30.10453], [-90.99994, 30.10501], [-91.00042, 30.10507], [-91.00005, 30.10569], [-90.9992, 30.10568], [-90.99804, 30.10522], [-90.9986, 30.10429], [-90.99916, 30.10453]]], [[[-91.00405, 30.1056], [-91.00403, 30.10575], [-91.00365, 30.10575], [-91.00444, 30.10435], [-91.00476, 30.10443], [-91.00405, 30.1056]]], [[[-91.0059, 30.10537], [-91.00565, 30.10578], [-91.00465, 30.10576], [-91.00536, 30.10459], [-91.00623, 30.10483], [-91.0059, 30.10537]]], [[[-91.00686, 30.10579], [-91.00732, 30.10513], [-91.00824, 30.10538], [-91.008, 30.10581], [-91.00686, 30.10579]]], [[[-91.00868, 30.10582], [-91.00884, 30.10554], [-91.00922, 30.10564], [-91.00921, 30.10583], [-91.00868, 30.10582]]], [[[-90.99776, 30.1057], [-90.998, 30.1058], [-90.99786, 30.10606], [-90.99762, 30.10596], [-90.99776, 30.1057]]], [[[-90.99871, 30.10608], [-90.99865, 30.1064], [-90.99841, 30.1063], [-90.99857, 30.10602], [-90.99871, 30.10608]]], [[[-90.99734, 30.10644], [-90.99759, 30.10655], [-90.99742, 30.10685], [-90.99717, 30.10674], [-90.99734, 30.10644]]], [[[-90.99798, 30.1071], [-90.99815, 30.10679], [-90.99839, 30.1069], [-90.99824, 30.10722], [-90.99798, 30.1071]]], [[[-90.9988, 30.10747], [-90.99879, 30.10747], [-90.9988, 30.10745], [-90.9988, 30.10747]]], [[[-90.99782, 30.10797], [-90.99756, 30.10786], [-90.99771, 30.10759], [-90.99798, 30.10771], [-90.99782, 30.10797]]], [[[-90.99856, 30.10818], [-90.99838, 30.10821], [-90.99853, 30.10796], [-90.99866, 30.10802], [-90.99856, 30.10818]]], [[[-90.99728, 30.10834], [-90.99755, 30.10846], [-90.99749, 30.1086], [-90.99711, 30.10861], [-90.99728, 30.10834]]], [[[-90.9962, 30.0887], [-90.99565, 30.08844], [-90.996, 30.08785], [-90.99627, 30.08858], [-90.9962, 30.0887]]], [[[-90.99557, 30.08932], [-90.99525, 30.0891], [-90.99536, 30.08892], [-90.9959, 30.08917], [-90.99567, 30.08953], [-90.99557, 30.08932]]], [[[-90.99622, 30.08979], [-90.99653, 30.0893], [-90.9968, 30.09006], [-90.99622, 30.08979]]], [[[-90.99536, 30.09021], [-90.99548, 30.09006], [-90.99668, 30.09062], [-90.99657, 30.09079], [-90.99536, 30.09021]]], [[[-90.99616, 30.09144], [-90.99521, 30.09098], [-90.99527, 30.09079], [-90.99627, 30.09126], [-90.99616, 30.09144]]], [[[-90.99496, 30.0919], [-90.99459, 30.09205], [-90.99457, 30.09171], [-90.99383, 30.09135], [-90.99394, 30.09117], [-90.99586, 30.09191], [-90.99568, 30.0922], [-90.99496, 30.0919]]], [[[-90.99389, 30.09207], [-90.99349, 30.09189], [-90.99353, 30.09182], [-90.99393, 30.092], [-90.99389, 30.09207]]], [[[-90.99532, 30.09277], [-90.99503, 30.09263], [-90.99509, 30.09254], [-90.99538, 30.09268], [-90.99532, 30.09277]]], [[[-90.99413, 30.09267], [-90.99436, 30.09256], [-90.99403, 30.09293], [-90.99312, 30.09249], [-90.9932, 30.09237], [-90.99413, 30.09267]]], [[[-90.99591, 30.09375], [-90.99572, 30.09327], [-90.99589, 30.09299], [-90.99618, 30.09367], [-90.99591, 30.09375]]], [[[-90.99687, 30.09374], [-90.99629, 30.09235], [-90.99714, 30.091], [-90.9982, 30.09398], [-90.99757, 30.09435], [-90.99765, 30.09523], [-90.99807, 30.0956], [-90.99875, 30.09551], [-90.9989, 30.09595], [-90.99781, 30.09602], [-90.99687, 30.09374]]], [[[-90.99431, 30.09352], [-90.99465, 30.09306], [-90.99503, 30.09324], [-90.99422, 30.09451], [-90.9924, 30.09365], [-90.99282, 30.09297], [-90.99402, 30.09354], [-90.99431, 30.09352]]], [[[-90.99529, 30.09394], [-90.99531, 30.09391], [-90.99532, 30.09393], [-90.99529, 30.09394]]], [[[-90.99639, 30.09418], [-90.99669, 30.0949], [-90.99642, 30.09498], [-90.99612, 30.09426], [-90.99639, 30.09418]]], [[[-90.9956, 30.09518], [-90.99529, 30.09452], [-90.99553, 30.09444], [-90.99585, 30.09521], [-90.9956, 30.09518]]], [[[-90.99446, 30.09525], [-90.99483, 30.09545], [-90.99462, 30.09579], [-90.99423, 30.0956], [-90.99446, 30.09525]]], [[[-90.99717, 30.09608], [-90.99672, 30.09615], [-90.99645, 30.09554], [-90.9969, 30.09541], [-90.99717, 30.09608]]], [[[-90.99604, 30.09635], [-90.99587, 30.09642], [-90.99516, 30.09605], [-90.9954, 30.09569], [-90.99588, 30.09576], [-90.99604, 30.09635]]], [[[-90.99432, 30.09626], [-90.9941, 30.09662], [-90.99367, 30.09642], [-90.99392, 30.09607], [-90.99432, 30.09626]]], [[[-90.99485, 30.09696], [-90.99465, 30.09687], [-90.99486, 30.09653], [-90.99523, 30.09671], [-90.99485, 30.09696]]], [[[-90.99693, 30.09752], [-90.9974, 30.09741], [-90.99753, 30.0974], [-90.9975, 30.09741], [-90.99693, 30.09752]]], [[[-90.99461, 30.09925], [-90.99437, 30.09927], [-90.99493, 30.09867], [-90.99484, 30.0988], [-90.99461, 30.09925]]], [[[-90.99426, 30.09989], [-90.99408, 30.1002], [-90.99413, 30.09982], [-90.99426, 30.09989]]], [[[-90.99478, 30.1002], [-90.99481, 30.10015], [-90.99499, 30.10024], [-90.99498, 30.10027], [-90.99478, 30.1002]]], [[[-90.99455, 30.10101], [-90.99445, 30.10096], [-90.99453, 30.10069], [-90.9947, 30.10075], [-90.99455, 30.10101]]], [[[-90.99539, 30.10137], [-90.99511, 30.10124], [-90.99526, 30.10098], [-90.99554, 30.10109], [-90.99539, 30.10137]]], [[[-90.99623, 30.10174], [-90.99595, 30.10161], [-90.9961, 30.10134], [-90.99639, 30.10148], [-90.99623, 30.10174]]], [[[-90.99456, 30.10161], [-90.99512, 30.10185], [-90.995, 30.10205], [-90.99434, 30.10173], [-90.99437, 30.10153], [-90.99456, 30.10161]]], [[[-90.99567, 30.1021], [-90.99595, 30.10222], [-90.99582, 30.10243], [-90.99555, 30.1023], [-90.99567, 30.1021]]], [[[-90.99426, 30.10231], [-90.99472, 30.10253], [-90.99455, 30.1028], [-90.99422, 30.10267], [-90.99426, 30.10231]]], [[[-90.99553, 30.10291], [-90.99539, 30.10316], [-90.99511, 30.10304], [-90.99526, 30.10279], [-90.99553, 30.10291]]], [[[-90.9975, 30.10318], [-90.99722, 30.10306], [-90.99736, 30.10284], [-90.99763, 30.10295], [-90.9975, 30.10318]]], [[[-90.99639, 30.1033], [-90.99624, 30.10354], [-90.99594, 30.1034], [-90.99608, 30.10317], [-90.99639, 30.1033]]], [[[-90.99416, 30.10348], [-90.99417, 30.10324], [-90.99427, 30.10328], [-90.99416, 30.10348]]], [[[-90.99722, 30.10366], [-90.99708, 30.10391], [-90.9968, 30.10378], [-90.99694, 30.10354], [-90.99722, 30.10366]]], [[[-90.9951, 30.10364], [-90.99495, 30.10389], [-90.99468, 30.10377], [-90.99483, 30.10352], [-90.9951, 30.10364]]], [[[-90.99596, 30.10402], [-90.99581, 30.10428], [-90.9955, 30.10414], [-90.99566, 30.10389], [-90.99596, 30.10402]]], [[[-90.99411, 30.10419], [-90.99467, 30.10437], [-90.99452, 30.10462], [-90.99408, 30.10443], [-90.99411, 30.10419]]], [[[-90.99681, 30.1044], [-90.99665, 30.10466], [-90.99636, 30.10453], [-90.99651, 30.10427], [-90.99681, 30.1044]]], [[[-90.99522, 30.10462], [-90.99552, 30.10476], [-90.99538, 30.10499], [-90.99508, 30.10486], [-90.99522, 30.10462]]], [[[-90.99594, 30.10523], [-90.99607, 30.10501], [-90.99637, 30.10514], [-90.99624, 30.10536], [-90.99594, 30.10523]]], [[[-90.99408, 30.10536], [-90.9938, 30.10524], [-90.99393, 30.10497], [-90.99423, 30.1051], [-90.99408, 30.10536]]], [[[-90.99479, 30.10534], [-90.9951, 30.10547], [-90.99494, 30.10574], [-90.99464, 30.1056], [-90.99479, 30.10534]]], [[[-90.99719, 30.10548], [-90.99706, 30.10572], [-90.9968, 30.10561], [-90.99693, 30.10538], [-90.99719, 30.10548]]], [[[-90.99595, 30.10584], [-90.99579, 30.10612], [-90.99549, 30.10598], [-90.99565, 30.10571], [-90.99595, 30.10584]]], [[[-90.9935, 30.10572], [-90.9938, 30.10584], [-90.99364, 30.10611], [-90.99333, 30.10598], [-90.9935, 30.10572]]], [[[-90.99678, 30.1062], [-90.99661, 30.10649], [-90.99634, 30.10637], [-90.99651, 30.10609], [-90.99678, 30.1062]]], [[[-90.99436, 30.10608], [-90.99465, 30.10622], [-90.9945, 30.10648], [-90.9942, 30.10635], [-90.99436, 30.10608]]], [[[-90.9955, 30.1066], [-90.99533, 30.10686], [-90.99505, 30.10673], [-90.99521, 30.10647], [-90.9955, 30.1066]]], [[[-90.99633, 30.10697], [-90.99618, 30.10724], [-90.99589, 30.10711], [-90.99605, 30.10684], [-90.99633, 30.10697]]], [[[-90.99421, 30.10696], [-90.99406, 30.10721], [-90.99377, 30.10708], [-90.99391, 30.10683], [-90.99421, 30.10696]]], [[[-90.99673, 30.10749], [-90.99689, 30.10722], [-90.99715, 30.10734], [-90.997, 30.10761], [-90.99673, 30.10749]]], [[[-90.99476, 30.10721], [-90.99505, 30.10734], [-90.9949, 30.10759], [-90.99462, 30.10746], [-90.99476, 30.10721]]], [[[-90.9956, 30.10759], [-90.99591, 30.10772], [-90.99576, 30.10798], [-90.99546, 30.10784], [-90.9956, 30.10759]]], [[[-90.99333, 30.10783], [-90.99348, 30.10756], [-90.99378, 30.1077], [-90.99364, 30.10796], [-90.99333, 30.10783]]], [[[-90.99646, 30.10797], [-90.99672, 30.10809], [-90.99656, 30.10835], [-90.99631, 30.10824], [-90.99646, 30.10797]]], [[[-90.99434, 30.10794], [-90.99462, 30.10807], [-90.99447, 30.10833], [-90.9942, 30.10821], [-90.99434, 30.10794]]], [[[-90.99517, 30.10832], [-90.99547, 30.10846], [-90.99544, 30.10851], [-90.99509, 30.10846], [-90.99517, 30.10832]]], [[[-90.99403, 30.10964], [-90.99062, 30.10921], [-90.99107, 30.10801], [-90.99153, 30.10792], [-90.99141, 30.10848], [-90.99171, 30.1087], [-90.99201, 30.10854], [-90.99215, 30.10791], [-90.99249, 30.10806], [-90.99211, 30.10875], [-90.99237, 30.10904], [-90.99267, 30.10894], [-90.99305, 30.10831], [-90.99338, 30.10845], [-90.99307, 30.10906], [-90.99334, 30.10934], [-90.99363, 30.10924], [-90.99393, 30.1087], [-90.9956, 30.10908], [-90.99602, 30.10872], [-90.99711, 30.10919], [-90.99785, 30.10909], [-90.99811, 30.1087], [-90.99877, 30.10888], [-90.99875, 30.1099], [-90.99403, 30.10964]]], [[[-90.99405, 30.08957], [-90.99356, 30.09033], [-90.99343, 30.09085], [-90.99328, 30.09077], [-90.99405, 30.08957]]], [[[-90.99117, 30.09084], [-90.99113, 30.09082], [-90.99134, 30.09046], [-90.99141, 30.09049], [-90.99117, 30.09084]]], [[[-90.99196, 30.09076], [-90.99175, 30.09111], [-90.99172, 30.0911], [-90.99195, 30.09075], [-90.99196, 30.09076]]], [[[-90.99229, 30.09137], [-90.99251, 30.09102], [-90.99257, 30.09105], [-90.99235, 30.0914], [-90.99229, 30.09137]]], [[[-90.9929, 30.09165], [-90.99312, 30.09131], [-90.99314, 30.09132], [-90.99292, 30.09166], [-90.9929, 30.09165]]], [[[-90.99087, 30.09132], [-90.99064, 30.09169], [-90.99061, 30.09168], [-90.99084, 30.0913], [-90.99087, 30.09132]]], [[[-90.99146, 30.09159], [-90.99123, 30.09198], [-90.99118, 30.09195], [-90.99142, 30.09157], [-90.99146, 30.09159]]], [[[-90.99178, 30.09224], [-90.992, 30.09185], [-90.99206, 30.09188], [-90.99182, 30.09226], [-90.99178, 30.09224]]], [[[-90.99242, 30.09247], [-90.99236, 30.09252], [-90.99263, 30.09214], [-90.99242, 30.09247]]], [[[-90.99012, 30.09256], [-90.9901, 30.09255], [-90.99033, 30.09216], [-90.99035, 30.09217], [-90.99012, 30.09256]]], [[[-90.99094, 30.09246], [-90.99072, 30.09284], [-90.99067, 30.09281], [-90.99089, 30.09243], [-90.99094, 30.09246]]], [[[-90.9913, 30.09312], [-90.99126, 30.0931], [-90.99149, 30.09272], [-90.99152, 30.09273], [-90.9913, 30.09312]]], [[[-90.99209, 30.093], [-90.99185, 30.09338], [-90.99184, 30.09338], [-90.99207, 30.09299], [-90.99209, 30.093]]], [[[-90.99018, 30.09369], [-90.98958, 30.09339], [-90.98981, 30.09303], [-90.99042, 30.09331], [-90.99018, 30.09369]]], [[[-90.99156, 30.09386], [-90.99133, 30.09424], [-90.99073, 30.09395], [-90.99097, 30.09357], [-90.99156, 30.09386]]], [[[-90.98989, 30.09416], [-90.98965, 30.09454], [-90.98906, 30.09425], [-90.98929, 30.09387], [-90.98989, 30.09416]]], [[[-90.9921, 30.09412], [-90.9923, 30.09422], [-90.99156, 30.09536], [-90.99139, 30.09528], [-90.9921, 30.09412]]], [[[-90.99104, 30.09471], [-90.9908, 30.09509], [-90.99019, 30.0948], [-90.99043, 30.09442], [-90.99104, 30.09471]]], [[[-90.99354, 30.09527], [-90.99331, 30.09515], [-90.9935, 30.09487], [-90.99392, 30.09498], [-90.99369, 30.09534], [-90.99354, 30.09527]]], [[[-90.99285, 30.09448], [-90.993, 30.09455], [-90.99222, 30.0957], [-90.99209, 30.09563], [-90.99285, 30.09448]]], [[[-90.99035, 30.09582], [-90.9901, 30.09624], [-90.98949, 30.09595], [-90.9899, 30.09528], [-90.9905, 30.09557], [-90.99035, 30.09582]]], [[[-90.99338, 30.09581], [-90.99313, 30.09616], [-90.99276, 30.09598], [-90.99299, 30.09562], [-90.99338, 30.09581]]], [[[-90.99033, 30.097], [-90.99109, 30.09576], [-90.99125, 30.09583], [-90.99045, 30.09706], [-90.99033, 30.097]]], [[[-90.99169, 30.09654], [-90.99145, 30.09692], [-90.9913, 30.09686], [-90.99179, 30.0961], [-90.99192, 30.09617], [-90.99169, 30.09654]]], [[[-90.99201, 30.09717], [-90.99246, 30.09645], [-90.99281, 30.09663], [-90.99233, 30.09732], [-90.99201, 30.09717]]], [[[-90.98863, 30.09631], [-90.98842, 30.09604], [-90.9898, 30.09672], [-90.98966, 30.09695], [-90.98863, 30.09631]]], [[[-90.99297, 30.09745], [-90.99335, 30.09689], [-90.99425, 30.0973], [-90.99343, 30.0978], [-90.9931, 30.0983], [-90.99256, 30.09805], [-90.99297, 30.09745]]], [[[-90.99202, 30.09778], [-90.99201, 30.0978], [-90.99169, 30.09765], [-90.9917, 30.09764], [-90.99202, 30.09778]]], [[[-90.99016, 30.09816], [-90.99053, 30.09829], [-90.99027, 30.09868], [-90.99016, 30.09819], [-90.99016, 30.09816]]], [[[-90.98948, 30.09851], [-90.98957, 30.09837], [-90.98962, 30.09859], [-90.98948, 30.09851]]], [[[-90.99159, 30.09901], [-90.99155, 30.09882], [-90.99186, 30.09897], [-90.99143, 30.09958], [-90.99159, 30.09901]]], [[[-90.9896, 30.09922], [-90.98988, 30.09929], [-90.98959, 30.09974], [-90.98893, 30.0994], [-90.98919, 30.09899], [-90.9896, 30.09922]]], [[[-90.9927, 30.09944], [-90.99285, 30.09955], [-90.99243, 30.10014], [-90.99196, 30.09987], [-90.99239, 30.09926], [-90.9927, 30.09944]]], [[[-90.99042, 30.0997], [-90.99016, 30.10005], [-90.99012, 30.10003], [-90.99035, 30.09967], [-90.99042, 30.0997]]], [[[-90.99097, 30.09996], [-90.99111, 30.10004], [-90.99084, 30.10041], [-90.99069, 30.10033], [-90.99097, 30.09996]]], [[[-90.99185, 30.10096], [-90.99137, 30.1007], [-90.99163, 30.10033], [-90.9921, 30.1006], [-90.99185, 30.10096]]], [[[-90.98995, 30.1007], [-90.98977, 30.10075], [-90.98955, 30.1009], [-90.98981, 30.1005], [-90.99019, 30.1007], [-90.98995, 30.1007]]], [[[-90.99238, 30.10125], [-90.99262, 30.10089], [-90.99269, 30.10093], [-90.99263, 30.10138], [-90.99238, 30.10125]]], [[[-90.99076, 30.10155], [-90.99104, 30.10116], [-90.99153, 30.10142], [-90.99125, 30.10181], [-90.99076, 30.10155]]], [[[-90.98979, 30.10188], [-90.98962, 30.10211], [-90.98899, 30.10177], [-90.98925, 30.10137], [-90.98979, 30.10188]]], [[[-90.99178, 30.1021], [-90.99206, 30.10171], [-90.99256, 30.10198], [-90.99229, 30.10237], [-90.99178, 30.1021]]], [[[-90.99064, 30.10266], [-90.99015, 30.10239], [-90.99043, 30.10201], [-90.99092, 30.10227], [-90.99064, 30.10266]]], [[[-90.99167, 30.10322], [-90.99117, 30.10295], [-90.99145, 30.10256], [-90.99195, 30.10283], [-90.99167, 30.10322]]], [[[-90.9895, 30.1033], [-90.98982, 30.10285], [-90.99031, 30.10312], [-90.99, 30.10356], [-90.9895, 30.1033]]], [[[-90.99247, 30.10314], [-90.99243, 30.10363], [-90.9922, 30.10351], [-90.99247, 30.10314]]], [[[-90.99057, 30.10387], [-90.99084, 30.10341], [-90.99134, 30.10368], [-90.99103, 30.10412], [-90.99057, 30.10387]]], [[[-90.98945, 30.1041], [-90.98955, 30.10396], [-90.98997, 30.10419], [-90.98987, 30.10432], [-90.98945, 30.1041]]], [[[-90.99229, 30.1042], [-90.99198, 30.10462], [-90.99156, 30.1044], [-90.99187, 30.10397], [-90.99229, 30.1042]]], [[[-90.99019, 30.1049], [-90.9905, 30.10447], [-90.9907, 30.10458], [-90.99039, 30.10501], [-90.99019, 30.1049]]], [[[-90.99202, 30.10557], [-90.99234, 30.10514], [-90.99266, 30.10471], [-90.99185, 30.1058], [-90.99202, 30.10557]]], [[[-90.99092, 30.10529], [-90.99123, 30.10486], [-90.99164, 30.10508], [-90.99133, 30.1055], [-90.99092, 30.10529]]], [[[-90.98959, 30.10522], [-90.99005, 30.10547], [-90.98973, 30.10591], [-90.98923, 30.10564], [-90.98959, 30.10522]]], [[[-90.99059, 30.10575], [-90.991, 30.10595], [-90.99065, 30.10643], [-90.99025, 30.1062], [-90.99059, 30.10575]]], [[[-90.9899, 30.10695], [-90.98967, 30.10698], [-90.98991, 30.10666], [-90.99014, 30.10679], [-90.9899, 30.10695]]], [[[-90.99185, 30.10682], [-90.99221, 30.10663], [-90.99147, 30.10735], [-90.99162, 30.10695], [-90.99185, 30.10682]]], [[[-90.99251, 30.10724], [-90.99273, 30.10692], [-90.99308, 30.10707], [-90.99278, 30.10758], [-90.99237, 30.1074], [-90.99251, 30.10724]]], [[[-90.99065, 30.1074], [-90.99062, 30.10746], [-90.99028, 30.10737], [-90.99051, 30.10722], [-90.99065, 30.1074]]], [[[-90.9898, 30.10777], [-90.99044, 30.10797], [-90.9901, 30.10889], [-90.98765, 30.10798], [-90.98816, 30.10714], [-90.9898, 30.10777]]], [[[-90.98788, 30.05321], [-90.98684, 30.05256], [-90.98638, 30.05135], [-90.98829, 30.05138], [-90.98859, 30.05165], [-90.98898, 30.05139], [-90.98956, 30.0514], [-90.98953, 30.05314], [-90.98875, 30.05331], [-90.98788, 30.05321]]], [[[-90.98877, 30.09473], [-90.98935, 30.09502], [-90.98895, 30.09568], [-90.9884, 30.09539], [-90.98877, 30.09473]]], [[[-90.9877, 30.09535], [-90.98771, 30.09586], [-90.98709, 30.09556], [-90.98731, 30.09551], [-90.9877, 30.09535]]], [[[-90.98584, 30.09682], [-90.98555, 30.09683], [-90.98539, 30.09707], [-90.98586, 30.09751], [-90.9852, 30.09725], [-90.98472, 30.09739], [-90.9843, 30.09695], [-90.98456, 30.09692], [-90.98526, 30.09585], [-90.9864, 30.09657], [-90.98618, 30.09697], [-90.98584, 30.09682]]], [[[-90.9838, 30.09676], [-90.98327, 30.09694], [-90.98308, 30.09753], [-90.98371, 30.09832], [-90.98417, 30.09847], [-90.98457, 30.09834], [-90.98516, 30.09865], [-90.98474, 30.09937], [-90.98191, 30.0981], [-90.98277, 30.09637], [-90.9838, 30.09676]]], [[[-90.98708, 30.09709], [-90.98781, 30.09745], [-90.98717, 30.09848], [-90.98634, 30.09809], [-90.98632, 30.09792], [-90.98687, 30.09698], [-90.98708, 30.09709]]], [[[-90.9877, 30.09875], [-90.9884, 30.09765], [-90.98881, 30.09779], [-90.98852, 30.098], [-90.98808, 30.09895], [-90.9877, 30.09875]]], [[[-90.98174, 30.09864], [-90.98167, 30.09868], [-90.9816, 30.09873], [-90.98166, 30.0986], [-90.98174, 30.09864]]], [[[-90.98741, 30.09923], [-90.9881, 30.0996], [-90.98787, 30.09999], [-90.98718, 30.09963], [-90.98741, 30.09923]]], [[[-90.98457, 30.1009], [-90.98581, 30.09875], [-90.98609, 30.09858], [-90.98688, 30.09896], [-90.98666, 30.09933], [-90.98588, 30.09901], [-90.9847, 30.10096], [-90.98457, 30.1009]]], [[[-90.98403, 30.10002], [-90.9842, 30.09973], [-90.98446, 30.09985], [-90.9843, 30.10014], [-90.98403, 30.10002]]], [[[-90.9884, 30.10028], [-90.98864, 30.09988], [-90.98928, 30.10022], [-90.98902, 30.10061], [-90.9884, 30.10028]]], [[[-90.98361, 30.10073], [-90.98374, 30.1005], [-90.98403, 30.10063], [-90.98391, 30.10086], [-90.98361, 30.10073]]], [[[-90.9818, 30.10088], [-90.98148, 30.10074], [-90.98163, 30.10049], [-90.98195, 30.10063], [-90.9818, 30.10088]]], [[[-90.98267, 30.10093], [-90.98261, 30.10123], [-90.98235, 30.10113], [-90.98248, 30.10091], [-90.98267, 30.10093]]], [[[-90.98317, 30.10147], [-90.98332, 30.10121], [-90.98362, 30.10134], [-90.98346, 30.10159], [-90.98317, 30.10147]]], [[[-90.98119, 30.10122], [-90.98151, 30.10136], [-90.98138, 30.10161], [-90.98104, 30.10146], [-90.98119, 30.10122]]], [[[-90.98463, 30.10179], [-90.98442, 30.10194], [-90.98418, 30.10183], [-90.98441, 30.10144], [-90.98517, 30.10175], [-90.98507, 30.10191], [-90.98463, 30.10179]]], [[[-90.98232, 30.10171], [-90.98217, 30.10196], [-90.98193, 30.10186], [-90.98207, 30.10161], [-90.98232, 30.10171]]], [[[-90.98301, 30.10234], [-90.98272, 30.10221], [-90.98288, 30.10195], [-90.98317, 30.10207], [-90.98301, 30.10234]]], [[[-90.98151, 30.10256], [-90.98165, 30.10234], [-90.98188, 30.10244], [-90.98176, 30.10266], [-90.98151, 30.10256]]], [[[-90.98838, 30.10269], [-90.98868, 30.10224], [-90.98929, 30.10257], [-90.98897, 30.10301], [-90.98838, 30.10269]]], [[[-90.98491, 30.10332], [-90.98576, 30.10193], [-90.9861, 30.10211], [-90.98522, 30.10348], [-90.98491, 30.10332]]], [[[-90.9826, 30.10303], [-90.98231, 30.1029], [-90.98243, 30.10269], [-90.98272, 30.10282], [-90.9826, 30.10303]]], [[[-90.98699, 30.10258], [-90.98755, 30.10287], [-90.98726, 30.10333], [-90.98672, 30.10304], [-90.98699, 30.10258]]], [[[-90.98832, 30.10391], [-90.98778, 30.10362], [-90.98808, 30.10316], [-90.98864, 30.10347], [-90.98832, 30.10391]]], [[[-90.98176, 30.10385], [-90.98203, 30.10339], [-90.98231, 30.10351], [-90.98208, 30.10389], [-90.98176, 30.10385]]], [[[-90.98695, 30.1038], [-90.98667, 30.10424], [-90.98614, 30.10397], [-90.98642, 30.10351], [-90.98695, 30.1038]]], [[[-90.98448, 30.10402], [-90.98462, 30.1038], [-90.98531, 30.10416], [-90.98513, 30.10446], [-90.98448, 30.10416], [-90.98448, 30.10402]]], [[[-90.98426, 30.10467], [-90.98483, 30.10494], [-90.9848, 30.105], [-90.98422, 30.10472], [-90.98426, 30.10467]]], [[[-90.98553, 30.10496], [-90.98584, 30.10444], [-90.98636, 30.10472], [-90.98586, 30.10548], [-90.98535, 30.10526], [-90.98553, 30.10496]]], [[[-90.98877, 30.10479], [-90.98901, 30.10491], [-90.9887, 30.10535], [-90.98834, 30.10516], [-90.98877, 30.10479]]], [[[-90.98659, 30.1058], [-90.98641, 30.10572], [-90.98689, 30.105], [-90.98735, 30.10526], [-90.98688, 30.10592], [-90.98659, 30.1058]]], [[[-90.98407, 30.10623], [-90.98413, 30.10655], [-90.9845, 30.10659], [-90.98506, 30.10574], [-90.98555, 30.10595], [-90.98522, 30.10654], [-90.9854, 30.10707], [-90.98579, 30.10699], [-90.98611, 30.1062], [-90.98761, 30.10689], [-90.98697, 30.10797], [-90.98726, 30.10843], [-90.98314, 30.10726], [-90.97956, 30.10575], [-90.97629, 30.1047], [-90.96892, 30.10284], [-90.96532, 30.1023], [-90.96264, 30.10218], [-90.95844, 30.10244], [-90.95236, 30.10424], [-90.95046, 30.10509], [-90.94777, 30.10656], [-90.94678, 30.10781], [-90.9438, 30.10994], [-90.94336, 30.11078], [-90.94256, 30.11445], [-90.94258, 30.11687], [-90.94353, 30.12011], [-90.94344, 30.12078], [-90.94382, 30.12418], [-90.94349, 30.1258], [-90.94324, 30.12608], [-90.94321, 30.12654], [-90.94276, 30.12698], [-90.94233, 30.12871], [-90.94165, 30.1294], [-90.94136, 30.13001], [-90.94013, 30.13074], [-90.9391, 30.13181], [-90.93604, 30.13176], [-90.93605, 30.13113], [-90.93844, 30.13033], [-90.93935, 30.12971], [-90.9418, 30.12576], [-90.94188, 30.12487], [-90.94122, 30.11646], [-90.94037, 30.1143], [-90.94029, 30.11363], [-90.94049, 30.1128], [-90.94239, 30.10853], [-90.94287, 30.10857], [-90.94295, 30.1083], [-90.94267, 30.108], [-90.94345, 30.10762], [-90.94409, 30.10814], [-90.94454, 30.1081], [-90.94833, 30.10472], [-90.94987, 30.10366], [-90.95158, 30.10305], [-90.95359, 30.10207], [-90.95551, 30.1016], [-90.9573, 30.10134], [-90.96007, 30.10142], [-90.96144, 30.10111], [-90.96511, 30.10144], [-90.96991, 30.10217], [-90.97598, 30.10329], [-90.97708, 30.10389], [-90.98249, 30.1045], [-90.98326, 30.1049], [-90.98288, 30.10557], [-90.98304, 30.10586], [-90.98341, 30.10581], [-90.98382, 30.10514], [-90.98451, 30.10548], [-90.98407, 30.10623]]], [[[-90.98763, 30.10605], [-90.98746, 30.10614], [-90.98788, 30.10555], [-90.98838, 30.10582], [-90.98763, 30.10605]]], [[[-90.98883, 30.10624], [-90.98891, 30.1061], [-90.98939, 30.10636], [-90.98906, 30.1068], [-90.98883, 30.10624]]], [[[-90.98189, 30.11597], [-90.98636, 30.11705], [-90.98607, 30.11757], [-90.98524, 30.11768], [-90.9765, 30.11614], [-90.96018, 30.11279], [-90.95602, 30.11319], [-90.95493, 30.1135], [-90.95423, 30.11412], [-90.95377, 30.11516], [-90.95418, 30.11882], [-90.95369, 30.12502], [-90.95212, 30.13066], [-90.9513, 30.132], [-90.95052, 30.13199], [-90.95104, 30.13033], [-90.95118, 30.12832], [-90.95155, 30.12755], [-90.95113, 30.12438], [-90.95151, 30.12207], [-90.95107, 30.12008], [-90.95058, 30.11961], [-90.94998, 30.11654], [-90.95079, 30.11559], [-90.95109, 30.113], [-90.95127, 30.11286], [-90.95359, 30.1121], [-90.9604, 30.11204], [-90.96339, 30.11247], [-90.96339, 30.11328], [-90.96453, 30.1136], [-90.96605, 30.11371], [-90.96787, 30.11314], [-90.96928, 30.11312], [-90.9719, 30.11399], [-90.9761, 30.11506], [-90.98189, 30.11597]]], [[[-90.98718, 30.11799], [-90.98669, 30.1177], [-90.98682, 30.11746], [-90.98727, 30.11753], [-90.98755, 30.11731], [-90.98822, 30.1174], [-90.98821, 30.11824], [-90.98718, 30.11799]]], [[[-90.98699, 30.11858], [-90.98704, 30.11867], [-90.9867, 30.11852], [-90.98699, 30.11858], [-90.98699, 30.11858]]], [[[-90.98521, 30.11852], [-90.9857, 30.11871], [-90.98543, 30.11911], [-90.98496, 30.11892], [-90.98521, 30.11852]]], [[[-90.9882, 30.11879], [-90.98811, 30.11911], [-90.98761, 30.1189], [-90.98773, 30.11871], [-90.9882, 30.11879]]], [[[-90.98599, 30.11934], [-90.98626, 30.11894], [-90.98674, 30.11914], [-90.98647, 30.11954], [-90.98599, 30.11934]]], [[[-90.98704, 30.11977], [-90.9873, 30.11937], [-90.98779, 30.11958], [-90.98753, 30.11997], [-90.98704, 30.11977]]], [[[-90.98511, 30.11958], [-90.98484, 30.11997], [-90.98438, 30.11978], [-90.98465, 30.11939], [-90.98511, 30.11958]]], [[[-90.98589, 30.1204], [-90.98541, 30.1202], [-90.98568, 30.11981], [-90.98616, 30.12001], [-90.98589, 30.1204]]], [[[-90.98817, 30.12009], [-90.98817, 30.12023], [-90.98809, 30.1202], [-90.98817, 30.12009]]], [[[-90.97979, 30.11742], [-90.98034, 30.11752], [-90.97908, 30.11943], [-90.97832, 30.121], [-90.97853, 30.1215], [-90.97896, 30.12172], [-90.97933, 30.12148], [-90.97895, 30.12106], [-90.97908, 30.12073], [-90.98098, 30.11743], [-90.98475, 30.11812], [-90.98329, 30.12018], [-90.98378, 30.11927], [-90.98357, 30.11906], [-90.98303, 30.11909], [-90.98127, 30.1218], [-90.98057, 30.12232], [-90.9802, 30.12343], [-90.97773, 30.12339], [-90.97768, 30.12557], [-90.96666, 30.13111], [-90.96633, 30.13078], [-90.96621, 30.1301], [-90.96494, 30.12853], [-90.96458, 30.12846], [-90.96442, 30.12882], [-90.96576, 30.1305], [-90.96573, 30.13096], [-90.96611, 30.13139], [-90.96448, 30.13221], [-90.96077, 30.13215], [-90.96361, 30.13072], [-90.96267, 30.12949], [-90.96248, 30.12876], [-90.96283, 30.12767], [-90.96361, 30.12703], [-90.96465, 30.12678], [-90.96571, 30.12698], [-90.96639, 30.12745], [-90.96748, 30.12878], [-90.97721, 30.12388], [-90.977, 30.1225], [-90.9765, 30.12167], [-90.97641, 30.12093], [-90.97746, 30.11854], [-90.97541, 30.11819], [-90.97465, 30.11915], [-90.9733, 30.11959], [-90.97315, 30.12047], [-90.97236, 30.12151], [-90.97084, 30.1224], [-90.96955, 30.12247], [-90.96876, 30.12216], [-90.96829, 30.12177], [-90.96784, 30.12071], [-90.96778, 30.11867], [-90.96847, 30.11739], [-90.96903, 30.11686], [-90.96034, 30.11504], [-90.96044, 30.11525], [-90.96148, 30.11538], [-90.96221, 30.11578], [-90.96309, 30.11713], [-90.96319, 30.11806], [-90.9627, 30.11899], [-90.96275, 30.12009], [-90.9632, 30.12124], [-90.96302, 30.12226], [-90.96241, 30.12298], [-90.96116, 30.12355], [-90.96021, 30.12365], [-90.95908, 30.12329], [-90.95766, 30.12326], [-90.95633, 30.1239], [-90.95617, 30.1255], [-90.95468, 30.13098], [-90.95537, 30.13095], [-90.95619, 30.13119], [-90.95714, 30.13209], [-90.95278, 30.13203], [-90.95229, 30.13153], [-90.95292, 30.13032], [-90.9543, 30.12513], [-90.95445, 30.1229], [-90.95783, 30.1213], [-90.95839, 30.12171], [-90.95962, 30.12128], [-90.96035, 30.12199], [-90.96127, 30.12156], [-90.96058, 30.11993], [-90.96089, 30.11952], [-90.96064, 30.11934], [-90.96033, 30.11943], [-90.95963, 30.11797], [-90.96051, 30.11751], [-90.96075, 30.11794], [-90.96106, 30.11803], [-90.96127, 30.11765], [-90.9607, 30.11691], [-90.95945, 30.11743], [-90.95747, 30.11355], [-90.9597, 30.11331], [-90.96063, 30.11339], [-90.97184, 30.11574], [-90.97047, 30.11807], [-90.97011, 30.11826], [-90.96964, 30.11906], [-90.96973, 30.11941], [-90.97028, 30.11966], [-90.96976, 30.12053], [-90.96999, 30.12085], [-90.97029, 30.12077], [-90.97067, 30.1202], [-90.97112, 30.12024], [-90.97137, 30.11986], [-90.97128, 30.11947], [-90.97032, 30.11909], [-90.97038, 30.11899], [-90.97111, 30.11925], [-90.97139, 30.11911], [-90.97136, 30.11881], [-90.97087, 30.11859], [-90.97246, 30.11587], [-90.97378, 30.11614], [-90.97292, 30.11759], [-90.97313, 30.11792], [-90.97348, 30.11781], [-90.9744, 30.11627], [-90.97961, 30.1172], [-90.97979, 30.11742]]], [[[-90.98646, 30.12064], [-90.98673, 30.12024], [-90.98722, 30.12044], [-90.98696, 30.12085], [-90.98646, 30.12064]]], [[[-90.98753, 30.12108], [-90.98778, 30.12067], [-90.98816, 30.12082], [-90.98802, 30.12128], [-90.98753, 30.12108]]], [[[-90.98327, 30.12118], [-90.98392, 30.12035], [-90.98283, 30.12204], [-90.98308, 30.12239], [-90.98353, 30.12204], [-90.98376, 30.1222], [-90.98404, 30.12212], [-90.98509, 30.12067], [-90.9856, 30.12088], [-90.98403, 30.1231], [-90.9842, 30.12318], [-90.98414, 30.12349], [-90.98177, 30.12345], [-90.98327, 30.12118]]], [[[-90.98592, 30.12164], [-90.9859, 30.12201], [-90.98609, 30.12211], [-90.98679, 30.12137], [-90.98753, 30.12168], [-90.98632, 30.12352], [-90.98471, 30.1235], [-90.98616, 30.12111], [-90.98592, 30.12164]]], [[[-90.98704, 30.12353], [-90.98741, 30.12302], [-90.98813, 30.12185], [-90.9881, 30.12355], [-90.98704, 30.12353]]], [[[-90.98103, 30.12343], [-90.98048, 30.12343], [-90.98048, 30.12317], [-90.98103, 30.12343]]], [[[-90.9786, 30.04341], [-90.97881, 30.04221], [-90.97938, 30.04222], [-90.97933, 30.04459], [-90.97888, 30.0441], [-90.9786, 30.04341]]], [[[-90.97586, 30.05726], [-90.96905, 30.06874], [-90.96173, 30.06565], [-90.94924, 30.05928], [-90.94755, 30.05822], [-90.94603, 30.05702], [-90.9393, 30.05001], [-90.94178, 30.04757], [-90.9436, 30.04798], [-90.94387, 30.04784], [-90.94385, 30.04756], [-90.94252, 30.04709], [-90.94153, 30.04705], [-90.93889, 30.04959], [-90.93777, 30.04845], [-90.93782, 30.0459], [-90.93891, 30.04704], [-90.94051, 30.04564], [-90.94129, 30.04539], [-90.94229, 30.0454], [-90.94289, 30.04419], [-90.94453, 30.04299], [-90.9459, 30.04275], [-90.94719, 30.0432], [-90.94809, 30.04393], [-90.94853, 30.04474], [-90.94857, 30.04556], [-90.94811, 30.04651], [-90.9465, 30.04774], [-90.94579, 30.04805], [-90.94547, 30.04876], [-90.94487, 30.0493], [-90.94364, 30.04965], [-90.94241, 30.04943], [-90.94181, 30.05003], [-90.94743, 30.05588], [-90.94967, 30.05753], [-90.96266, 30.06419], [-90.9682, 30.06655], [-90.97926, 30.0479], [-90.97919, 30.05124], [-90.97943, 30.05124], [-90.97586, 30.05726]], [[-90.94503, 30.04629], [-90.94647, 30.04533], [-90.94638, 30.04501], [-90.94579, 30.0446], [-90.94547, 30.04464], [-90.94442, 30.04549], [-90.94444, 30.0458], [-90.94503, 30.04629]]], [[[-90.96852, 30.06912], [-90.96876, 30.06922], [-90.9655, 30.07475], [-90.96488, 30.07681], [-90.96408, 30.0782], [-90.96303, 30.07741], [-90.96332, 30.07679], [-90.96294, 30.07588], [-90.96212, 30.07593], [-90.96154, 30.07683], [-90.96174, 30.07716], [-90.96088, 30.078], [-90.96219, 30.07901], [-90.96307, 30.07815], [-90.96371, 30.07863], [-90.96278, 30.07945], [-90.96218, 30.07906], [-90.95951, 30.07695], [-90.95932, 30.07055], [-90.95913, 30.07012], [-90.95846, 30.07005], [-90.95821, 30.07032], [-90.95835, 30.07054], [-90.9587, 30.07058], [-90.95888, 30.0768], [-90.93209, 30.0567], [-90.93888, 30.05042], [-90.94556, 30.05738], [-90.9482, 30.05933], [-90.96144, 30.06612], [-90.96852, 30.06912]], [[-90.95727, 30.06872], [-90.95807, 30.06842], [-90.95908, 30.06839], [-90.95997, 30.06862], [-90.96067, 30.06912], [-90.96119, 30.07008], [-90.96131, 30.07319], [-90.96303, 30.07308], [-90.96417, 30.07333], [-90.96615, 30.06999], [-90.96046, 30.06755], [-90.94706, 30.06066], [-90.9441, 30.05845], [-90.9388, 30.05293], [-90.93486, 30.05657], [-90.95686, 30.07308], [-90.95681, 30.07156], [-90.9564, 30.07089], [-90.95631, 30.07014], [-90.95666, 30.06926], [-90.95727, 30.06872]]], [[[-90.95952, 30.078], [-90.96088, 30.07902], [-90.9596, 30.07872], [-90.95932, 30.07843], [-90.95748, 30.07887], [-90.95623, 30.07968], [-90.95483, 30.08117], [-90.95391, 30.08159], [-90.95125, 30.08224], [-90.95101, 30.08242], [-90.951, 30.08132], [-90.95168, 30.08038], [-90.95225, 30.08006], [-90.95491, 30.07926], [-90.9555, 30.07883], [-90.95636, 30.07761], [-90.95688, 30.07724], [-90.95803, 30.07715], [-90.95952, 30.078]]], [[[-90.96123, 30.07981], [-90.96191, 30.0803], [-90.96072, 30.08113], [-90.96004, 30.08135], [-90.95692, 30.08139], [-90.95552, 30.0816], [-90.95701, 30.08004], [-90.95828, 30.07938], [-90.95911, 30.07925], [-90.96006, 30.07933], [-90.96123, 30.07981]]], [[[-90.96098, 30.08162], [-90.96239, 30.08065], [-90.96738, 30.08432], [-90.95632, 30.082], [-90.95952, 30.082], [-90.96098, 30.08162]]], [[[-90.96463, 30.08447], [-90.96776, 30.08527], [-90.9655, 30.10096], [-90.96501, 30.10089], [-90.96509, 30.10014], [-90.96482, 30.09992], [-90.9645, 30.10009], [-90.96439, 30.10083], [-90.96327, 30.10074], [-90.96327, 30.10002], [-90.96299, 30.09981], [-90.96268, 30.09999], [-90.96263, 30.10068], [-90.96113, 30.10055], [-90.96034, 30.10078], [-90.9603, 30.09839], [-90.96048, 30.09799], [-90.9603, 30.09665], [-90.96102, 30.09642], [-90.96122, 30.09606], [-90.96061, 30.09417], [-90.96123, 30.09289], [-90.96259, 30.09284], [-90.96256, 30.09164], [-90.96349, 30.09276], [-90.96444, 30.09494], [-90.96559, 30.08692], [-90.96479, 30.08622], [-90.95956, 30.08513], [-90.96061, 30.0883], [-90.95956, 30.0883], [-90.95952, 30.08695], [-90.95886, 30.08711], [-90.95854, 30.08613], [-90.95794, 30.08628], [-90.95747, 30.08452], [-90.95743, 30.08298], [-90.96463, 30.08447]], [[-90.96396, 30.09835], [-90.96409, 30.09741], [-90.96388, 30.09775], [-90.96396, 30.09835]]], [[[-90.95712, 30.08574], [-90.95706, 30.08576], [-90.95701, 30.08536], [-90.95705, 30.08551], [-90.95712, 30.08574]]], [[[-90.96951, 30.08636], [-90.96975, 30.08636], [-90.97573, 30.09075], [-90.9784, 30.09243], [-90.97806, 30.09286], [-90.97904, 30.09341], [-90.97937, 30.09301], [-90.97983, 30.09325], [-90.97884, 30.09542], [-90.98059, 30.09617], [-90.98125, 30.09599], [-90.98217, 30.09621], [-90.97991, 30.1009], [-90.97948, 30.1021], [-90.97885, 30.10354], [-90.97722, 30.10336], [-90.97596, 30.10273], [-90.97667, 30.10092], [-90.97944, 30.1015], [-90.97976, 30.10126], [-90.97952, 30.10096], [-90.97641, 30.10034], [-90.97618, 30.10049], [-90.97534, 30.10261], [-90.9723, 30.10205], [-90.97319, 30.09841], [-90.97294, 30.09812], [-90.97258, 30.0983], [-90.97169, 30.10193], [-90.96663, 30.10119], [-90.96686, 30.09955], [-90.9667, 30.09929], [-90.96639, 30.09922], [-90.96834, 30.08558], [-90.96951, 30.08636]], [[-90.97524, 30.09534], [-90.97416, 30.09534], [-90.97289, 30.09506], [-90.97169, 30.09441], [-90.97089, 30.09364], [-90.97022, 30.09255], [-90.96991, 30.09146], [-90.97005, 30.0901], [-90.97056, 30.08915], [-90.96983, 30.08861], [-90.96842, 30.09851], [-90.96871, 30.09912], [-90.96877, 30.0998], [-90.97021, 30.09998], [-90.97093, 30.09745], [-90.97167, 30.09676], [-90.97269, 30.09646], [-90.97376, 30.09661], [-90.97462, 30.09718], [-90.97507, 30.09803], [-90.97496, 30.09918], [-90.97611, 30.09869], [-90.97783, 30.0989], [-90.97796, 30.09845], [-90.97703, 30.09797], [-90.97623, 30.09722], [-90.97571, 30.0963], [-90.97552, 30.09531], [-90.97524, 30.09534]], [[-90.97527, 30.09229], [-90.97592, 30.09168], [-90.97592, 30.09116], [-90.97482, 30.0903], [-90.97404, 30.09024], [-90.97331, 30.09098], [-90.97369, 30.09194], [-90.97435, 30.09237], [-90.97527, 30.09229]]], [[[-90.98121, 30.09968], [-90.98115, 30.09965], [-90.98119, 30.09958], [-90.98119, 30.09963], [-90.98121, 30.09968]]], [[[-90.98093, 30.10049], [-90.98079, 30.10042], [-90.98092, 30.10015], [-90.98109, 30.10022], [-90.98093, 30.10049]]], [[[-90.98056, 30.10093], [-90.98064, 30.10097], [-90.98048, 30.10122], [-90.98045, 30.1012], [-90.98056, 30.10093]]], [[[-90.98096, 30.10231], [-90.98062, 30.10216], [-90.98076, 30.10194], [-90.98109, 30.10209], [-90.98096, 30.10231]]], [[[-90.97992, 30.10279], [-90.9797, 30.10363], [-90.97949, 30.1036], [-90.97988, 30.10269], [-90.97992, 30.10279]]], [[[-90.98094, 30.10291], [-90.98148, 30.10314], [-90.98111, 30.10377], [-90.98032, 30.10369], [-90.98054, 30.10274], [-90.98094, 30.10291]]], [[[-90.96498, 30.11268], [-90.9652, 30.11273], [-90.96523, 30.11274], [-90.96493, 30.11267], [-90.96498, 30.11268]]], [[[-90.95856, 30.11792], [-90.95844, 30.11847], [-90.95881, 30.11859], [-90.95908, 30.11826], [-90.95979, 30.11971], [-90.95931, 30.11996], [-90.95897, 30.11977], [-90.95866, 30.11994], [-90.95927, 30.12083], [-90.95848, 30.12113], [-90.95809, 30.12076], [-90.95776, 30.12073], [-90.9545, 30.12226], [-90.9548, 30.11881], [-90.95439, 30.11522], [-90.95475, 30.11441], [-90.95526, 30.11397], [-90.95683, 30.11363], [-90.95891, 30.11772], [-90.95856, 30.11792]], [[-90.95665, 30.11759], [-90.95671, 30.11745], [-90.95658, 30.11721], [-90.95664, 30.11753], [-90.95665, 30.11759]], [[-90.9567, 30.11933], [-90.95677, 30.11929], [-90.9567, 30.11918], [-90.9567, 30.11933]]], [[[-90.96049, 30.1214], [-90.95968, 30.1204], [-90.96004, 30.12021], [-90.96061, 30.12135], [-90.96049, 30.1214]]], [[[-90.97008, 30.13002], [-90.97593, 30.12708], [-90.97767, 30.1262], [-90.97763, 30.12815], [-90.97689, 30.12852], [-90.96939, 30.13228], [-90.96568, 30.13223], [-90.97008, 30.13002]]], [[[-90.97694, 30.13155], [-90.97756, 30.13132], [-90.97754, 30.13241], [-90.976, 30.13239], [-90.97694, 30.13155]]], [[[-90.95709, 30.04319], [-90.95689, 30.0443], [-90.95619, 30.04502], [-90.95541, 30.04534], [-90.95437, 30.04537], [-90.95355, 30.04559], [-90.95269, 30.04552], [-90.95192, 30.04517], [-90.95136, 30.04459], [-90.9511, 30.04387], [-90.95134, 30.04277], [-90.95233, 30.0418], [-90.95614, 30.04186], [-90.95681, 30.04248], [-90.95709, 30.04319]], [[-90.95329, 30.04394], [-90.95367, 30.04369], [-90.95499, 30.04371], [-90.95518, 30.04337], [-90.95494, 30.04319], [-90.95344, 30.04317], [-90.95301, 30.04362], [-90.95329, 30.04394]]], [[[-90.93848, 30.05], [-90.93161, 30.05636], [-90.9273, 30.05312], [-90.92736, 30.05043], [-90.92789, 30.05044], [-90.9274, 30.051], [-90.93147, 30.05406], [-90.93525, 30.05056], [-90.93773, 30.0506], [-90.93775, 30.04929], [-90.93848, 30.05]]], [[[-90.94473, 30.06712], [-90.94394, 30.06739], [-90.94339, 30.0678], [-90.94154, 30.07002], [-90.92476, 30.0813], [-90.92372, 30.08006], [-90.92338, 30.08002], [-90.92321, 30.08029], [-90.92245, 30.07949], [-90.91981, 30.0813], [-90.91996, 30.08158], [-90.91951, 30.08193], [-90.91977, 30.08227], [-90.91965, 30.08237], [-90.91906, 30.08177], [-90.91915, 30.08143], [-90.92034, 30.08063], [-90.91982, 30.07984], [-90.92148, 30.0786], [-90.92113, 30.07816], [-90.92159, 30.07785], [-90.92198, 30.07887], [-90.92275, 30.07845], [-90.92361, 30.07833], [-90.92445, 30.07851], [-90.92513, 30.07894], [-90.94031, 30.06874], [-90.94177, 30.0669], [-90.93184, 30.0594], [-90.92242, 30.06836], [-90.92157, 30.06948], [-90.9175, 30.07343], [-90.91834, 30.07424], [-90.91886, 30.0752], [-90.92, 30.07595], [-90.91961, 30.07622], [-90.91868, 30.07519], [-90.91838, 30.07537], [-90.91816, 30.07518], [-90.91744, 30.07567], [-90.91646, 30.07556], [-90.91654, 30.07187], [-90.92015, 30.06838], [-90.92097, 30.06728], [-90.93166, 30.0571], [-90.94497, 30.0671], [-90.94473, 30.06712]]], [[[-90.945, 30.06764], [-90.94567, 30.06775], [-90.94649, 30.06823], [-90.95436, 30.07411], [-90.95342, 30.07439], [-90.94967, 30.07697], [-90.9491, 30.07753], [-90.94891, 30.07811], [-90.94899, 30.07871], [-90.95035, 30.08271], [-90.94878, 30.08313], [-90.94706, 30.08405], [-90.93825, 30.09229], [-90.93681, 30.09317], [-90.92928, 30.09461], [-90.92885, 30.0943], [-90.92867, 30.09395], [-90.93141, 30.09208], [-90.93169, 30.09234], [-90.93203, 30.09229], [-90.93212, 30.09205], [-90.9319, 30.09175], [-90.93204, 30.09165], [-90.93233, 30.09191], [-90.93267, 30.09185], [-90.93276, 30.09161], [-90.93253, 30.09132], [-90.93265, 30.09123], [-90.93295, 30.09149], [-90.93326, 30.09143], [-90.93327, 30.09081], [-90.93358, 30.09108], [-90.93393, 30.09098], [-90.93375, 30.09047], [-90.93388, 30.09008], [-90.93338, 30.09004], [-90.93292, 30.08974], [-90.93265, 30.08997], [-90.93289, 30.09038], [-90.93276, 30.09046], [-90.93243, 30.09018], [-90.93208, 30.0903], [-90.93228, 30.0908], [-90.93214, 30.09089], [-90.93182, 30.09062], [-90.93149, 30.09071], [-90.93143, 30.09096], [-90.93165, 30.09123], [-90.93152, 30.09132], [-90.93123, 30.09105], [-90.93089, 30.09112], [-90.93082, 30.09137], [-90.93103, 30.09165], [-90.93088, 30.09176], [-90.93057, 30.09148], [-90.93024, 30.09155], [-90.93017, 30.0918], [-90.93039, 30.09209], [-90.93021, 30.09222], [-90.92992, 30.09196], [-90.92958, 30.09201], [-90.92949, 30.09225], [-90.92972, 30.09256], [-90.92953, 30.09269], [-90.9292, 30.09241], [-90.92887, 30.09249], [-90.9288, 30.09273], [-90.92904, 30.09303], [-90.92803, 30.09378], [-90.92822, 30.0944], [-90.92682, 30.09487], [-90.92354, 30.09538], [-90.92687, 30.09308], [-90.92692, 30.09276], [-90.92658, 30.09263], [-90.92314, 30.09495], [-90.9229, 30.09548], [-90.91738, 30.09653], [-90.91649, 30.09349], [-90.92343, 30.08887], [-90.92587, 30.09192], [-90.92624, 30.09214], [-90.92669, 30.09213], [-90.92847, 30.09082], [-90.92837, 30.09054], [-90.92805, 30.09049], [-90.92634, 30.09156], [-90.92392, 30.08853], [-90.92401, 30.08809], [-90.92369, 30.08769], [-90.92478, 30.087], [-90.92203, 30.08393], [-90.92248, 30.08352], [-90.92244, 30.08385], [-90.92282, 30.08396], [-90.92396, 30.08317], [-90.92429, 30.08352], [-90.92463, 30.08349], [-90.92473, 30.08322], [-90.92444, 30.08282], [-90.92516, 30.08206], [-90.92517, 30.08177], [-90.94193, 30.07044], [-90.94385, 30.06816], [-90.94427, 30.06785], [-90.945, 30.06764]], [[-90.93716, 30.09088], [-90.9453, 30.08321], [-90.9466, 30.08227], [-90.94798, 30.08162], [-90.94701, 30.07852], [-90.9472, 30.07718], [-90.94799, 30.07605], [-90.95111, 30.07386], [-90.94515, 30.06944], [-90.94323, 30.07166], [-90.92695, 30.08267], [-90.92664, 30.08312], [-90.92642, 30.08415], [-90.92588, 30.08475], [-90.92513, 30.08512], [-90.92409, 30.08522], [-90.92442, 30.08615], [-90.92538, 30.08684], [-90.92582, 30.08754], [-90.92595, 30.08815], [-90.9268, 30.08922], [-90.92754, 30.08889], [-90.92841, 30.08882], [-90.92923, 30.08904], [-90.92999, 30.08964], [-90.93181, 30.08835], [-90.93242, 30.08814], [-90.93328, 30.0881], [-90.9347, 30.08853], [-90.9356, 30.08934], [-90.9359, 30.09087], [-90.93562, 30.09177], [-90.93629, 30.09152], [-90.93716, 30.09088]], [[-90.92216, 30.0918], [-90.91866, 30.09418], [-90.91878, 30.09457], [-90.92159, 30.09397], [-90.92385, 30.09232], [-90.923, 30.09125], [-90.92216, 30.0918]]], [[[-90.95398, 30.07473], [-90.95491, 30.07472], [-90.95759, 30.07655], [-90.95686, 30.07666], [-90.95606, 30.07709], [-90.95527, 30.07823], [-90.95457, 30.07881], [-90.95142, 30.07972], [-90.95079, 30.0802], [-90.95036, 30.08083], [-90.94953, 30.07829], [-90.94966, 30.07776], [-90.95398, 30.07473]], [[-90.9537, 30.07727], [-90.95392, 30.07686], [-90.95286, 30.07759], [-90.95342, 30.07745], [-90.9537, 30.07727]]], [[[-90.9568, 30.08285], [-90.95681, 30.08299], [-90.95683, 30.08411], [-90.95665, 30.08282], [-90.9568, 30.08285]]], [[[-90.9555, 30.08262], [-90.95602, 30.08269], [-90.95662, 30.08717], [-90.95531, 30.0875], [-90.95438, 30.08648], [-90.95298, 30.08683], [-90.95182, 30.0833], [-90.95409, 30.08273], [-90.9555, 30.08262]], [[-90.95443, 30.08518], [-90.95432, 30.0844], [-90.95418, 30.08444], [-90.95443, 30.08518]]], [[[-90.93995, 30.09382], [-90.93838, 30.09313], [-90.94135, 30.09043], [-90.94495, 30.09515], [-90.94292, 30.09603], [-90.94128, 30.09455], [-90.93995, 30.09382]]], [[[-90.93788, 30.09346], [-90.94038, 30.09464], [-90.9424, 30.09635], [-90.93979, 30.09837], [-90.93911, 30.09788], [-90.93569, 30.09763], [-90.92297, 30.10829], [-90.92271, 30.10769], [-90.92699, 30.10429], [-90.92684, 30.10343], [-90.92644, 30.10345], [-90.92282, 30.10624], [-90.92268, 30.10593], [-90.9221, 30.10582], [-90.92007, 30.1073], [-90.92084, 30.10639], [-90.92048, 30.10616], [-90.91998, 30.1065], [-90.91974, 30.10527], [-90.92424, 30.10203], [-90.92435, 30.10177], [-90.92416, 30.10157], [-90.92387, 30.1016], [-90.91999, 30.10438], [-90.91959, 30.10448], [-90.92224, 30.10257], [-90.92227, 30.10227], [-90.92197, 30.10213], [-90.92094, 30.10266], [-90.92238, 30.10163], [-90.92247, 30.10139], [-90.92228, 30.10119], [-90.92202, 30.1012], [-90.92052, 30.10226], [-90.91996, 30.10191], [-90.92277, 30.0999], [-90.92287, 30.09964], [-90.92268, 30.09945], [-90.92239, 30.09948], [-90.91903, 30.10186], [-90.9183, 30.09964], [-90.92163, 30.09735], [-90.9215, 30.09672], [-90.91908, 30.09718], [-90.91782, 30.09806], [-90.91761, 30.09734], [-90.92882, 30.09544], [-90.92742, 30.09647], [-90.92741, 30.09677], [-90.92773, 30.09689], [-90.92923, 30.0959], [-90.92946, 30.09534], [-90.93262, 30.09478], [-90.93, 30.0967], [-90.92941, 30.09693], [-90.92781, 30.09821], [-90.92753, 30.09805], [-90.92713, 30.09818], [-90.92712, 30.09866], [-90.92663, 30.09904], [-90.92681, 30.09936], [-90.92714, 30.09943], [-90.9298, 30.09736], [-90.93036, 30.09715], [-90.93184, 30.09606], [-90.9319, 30.09643], [-90.93223, 30.09676], [-90.93263, 30.09686], [-90.93301, 30.09672], [-90.93356, 30.09628], [-90.93369, 30.09593], [-90.93339, 30.09544], [-90.93291, 30.09528], [-90.93372, 30.09459], [-90.93625, 30.09413], [-90.93788, 30.09346]], [[-90.9371, 30.09587], [-90.9371, 30.09599], [-90.93965, 30.09624], [-90.9378, 30.0954], [-90.93708, 30.09565], [-90.9371, 30.09587]], [[-90.92775, 30.10197], [-90.93076, 30.09944], [-90.93026, 30.09918], [-90.92924, 30.10012], [-90.92778, 30.101], [-90.92693, 30.1011], [-90.92598, 30.10087], [-90.92626, 30.10175], [-90.927, 30.10174], [-90.92775, 30.10197]], [[-90.92479, 30.09956], [-90.92477, 30.09999], [-90.92505, 30.1001], [-90.92491, 30.09987], [-90.92479, 30.09956]], [[-90.92472, 30.09922], [-90.9248, 30.09852], [-90.92525, 30.09772], [-90.92361, 30.09799], [-90.92426, 30.09844], [-90.92472, 30.09922]], [[-90.92007, 30.09896], [-90.92007, 30.09899], [-90.92079, 30.09848], [-90.91996, 30.09862], [-90.92007, 30.09896]]], [[[-90.94925, 30.10066], [-90.95087, 30.10271], [-90.95022, 30.10292], [-90.94336, 30.09645], [-90.94531, 30.0956], [-90.94925, 30.10066]]], [[[-90.94298, 30.0994], [-90.94283, 30.09928], [-90.94409, 30.09829], [-90.94422, 30.09841], [-90.94298, 30.0994]]], [[[-90.94575, 30.09986], [-90.94589, 30.1], [-90.94482, 30.10085], [-90.94466, 30.10073], [-90.94575, 30.09986]]], [[[-90.9396, 30.09896], [-90.93997, 30.09896], [-90.94282, 30.09675], [-90.9436, 30.09746], [-90.94367, 30.09789], [-90.94214, 30.09911], [-90.94214, 30.09947], [-90.94306, 30.10003], [-90.94464, 30.09881], [-90.94478, 30.09894], [-90.94345, 30.10001], [-90.94348, 30.10036], [-90.94387, 30.1004], [-90.9452, 30.09934], [-90.94533, 30.09946], [-90.94396, 30.10056], [-90.94399, 30.10092], [-90.94486, 30.10149], [-90.94631, 30.10039], [-90.94677, 30.10045], [-90.94962, 30.10316], [-90.94757, 30.10461], [-90.94686, 30.10405], [-90.94649, 30.10408], [-90.94643, 30.10442], [-90.94713, 30.105], [-90.94677, 30.10533], [-90.94083, 30.10066], [-90.94055, 30.1006], [-90.94035, 30.10075], [-90.9404, 30.10105], [-90.94495, 30.10463], [-90.94456, 30.10464], [-90.9445, 30.10498], [-90.94585, 30.1061], [-90.94425, 30.10555], [-90.94408, 30.10586], [-90.94374, 30.10581], [-90.94356, 30.10607], [-90.94437, 30.10683], [-90.94361, 30.10702], [-90.94212, 30.10588], [-90.94182, 30.10589], [-90.94168, 30.1061], [-90.94087, 30.10549], [-90.94024, 30.10542], [-90.94, 30.1056], [-90.94007, 30.10588], [-90.94174, 30.10716], [-90.94139, 30.10762], [-90.94191, 30.10811], [-90.94165, 30.10871], [-90.94075, 30.10802], [-90.94039, 30.10821], [-90.94004, 30.10815], [-90.93985, 30.10837], [-90.94079, 30.10929], [-90.94074, 30.10957], [-90.94111, 30.10991], [-90.93989, 30.11263], [-90.93967, 30.11362], [-90.93977, 30.11445], [-90.9406, 30.11653], [-90.94125, 30.12537], [-90.94096, 30.12621], [-90.93887, 30.12936], [-90.93817, 30.12985], [-90.93606, 30.13055], [-90.9361, 30.12875], [-90.93736, 30.12833], [-90.93935, 30.12516], [-90.9387, 30.11674], [-90.93795, 30.11496], [-90.93776, 30.114], [-90.93791, 30.11258], [-90.93895, 30.11015], [-90.93822, 30.10934], [-90.93795, 30.10862], [-90.93809, 30.10769], [-90.93864, 30.10699], [-90.93814, 30.10619], [-90.93809, 30.10543], [-90.93837, 30.10472], [-90.93912, 30.10405], [-90.93994, 30.10378], [-90.94108, 30.10383], [-90.93875, 30.10189], [-90.93844, 30.10119], [-90.9385, 30.10032], [-90.93806, 30.09999], [-90.93669, 30.09984], [-90.92272, 30.11156], [-90.92307, 30.11352], [-90.92113, 30.11349], [-90.92068, 30.11096], [-90.93599, 30.09812], [-90.93891, 30.0984], [-90.9396, 30.09896]]], [[[-90.94523, 30.10484], [-90.94632, 30.10571], [-90.94507, 30.10472], [-90.94523, 30.10484]]], [[[-90.94414, 30.10745], [-90.94451, 30.10736], [-90.94428, 30.10756], [-90.94414, 30.10745]]], [[[-90.928, 30.05656], [-90.92724, 30.05599], [-90.92729, 30.05383], [-90.93119, 30.05675], [-90.9205, 30.06692], [-90.91965, 30.06805], [-90.91656, 30.07104], [-90.91661, 30.06851], [-90.91909, 30.0658], [-90.92578, 30.05943], [-90.92717, 30.05945], [-90.9272, 30.05808], [-90.92844, 30.0569], [-90.928, 30.05656]]], [[[-90.9168, 30.05929], [-90.91733, 30.0593], [-90.91679, 30.05998], [-90.9168, 30.05929]]], [[[-90.91701, 30.06065], [-90.91808, 30.05931], [-90.92038, 30.05935], [-90.91671, 30.06395], [-90.91677, 30.06095], [-90.91701, 30.06065]]], [[[-90.92333, 30.0805], [-90.92325, 30.08054], [-90.92311, 30.08041], [-90.92322, 30.08035], [-90.92333, 30.0805]]], [[[-90.91223, 30.08376], [-90.91144, 30.081], [-90.90978, 30.07722], [-90.91121, 30.07724], [-90.91235, 30.0794], [-90.91261, 30.0808], [-90.91218, 30.08286], [-90.91401, 30.08863], [-90.91328, 30.08759], [-90.91312, 30.08617], [-90.91223, 30.08376]]], [[[-90.92221, 30.0829], [-90.9242, 30.08154], [-90.92427, 30.08163], [-90.92261, 30.08274], [-90.92221, 30.0829]]], [[[-90.91397, 30.08467], [-90.91393, 30.08475], [-90.91348, 30.08343], [-90.91374, 30.08392], [-90.91397, 30.08467]]], [[[-90.91449, 30.08645], [-90.91449, 30.08664], [-90.91415, 30.08549], [-90.91423, 30.08555], [-90.91449, 30.08645]]], [[[-90.9061, 30.08859], [-90.90583, 30.08774], [-90.90583, 30.08771], [-90.90588, 30.08783], [-90.9061, 30.08859]]], [[[-90.91467, 30.08723], [-90.91618, 30.09212], [-90.9219, 30.08834], [-90.9222, 30.08863], [-90.92323, 30.08798], [-90.92338, 30.08822], [-90.91632, 30.09293], [-90.91467, 30.08723]]], [[[-90.90592, 30.09096], [-90.90575, 30.09147], [-90.90586, 30.0898], [-90.90598, 30.09046], [-90.90592, 30.09096]]], [[[-90.91536, 30.09354], [-90.91419, 30.09005], [-90.91409, 30.08891], [-90.91439, 30.09003], [-90.91485, 30.09012], [-90.91682, 30.09684], [-90.91601, 30.09698], [-90.91605, 30.09536], [-90.9156, 30.09536], [-90.91536, 30.09354]]], [[[-90.90648, 30.09155], [-90.90655, 30.08956], [-90.90696, 30.09041], [-90.90684, 30.09153], [-90.90764, 30.09307], [-90.90821, 30.09524], [-90.90731, 30.09522], [-90.90648, 30.09155]]], [[[-90.90574, 30.09231], [-90.90595, 30.09224], [-90.90658, 30.0948], [-90.90568, 30.09501], [-90.90574, 30.09231]]], [[[-90.91708, 30.1009], [-90.91615, 30.09759], [-90.91668, 30.0975], [-90.91673, 30.09778], [-90.91715, 30.09799], [-90.91854, 30.10235], [-90.9205, 30.11348], [-90.91947, 30.11346], [-90.91863, 30.10846], [-90.91768, 30.10445], [-90.91743, 30.10204], [-90.91708, 30.1009]]], [[[-90.9195, 30.10276], [-90.91991, 30.10248], [-90.92048, 30.10305], [-90.91946, 30.10375], [-90.91928, 30.10286], [-90.9195, 30.10276]]], [[[-90.92015, 30.10795], [-90.92107, 30.10728], [-90.92125, 30.10745], [-90.9202, 30.10829], [-90.92015, 30.10795]]], [[[-90.92233, 30.10883], [-90.92191, 30.10853], [-90.92164, 30.10864], [-90.92159, 30.10889], [-90.92135, 30.10878], [-90.92231, 30.10802], [-90.92233, 30.10883]]], [[[-90.92185, 30.10923], [-90.92173, 30.10905], [-90.92188, 30.1092], [-90.92185, 30.10923]]], [[[-90.92119, 30.10978], [-90.92103, 30.10964], [-90.92127, 30.10944], [-90.9214, 30.10961], [-90.92119, 30.10978]]], [[[-90.92049, 30.10993], [-90.92074, 30.11016], [-90.92056, 30.11031], [-90.92049, 30.10993]]], [[[-90.92628, 30.12259], [-90.92585, 30.12258], [-90.92587, 30.12196], [-90.92606, 30.12227], [-90.92628, 30.12259]]]]}, "properties": {"kind": "pv", "area_km2": 23.16, "mw": 1157.9}}, {"type": "Feature", "geometry": {"type": "Point", "coordinates": [-90.96544, 30.0874]}, "properties": {"kind": "turbine", "i": 0, "mw": 6.0, "hub_m": 120.0, "rotor_m": 150.0}}, {"type": "Feature", "geometry": {"type": "Point", "coordinates": [-90.94278, 30.08375]}, "properties": {"kind": "turbine", "i": 1, "mw": 6.0, "hub_m": 120.0, "rotor_m": 150.0}}, {"type": "Feature", "geometry": {"type": "Point", "coordinates": [-90.96902, 30.09733]}, "properties": {"kind": "turbine", "i": 2, "mw": 6.0, "hub_m": 120.0, "rotor_m": 150.0}}, {"type": "Feature", "geometry": {"type": "Point", "coordinates": [-90.95056, 30.07399]}, "properties": {"kind": "turbine", "i": 3, "mw": 6.0, "hub_m": 120.0, "rotor_m": 150.0}}, {"type": "Feature", "geometry": {"type": "Point", "coordinates": [-90.97321, 30.07763]}, "properties": {"kind": "turbine", "i": 4, "mw": 6.0, "hub_m": 120.0, "rotor_m": 150.0}}, {"type": "Feature", "geometry": {"type": "Point", "coordinates": [-90.9768, 30.08757]}, "properties": {"kind": "turbine", "i": 5, "mw": 6.0, "hub_m": 120.0, "rotor_m": 150.0}}, {"type": "Feature", "geometry": {"type": "Point", "coordinates": [-90.96199, 30.07087]}, "properties": {"kind": "turbine", "i": 6, "mw": 6.0, "hub_m": 120.0, "rotor_m": 150.0}}, {"type": "Feature", "geometry": {"type": "Point", "coordinates": [-90.93859, 30.10345]}, "properties": {"kind": "turbine", "i": 7, "mw": 6.0, "hub_m": 120.0, "rotor_m": 150.0}}, {"type": "Feature", "geometry": {"type": "Point", "coordinates": [-90.98457, 30.07781]}, "properties": {"kind": "turbine", "i": 8, "mw": 6.0, "hub_m": 120.0, "rotor_m": 150.0}}, {"type": "Feature", "geometry": {"type": "Point", "coordinates": [-90.9772, 30.06781]}, "properties": {"kind": "turbine", "i": 9, "mw": 6.0, "hub_m": 120.0, "rotor_m": 150.0}}, {"type": "Feature", "geometry": {"type": "Point", "coordinates": [-90.9584, 30.06093]}, "properties": {"kind": "turbine", "i": 10, "mw": 6.0, "hub_m": 120.0, "rotor_m": 150.0}}, {"type": "Feature", "geometry": {"type": "Point", "coordinates": [-90.98816, 30.08775]}, "properties": {"kind": "turbine", "i": 11, "mw": 6.0, "hub_m": 120.0, "rotor_m": 150.0}}, {"type": "Feature", "geometry": {"type": "Point", "coordinates": [-90.93163, 30.07369]}, "properties": {"kind": "turbine", "i": 12, "mw": 6.0, "hub_m": 120.0, "rotor_m": 150.0}}, {"type": "Feature", "geometry": {"type": "Point", "coordinates": [-90.92764, 30.08351]}, "properties": {"kind": "turbine", "i": 13, "mw": 6.0, "hub_m": 120.0, "rotor_m": 150.0}}, {"type": "Feature", "geometry": {"type": "Point", "coordinates": [-90.94705, 30.06076]}, "properties": {"kind": "turbine", "i": 14, "mw": 6.0, "hub_m": 120.0, "rotor_m": 150.0}}, {"type": "Feature", "geometry": {"type": "Point", "coordinates": [-90.93562, 30.06387]}, "properties": {"kind": "turbine", "i": 15, "mw": 6.0, "hub_m": 120.0, "rotor_m": 150.0}}, {"type": "Feature", "geometry": {"type": "Point", "coordinates": [-90.96983, 30.05782]}, "properties": {"kind": "turbine", "i": 16, "mw": 6.0, "hub_m": 120.0, "rotor_m": 150.0}}, {"type": "Feature", "geometry": {"type": "Point", "coordinates": [-90.96862, 30.11709]}, "properties": {"kind": "turbine", "i": 17, "mw": 6.0, "hub_m": 120.0, "rotor_m": 150.0}}, {"type": "Feature", "geometry": {"type": "Point", "coordinates": [-90.98856, 30.06799]}, "properties": {"kind": "turbine", "i": 18, "mw": 6.0, "hub_m": 120.0, "rotor_m": 150.0}}, {"type": "Feature", "geometry": {"type": "Point", "coordinates": [-90.99593, 30.07798]}, "properties": {"kind": "turbine", "i": 19, "mw": 6.0, "hub_m": 120.0, "rotor_m": 150.0}}, {"type": "Feature", "geometry": {"type": "Point", "coordinates": [-90.93831, 30.11662]}, "properties": {"kind": "turbine", "i": 20, "mw": 6.0, "hub_m": 120.0, "rotor_m": 150.0}}, {"type": "Feature", "geometry": {"type": "Point", "coordinates": [-90.92709, 30.10986]}, "properties": {"kind": "turbine", "i": 21, "mw": 6.0, "hub_m": 120.0, "rotor_m": 150.0}}, {"type": "Feature", "geometry": {"type": "Point", "coordinates": [-90.98119, 30.05799]}, "properties": {"kind": "turbine", "i": 22, "mw": 6.0, "hub_m": 120.0, "rotor_m": 150.0}}, {"type": "Feature", "geometry": {"type": "Point", "coordinates": [-90.95104, 30.05094]}, "properties": {"kind": "turbine", "i": 23, "mw": 6.0, "hub_m": 120.0, "rotor_m": 150.0}}, {"type": "Feature", "geometry": {"type": "Point", "coordinates": [-90.96246, 30.04782]}, "properties": {"kind": "turbine", "i": 24, "mw": 6.0, "hub_m": 120.0, "rotor_m": 150.0}}, {"type": "Feature", "geometry": {"type": "Point", "coordinates": [-90.96084, 30.12686]}, "properties": {"kind": "turbine", "i": 25, "mw": 6.0, "hub_m": 120.0, "rotor_m": 150.0}}]}