{"type": "FeatureCollection", "features": [{"type": "Feature", "geometry": {"type": "MultiPolygon", "coordinates": [[[[-99.49414, 36.44286], [-99.49442, 36.4429], [-99.49444, 36.44626], [-99.48974, 36.44622], [-99.49262, 36.44207], [-99.49414, 36.44286]]], [[[-99.4946, 36.43583], [-99.49114, 36.43767], [-99.48918, 36.43922], [-99.48425, 36.44613], [-99.48215, 36.44611], [-99.48207, 36.43571], [-99.4946, 36.43583]]], [[[-99.49466, 36.43089], [-99.49494, 36.43131], [-99.49238, 36.4319], [-99.48208, 36.43185], [-99.48217, 36.42149], [-99.48994, 36.42157], [-99.49329, 36.42484], [-99.49508, 36.42738], [-99.49396, 36.42901], [-99.49402, 36.42997], [-99.49466, 36.43089]]], [[[-99.4822, 36.4565], [-99.48323, 36.45565], [-99.48371, 36.45451], [-99.48583, 36.45272], [-99.48767, 36.45005], [-99.49241, 36.45012], [-99.49129, 36.45124], [-99.48981, 36.45186], [-99.48817, 36.45373], [-99.4838, 36.45612], [-99.4822, 36.45673], [-99.4822, 36.4565]]], [[[-99.45581, 36.45482], [-99.45495, 36.45393], [-99.45286, 36.45302], [-99.45275, 36.45189], [-99.45204, 36.45103], [-99.44993, 36.45048], [-99.44945, 36.44996], [-99.45772, 36.44994], [-99.45657, 36.45108], [-99.45646, 36.45234], [-99.45753, 36.45367], [-99.45921, 36.45407], [-99.4592, 36.45651], [-99.45581, 36.45482]]], [[[-99.47668, 36.45681], [-99.47657, 36.45619], [-99.47741, 36.45656], [-99.47742, 36.45808], [-99.47595, 36.45835], [-99.47668, 36.45681]]], [[[-99.47043, 36.45305], [-99.47256, 36.45497], [-99.4717, 36.45555], [-99.47113, 36.45662], [-99.4713, 36.45782], [-99.4721, 36.45869], [-99.46872, 36.45865], [-99.46884, 36.45747], [-99.46818, 36.4564], [-99.4669, 36.45579], [-99.46538, 36.45582], [-99.46494, 36.45486], [-99.464, 36.45413], [-99.46402, 36.44994], [-99.46822, 36.44995], [-99.47043, 36.45305]]], [[[-99.47736, 36.44609], [-99.47164, 36.44609], [-99.46928, 36.44267], [-99.47284, 36.44269], [-99.4744, 36.44186], [-99.47734, 36.44286], [-99.47736, 36.44609]]], [[[-99.46402, 36.44607], [-99.46401, 36.44314], [-99.46605, 36.44608], [-99.46402, 36.44607]]], [[[-99.47436, 36.43577], [-99.47402, 36.4367], [-99.47348, 36.4371], [-99.47352, 36.43569], [-99.47507, 36.43569], [-99.47454, 36.4363], [-99.47436, 36.43577]]], [[[-99.46869, 36.43716], [-99.46652, 36.43618], [-99.4649, 36.43628], [-99.46434, 36.43559], [-99.46873, 36.43565], [-99.46869, 36.43716]]], [[[-99.44716, 36.4461], [-99.44798, 36.44494], [-99.44829, 36.44346], [-99.44793, 36.44212], [-99.44706, 36.44107], [-99.44832, 36.44044], [-99.44892, 36.4415], [-99.44991, 36.44209], [-99.45124, 36.44224], [-99.45235, 36.44196], [-99.45339, 36.44119], [-99.45382, 36.44024], [-99.45371, 36.4393], [-99.45296, 36.43817], [-99.45466, 36.43734], [-99.45536, 36.43912], [-99.45618, 36.43987], [-99.45755, 36.44037], [-99.4592, 36.44021], [-99.45924, 36.44607], [-99.44716, 36.4461]]], [[[-99.44654, 36.43553], [-99.44883, 36.43554], [-99.44588, 36.43699], [-99.44586, 36.43553], [-99.44654, 36.43553]]], [[[-99.45347, 36.42112], [-99.45926, 36.42121], [-99.4592, 36.4263], [-99.45721, 36.42624], [-99.45769, 36.42484], [-99.45715, 36.42319], [-99.4564, 36.42237], [-99.45527, 36.42193], [-99.45354, 36.42211], [-99.45229, 36.42308], [-99.45192, 36.42457], [-99.45248, 36.42601], [-99.45044, 36.42592], [-99.44869, 36.42488], [-99.45189, 36.42171], [-99.45269, 36.42111], [-99.45347, 36.42112]]], [[[-99.45045, 36.43138], [-99.45045, 36.43049], [-99.45384, 36.43082], [-99.45562, 36.42983], [-99.4558, 36.43092], [-99.45644, 36.43169], [-99.45042, 36.43167], [-99.45045, 36.43138]]], [[[-99.465, 36.42129], [-99.46595, 36.4213], [-99.46593, 36.42208], [-99.46501, 36.42297], [-99.4646, 36.42453], [-99.46401, 36.42453], [-99.46404, 36.42129], [-99.465, 36.42129]]], [[[-99.47249, 36.41663], [-99.47214, 36.4175], [-99.46406, 36.41742], [-99.46406, 36.41603], [-99.47087, 36.41527], [-99.47743, 36.41592], [-99.47741, 36.41756], [-99.47693, 36.41756], [-99.47646, 36.41647], [-99.47512, 36.41575], [-99.47373, 36.41581], [-99.47249, 36.41663]]], [[[-99.46735, 36.42843], [-99.46829, 36.4284], [-99.46826, 36.43177], [-99.46654, 36.43175], [-99.46658, 36.43084], [-99.46604, 36.42989], [-99.46398, 36.42908], [-99.46398, 36.42839], [-99.46735, 36.42843]]], [[[-99.47739, 36.44996], [-99.4774, 36.45173], [-99.47573, 36.4512], [-99.47434, 36.44996], [-99.47739, 36.44996]]], [[[-99.47645, 36.42507], [-99.47585, 36.42395], [-99.47737, 36.42376], [-99.47729, 36.43183], [-99.47305, 36.43182], [-99.47307, 36.42868], [-99.47449, 36.42875], [-99.47583, 36.42803], [-99.47647, 36.42654], [-99.47645, 36.42507]]], [[[-99.45574, 36.42711], [-99.45557, 36.42731], [-99.45543, 36.42714], [-99.45579, 36.42707], [-99.45574, 36.42711]]]]}, "properties": {"kind": "windland", "area_km2": 4.62}}, {"type": "Feature", "geometry": {"type": "MultiPolygon", "coordinates": [[[[-99.47102, 36.42864], [-99.47491, 36.42863], [-99.47402, 36.4288], [-99.47307, 36.42868], [-99.47305, 36.43182], [-99.47729, 36.43183], [-99.47732, 36.42862], [-99.47938, 36.42861], [-99.47934, 36.43349], [-99.47098, 36.43346], [-99.47102, 36.42864]]], [[[-99.48005, 36.42861], [-99.48211, 36.4286], [-99.48214, 36.43351], [-99.48, 36.4335], [-99.48005, 36.42861]]], [[[-99.47144, 36.43647], [-99.47147, 36.43401], [-99.47933, 36.43404], [-99.47935, 36.43666], [-99.47912, 36.43666], [-99.47912, 36.4369], [-99.47503, 36.43699], [-99.47454, 36.4363], [-99.47507, 36.43569], [-99.47352, 36.43569], [-99.47333, 36.43765], [-99.47229, 36.43766], [-99.4723, 36.43648], [-99.47144, 36.43647]]], [[[-99.48214, 36.43405], [-99.48209, 36.43762], [-99.48003, 36.43762], [-99.48, 36.43404], [-99.48214, 36.43405]]]]}, "properties": {"kind": "pv", "area_km2": 0.66, "mw": 33.1}}, {"type": "Feature", "geometry": {"type": "Point", "coordinates": [-99.47574, 36.43051]}, "properties": {"kind": "turbine", "i": 0, "mw": 6.0, "hub_m": 120.0, "rotor_m": 150.0}}, {"type": "Feature", "geometry": {"type": "Point", "coordinates": [-99.47582, 36.44368]}, "properties": {"kind": "turbine", "i": 1, "mw": 6.0, "hub_m": 120.0, "rotor_m": 150.0}}, {"type": "Feature", "geometry": {"type": "Point", "coordinates": [-99.45543, 36.44047]}, "properties": {"kind": "turbine", "i": 2, "mw": 6.0, "hub_m": 120.0, "rotor_m": 150.0}}, {"type": "Feature", "geometry": {"type": "Point", "coordinates": [-99.48802, 36.44034]}, "properties": {"kind": "turbine", "i": 3, "mw": 6.0, "hub_m": 120.0, "rotor_m": 150.0}}, {"type": "Feature", "geometry": {"type": "Point", "coordinates": [-99.46773, 36.45359]}, "properties": {"kind": "turbine", "i": 4, "mw": 6.0, "hub_m": 120.0, "rotor_m": 150.0}}]}