{"type": "FeatureCollection", "features": [{"type": "Feature", "geometry": {"type": "MultiPolygon", "coordinates": [[[[3.65222, 51.31162], [3.65357, 51.31236], [3.65414, 51.31332], [3.65337, 51.31687], [3.65592, 51.31656], [3.65918, 51.31697], [3.66015, 51.31657], [3.65863, 51.31577], [3.65636, 51.31372], [3.65542, 51.31112], [3.65236, 51.31022], [3.64933, 51.31095], [3.65222, 51.31162]]], [[[3.70218, 51.31019], [3.70218, 51.31019], [3.70237, 51.3102], [3.70221, 51.31013], [3.70218, 51.31019]]], [[[3.70231, 51.30992], [3.70226, 51.31001], [3.70232, 51.31002], [3.70231, 51.30992]]], [[[3.72208, 51.30509], [3.72256, 51.30517], [3.72203, 51.30426], [3.72117, 51.30494], [3.72208, 51.30509]]], [[[3.6698, 51.36311], [3.67093, 51.36297], [3.66847, 51.36204], [3.66718, 51.35944], [3.66559, 51.35964], [3.66542, 51.36106], [3.66409, 51.36253], [3.66425, 51.36288], [3.66594, 51.36385], [3.6698, 51.36311]]], [[[3.66431, 51.35424], [3.66432, 51.35557], [3.66674, 51.35483], [3.67071, 51.35497], [3.67024, 51.3541], [3.66426, 51.35352], [3.66431, 51.35424]]], [[[3.66642, 51.34922], [3.66565, 51.34924], [3.66534, 51.34972], [3.6707, 51.35025], [3.66968, 51.34942], [3.66642, 51.34922]]], [[[3.68604, 51.36128], [3.68512, 51.36141], [3.68592, 51.36302], [3.68664, 51.36288], [3.68604, 51.36128]]], [[[3.75227, 51.32122], [3.75292, 51.32066], [3.7509, 51.32156], [3.75071, 51.32346], [3.75128, 51.32338], [3.75227, 51.32122]]], [[[3.75014, 51.26277], [3.75219, 51.26509], [3.75284, 51.26503], [3.75414, 51.26305], [3.75387, 51.26272], [3.75014, 51.26277]]], [[[3.76695, 51.32699], [3.76482, 51.32776], [3.76557, 51.32849], [3.76658, 51.32845], [3.76763, 51.32678], [3.76695, 51.32699]]], [[[3.76959, 51.32095], [3.76937, 51.32179], [3.771, 51.32088], [3.77009, 51.32028], [3.76959, 51.32095]]], [[[3.76889, 51.31292], [3.76931, 51.31216], [3.76733, 51.31265], [3.76844, 51.31393], [3.76889, 51.31292]]], [[[3.76415, 51.30428], [3.76383, 51.30531], [3.76747, 51.30513], [3.76889, 51.30448], [3.76635, 51.30466], [3.76415, 51.30428]]], [[[3.75489, 51.30182], [3.75735, 51.30134], [3.75991, 51.30148], [3.7609, 51.30095], [3.7613, 51.29972], [3.76247, 51.29858], [3.7559, 51.29912], [3.75447, 51.29969], [3.75245, 51.30203], [3.74842, 51.30346], [3.74775, 51.30438], [3.75056, 51.30364], [3.75489, 51.30182]]], [[[3.76185, 51.29421], [3.7606, 51.29485], [3.76392, 51.29454], [3.7627, 51.29442], [3.76185, 51.29421]]], [[[3.78402, 51.26548], [3.7843, 51.26553], [3.78432, 51.26552], [3.78401, 51.26547], [3.78402, 51.26548]]], [[[3.76656, 51.27054], [3.76736, 51.27053], [3.76522, 51.26844], [3.76446, 51.2691], [3.76587, 51.27057], [3.76656, 51.27054]]], [[[3.64565, 51.36867], [3.64643, 51.36885], [3.64866, 51.36824], [3.65058, 51.36821], [3.65215, 51.36718], [3.65301, 51.36521], [3.65061, 51.36152], [3.6488, 51.36216], [3.64695, 51.3623], [3.64527, 51.36184], [3.64424, 51.36093], [3.64284, 51.36189], [3.64107, 51.36219], [3.64308, 51.36561], [3.64565, 51.36867]]], [[[3.63861, 51.35688], [3.64096, 51.35784], [3.64298, 51.35818], [3.64435, 51.35925], [3.64717, 51.35777], [3.65148, 51.35716], [3.65284, 51.35639], [3.65266, 51.35608], [3.64829, 51.3553], [3.64294, 51.35501], [3.64068, 51.35417], [3.63732, 51.35419], [3.63861, 51.35688]]], [[[3.64096, 51.3448], [3.63978, 51.34468], [3.63918, 51.34656], [3.64246, 51.34704], [3.64431, 51.34784], [3.64915, 51.34687], [3.64865, 51.3462], [3.64541, 51.34591], [3.64281, 51.34491], [3.64096, 51.3448]]], [[[3.63608, 51.32853], [3.63415, 51.33033], [3.63409, 51.33129], [3.63704, 51.32799], [3.63635, 51.32763], [3.63608, 51.32853]]], [[[3.6437, 51.33105], [3.6419, 51.33045], [3.64086, 51.33161], [3.64328, 51.33307], [3.64394, 51.33481], [3.64648, 51.33407], [3.64656, 51.33229], [3.64602, 51.33172], [3.6437, 51.33105]]], [[[3.65506, 51.29456], [3.65629, 51.29525], [3.65846, 51.29738], [3.65593, 51.29361], [3.65506, 51.29456]]], [[[3.66245, 51.29339], [3.66331, 51.29317], [3.66225, 51.29309], [3.66245, 51.29339]]], [[[3.66935, 51.29093], [3.66823, 51.29193], [3.67544, 51.29009], [3.67512, 51.28927], [3.67364, 51.28843], [3.67247, 51.28695], [3.67097, 51.28752], [3.66983, 51.28908], [3.66935, 51.29093]]], [[[3.66797, 51.29784], [3.66867, 51.29751], [3.66677, 51.29642], [3.6648, 51.29695], [3.66528, 51.29772], [3.66602, 51.29798], [3.66797, 51.29784]]], [[[3.64504, 51.30755], [3.64415, 51.30765], [3.64473, 51.30792], [3.64736, 51.30729], [3.64504, 51.30755]]], [[[3.70825, 51.27572], [3.70683, 51.27525], [3.70225, 51.27617], [3.70155, 51.2771], [3.70206, 51.27745], [3.70469, 51.27611], [3.7069, 51.27587], [3.70861, 51.27607], [3.70825, 51.27572]]], [[[3.68441, 51.34412], [3.686, 51.34378], [3.68497, 51.34214], [3.68086, 51.34195], [3.6784, 51.34089], [3.67516, 51.34114], [3.68022, 51.34539], [3.68209, 51.34558], [3.68441, 51.34412]]], [[[3.68124, 51.35131], [3.68278, 51.35005], [3.68211, 51.34949], [3.68043, 51.34932], [3.67943, 51.35021], [3.68124, 51.35131]]], [[[3.68678, 51.35338], [3.68685, 51.35313], [3.68689, 51.35304], [3.68656, 51.35331], [3.68678, 51.35338]]], [[[3.67476, 51.33518], [3.67558, 51.33566], [3.67877, 51.33569], [3.67766, 51.33414], [3.67583, 51.33456], [3.67362, 51.33452], [3.67476, 51.33518]]], [[[3.66613, 51.33219], [3.66798, 51.3329], [3.66722, 51.33215], [3.66535, 51.33163], [3.66337, 51.32996], [3.66124, 51.32904], [3.65944, 51.3269], [3.65636, 51.32661], [3.65557, 51.32714], [3.65868, 51.32809], [3.66076, 51.33012], [3.66277, 51.33084], [3.66414, 51.33193], [3.66613, 51.33219]]], [[[3.69637, 51.34076], [3.69489, 51.34093], [3.69544, 51.34182], [3.6963, 51.34166], [3.69675, 51.34068], [3.69637, 51.34076]]], [[[3.69903, 51.35026], [3.69897, 51.35019], [3.699, 51.35033], [3.69903, 51.35026]]], [[[3.70252, 51.30851], [3.70246, 51.30848], [3.70248, 51.30859], [3.70252, 51.30851]]], [[[3.69221, 51.30571], [3.69575, 51.30491], [3.69982, 51.30566], [3.69943, 51.30348], [3.69782, 51.30163], [3.69784, 51.30026], [3.69919, 51.29856], [3.70162, 51.2975], [3.70287, 51.2954], [3.70231, 51.29317], [3.70349, 51.29156], [3.70143, 51.29119], [3.69964, 51.29041], [3.69617, 51.29302], [3.69791, 51.29369], [3.69926, 51.29478], [3.69983, 51.29612], [3.69953, 51.29751], [3.69805, 51.29893], [3.69484, 51.30042], [3.69536, 51.30158], [3.69507, 51.30317], [3.69349, 51.30491], [3.69164, 51.30583], [3.69169, 51.30601], [3.69221, 51.30571]]], [[[3.67491, 51.31771], [3.67556, 51.31738], [3.67419, 51.31677], [3.67455, 51.31714], [3.67491, 51.31771]]], [[[3.66608, 51.30676], [3.66662, 51.3075], [3.66832, 51.30754], [3.67082, 51.30705], [3.66813, 51.30643], [3.66608, 51.30676]]], [[[3.68614, 51.28409], [3.68345, 51.28454], [3.68388, 51.28529], [3.68591, 51.2863], [3.68798, 51.28438], [3.68614, 51.28409]]], [[[3.68594, 51.31312], [3.68966, 51.3175], [3.69127, 51.31726], [3.69101, 51.31489], [3.69015, 51.31392], [3.68627, 51.31265], [3.68415, 51.31122], [3.68228, 51.31117], [3.6824, 51.31164], [3.68594, 51.31312]]], [[[3.74277, 51.28924], [3.744, 51.29124], [3.74373, 51.29281], [3.74636, 51.2915], [3.74737, 51.29015], [3.74909, 51.2892], [3.7481, 51.28846], [3.74559, 51.28845], [3.74344, 51.28779], [3.74172, 51.28799], [3.74277, 51.28924]]], [[[3.74943, 51.28908], [3.74999, 51.28894], [3.74861, 51.28857], [3.74934, 51.28912], [3.74943, 51.28908]]], [[[3.74028, 51.28082], [3.73972, 51.28055], [3.73883, 51.28066], [3.73953, 51.2809], [3.74028, 51.28082]]], [[[3.74609, 51.27226], [3.74601, 51.27225], [3.74595, 51.27225], [3.74609, 51.27226]]], [[[3.7137, 51.28399], [3.71392, 51.28424], [3.71407, 51.28423], [3.71381, 51.28376], [3.7137, 51.28399]]], [[[3.7267, 51.29372], [3.72579, 51.29158], [3.72481, 51.2914], [3.72595, 51.29416], [3.7267, 51.29372]]], [[[3.70891, 51.29016], [3.7094, 51.2902], [3.70957, 51.29023], [3.70923, 51.28987], [3.70891, 51.29016]]], [[[3.71483, 51.33678], [3.71481, 51.3367], [3.71475, 51.33667], [3.71483, 51.33678]]], [[[3.70557, 51.33916], [3.70691, 51.33967], [3.70761, 51.33854], [3.70684, 51.33885], [3.70557, 51.33916]]], [[[3.73084, 51.28397], [3.73084, 51.28394], [3.73003, 51.2844], [3.73086, 51.28426], [3.73084, 51.28397]]], [[[3.73539, 51.28028], [3.73522, 51.28044], [3.73576, 51.28038], [3.73554, 51.28033], [3.73539, 51.28028]]], [[[3.81658, 51.31356], [3.81597, 51.31325], [3.8158, 51.3148], [3.81465, 51.3161], [3.81578, 51.31694], [3.81782, 51.31574], [3.81658, 51.31356]]], [[[3.81498, 51.30431], [3.8159, 51.30378], [3.81422, 51.30295], [3.81459, 51.30404], [3.81498, 51.30431]]], [[[3.80043, 51.2824], [3.80022, 51.28275], [3.80239, 51.28316], [3.80957, 51.28325], [3.80906, 51.28127], [3.80684, 51.2825], [3.80482, 51.28296], [3.80281, 51.28296], [3.80043, 51.2824]]], [[[3.81309, 51.27676], [3.81401, 51.27638], [3.81549, 51.27605], [3.81368, 51.2752], [3.81272, 51.27696], [3.81309, 51.27676]]], [[[3.80623, 51.32686], [3.80647, 51.32633], [3.80562, 51.32614], [3.80593, 51.32647], [3.80623, 51.32686]]], [[[3.7979, 51.30581], [3.79782, 51.30575], [3.7977, 51.30565], [3.7979, 51.30587], [3.7979, 51.30581]]], [[[3.79721, 51.30503], [3.79672, 51.3049], [3.79753, 51.30548], [3.79732, 51.30523], [3.79721, 51.30503]]], [[[3.79564, 51.30001], [3.79634, 51.30098], [3.79938, 51.30142], [3.80036, 51.29943], [3.79883, 51.29932], [3.79564, 51.30001]]], [[[3.80641, 51.30896], [3.80506, 51.30835], [3.80426, 51.30997], [3.80579, 51.31037], [3.80712, 51.30939], [3.80641, 51.30896]]], [[[3.79587, 51.31208], [3.79599, 51.31197], [3.79563, 51.31187], [3.79558, 51.31202], [3.79587, 51.31208]]], [[[3.78152, 51.28352], [3.78223, 51.28299], [3.78269, 51.28274], [3.78072, 51.28273], [3.77998, 51.28391], [3.78085, 51.28433], [3.78152, 51.28352]]], [[[3.77639, 51.28711], [3.77662, 51.28716], [3.77642, 51.28706], [3.77639, 51.28711]]], [[[3.77966, 51.27788], [3.77894, 51.27888], [3.78068, 51.27887], [3.78314, 51.27635], [3.7827, 51.2756], [3.78128, 51.27624], [3.77966, 51.27788]]], [[[3.78312, 51.27722], [3.78313, 51.27679], [3.7811, 51.27887], [3.78309, 51.27889], [3.78312, 51.27722]]], [[[3.7998, 51.2719], [3.79822, 51.27263], [3.79841, 51.27492], [3.79967, 51.27595], [3.80134, 51.27535], [3.80149, 51.27378], [3.80247, 51.2724], [3.8019, 51.27161], [3.80086, 51.27147], [3.7998, 51.2719]]], [[[3.67725, 51.2944], [3.67741, 51.29375], [3.67494, 51.29438], [3.67627, 51.29512], [3.67725, 51.2944]]], [[[3.77006, 51.26502], [3.77027, 51.26485], [3.77003, 51.26497], [3.77006, 51.26502]]], [[[3.77765, 51.26599], [3.77766, 51.26601], [3.7777, 51.26603], [3.77764, 51.26595], [3.77765, 51.26599]]], [[[3.82511, 51.39217], [3.82528, 51.39139], [3.82361, 51.39254], [3.82468, 51.39274], [3.82511, 51.39217]]], [[[3.80618, 51.40223], [3.80596, 51.40235], [3.80617, 51.40229], [3.80618, 51.40223]]], [[[3.80335, 51.40315], [3.80148, 51.40317], [3.79969, 51.40426], [3.80337, 51.40314], [3.80335, 51.40315]]]]}, "properties": {"kind": "windland", "area_km2": 3.25}}, {"type": "Feature", "geometry": {"type": "MultiPolygon", "coordinates": [[[[3.73866, 51.33029], [3.73884, 51.33026], [3.7377, 51.32956], [3.73747, 51.32857], [3.73749, 51.32967], [3.73866, 51.33029]]], [[[3.73999, 51.33144], [3.74007, 51.33076], [3.73969, 51.33039], [3.73932, 51.33073], [3.73999, 51.33144]]], [[[3.74985, 51.33081], [3.74618, 51.32985], [3.74133, 51.32802], [3.74083, 51.32851], [3.74021, 51.32831], [3.73992, 51.32888], [3.7401, 51.32918], [3.73953, 51.32915], [3.73971, 51.32812], [3.73904, 51.32828], [3.7389, 51.32803], [3.73849, 51.32804], [3.73894, 51.32861], [3.74014, 51.32973], [3.74046, 51.32996], [3.74093, 51.33045], [3.74202, 51.33175], [3.74207, 51.3322], [3.74237, 51.33194], [3.74288, 51.33195], [3.74335, 51.33275], [3.74376, 51.33282], [3.74359, 51.3319], [3.74158, 51.33026], [3.74206, 51.33007], [3.7463, 51.33196], [3.74683, 51.332], [3.74742, 51.33238], [3.74795, 51.33301], [3.74769, 51.33344], [3.74813, 51.33387], [3.7484, 51.33474], [3.7496, 51.33467], [3.75008, 51.33388], [3.75083, 51.33355], [3.7505, 51.33316], [3.74784, 51.33184], [3.74799, 51.33149], [3.74903, 51.33092], [3.74943, 51.3311], [3.74943, 51.33153], [3.75101, 51.33214], [3.75193, 51.33286], [3.75254, 51.33295], [3.75425, 51.33378], [3.75397, 51.33315], [3.75412, 51.33274], [3.75658, 51.33289], [3.7569, 51.33332], [3.76018, 51.33551], [3.76069, 51.33555], [3.76147, 51.33602], [3.76113, 51.33622], [3.76139, 51.33643], [3.76175, 51.33632], [3.7616, 51.33585], [3.76018, 51.3352], [3.7567, 51.3325], [3.75328, 51.33152], [3.74985, 51.33081]]], [[[3.74208, 51.33227], [3.74208, 51.33228], [3.74209, 51.33228], [3.74208, 51.33227], [3.74208, 51.33227]]], [[[3.74104, 51.33694], [3.74116, 51.33599], [3.74198, 51.33573], [3.74201, 51.33529], [3.74285, 51.33503], [3.74204, 51.33413], [3.74235, 51.33382], [3.74147, 51.33293], [3.74077, 51.33256], [3.74131, 51.33355], [3.741, 51.3338], [3.7413, 51.3348], [3.74113, 51.3353], [3.7408, 51.33541], [3.7399, 51.33432], [3.74014, 51.334], [3.74011, 51.33343], [3.73965, 51.33295], [3.74005, 51.33303], [3.7403, 51.3327], [3.7388, 51.3319], [3.73951, 51.33134], [3.7375, 51.33025], [3.73754, 51.33263], [3.7379, 51.3324], [3.73845, 51.33243], [3.73972, 51.33322], [3.74, 51.33373], [3.73965, 51.33456], [3.73871, 51.33475], [3.73757, 51.33473], [3.73885, 51.33481], [3.73942, 51.33515], [3.7392, 51.33559], [3.73759, 51.33585], [3.73762, 51.33762], [3.73824, 51.33753], [3.73937, 51.33789], [3.73955, 51.33938], [3.73765, 51.33948], [3.73765, 51.33962], [3.74048, 51.33942], [3.74071, 51.33919], [3.74055, 51.33858], [3.74103, 51.33778], [3.74104, 51.33694]]], [[[3.75097, 51.33361], [3.75119, 51.33386], [3.75146, 51.33386], [3.75133, 51.33382], [3.75097, 51.33361]]], [[[3.74384, 51.33341], [3.74357, 51.33344], [3.74408, 51.33508], [3.74426, 51.33713], [3.74391, 51.33811], [3.74335, 51.33824], [3.74248, 51.33979], [3.74198, 51.34013], [3.74367, 51.34004], [3.74375, 51.33928], [3.745, 51.3392], [3.74451, 51.33569], [3.74384, 51.33341]]], [[[3.74827, 51.33517], [3.74829, 51.33531], [3.74846, 51.33516], [3.74827, 51.33517]]], [[[3.75172, 51.33604], [3.75157, 51.33624], [3.75202, 51.33694], [3.75374, 51.33693], [3.75401, 51.33645], [3.75376, 51.33541], [3.75169, 51.33552], [3.75172, 51.33604]]], [[[3.74038, 51.34006], [3.74038, 51.34022], [3.74078, 51.34019], [3.74057, 51.34016], [3.74038, 51.34006]]], [[[3.74105, 51.34017], [3.74102, 51.34016], [3.74086, 51.34019], [3.74108, 51.34018], [3.74105, 51.34017]]], [[[3.75247, 51.32795], [3.75229, 51.32795], [3.75267, 51.32808], [3.75247, 51.32795]]], [[[3.75555, 51.32854], [3.75634, 51.32826], [3.75673, 51.32792], [3.75362, 51.32794], [3.75421, 51.32833], [3.75555, 51.32854]]], [[[3.75725, 51.32895], [3.75719, 51.32907], [3.75786, 51.32935], [3.7576, 51.32922], [3.75725, 51.32895]]], [[[3.75832, 51.32954], [3.75832, 51.32953], [3.75815, 51.32948], [3.75832, 51.32954]]], [[[3.76496, 51.32787], [3.75811, 51.32791], [3.75804, 51.32827], [3.75857, 51.3288], [3.7611, 51.32959], [3.76211, 51.33075], [3.76434, 51.33197], [3.76528, 51.33229], [3.76565, 51.33166], [3.76623, 51.33142], [3.76618, 51.32845], [3.76557, 51.32849], [3.76496, 51.32787]]], [[[3.76601, 51.33313], [3.76589, 51.33313], [3.76617, 51.33313], [3.76605, 51.33313], [3.76601, 51.33313]]], [[[3.75635, 51.33359], [3.75619, 51.33343], [3.75587, 51.33362], [3.75606, 51.33357], [3.75635, 51.33359]]], [[[3.75226, 51.33408], [3.75304, 51.33455], [3.75362, 51.33439], [3.75308, 51.33411], [3.75226, 51.33408]]], [[[3.75367, 51.33485], [3.7539, 51.33473], [3.75366, 51.33486], [3.75367, 51.33485]]], [[[3.76078, 51.33661], [3.76079, 51.3366], [3.76069, 51.33653], [3.76078, 51.33661]]]]}, "properties": {"kind": "pv", "area_km2": 0.64, "mw": 32.1}}, {"type": "Feature", "geometry": {"type": "Point", "coordinates": [3.75794, 51.30087]}, "properties": {"kind": "turbine", "i": 0, "mw": 6.0, "hub_m": 120.0, "rotor_m": 150.0}}, {"type": "Feature", "geometry": {"type": "Point", "coordinates": [3.69006, 51.31442]}, "properties": {"kind": "turbine", "i": 1, "mw": 6.0, "hub_m": 120.0, "rotor_m": 150.0}}, {"type": "Feature", "geometry": {"type": "Point", "coordinates": [3.68001, 51.34403]}, "properties": {"kind": "turbine", "i": 2, "mw": 6.0, "hub_m": 120.0, "rotor_m": 150.0}}, {"type": "Feature", "geometry": {"type": "Point", "coordinates": [3.69515, 51.30454]}, "properties": {"kind": "turbine", "i": 3, "mw": 6.0, "hub_m": 120.0, "rotor_m": 150.0}}, {"type": "Feature", "geometry": {"type": "Point", "coordinates": [3.81561, 51.30377]}, "properties": {"kind": "turbine", "i": 4, "mw": 6.0, "hub_m": 120.0, "rotor_m": 150.0}}, {"type": "Feature", "geometry": {"type": "Point", "coordinates": [3.70018, 51.29138]}, "properties": {"kind": "turbine", "i": 5, "mw": 6.0, "hub_m": 120.0, "rotor_m": 150.0}}, {"type": "Feature", "geometry": {"type": "Point", "coordinates": [3.66443, 51.35397]}, "properties": {"kind": "turbine", "i": 6, "mw": 6.0, "hub_m": 120.0, "rotor_m": 150.0}}, {"type": "Feature", "geometry": {"type": "Point", "coordinates": [3.65881, 51.32774]}, "properties": {"kind": "turbine", "i": 7, "mw": 6.0, "hub_m": 120.0, "rotor_m": 150.0}}, {"type": "Feature", "geometry": {"type": "Point", "coordinates": [3.65334, 51.31135]}, "properties": {"kind": "turbine", "i": 8, "mw": 6.0, "hub_m": 120.0, "rotor_m": 150.0}}, {"type": "Feature", "geometry": {"type": "Point", "coordinates": [3.68438, 51.28491]}, "properties": {"kind": "turbine", "i": 9, "mw": 6.0, "hub_m": 120.0, "rotor_m": 150.0}}, {"type": "Feature", "geometry": {"type": "Point", "coordinates": [3.64313, 51.33111]}, "properties": {"kind": "turbine", "i": 10, "mw": 6.0, "hub_m": 120.0, "rotor_m": 150.0}}, {"type": "Feature", "geometry": {"type": "Point", "coordinates": [3.66877, 51.29156]}, "properties": {"kind": "turbine", "i": 11, "mw": 6.0, "hub_m": 120.0, "rotor_m": 150.0}}, {"type": "Feature", "geometry": {"type": "Point", "coordinates": [3.79939, 51.27433]}, "properties": {"kind": "turbine", "i": 12, "mw": 6.0, "hub_m": 120.0, "rotor_m": 150.0}}]}