{"type": "FeatureCollection", "features": [{"type": "Feature", "geometry": {"type": "MultiPolygon", "coordinates": [[[[3.60337, 51.19014], [3.6049, 51.19046], [3.60611, 51.18929], [3.60519, 51.1894], [3.60337, 51.19014]]], [[[3.50747, 51.27995], [3.50838, 51.28221], [3.51112, 51.28377], [3.51235, 51.28271], [3.50878, 51.28164], [3.50747, 51.27995]]], [[[3.56589, 51.27493], [3.5667, 51.27406], [3.56363, 51.2733], [3.56196, 51.27562], [3.56349, 51.27499], [3.56589, 51.27493]]], [[[3.56171, 51.27581], [3.56058, 51.27657], [3.56108, 51.27698], [3.56124, 51.27642], [3.56171, 51.27581]]], [[[3.55646, 51.28433], [3.55537, 51.28441], [3.55466, 51.28439], [3.55576, 51.28472], [3.55646, 51.28433]]], [[[3.55746, 51.33163], [3.5554, 51.3331], [3.55732, 51.33387], [3.55882, 51.33136], [3.56205, 51.33013], [3.56012, 51.32859], [3.55772, 51.32898], [3.55798, 51.3303], [3.55753, 51.33153], [3.55808, 51.33174], [3.55746, 51.33163]]], [[[3.55529, 51.33314], [3.5528, 51.33378], [3.54776, 51.33399], [3.54749, 51.33475], [3.54894, 51.33558], [3.55264, 51.33514], [3.55547, 51.33576], [3.55613, 51.33491], [3.55756, 51.33425], [3.55529, 51.33314]]], [[[3.55816, 51.339], [3.55757, 51.34034], [3.55829, 51.34062], [3.56472, 51.33851], [3.5632, 51.33791], [3.56168, 51.3385], [3.55816, 51.33878], [3.55816, 51.339]]], [[[3.56902, 51.35378], [3.57127, 51.355], [3.57488, 51.35473], [3.57777, 51.35558], [3.57985, 51.35383], [3.57552, 51.3521], [3.57324, 51.35325], [3.56951, 51.35342], [3.56902, 51.35378]]], [[[3.60679, 51.3389], [3.60942, 51.3392], [3.61118, 51.33998], [3.61235, 51.34112], [3.6127, 51.34284], [3.6137, 51.3438], [3.6138, 51.34213], [3.61506, 51.34069], [3.61305, 51.33943], [3.61215, 51.33722], [3.61003, 51.3373], [3.60761, 51.33672], [3.60763, 51.33788], [3.60679, 51.3389]]], [[[3.60847, 51.23761], [3.60884, 51.23753], [3.60662, 51.23784], [3.60447, 51.23769], [3.60255, 51.23704], [3.60098, 51.23571], [3.59927, 51.23584], [3.60079, 51.23777], [3.60342, 51.23861], [3.60362, 51.23898], [3.60706, 51.23825], [3.60716, 51.23849], [3.60406, 51.23937], [3.60512, 51.24057], [3.60685, 51.24013], [3.6093, 51.24024], [3.60949, 51.23927], [3.60847, 51.23761]]], [[[3.60884, 51.23748], [3.60882, 51.23748], [3.60884, 51.23748], [3.60884, 51.23748]]], [[[3.60429, 51.2976], [3.60432, 51.29826], [3.60549, 51.29791], [3.60423, 51.29739], [3.60429, 51.2976]]], [[[3.60613, 51.29772], [3.60523, 51.29655], [3.60384, 51.29659], [3.60422, 51.29734], [3.60564, 51.29787], [3.60613, 51.29772]]], [[[3.65222, 51.31162], [3.65357, 51.31236], [3.65414, 51.31332], [3.65337, 51.31687], [3.65592, 51.31656], [3.65918, 51.31697], [3.66015, 51.31657], [3.65863, 51.31577], [3.65636, 51.31372], [3.65542, 51.31112], [3.65236, 51.31022], [3.64933, 51.31095], [3.65222, 51.31162]]], [[[3.67381, 51.17009], [3.67374, 51.17079], [3.67578, 51.17068], [3.67583, 51.17029], [3.67381, 51.17009]]], [[[3.68568, 51.24858], [3.68674, 51.24855], [3.68691, 51.24734], [3.68277, 51.24692], [3.68198, 51.24781], [3.68568, 51.24858]]], [[[3.66908, 51.28289], [3.66618, 51.28185], [3.66301, 51.27919], [3.66087, 51.27983], [3.65918, 51.28109], [3.66078, 51.28366], [3.66289, 51.28297], [3.66502, 51.28277], [3.66695, 51.28302], [3.66868, 51.2837], [3.66908, 51.28289]]], [[[3.70218, 51.31019], [3.70218, 51.31019], [3.70237, 51.3102], [3.70221, 51.31013], [3.70218, 51.31019]]], [[[3.70231, 51.30992], [3.70226, 51.31001], [3.70232, 51.31002], [3.70231, 51.30992]]], [[[3.71885, 51.16426], [3.71722, 51.1643], [3.71979, 51.16551], [3.71962, 51.16472], [3.71885, 51.16426]]], [[[3.71526, 51.24639], [3.71744, 51.24496], [3.717, 51.24446], [3.71358, 51.2447], [3.71426, 51.24603], [3.715, 51.24666], [3.71526, 51.24639]]], [[[3.72208, 51.30509], [3.72256, 51.30517], [3.72203, 51.30426], [3.72117, 51.30494], [3.72208, 51.30509]]], [[[3.6698, 51.36311], [3.67093, 51.36297], [3.66847, 51.36204], [3.66718, 51.35944], [3.66559, 51.35964], [3.66542, 51.36106], [3.66409, 51.36253], [3.66425, 51.36288], [3.66594, 51.36385], [3.6698, 51.36311]]], [[[3.66431, 51.35424], [3.66432, 51.35557], [3.66674, 51.35483], [3.67071, 51.35497], [3.67024, 51.3541], [3.66426, 51.35352], [3.66431, 51.35424]]], [[[3.66642, 51.34922], [3.66565, 51.34924], [3.66534, 51.34972], [3.6707, 51.35025], [3.66968, 51.34942], [3.66642, 51.34922]]], [[[3.68604, 51.36128], [3.68512, 51.36141], [3.68592, 51.36302], [3.68664, 51.36288], [3.68604, 51.36128]]], [[[3.75227, 51.32122], [3.75292, 51.32066], [3.7509, 51.32156], [3.75071, 51.32346], [3.75128, 51.32338], [3.75227, 51.32122]]], [[[3.97285, 51.37951], [3.97176, 51.38028], [3.97262, 51.38141], [3.97285, 51.37951]]], [[[3.97975, 51.37566], [3.97936, 51.37666], [3.97924, 51.37775], [3.98123, 51.3762], [3.98007, 51.37443], [3.97975, 51.37566]]], [[[3.97322, 51.36631], [3.9744, 51.36644], [3.97453, 51.36537], [3.97308, 51.36468], [3.97193, 51.36352], [3.97157, 51.36214], [3.97208, 51.36029], [3.97118, 51.35929], [3.96904, 51.35898], [3.96708, 51.35805], [3.9632, 51.35944], [3.96497, 51.36047], [3.96583, 51.36173], [3.96597, 51.36346], [3.96515, 51.36474], [3.96614, 51.36628], [3.96604, 51.3678], [3.96817, 51.36768], [3.97034, 51.36662], [3.97322, 51.36631]]], [[[3.94746, 51.35707], [3.94856, 51.3579], [3.94921, 51.3518], [3.94667, 51.35235], [3.94791, 51.35497], [3.94746, 51.35707]]], [[[3.98198, 51.36471], [3.98075, 51.365], [3.98008, 51.37056], [3.98202, 51.37065], [3.98593, 51.36937], [3.9868, 51.36737], [3.98495, 51.36608], [3.98422, 51.36459], [3.98198, 51.36471]]], [[[3.99434, 51.36958], [3.9925, 51.36898], [3.9922, 51.36966], [3.99353, 51.37054], [3.99434, 51.37181], [3.99432, 51.37318], [3.99345, 51.37471], [3.99608, 51.37503], [3.99679, 51.37357], [3.99552, 51.37167], [3.99504, 51.36968], [3.99434, 51.36958]]], [[[3.9953, 51.37936], [3.995, 51.37882], [3.99226, 51.37849], [3.99021, 51.3796], [3.9892, 51.38137], [3.98946, 51.38212], [3.99176, 51.38226], [3.99551, 51.38344], [3.9953, 51.37936]]], [[[4.00402, 51.39884], [4.00533, 51.39979], [4.00577, 51.39692], [4.00307, 51.39698], [4.0023, 51.39815], [4.00402, 51.39884]]], [[[3.75269, 51.26086], [3.75232, 51.26034], [3.75049, 51.2603], [3.74924, 51.26215], [3.7513, 51.26367], [3.75221, 51.2651], [3.75284, 51.26503], [3.75414, 51.26305], [3.75269, 51.26086]]], [[[3.76695, 51.32699], [3.76482, 51.32776], [3.76557, 51.32849], [3.76658, 51.32845], [3.76763, 51.32678], [3.76695, 51.32699]]], [[[3.76959, 51.32095], [3.76937, 51.32179], [3.771, 51.32088], [3.77009, 51.32028], [3.76959, 51.32095]]], [[[3.76889, 51.31292], [3.76931, 51.31216], [3.76733, 51.31265], [3.76844, 51.31393], [3.76889, 51.31292]]], [[[3.76415, 51.30428], [3.76383, 51.30531], [3.76747, 51.30513], [3.76889, 51.30448], [3.76635, 51.30466], [3.76415, 51.30428]]], [[[3.75489, 51.30182], [3.75735, 51.30134], [3.75991, 51.30148], [3.7609, 51.30095], [3.7613, 51.29972], [3.76247, 51.29858], [3.7559, 51.29912], [3.75447, 51.29969], [3.75245, 51.30203], [3.74842, 51.30346], [3.74775, 51.30438], [3.75056, 51.30364], [3.75489, 51.30182]]], [[[3.76185, 51.29421], [3.7606, 51.29485], [3.76392, 51.29454], [3.7627, 51.29442], [3.76185, 51.29421]]], [[[3.78352, 51.26412], [3.78351, 51.2641], [3.78253, 51.26242], [3.78209, 51.26271], [3.7843, 51.26553], [3.78352, 51.26412]]], [[[3.79011, 51.26106], [3.78851, 51.26144], [3.78962, 51.26333], [3.79208, 51.26283], [3.79366, 51.2616], [3.79587, 51.26091], [3.80054, 51.26091], [3.80495, 51.26206], [3.80802, 51.26061], [3.80671, 51.25934], [3.80627, 51.25776], [3.80392, 51.25744], [3.80193, 51.25669], [3.79814, 51.25758], [3.79673, 51.25829], [3.79301, 51.2589], [3.79185, 51.26023], [3.79011, 51.26106]]], [[[3.79894, 51.25225], [3.7991, 51.25324], [3.80116, 51.25088], [3.79851, 51.24865], [3.79926, 51.25031], [3.79894, 51.25225]]], [[[3.80565, 51.24675], [3.80466, 51.24655], [3.80758, 51.24943], [3.81004, 51.24784], [3.80772, 51.24679], [3.80565, 51.24675]]], [[[3.76656, 51.27054], [3.76736, 51.27053], [3.76522, 51.26844], [3.76446, 51.2691], [3.76587, 51.27057], [3.76656, 51.27054]]], [[[3.76805, 51.24871], [3.76768, 51.24864], [3.76844, 51.24894], [3.76815, 51.24877], [3.76805, 51.24871]]], [[[3.76983, 51.25484], [3.77026, 51.25514], [3.77151, 51.25484], [3.77327, 51.25323], [3.77322, 51.25229], [3.76924, 51.2534], [3.76983, 51.25484]]], [[[3.76316, 51.18815], [3.76482, 51.1899], [3.76515, 51.19127], [3.76608, 51.19094], [3.76637, 51.19001], [3.76282, 51.1879], [3.76316, 51.18815]]], [[[3.7608, 51.18589], [3.75975, 51.18558], [3.75984, 51.18634], [3.76205, 51.18725], [3.7608, 51.18589]]], [[[3.59454, 51.37148], [3.59473, 51.37127], [3.59293, 51.37055], [3.59339, 51.37222], [3.59239, 51.37421], [3.59405, 51.374], [3.59393, 51.37268], [3.59454, 51.37148]]], [[[3.57672, 51.347], [3.57733, 51.34825], [3.58362, 51.35077], [3.58281, 51.34852], [3.57657, 51.34628], [3.57672, 51.347]]], [[[3.59466, 51.35722], [3.59417, 51.35682], [3.59237, 51.35877], [3.59234, 51.36033], [3.59578, 51.3598], [3.59897, 51.36053], [3.59938, 51.36024], [3.59597, 51.35878], [3.59466, 51.35722]]], [[[3.57799, 51.33885], [3.57889, 51.33932], [3.58117, 51.33909], [3.58403, 51.3395], [3.58496, 51.339], [3.57949, 51.33671], [3.57799, 51.33885]]], [[[3.5889, 51.33331], [3.58818, 51.33303], [3.58528, 51.33405], [3.58688, 51.33517], [3.58848, 51.33487], [3.5902, 51.33499], [3.59323, 51.33428], [3.59301, 51.33367], [3.59079, 51.33371], [3.5889, 51.33331]]], [[[3.58736, 51.32473], [3.5873, 51.32482], [3.58754, 51.32474], [3.58736, 51.32473]]], [[[3.58279, 51.32272], [3.58277, 51.32276], [3.5829, 51.32277], [3.58286, 51.32272], [3.58279, 51.32272]]], [[[3.59831, 51.30438], [3.59898, 51.30559], [3.6007, 51.30594], [3.60201, 51.30691], [3.60497, 51.30696], [3.60749, 51.30158], [3.59831, 51.30438]]], [[[3.60023, 51.29003], [3.5998, 51.29024], [3.59948, 51.29037], [3.60018, 51.29051], [3.60023, 51.29003]]], [[[3.60794, 51.29087], [3.60635, 51.29054], [3.60604, 51.29267], [3.60851, 51.29195], [3.60869, 51.29091], [3.60794, 51.29087]]], [[[3.61016, 51.30994], [3.61015, 51.30994], [3.61015, 51.30995], [3.61016, 51.30994]]], [[[3.58922, 51.31715], [3.59004, 51.31727], [3.59076, 51.31682], [3.59022, 51.31653], [3.58922, 51.31715]]], [[[3.57785, 51.31049], [3.58043, 51.30877], [3.58237, 51.30831], [3.58454, 51.30834], [3.58335, 51.30686], [3.5834, 51.3051], [3.58251, 51.30377], [3.57796, 51.3051], [3.57641, 51.30673], [3.5732, 51.30802], [3.56997, 51.30818], [3.56749, 51.3074], [3.56693, 51.30845], [3.56744, 51.30942], [3.57178, 51.31158], [3.57753, 51.3111], [3.57785, 51.31049]]], [[[3.57276, 51.31611], [3.57323, 51.31622], [3.57349, 51.31612], [3.57248, 51.31593], [3.57276, 51.31611]]], [[[3.56164, 51.31421], [3.56315, 51.31336], [3.56098, 51.31258], [3.5614, 51.31405], [3.56164, 51.31421]]], [[[3.59162, 51.29719], [3.59149, 51.29767], [3.59259, 51.29833], [3.59254, 51.29757], [3.59162, 51.29719]]], [[[3.57977, 51.27972], [3.57794, 51.28025], [3.57999, 51.28049], [3.58415, 51.27928], [3.58301, 51.27819], [3.58201, 51.27835], [3.57977, 51.27972]]], [[[3.59435, 51.27186], [3.59257, 51.27188], [3.59224, 51.27325], [3.59335, 51.27417], [3.59732, 51.27276], [3.60116, 51.2726], [3.60309, 51.27288], [3.60364, 51.27222], [3.60202, 51.27111], [3.60131, 51.26976], [3.60181, 51.26778], [3.60018, 51.26675], [3.60016, 51.2683], [3.59927, 51.26955], [3.59682, 51.27115], [3.59435, 51.27186]]], [[[3.57677, 51.24347], [3.57864, 51.24399], [3.5838, 51.24145], [3.58107, 51.24149], [3.57729, 51.24255], [3.57445, 51.24225], [3.57424, 51.24323], [3.57677, 51.24347]]], [[[3.583, 51.207], [3.58285, 51.20695], [3.58284, 51.20698], [3.583, 51.207]]], [[[3.58942, 51.20786], [3.58935, 51.20806], [3.5901, 51.20795], [3.58942, 51.20786]]], [[[3.5059, 51.39081], [3.50883, 51.39046], [3.51208, 51.3911], [3.51289, 51.39095], [3.51148, 51.38978], [3.51092, 51.38839], [3.50369, 51.38696], [3.50324, 51.388], [3.50458, 51.3911], [3.5059, 51.39081]]], [[[3.52332, 51.36862], [3.5221, 51.36789], [3.52172, 51.36907], [3.52396, 51.36931], [3.52587, 51.37002], [3.52866, 51.36967], [3.52568, 51.36947], [3.52332, 51.36862]]], [[[3.51713, 51.35556], [3.51555, 51.35581], [3.51554, 51.3568], [3.51829, 51.35646], [3.52062, 51.35661], [3.51792, 51.35538], [3.51713, 51.35556]]], [[[3.50851, 51.31748], [3.50915, 51.31805], [3.51201, 51.31748], [3.51584, 51.3179], [3.51475, 51.31652], [3.51473, 51.31476], [3.51208, 51.31417], [3.51019, 51.31589], [3.50754, 51.31661], [3.50851, 51.31748]]], [[[3.50091, 51.31417], [3.50112, 51.31425], [3.50136, 51.31437], [3.50114, 51.31399], [3.50091, 51.31417]]], [[[3.50675, 51.29159], [3.50756, 51.29058], [3.50596, 51.29033], [3.50391, 51.29161], [3.50456, 51.29244], [3.50452, 51.29361], [3.50531, 51.2938], [3.50675, 51.29159]]], [[[3.49669, 51.27887], [3.49548, 51.27913], [3.49559, 51.28184], [3.4994, 51.28208], [3.50213, 51.2828], [3.50141, 51.28108], [3.49874, 51.28049], [3.49669, 51.27887]]], [[[3.51706, 51.27798], [3.51644, 51.2786], [3.5203, 51.27685], [3.51944, 51.27706], [3.51706, 51.27798]]], [[[3.51171, 51.28891], [3.51149, 51.28914], [3.51192, 51.28911], [3.51171, 51.28891]]], [[[3.50521, 51.26452], [3.50331, 51.2649], [3.50244, 51.26608], [3.50713, 51.26462], [3.5103, 51.26453], [3.51518, 51.26318], [3.51555, 51.26197], [3.51254, 51.26047], [3.50851, 51.26112], [3.50729, 51.26333], [3.50521, 51.26452]]], [[[3.50535, 51.25737], [3.50584, 51.25757], [3.51009, 51.25688], [3.51033, 51.25629], [3.50826, 51.25456], [3.50756, 51.25456], [3.50535, 51.25737]]], [[[3.5275, 51.25327], [3.52737, 51.25335], [3.52772, 51.25323], [3.52767, 51.25318], [3.5275, 51.25327]]], [[[3.55182, 51.26946], [3.55033, 51.26895], [3.55004, 51.26977], [3.5516, 51.2701], [3.55182, 51.26946]]], [[[3.51825, 51.26812], [3.51883, 51.26831], [3.51772, 51.26677], [3.51611, 51.267], [3.51618, 51.26783], [3.51825, 51.26812]]], [[[3.48972, 51.38144], [3.48958, 51.38155], [3.4897, 51.38155], [3.48972, 51.38144]]], [[[3.49595, 51.37423], [3.49686, 51.3738], [3.49243, 51.37314], [3.49381, 51.37412], [3.49595, 51.37423]]], [[[3.49248, 51.36286], [3.49115, 51.36234], [3.49117, 51.36311], [3.49248, 51.36286]]], [[[3.4864, 51.34783], [3.48648, 51.34871], [3.48751, 51.34887], [3.48913, 51.34716], [3.48758, 51.34582], [3.48569, 51.34644], [3.4864, 51.34783]]], [[[3.49342, 51.33893], [3.49226, 51.33904], [3.49436, 51.34276], [3.49639, 51.34343], [3.49794, 51.34539], [3.4992, 51.34606], [3.50103, 51.34459], [3.49917, 51.34339], [3.49819, 51.3415], [3.49678, 51.34054], [3.49607, 51.33946], [3.49342, 51.33893]]], [[[3.47555, 51.337], [3.47666, 51.33659], [3.47447, 51.33598], [3.47438, 51.3374], [3.47555, 51.337]]], [[[3.47888, 51.31294], [3.47786, 51.31409], [3.4788, 51.31439], [3.48141, 51.31326], [3.48505, 51.3133], [3.48609, 51.31177], [3.4858, 51.31101], [3.48373, 51.31165], [3.48099, 51.31166], [3.47909, 51.31238], [3.47888, 51.31294]]], [[[3.4823, 51.30203], [3.48257, 51.30036], [3.4838, 51.29912], [3.48184, 51.29768], [3.47987, 51.3027], [3.4823, 51.30203]]], [[[3.47825, 51.36392], [3.47849, 51.36376], [3.47795, 51.36305], [3.47806, 51.36408], [3.47825, 51.36392]]], [[[3.55341, 51.37104], [3.55392, 51.37309], [3.55548, 51.37234], [3.56013, 51.37125], [3.55865, 51.37076], [3.55627, 51.37124], [3.55341, 51.37104]]], [[[3.56405, 51.36164], [3.56186, 51.36165], [3.55998, 51.3612], [3.55832, 51.36306], [3.56043, 51.36248], [3.56322, 51.36231], [3.56539, 51.3627], [3.56697, 51.36348], [3.56728, 51.36316], [3.56405, 51.36164]]], [[[3.5451, 51.34169], [3.54329, 51.34163], [3.5455, 51.34328], [3.54654, 51.34146], [3.5451, 51.34169]]], [[[3.55895, 51.34633], [3.55828, 51.34535], [3.55709, 51.34575], [3.55744, 51.34672], [3.55916, 51.34672], [3.55895, 51.34633]]], [[[3.5578, 51.29399], [3.55834, 51.29382], [3.55927, 51.29362], [3.55811, 51.29324], [3.5578, 51.29399]]], [[[3.55266, 51.28401], [3.552, 51.28386], [3.55186, 51.28412], [3.55276, 51.28404], [3.55266, 51.28401]]], [[[3.54206, 51.30846], [3.54117, 51.30932], [3.54151, 51.30966], [3.54393, 51.30983], [3.54623, 51.31076], [3.54844, 51.30977], [3.54517, 51.30882], [3.54252, 51.30637], [3.54206, 51.30846]]], [[[3.54016, 51.36277], [3.53945, 51.36241], [3.53815, 51.36463], [3.53554, 51.3659], [3.53869, 51.36695], [3.53908, 51.36527], [3.54097, 51.36353], [3.54016, 51.36277]]], [[[3.53016, 51.3406], [3.53009, 51.34063], [3.53016, 51.34066], [3.53016, 51.3406]]], [[[3.53548, 51.3367], [3.53541, 51.33603], [3.53426, 51.33557], [3.53208, 51.33604], [3.53267, 51.33791], [3.53569, 51.33722], [3.53548, 51.3367]]], [[[3.53667, 51.33105], [3.53715, 51.33074], [3.53624, 51.33056], [3.53643, 51.33074], [3.53667, 51.33105]]], [[[3.53742, 51.31516], [3.53696, 51.31458], [3.53462, 51.31567], [3.53774, 51.31677], [3.53994, 51.31882], [3.54139, 51.31844], [3.53742, 51.31516]]], [[[3.52853, 51.30638], [3.52804, 51.30601], [3.52758, 51.3056], [3.52751, 51.30681], [3.52853, 51.30638]]], [[[3.53738, 51.29377], [3.5383, 51.29428], [3.53889, 51.29384], [3.5362, 51.29259], [3.53571, 51.29327], [3.53738, 51.29377]]], [[[3.51735, 51.33066], [3.51941, 51.33221], [3.51987, 51.33386], [3.52293, 51.33453], [3.5244, 51.33411], [3.52054, 51.33243], [3.51947, 51.33124], [3.5192, 51.33004], [3.51735, 51.33066]]], [[[3.52494, 51.30953], [3.52522, 51.30866], [3.52411, 51.30939], [3.52486, 51.31048], [3.52494, 51.30953]]], [[[3.52273, 51.38832], [3.52265, 51.38887], [3.52616, 51.38925], [3.52822, 51.38837], [3.53031, 51.38822], [3.53295, 51.38935], [3.53737, 51.3883], [3.5381, 51.38743], [3.53566, 51.38781], [3.53205, 51.38782], [3.52807, 51.38687], [3.5255, 51.38766], [3.52271, 51.38772], [3.52273, 51.38832]]], [[[3.55139, 51.30949], [3.55146, 51.30949], [3.55145, 51.30947], [3.55139, 51.30949]]], [[[3.57574, 51.226], [3.57578, 51.22627], [3.57637, 51.22642], [3.57589, 51.22597], [3.57574, 51.226]]], [[[3.56962, 51.2979], [3.56852, 51.29915], [3.56685, 51.3001], [3.56869, 51.3002], [3.57163, 51.29853], [3.57364, 51.29632], [3.57698, 51.29511], [3.57353, 51.29339], [3.57151, 51.29416], [3.56901, 51.29432], [3.57013, 51.29623], [3.56962, 51.2979]]], [[[3.57634, 51.28935], [3.57637, 51.28987], [3.57935, 51.29137], [3.5804, 51.28969], [3.57684, 51.28907], [3.57634, 51.28935]]], [[[3.57224, 51.28643], [3.57208, 51.28591], [3.57208, 51.28519], [3.57095, 51.28641], [3.57224, 51.28643]]], [[[3.57122, 51.32083], [3.57066, 51.31974], [3.56873, 51.32007], [3.56956, 51.32099], [3.57122, 51.32083]]], [[[3.57831, 51.37998], [3.57796, 51.3795], [3.57725, 51.37977], [3.57709, 51.38154], [3.57887, 51.38219], [3.57977, 51.38203], [3.58069, 51.38142], [3.57831, 51.37998]]], [[[3.56973, 51.37919], [3.57036, 51.37925], [3.57111, 51.3794], [3.5701, 51.37868], [3.56973, 51.37919]]], [[[3.56441, 51.37132], [3.56569, 51.372], [3.56846, 51.36928], [3.56638, 51.37067], [3.56441, 51.37132]]], [[[3.57835, 51.36688], [3.57795, 51.3674], [3.57905, 51.36799], [3.57846, 51.36669], [3.57835, 51.36688]]], [[[3.57808, 51.37341], [3.57902, 51.37394], [3.57403, 51.37098], [3.57219, 51.37279], [3.57529, 51.37257], [3.57808, 51.37341]]], [[[3.62685, 51.37233], [3.62544, 51.37204], [3.62474, 51.3724], [3.62731, 51.3726], [3.62901, 51.37314], [3.6298, 51.37216], [3.62685, 51.37233]]], [[[3.64088, 51.36747], [3.64017, 51.36814], [3.64072, 51.36922], [3.64332, 51.36857], [3.64643, 51.36885], [3.64866, 51.36824], [3.65058, 51.36821], [3.65215, 51.36718], [3.65301, 51.36521], [3.65061, 51.36152], [3.6488, 51.36216], [3.64695, 51.3623], [3.64527, 51.36184], [3.64424, 51.36093], [3.64254, 51.36199], [3.64044, 51.36215], [3.64176, 51.36317], [3.64249, 51.36465], [3.64228, 51.36601], [3.64088, 51.36747]]], [[[3.63662, 51.35635], [3.63655, 51.35657], [3.63926, 51.35699], [3.64096, 51.35784], [3.64298, 51.35818], [3.64435, 51.35925], [3.64717, 51.35777], [3.65148, 51.35716], [3.65284, 51.35639], [3.65266, 51.35608], [3.64829, 51.3553], [3.64294, 51.35501], [3.64068, 51.35417], [3.63732, 51.35419], [3.63662, 51.35635]]], [[[3.63297, 51.37079], [3.63498, 51.37065], [3.63442, 51.36954], [3.6334, 51.36935], [3.63241, 51.37091], [3.63297, 51.37079]]], [[[3.63253, 51.34281], [3.63308, 51.34297], [3.63393, 51.34333], [3.63347, 51.34264], [3.63253, 51.34281]]], [[[3.64096, 51.3448], [3.63978, 51.34468], [3.63918, 51.34656], [3.64246, 51.34704], [3.64431, 51.34784], [3.64915, 51.34687], [3.64865, 51.3462], [3.64541, 51.34591], [3.64281, 51.34491], [3.64096, 51.3448]]], [[[3.63608, 51.32853], [3.63473, 51.33001], [3.63227, 51.33096], [3.63323, 51.33139], [3.63409, 51.33129], [3.63704, 51.32799], [3.63635, 51.32763], [3.63608, 51.32853]]], [[[3.6437, 51.33105], [3.6419, 51.33045], [3.64086, 51.33161], [3.64328, 51.33307], [3.64394, 51.33481], [3.64648, 51.33407], [3.64656, 51.33229], [3.64602, 51.33172], [3.6437, 51.33105]]], [[[3.62673, 51.31529], [3.62969, 51.31694], [3.63233, 51.31525], [3.62941, 51.31565], [3.62673, 51.31529]]], [[[3.62871, 51.32319], [3.62912, 51.32315], [3.62937, 51.32313], [3.62908, 51.32292], [3.62871, 51.32319]]], [[[3.63441, 51.29849], [3.63543, 51.29998], [3.63691, 51.30039], [3.63844, 51.3014], [3.64426, 51.29981], [3.64701, 51.29944], [3.6462, 51.29758], [3.64683, 51.29593], [3.64862, 51.29467], [3.65137, 51.29401], [3.65356, 51.29413], [3.6555, 51.29477], [3.65846, 51.29738], [3.65499, 51.29219], [3.6494, 51.29203], [3.64644, 51.29382], [3.64623, 51.29627], [3.64428, 51.2979], [3.6423, 51.29847], [3.63891, 51.29864], [3.63678, 51.29831], [3.63524, 51.29764], [3.63441, 51.29849]]], [[[3.66245, 51.29339], [3.66331, 51.29317], [3.66225, 51.29309], [3.66245, 51.29339]]], [[[3.66935, 51.29093], [3.66823, 51.29193], [3.67544, 51.29009], [3.67512, 51.28927], [3.67364, 51.28843], [3.67247, 51.28695], [3.67097, 51.28752], [3.66983, 51.28908], [3.66935, 51.29093]]], [[[3.66797, 51.29784], [3.66867, 51.29751], [3.66677, 51.29642], [3.6648, 51.29695], [3.66528, 51.29772], [3.66602, 51.29798], [3.66797, 51.29784]]], [[[3.64504, 51.30755], [3.64415, 51.30765], [3.64473, 51.30792], [3.64736, 51.30729], [3.64504, 51.30755]]], [[[3.63775, 51.28063], [3.63698, 51.28093], [3.63813, 51.28133], [3.63832, 51.28105], [3.63775, 51.28063]]], [[[3.64082, 51.27202], [3.63846, 51.27169], [3.6384, 51.27282], [3.64098, 51.27432], [3.64376, 51.27329], [3.64285, 51.27182], [3.64082, 51.27202]]], [[[3.63528, 51.26731], [3.63599, 51.26624], [3.63249, 51.26599], [3.63163, 51.26638], [3.63337, 51.267], [3.63515, 51.26831], [3.63528, 51.26731]]], [[[3.64712, 51.26148], [3.64633, 51.26273], [3.65592, 51.26344], [3.65453, 51.26196], [3.65131, 51.26172], [3.64904, 51.26057], [3.64721, 51.26086], [3.64712, 51.26148]]], [[[3.65943, 51.25869], [3.6592, 51.25934], [3.66136, 51.26163], [3.6638, 51.26186], [3.66644, 51.26308], [3.66719, 51.26305], [3.66381, 51.2605], [3.66371, 51.25947], [3.66456, 51.25842], [3.66404, 51.25772], [3.65943, 51.25869]]], [[[3.67442, 51.25959], [3.67291, 51.26003], [3.67454, 51.2629], [3.6774, 51.26317], [3.6769, 51.26136], [3.6775, 51.26024], [3.67882, 51.25951], [3.68179, 51.25895], [3.68222, 51.25844], [3.68041, 51.25733], [3.67699, 51.25671], [3.67625, 51.25832], [3.67442, 51.25959]], [[3.67924, 51.25815], [3.679, 51.25796], [3.67923, 51.25784], [3.67951, 51.25816], [3.67924, 51.25815]]], [[[3.67111, 51.26928], [3.67449, 51.26937], [3.67478, 51.26937], [3.6703, 51.26831], [3.67111, 51.26928]]], [[[3.69363, 51.26409], [3.69442, 51.26472], [3.69918, 51.26458], [3.69909, 51.26372], [3.69693, 51.26273], [3.69497, 51.26067], [3.69371, 51.2621], [3.6915, 51.26319], [3.69363, 51.26409]]], [[[3.70638, 51.26213], [3.70518, 51.26309], [3.70568, 51.26753], [3.71253, 51.26684], [3.71248, 51.26501], [3.71115, 51.26383], [3.71071, 51.26272], [3.70849, 51.26204], [3.70638, 51.26213]]], [[[3.70825, 51.27572], [3.70683, 51.27525], [3.70225, 51.27617], [3.70155, 51.2771], [3.70206, 51.27745], [3.70469, 51.27611], [3.7069, 51.27587], [3.70861, 51.27607], [3.70825, 51.27572]]], [[[3.68726, 51.27199], [3.68865, 51.2714], [3.68658, 51.27093], [3.68702, 51.27215], [3.68726, 51.27199]]], [[[3.68088, 51.27625], [3.68231, 51.27655], [3.68117, 51.27339], [3.67458, 51.27323], [3.67506, 51.27483], [3.67465, 51.2762], [3.67753, 51.27579], [3.68088, 51.27625]]], [[[3.65523, 51.26953], [3.65433, 51.26854], [3.64818, 51.26977], [3.64975, 51.27231], [3.65552, 51.2721], [3.65976, 51.27249], [3.65746, 51.27059], [3.65523, 51.26953]]], [[[3.62778, 51.24307], [3.63064, 51.24418], [3.63199, 51.24624], [3.63418, 51.24516], [3.63244, 51.2444], [3.63125, 51.24326], [3.63086, 51.24191], [3.63117, 51.24076], [3.63338, 51.2387], [3.63761, 51.23715], [3.63495, 51.23616], [3.63218, 51.23567], [3.62909, 51.23414], [3.62524, 51.23355], [3.6251, 51.23444], [3.62667, 51.23522], [3.62776, 51.23642], [3.6279, 51.23872], [3.62557, 51.24086], [3.62198, 51.24157], [3.62182, 51.24262], [3.62778, 51.24307]]], [[[3.59829, 51.25859], [3.59706, 51.25918], [3.60171, 51.2595], [3.60254, 51.25836], [3.59998, 51.25733], [3.59829, 51.25859]]], [[[3.61209, 51.22992], [3.61226, 51.23005], [3.61215, 51.22981], [3.61209, 51.22992]]], [[[3.61175, 51.22684], [3.61196, 51.22724], [3.61211, 51.22749], [3.61225, 51.22663], [3.61175, 51.22684]]], [[[3.60161, 51.2074], [3.60176, 51.208], [3.60348, 51.20794], [3.60209, 51.20757], [3.60161, 51.2074]]], [[[3.60106, 51.20119], [3.60189, 51.20057], [3.59984, 51.20025], [3.60074, 51.20154], [3.60106, 51.20119]]], [[[3.5964, 51.27971], [3.59459, 51.27899], [3.59348, 51.27805], [3.59235, 51.27922], [3.59005, 51.28041], [3.59095, 51.28129], [3.59387, 51.28238], [3.59706, 51.28217], [3.59916, 51.28244], [3.60098, 51.28152], [3.60308, 51.28115], [3.60612, 51.28142], [3.6043, 51.28], [3.60249, 51.28062], [3.60032, 51.28077], [3.59847, 51.28052], [3.5964, 51.27971]]], [[[3.60347, 51.3663], [3.6026, 51.36627], [3.60256, 51.36656], [3.60338, 51.36732], [3.60426, 51.36625], [3.60347, 51.3663]]], [[[3.59399, 51.34451], [3.59386, 51.34657], [3.59735, 51.34645], [3.59617, 51.3447], [3.59448, 51.3439], [3.59399, 51.34451]]], [[[3.59148, 51.32417], [3.59108, 51.32433], [3.59098, 51.32436], [3.59134, 51.3244], [3.59148, 51.32417]]], [[[3.59977, 51.32541], [3.59853, 51.32456], [3.5979, 51.32554], [3.59865, 51.3259], [3.60185, 51.32615], [3.59977, 51.32541]]], [[[3.62056, 51.33007], [3.62076, 51.33075], [3.62075, 51.33133], [3.62237, 51.3299], [3.62053, 51.32968], [3.62056, 51.33007]]], [[[3.62854, 51.30432], [3.62891, 51.30414], [3.6283, 51.30405], [3.62688, 51.30552], [3.62421, 51.30711], [3.62639, 51.3066], [3.62703, 51.3054], [3.62854, 51.30432]]], [[[3.62147, 51.30846], [3.62175, 51.30867], [3.62265, 51.30792], [3.62147, 51.30846], [3.62147, 51.30846]]], [[[3.61535, 51.27986], [3.61308, 51.28157], [3.61497, 51.28225], [3.61672, 51.28216], [3.6185, 51.28136], [3.61773, 51.27937], [3.61571, 51.27914], [3.61535, 51.27986]]], [[[3.61537, 51.27262], [3.61499, 51.27229], [3.61484, 51.27214], [3.61517, 51.27269], [3.61537, 51.27262]]], [[[3.61626, 51.35909], [3.61592, 51.3591], [3.61528, 51.35909], [3.61593, 51.35962], [3.61626, 51.35909]]], [[[3.62614, 51.35203], [3.62631, 51.351], [3.6227, 51.34961], [3.62191, 51.35017], [3.62405, 51.3513], [3.62506, 51.3528], [3.62622, 51.35248], [3.62614, 51.35203]]], [[[3.62811, 51.34276], [3.62881, 51.34263], [3.62636, 51.34223], [3.62513, 51.34248], [3.62567, 51.34396], [3.62811, 51.34276]]], [[[3.63241, 51.21745], [3.63148, 51.21707], [3.63089, 51.21671], [3.63209, 51.21765], [3.63241, 51.21745]]], [[[3.68441, 51.34412], [3.686, 51.34378], [3.68497, 51.34214], [3.68086, 51.34195], [3.6784, 51.34089], [3.67516, 51.34114], [3.68022, 51.34539], [3.68209, 51.34558], [3.68441, 51.34412]]], [[[3.68124, 51.35131], [3.68278, 51.35005], [3.68211, 51.34949], [3.68043, 51.34932], [3.67943, 51.35021], [3.68124, 51.35131]]], [[[3.68678, 51.35338], [3.68685, 51.35313], [3.68689, 51.35304], [3.68656, 51.35331], [3.68678, 51.35338]]], [[[3.67476, 51.33518], [3.67558, 51.33566], [3.67877, 51.33569], [3.67766, 51.33414], [3.67583, 51.33456], [3.67362, 51.33452], [3.67476, 51.33518]]], [[[3.66613, 51.33219], [3.66798, 51.3329], [3.66722, 51.33215], [3.66535, 51.33163], [3.66337, 51.32996], [3.66124, 51.32904], [3.65944, 51.3269], [3.65636, 51.32661], [3.65557, 51.32714], [3.65868, 51.32809], [3.66076, 51.33012], [3.66277, 51.33084], [3.66414, 51.33193], [3.66613, 51.33219]]], [[[3.69637, 51.34076], [3.69489, 51.34093], [3.69544, 51.34182], [3.6963, 51.34166], [3.69675, 51.34068], [3.69637, 51.34076]]], [[[3.69903, 51.35026], [3.69897, 51.35019], [3.699, 51.35033], [3.69903, 51.35026]]], [[[3.70252, 51.30851], [3.70246, 51.30848], [3.70248, 51.30859], [3.70252, 51.30851]]], [[[3.69221, 51.30571], [3.69575, 51.30491], [3.69982, 51.30566], [3.69943, 51.30348], [3.69782, 51.30163], [3.69784, 51.30026], [3.69919, 51.29856], [3.70162, 51.2975], [3.70287, 51.2954], [3.70231, 51.29317], [3.70349, 51.29156], [3.70143, 51.29119], [3.69964, 51.29041], [3.69617, 51.29302], [3.69791, 51.29369], [3.69926, 51.29478], [3.69983, 51.29612], [3.69953, 51.29751], [3.69805, 51.29893], [3.69484, 51.30042], [3.69536, 51.30158], [3.69507, 51.30317], [3.69349, 51.30491], [3.69164, 51.30583], [3.69169, 51.30601], [3.69221, 51.30571]]], [[[3.67491, 51.31771], [3.67556, 51.31738], [3.67419, 51.31677], [3.67455, 51.31714], [3.67491, 51.31771]]], [[[3.66608, 51.30676], [3.66662, 51.3075], [3.66832, 51.30754], [3.67082, 51.30705], [3.66813, 51.30643], [3.66608, 51.30676]]], [[[3.68614, 51.28409], [3.68345, 51.28454], [3.68388, 51.28529], [3.68591, 51.2863], [3.68798, 51.28438], [3.68614, 51.28409]]], [[[3.68594, 51.31312], [3.68966, 51.3175], [3.69127, 51.31726], [3.69101, 51.31489], [3.69015, 51.31392], [3.68627, 51.31265], [3.68415, 51.31122], [3.68228, 51.31117], [3.6824, 51.31164], [3.68594, 51.31312]]], [[[3.7039, 51.23533], [3.70338, 51.23626], [3.70307, 51.23912], [3.70449, 51.23822], [3.70662, 51.23765], [3.70498, 51.23528], [3.7039, 51.23533]]], [[[3.71116, 51.19815], [3.71119, 51.19814], [3.71111, 51.19813], [3.71116, 51.19815]]], [[[3.7019, 51.1847], [3.70187, 51.18483], [3.70181, 51.18497], [3.70211, 51.18469], [3.7019, 51.1847]]], [[[3.66604, 51.21834], [3.66856, 51.21622], [3.67163, 51.21548], [3.6722, 51.21453], [3.6717, 51.21337], [3.66965, 51.21333], [3.66778, 51.21385], [3.66455, 51.21402], [3.6658, 51.21548], [3.66548, 51.21823], [3.66604, 51.21834]]], [[[3.67028, 51.19387], [3.66866, 51.19444], [3.66874, 51.19486], [3.67094, 51.19585], [3.67302, 51.19438], [3.67302, 51.19395], [3.67028, 51.19387]]], [[[3.64906, 51.24812], [3.65452, 51.24881], [3.65702, 51.24731], [3.6599, 51.24664], [3.66027, 51.24555], [3.65848, 51.24447], [3.65628, 51.24582], [3.65297, 51.24623], [3.64953, 51.2458], [3.64592, 51.24462], [3.64516, 51.24476], [3.64574, 51.24629], [3.64501, 51.24823], [3.64906, 51.24812]]], [[[3.65579, 51.19999], [3.65427, 51.20157], [3.65305, 51.20243], [3.65554, 51.20203], [3.65905, 51.20089], [3.65579, 51.19999]]], [[[3.64802, 51.23125], [3.64849, 51.23142], [3.6488, 51.23156], [3.64766, 51.23087], [3.64802, 51.23125]]], [[[3.64339, 51.21021], [3.64287, 51.21006], [3.64252, 51.21035], [3.64464, 51.21049], [3.64339, 51.21021]]], [[[3.65059, 51.23242], [3.65015, 51.23228], [3.6497, 51.23209], [3.65014, 51.23246], [3.65059, 51.23242]]], [[[3.69731, 51.21824], [3.69731, 51.21834], [3.69752, 51.21815], [3.6973, 51.21817], [3.69731, 51.21824]]], [[[3.74277, 51.28924], [3.744, 51.29124], [3.74373, 51.29281], [3.74636, 51.2915], [3.74737, 51.29015], [3.74909, 51.2892], [3.7481, 51.28846], [3.74559, 51.28845], [3.74344, 51.28779], [3.74172, 51.28799], [3.74277, 51.28924]]], [[[3.74943, 51.28908], [3.74999, 51.28894], [3.74861, 51.28857], [3.74934, 51.28912], [3.74943, 51.28908]]], [[[3.74028, 51.28082], [3.73972, 51.28055], [3.73883, 51.28066], [3.73953, 51.2809], [3.74028, 51.28082]]], [[[3.74609, 51.27226], [3.74601, 51.27225], [3.74595, 51.27225], [3.74609, 51.27226]]], [[[3.72937, 51.22822], [3.73012, 51.22592], [3.73158, 51.22492], [3.73379, 51.22421], [3.73441, 51.22307], [3.73325, 51.22192], [3.73244, 51.21978], [3.72965, 51.21965], [3.72582, 51.21826], [3.72292, 51.21791], [3.72272, 51.22014], [3.72115, 51.22169], [3.72275, 51.22262], [3.72393, 51.22419], [3.72407, 51.2256], [3.72327, 51.22823], [3.72543, 51.22796], [3.72937, 51.22822]]], [[[3.73535, 51.21168], [3.73449, 51.21139], [3.73628, 51.21256], [3.73701, 51.21402], [3.73907, 51.21415], [3.73535, 51.21168]]], [[[3.7137, 51.28399], [3.71392, 51.28424], [3.71407, 51.28423], [3.71381, 51.28376], [3.7137, 51.28399]]], [[[3.7267, 51.29372], [3.72579, 51.29158], [3.72481, 51.2914], [3.72595, 51.29416], [3.7267, 51.29372]]], [[[3.72704, 51.24913], [3.72684, 51.24896], [3.72679, 51.24897], [3.72686, 51.24913], [3.72704, 51.24913]]], [[[3.71948, 51.23125], [3.71995, 51.23017], [3.71868, 51.23195], [3.71878, 51.23231], [3.71961, 51.23241], [3.71948, 51.23125]]], [[[3.70891, 51.29016], [3.7094, 51.2902], [3.70957, 51.29023], [3.70923, 51.28987], [3.70891, 51.29016]]], [[[3.71483, 51.33678], [3.71481, 51.3367], [3.71475, 51.33667], [3.71483, 51.33678]]], [[[3.70557, 51.33916], [3.70691, 51.33967], [3.70761, 51.33854], [3.70684, 51.33885], [3.70557, 51.33916]]], [[[3.73084, 51.28397], [3.73084, 51.28394], [3.73003, 51.2844], [3.73086, 51.28426], [3.73084, 51.28397]]], [[[3.73539, 51.28028], [3.73522, 51.28044], [3.73576, 51.28038], [3.73554, 51.28033], [3.73539, 51.28028]]], [[[3.75392, 51.207], [3.75269, 51.20734], [3.75223, 51.20794], [3.75228, 51.21138], [3.75341, 51.21032], [3.75514, 51.20956], [3.75639, 51.208], [3.75479, 51.2066], [3.75392, 51.207]]], [[[3.94528, 51.33248], [3.94494, 51.33264], [3.94634, 51.33368], [3.94788, 51.33592], [3.95041, 51.33507], [3.95059, 51.33252], [3.9518, 51.32861], [3.95104, 51.32833], [3.94724, 51.32918], [3.94689, 51.33111], [3.94528, 51.33248]]], [[[3.95715, 51.3346], [3.95684, 51.33409], [3.95667, 51.33349], [3.95657, 51.33511], [3.95715, 51.3346]]], [[[3.96091, 51.29859], [3.95916, 51.29802], [3.95995, 51.30048], [3.96368, 51.29998], [3.96611, 51.29906], [3.96851, 51.29777], [3.96859, 51.29676], [3.96552, 51.2985], [3.96091, 51.29859]]], [[[3.97672, 51.2905], [3.97535, 51.28953], [3.97471, 51.29729], [3.97615, 51.29718], [3.97672, 51.2905]]], [[[3.97913, 51.27892], [3.97873, 51.27947], [3.98688, 51.28126], [3.98727, 51.27923], [3.98574, 51.2783], [3.98464, 51.27672], [3.98258, 51.27602], [3.98122, 51.27495], [3.97964, 51.27569], [3.98002, 51.27729], [3.97913, 51.27892]]], [[[3.99154, 51.27193], [3.99192, 51.27305], [3.99382, 51.27219], [3.99229, 51.27035], [3.99026, 51.27018], [3.98845, 51.26956], [3.98714, 51.26862], [3.98639, 51.26739], [3.98344, 51.26755], [3.98314, 51.26801], [3.98504, 51.26967], [3.98886, 51.27004], [3.99154, 51.27193]]], [[[3.99845, 51.27676], [3.99941, 51.27404], [3.9996, 51.27348], [3.99906, 51.27349], [3.99907, 51.27443], [3.99827, 51.2754], [3.99499, 51.27693], [3.9974, 51.27731], [3.99845, 51.27676]]], [[[4.01012, 51.2763], [4.00943, 51.27608], [4.00721, 51.27667], [4.00564, 51.27639], [4.00486, 51.27866], [4.00759, 51.27866], [4.00937, 51.27926], [4.00937, 51.27753], [4.01012, 51.2763]]], [[[4.00067, 51.28522], [3.99979, 51.28444], [3.99875, 51.28521], [3.99699, 51.28568], [3.99729, 51.28667], [3.99672, 51.28779], [3.99842, 51.28773], [4.00067, 51.2882], [4.00256, 51.28638], [4.00067, 51.28522]], [[3.99894, 51.28646], [4.00132, 51.28639], [4.00142, 51.28703], [4.00026, 51.28758], [3.99812, 51.28714], [3.99781, 51.28662], [3.99894, 51.28646]]], [[[4.00128, 51.28822], [4.00086, 51.28843], [4.00069, 51.28853], [4.00111, 51.28856], [4.00128, 51.28822]]], [[[3.99619, 51.29588], [3.99598, 51.29563], [3.99585, 51.29538], [3.99599, 51.29611], [3.99619, 51.29588]]], [[[3.99591, 51.29623], [3.99571, 51.29601], [3.99492, 51.29717], [3.99481, 51.29777], [3.99529, 51.29796], [3.99591, 51.29623]]], [[[3.95279, 51.30327], [3.95354, 51.30229], [3.94955, 51.30204], [3.94961, 51.30337], [3.95167, 51.30447], [3.95262, 51.30586], [3.95279, 51.30327]]], [[[3.94805, 51.28138], [3.94571, 51.28163], [3.94705, 51.28357], [3.94907, 51.28351], [3.95111, 51.28397], [3.95379, 51.28603], [3.95686, 51.28634], [3.95961, 51.28438], [3.95583, 51.28269], [3.95371, 51.28314], [3.95094, 51.28292], [3.94805, 51.28138]]], [[[3.94313, 51.26518], [3.94805, 51.26604], [3.94759, 51.26493], [3.94484, 51.2648], [3.94258, 51.26388], [3.94105, 51.26174], [3.93772, 51.2615], [3.93519, 51.26017], [3.9335, 51.26034], [3.93335, 51.26253], [3.93732, 51.26446], [3.94313, 51.26518]]], [[[3.94219, 51.25451], [3.94453, 51.25543], [3.94948, 51.2561], [3.94586, 51.25244], [3.94383, 51.25116], [3.94029, 51.25431], [3.94219, 51.25451]]], [[[3.93573, 51.25066], [3.93622, 51.25125], [3.93744, 51.25014], [3.9362, 51.2505], [3.93573, 51.25066]]], [[[3.96691, 51.25027], [3.9651, 51.24984], [3.96228, 51.24992], [3.96183, 51.25301], [3.96462, 51.25362], [3.96572, 51.25514], [3.96489, 51.25697], [3.96217, 51.25781], [3.96566, 51.25828], [3.96704, 51.25711], [3.96915, 51.25638], [3.96947, 51.25143], [3.97035, 51.25053], [3.97224, 51.24989], [3.97285, 51.24923], [3.96962, 51.25016], [3.96691, 51.25027]]], [[[3.98709, 51.25561], [3.98546, 51.25504], [3.98541, 51.25714], [3.98778, 51.25717], [3.98632, 51.25731], [3.9885, 51.25773], [3.99015, 51.25847], [3.99137, 51.25678], [3.99318, 51.25589], [3.99227, 51.25518], [3.98993, 51.25577], [3.98709, 51.25561]]], [[[3.98372, 51.24226], [3.98066, 51.24377], [3.97727, 51.24426], [3.97659, 51.24464], [3.97681, 51.24556], [3.97898, 51.24532], [3.98141, 51.24559], [3.98642, 51.24697], [3.98883, 51.24846], [3.99062, 51.24867], [3.98421, 51.24216], [3.98372, 51.24226]]], [[[3.96644, 51.26363], [3.96534, 51.26255], [3.96058, 51.26192], [3.96028, 51.26406], [3.96084, 51.26447], [3.96346, 51.26436], [3.96821, 51.26505], [3.9714, 51.26587], [3.97416, 51.2661], [3.97602, 51.26673], [3.97752, 51.26644], [3.97838, 51.26515], [3.97738, 51.26457], [3.96926, 51.26464], [3.96644, 51.26363]]], [[[3.92881, 51.23593], [3.92899, 51.23647], [3.92954, 51.23644], [3.93243, 51.23276], [3.93027, 51.23193], [3.92779, 51.23471], [3.92881, 51.23593]]], [[[3.91464, 51.22525], [3.91348, 51.22544], [3.913, 51.22603], [3.91466, 51.22812], [3.91557, 51.22842], [3.91744, 51.22726], [3.91781, 51.22639], [3.91645, 51.22559], [3.91464, 51.22525]]], [[[3.9096, 51.21953], [3.91012, 51.2198], [3.91042, 51.21911], [3.91003, 51.21872], [3.90555, 51.21554], [3.90293, 51.21572], [3.90568, 51.21853], [3.9096, 51.21953]]], [[[3.92953, 51.21865], [3.92834, 51.21957], [3.92827, 51.22083], [3.92995, 51.22121], [3.92953, 51.21865]]], [[[3.94898, 51.22113], [3.95005, 51.2216], [3.95027, 51.22162], [3.95034, 51.22149], [3.94898, 51.22113]]], [[[3.94035, 51.22097], [3.94121, 51.22074], [3.94123, 51.21993], [3.9363, 51.21858], [3.93606, 51.21929], [3.9384, 51.21979], [3.94035, 51.22097]]], [[[3.93641, 51.21833], [3.93674, 51.21838], [3.93945, 51.21901], [3.93903, 51.21765], [3.93623, 51.21699], [3.93641, 51.21833]]], [[[3.93962, 51.23388], [3.93927, 51.23282], [3.93661, 51.23616], [3.93984, 51.23536], [3.93962, 51.23388]]], [[[3.85675, 51.29053], [3.85529, 51.29157], [3.85648, 51.29177], [3.85984, 51.29079], [3.85829, 51.28983], [3.85675, 51.29053]]], [[[3.86232, 51.28594], [3.86219, 51.2867], [3.86599, 51.28852], [3.86715, 51.28717], [3.86612, 51.28631], [3.86405, 51.2851], [3.86232, 51.28594]]], [[[3.85302, 51.24028], [3.85305, 51.24027], [3.85298, 51.24017], [3.85302, 51.24026], [3.85302, 51.24028]]], [[[3.85042, 51.23778], [3.85067, 51.23792], [3.85125, 51.23828], [3.85051, 51.23763], [3.85042, 51.23778]]], [[[3.82084, 51.22452], [3.82597, 51.22322], [3.82941, 51.223], [3.82288, 51.22166], [3.82083, 51.22192], [3.8201, 51.22482], [3.82084, 51.22452]]], [[[3.82698, 51.21789], [3.82655, 51.21773], [3.82658, 51.21844], [3.82861, 51.21881], [3.82698, 51.21789]]], [[[3.83205, 51.21371], [3.83146, 51.21371], [3.83212, 51.2143], [3.83245, 51.21404], [3.83205, 51.21371]]], [[[3.8339, 51.20948], [3.83401, 51.20996], [3.8361, 51.21078], [3.83758, 51.2119], [3.83932, 51.21126], [3.83838, 51.21039], [3.83649, 51.20976], [3.83549, 51.20855], [3.8339, 51.20948]]], [[[3.84217, 51.20727], [3.84214, 51.20732], [3.84243, 51.20747], [3.84217, 51.20727]]], [[[3.84735, 51.21029], [3.84608, 51.21], [3.84614, 51.21095], [3.84681, 51.21075], [3.84735, 51.21029]]], [[[3.84676, 51.21591], [3.84729, 51.21546], [3.84683, 51.21502], [3.8449, 51.21513], [3.84251, 51.21456], [3.84172, 51.21488], [3.84396, 51.21579], [3.84676, 51.21591]]], [[[3.8573, 51.21452], [3.85663, 51.21532], [3.85685, 51.21546], [3.85787, 51.21463], [3.8573, 51.21452]]], [[[3.85628, 51.22092], [3.85615, 51.22023], [3.85205, 51.21791], [3.85076, 51.21898], [3.85572, 51.22131], [3.85628, 51.22092]]], [[[3.85713, 51.22876], [3.85575, 51.22779], [3.85505, 51.22838], [3.8575, 51.22954], [3.85786, 51.22906], [3.85713, 51.22876]]], [[[3.86748, 51.2287], [3.86627, 51.22778], [3.8631, 51.23218], [3.87064, 51.23573], [3.87323, 51.23576], [3.87594, 51.2367], [3.88115, 51.2349], [3.87927, 51.23237], [3.87715, 51.23157], [3.87473, 51.23175], [3.87246, 51.2313], [3.8699, 51.22953], [3.86748, 51.2287]]], [[[3.88728, 51.23803], [3.88597, 51.23767], [3.88497, 51.238], [3.88596, 51.2391], [3.89197, 51.24279], [3.89249, 51.24252], [3.8912, 51.24143], [3.89047, 51.24007], [3.89063, 51.2385], [3.88728, 51.23803]]], [[[3.89794, 51.24589], [3.89611, 51.24565], [3.89425, 51.24664], [3.89279, 51.24838], [3.90381, 51.24991], [3.90528, 51.24872], [3.9058, 51.24676], [3.90672, 51.24562], [3.90207, 51.24496], [3.9001, 51.24567], [3.89794, 51.24589]]], [[[3.87531, 51.25723], [3.87559, 51.25621], [3.87242, 51.25623], [3.87422, 51.25836], [3.87527, 51.25801], [3.87531, 51.25723]]], [[[3.87973, 51.26138], [3.879, 51.26113], [3.87696, 51.26182], [3.8774, 51.26235], [3.88076, 51.26323], [3.88424, 51.2631], [3.88511, 51.26228], [3.88492, 51.26183], [3.88266, 51.262], [3.87973, 51.26138]]], [[[3.81658, 51.31356], [3.81597, 51.31325], [3.8158, 51.3148], [3.81465, 51.3161], [3.81578, 51.31694], [3.81782, 51.31574], [3.81658, 51.31356]]], [[[3.81498, 51.30431], [3.8159, 51.30378], [3.81422, 51.30295], [3.81459, 51.30404], [3.81498, 51.30431]]], [[[3.80043, 51.2824], [3.80022, 51.28275], [3.80239, 51.28316], [3.80957, 51.28325], [3.80906, 51.28127], [3.80684, 51.2825], [3.80482, 51.28296], [3.80281, 51.28296], [3.80043, 51.2824]]], [[[3.81309, 51.27676], [3.81401, 51.27638], [3.81549, 51.27605], [3.81368, 51.2752], [3.81272, 51.27696], [3.81309, 51.27676]]], [[[3.81688, 51.25396], [3.81577, 51.25441], [3.81734, 51.25536], [3.81765, 51.2567], [3.81876, 51.2571], [3.82122, 51.25588], [3.82116, 51.25556], [3.81951, 51.2539], [3.81688, 51.25396]]], [[[3.82752, 51.24842], [3.82657, 51.24948], [3.8284, 51.2513], [3.82889, 51.25092], [3.82856, 51.2495], [3.82924, 51.248], [3.82752, 51.24842]]], [[[3.8202, 51.23672], [3.81996, 51.23592], [3.81903, 51.23775], [3.82027, 51.23819], [3.82072, 51.23766], [3.8202, 51.23672]]], [[[3.82788, 51.23936], [3.82603, 51.23961], [3.82574, 51.23994], [3.82923, 51.24109], [3.83082, 51.23976], [3.83334, 51.23938], [3.83133, 51.23853], [3.83006, 51.23838], [3.82788, 51.23936]]], [[[3.83832, 51.24199], [3.83789, 51.24148], [3.83736, 51.24131], [3.83822, 51.24271], [3.83872, 51.24246], [3.83832, 51.24199]]], [[[3.83187, 51.2547], [3.83319, 51.25613], [3.83488, 51.25558], [3.8331, 51.25379], [3.83187, 51.2547]]], [[[3.82299, 51.1725], [3.8219, 51.17233], [3.82141, 51.17174], [3.82211, 51.17149], [3.82121, 51.17133], [3.82292, 51.17106], [3.8228, 51.17079], [3.82317, 51.171], [3.823, 51.17053], [3.8208, 51.1711], [3.82191, 51.17266], [3.82114, 51.17272], [3.82183, 51.1738], [3.82117, 51.17394], [3.82231, 51.17511], [3.8231, 51.17492], [3.82299, 51.1725]]], [[[3.82326, 51.17117], [3.82306, 51.17128], [3.82334, 51.172], [3.82355, 51.17177], [3.82326, 51.17117]]], [[[3.82026, 51.17131], [3.82038, 51.17121], [3.82022, 51.17125], [3.82026, 51.17131]]], [[[3.77766, 51.21243], [3.78389, 51.2134], [3.78226, 51.21232], [3.78015, 51.2091], [3.78009, 51.2083], [3.77742, 51.2087], [3.77502, 51.21014], [3.77521, 51.21219], [3.77572, 51.21264], [3.77766, 51.21243]], [[3.77697, 51.20929], [3.77821, 51.2101], [3.77704, 51.21084], [3.77628, 51.21041], [3.77725, 51.2097], [3.77697, 51.20929]]], [[[3.78139, 51.20843], [3.78031, 51.20827], [3.78037, 51.20905], [3.78238, 51.21219], [3.78441, 51.21345], [3.78561, 51.2136], [3.78779, 51.21183], [3.78654, 51.21042], [3.78637, 51.20907], [3.78491, 51.20845], [3.78139, 51.20843]]], [[[3.78514, 51.18649], [3.78468, 51.18706], [3.78536, 51.18735], [3.78472, 51.18762], [3.78495, 51.19006], [3.78567, 51.19111], [3.78632, 51.19097], [3.78729, 51.18886], [3.78898, 51.18784], [3.78738, 51.18612], [3.78544, 51.18589], [3.78514, 51.18649]]], [[[3.80623, 51.32686], [3.80647, 51.32633], [3.80562, 51.32614], [3.80593, 51.32647], [3.80623, 51.32686]]], [[[3.7979, 51.30581], [3.79782, 51.30575], [3.7977, 51.30565], [3.7979, 51.30587], [3.7979, 51.30581]]], [[[3.79721, 51.30503], [3.79672, 51.3049], [3.79753, 51.30548], [3.79732, 51.30523], [3.79721, 51.30503]]], [[[3.79564, 51.30001], [3.79634, 51.30098], [3.79938, 51.30142], [3.80036, 51.29943], [3.79883, 51.29932], [3.79564, 51.30001]]], [[[3.80641, 51.30896], [3.80506, 51.30835], [3.80426, 51.30997], [3.80579, 51.31037], [3.80712, 51.30939], [3.80641, 51.30896]]], [[[3.79587, 51.31208], [3.79599, 51.31197], [3.79563, 51.31187], [3.79558, 51.31202], [3.79587, 51.31208]]], [[[3.78152, 51.28352], [3.78223, 51.28299], [3.78269, 51.28274], [3.78072, 51.28273], [3.77998, 51.28391], [3.78085, 51.28433], [3.78152, 51.28352]]], [[[3.77639, 51.28711], [3.77662, 51.28716], [3.77642, 51.28706], [3.77639, 51.28711]]], [[[3.77966, 51.27788], [3.77894, 51.27888], [3.78068, 51.27887], [3.78314, 51.27635], [3.7827, 51.2756], [3.78128, 51.27624], [3.77966, 51.27788]]], [[[3.78312, 51.27722], [3.78313, 51.27679], [3.7811, 51.27887], [3.78309, 51.27889], [3.78312, 51.27722]]], [[[3.7998, 51.2719], [3.79822, 51.27263], [3.79841, 51.27492], [3.79967, 51.27595], [3.80134, 51.27535], [3.80149, 51.27378], [3.80247, 51.2724], [3.8019, 51.27161], [3.80086, 51.27147], [3.7998, 51.2719]]], [[[3.84336, 51.1864], [3.84309, 51.18631], [3.84376, 51.18734], [3.84419, 51.18701], [3.84336, 51.1864]]], [[[3.82295, 51.27697], [3.82301, 51.27563], [3.82303, 51.27507], [3.82205, 51.27721], [3.82295, 51.27697]]], [[[3.90134, 51.3483], [3.90249, 51.34841], [3.9031, 51.34854], [3.90209, 51.3476], [3.90069, 51.3473], [3.90134, 51.3483]]], [[[3.88755, 51.33232], [3.88858, 51.33151], [3.88524, 51.33176], [3.88319, 51.33089], [3.88282, 51.33136], [3.88413, 51.33244], [3.88468, 51.33366], [3.88755, 51.33232]]], [[[3.89666, 51.33014], [3.89475, 51.33025], [3.89482, 51.3307], [3.89672, 51.33133], [3.89879, 51.33262], [3.90105, 51.33191], [3.90392, 51.33186], [3.90421, 51.33005], [3.90645, 51.32829], [3.90628, 51.32746], [3.90551, 51.32717], [3.90086, 51.3276], [3.89912, 51.3293], [3.89666, 51.33014]]], [[[3.90704, 51.32336], [3.90749, 51.32346], [3.90757, 51.3233], [3.9067, 51.32331], [3.90704, 51.32336]]], [[[3.89058, 51.3106], [3.89051, 51.3106], [3.89058, 51.31062], [3.89058, 51.3106]]], [[[3.88484, 51.30668], [3.88519, 51.30564], [3.87648, 51.30774], [3.8765, 51.30827], [3.87861, 51.30772], [3.88227, 51.30772], [3.88466, 51.30853], [3.88602, 51.30973], [3.8869, 51.3097], [3.88537, 51.30848], [3.88484, 51.30668]]], [[[3.90064, 51.29351], [3.89991, 51.2932], [3.89949, 51.29341], [3.89972, 51.29349], [3.90064, 51.29351]]], [[[3.9006, 51.29879], [3.90128, 51.29898], [3.90011, 51.29843], [3.90025, 51.29852], [3.9006, 51.29879]]], [[[3.88854, 51.27815], [3.89131, 51.27737], [3.89367, 51.27739], [3.89301, 51.27626], [3.89349, 51.27516], [3.89099, 51.27418], [3.88939, 51.2727], [3.88826, 51.27246], [3.88806, 51.27451], [3.88672, 51.27594], [3.8852, 51.27682], [3.88474, 51.27822], [3.88679, 51.27867], [3.88854, 51.27815]]], [[[3.89644, 51.27816], [3.8968, 51.27821], [3.89742, 51.27793], [3.89633, 51.27811], [3.89644, 51.27816]]], [[[3.87156, 51.31776], [3.87112, 51.3173], [3.87039, 51.31874], [3.87231, 51.3187], [3.87156, 51.31776]]], [[[3.88639, 51.31852], [3.88688, 51.31799], [3.88398, 51.31747], [3.88411, 51.31879], [3.88591, 51.31957], [3.88639, 51.31852]]], [[[3.87761, 51.22434], [3.87774, 51.22463], [3.88087, 51.22627], [3.88078, 51.22446], [3.87986, 51.22351], [3.87947, 51.22218], [3.87736, 51.22397], [3.87761, 51.22434]]], [[[3.88416, 51.21447], [3.88208, 51.21472], [3.88101, 51.21474], [3.88489, 51.21588], [3.88416, 51.21447]]], [[[3.86574, 51.1837], [3.86495, 51.18401], [3.86455, 51.18413], [3.86633, 51.18416], [3.86574, 51.1837]]], [[[3.90606, 51.20436], [3.90517, 51.2043], [3.9094, 51.20583], [3.9096, 51.20532], [3.90606, 51.20436]]], [[[3.91457, 51.27797], [3.91142, 51.27944], [3.91014, 51.28075], [3.9128, 51.28017], [3.91558, 51.2804], [3.91771, 51.28134], [3.91878, 51.28247], [3.92132, 51.28207], [3.92352, 51.28224], [3.92629, 51.28336], [3.92754, 51.28487], [3.9295, 51.28492], [3.92714, 51.28177], [3.92593, 51.27899], [3.92336, 51.27801], [3.91862, 51.27844], [3.91485, 51.27774], [3.91457, 51.27797]]], [[[3.9274, 51.2742], [3.92719, 51.27496], [3.9288, 51.27557], [3.93077, 51.27483], [3.93289, 51.27465], [3.93497, 51.27368], [3.93331, 51.27253], [3.93078, 51.2718], [3.92797, 51.27272], [3.9274, 51.2742]]], [[[3.91261, 51.348], [3.91185, 51.3486], [3.91643, 51.34944], [3.92359, 51.35317], [3.92534, 51.3531], [3.92387, 51.35107], [3.92098, 51.35035], [3.91927, 51.34947], [3.91733, 51.34701], [3.91407, 51.34614], [3.91261, 51.348]]], [[[3.91056, 51.35327], [3.91203, 51.35263], [3.90893, 51.3521], [3.90871, 51.35238], [3.90999, 51.35368], [3.91056, 51.35327]]], [[[3.91116, 51.33706], [3.91135, 51.33808], [3.91422, 51.33955], [3.91642, 51.33914], [3.91607, 51.33475], [3.9155, 51.33371], [3.91286, 51.33507], [3.90979, 51.33552], [3.91116, 51.33706]]], [[[3.92406, 51.33601], [3.92364, 51.33571], [3.92298, 51.33584], [3.92348, 51.33989], [3.92601, 51.34028], [3.92768, 51.34104], [3.92947, 51.34058], [3.93166, 51.34057], [3.93328, 51.33932], [3.92844, 51.33797], [3.92406, 51.33601]]], [[[3.92428, 51.31772], [3.9251, 51.31707], [3.9246, 51.31673], [3.92301, 51.31739], [3.92171, 51.31831], [3.92171, 51.31875], [3.9235, 51.31879], [3.92428, 51.31772]]], [[[3.92721, 51.30676], [3.9252, 51.30644], [3.92442, 51.30747], [3.92207, 51.30852], [3.92801, 51.31024], [3.92834, 51.30856], [3.92947, 51.30739], [3.93123, 51.30658], [3.93335, 51.30621], [3.933, 51.30551], [3.93055, 51.30656], [3.92721, 51.30676]]], [[[3.93311, 51.30022], [3.93376, 51.30084], [3.93418, 51.30091], [3.93393, 51.30056], [3.93311, 51.30022]]], [[[3.93133, 51.29887], [3.931, 51.29898], [3.93228, 51.29971], [3.9314, 51.29889], [3.93133, 51.29887]]], [[[3.93663, 51.28794], [3.93696, 51.28863], [3.93921, 51.28836], [3.93679, 51.28751], [3.93663, 51.28794]]], [[[3.92975, 51.32878], [3.92929, 51.32813], [3.92699, 51.32976], [3.92721, 51.33001], [3.92964, 51.3298], [3.92975, 51.32878]]], [[[3.92968, 51.35485], [3.93033, 51.35596], [3.93301, 51.35652], [3.93575, 51.356], [3.93514, 51.35492], [3.9341, 51.35429], [3.93197, 51.35486], [3.92968, 51.35485]]], [[[3.93766, 51.36072], [3.93742, 51.35971], [3.9366, 51.35987], [3.93731, 51.36077], [3.93766, 51.36072]]], [[[3.93622, 51.34471], [3.93609, 51.34505], [3.93593, 51.34533], [3.93659, 51.34485], [3.93627, 51.34448], [3.93622, 51.34471]]], [[[3.94239, 51.32195], [3.94165, 51.32175], [3.9413, 51.32257], [3.94382, 51.32212], [3.94239, 51.32195]]], [[[3.96029, 51.22315], [3.96028, 51.22304], [3.96028, 51.22291], [3.95997, 51.22302], [3.96029, 51.22315]]], [[[3.95531, 51.27444], [3.95349, 51.27445], [3.95292, 51.27515], [3.95607, 51.27607], [3.95765, 51.27692], [3.95955, 51.27653], [3.95833, 51.27504], [3.95531, 51.27444]]], [[[3.99342, 51.35657], [3.99282, 51.35802], [3.99356, 51.35932], [3.99543, 51.35939], [3.99568, 51.35743], [3.99495, 51.35682], [3.99342, 51.35657]]], [[[4.02488, 51.34442], [4.02525, 51.34368], [4.02233, 51.34454], [4.0247, 51.34494], [4.02488, 51.34442]]], [[[4.00461, 51.34791], [4.00481, 51.34871], [4.00764, 51.34961], [4.00836, 51.34869], [4.00656, 51.34804], [4.00461, 51.34791]]], [[[3.99312, 51.33205], [3.99425, 51.33247], [3.99749, 51.33212], [3.99825, 51.33145], [3.99637, 51.33105], [3.99434, 51.3314], [3.99236, 51.33128], [3.99312, 51.33205]]], [[[4.00379, 51.31709], [4.00269, 51.3173], [4.00117, 51.31809], [4.0042, 51.31709], [4.00379, 51.31709]]], [[[3.96775, 51.34187], [3.96747, 51.34487], [3.97246, 51.34231], [3.97242, 51.34102], [3.97015, 51.34179], [3.96775, 51.34187]]], [[[3.97939, 51.34236], [3.9786, 51.3419], [3.97862, 51.34326], [3.97942, 51.34251], [3.97939, 51.34236]]], [[[3.9688, 51.3338], [3.96821, 51.33427], [3.97047, 51.33443], [3.97255, 51.33521], [3.97354, 51.33343], [3.9688, 51.3338]]], [[[3.96119, 51.31692], [3.96324, 51.31646], [3.96186, 51.31402], [3.95868, 51.316], [3.95908, 51.31756], [3.96119, 51.31692]]], [[[3.96034, 51.30858], [3.96163, 51.30942], [3.97838, 51.30984], [3.97823, 51.30698], [3.97957, 51.30519], [3.97535, 51.30436], [3.97296, 51.3057], [3.97009, 51.30649], [3.96737, 51.30671], [3.96518, 51.30738], [3.96158, 51.3073], [3.95809, 51.30797], [3.96034, 51.30858]]], [[[3.96822, 51.31374], [3.96865, 51.31449], [3.96914, 51.31376], [3.96822, 51.31374]]], [[[3.97996, 51.35515], [3.98051, 51.3553], [3.98096, 51.35467], [3.97931, 51.35443], [3.97928, 51.35492], [3.97996, 51.35515]]], [[[3.98601, 51.39435], [3.98566, 51.39467], [3.9856, 51.39504], [3.9863, 51.39418], [3.98601, 51.39435]]], [[[4.0165, 51.33737], [4.01775, 51.33652], [4.0144, 51.33665], [4.01462, 51.33682], [4.0165, 51.33737]]], [[[4.01736, 51.33208], [4.01727, 51.33268], [4.02055, 51.33255], [4.01852, 51.33094], [4.01784, 51.33096], [4.01736, 51.33208]]], [[[4.02496, 51.30804], [4.02481, 51.30794], [4.02444, 51.30835], [4.02517, 51.3082], [4.02496, 51.30804]]], [[[4.01574, 51.31699], [4.0122, 51.31761], [4.01648, 51.31827], [4.01947, 51.31931], [4.01964, 51.31787], [4.01839, 51.31671], [4.01797, 51.31501], [4.01574, 51.31699]]], [[[4.01, 51.29989], [4.00955, 51.30085], [4.01084, 51.3008], [4.0126, 51.29961], [4.01771, 51.2976], [4.01555, 51.29573], [4.01248, 51.29676], [4.00999, 51.29704], [4.01, 51.29989]]], [[[4.00571, 51.30504], [4.00586, 51.305], [4.00641, 51.30484], [4.00564, 51.30486], [4.00571, 51.30504]]], [[[4.00736, 51.37785], [4.00744, 51.37821], [4.00746, 51.37844], [4.00742, 51.37786], [4.00736, 51.37785]]], [[[4.00099, 51.36249], [4.00103, 51.3625], [4.00112, 51.36251], [4.00111, 51.3625], [4.00099, 51.36249]]], [[[4.00798, 51.35979], [4.00671, 51.36076], [4.00713, 51.36163], [4.00968, 51.36135], [4.01204, 51.35962], [4.00848, 51.35898], [4.00798, 51.35979]]], [[[3.53274, 51.25634], [3.53421, 51.25804], [3.53729, 51.25765], [3.53635, 51.25634], [3.53461, 51.25664], [3.53274, 51.25634]]], [[[3.50404, 51.28517], [3.50413, 51.28511], [3.50397, 51.28499], [3.50404, 51.28517]]], [[[3.52412, 51.25878], [3.52423, 51.25855], [3.52371, 51.25863], [3.52391, 51.25876], [3.52412, 51.25878]]], [[[3.67725, 51.2944], [3.67741, 51.29375], [3.67494, 51.29438], [3.67627, 51.29512], [3.67725, 51.2944]]], [[[3.77006, 51.26502], [3.77027, 51.26485], [3.77003, 51.26497], [3.77006, 51.26502]]], [[[3.77765, 51.26599], [3.77766, 51.26601], [3.7777, 51.26603], [3.77764, 51.26595], [3.77765, 51.26599]]], [[[3.79216, 51.50426], [3.79149, 51.50419], [3.79055, 51.50457], [3.79119, 51.50466], [3.79216, 51.50426]]], [[[3.79805, 51.49829], [3.79801, 51.49838], [3.7986, 51.49815], [3.79807, 51.49817], [3.79805, 51.49829]]], [[[3.78084, 51.47509], [3.78117, 51.47534], [3.78216, 51.47379], [3.77954, 51.47332], [3.77899, 51.47369], [3.78084, 51.47509]]], [[[3.78872, 51.47067], [3.78907, 51.47075], [3.78958, 51.46947], [3.79085, 51.46837], [3.79023, 51.46802], [3.78945, 51.46946], [3.78831, 51.46959], [3.78872, 51.47067]]], [[[3.78707, 51.47051], [3.78804, 51.47059], [3.78796, 51.4695], [3.78767, 51.46993], [3.78707, 51.47051]]], [[[3.79275, 51.45453], [3.79167, 51.45437], [3.7916, 51.45481], [3.79173, 51.45482], [3.79275, 51.45453]]], [[[3.79108, 51.45044], [3.79191, 51.45051], [3.79203, 51.44999], [3.79104, 51.45037], [3.79108, 51.45044]]], [[[3.77744, 51.43308], [3.77776, 51.43418], [3.77989, 51.43565], [3.78238, 51.43599], [3.78372, 51.43549], [3.77744, 51.43308]]], [[[3.78707, 51.43157], [3.78821, 51.43209], [3.78812, 51.43077], [3.78532, 51.43077], [3.78707, 51.43157]]], [[[3.78985, 51.41596], [3.79087, 51.41537], [3.78961, 51.41299], [3.78804, 51.41234], [3.78728, 51.4125], [3.78849, 51.41428], [3.7887, 51.41568], [3.78985, 51.41596]]], [[[3.63977, 51.45751], [3.63908, 51.45931], [3.63906, 51.45968], [3.64294, 51.45843], [3.64169, 51.45738], [3.64072, 51.45715], [3.63977, 51.45751]]], [[[3.63289, 51.45895], [3.63297, 51.45871], [3.63065, 51.45925], [3.63066, 51.4595], [3.63278, 51.45988], [3.63289, 51.45895]]], [[[3.72425, 51.50641], [3.72283, 51.50631], [3.72159, 51.50623], [3.72294, 51.50724], [3.72425, 51.50641]]], [[[3.74572, 51.51022], [3.74337, 51.50972], [3.74162, 51.50871], [3.74024, 51.50867], [3.73939, 51.50958], [3.73821, 51.51006], [3.74572, 51.51022]]], [[[3.72977, 51.50967], [3.72951, 51.50982], [3.73486, 51.50973], [3.73238, 51.50932], [3.72977, 51.50967]]], [[[3.6866, 51.48297], [3.68746, 51.48275], [3.68579, 51.48202], [3.68371, 51.48229], [3.68258, 51.48326], [3.68307, 51.48348], [3.6866, 51.48297]]], [[[3.71606, 51.50037], [3.71607, 51.50032], [3.71615, 51.49992], [3.71552, 51.50045], [3.71606, 51.50037]]], [[[3.72284, 51.4903], [3.7224, 51.4907], [3.72568, 51.48979], [3.72693, 51.48209], [3.72642, 51.48194], [3.72462, 51.48809], [3.72284, 51.4903]]], [[[3.77435, 51.50333], [3.77444, 51.50312], [3.77242, 51.50318], [3.77423, 51.504], [3.77435, 51.50333]]], [[[3.73872, 51.5047], [3.73877, 51.50477], [3.74055, 51.50475], [3.74036, 51.50463], [3.73872, 51.5047]]], [[[3.74701, 51.45562], [3.74694, 51.45585], [3.74697, 51.45617], [3.74722, 51.45575], [3.74701, 51.45562]]], [[[3.74459, 51.4374], [3.7445, 51.43731], [3.74448, 51.43736], [3.74459, 51.4374]]], [[[3.77631, 51.4145], [3.77374, 51.41539], [3.7745, 51.41636], [3.77805, 51.4172], [3.77713, 51.41504], [3.77631, 51.4145]]], [[[3.7751, 51.47724], [3.77401, 51.4764], [3.7734, 51.47722], [3.77504, 51.47841], [3.77596, 51.47788], [3.7751, 51.47724]]], [[[3.9188, 51.47371], [3.91945, 51.47306], [3.91619, 51.47278], [3.91576, 51.47309], [3.916, 51.474], [3.9188, 51.47371]]], [[[3.85463, 51.44571], [3.85505, 51.44563], [3.85488, 51.4444], [3.85431, 51.44552], [3.85463, 51.44571]]], [[[3.84844, 51.23063], [3.85335, 51.23358], [3.8543, 51.23285], [3.84563, 51.22875], [3.84844, 51.23063]]], [[[3.86007, 51.24052], [3.86051, 51.24123], [3.86169, 51.24318], [3.86357, 51.24209], [3.86007, 51.24052]]], [[[3.85092, 51.2244], [3.84827, 51.22316], [3.84567, 51.22394], [3.85014, 51.22606], [3.85168, 51.22477], [3.85092, 51.2244]]], [[[3.8181, 51.50442], [3.81807, 51.50464], [3.82021, 51.50456], [3.82174, 51.50425], [3.82307, 51.5029], [3.8178, 51.50289], [3.8181, 51.50442]]], [[[3.82628, 51.4608], [3.82592, 51.46081], [3.8269, 51.46231], [3.82754, 51.46167], [3.82628, 51.4608]]], [[[3.82618, 51.46488], [3.82648, 51.46502], [3.82635, 51.46465], [3.82621, 51.46485], [3.82618, 51.46488]]], [[[3.83278, 51.44536], [3.83275, 51.44532], [3.8327, 51.44544], [3.83281, 51.44539], [3.83278, 51.44536]]], [[[3.83035, 51.40758], [3.82996, 51.40732], [3.82972, 51.40766], [3.8305, 51.40766], [3.83035, 51.40758]]], [[[3.82511, 51.39217], [3.82528, 51.39139], [3.82361, 51.39254], [3.82468, 51.39274], [3.82511, 51.39217]]], [[[3.81251, 51.45414], [3.81232, 51.45394], [3.81187, 51.45478], [3.813, 51.45733], [3.81224, 51.4592], [3.81273, 51.46063], [3.81363, 51.4613], [3.8132, 51.45934], [3.81425, 51.45567], [3.81251, 51.45414]]], [[[3.80501, 51.40536], [3.80697, 51.40434], [3.80618, 51.40223], [3.80389, 51.40306], [3.80148, 51.40317], [3.79956, 51.40434], [3.79968, 51.40639], [3.79751, 51.40872], [3.79938, 51.40936], [3.80353, 51.40604], [3.80501, 51.40536]]], [[[3.83154, 51.47793], [3.83419, 51.47975], [3.83572, 51.47886], [3.8324, 51.47753], [3.83154, 51.47793]]], [[[3.84024, 51.47844], [3.84026, 51.47844], [3.8403, 51.47841], [3.84023, 51.47844], [3.84024, 51.47844]]], [[[3.8359, 51.39279], [3.83603, 51.39271], [3.83471, 51.39242], [3.83554, 51.39312], [3.8359, 51.39279]]], [[[3.84386, 51.40271], [3.84346, 51.4024], [3.84321, 51.40374], [3.84403, 51.40309], [3.84386, 51.40271]]], [[[3.8475, 51.46327], [3.84395, 51.46336], [3.84129, 51.46464], [3.84139, 51.46641], [3.84242, 51.46676], [3.84791, 51.4644], [3.84848, 51.46394], [3.8475, 51.46327]]], [[[3.88759, 51.2455], [3.88393, 51.24325], [3.88108, 51.24423], [3.87892, 51.24441], [3.87682, 51.24406], [3.87464, 51.24312], [3.87366, 51.24342], [3.87311, 51.246], [3.88663, 51.24751], [3.88802, 51.24577], [3.88759, 51.2455]]], [[[3.89253, 51.42225], [3.88752, 51.42247], [3.88701, 51.42389], [3.8919, 51.42367], [3.89323, 51.4231], [3.89253, 51.42225]]], [[[3.8634, 51.41337], [3.86338, 51.41358], [3.86393, 51.41365], [3.86401, 51.41322], [3.8634, 51.41337]]], [[[3.87274, 51.40078], [3.87073, 51.40168], [3.86927, 51.4021], [3.87054, 51.40271], [3.87183, 51.40249], [3.87388, 51.4007], [3.87274, 51.40078]]], [[[3.8625, 51.45997], [3.86282, 51.45992], [3.86244, 51.45968], [3.86242, 51.45971], [3.8625, 51.45997]]], [[[3.85605, 51.39612], [3.85626, 51.39756], [3.85773, 51.39833], [3.85957, 51.39784], [3.86205, 51.39785], [3.86212, 51.39739], [3.85911, 51.39588], [3.85605, 51.39612]]], [[[3.89417, 51.41192], [3.89448, 51.41198], [3.89528, 51.4112], [3.89467, 51.41103], [3.89417, 51.41192]]], [[[3.88955, 51.46948], [3.8892, 51.4694], [3.88936, 51.46974], [3.89146, 51.47003], [3.89176, 51.46978], [3.88955, 51.46948]]], [[[3.9391, 51.45373], [3.93818, 51.45501], [3.93767, 51.45573], [3.93923, 51.45378], [3.9391, 51.45373]]], [[[4.01448, 51.34977], [4.01456, 51.34953], [4.01413, 51.35008], [4.01444, 51.34997], [4.01448, 51.34977]]], [[[3.92365, 51.24916], [3.92492, 51.24944], [3.9251, 51.24897], [3.92359, 51.24902], [3.92365, 51.24916]]], [[[3.92087, 51.23283], [3.9201, 51.23307], [3.92012, 51.23324], [3.92029, 51.23314], [3.92087, 51.23283]]], [[[3.99098, 51.28984], [3.99135, 51.29043], [3.99336, 51.28995], [3.99379, 51.29015], [3.99326, 51.28878], [3.99323, 51.28993], [3.9929, 51.28876], [3.99193, 51.28858], [3.99098, 51.28984]]], [[[3.78991, 51.4678], [3.7891, 51.46697], [3.78844, 51.46563], [3.78793, 51.46612], [3.78845, 51.46755], [3.78803, 51.46937], [3.78908, 51.46919], [3.78991, 51.4678]]], [[[3.75911, 51.51014], [3.75872, 51.5099], [3.75861, 51.50981], [3.7588, 51.5103], [3.75938, 51.51028], [3.75911, 51.51014]]], [[[3.7046, 51.49612], [3.70453, 51.4962], [3.70455, 51.49622], [3.7046, 51.49612]]], [[[3.7051, 51.49493], [3.70499, 51.4954], [3.70486, 51.49571], [3.7054, 51.49514], [3.7051, 51.49493]]], [[[3.69804, 51.50677], [3.69709, 51.50632], [3.69612, 51.50677], [3.69818, 51.50702], [3.69804, 51.50677]]], [[[3.85951, 51.41891], [3.85901, 51.41912], [3.85946, 51.41962], [3.86007, 51.41862], [3.85951, 51.41891]]], [[[3.84934, 51.42486], [3.84894, 51.42453], [3.84852, 51.42481], [3.84966, 51.42507], [3.84934, 51.42486]]], [[[3.84534, 51.43682], [3.84612, 51.43659], [3.84271, 51.43606], [3.8424, 51.43634], [3.84435, 51.43727], [3.84534, 51.43682]]]]}, "properties": {"kind": "windland", "area_km2": 23.21}}, {"type": "Feature", "geometry": {"type": "MultiPolygon", "coordinates": [[[[3.7377, 51.32071], [3.73782, 51.3205], [3.73734, 51.32002], [3.73735, 51.32067], [3.7377, 51.32071]]], [[[3.74265, 51.3196], [3.74259, 51.32022], [3.74345, 51.32118], [3.74353, 51.32163], [3.74475, 51.32222], [3.74479, 51.32125], [3.74218, 51.31902], [3.74265, 51.3196]]], [[[3.74292, 51.31906], [3.74252, 51.31909], [3.74492, 51.32125], [3.74493, 51.32229], [3.74602, 51.32186], [3.74627, 51.32026], [3.7473, 51.32012], [3.74952, 51.31897], [3.74292, 51.31906]], [[3.74472, 51.32021], [3.7452, 51.32013], [3.74564, 51.32037], [3.74547, 51.32089], [3.74502, 51.32091], [3.74459, 51.32066], [3.74472, 51.32021]]], [[[3.74097, 51.32414], [3.74084, 51.32419], [3.74095, 51.32429], [3.7411, 51.32425], [3.74097, 51.32414]]], [[[3.74515, 51.32391], [3.74523, 51.32439], [3.74552, 51.32457], [3.74675, 51.32468], [3.74517, 51.32375], [3.74515, 51.32391]]], [[[3.73884, 51.32792], [3.73899, 51.32768], [3.73959, 51.32748], [3.74006, 51.32776], [3.74081, 51.32785], [3.73796, 51.32663], [3.73744, 51.3267], [3.73746, 51.32736], [3.73836, 51.32789], [3.73894, 51.32861], [3.74014, 51.32973], [3.74073, 51.33023], [3.74202, 51.33175], [3.74207, 51.3322], [3.74237, 51.33194], [3.74288, 51.33195], [3.74335, 51.33275], [3.74376, 51.33282], [3.74359, 51.3319], [3.74158, 51.33026], [3.74206, 51.33007], [3.7463, 51.33196], [3.74683, 51.332], [3.74742, 51.33238], [3.74795, 51.33301], [3.74769, 51.33344], [3.74813, 51.33387], [3.7484, 51.33474], [3.7496, 51.33467], [3.75008, 51.33388], [3.75083, 51.33355], [3.7505, 51.33316], [3.74784, 51.33184], [3.74799, 51.33149], [3.74903, 51.33092], [3.74943, 51.3311], [3.74943, 51.33153], [3.75101, 51.33214], [3.75193, 51.33286], [3.75254, 51.33295], [3.75425, 51.33378], [3.75397, 51.33315], [3.75412, 51.33274], [3.75658, 51.33289], [3.7569, 51.33332], [3.76018, 51.33551], [3.76069, 51.33555], [3.76147, 51.33602], [3.76113, 51.33622], [3.76139, 51.33643], [3.76175, 51.33632], [3.7616, 51.33585], [3.76018, 51.3352], [3.7567, 51.3325], [3.75328, 51.33152], [3.747, 51.3301], [3.74245, 51.32855], [3.74121, 51.32793], [3.74101, 51.32844], [3.7406, 51.32853], [3.74017, 51.32836], [3.73991, 51.32891], [3.7401, 51.32918], [3.73953, 51.32915], [3.73971, 51.32812], [3.739, 51.32828], [3.73884, 51.32792]]], [[[3.73884, 51.33026], [3.7377, 51.32956], [3.73747, 51.32857], [3.73749, 51.32967], [3.73884, 51.33026]]], [[[3.73998, 51.33142], [3.74007, 51.33076], [3.73969, 51.33039], [3.73932, 51.33073], [3.73998, 51.33142]]], [[[3.74208, 51.33228], [3.74209, 51.33228], [3.74208, 51.33227], [3.74208, 51.33227], [3.74208, 51.33228]]], [[[3.74104, 51.33694], [3.74116, 51.33599], [3.74198, 51.33573], [3.74201, 51.33529], [3.74285, 51.33503], [3.74204, 51.33413], [3.74235, 51.33382], [3.74147, 51.33293], [3.74077, 51.33256], [3.74131, 51.33355], [3.741, 51.3338], [3.7413, 51.3348], [3.74113, 51.3353], [3.7408, 51.33541], [3.7399, 51.33432], [3.74014, 51.334], [3.74011, 51.33343], [3.73965, 51.33295], [3.74005, 51.33303], [3.7403, 51.3327], [3.7388, 51.3319], [3.73951, 51.33134], [3.7375, 51.33025], [3.73754, 51.33263], [3.7379, 51.3324], [3.73845, 51.33243], [3.73972, 51.33322], [3.74, 51.33373], [3.73965, 51.33456], [3.73871, 51.33475], [3.73757, 51.33473], [3.73885, 51.33481], [3.73942, 51.33515], [3.7392, 51.33559], [3.73759, 51.33585], [3.73762, 51.33762], [3.73824, 51.33753], [3.73937, 51.33789], [3.73955, 51.33938], [3.73765, 51.33948], [3.73765, 51.33962], [3.74048, 51.33942], [3.74071, 51.33919], [3.74055, 51.33858], [3.74103, 51.33778], [3.74104, 51.33694]]], [[[3.7438, 51.33342], [3.74357, 51.33344], [3.74408, 51.33508], [3.74426, 51.33713], [3.74391, 51.33811], [3.74335, 51.33824], [3.74248, 51.33979], [3.74198, 51.34013], [3.74367, 51.34004], [3.74375, 51.33928], [3.745, 51.3392], [3.74451, 51.33569], [3.7438, 51.33342]]], [[[3.74827, 51.33517], [3.74829, 51.33531], [3.74846, 51.33516], [3.74827, 51.33517]]], [[[3.74036, 51.34005], [3.74038, 51.34022], [3.74078, 51.34019], [3.74057, 51.34016], [3.74036, 51.34005]]], [[[3.74092, 51.34018], [3.74086, 51.34019], [3.74108, 51.34018], [3.74102, 51.34016], [3.74092, 51.34018]]], [[[3.75137, 51.31908], [3.74795, 51.32081], [3.74751, 51.32148], [3.74802, 51.32189], [3.74817, 51.32241], [3.74797, 51.32277], [3.74667, 51.3233], [3.74623, 51.32377], [3.74578, 51.32376], [3.74521, 51.32348], [3.74518, 51.32365], [3.74713, 51.32479], [3.74777, 51.32496], [3.7499, 51.32636], [3.75039, 51.32644], [3.75053, 51.32678], [3.75181, 51.32753], [3.75123, 51.32694], [3.75179, 51.32636], [3.75172, 51.32191], [3.75128, 51.32338], [3.75071, 51.32346], [3.75108, 51.32262], [3.7509, 51.32156], [3.75171, 51.32118], [3.75167, 51.319], [3.75137, 51.31908]]], [[[3.75078, 51.32723], [3.75115, 51.32764], [3.75181, 51.32778], [3.7506, 51.32694], [3.75078, 51.32723]]], [[[3.75247, 51.32795], [3.75229, 51.32795], [3.75267, 51.32808], [3.75247, 51.32795]]], [[[3.75555, 51.32854], [3.75634, 51.32826], [3.75673, 51.32792], [3.75362, 51.32794], [3.75421, 51.32833], [3.75555, 51.32854]]], [[[3.75723, 51.329], [3.75719, 51.32907], [3.75786, 51.32935], [3.75726, 51.32893], [3.75723, 51.329]]], [[[3.75832, 51.32954], [3.75832, 51.32953], [3.75815, 51.32948], [3.75832, 51.32954]]], [[[3.76496, 51.32787], [3.75811, 51.32791], [3.75804, 51.32827], [3.75857, 51.3288], [3.7611, 51.32959], [3.76211, 51.33075], [3.76434, 51.33197], [3.76528, 51.33229], [3.76565, 51.33166], [3.76623, 51.33142], [3.76618, 51.32845], [3.76557, 51.32849], [3.76496, 51.32787]]], [[[3.76589, 51.33313], [3.76611, 51.3332], [3.76617, 51.33313], [3.76601, 51.33313], [3.76589, 51.33313]]], [[[3.75644, 51.3336], [3.75619, 51.33343], [3.75587, 51.33362], [3.7561, 51.33357], [3.75644, 51.3336]]], [[[3.75097, 51.33361], [3.75119, 51.33386], [3.75146, 51.33386], [3.75133, 51.33382], [3.75097, 51.33361]]], [[[3.75226, 51.33408], [3.75304, 51.33455], [3.75362, 51.33439], [3.75308, 51.33411], [3.75226, 51.33408]]], [[[3.75367, 51.33485], [3.7539, 51.33473], [3.75366, 51.33486], [3.75367, 51.33485]]], [[[3.75378, 51.33667], [3.75401, 51.33645], [3.75376, 51.33541], [3.75169, 51.33552], [3.75157, 51.33624], [3.75217, 51.33712], [3.75229, 51.33795], [3.75319, 51.33819], [3.75329, 51.33887], [3.75589, 51.33837], [3.75571, 51.33805], [3.75507, 51.33796], [3.75391, 51.33718], [3.75378, 51.33667]]], [[[3.76078, 51.33661], [3.76079, 51.3366], [3.76069, 51.33653], [3.76078, 51.33661]]], [[[3.76028, 51.33706], [3.76014, 51.33696], [3.75723, 51.33782], [3.75746, 51.33791], [3.76028, 51.33706]]]]}, "properties": {"kind": "pv", "area_km2": 0.99, "mw": 49.3}}, {"type": "Feature", "geometry": {"type": "Point", "coordinates": [3.75794, 51.30087]}, "properties": {"kind": "turbine", "i": 0, "mw": 6.0, "hub_m": 120.0, "rotor_m": 150.0}}, {"type": "Feature", "geometry": {"type": "Point", "coordinates": [3.69006, 51.31442]}, "properties": {"kind": "turbine", "i": 1, "mw": 6.0, "hub_m": 120.0, "rotor_m": 150.0}}, {"type": "Feature", "geometry": {"type": "Point", "coordinates": [3.68001, 51.34403]}, "properties": {"kind": "turbine", "i": 2, "mw": 6.0, "hub_m": 120.0, "rotor_m": 150.0}}, {"type": "Feature", "geometry": {"type": "Point", "coordinates": [3.69515, 51.30454]}, "properties": {"kind": "turbine", "i": 3, "mw": 6.0, "hub_m": 120.0, "rotor_m": 150.0}}, {"type": "Feature", "geometry": {"type": "Point", "coordinates": [3.81561, 51.30377]}, "properties": {"kind": "turbine", "i": 4, "mw": 6.0, "hub_m": 120.0, "rotor_m": 150.0}}, {"type": "Feature", "geometry": {"type": "Point", "coordinates": [3.70018, 51.29138]}, "properties": {"kind": "turbine", "i": 5, "mw": 6.0, "hub_m": 120.0, "rotor_m": 150.0}}, {"type": "Feature", "geometry": {"type": "Point", "coordinates": [3.66443, 51.35397]}, "properties": {"kind": "turbine", "i": 6, "mw": 6.0, "hub_m": 120.0, "rotor_m": 150.0}}, {"type": "Feature", "geometry": {"type": "Point", "coordinates": [3.65881, 51.32774]}, "properties": {"kind": "turbine", "i": 7, "mw": 6.0, "hub_m": 120.0, "rotor_m": 150.0}}, {"type": "Feature", "geometry": {"type": "Point", "coordinates": [3.65334, 51.31135]}, "properties": {"kind": "turbine", "i": 8, "mw": 6.0, "hub_m": 120.0, "rotor_m": 150.0}}, {"type": "Feature", "geometry": {"type": "Point", "coordinates": [3.68438, 51.28491]}, "properties": {"kind": "turbine", "i": 9, "mw": 6.0, "hub_m": 120.0, "rotor_m": 150.0}}, {"type": "Feature", "geometry": {"type": "Point", "coordinates": [3.64313, 51.33111]}, "properties": {"kind": "turbine", "i": 10, "mw": 6.0, "hub_m": 120.0, "rotor_m": 150.0}}, {"type": "Feature", "geometry": {"type": "Point", "coordinates": [3.66877, 51.29156]}, "properties": {"kind": "turbine", "i": 11, "mw": 6.0, "hub_m": 120.0, "rotor_m": 150.0}}, {"type": "Feature", "geometry": {"type": "Point", "coordinates": [3.79939, 51.27433]}, "properties": {"kind": "turbine", "i": 12, "mw": 6.0, "hub_m": 120.0, "rotor_m": 150.0}}, {"type": "Feature", "geometry": {"type": "Point", "coordinates": [3.6435, 51.35737]}, "properties": {"kind": "turbine", "i": 13, "mw": 6.0, "hub_m": 120.0, "rotor_m": 150.0}}, {"type": "Feature", "geometry": {"type": "Point", "coordinates": [3.64364, 51.36722]}, "properties": {"kind": "turbine", "i": 14, "mw": 6.0, "hub_m": 120.0, "rotor_m": 150.0}}, {"type": "Feature", "geometry": {"type": "Point", "coordinates": [3.78352, 51.26458]}, "properties": {"kind": "turbine", "i": 15, "mw": 6.0, "hub_m": 120.0, "rotor_m": 150.0}}, {"type": "Feature", "geometry": {"type": "Point", "coordinates": [3.75206, 51.26151]}, "properties": {"kind": "turbine", "i": 16, "mw": 6.0, "hub_m": 120.0, "rotor_m": 150.0}}, {"type": "Feature", "geometry": {"type": "Point", "coordinates": [3.80167, 51.40565]}, "properties": {"kind": "turbine", "i": 17, "mw": 6.0, "hub_m": 120.0, "rotor_m": 150.0}}, {"type": "Feature", "geometry": {"type": "Point", "coordinates": [3.71025, 51.26505]}, "properties": {"kind": "turbine", "i": 18, "mw": 6.0, "hub_m": 120.0, "rotor_m": 150.0}}, {"type": "Feature", "geometry": {"type": "Point", "coordinates": [3.679, 51.27509]}, "properties": {"kind": "turbine", "i": 19, "mw": 6.0, "hub_m": 120.0, "rotor_m": 150.0}}, {"type": "Feature", "geometry": {"type": "Point", "coordinates": [3.64787, 51.29496]}, "properties": {"kind": "turbine", "i": 20, "mw": 6.0, "hub_m": 120.0, "rotor_m": 150.0}}, {"type": "Feature", "geometry": {"type": "Point", "coordinates": [3.66339, 51.28174]}, "properties": {"kind": "turbine", "i": 21, "mw": 6.0, "hub_m": 120.0, "rotor_m": 150.0}}, {"type": "Feature", "geometry": {"type": "Point", "coordinates": [3.77559, 51.41568]}, "properties": {"kind": "turbine", "i": 22, "mw": 6.0, "hub_m": 120.0, "rotor_m": 150.0}}, {"type": "Feature", "geometry": {"type": "Point", "coordinates": [3.85727, 51.29034]}, "properties": {"kind": "turbine", "i": 23, "mw": 6.0, "hub_m": 120.0, "rotor_m": 150.0}}, {"type": "Feature", "geometry": {"type": "Point", "coordinates": [3.6945, 51.26186]}, "properties": {"kind": "turbine", "i": 24, "mw": 6.0, "hub_m": 120.0, "rotor_m": 150.0}}, {"type": "Feature", "geometry": {"type": "Point", "coordinates": [3.7991, 51.25791]}, "properties": {"kind": "turbine", "i": 25, "mw": 6.0, "hub_m": 120.0, "rotor_m": 150.0}}, {"type": "Feature", "geometry": {"type": "Point", "coordinates": [3.65801, 51.27192]}, "properties": {"kind": "turbine", "i": 26, "mw": 6.0, "hub_m": 120.0, "rotor_m": 150.0}}, {"type": "Feature", "geometry": {"type": "Point", "coordinates": [3.61178, 51.33784]}, "properties": {"kind": "turbine", "i": 27, "mw": 6.0, "hub_m": 120.0, "rotor_m": 150.0}}, {"type": "Feature", "geometry": {"type": "Point", "coordinates": [3.88376, 51.30656]}, "properties": {"kind": "turbine", "i": 28, "mw": 6.0, "hub_m": 120.0, "rotor_m": 150.0}}, {"type": "Feature", "geometry": {"type": "Point", "coordinates": [3.67875, 51.25867]}, "properties": {"kind": "turbine", "i": 29, "mw": 6.0, "hub_m": 120.0, "rotor_m": 150.0}}, {"type": "Feature", "geometry": {"type": "Point", "coordinates": [3.89992, 51.32942]}, "properties": {"kind": "turbine", "i": 30, "mw": 6.0, "hub_m": 120.0, "rotor_m": 150.0}}, {"type": "Feature", "geometry": {"type": "Point", "coordinates": [3.71518, 51.24532]}, "properties": {"kind": "turbine", "i": 31, "mw": 6.0, "hub_m": 120.0, "rotor_m": 150.0}}, {"type": "Feature", "geometry": {"type": "Point", "coordinates": [3.64231, 51.27201]}, "properties": {"kind": "turbine", "i": 32, "mw": 6.0, "hub_m": 120.0, "rotor_m": 150.0}}, {"type": "Feature", "geometry": {"type": "Point", "coordinates": [3.80939, 51.24799]}, "properties": {"kind": "turbine", "i": 33, "mw": 6.0, "hub_m": 120.0, "rotor_m": 150.0}}, {"type": "Feature", "geometry": {"type": "Point", "coordinates": [3.66306, 51.25876]}, "properties": {"kind": "turbine", "i": 34, "mw": 6.0, "hub_m": 120.0, "rotor_m": 150.0}}, {"type": "Feature", "geometry": {"type": "Point", "coordinates": [3.6474, 51.26213]}, "properties": {"kind": "turbine", "i": 35, "mw": 6.0, "hub_m": 120.0, "rotor_m": 150.0}}, {"type": "Feature", "geometry": {"type": "Point", "coordinates": [3.60086, 51.30507]}, "properties": {"kind": "turbine", "i": 36, "mw": 6.0, "hub_m": 120.0, "rotor_m": 150.0}}, {"type": "Feature", "geometry": {"type": "Point", "coordinates": [3.78118, 51.43534]}, "properties": {"kind": "turbine", "i": 37, "mw": 6.0, "hub_m": 120.0, "rotor_m": 150.0}}, {"type": "Feature", "geometry": {"type": "Point", "coordinates": [3.59077, 51.33467]}, "properties": {"kind": "turbine", "i": 38, "mw": 6.0, "hub_m": 120.0, "rotor_m": 150.0}}, {"type": "Feature", "geometry": {"type": "Point", "coordinates": [3.61627, 51.282]}, "properties": {"kind": "turbine", "i": 39, "mw": 6.0, "hub_m": 120.0, "rotor_m": 150.0}}, {"type": "Feature", "geometry": {"type": "Point", "coordinates": [3.91578, 51.33586]}, "properties": {"kind": "turbine", "i": 40, "mw": 6.0, "hub_m": 120.0, "rotor_m": 150.0}}, {"type": "Feature", "geometry": {"type": "Point", "coordinates": [3.91604, 51.34899]}, "properties": {"kind": "turbine", "i": 41, "mw": 6.0, "hub_m": 120.0, "rotor_m": 150.0}}, {"type": "Feature", "geometry": {"type": "Point", "coordinates": [3.70457, 51.23553]}, "properties": {"kind": "turbine", "i": 42, "mw": 6.0, "hub_m": 120.0, "rotor_m": 150.0}}, {"type": "Feature", "geometry": {"type": "Point", "coordinates": [3.88837, 51.27369]}, "properties": {"kind": "turbine", "i": 43, "mw": 6.0, "hub_m": 120.0, "rotor_m": 150.0}}, {"type": "Feature", "geometry": {"type": "Point", "coordinates": [3.84928, 51.42502]}, "properties": {"kind": "turbine", "i": 44, "mw": 6.0, "hub_m": 120.0, "rotor_m": 150.0}}, {"type": "Feature", "geometry": {"type": "Point", "coordinates": [3.58045, 51.34785]}, "properties": {"kind": "turbine", "i": 45, "mw": 6.0, "hub_m": 120.0, "rotor_m": 150.0}}, {"type": "Feature", "geometry": {"type": "Point", "coordinates": [3.64717, 51.24572]}, "properties": {"kind": "turbine", "i": 46, "mw": 6.0, "hub_m": 120.0, "rotor_m": 150.0}}, {"type": "Feature", "geometry": {"type": "Point", "coordinates": [3.57991, 51.30517]}, "properties": {"kind": "turbine", "i": 47, "mw": 6.0, "hub_m": 120.0, "rotor_m": 150.0}}, {"type": "Feature", "geometry": {"type": "Point", "coordinates": [3.59533, 51.28211]}, "properties": {"kind": "turbine", "i": 48, "mw": 6.0, "hub_m": 120.0, "rotor_m": 150.0}}, {"type": "Feature", "geometry": {"type": "Point", "coordinates": [3.92573, 51.30952]}, "properties": {"kind": "turbine", "i": 49, "mw": 6.0, "hub_m": 120.0, "rotor_m": 150.0}}, {"type": "Feature", "geometry": {"type": "Point", "coordinates": [3.93157, 51.33902]}, "properties": {"kind": "turbine", "i": 50, "mw": 6.0, "hub_m": 120.0, "rotor_m": 150.0}}, {"type": "Feature", "geometry": {"type": "Point", "coordinates": [3.9319, 51.35544]}, "properties": {"kind": "turbine", "i": 51, "mw": 6.0, "hub_m": 120.0, "rotor_m": 150.0}}, {"type": "Feature", "geometry": {"type": "Point", "coordinates": [3.60039, 51.26895]}, "properties": {"kind": "turbine", "i": 52, "mw": 6.0, "hub_m": 120.0, "rotor_m": 150.0}}, {"type": "Feature", "geometry": {"type": "Point", "coordinates": [3.91467, 51.28005]}, "properties": {"kind": "turbine", "i": 53, "mw": 6.0, "hub_m": 120.0, "rotor_m": 150.0}}, {"type": "Feature", "geometry": {"type": "Point", "coordinates": [3.57455, 51.29535]}, "properties": {"kind": "turbine", "i": 54, "mw": 6.0, "hub_m": 120.0, "rotor_m": 150.0}}, {"type": "Feature", "geometry": {"type": "Point", "coordinates": [3.72523, 51.21899]}, "properties": {"kind": "turbine", "i": 55, "mw": 6.0, "hub_m": 120.0, "rotor_m": 150.0}}, {"type": "Feature", "geometry": {"type": "Point", "coordinates": [3.87733, 51.24422]}, "properties": {"kind": "turbine", "i": 56, "mw": 6.0, "hub_m": 120.0, "rotor_m": 150.0}}, {"type": "Feature", "geometry": {"type": "Point", "coordinates": [3.94715, 51.33233]}, "properties": {"kind": "turbine", "i": 57, "mw": 6.0, "hub_m": 120.0, "rotor_m": 150.0}}, {"type": "Feature", "geometry": {"type": "Point", "coordinates": [3.60026, 51.2591]}, "properties": {"kind": "turbine", "i": 58, "mw": 6.0, "hub_m": 120.0, "rotor_m": 150.0}}, {"type": "Feature", "geometry": {"type": "Point", "coordinates": [3.63135, 51.23595]}, "properties": {"kind": "turbine", "i": 59, "mw": 6.0, "hub_m": 120.0, "rotor_m": 150.0}}, {"type": "Feature", "geometry": {"type": "Point", "coordinates": [3.54884, 51.33487]}, "properties": {"kind": "turbine", "i": 60, "mw": 6.0, "hub_m": 120.0, "rotor_m": 150.0}}, {"type": "Feature", "geometry": {"type": "Point", "coordinates": [3.8131, 51.45811]}, "properties": {"kind": "turbine", "i": 61, "mw": 6.0, "hub_m": 120.0, "rotor_m": 150.0}}, {"type": "Feature", "geometry": {"type": "Point", "coordinates": [3.86663, 51.23116]}, "properties": {"kind": "turbine", "i": 62, "mw": 6.0, "hub_m": 120.0, "rotor_m": 150.0}}, {"type": "Feature", "geometry": {"type": "Point", "coordinates": [3.85082, 51.22471]}, "properties": {"kind": "turbine", "i": 63, "mw": 6.0, "hub_m": 120.0, "rotor_m": 150.0}}, {"type": "Feature", "geometry": {"type": "Point", "coordinates": [3.89832, 51.24734]}, "properties": {"kind": "turbine", "i": 64, "mw": 6.0, "hub_m": 120.0, "rotor_m": 150.0}}, {"type": "Feature", "geometry": {"type": "Point", "coordinates": [3.93024, 51.27336]}, "properties": {"kind": "turbine", "i": 65, "mw": 6.0, "hub_m": 120.0, "rotor_m": 150.0}}, {"type": "Feature", "geometry": {"type": "Point", "coordinates": [3.77734, 51.20881]}, "properties": {"kind": "turbine", "i": 66, "mw": 6.0, "hub_m": 120.0, "rotor_m": 150.0}}, {"type": "Feature", "geometry": {"type": "Point", "coordinates": [3.66767, 51.21605]}, "properties": {"kind": "turbine", "i": 67, "mw": 6.0, "hub_m": 120.0, "rotor_m": 150.0}}, {"type": "Feature", "geometry": {"type": "Point", "coordinates": [3.54328, 51.30863]}, "properties": {"kind": "turbine", "i": 68, "mw": 6.0, "hub_m": 120.0, "rotor_m": 150.0}}, {"type": "Feature", "geometry": {"type": "Point", "coordinates": [3.9624, 51.30922]}, "properties": {"kind": "turbine", "i": 69, "mw": 6.0, "hub_m": 120.0, "rotor_m": 150.0}}, {"type": "Feature", "geometry": {"type": "Point", "coordinates": [3.96832, 51.34201]}, "properties": {"kind": "turbine", "i": 70, "mw": 6.0, "hub_m": 120.0, "rotor_m": 150.0}}, {"type": "Feature", "geometry": {"type": "Point", "coordinates": [3.95138, 51.28304]}, "properties": {"kind": "turbine", "i": 71, "mw": 6.0, "hub_m": 120.0, "rotor_m": 150.0}}, {"type": "Feature", "geometry": {"type": "Point", "coordinates": [3.5387, 51.36447]}, "properties": {"kind": "turbine", "i": 72, "mw": 6.0, "hub_m": 120.0, "rotor_m": 150.0}}, {"type": "Feature", "geometry": {"type": "Point", "coordinates": [3.96219, 51.29937]}, "properties": {"kind": "turbine", "i": 73, "mw": 6.0, "hub_m": 120.0, "rotor_m": 150.0}}, {"type": "Feature", "geometry": {"type": "Point", "coordinates": [3.96874, 51.3617]}, "properties": {"kind": "turbine", "i": 74, "mw": 6.0, "hub_m": 120.0, "rotor_m": 150.0}}, {"type": "Feature", "geometry": {"type": "Point", "coordinates": [3.59997, 51.23612]}, "properties": {"kind": "turbine", "i": 75, "mw": 6.0, "hub_m": 120.0, "rotor_m": 150.0}}, {"type": "Feature", "geometry": {"type": "Point", "coordinates": [3.9405, 51.26343]}, "properties": {"kind": "turbine", "i": 76, "mw": 6.0, "hub_m": 120.0, "rotor_m": 150.0}}, {"type": "Feature", "geometry": {"type": "Point", "coordinates": [3.84476, 51.46445]}, "properties": {"kind": "turbine", "i": 77, "mw": 6.0, "hub_m": 120.0, "rotor_m": 150.0}}, {"type": "Feature", "geometry": {"type": "Point", "coordinates": [3.63968, 51.45918]}, "properties": {"kind": "turbine", "i": 78, "mw": 6.0, "hub_m": 120.0, "rotor_m": 150.0}}, {"type": "Feature", "geometry": {"type": "Point", "coordinates": [3.57913, 51.24279]}, "properties": {"kind": "turbine", "i": 79, "mw": 6.0, "hub_m": 120.0, "rotor_m": 150.0}}, {"type": "Feature", "geometry": {"type": "Point", "coordinates": [3.97804, 51.30581]}, "properties": {"kind": "turbine", "i": 80, "mw": 6.0, "hub_m": 120.0, "rotor_m": 150.0}}, {"type": "Feature", "geometry": {"type": "Point", "coordinates": [3.94553, 51.25354]}, "properties": {"kind": "turbine", "i": 81, "mw": 6.0, "hub_m": 120.0, "rotor_m": 150.0}}, {"type": "Feature", "geometry": {"type": "Point", "coordinates": [3.52848, 51.3875]}, "properties": {"kind": "turbine", "i": 82, "mw": 6.0, "hub_m": 120.0, "rotor_m": 150.0}}, {"type": "Feature", "geometry": {"type": "Point", "coordinates": [3.98461, 51.36814]}, "properties": {"kind": "turbine", "i": 83, "mw": 6.0, "hub_m": 120.0, "rotor_m": 150.0}}, {"type": "Feature", "geometry": {"type": "Point", "coordinates": [3.96144, 51.26326]}, "properties": {"kind": "turbine", "i": 84, "mw": 6.0, "hub_m": 120.0, "rotor_m": 150.0}}, {"type": "Feature", "geometry": {"type": "Point", "coordinates": [3.92944, 51.23396]}, "properties": {"kind": "turbine", "i": 85, "mw": 6.0, "hub_m": 120.0, "rotor_m": 150.0}}, {"type": "Feature", "geometry": {"type": "Point", "coordinates": [3.51193, 51.31534]}, "properties": {"kind": "turbine", "i": 86, "mw": 6.0, "hub_m": 120.0, "rotor_m": 150.0}}, {"type": "Feature", "geometry": {"type": "Point", "coordinates": [3.99432, 51.33194]}, "properties": {"kind": "turbine", "i": 87, "mw": 6.0, "hub_m": 120.0, "rotor_m": 150.0}}, {"type": "Feature", "geometry": {"type": "Point", "coordinates": [3.99489, 51.3582]}, "properties": {"kind": "turbine", "i": 88, "mw": 6.0, "hub_m": 120.0, "rotor_m": 150.0}}, {"type": "Feature", "geometry": {"type": "Point", "coordinates": [3.9082, 51.21771]}, "properties": {"kind": "turbine", "i": 89, "mw": 6.0, "hub_m": 120.0, "rotor_m": 150.0}}, {"type": "Feature", "geometry": {"type": "Point", "coordinates": [3.99014, 51.38123]}, "properties": {"kind": "turbine", "i": 90, "mw": 6.0, "hub_m": 120.0, "rotor_m": 150.0}}, {"type": "Feature", "geometry": {"type": "Point", "coordinates": [3.98265, 51.27622]}, "properties": {"kind": "turbine", "i": 91, "mw": 6.0, "hub_m": 120.0, "rotor_m": 150.0}}, {"type": "Feature", "geometry": {"type": "Point", "coordinates": [3.9772, 51.26641]}, "properties": {"kind": "turbine", "i": 92, "mw": 6.0, "hub_m": 120.0, "rotor_m": 150.0}}, {"type": "Feature", "geometry": {"type": "Point", "coordinates": [3.51164, 51.28907]}, "properties": {"kind": "turbine", "i": 93, "mw": 6.0, "hub_m": 120.0, "rotor_m": 150.0}}, {"type": "Feature", "geometry": {"type": "Point", "coordinates": [3.96646, 51.25337]}, "properties": {"kind": "turbine", "i": 94, "mw": 6.0, "hub_m": 120.0, "rotor_m": 150.0}}, {"type": "Feature", "geometry": {"type": "Point", "coordinates": [4.00516, 51.34826]}, "properties": {"kind": "turbine", "i": 95, "mw": 6.0, "hub_m": 120.0, "rotor_m": 150.0}}, {"type": "Feature", "geometry": {"type": "Point", "coordinates": [3.49649, 51.34167]}, "properties": {"kind": "turbine", "i": 96, "mw": 6.0, "hub_m": 120.0, "rotor_m": 150.0}}, {"type": "Feature", "geometry": {"type": "Point", "coordinates": [3.92918, 51.22083]}, "properties": {"kind": "turbine", "i": 97, "mw": 6.0, "hub_m": 120.0, "rotor_m": 150.0}}, {"type": "Feature", "geometry": {"type": "Point", "coordinates": [3.50749, 51.38759]}, "properties": {"kind": "turbine", "i": 98, "mw": 6.0, "hub_m": 120.0, "rotor_m": 150.0}}, {"type": "Feature", "geometry": {"type": "Point", "coordinates": [3.99856, 51.28593]}, "properties": {"kind": "turbine", "i": 99, "mw": 6.0, "hub_m": 120.0, "rotor_m": 150.0}}, {"type": "Feature", "geometry": {"type": "Point", "coordinates": [3.99835, 51.27608]}, "properties": {"kind": "turbine", "i": 100, "mw": 6.0, "hub_m": 120.0, "rotor_m": 150.0}}, {"type": "Feature", "geometry": {"type": "Point", "coordinates": [3.98746, 51.25647]}, "properties": {"kind": "turbine", "i": 101, "mw": 6.0, "hub_m": 120.0, "rotor_m": 150.0}}, {"type": "Feature", "geometry": {"type": "Point", "coordinates": [4.01456, 51.29893]}, "properties": {"kind": "turbine", "i": 102, "mw": 6.0, "hub_m": 120.0, "rotor_m": 150.0}}]}