{"type": "FeatureCollection", "features": [{"type": "Feature", "geometry": {"type": "MultiPolygon", "coordinates": [[[[27.5468, 43.22783], [27.55127, 43.22632], [27.5496, 43.226], [27.54494, 43.22386], [27.54572, 43.22824], [27.5468, 43.22783]]], [[[27.58137, 43.23211], [27.58039, 43.23083], [27.5802, 43.2292], [27.56345, 43.22853], [27.55781, 43.22982], [27.55767, 43.23035], [27.55501, 43.2314], [27.55365, 43.23258], [27.55318, 43.23403], [27.5542, 43.2354], [27.55577, 43.23422], [27.55865, 43.23448], [27.55947, 43.23556], [27.55983, 43.23823], [27.56296, 43.23864], [27.56686, 43.23862], [27.5725, 43.23756], [27.57593, 43.2362], [27.57892, 43.23438], [27.58137, 43.23211]]], [[[27.56654, 43.20995], [27.5685, 43.21074], [27.56904, 43.21244], [27.57006, 43.21298], [27.57064, 43.21382], [27.57177, 43.21407], [27.57296, 43.21511], [27.57588, 43.21619], [27.57669, 43.21489], [27.57887, 43.21395], [27.5757, 43.21204], [27.57225, 43.21072], [27.56852, 43.20991], [27.56663, 43.20971], [27.56654, 43.20995]]]]}, "properties": {"kind": "windland", "area_km2": 2.22}}, {"type": "Feature", "geometry": {"type": "MultiPolygon", "coordinates": [[[[27.51558, 43.16622], [27.51573, 43.16546], [27.51534, 43.16546], [27.51535, 43.16675], [27.51558, 43.16622]]], [[[27.52433, 43.17302], [27.52102, 43.17212], [27.51974, 43.17213], [27.51844, 43.17272], [27.51717, 43.17426], [27.51792, 43.16826], [27.51878, 43.16545], [27.51648, 43.16546], [27.51567, 43.16802], [27.51538, 43.17033], [27.51542, 43.17447], [27.51486, 43.17447], [27.51482, 43.17481], [27.51622, 43.17536], [27.51799, 43.175], [27.51889, 43.17548], [27.51976, 43.17414], [27.52079, 43.17349], [27.52216, 43.17423], [27.52322, 43.17448], [27.52318, 43.17488], [27.52344, 43.17511], [27.52333, 43.17587], [27.5239, 43.17612], [27.52401, 43.17645], [27.52615, 43.17644], [27.52544, 43.17526], [27.52557, 43.17464], [27.52536, 43.17389], [27.52433, 43.17302]]], [[[27.51412, 43.17447], [27.51187, 43.17448], [27.51384, 43.17525], [27.51412, 43.17447]]], [[[27.5099, 43.17677], [27.50974, 43.177], [27.50899, 43.17721], [27.50822, 43.17771], [27.50769, 43.17888], [27.50602, 43.18066], [27.50592, 43.18094], [27.50646, 43.18064], [27.50668, 43.18081], [27.50712, 43.18133], [27.50707, 43.18186], [27.50761, 43.1822], [27.50936, 43.18159], [27.50828, 43.18153], [27.50808, 43.18095], [27.51009, 43.17867], [27.51024, 43.17824], [27.50982, 43.17792], [27.51085, 43.17654], [27.51141, 43.17672], [27.51214, 43.17668], [27.51266, 43.17644], [27.51297, 43.17552], [27.51032, 43.17449], [27.50541, 43.17451], [27.51033, 43.17638], [27.5099, 43.17677]]], [[[27.5134, 43.1797], [27.5134, 43.1797], [27.5134, 43.1797], [27.5134, 43.1797], [27.5134, 43.1797]]], [[[27.52752, 43.17729], [27.52682, 43.1767], [27.52755, 43.17857], [27.52702, 43.17922], [27.5271, 43.18092], [27.52626, 43.18095], [27.52565, 43.18128], [27.5271, 43.18429], [27.52779, 43.18527], [27.53043, 43.18669], [27.53198, 43.18696], [27.53435, 43.18828], [27.53786, 43.18944], [27.53901, 43.1901], [27.53992, 43.18943], [27.54075, 43.18922], [27.54096, 43.18907], [27.53936, 43.18815], [27.53542, 43.18681], [27.53327, 43.18559], [27.53143, 43.18518], [27.52949, 43.18413], [27.52844, 43.18188], [27.52754, 43.18033], [27.52791, 43.17928], [27.52785, 43.178], [27.52752, 43.17729]], [[27.52778, 43.18138], [27.5281, 43.18139], [27.52804, 43.18209], [27.52744, 43.18206], [27.5275, 43.18136], [27.52778, 43.18138]]], [[[27.51427, 43.18051], [27.5145, 43.18052], [27.51427, 43.18009], [27.51403, 43.18035], [27.51427, 43.18051]]], [[[27.52459, 43.18199], [27.52401, 43.18191], [27.52305, 43.1809], [27.522, 43.18092], [27.52219, 43.18248], [27.5194, 43.18214], [27.51874, 43.18239], [27.51755, 43.1851], [27.51732, 43.18508], [27.51698, 43.18553], [27.51664, 43.18556], [27.51535, 43.18511], [27.51533, 43.18456], [27.5151, 43.18448], [27.51491, 43.18479], [27.51523, 43.18489], [27.51398, 43.18644], [27.51614, 43.18718], [27.51765, 43.18713], [27.51833, 43.18686], [27.51902, 43.18631], [27.52048, 43.18389], [27.5221, 43.18421], [27.5237, 43.18372], [27.52435, 43.18518], [27.52534, 43.18654], [27.5279, 43.18809], [27.52922, 43.18871], [27.53076, 43.18901], [27.53309, 43.19028], [27.53654, 43.19143], [27.53822, 43.19252], [27.53962, 43.19288], [27.54118, 43.19295], [27.54143, 43.19185], [27.54082, 43.19159], [27.5409, 43.19127], [27.53927, 43.19104], [27.53786, 43.19006], [27.53398, 43.18875], [27.53166, 43.18745], [27.53009, 43.18717], [27.52727, 43.18566], [27.52642, 43.1845], [27.52511, 43.18175], [27.52459, 43.18199]]], [[[27.51479, 43.1839], [27.51478, 43.18393], [27.51481, 43.18394], [27.51479, 43.1839]]], [[[27.49907, 43.21514], [27.49905, 43.21535], [27.49938, 43.21537], [27.50097, 43.21624], [27.50122, 43.21585], [27.50061, 43.21487], [27.5002, 43.21463], [27.49942, 43.21467], [27.49889, 43.21499], [27.49907, 43.21514]]], [[[27.49605, 43.21879], [27.49638, 43.21816], [27.49598, 43.21816], [27.4961, 43.21793], [27.49699, 43.21796], [27.49756, 43.21764], [27.49573, 43.21786], [27.49559, 43.21743], [27.49469, 43.21789], [27.49394, 43.22081], [27.49416, 43.222], [27.49081, 43.2255], [27.49071, 43.22605], [27.49157, 43.22607], [27.49177, 43.22639], [27.49173, 43.2275], [27.49207, 43.22819], [27.49276, 43.22913], [27.49329, 43.2293], [27.49285, 43.22979], [27.49249, 43.23078], [27.49293, 43.23207], [27.49343, 43.23161], [27.49425, 43.23164], [27.49555, 43.23119], [27.49612, 43.23067], [27.49723, 43.23027], [27.49702, 43.23005], [27.49745, 43.22987], [27.49642, 43.22922], [27.49549, 43.22889], [27.49507, 43.22824], [27.49413, 43.2279], [27.49314, 43.22599], [27.49472, 43.22422], [27.49402, 43.22321], [27.49501, 43.22226], [27.49504, 43.22192], [27.49471, 43.22181], [27.49472, 43.22158], [27.49514, 43.22133], [27.49535, 43.22078], [27.49492, 43.22027], [27.49619, 43.22005], [27.49584, 43.21913], [27.49662, 43.21898], [27.49612, 43.219], [27.49605, 43.21879]]], [[[27.49595, 43.22306], [27.49599, 43.22302], [27.4956, 43.22283], [27.49566, 43.22333], [27.49595, 43.22306]]], [[[27.49017, 43.22522], [27.49033, 43.22505], [27.48963, 43.22488], [27.48952, 43.22602], [27.48996, 43.22603], [27.49017, 43.22522]]], [[[27.48831, 43.2248], [27.48544, 43.22457], [27.48857, 43.22489], [27.48821, 43.22672], [27.48906, 43.22689], [27.48921, 43.22486], [27.48831, 43.2248]]], [[[27.48504, 43.22505], [27.48446, 43.22485], [27.48438, 43.22506], [27.48436, 43.22616], [27.48468, 43.22646], [27.48445, 43.22703], [27.48476, 43.22704], [27.48474, 43.22774], [27.48528, 43.2277], [27.48538, 43.22808], [27.48567, 43.22803], [27.48546, 43.22888], [27.48573, 43.22889], [27.48593, 43.22923], [27.48635, 43.2282], [27.48631, 43.22634], [27.48617, 43.22574], [27.48524, 43.22552], [27.48538, 43.22477], [27.4853, 43.22509], [27.48504, 43.22505]]], [[[27.49512, 43.23566], [27.49538, 43.23582], [27.49528, 43.236], [27.496, 43.23563], [27.49764, 43.2344], [27.49835, 43.23351], [27.49684, 43.23279], [27.49661, 43.23244], [27.49708, 43.23275], [27.49714, 43.23254], [27.49742, 43.23263], [27.49767, 43.23298], [27.49805, 43.23293], [27.49731, 43.2323], [27.49739, 43.2322], [27.49793, 43.23239], [27.49826, 43.23212], [27.498, 43.23168], [27.49807, 43.2314], [27.49846, 43.23118], [27.49793, 43.23034], [27.49764, 43.23056], [27.49621, 43.23085], [27.4952, 43.23154], [27.49435, 43.23179], [27.49461, 43.2321], [27.49455, 43.23247], [27.4932, 43.23346], [27.49262, 43.23347], [27.49219, 43.23319], [27.49213, 43.23277], [27.49247, 43.23242], [27.49139, 43.23279], [27.49058, 43.23283], [27.49014, 43.23267], [27.4891, 43.23289], [27.48669, 43.23812], [27.48455, 43.23919], [27.48626, 43.23914], [27.48788, 43.23933], [27.49181, 43.241], [27.49192, 43.23978], [27.49244, 43.23933], [27.48918, 43.23792], [27.49012, 43.23582], [27.49159, 43.23633], [27.49298, 43.23647], [27.4943, 43.23631], [27.49442, 43.23592], [27.49512, 43.23566]]], [[[27.48662, 43.23165], [27.48496, 43.23137], [27.48465, 43.23107], [27.48481, 43.22996], [27.48409, 43.22999], [27.48355, 43.23085], [27.48362, 43.23179], [27.48411, 43.23246], [27.48559, 43.23352], [27.48412, 43.23681], [27.48233, 43.23754], [27.47899, 43.23663], [27.47901, 43.23842], [27.48098, 43.23899], [27.48288, 43.23924], [27.48604, 43.23785], [27.48801, 43.23355], [27.48666, 43.23352], [27.48706, 43.23207], [27.48658, 43.23192], [27.48662, 43.23165]]], [[[27.48744, 43.2398], [27.48173, 43.2397], [27.47901, 43.23901], [27.47902, 43.2408], [27.48217, 43.24142], [27.4869, 43.24142], [27.48976, 43.24266], [27.48858, 43.24395], [27.48799, 43.24563], [27.48832, 43.24701], [27.48761, 43.24757], [27.48724, 43.2483], [27.48735, 43.24928], [27.48707, 43.25028], [27.48762, 43.25133], [27.4884, 43.25182], [27.48938, 43.25206], [27.49041, 43.25201], [27.49151, 43.2516], [27.49236, 43.2519], [27.49338, 43.25196], [27.49509, 43.25147], [27.49668, 43.25077], [27.4976, 43.25158], [27.49852, 43.25197], [27.49954, 43.2521], [27.50018, 43.25268], [27.48992, 43.25352], [27.48311, 43.25365], [27.47912, 43.25353], [27.47914, 43.2552], [27.48584, 43.2553], [27.49144, 43.25511], [27.4965, 43.25474], [27.50433, 43.25382], [27.50057, 43.25038], [27.49902, 43.2506], [27.49863, 43.24951], [27.49756, 43.24956], [27.49751, 43.24921], [27.49532, 43.24939], [27.49495, 43.24957], [27.49438, 43.24947], [27.49411, 43.24911], [27.49432, 43.24971], [27.49408, 43.24998], [27.49421, 43.25056], [27.49339, 43.25074], [27.49312, 43.25031], [27.49232, 43.25036], [27.49211, 43.24978], [27.49141, 43.24988], [27.49137, 43.24976], [27.48984, 43.2504], [27.48944, 43.25033], [27.48935, 43.25009], [27.48955, 43.2499], [27.48925, 43.24945], [27.48977, 43.24929], [27.48949, 43.24871], [27.48962, 43.24837], [27.49093, 43.24812], [27.49259, 43.24818], [27.49254, 43.24743], [27.49122, 43.24744], [27.49068, 43.24705], [27.49026, 43.2457], [27.4908, 43.24436], [27.49119, 43.24417], [27.48988, 43.24351], [27.4902, 43.24253], [27.49084, 43.24259], [27.49097, 43.2417], [27.49197, 43.24204], [27.49166, 43.24157], [27.48744, 43.2398]]], [[[27.49944, 43.2446], [27.49862, 43.24344], [27.49731, 43.2421], [27.49511, 43.24069], [27.49413, 43.24208], [27.49584, 43.24288], [27.49558, 43.24318], [27.49675, 43.2443], [27.49731, 43.24448], [27.49712, 43.24491], [27.49904, 43.24807], [27.50419, 43.25282], [27.5053, 43.2526], [27.50584, 43.25269], [27.50617, 43.25302], [27.50609, 43.25354], [27.50635, 43.25327], [27.50622, 43.2529], [27.50709, 43.25337], [27.50827, 43.25317], [27.52254, 43.25058], [27.52798, 43.24921], [27.53155, 43.24438], [27.53717, 43.23857], [27.54044, 43.23373], [27.54152, 43.23253], [27.54404, 43.2309], [27.5457, 43.23012], [27.5517, 43.22797], [27.55566, 43.22694], [27.55516, 43.22602], [27.55466, 43.22561], [27.55159, 43.22429], [27.55134, 43.2246], [27.551, 43.22465], [27.5473, 43.22307], [27.54703, 43.22328], [27.54635, 43.22331], [27.54593, 43.22308], [27.54586, 43.22269], [27.54636, 43.22262], [27.54648, 43.22253], [27.54725, 43.22136], [27.54771, 43.22131], [27.54797, 43.22091], [27.54842, 43.22116], [27.54918, 43.22044], [27.5493, 43.21944], [27.5492, 43.21903], [27.54759, 43.21835], [27.54685, 43.21733], [27.54556, 43.21642], [27.54483, 43.21748], [27.54464, 43.21873], [27.54539, 43.21899], [27.54604, 43.2197], [27.54616, 43.22007], [27.54582, 43.22081], [27.54599, 43.22134], [27.54725, 43.22132], [27.54684, 43.22158], [27.54706, 43.22161], [27.54646, 43.22253], [27.54529, 43.22279], [27.54476, 43.22369], [27.54563, 43.22428], [27.5496, 43.226], [27.55127, 43.22632], [27.54445, 43.22873], [27.54261, 43.22961], [27.53969, 43.23154], [27.53846, 43.23292], [27.53521, 43.23772], [27.52967, 43.24345], [27.52637, 43.24791], [27.52195, 43.24898], [27.50603, 43.25184], [27.50096, 43.24718], [27.49944, 43.2446]]], [[[27.52459, 43.25547], [27.52351, 43.25663], [27.52244, 43.25734], [27.52434, 43.25912], [27.52417, 43.25957], [27.52326, 43.2601], [27.52365, 43.26054], [27.52359, 43.26095], [27.51887, 43.26331], [27.51827, 43.26338], [27.51856, 43.26422], [27.51906, 43.26418], [27.51933, 43.26437], [27.51922, 43.26464], [27.51874, 43.26474], [27.51959, 43.26754], [27.52038, 43.26768], [27.5222, 43.26751], [27.52244, 43.26728], [27.52257, 43.26602], [27.5232, 43.26575], [27.52553, 43.26593], [27.52634, 43.26622], [27.52735, 43.26673], [27.5272, 43.26754], [27.52678, 43.26855], [27.52286, 43.27395], [27.52243, 43.27417], [27.52184, 43.27496], [27.52108, 43.27683], [27.52074, 43.27682], [27.52049, 43.27773], [27.52074, 43.27951], [27.52028, 43.28046], [27.51954, 43.28043], [27.51925, 43.28066], [27.51742, 43.28094], [27.51741, 43.28127], [27.51684, 43.28129], [27.51672, 43.28162], [27.51706, 43.28163], [27.51713, 43.28204], [27.51632, 43.28205], [27.51633, 43.28252], [27.5186, 43.28251], [27.51993, 43.28225], [27.52065, 43.28199], [27.52229, 43.28094], [27.52297, 43.27984], [27.52281, 43.27771], [27.52355, 43.27565], [27.52479, 43.27483], [27.52912, 43.26879], [27.52957, 43.26692], [27.52892, 43.26565], [27.52736, 43.26474], [27.52563, 43.26426], [27.52616, 43.26486], [27.52503, 43.26528], [27.524, 43.264], [27.52502, 43.26356], [27.52522, 43.26379], [27.52595, 43.26342], [27.52689, 43.26267], [27.5275, 43.26176], [27.5283, 43.25996], [27.52839, 43.25893], [27.52787, 43.2576], [27.52656, 43.2563], [27.53005, 43.25105], [27.53455, 43.24913], [27.53779, 43.24725], [27.54818, 43.25195], [27.55086, 43.2528], [27.55963, 43.2551], [27.56124, 43.25509], [27.56258, 43.25451], [27.56135, 43.25398], [27.56084, 43.25343], [27.56015, 43.25348], [27.5494, 43.25055], [27.5375, 43.24516], [27.53331, 43.24774], [27.5284, 43.24978], [27.52459, 43.25547]]], [[[27.52484, 43.25077], [27.52113, 43.25153], [27.50575, 43.25426], [27.51057, 43.2587], [27.51314, 43.25755], [27.51466, 43.25913], [27.51524, 43.25913], [27.51572, 43.25948], [27.51577, 43.2599], [27.51532, 43.26029], [27.51568, 43.26079], [27.52243, 43.25665], [27.52366, 43.25561], [27.52733, 43.25011], [27.52484, 43.25077]], [[27.51609, 43.25415], [27.52167, 43.25315], [27.52292, 43.25291], [27.52201, 43.2543], [27.51975, 43.25473], [27.51656, 43.25633], [27.51478, 43.25575], [27.51339, 43.25556], [27.512, 43.25568], [27.51066, 43.25611], [27.50975, 43.25528], [27.51609, 43.25415]]], [[[27.50378, 43.25511], [27.503, 43.25468], [27.49146, 43.25577], [27.49147, 43.25744], [27.49699, 43.25703], [27.50402, 43.25623], [27.50732, 43.25925], [27.50716, 43.25999], [27.5073, 43.26102], [27.50895, 43.26373], [27.5039, 43.26972], [27.50392, 43.27293], [27.50884, 43.26692], [27.51253, 43.26302], [27.51215, 43.26277], [27.51248, 43.26225], [27.51238, 43.26146], [27.50589, 43.25527], [27.50443, 43.25543], [27.5039, 43.25497], [27.50408, 43.25452], [27.50379, 43.25468], [27.50378, 43.25511]]], [[[27.51369, 43.26284], [27.51162, 43.26477], [27.5058, 43.27168], [27.51198, 43.27282], [27.51274, 43.27206], [27.51285, 43.27214], [27.51336, 43.27134], [27.51399, 43.27104], [27.51408, 43.27037], [27.51455, 43.27013], [27.51517, 43.27021], [27.51556, 43.26987], [27.51534, 43.26969], [27.51546, 43.2695], [27.51525, 43.2689], [27.51573, 43.26842], [27.51517, 43.26763], [27.51585, 43.26752], [27.51581, 43.26664], [27.51617, 43.26655], [27.51611, 43.26577], [27.51638, 43.26569], [27.51398, 43.26278], [27.51369, 43.26284]], [[27.51132, 43.26818], [27.51131, 43.2682], [27.51128, 43.26822], [27.51132, 43.26818]], [[27.51389, 43.26578], [27.51375, 43.26587], [27.51308, 43.26618], [27.51358, 43.26563], [27.51389, 43.26578]]], [[[27.5054, 43.27217], [27.50426, 43.27357], [27.51202, 43.27353], [27.51187, 43.27335], [27.5054, 43.27217]]], [[[27.56323, 43.15997], [27.56264, 43.15623], [27.56011, 43.15625], [27.56095, 43.16165], [27.56094, 43.16391], [27.56214, 43.16383], [27.56318, 43.16948], [27.56495, 43.16932], [27.56345, 43.16435], [27.56323, 43.15997]]], [[[27.53267, 43.16734], [27.53229, 43.16738], [27.53266, 43.16768], [27.53325, 43.16754], [27.53307, 43.16723], [27.53267, 43.16734]]], [[[27.53212, 43.16824], [27.53269, 43.16815], [27.53262, 43.16783], [27.5321, 43.16741], [27.53134, 43.16758], [27.53212, 43.16824]]], [[[27.53744, 43.1663], [27.53652, 43.16626], [27.53446, 43.16662], [27.53546, 43.16824], [27.53219, 43.16964], [27.53203, 43.16956], [27.53197, 43.1699], [27.53172, 43.16996], [27.53159, 43.16936], [27.53208, 43.16862], [27.53117, 43.16763], [27.52931, 43.16864], [27.52842, 43.16985], [27.52828, 43.17156], [27.52875, 43.17253], [27.52941, 43.17326], [27.53085, 43.17414], [27.53262, 43.17454], [27.53409, 43.17527], [27.53532, 43.17537], [27.53679, 43.17505], [27.53795, 43.17523], [27.53902, 43.17512], [27.54034, 43.1745], [27.54103, 43.17363], [27.54132, 43.17096], [27.54104, 43.16896], [27.5396, 43.16711], [27.53846, 43.16652], [27.53744, 43.1663]], [[27.53808, 43.16729], [27.5385, 43.16722], [27.54027, 43.17108], [27.54021, 43.17173], [27.5399, 43.17211], [27.53932, 43.17234], [27.53994, 43.17106], [27.53808, 43.16729]], [[27.53273, 43.17036], [27.53243, 43.16987], [27.5326, 43.1696], [27.53566, 43.16823], [27.53681, 43.16809], [27.53744, 43.1682], [27.53794, 43.16849], [27.53865, 43.16953], [27.5387, 43.17026], [27.53842, 43.17052], [27.53881, 43.171], [27.53849, 43.17153], [27.53857, 43.17318], [27.53804, 43.17339], [27.53616, 43.173], [27.53541, 43.17351], [27.53469, 43.17347], [27.53419, 43.17294], [27.53421, 43.17184], [27.53376, 43.17139], [27.53306, 43.17159], [27.53238, 43.17121], [27.53156, 43.17127], [27.53137, 43.1704], [27.53201, 43.17022], [27.53253, 43.17046], [27.53273, 43.17036]]], [[[27.54596, 43.18553], [27.54303, 43.18571], [27.54181, 43.18621], [27.54115, 43.18688], [27.54092, 43.18747], [27.54122, 43.18889], [27.54175, 43.18783], [27.54171, 43.18722], [27.54231, 43.18792], [27.54287, 43.18782], [27.54278, 43.18823], [27.54211, 43.18876], [27.54219, 43.18914], [27.54328, 43.18958], [27.5439, 43.18882], [27.54478, 43.1884], [27.54598, 43.18825], [27.54894, 43.18849], [27.54679, 43.18787], [27.54376, 43.18802], [27.54341, 43.18779], [27.54372, 43.18748], [27.54699, 43.18735], [27.55285, 43.18908], [27.55368, 43.18957], [27.55378, 43.18988], [27.5534, 43.19004], [27.55218, 43.18946], [27.5548, 43.19251], [27.55493, 43.19176], [27.55625, 43.1893], [27.55549, 43.1883], [27.55476, 43.18862], [27.55455, 43.18853], [27.55491, 43.18793], [27.55408, 43.18748], [27.54767, 43.18558], [27.54596, 43.18553]]], [[[27.5561, 43.19447], [27.55641, 43.19428], [27.55648, 43.19398], [27.55607, 43.1942], [27.55572, 43.19415], [27.55548, 43.19387], [27.55578, 43.19438], [27.5561, 43.19447]]], [[[27.55751, 43.19516], [27.55793, 43.19493], [27.55869, 43.19374], [27.55849, 43.19366], [27.55814, 43.19412], [27.55724, 43.19456], [27.55794, 43.19441], [27.55751, 43.19516]]], [[[27.55601, 43.1954], [27.55598, 43.1954], [27.556, 43.19545], [27.55601, 43.1954]]], [[[27.55871, 43.20032], [27.5567, 43.20043], [27.55637, 43.20077], [27.55648, 43.20143], [27.55682, 43.20159], [27.55679, 43.20059], [27.55839, 43.20054], [27.55871, 43.20032]]], [[[27.55843, 43.21112], [27.55917, 43.21103], [27.55895, 43.21144], [27.55836, 43.21154], [27.55849, 43.21179], [27.5589, 43.21178], [27.55931, 43.21125], [27.56155, 43.21204], [27.56231, 43.21206], [27.5617, 43.21123], [27.56168, 43.21077], [27.56218, 43.21032], [27.56325, 43.20993], [27.56359, 43.20949], [27.56407, 43.20802], [27.56372, 43.20716], [27.56374, 43.2061], [27.56236, 43.20864], [27.56097, 43.21023], [27.56007, 43.2107], [27.55957, 43.21056], [27.55829, 43.21098], [27.55843, 43.21112]]], [[[27.55686, 43.21187], [27.55695, 43.21178], [27.5585, 43.21226], [27.558, 43.21293], [27.5589, 43.21178], [27.55857, 43.21217], [27.55698, 43.21172], [27.55714, 43.2113], [27.55642, 43.21173], [27.55686, 43.21187]]], [[[27.55474, 43.21256], [27.55376, 43.21236], [27.55367, 43.21191], [27.55314, 43.21232], [27.55352, 43.21331], [27.55358, 43.21262], [27.55474, 43.21256]]], [[[27.56198, 43.22604], [27.56384, 43.22584], [27.5618, 43.22453], [27.56131, 43.22462], [27.55955, 43.22563], [27.55907, 43.22633], [27.56198, 43.22604]]], [[[27.56012, 43.22734], [27.55761, 43.22803], [27.55583, 43.22873], [27.55384, 43.22976], [27.55188, 43.23113], [27.55292, 43.23068], [27.55292, 43.23049], [27.55383, 43.22997], [27.55577, 43.22927], [27.55706, 43.2291], [27.55761, 43.22938], [27.55781, 43.22982], [27.56178, 43.22874], [27.56105, 43.22874], [27.56085, 43.22782], [27.56362, 43.22802], [27.56368, 43.22828], [27.56318, 43.22856], [27.5677, 43.22853], [27.5802, 43.2292], [27.58039, 43.23083], [27.58137, 43.23211], [27.58105, 43.23337], [27.5812, 43.23419], [27.58197, 43.23504], [27.58316, 43.23553], [27.58235, 43.23657], [27.58207, 43.2373], [27.58228, 43.23822], [27.58287, 43.23884], [27.58399, 43.23931], [27.58552, 43.23928], [27.58661, 43.23878], [27.58752, 43.23781], [27.58791, 43.23949], [27.58921, 43.23964], [27.59123, 43.24039], [27.59161, 43.24091], [27.59384, 43.24107], [27.59326, 43.24218], [27.59376, 43.2425], [27.59582, 43.24243], [27.5972, 43.24209], [27.59765, 43.24293], [27.6045, 43.24537], [27.60526, 43.24866], [27.60268, 43.25239], [27.60214, 43.25433], [27.59638, 43.25389], [27.59483, 43.25414], [27.59307, 43.25306], [27.59124, 43.25244], [27.59025, 43.25237], [27.59283, 43.25374], [27.59098, 43.25567], [27.59147, 43.25581], [27.59175, 43.25614], [27.59162, 43.25659], [27.59203, 43.25734], [27.59178, 43.25835], [27.5946, 43.25706], [27.59549, 43.25585], [27.59592, 43.2556], [27.60416, 43.25617], [27.60473, 43.2531], [27.60753, 43.24896], [27.60657, 43.244], [27.6048, 43.24371], [27.59741, 43.24098], [27.59538, 43.24047], [27.59339, 43.23909], [27.59147, 43.2386], [27.59102, 43.23831], [27.59066, 43.23765], [27.59088, 43.23672], [27.58808, 43.23396], [27.585, 43.23761], [27.58445, 43.23764], [27.58436, 43.23735], [27.58544, 43.23586], [27.58761, 43.2335], [27.58704, 43.23295], [27.58629, 43.23311], [27.58569, 43.23293], [27.58542, 43.23267], [27.58544, 43.2323], [27.5842, 43.23368], [27.5839, 43.23377], [27.58361, 43.23363], [27.58392, 43.23288], [27.58621, 43.23047], [27.58537, 43.23059], [27.5843, 43.23002], [27.58339, 43.22998], [27.58319, 43.23025], [27.58247, 43.22997], [27.58338, 43.22865], [27.5839, 43.22881], [27.58401, 43.22857], [27.58314, 43.22823], [27.58331, 43.22765], [27.56635, 43.2268], [27.56346, 43.22686], [27.56012, 43.22734]]], [[[27.55705, 43.2275], [27.55924, 43.22686], [27.55693, 43.22718], [27.54983, 43.22919], [27.55106, 43.23082], [27.55404, 43.22883], [27.55705, 43.2275]]], [[[27.55049, 43.2313], [27.54916, 43.22943], [27.54606, 43.23059], [27.54293, 43.23225], [27.54153, 43.23342], [27.53779, 43.23887], [27.53387, 43.24288], [27.53724, 43.24441], [27.53993, 43.24211], [27.55049, 43.2313]], [[27.54194, 43.23656], [27.54382, 43.23395], [27.54667, 43.23228], [27.54048, 43.23867], [27.54194, 43.23656]]], [[[27.54961, 43.23381], [27.54817, 43.23569], [27.55034, 43.2401], [27.55117, 43.23971], [27.5514, 43.23925], [27.55141, 43.23833], [27.55094, 43.23686], [27.54956, 43.2357], [27.54996, 43.23453], [27.54962, 43.23432], [27.54961, 43.23381]]], [[[27.54562, 43.23736], [27.54064, 43.2425], [27.53802, 43.24476], [27.54974, 43.25007], [27.56045, 43.25295], [27.56076, 43.25213], [27.56136, 43.25136], [27.55478, 43.24976], [27.55079, 43.24859], [27.54151, 43.24439], [27.54665, 43.23917], [27.54829, 43.24239], [27.54911, 43.24311], [27.5503, 43.24347], [27.55133, 43.24343], [27.55226, 43.2431], [27.55307, 43.24237], [27.55318, 43.24201], [27.55119, 43.24237], [27.55004, 43.24183], [27.54971, 43.24145], [27.54979, 43.24056], [27.54769, 43.23642], [27.54745, 43.23547], [27.54562, 43.23736]]], [[[27.53088, 43.24643], [27.52913, 43.2488], [27.5328, 43.24719], [27.53671, 43.24481], [27.53344, 43.24332], [27.53088, 43.24643]]], [[[27.57508, 43.15846], [27.57613, 43.15915], [27.57679, 43.15914], [27.57677, 43.15754], [27.57654, 43.15742], [27.57677, 43.15718], [27.57676, 43.15643], [27.57575, 43.15663], [27.57575, 43.15617], [27.57549, 43.15617], [27.57561, 43.15669], [27.57539, 43.15686], [27.57508, 43.15846]]], [[[27.57088, 43.1647], [27.56907, 43.16416], [27.56903, 43.16381], [27.56957, 43.1632], [27.5683, 43.16291], [27.56832, 43.16127], [27.56767, 43.16113], [27.56747, 43.16069], [27.56778, 43.16006], [27.56744, 43.1598], [27.56708, 43.15981], [27.56676, 43.15763], [27.56714, 43.15763], [27.56689, 43.15648], [27.56715, 43.15628], [27.56834, 43.1562], [27.56338, 43.15623], [27.56419, 43.16151], [27.56419, 43.1643], [27.56613, 43.17083], [27.56652, 43.17095], [27.56652, 43.1711], [27.56571, 43.17357], [27.56554, 43.175], [27.56484, 43.17643], [27.56415, 43.17643], [27.56405, 43.17605], [27.56373, 43.17623], [27.56205, 43.17494], [27.56191, 43.17509], [27.56353, 43.17642], [27.56309, 43.17669], [27.56247, 43.1778], [27.56431, 43.17837], [27.56596, 43.1781], [27.56713, 43.17721], [27.568, 43.17534], [27.56863, 43.17068], [27.56681, 43.16448], [27.5674, 43.1653], [27.56822, 43.16576], [27.57196, 43.16656], [27.57208, 43.1674], [27.57271, 43.16836], [27.57447, 43.17019], [27.57734, 43.17272], [27.57788, 43.1741], [27.57683, 43.17571], [27.5763, 43.17842], [27.57632, 43.17986], [27.5773, 43.17826], [27.57843, 43.17818], [27.57911, 43.17568], [27.57929, 43.1757], [27.58014, 43.17452], [27.58018, 43.17395], [27.57935, 43.17189], [27.57622, 43.16914], [27.57463, 43.16747], [27.57422, 43.16675], [27.57385, 43.1667], [27.57388, 43.1659], [27.57273, 43.1658], [27.57283, 43.16527], [27.57088, 43.1647]], [[27.56674, 43.16368], [27.56675, 43.16429], [27.5667, 43.16244], [27.56708, 43.16254], [27.5672, 43.16279], [27.56674, 43.16368]]], [[[27.57583, 43.16488], [27.57626, 43.16495], [27.57635, 43.16655], [27.57619, 43.16722], [27.57556, 43.1675], [27.58013, 43.17185], [27.58097, 43.17417], [27.58083, 43.17472], [27.58007, 43.17578], [27.58235, 43.17617], [27.58262, 43.1758], [27.58224, 43.17518], [27.58294, 43.17433], [27.58311, 43.17345], [27.58437, 43.17322], [27.58555, 43.17356], [27.58616, 43.17434], [27.58599, 43.17445], [27.58834, 43.17544], [27.59083, 43.17539], [27.59235, 43.17494], [27.59454, 43.17464], [27.59414, 43.17822], [27.58805, 43.20805], [27.58742, 43.21287], [27.58798, 43.21311], [27.5881, 43.21411], [27.58731, 43.21498], [27.58784, 43.21556], [27.58778, 43.21591], [27.58859, 43.21659], [27.58791, 43.21726], [27.58669, 43.21704], [27.58403, 43.21771], [27.58144, 43.21772], [27.57836, 43.2167], [27.57874, 43.21571], [27.58119, 43.21393], [27.57971, 43.21379], [27.57771, 43.2143], [27.57649, 43.21507], [27.57588, 43.21619], [27.57421, 43.21543], [27.57296, 43.21511], [27.57255, 43.21456], [27.57177, 43.21407], [27.57064, 43.21382], [27.57006, 43.21298], [27.56904, 43.21244], [27.56898, 43.21146], [27.5685, 43.21074], [27.56755, 43.21016], [27.56654, 43.20995], [27.56708, 43.20807], [27.56671, 43.20676], [27.56667, 43.20486], [27.5662, 43.20326], [27.56542, 43.20244], [27.56529, 43.20088], [27.5649, 43.20074], [27.56419, 43.2027], [27.56478, 43.2036], [27.56443, 43.20521], [27.56445, 43.20706], [27.56476, 43.20835], [27.56406, 43.2101], [27.56238, 43.211], [27.56322, 43.21238], [27.56411, 43.21295], [27.56583, 43.21163], [27.5666, 43.21167], [27.56676, 43.21207], [27.56747, 43.2126], [27.5674, 43.21286], [27.56874, 43.2137], [27.56846, 43.21401], [27.56989, 43.21484], [27.57035, 43.2155], [27.5708, 43.21563], [27.56867, 43.2188], [27.56768, 43.21942], [27.56894, 43.2193], [27.57067, 43.2194], [27.57125, 43.21959], [27.57108, 43.21841], [27.57138, 43.21811], [27.57196, 43.21799], [27.57255, 43.21819], [27.57279, 43.21874], [27.57352, 43.21867], [27.57398, 43.21883], [27.57425, 43.21955], [27.57613, 43.21949], [27.58133, 43.21857], [27.58521, 43.21914], [27.58644, 43.21978], [27.5874, 43.21889], [27.58875, 43.21906], [27.58886, 43.21938], [27.58897, 43.21855], [27.58805, 43.2186], [27.58766, 43.21803], [27.58819, 43.21756], [27.58908, 43.21773], [27.59031, 43.20819], [27.59639, 43.17844], [27.59699, 43.17282], [27.59375, 43.17305], [27.59166, 43.17333], [27.59056, 43.17374], [27.58988, 43.1736], [27.58886, 43.17382], [27.58838, 43.17358], [27.58832, 43.17318], [27.58501, 43.17244], [27.58426, 43.17171], [27.58194, 43.17429], [27.58133, 43.17448], [27.58109, 43.17432], [27.58128, 43.17405], [27.58173, 43.17394], [27.58315, 43.17247], [27.58273, 43.1713], [27.58191, 43.17255], [27.58159, 43.1725], [27.58197, 43.17011], [27.58235, 43.17004], [27.58317, 43.1704], [27.58396, 43.1705], [27.58481, 43.17033], [27.58358, 43.16962], [27.58286, 43.16866], [27.58242, 43.1688], [27.58207, 43.16867], [27.58117, 43.16717], [27.58063, 43.16676], [27.58046, 43.16591], [27.58151, 43.16514], [27.57838, 43.16524], [27.57814, 43.16612], [27.57834, 43.16699], [27.57941, 43.16853], [27.57798, 43.16714], [27.57814, 43.16516], [27.57685, 43.16517], [27.57683, 43.1636], [27.57545, 43.16421], [27.57583, 43.16488]]], [[[27.58783, 43.17037], [27.58749, 43.16933], [27.58629, 43.1683], [27.58651, 43.16722], [27.58592, 43.16614], [27.58459, 43.16545], [27.58471, 43.16513], [27.58232, 43.16514], [27.58116, 43.16613], [27.58127, 43.16648], [27.58182, 43.1669], [27.58263, 43.16812], [27.58323, 43.16782], [27.58353, 43.16707], [27.58387, 43.16702], [27.58421, 43.16724], [27.5842, 43.16766], [27.58358, 43.16853], [27.58411, 43.16924], [27.58509, 43.16971], [27.58555, 43.17023], [27.58505, 43.17174], [27.58573, 43.17206], [27.58883, 43.17269], [27.58907, 43.1729], [27.58906, 43.17325], [27.58992, 43.17305], [27.59041, 43.17321], [27.59146, 43.17281], [27.59362, 43.17252], [27.59704, 43.17228], [27.59737, 43.16926], [27.59831, 43.16506], [27.59601, 43.16507], [27.59492, 43.17068], [27.59023, 43.17138], [27.58926, 43.17103], [27.58777, 43.17081], [27.58783, 43.17037]]], [[[27.5629, 43.17173], [27.56352, 43.17148], [27.56371, 43.17066], [27.56298, 43.1708], [27.5629, 43.17173]]], [[[27.57629, 43.22002], [27.57452, 43.22273], [27.57558, 43.2231], [27.57468, 43.22425], [27.57508, 43.22474], [27.57681, 43.22472], [27.57777, 43.22492], [27.57844, 43.22473], [27.57843, 43.22413], [27.57887, 43.22379], [27.5796, 43.2238], [27.58066, 43.22437], [27.58145, 43.22366], [27.58225, 43.2236], [27.58442, 43.22085], [27.58502, 43.22075], [27.58544, 43.22004], [27.58594, 43.22018], [27.58494, 43.21965], [27.58133, 43.21911], [27.57629, 43.22002]]], [[[27.57384, 43.22413], [27.57382, 43.22416], [27.5739, 43.22415], [27.57384, 43.22413]]], [[[27.58329, 43.22437], [27.58336, 43.22427], [27.58319, 43.22435], [27.58317, 43.22454], [27.58329, 43.22437]]], [[[27.58302, 43.22503], [27.58306, 43.22501], [27.58304, 43.22495], [27.58302, 43.22503]]], [[[27.56707, 43.22551], [27.56707, 43.22547], [27.567, 43.22552], [27.56706, 43.22551], [27.56707, 43.22551]]], [[[27.5795, 43.22546], [27.57928, 43.22529], [27.57867, 43.22528], [27.57949, 43.22567], [27.5795, 43.22546]]], [[[27.5661, 43.22561], [27.56607, 43.22559], [27.56528, 43.22569], [27.5661, 43.22561]]], [[[27.57454, 43.22536], [27.57327, 43.22543], [27.57466, 43.22656], [27.58072, 43.22686], [27.57743, 43.2254], [27.57623, 43.22523], [27.57454, 43.22536]]], [[[27.5728, 43.22547], [27.57214, 43.22555], [27.56617, 43.22615], [27.57422, 43.22654], [27.5728, 43.22547]]], [[[27.58532, 43.22791], [27.58506, 43.22801], [27.58454, 43.22904], [27.58469, 43.2292], [27.58548, 43.22903], [27.58604, 43.22913], [27.58651, 43.22782], [27.58549, 43.22776], [27.58532, 43.22791]]], [[[27.58691, 43.23106], [27.58696, 43.23101], [27.58691, 43.23099], [27.58691, 43.23106]]], [[[27.58741, 43.23133], [27.58751, 43.23135], [27.58764, 43.23127], [27.58724, 43.23132], [27.58741, 43.23133]]], [[[27.58606, 43.23171], [27.58609, 43.23168], [27.58599, 43.23177], [27.58604, 43.23175], [27.58606, 43.23171]]], [[[27.58561, 43.23199], [27.5855, 43.2322], [27.5857, 43.23194], [27.58561, 43.23199]]], [[[27.58778, 43.25298], [27.58802, 43.25277], [27.58682, 43.2532], [27.58498, 43.25312], [27.58305, 43.25361], [27.58194, 43.25425], [27.5811, 43.25516], [27.5795, 43.25632], [27.57884, 43.2576], [27.57881, 43.25863], [27.57933, 43.25982], [27.58043, 43.26094], [27.58165, 43.25962], [27.58034, 43.25814], [27.58101, 43.25659], [27.58229, 43.25495], [27.58289, 43.25477], [27.58334, 43.25428], [27.58617, 43.25379], [27.58652, 43.25344], [27.58711, 43.25337], [27.58778, 43.25298]]], [[[27.58642, 43.2821], [27.58686, 43.28208], [27.58812, 43.28179], [27.58743, 43.28133], [27.58663, 43.28175], [27.58642, 43.2821]]], [[[27.58496, 43.28361], [27.58674, 43.28341], [27.5876, 43.28248], [27.5866, 43.28266], [27.58549, 43.28228], [27.58526, 43.28235], [27.58504, 43.28246], [27.58472, 43.2835], [27.58496, 43.28361]]], [[[27.58971, 43.28563], [27.58968, 43.28634], [27.58907, 43.28704], [27.58828, 43.28709], [27.58777, 43.28674], [27.5869, 43.28717], [27.58614, 43.287], [27.58639, 43.28737], [27.58627, 43.28772], [27.58579, 43.28808], [27.58505, 43.28818], [27.58454, 43.28791], [27.58445, 43.28749], [27.58361, 43.28755], [27.58316, 43.28738], [27.58284, 43.28703], [27.58292, 43.28661], [27.58471, 43.28552], [27.58521, 43.28551], [27.58563, 43.28575], [27.58617, 43.28544], [27.58696, 43.28562], [27.58709, 43.28489], [27.58769, 43.28459], [27.58659, 43.28396], [27.58208, 43.28414], [27.5811, 43.28395], [27.57996, 43.28457], [27.57919, 43.28543], [27.57876, 43.28677], [27.57892, 43.28779], [27.57948, 43.28874], [27.58053, 43.28964], [27.58324, 43.29085], [27.58512, 43.29116], [27.58684, 43.29095], [27.5868, 43.29118], [27.58935, 43.29117], [27.58977, 43.29095], [27.59036, 43.29115], [27.59031, 43.2855], [27.59004, 43.28539], [27.58971, 43.28563]]], [[[27.59734, 43.17699], [27.59105, 43.20826], [27.58968, 43.21881], [27.59143, 43.21449], [27.59192, 43.21377], [27.59677, 43.20941], [27.59745, 43.20915], [27.59842, 43.20807], [27.59793, 43.20796], [27.59764, 43.20765], [27.59793, 43.20678], [27.59834, 43.20655], [27.59897, 43.20656], [27.59948, 43.20692], [27.5994, 43.20747], [27.59991, 43.20723], [27.59926, 43.20184], [27.60074, 43.19578], [27.59986, 43.19275], [27.59986, 43.19137], [27.6002, 43.19061], [27.60271, 43.1873], [27.60436, 43.18554], [27.60627, 43.18449], [27.62226, 43.1791], [27.62349, 43.17855], [27.62413, 43.17793], [27.62454, 43.17708], [27.62449, 43.1742], [27.62418, 43.17432], [27.62318, 43.17422], [27.6228, 43.17393], [27.61779, 43.17396], [27.61896, 43.17545], [27.62069, 43.17634], [27.62094, 43.17772], [27.60508, 43.18308], [27.60367, 43.18375], [27.60189, 43.18514], [27.59821, 43.18981], [27.59762, 43.1911], [27.59759, 43.19285], [27.59846, 43.19583], [27.59706, 43.20124], [27.59713, 43.20373], [27.5942, 43.20421], [27.59937, 43.17875], [27.60027, 43.17015], [27.60116, 43.16599], [27.6111, 43.16578], [27.61375, 43.16552], [27.61375, 43.16498], [27.59906, 43.16505], [27.598, 43.17], [27.59734, 43.17699]], [[27.59657, 43.20512], [27.59786, 43.20611], [27.5971, 43.20664], [27.59581, 43.20564], [27.59657, 43.20512]], [[27.59578, 43.20811], [27.59532, 43.20778], [27.59537, 43.2073], [27.59581, 43.20692], [27.59655, 43.20694], [27.59696, 43.2073], [27.59685, 43.20786], [27.59642, 43.20814], [27.59578, 43.20811]]], [[[27.59928, 43.20805], [27.598, 43.20952], [27.59731, 43.20979], [27.59392, 43.21282], [27.59491, 43.21345], [27.5941, 43.21445], [27.59566, 43.21364], [27.59669, 43.21389], [27.59692, 43.2145], [27.59634, 43.21484], [27.59616, 43.21461], [27.59629, 43.21407], [27.59559, 43.214], [27.59478, 43.21495], [27.59523, 43.21524], [27.59589, 43.21488], [27.59624, 43.21515], [27.59535, 43.21557], [27.59432, 43.21546], [27.59378, 43.21614], [27.59223, 43.21624], [27.59263, 43.21649], [27.59407, 43.21667], [27.59438, 43.21642], [27.59487, 43.21634], [27.59565, 43.21676], [27.59808, 43.21351], [27.59861, 43.21332], [27.59966, 43.211], [27.60003, 43.20945], [27.59998, 43.20785], [27.59928, 43.20805]]], [[[27.5938, 43.2147], [27.59398, 43.21472], [27.59404, 43.2145], [27.5938, 43.2147]]], [[[27.59721, 43.21578], [27.59727, 43.21568], [27.59709, 43.21602], [27.59721, 43.21578], [27.59721, 43.21578]]], [[[27.59635, 43.21705], [27.59642, 43.21707], [27.59659, 43.21683], [27.59635, 43.21705]]], [[[27.59514, 43.21753], [27.59481, 43.21761], [27.59433, 43.2174], [27.59404, 43.21752], [27.59464, 43.21801], [27.59514, 43.21753]]], [[[27.59195, 43.21818], [27.59202, 43.21795], [27.59201, 43.21792], [27.59192, 43.21818], [27.59195, 43.21818]]], [[[27.59052, 43.21854], [27.59047, 43.21887], [27.591, 43.21843], [27.59103, 43.21733], [27.59052, 43.21854]]], [[[27.59536, 43.21857], [27.59508, 43.21845], [27.59489, 43.21858], [27.59516, 43.21886], [27.59536, 43.21857]]], [[[27.59005, 43.21938], [27.58984, 43.21954], [27.59052, 43.21974], [27.59005, 43.21938]]], [[[27.59698, 43.21997], [27.5973, 43.22021], [27.59884, 43.21958], [27.60321, 43.2173], [27.60289, 43.21689], [27.60237, 43.21703], [27.60098, 43.21682], [27.60048, 43.21629], [27.59951, 43.21585], [27.60079, 43.21497], [27.59972, 43.21419], [27.60081, 43.21348], [27.60185, 43.21431], [27.60342, 43.21313], [27.60282, 43.21251], [27.60046, 43.21289], [27.59953, 43.2135], [27.59885, 43.21445], [27.5992, 43.21476], [27.59919, 43.21513], [27.59876, 43.2155], [27.59789, 43.21731], [27.5963, 43.21949], [27.59698, 43.21997]], [[27.60041, 43.21769], [27.59983, 43.21809], [27.59919, 43.21804], [27.59866, 43.21757], [27.59883, 43.21701], [27.59867, 43.21687], [27.59952, 43.21635], [27.60067, 43.2173], [27.60041, 43.21769]]], [[[27.59062, 43.22036], [27.59021, 43.22024], [27.59046, 43.22045], [27.59062, 43.22036]]], [[[27.58968, 43.22101], [27.58994, 43.22084], [27.58945, 43.22035], [27.58933, 43.22111], [27.58968, 43.22101]]], [[[27.59338, 43.22128], [27.59337, 43.22141], [27.59362, 43.22105], [27.59339, 43.22102], [27.59338, 43.22128]]], [[[27.59792, 43.22133], [27.59841, 43.22163], [27.59884, 43.22384], [27.59762, 43.22469], [27.59558, 43.22424], [27.59528, 43.22481], [27.59472, 43.22501], [27.59563, 43.2265], [27.59589, 43.2268], [27.60251, 43.22701], [27.60806, 43.21546], [27.60657, 43.21623], [27.60672, 43.2164], [27.6064, 43.21665], [27.60591, 43.21683], [27.60576, 43.21665], [27.60345, 43.21784], [27.60403, 43.21843], [27.60356, 43.21903], [27.60262, 43.21922], [27.60198, 43.21861], [27.59774, 43.22065], [27.59792, 43.22133]]], [[[27.59057, 43.2257], [27.59062, 43.22541], [27.59015, 43.2257], [27.59057, 43.22576], [27.59057, 43.2257]]], [[[27.59166, 43.22497], [27.59143, 43.22594], [27.59167, 43.22672], [27.59496, 43.22679], [27.59399, 43.22513], [27.59277, 43.22569], [27.59205, 43.22554], [27.59238, 43.22484], [27.59194, 43.22457], [27.59166, 43.22497]]], [[[27.59084, 43.22717], [27.58943, 43.22707], [27.58906, 43.2272], [27.59106, 43.2274], [27.59084, 43.22717]]], [[[27.58825, 43.22723], [27.58815, 43.22721], [27.58809, 43.22722], [27.58828, 43.22725], [27.58825, 43.22723]]], [[[27.59263, 43.22733], [27.59212, 43.22731], [27.59228, 43.22747], [27.60036, 43.22805], [27.60067, 43.22781], [27.60117, 43.22776], [27.60166, 43.22794], [27.60187, 43.2283], [27.60759, 43.22979], [27.60847, 43.22919], [27.60946, 43.22919], [27.61004, 43.22755], [27.60535, 43.22761], [27.59263, 43.22733]]], [[[27.58866, 43.22793], [27.58887, 43.2281], [27.58899, 43.22814], [27.58876, 43.22794], [27.58866, 43.22793]]], [[[27.5905, 43.22813], [27.59028, 43.22802], [27.58991, 43.228], [27.59048, 43.22822], [27.5905, 43.22813]]], [[[27.58949, 43.22844], [27.58949, 43.22844], [27.58949, 43.22844], [27.58949, 43.22844]]], [[[27.59295, 43.22887], [27.59245, 43.22853], [27.59274, 43.22903], [27.59295, 43.22887]]], [[[27.58771, 43.22919], [27.58761, 43.22975], [27.58698, 43.23005], [27.58696, 43.23035], [27.58727, 43.23029], [27.58715, 43.23007], [27.58791, 43.2299], [27.58789, 43.22964], [27.58807, 43.2296], [27.58826, 43.23007], [27.58815, 43.22936], [27.58778, 43.22888], [27.58771, 43.22919]]], [[[27.6012, 43.22918], [27.60046, 43.22909], [27.60014, 43.2287], [27.59921, 43.22857], [27.59376, 43.2282], [27.59514, 43.22855], [27.5959, 43.22899], [27.60191, 43.23122], [27.60344, 43.23215], [27.60461, 43.23355], [27.60611, 43.23705], [27.6071, 43.23851], [27.60732, 43.23713], [27.60699, 43.23683], [27.60699, 43.23634], [27.60757, 43.23567], [27.60824, 43.23241], [27.60686, 43.23154], [27.607, 43.23033], [27.60216, 43.22904], [27.60162, 43.22895], [27.6012, 43.22918]], [[27.60601, 43.23182], [27.60602, 43.2319], [27.6059, 43.23178], [27.60601, 43.23182]]], [[[27.58809, 43.23195], [27.58811, 43.23238], [27.58772, 43.23271], [27.59115, 43.23608], [27.59226, 43.23364], [27.59144, 43.23357], [27.59104, 43.23293], [27.59175, 43.2323], [27.5925, 43.23226], [27.59272, 43.23085], [27.5932, 43.23153], [27.59275, 43.23039], [27.59251, 43.23015], [27.59174, 43.23018], [27.58998, 43.23106], [27.58998, 43.23158], [27.58962, 43.23141], [27.58913, 43.23189], [27.58845, 43.23156], [27.58809, 43.23195]]], [[[27.59553, 43.22974], [27.59781, 43.2319], [27.59899, 43.23269], [27.59712, 43.23688], [27.59733, 43.23731], [27.59692, 43.23829], [27.59634, 43.23862], [27.59619, 43.23897], [27.5957, 43.23905], [27.59509, 43.23952], [27.59573, 43.23999], [27.59772, 43.24049], [27.60506, 43.2432], [27.60653, 43.24344], [27.60655, 43.24171], [27.60697, 43.23928], [27.60562, 43.23762], [27.60352, 43.23313], [27.60289, 43.23251], [27.60154, 43.23169], [27.5958, 43.22955], [27.59553, 43.22974]], [[27.60081, 43.23912], [27.60138, 43.23725], [27.60085, 43.23565], [27.60145, 43.23388], [27.60199, 43.23472], [27.60332, 43.23808], [27.60459, 43.23973], [27.60435, 43.24108], [27.60051, 43.23966], [27.60081, 43.23912]]], [[[27.5901, 43.25703], [27.59035, 43.2577], [27.59018, 43.25916], [27.59077, 43.25986], [27.5916, 43.25963], [27.59158, 43.25889], [27.59104, 43.25837], [27.59128, 43.25721], [27.59101, 43.2569], [27.59037, 43.25676], [27.59008, 43.2564], [27.58976, 43.25665], [27.5901, 43.25703]]], [[[27.5896, 43.2585], [27.5896, 43.25813], [27.58942, 43.25826], [27.5896, 43.2585]]], [[[27.59555, 43.25702], [27.59445, 43.25779], [27.5946, 43.25826], [27.59405, 43.25938], [27.59315, 43.25946], [27.59256, 43.25871], [27.59232, 43.25883], [27.59235, 43.2603], [27.59318, 43.26281], [27.59452, 43.26332], [27.59496, 43.26542], [27.59371, 43.26594], [27.59316, 43.26717], [27.59107, 43.26865], [27.59182, 43.26938], [27.59128, 43.27085], [27.59135, 43.27191], [27.59147, 43.27223], [27.59289, 43.26921], [27.59402, 43.26871], [27.59477, 43.26813], [27.59626, 43.26832], [27.59765, 43.26819], [27.59894, 43.26777], [27.60026, 43.26691], [27.6005, 43.27127], [27.59921, 43.27505], [27.59704, 43.27452], [27.59648, 43.27558], [27.59731, 43.27627], [27.60063, 43.27754], [27.60277, 43.27142], [27.60251, 43.26717], [27.60407, 43.25671], [27.59629, 43.25609], [27.59555, 43.25702]], [[27.59523, 43.26374], [27.59569, 43.26359], [27.59633, 43.26363], [27.59678, 43.26293], [27.59719, 43.26272], [27.59787, 43.2628], [27.59823, 43.26314], [27.59819, 43.26351], [27.59738, 43.26472], [27.59655, 43.26534], [27.59585, 43.26523], [27.59553, 43.26473], [27.5951, 43.2645], [27.59498, 43.26414], [27.59523, 43.26374]], [[27.60027, 43.26041], [27.59825, 43.2598], [27.59864, 43.25793], [27.60125, 43.25815], [27.60068, 43.25952], [27.60083, 43.26075], [27.60027, 43.26041]]], [[[27.59041, 43.2805], [27.59126, 43.2805], [27.59294, 43.27952], [27.59416, 43.27812], [27.59357, 43.27819], [27.591, 43.27972], [27.59041, 43.2805]]], [[[27.59749, 43.2801], [27.59834, 43.27926], [27.6003, 43.27805], [27.59693, 43.27675], [27.59621, 43.27722], [27.59598, 43.27802], [27.59504, 43.27859], [27.5948, 43.2784], [27.59347, 43.2799], [27.59157, 43.281], [27.59055, 43.28108], [27.58939, 43.28213], [27.58802, 43.28292], [27.58732, 43.28375], [27.58865, 43.28433], [27.58964, 43.28449], [27.58984, 43.28429], [27.58977, 43.28371], [27.59029, 43.28339], [27.59027, 43.28216], [27.59685, 43.28213], [27.59749, 43.2801]], [[27.59437, 43.28175], [27.59417, 43.28157], [27.59473, 43.28129], [27.59467, 43.28158], [27.59437, 43.28175]]], [[[27.59883, 43.28029], [27.59966, 43.27914], [27.59816, 43.28033], [27.5976, 43.28212], [27.59883, 43.28029]]], [[[27.60192, 43.18943], [27.60087, 43.19085], [27.60053, 43.19211], [27.60148, 43.19576], [27.6, 43.20188], [27.60064, 43.20715], [27.60061, 43.20647], [27.60155, 43.20671], [27.60203, 43.20664], [27.60305, 43.20618], [27.60386, 43.2055], [27.60991, 43.19875], [27.60725, 43.1926], [27.60639, 43.19015], [27.60637, 43.18954], [27.61016, 43.18893], [27.61538, 43.18457], [27.61612, 43.18373], [27.61684, 43.18243], [27.61884, 43.18108], [27.62203, 43.18155], [27.62229, 43.1818], [27.6214, 43.18347], [27.61924, 43.1836], [27.61915, 43.18695], [27.62136, 43.18707], [27.62323, 43.18669], [27.62344, 43.18461], [27.62322, 43.18272], [27.62279, 43.18132], [27.62284, 43.18051], [27.62158, 43.18031], [27.62003, 43.18054], [27.60664, 43.18496], [27.60567, 43.1854], [27.60427, 43.18649], [27.60192, 43.18943]], [[27.60373, 43.19554], [27.60281, 43.1921], [27.60295, 43.19151], [27.60388, 43.19028], [27.60719, 43.1987], [27.60246, 43.20396], [27.60231, 43.20172], [27.60365, 43.19677], [27.60373, 43.19554]], [[27.60887, 43.18724], [27.60595, 43.18766], [27.60703, 43.18673], [27.61114, 43.1853], [27.60887, 43.18724]]], [[[27.60854, 43.20852], [27.60834, 43.20871], [27.61075, 43.20842], [27.60854, 43.20852]]], [[[27.60078, 43.20854], [27.60068, 43.20997], [27.601, 43.21014], [27.60121, 43.2099], [27.60145, 43.21004], [27.60168, 43.20977], [27.60118, 43.20952], [27.60084, 43.20767], [27.60078, 43.20854]]], [[[27.60395, 43.21089], [27.60462, 43.21135], [27.60633, 43.20972], [27.60512, 43.20903], [27.60345, 43.20924], [27.6035, 43.20948], [27.60258, 43.20972], [27.60233, 43.21017], [27.60407, 43.21073], [27.60395, 43.21089]]], [[[27.60825, 43.2093], [27.6073, 43.20967], [27.60595, 43.211], [27.60641, 43.21089], [27.60693, 43.21027], [27.60839, 43.2094], [27.60825, 43.2093]]], [[[27.60105, 43.21061], [27.60108, 43.21036], [27.60065, 43.21018], [27.60058, 43.21045], [27.60105, 43.21061]]], [[[27.60049, 43.21076], [27.60038, 43.21112], [27.60033, 43.21126], [27.60065, 43.21086], [27.60049, 43.21076]]], [[[27.60447, 43.21215], [27.60448, 43.21214], [27.60459, 43.21205], [27.60444, 43.21211], [27.60447, 43.21215]]], [[[27.60894, 43.21081], [27.6084, 43.21113], [27.60795, 43.21178], [27.60703, 43.2121], [27.60612, 43.21274], [27.60662, 43.2131], [27.60604, 43.21371], [27.60532, 43.21387], [27.60434, 43.21445], [27.60422, 43.21519], [27.60327, 43.21584], [27.60339, 43.21644], [27.60382, 43.21699], [27.60847, 43.21458], [27.61068, 43.20989], [27.60894, 43.21081]]], [[[27.60803, 43.21719], [27.60818, 43.21713], [27.60828, 43.2171], [27.60809, 43.21706], [27.60803, 43.21719]]], [[[27.61054, 43.22533], [27.60653, 43.2254], [27.60891, 43.22039], [27.60782, 43.22001], [27.60733, 43.21947], [27.60695, 43.21946], [27.60338, 43.22703], [27.61189, 43.22697], [27.61147, 43.22607], [27.61193, 43.22531], [27.61054, 43.22533]]], [[[27.60811, 43.22954], [27.60809, 43.22988], [27.60832, 43.23005], [27.60814, 43.22972], [27.60832, 43.22942], [27.6088, 43.22928], [27.60932, 43.22957], [27.60936, 43.22945], [27.60874, 43.22921], [27.60834, 43.22931], [27.60811, 43.22954]]], [[[27.60695, 43.23136], [27.60711, 43.23164], [27.60746, 43.23185], [27.60808, 43.23192], [27.60848, 43.23178], [27.60852, 43.23166], [27.60771, 43.23185], [27.60712, 43.23152], [27.60706, 43.23105], [27.60767, 43.23057], [27.60716, 43.23079], [27.60696, 43.23107], [27.60695, 43.23136]]], [[[27.61018, 43.23192], [27.60978, 43.23205], [27.60918, 43.23194], [27.60979, 43.23212], [27.61018, 43.23192]]], [[[27.61119, 43.24364], [27.61048, 43.2428], [27.6105, 43.2424], [27.60761, 43.23985], [27.60725, 43.24224], [27.60729, 43.24377], [27.60826, 43.24905], [27.60543, 43.25329], [27.60521, 43.25405], [27.60657, 43.25236], [27.61022, 43.25025], [27.6116, 43.24865], [27.61207, 43.24691], [27.61223, 43.24521], [27.61177, 43.24381], [27.61119, 43.24364]], [[27.61097, 43.24603], [27.61127, 43.2467], [27.61108, 43.24675], [27.61054, 43.24561], [27.60841, 43.24251], [27.60864, 43.24242], [27.61097, 43.24603]], [[27.60986, 43.24537], [27.60972, 43.24478], [27.60966, 43.24444], [27.60994, 43.24523], [27.60993, 43.2457], [27.60986, 43.24537]]], [[[27.61231, 43.24881], [27.61106, 43.25039], [27.60773, 43.2523], [27.60623, 43.25367], [27.60582, 43.25447], [27.6058, 43.25624], [27.60557, 43.25635], [27.60566, 43.25917], [27.61475, 43.26031], [27.61535, 43.25989], [27.61415, 43.2591], [27.61334, 43.25923], [27.61235, 43.25833], [27.6096, 43.25798], [27.60888, 43.25731], [27.60786, 43.25676], [27.60789, 43.25528], [27.60852, 43.25412], [27.60919, 43.25357], [27.61232, 43.25183], [27.61389, 43.25027], [27.61478, 43.24841], [27.6152, 43.24608], [27.61517, 43.24465], [27.61451, 43.24289], [27.61369, 43.24183], [27.61088, 43.23929], [27.61163, 43.23868], [27.61132, 43.23698], [27.61116, 43.23694], [27.61051, 43.23759], [27.61073, 43.23841], [27.61006, 43.23822], [27.61046, 43.23594], [27.61162, 43.23383], [27.61163, 43.23337], [27.61212, 43.23326], [27.61345, 43.2334], [27.61451, 43.23393], [27.61426, 43.23435], [27.6133, 43.23428], [27.61394, 43.23488], [27.61421, 43.2356], [27.6146, 43.23537], [27.61483, 43.23421], [27.61527, 43.2343], [27.61135, 43.23208], [27.61085, 43.23219], [27.61028, 43.23201], [27.60993, 43.23215], [27.60908, 43.23221], [27.60898, 43.23247], [27.60831, 43.23569], [27.60863, 43.236], [27.60863, 43.23645], [27.60807, 43.23714], [27.60774, 43.23912], [27.61101, 43.24199], [27.61244, 43.24359], [27.61296, 43.2455], [27.61231, 43.24881]]], [[[27.60492, 43.25907], [27.60484, 43.25653], [27.60448, 43.25902], [27.60492, 43.25907]]], [[[27.60485, 43.26018], [27.60478, 43.2596], [27.6044, 43.25956], [27.6035, 43.26556], [27.60495, 43.26234], [27.60485, 43.26018]]], [[[27.60659, 43.25983], [27.60626, 43.25979], [27.60614, 43.26017], [27.6057, 43.2604], [27.60568, 43.26239], [27.6054, 43.26357], [27.60715, 43.26366], [27.60756, 43.26382], [27.60786, 43.26294], [27.60945, 43.26188], [27.6149, 43.26251], [27.61619, 43.26225], [27.61724, 43.26162], [27.61745, 43.26238], [27.61704, 43.2629], [27.61686, 43.26366], [27.617, 43.26422], [27.61761, 43.26504], [27.61856, 43.2657], [27.6202, 43.26624], [27.62039, 43.26591], [27.62141, 43.26623], [27.62152, 43.26579], [27.62176, 43.26575], [27.62191, 43.26652], [27.62246, 43.26661], [27.62269, 43.26593], [27.622, 43.2657], [27.62221, 43.26548], [27.62061, 43.26488], [27.62019, 43.26443], [27.61948, 43.2641], [27.61913, 43.26363], [27.61929, 43.26337], [27.61987, 43.26335], [27.62124, 43.2625], [27.62155, 43.26204], [27.62021, 43.2616], [27.61975, 43.26166], [27.61957, 43.26136], [27.61636, 43.25991], [27.61529, 43.2607], [27.61469, 43.26085], [27.60659, 43.25983]]], [[[27.60351, 43.26777], [27.60377, 43.27207], [27.6024, 43.27662], [27.60145, 43.278], [27.60262, 43.27864], [27.60338, 43.27798], [27.60493, 43.27816], [27.60438, 43.27756], [27.60609, 43.27178], [27.60582, 43.26753], [27.60706, 43.26491], [27.60579, 43.26425], [27.60554, 43.26395], [27.6053, 43.26389], [27.60487, 43.26444], [27.60386, 43.26641], [27.60351, 43.26777]]], [[[27.60089, 43.27855], [27.59851, 43.28212], [27.60845, 43.28206], [27.60879, 43.2813], [27.60864, 43.28046], [27.60845, 43.28151], [27.60552, 43.28198], [27.60487, 43.28189], [27.60206, 43.28025], [27.60218, 43.27907], [27.60096, 43.27841], [27.60089, 43.27855]]], [[[27.62397, 43.17896], [27.62346, 43.17925], [27.62201, 43.17979], [27.62344, 43.18012], [27.62328, 43.17981], [27.62359, 43.17946], [27.62482, 43.1791], [27.62477, 43.17821], [27.62397, 43.17896]]], [[[27.62486, 43.17987], [27.62475, 43.17993], [27.62486, 43.17997], [27.62486, 43.17987]]], [[[27.62493, 43.18111], [27.6249, 43.18111], [27.62493, 43.18114], [27.62493, 43.18111]]], [[[27.62573, 43.18137], [27.62578, 43.18218], [27.62581, 43.18282], [27.62623, 43.18254], [27.62623, 43.18217], [27.62573, 43.18137]]], [[[27.62435, 43.2079], [27.62468, 43.20846], [27.62427, 43.20894], [27.62293, 43.20944], [27.62243, 43.20945], [27.6218, 43.20907], [27.62166, 43.2084], [27.61645, 43.21112], [27.61222, 43.21685], [27.61113, 43.21736], [27.60869, 43.21756], [27.60755, 43.2182], [27.60742, 43.21843], [27.60782, 43.21845], [27.60786, 43.21896], [27.6084, 43.21993], [27.60994, 43.22043], [27.61136, 43.22022], [27.61263, 43.21971], [27.61449, 43.21808], [27.61642, 43.21572], [27.61695, 43.21473], [27.61858, 43.21398], [27.61975, 43.21277], [27.62107, 43.21224], [27.62143, 43.21232], [27.61434, 43.22216], [27.61627, 43.22304], [27.62386, 43.21252], [27.62473, 43.2116], [27.62501, 43.21065], [27.62557, 43.21032], [27.62497, 43.2105], [27.62451, 43.21098], [27.62447, 43.2101], [27.62641, 43.20897], [27.62761, 43.20731], [27.62698, 43.20684], [27.62405, 43.20768], [27.62435, 43.2079]]], [[[27.61102, 43.20917], [27.61052, 43.2092], [27.61036, 43.2094], [27.61069, 43.20987], [27.61102, 43.20917]]], [[[27.62668, 43.20993], [27.63036, 43.20706], [27.63189, 43.20669], [27.63229, 43.20673], [27.63226, 43.20702], [27.63251, 43.20716], [27.6335, 43.20719], [27.63381, 43.20646], [27.63502, 43.20699], [27.63562, 43.20648], [27.6361, 43.20636], [27.63654, 43.20694], [27.63624, 43.20748], [27.63715, 43.20738], [27.63724, 43.20754], [27.63692, 43.20786], [27.63754, 43.20824], [27.63869, 43.20779], [27.63938, 43.20784], [27.63981, 43.20831], [27.64023, 43.20941], [27.64008, 43.20827], [27.64048, 43.20824], [27.64098, 43.20854], [27.64107, 43.20872], [27.64072, 43.20911], [27.6414, 43.20919], [27.64077, 43.20986], [27.64144, 43.20985], [27.64139, 43.21015], [27.64102, 43.2102], [27.64133, 43.21028], [27.64094, 43.21037], [27.64104, 43.21079], [27.64077, 43.21104], [27.64091, 43.21066], [27.64062, 43.21053], [27.63991, 43.21183], [27.64013, 43.21185], [27.6402, 43.21226], [27.64075, 43.21203], [27.64083, 43.21213], [27.64045, 43.21309], [27.64073, 43.21327], [27.6401, 43.21348], [27.63987, 43.21448], [27.63946, 43.21462], [27.63962, 43.21475], [27.63977, 43.21464], [27.63989, 43.21499], [27.64034, 43.215], [27.64044, 43.21468], [27.6402, 43.21448], [27.64032, 43.21414], [27.64065, 43.21398], [27.64058, 43.21494], [27.64086, 43.21556], [27.64179, 43.21594], [27.64339, 43.21624], [27.64366, 43.21647], [27.64351, 43.21832], [27.6418, 43.21841], [27.64178, 43.21891], [27.64189, 43.21872], [27.64256, 43.21862], [27.64271, 43.21882], [27.64285, 43.21864], [27.6435, 43.21853], [27.64308, 43.22103], [27.64264, 43.22268], [27.64156, 43.22279], [27.63806, 43.2264], [27.63723, 43.2264], [27.63797, 43.22649], [27.63698, 43.22742], [27.63814, 43.2265], [27.6395, 43.22655], [27.63954, 43.22639], [27.63841, 43.22637], [27.63913, 43.2258], [27.64016, 43.22451], [27.64046, 43.22485], [27.64095, 43.2248], [27.64053, 43.22476], [27.64031, 43.22427], [27.64194, 43.22275], [27.64249, 43.22286], [27.64104, 43.22476], [27.64262, 43.22287], [27.64293, 43.22433], [27.64285, 43.22304], [27.64353, 43.22371], [27.64329, 43.22421], [27.64367, 43.2242], [27.64365, 43.22401], [27.64413, 43.22391], [27.64587, 43.22459], [27.64634, 43.22414], [27.64535, 43.22353], [27.64508, 43.22315], [27.6441, 43.21937], [27.64439, 43.21653], [27.64333, 43.21499], [27.64243, 43.21496], [27.64201, 43.21526], [27.64168, 43.21516], [27.6409, 43.21336], [27.64187, 43.21179], [27.64292, 43.21086], [27.6438, 43.20971], [27.64432, 43.20971], [27.64435, 43.21013], [27.64452, 43.21014], [27.64471, 43.20964], [27.64448, 43.20864], [27.64247, 43.20796], [27.642, 43.20806], [27.64167, 43.20768], [27.64102, 43.20765], [27.64063, 43.20731], [27.64063, 43.208], [27.63744, 43.20718], [27.63752, 43.20638], [27.63791, 43.20595], [27.63817, 43.20592], [27.63331, 43.206], [27.63332, 43.20623], [27.63036, 43.20695], [27.62816, 43.20772], [27.62746, 43.20868], [27.62808, 43.20866], [27.62646, 43.21006], [27.62668, 43.20993]], [[27.64115, 43.21097], [27.64159, 43.20999], [27.64186, 43.20994], [27.64171, 43.21084], [27.64115, 43.21097]], [[27.6412, 43.2122], [27.64106, 43.21112], [27.64174, 43.21094], [27.64182, 43.21123], [27.64108, 43.21259], [27.6412, 43.2122]]], [[[27.62652, 43.21056], [27.62672, 43.21061], [27.62557, 43.21158], [27.62525, 43.21234], [27.62539, 43.21243], [27.62544, 43.21229], [27.62579, 43.21272], [27.62623, 43.21286], [27.62685, 43.21286], [27.62737, 43.21261], [27.62899, 43.21012], [27.62792, 43.21026], [27.62728, 43.20993], [27.62691, 43.20995], [27.62633, 43.21024], [27.62625, 43.21053], [27.62652, 43.21056]]], [[[27.62595, 43.2141], [27.62454, 43.21274], [27.61499, 43.22597], [27.61405, 43.22696], [27.62355, 43.22822], [27.63462, 43.23258], [27.63559, 43.23274], [27.63661, 43.23264], [27.63751, 43.23223], [27.63811, 43.23168], [27.6389, 43.229], [27.63664, 43.2288], [27.63612, 43.23086], [27.63559, 43.23108], [27.62446, 43.22669], [27.61776, 43.22569], [27.62392, 43.21715], [27.6226, 43.21713], [27.62408, 43.21693], [27.62605, 43.214], [27.62595, 43.2141]]], [[[27.61547, 43.22362], [27.61469, 43.22268], [27.61413, 43.22244], [27.61325, 43.22366], [27.6154, 43.22395], [27.61547, 43.22362]]], [[[27.61207, 43.22669], [27.6124, 43.22696], [27.61292, 43.22694], [27.61382, 43.22636], [27.61547, 43.22414], [27.61346, 43.22377], [27.61317, 43.22389], [27.61167, 43.22602], [27.61207, 43.22669]]], [[[27.61218, 43.22751], [27.61096, 43.22753], [27.61034, 43.22888], [27.61007, 43.22962], [27.61088, 43.23012], [27.61086, 43.23077], [27.61154, 43.23091], [27.6118, 43.23152], [27.62732, 43.24054], [27.6299, 43.24127], [27.63245, 43.24125], [27.6348, 43.24055], [27.63578, 43.23998], [27.63692, 43.23895], [27.63785, 43.2373], [27.63935, 43.23113], [27.64043, 43.22924], [27.63943, 43.23018], [27.63896, 43.2316], [27.63826, 43.23245], [27.63689, 43.23314], [27.63529, 43.23327], [27.63429, 43.23307], [27.62332, 43.22873], [27.61498, 43.22757], [27.61218, 43.22751]], [[27.62475, 43.23695], [27.61586, 43.23167], [27.61575, 43.23052], [27.61494, 43.22925], [27.62256, 43.2303], [27.63323, 43.23454], [27.63475, 43.23489], [27.63612, 43.23493], [27.63564, 43.23691], [27.63499, 43.23808], [27.63353, 43.23916], [27.632, 43.23962], [27.63028, 43.23963], [27.62887, 43.23928], [27.62475, 43.23695]]], [[[27.61037, 43.22993], [27.60999, 43.2299], [27.60993, 43.22998], [27.61036, 43.22998], [27.61073, 43.2303], [27.61041, 43.23088], [27.61082, 43.23034], [27.61037, 43.22993]]], [[[27.6172, 43.23699], [27.61762, 43.23782], [27.62442, 43.24188], [27.62647, 43.24285], [27.62866, 43.24344], [27.63119, 43.24366], [27.63424, 43.24329], [27.63561, 43.24287], [27.63566, 43.24274], [27.63472, 43.24245], [27.63523, 43.24146], [27.63577, 43.24154], [27.63547, 43.24127], [27.63566, 43.24107], [27.6361, 43.24102], [27.63645, 43.24132], [27.63792, 43.24169], [27.63907, 43.24075], [27.63887, 43.23786], [27.63932, 43.235], [27.63853, 43.23794], [27.63728, 43.23973], [27.63592, 43.24076], [27.63478, 43.24132], [27.63342, 43.24174], [27.63183, 43.24197], [27.62913, 43.24182], [27.62682, 43.24109], [27.61804, 43.23594], [27.6201, 43.23749], [27.61813, 43.23654], [27.61737, 43.23555], [27.61544, 43.2344], [27.61524, 43.23454], [27.6169, 43.2364], [27.6172, 43.23699]]], [[[27.61973, 43.25379], [27.61788, 43.25406], [27.61816, 43.2546], [27.6187, 43.25498], [27.61929, 43.25511], [27.6192, 43.25546], [27.61942, 43.25574], [27.62009, 43.25613], [27.62032, 43.25593], [27.62069, 43.25598], [27.62211, 43.25727], [27.62262, 43.25669], [27.62424, 43.25609], [27.62344, 43.25507], [27.62239, 43.25438], [27.62112, 43.25394], [27.61973, 43.25379]]], [[[27.61568, 43.25537], [27.61489, 43.25698], [27.61547, 43.25773], [27.6158, 43.25749], [27.61611, 43.25658], [27.617, 43.25674], [27.61719, 43.25592], [27.61781, 43.25629], [27.6183, 43.25694], [27.61853, 43.25786], [27.61892, 43.25806], [27.61924, 43.25782], [27.61837, 43.25633], [27.61857, 43.25608], [27.61776, 43.25524], [27.61744, 43.25524], [27.61703, 43.25439], [27.61568, 43.25537]]], [[[27.62035, 43.257], [27.62104, 43.25795], [27.62044, 43.25766], [27.62015, 43.25787], [27.62099, 43.25826], [27.62117, 43.25796], [27.62037, 43.25697], [27.62059, 43.25674], [27.62016, 43.25635], [27.6201, 43.25683], [27.62035, 43.257]]], [[[27.62087, 43.257], [27.62161, 43.25796], [27.62182, 43.25787], [27.62087, 43.257]]], [[[27.62485, 43.25774], [27.62463, 43.25767], [27.62496, 43.25711], [27.6246, 43.25767], [27.62418, 43.25854], [27.62489, 43.25843], [27.625, 43.25879], [27.62545, 43.25876], [27.62546, 43.25816], [27.62581, 43.25743], [27.6257, 43.25733], [27.62512, 43.25827], [27.62453, 43.25833], [27.62494, 43.25816], [27.62504, 43.25787], [27.62485, 43.25774]]], [[[27.62614, 43.25967], [27.62692, 43.25996], [27.62798, 43.25945], [27.62716, 43.2595], [27.62674, 43.25975], [27.62585, 43.25953], [27.62614, 43.25967]]], [[[27.62742, 43.2629], [27.62828, 43.26232], [27.62849, 43.26181], [27.63017, 43.2618], [27.6306, 43.26139], [27.63044, 43.26116], [27.62962, 43.26106], [27.62941, 43.26159], [27.62916, 43.2611], [27.62893, 43.26147], [27.62873, 43.26104], [27.62812, 43.26112], [27.628, 43.26212], [27.62733, 43.26218], [27.62689, 43.26314], [27.6274, 43.26309], [27.62742, 43.2629]]], [[[27.62745, 43.26379], [27.62783, 43.26395], [27.62778, 43.26329], [27.62747, 43.2632], [27.62694, 43.26353], [27.62701, 43.26375], [27.62745, 43.26379]]], [[[27.6262, 43.26434], [27.62621, 43.26455], [27.6265, 43.26416], [27.62621, 43.26342], [27.6262, 43.26434]]], [[[27.62707, 43.26444], [27.62689, 43.2646], [27.62707, 43.26455], [27.62707, 43.26444]]], [[[27.62272, 43.26612], [27.62307, 43.26634], [27.6238, 43.26632], [27.62291, 43.26579], [27.62272, 43.26612]]], [[[27.62439, 43.26688], [27.62425, 43.26659], [27.6238, 43.26632], [27.62393, 43.2667], [27.62482, 43.26715], [27.62439, 43.26688]]], [[[27.63737, 43.18742], [27.63775, 43.18785], [27.63859, 43.18817], [27.63858, 43.18668], [27.63737, 43.18742]]], [[[27.62795, 43.18863], [27.62821, 43.18851], [27.62783, 43.18833], [27.62781, 43.1884], [27.62795, 43.18863]]], [[[27.638, 43.18925], [27.63832, 43.18949], [27.63861, 43.18954], [27.63834, 43.18935], [27.638, 43.18925]]], [[[27.62695, 43.18939], [27.62656, 43.19], [27.62763, 43.18997], [27.62696, 43.18933], [27.62695, 43.18939]]], [[[27.64381, 43.20083], [27.64267, 43.20464], [27.64474, 43.20082], [27.64381, 43.20083]]], [[[27.65057, 43.20117], [27.65033, 43.20079], [27.64824, 43.2008], [27.6479, 43.20173], [27.64659, 43.20211], [27.64599, 43.20212], [27.64537, 43.20171], [27.64554, 43.20082], [27.64295, 43.2056], [27.65109, 43.2059], [27.65104, 43.20154], [27.65057, 43.20117]], [[27.6467, 43.20273], [27.64651, 43.20397], [27.64533, 43.2043], [27.64683, 43.20413], [27.64685, 43.20289], [27.64758, 43.20284], [27.64748, 43.20462], [27.64474, 43.20496], [27.64507, 43.20414], [27.64566, 43.20362], [27.64616, 43.20273], [27.6467, 43.20273]], [[27.64757, 43.2053], [27.64602, 43.20525], [27.64625, 43.20504], [27.64763, 43.20496], [27.64757, 43.2053]], [[27.64755, 43.20558], [27.64616, 43.20557], [27.64598, 43.2054], [27.64753, 43.20539], [27.64755, 43.20558]]], [[[27.63741, 43.2092], [27.63703, 43.20933], [27.63756, 43.20877], [27.637, 43.20902], [27.63676, 43.20839], [27.63695, 43.20796], [27.63633, 43.20856], [27.63636, 43.20817], [27.63681, 43.20766], [27.63559, 43.20824], [27.63444, 43.20732], [27.63495, 43.20836], [27.63372, 43.20724], [27.63302, 43.20754], [27.63229, 43.20728], [27.6308, 43.20805], [27.63158, 43.20858], [27.63381, 43.20828], [27.63448, 43.20908], [27.63553, 43.20977], [27.63666, 43.21017], [27.63701, 43.20982], [27.63744, 43.20987], [27.63801, 43.21036], [27.63832, 43.20985], [27.63888, 43.20962], [27.63907, 43.20912], [27.63851, 43.2088], [27.63762, 43.20913], [27.63769, 43.20891], [27.63741, 43.2092]]], [[[27.65112, 43.2086], [27.65082, 43.20951], [27.65113, 43.20969], [27.65112, 43.2086], [27.65112, 43.2086]]], [[[27.6392, 43.20973], [27.63903, 43.21006], [27.63847, 43.21036], [27.63991, 43.21018], [27.64071, 43.21035], [27.64094, 43.21014], [27.64059, 43.20998], [27.64061, 43.20959], [27.63949, 43.20955], [27.6392, 43.20973]]], [[[27.6434, 43.21147], [27.64419, 43.21079], [27.64417, 43.21078], [27.64394, 43.21095], [27.6434, 43.21147]]], [[[27.63946, 43.2133], [27.63936, 43.2137], [27.63949, 43.21381], [27.63978, 43.21321], [27.63946, 43.2133]]], [[[27.64581, 43.21612], [27.64528, 43.21604], [27.64516, 43.21646], [27.64581, 43.21612]]], [[[27.64126, 43.21681], [27.64105, 43.21672], [27.64098, 43.21678], [27.64124, 43.21684], [27.64126, 43.21681]]], [[[27.6503, 43.21716], [27.64804, 43.21695], [27.64668, 43.21634], [27.64505, 43.21716], [27.6448, 43.21904], [27.64579, 43.22299], [27.64779, 43.22419], [27.64836, 43.22412], [27.6503, 43.22324], [27.65127, 43.22338], [27.65126, 43.22161], [27.64968, 43.22164], [27.6479, 43.22223], [27.64728, 43.21985], [27.64894, 43.22011], [27.65124, 43.22012], [27.65121, 43.21711], [27.6503, 43.21716]]], [[[27.6473, 43.22463], [27.6474, 43.22478], [27.64794, 43.22474], [27.64761, 43.22472], [27.6473, 43.22463]]], [[[27.64354, 43.22702], [27.64646, 43.22619], [27.64442, 43.2262], [27.64371, 43.22593], [27.64337, 43.22551], [27.64342, 43.22491], [27.64264, 43.22488], [27.64116, 43.22563], [27.64122, 43.2262], [27.64157, 43.22617], [27.64204, 43.22582], [27.64277, 43.22579], [27.64323, 43.22583], [27.64371, 43.22641], [27.64029, 43.22639], [27.64026, 43.22653], [27.64435, 43.22653], [27.64242, 43.22745], [27.64194, 43.22788], [27.64354, 43.22702]], [[27.64194, 43.22525], [27.6424, 43.22514], [27.64269, 43.22525], [27.64312, 43.22573], [27.64239, 43.22563], [27.6424, 43.22537], [27.64224, 43.22559], [27.64174, 43.22548], [27.64194, 43.22525]], [[27.64411, 43.22618], [27.64451, 43.22633], [27.64458, 43.22639], [27.64403, 43.2264], [27.64387, 43.22624], [27.64411, 43.22618]]], [[[27.6507, 43.22635], [27.65131, 43.22649], [27.65131, 43.22636], [27.65007, 43.22622], [27.6507, 43.22635]]], [[[27.65083, 43.22706], [27.65103, 43.22713], [27.65131, 43.22721], [27.65122, 43.22717], [27.65083, 43.22706]]], [[[27.64526, 43.22712], [27.64397, 43.2276], [27.64552, 43.22712], [27.6461, 43.22743], [27.64642, 43.22792], [27.64407, 43.22889], [27.64292, 43.22903], [27.64245, 43.22885], [27.64261, 43.22907], [27.64221, 43.2292], [27.6444, 43.22888], [27.64625, 43.22809], [27.64658, 43.22826], [27.64587, 43.22874], [27.64664, 43.22831], [27.64671, 43.22848], [27.6471, 43.22796], [27.648, 43.22738], [27.64957, 43.22852], [27.65051, 43.22868], [27.65135, 43.23013], [27.65133, 43.2288], [27.65112, 43.22852], [27.6509, 43.22839], [27.6505, 43.22859], [27.64981, 43.22852], [27.64877, 43.22759], [27.64937, 43.22731], [27.65049, 43.22768], [27.65132, 43.22759], [27.65132, 43.22747], [27.65037, 43.2271], [27.65054, 43.22733], [27.65036, 43.22753], [27.64963, 43.22727], [27.64796, 43.22726], [27.64672, 43.22807], [27.64608, 43.22724], [27.64569, 43.22705], [27.64634, 43.22687], [27.64526, 43.22712]]], [[[27.64848, 43.22838], [27.64897, 43.22843], [27.64822, 43.22778], [27.64868, 43.2283], [27.64848, 43.22838]]], [[[27.65083, 43.22797], [27.65073, 43.22807], [27.65133, 43.2286], [27.65133, 43.22829], [27.65083, 43.22797]]], [[[27.64306, 43.22978], [27.64289, 43.22984], [27.64407, 43.22959], [27.64346, 43.22968], [27.64306, 43.22978]]], [[[27.64095, 43.2336], [27.64029, 43.234], [27.64028, 43.23431], [27.6406, 43.23444], [27.64095, 43.23431], [27.64095, 43.2336]]], [[[27.65134, 43.24444], [27.6509, 43.24458], [27.65094, 43.24581], [27.65151, 43.24581], [27.65145, 43.2437], [27.65105, 43.24373], [27.65095, 43.24399], [27.65134, 43.24444]]], [[[27.62905, 43.25802], [27.62861, 43.25834], [27.6282, 43.25931], [27.6286, 43.25938], [27.62958, 43.25786], [27.62905, 43.25802]]], [[[27.63099, 43.25999], [27.63118, 43.26026], [27.63137, 43.26018], [27.63192, 43.25901], [27.63165, 43.25906], [27.63099, 43.25999]]], [[[27.63036, 43.26074], [27.63005, 43.26082], [27.63227, 43.26181], [27.63242, 43.26171], [27.63036, 43.26074]]], [[[27.62706, 43.26399], [27.62704, 43.26399], [27.62706, 43.26406], [27.62706, 43.26399]]]]}, "properties": {"kind": "pv", "area_km2": 32.01, "mw": 1600.4}}, {"type": "Feature", "geometry": {"type": "Point", "coordinates": [27.55968, 43.23162]}, "properties": {"kind": "turbine", "i": 0, "mw": 6.0, "hub_m": 120.0, "rotor_m": 150.0}}, {"type": "Feature", "geometry": {"type": "Point", "coordinates": [27.57317, 43.23155]}, "properties": {"kind": "turbine", "i": 1, "mw": 6.0, "hub_m": 120.0, "rotor_m": 150.0}}]}