{"type": "FeatureCollection", "features": [{"type": "Feature", "geometry": {"type": "MultiPolygon", "coordinates": [[[[27.50721, 43.25965], [27.50732, 43.25925], [27.50402, 43.25623], [27.50334, 43.25633], [27.50717, 43.25996], [27.50721, 43.25965]]], [[[27.50018, 43.25268], [27.4998, 43.25234], [27.50009, 43.25269], [27.50018, 43.25268]]], [[[27.49244, 43.23933], [27.49385, 43.2377], [27.4943, 43.23631], [27.49102, 43.23618], [27.49244, 43.23933]]], [[[27.49528, 43.236], [27.49488, 43.23675], [27.49571, 43.23743], [27.49472, 43.23832], [27.49439, 43.23976], [27.49522, 43.2399], [27.4967, 43.23878], [27.49726, 43.23915], [27.49611, 43.24017], [27.49541, 43.23999], [27.49511, 43.24069], [27.49791, 43.24267], [27.50096, 43.24718], [27.50603, 43.25184], [27.52637, 43.24791], [27.52967, 43.24345], [27.53521, 43.23772], [27.53969, 43.23154], [27.54445, 43.22873], [27.55127, 43.22632], [27.5496, 43.226], [27.54476, 43.22369], [27.54161, 43.22614], [27.5386, 43.22789], [27.53618, 43.23106], [27.53207, 43.2313], [27.53115, 43.231], [27.53055, 43.2303], [27.52878, 43.23203], [27.52896, 43.23255], [27.52625, 43.23243], [27.52553, 43.23308], [27.52444, 43.23206], [27.52234, 43.2317], [27.52239, 43.23139], [27.5231, 43.2314], [27.52311, 43.23091], [27.52055, 43.22762], [27.52089, 43.22442], [27.52187, 43.22359], [27.52478, 43.22359], [27.52416, 43.22422], [27.52485, 43.22463], [27.52473, 43.22491], [27.52778, 43.22708], [27.53084, 43.22494], [27.52949, 43.22461], [27.52831, 43.22342], [27.52774, 43.22147], [27.5281, 43.22036], [27.53022, 43.21846], [27.53162, 43.2183], [27.5321, 43.21923], [27.53248, 43.21908], [27.53372, 43.2199], [27.53505, 43.22132], [27.53502, 43.2206], [27.53548, 43.22048], [27.53391, 43.21982], [27.53542, 43.21826], [27.53541, 43.21773], [27.53587, 43.21943], [27.53591, 43.21875], [27.53646, 43.21859], [27.53653, 43.21888], [27.53777, 43.21742], [27.53878, 43.21819], [27.53954, 43.21729], [27.53978, 43.21776], [27.53897, 43.21834], [27.54004, 43.21824], [27.54054, 43.21786], [27.54012, 43.21722], [27.54081, 43.21588], [27.54139, 43.21568], [27.54096, 43.21675], [27.54201, 43.21539], [27.54315, 43.21483], [27.54208, 43.21735], [27.54277, 43.21704], [27.5434, 43.21774], [27.54385, 43.21763], [27.54464, 43.21873], [27.54556, 43.21642], [27.54261, 43.21635], [27.54358, 43.21474], [27.54611, 43.21394], [27.54499, 43.21271], [27.54506, 43.21231], [27.54849, 43.21142], [27.55001, 43.2093], [27.5531, 43.20869], [27.5545, 43.20791], [27.55377, 43.20925], [27.55316, 43.2123], [27.554, 43.2111], [27.55382, 43.20945], [27.55611, 43.20612], [27.55697, 43.20524], [27.55828, 43.20525], [27.55928, 43.20473], [27.55937, 43.20446], [27.55854, 43.20434], [27.55823, 43.20518], [27.55699, 43.20514], [27.5573, 43.20296], [27.55682, 43.20159], [27.55648, 43.20143], [27.55707, 43.20435], [27.55515, 43.20722], [27.55453, 43.20737], [27.55345, 43.20692], [27.55328, 43.20611], [27.55243, 43.20526], [27.5527, 43.20473], [27.55204, 43.2047], [27.55193, 43.20566], [27.55149, 43.20528], [27.55117, 43.2055], [27.55098, 43.20615], [27.55182, 43.20593], [27.55113, 43.20637], [27.55157, 43.20631], [27.55121, 43.20696], [27.55075, 43.20707], [27.55099, 43.20645], [27.54995, 43.20713], [27.54966, 43.2082], [27.55017, 43.20809], [27.55034, 43.20836], [27.54972, 43.20847], [27.5495, 43.20824], [27.54962, 43.20771], [27.54896, 43.20859], [27.54904, 43.20896], [27.54967, 43.20864], [27.54972, 43.20891], [27.54926, 43.21013], [27.54816, 43.21085], [27.54702, 43.21085], [27.5478, 43.20935], [27.54723, 43.20872], [27.54796, 43.20863], [27.54777, 43.20673], [27.54789, 43.20643], [27.54864, 43.20636], [27.54782, 43.20549], [27.54652, 43.20558], [27.54537, 43.20614], [27.54605, 43.20527], [27.5431, 43.20467], [27.54333, 43.20421], [27.54197, 43.20501], [27.5419, 43.20413], [27.54006, 43.203], [27.5413, 43.20272], [27.54193, 43.20165], [27.54153, 43.20102], [27.53949, 43.20094], [27.5394, 43.20069], [27.54014, 43.19709], [27.53798, 43.19682], [27.54037, 43.1969], [27.54118, 43.19295], [27.53822, 43.19252], [27.53654, 43.19143], [27.5279, 43.18809], [27.52534, 43.18654], [27.5237, 43.18372], [27.5221, 43.18421], [27.52048, 43.18389], [27.51902, 43.18631], [27.51765, 43.18713], [27.51614, 43.18718], [27.51398, 43.18644], [27.51244, 43.18875], [27.51147, 43.18931], [27.51155, 43.19089], [27.51129, 43.1914], [27.51067, 43.19139], [27.51069, 43.19224], [27.50926, 43.19226], [27.50925, 43.19338], [27.51077, 43.19348], [27.51124, 43.19271], [27.512, 43.1926], [27.51203, 43.19125], [27.51409, 43.19078], [27.51471, 43.18946], [27.51577, 43.18909], [27.51542, 43.19061], [27.51588, 43.19091], [27.51571, 43.19405], [27.51521, 43.19425], [27.51487, 43.19627], [27.51331, 43.19869], [27.51582, 43.19805], [27.51781, 43.19702], [27.51846, 43.19785], [27.52007, 43.19755], [27.52031, 43.19693], [27.52127, 43.19757], [27.52564, 43.19757], [27.52525, 43.1959], [27.52449, 43.19617], [27.52357, 43.19521], [27.52338, 43.19413], [27.52333, 43.19517], [27.52205, 43.19515], [27.52075, 43.19423], [27.5216, 43.19381], [27.52141, 43.19337], [27.52188, 43.19366], [27.52246, 43.19327], [27.52269, 43.19408], [27.5243, 43.19322], [27.5237, 43.19268], [27.52378, 43.19219], [27.52461, 43.19232], [27.52469, 43.19148], [27.52402, 43.1906], [27.5244, 43.18995], [27.52427, 43.19062], [27.52473, 43.19115], [27.52538, 43.18956], [27.526, 43.18963], [27.52674, 43.19072], [27.52695, 43.19001], [27.5286, 43.19031], [27.52838, 43.19101], [27.53021, 43.19], [27.53151, 43.19039], [27.53183, 43.19145], [27.53124, 43.19295], [27.53136, 43.19485], [27.53255, 43.19547], [27.53238, 43.19604], [27.53303, 43.1967], [27.5336, 43.19596], [27.53325, 43.19561], [27.53519, 43.1959], [27.53541, 43.19567], [27.53506, 43.19556], [27.53612, 43.195], [27.53627, 43.19554], [27.53511, 43.19602], [27.53636, 43.19601], [27.53645, 43.19629], [27.53562, 43.19648], [27.53571, 43.19696], [27.53473, 43.19726], [27.53528, 43.19794], [27.5343, 43.19773], [27.53387, 43.19876], [27.53325, 43.19888], [27.5335, 43.19836], [27.53266, 43.19827], [27.53449, 43.19746], [27.53526, 43.19682], [27.5351, 43.19636], [27.53331, 43.19721], [27.53298, 43.19809], [27.5325, 43.19806], [27.53127, 43.19926], [27.5314, 43.20049], [27.53103, 43.2007], [27.53027, 43.20017], [27.5295, 43.20012], [27.52838, 43.20036], [27.52816, 43.20073], [27.52868, 43.20147], [27.53107, 43.20153], [27.53198, 43.2018], [27.53262, 43.2025], [27.52965, 43.20861], [27.52993, 43.20755], [27.5286, 43.20721], [27.52849, 43.20794], [27.52768, 43.20802], [27.52765, 43.20856], [27.52578, 43.20885], [27.52454, 43.2098], [27.5261, 43.21094], [27.52732, 43.20995], [27.52827, 43.21011], [27.52876, 43.20971], [27.52852, 43.20892], [27.52762, 43.20902], [27.52765, 43.20875], [27.53057, 43.20867], [27.53101, 43.20907], [27.53562, 43.20613], [27.52919, 43.21052], [27.53162, 43.21206], [27.53077, 43.21265], [27.53029, 43.21382], [27.53319, 43.21496], [27.53257, 43.21508], [27.53282, 43.21574], [27.53186, 43.21579], [27.53289, 43.21636], [27.53119, 43.21629], [27.53037, 43.21496], [27.5301, 43.21531], [27.52877, 43.2145], [27.53039, 43.21567], [27.5297, 43.21673], [27.52782, 43.21735], [27.52962, 43.217], [27.52929, 43.2179], [27.5299, 43.2178], [27.53019, 43.21833], [27.52803, 43.22024], [27.52736, 43.22217], [27.52693, 43.22254], [27.5254, 43.22258], [27.52493, 43.22352], [27.52352, 43.22317], [27.52155, 43.22362], [27.52097, 43.22412], [27.52033, 43.22528], [27.52002, 43.22523], [27.5196, 43.22736], [27.51996, 43.22928], [27.52084, 43.23051], [27.52033, 43.23174], [27.51706, 43.23293], [27.51176, 43.23386], [27.51197, 43.23479], [27.50741, 43.2351], [27.50665, 43.23542], [27.50039, 43.23518], [27.49795, 43.23424], [27.49987, 43.23426], [27.49836, 43.23348], [27.49733, 43.23466], [27.49528, 43.236]], [[27.51995, 43.19346], [27.52134, 43.1926], [27.52119, 43.1924], [27.51986, 43.19286], [27.51993, 43.19224], [27.52117, 43.19178], [27.52162, 43.1918], [27.52179, 43.19241], [27.5234, 43.19301], [27.52212, 43.19281], [27.51995, 43.19346]], [[27.51679, 43.19251], [27.51683, 43.19198], [27.51622, 43.19205], [27.51604, 43.19174], [27.51652, 43.19185], [27.51681, 43.19145], [27.51615, 43.19141], [27.5162, 43.19083], [27.51764, 43.19074], [27.51726, 43.19117], [27.51799, 43.19203], [27.51765, 43.19353], [27.51838, 43.19453], [27.51728, 43.19621], [27.51495, 43.19753], [27.51664, 43.19544], [27.51606, 43.19364], [27.5162, 43.19268], [27.51666, 43.1925], [27.51657, 43.19285], [27.51679, 43.19251]], [[27.52281, 43.19585], [27.52294, 43.19658], [27.52247, 43.19676], [27.52134, 43.19609], [27.51699, 43.197], [27.51888, 43.19564], [27.52117, 43.19539], [27.52281, 43.19585]], [[27.52847, 43.23433], [27.5262, 43.23444], [27.52397, 43.23404], [27.52597, 43.23288], [27.52744, 43.2334], [27.52724, 43.23391], [27.52777, 43.23397], [27.53111, 43.23328], [27.53062, 43.23404], [27.53118, 43.23338], [27.5325, 43.233], [27.53301, 43.23395], [27.53187, 43.2339], [27.53196, 43.23363], [27.53078, 43.23435], [27.52984, 43.23407], [27.52847, 43.23433]]], [[[27.49846, 43.23118], [27.49962, 43.23074], [27.5005, 43.22941], [27.49936, 43.22958], [27.49793, 43.23034], [27.49846, 43.23118]]], [[[27.49745, 43.22987], [27.49886, 43.22972], [27.49905, 43.22927], [27.49507, 43.22824], [27.49549, 43.22889], [27.49745, 43.22987]]], [[[27.50767, 43.20531], [27.50762, 43.20545], [27.50773, 43.20554], [27.50794, 43.20535], [27.50767, 43.20531]]], [[[27.50814, 43.20516], [27.50844, 43.20509], [27.50835, 43.20492], [27.50814, 43.20493], [27.50814, 43.20516]]], [[[27.50934, 43.20328], [27.511, 43.20417], [27.51377, 43.20462], [27.51449, 43.20438], [27.51426, 43.20345], [27.51173, 43.20318], [27.51014, 43.20238], [27.50934, 43.20328]]], [[[27.50725, 43.19863], [27.50758, 43.19834], [27.50869, 43.1956], [27.50851, 43.19562], [27.50725, 43.19863]]], [[[27.5996, 43.1771], [27.59937, 43.17875], [27.5942, 43.20421], [27.59713, 43.20373], [27.59706, 43.20124], [27.59844, 43.19616], [27.59753, 43.19225], [27.59821, 43.18981], [27.60286, 43.18429], [27.60508, 43.18308], [27.61166, 43.18084], [27.60633, 43.17799], [27.59978, 43.17518], [27.5996, 43.1771]]], [[[27.61024, 43.18615], [27.61114, 43.1853], [27.60703, 43.18673], [27.60595, 43.18766], [27.60887, 43.18724], [27.61024, 43.18615]]], [[[27.60389, 43.19033], [27.60284, 43.19177], [27.60374, 43.19587], [27.60231, 43.20172], [27.60246, 43.20396], [27.60719, 43.1987], [27.60389, 43.19033]]], [[[27.58133, 43.23258], [27.58026, 43.23049], [27.5802, 43.2292], [27.5677, 43.22853], [27.56345, 43.22853], [27.56027, 43.22905], [27.55781, 43.22982], [27.55767, 43.23035], [27.55501, 43.2314], [27.55365, 43.23258], [27.55318, 43.23403], [27.5535, 43.23483], [27.5542, 43.2354], [27.55577, 43.23422], [27.55865, 43.23448], [27.55947, 43.23556], [27.55999, 43.23948], [27.55895, 43.23987], [27.55535, 43.24014], [27.55507, 43.24092], [27.55548, 43.24181], [27.55324, 43.24203], [27.55226, 43.2431], [27.55056, 43.24349], [27.54933, 43.24322], [27.54842, 43.24256], [27.54665, 43.23917], [27.54151, 43.24439], [27.55079, 43.24859], [27.56069, 43.25129], [27.56136, 43.25136], [27.56214, 43.25035], [27.5638, 43.2507], [27.56484, 43.25053], [27.56594, 43.24897], [27.56841, 43.24935], [27.56896, 43.25038], [27.56803, 43.25339], [27.56768, 43.25387], [27.56687, 43.25382], [27.56584, 43.25456], [27.5641, 43.25432], [27.56347, 43.25484], [27.56258, 43.25451], [27.56124, 43.25509], [27.55963, 43.2551], [27.54836, 43.25202], [27.53779, 43.24725], [27.53455, 43.24913], [27.53005, 43.25105], [27.52656, 43.2563], [27.52806, 43.25791], [27.52837, 43.25962], [27.52714, 43.26238], [27.52522, 43.26379], [27.52563, 43.26426], [27.52874, 43.2655], [27.52957, 43.26692], [27.52903, 43.26897], [27.52681, 43.27192], [27.53629, 43.27539], [27.5433, 43.27719], [27.55052, 43.27847], [27.55787, 43.27923], [27.56529, 43.27946], [27.57157, 43.27921], [27.57046, 43.27768], [27.57252, 43.2771], [27.5748, 43.27731], [27.57549, 43.27884], [27.57827, 43.27853], [27.57839, 43.27637], [27.57967, 43.27479], [27.57899, 43.26824], [27.57826, 43.26743], [27.57898, 43.26248], [27.58043, 43.26094], [27.57881, 43.25863], [27.5795, 43.25632], [27.58305, 43.25361], [27.58498, 43.25312], [27.58682, 43.2532], [27.58939, 43.25203], [27.59307, 43.25306], [27.59483, 43.25414], [27.59638, 43.25389], [27.60214, 43.25433], [27.60268, 43.25239], [27.60526, 43.24866], [27.6045, 43.24537], [27.59765, 43.24293], [27.59794, 43.24411], [27.5958, 43.24249], [27.59613, 43.24238], [27.59376, 43.2425], [27.59535, 43.24325], [27.5967, 43.24708], [27.60025, 43.24784], [27.60031, 43.24813], [27.59851, 43.25095], [27.5974, 43.2517], [27.59619, 43.25132], [27.59257, 43.25157], [27.59167, 43.25101], [27.59241, 43.24899], [27.58934, 43.2482], [27.58928, 43.24708], [27.58855, 43.24635], [27.58879, 43.2449], [27.58782, 43.2447], [27.58729, 43.24285], [27.58663, 43.24242], [27.58578, 43.24254], [27.58555, 43.242], [27.58689, 43.2395], [27.58791, 43.23949], [27.58752, 43.23781], [27.58642, 43.23891], [27.58527, 43.23933], [27.58374, 43.23924], [27.5827, 43.2387], [27.58207, 43.2373], [27.58316, 43.23553], [27.58131, 43.23438], [27.58133, 43.23258]]], [[[27.52682, 43.1767], [27.52778, 43.17774], [27.52754, 43.18033], [27.52949, 43.18413], [27.53542, 43.18681], [27.53936, 43.18815], [27.5408, 43.18907], [27.54128, 43.18879], [27.5409, 43.18768], [27.54128, 43.18669], [27.5433, 43.18567], [27.54767, 43.18558], [27.55491, 43.18793], [27.55544, 43.18656], [27.55611, 43.18618], [27.556, 43.18767], [27.5554, 43.18824], [27.55625, 43.1893], [27.55639, 43.18852], [27.55578, 43.18832], [27.55698, 43.18691], [27.55795, 43.18686], [27.55862, 43.1873], [27.56041, 43.18697], [27.56067, 43.18735], [27.56224, 43.1858], [27.56335, 43.1861], [27.5636, 43.18669], [27.56404, 43.18629], [27.56484, 43.1863], [27.5647, 43.18736], [27.56599, 43.1867], [27.56652, 43.18678], [27.56629, 43.18698], [27.56663, 43.18752], [27.56654, 43.18704], [27.56778, 43.18697], [27.56721, 43.18634], [27.5679, 43.18664], [27.56842, 43.18702], [27.56691, 43.18751], [27.56729, 43.18796], [27.56695, 43.18818], [27.56041, 43.19122], [27.55848, 43.19366], [27.56066, 43.19117], [27.5674, 43.18818], [27.56804, 43.18817], [27.56774, 43.18881], [27.56449, 43.18994], [27.56436, 43.1905], [27.56477, 43.19001], [27.56476, 43.19068], [27.56247, 43.19112], [27.56258, 43.19251], [27.56891, 43.19109], [27.5696, 43.19247], [27.56962, 43.19029], [27.56905, 43.18928], [27.56859, 43.18968], [27.56911, 43.18896], [27.56807, 43.18908], [27.56914, 43.18822], [27.57062, 43.18847], [27.57404, 43.1918], [27.57415, 43.19298], [27.57369, 43.19387], [27.57329, 43.19377], [27.57265, 43.19439], [27.57149, 43.19439], [27.57137, 43.19567], [27.57034, 43.19548], [27.56913, 43.19817], [27.56712, 43.20015], [27.56742, 43.20056], [27.56636, 43.20101], [27.56529, 43.20088], [27.56542, 43.20244], [27.5662, 43.20326], [27.56667, 43.20486], [27.56708, 43.20807], [27.56654, 43.20995], [27.5685, 43.21074], [27.56904, 43.21244], [27.57006, 43.21298], [27.57064, 43.21382], [27.57177, 43.21407], [27.57296, 43.21511], [27.57588, 43.21619], [27.57669, 43.21489], [27.5782, 43.21413], [27.57971, 43.21379], [27.58119, 43.21393], [27.58224, 43.21302], [27.58336, 43.21355], [27.58572, 43.21264], [27.58742, 43.21287], [27.59454, 43.17464], [27.5889, 43.17548], [27.5859, 43.17451], [27.58533, 43.17586], [27.58633, 43.17609], [27.58636, 43.17773], [27.58764, 43.17818], [27.5848, 43.17862], [27.58519, 43.17917], [27.58712, 43.17899], [27.58545, 43.18143], [27.5857, 43.18228], [27.58379, 43.18299], [27.58279, 43.18239], [27.57705, 43.18447], [27.57555, 43.18649], [27.57466, 43.18699], [27.57357, 43.18708], [27.57313, 43.18875], [27.57338, 43.19003], [27.56996, 43.18782], [27.57104, 43.18812], [27.57285, 43.18942], [27.57297, 43.18922], [27.57108, 43.18772], [27.57135, 43.18753], [27.57172, 43.18797], [27.57206, 43.18795], [27.57139, 43.18741], [27.57239, 43.18673], [27.57232, 43.18605], [27.57336, 43.18597], [27.57399, 43.18494], [27.5728, 43.18422], [27.57298, 43.18329], [27.57335, 43.18264], [27.57548, 43.18154], [27.5752, 43.18055], [27.57632, 43.17986], [27.57683, 43.17571], [27.57788, 43.1741], [27.57734, 43.17272], [27.57363, 43.16932], [27.56818, 43.16901], [27.56865, 43.17086], [27.568, 43.17534], [27.56699, 43.17739], [27.56516, 43.17833], [27.56374, 43.17829], [27.56247, 43.1778], [27.56217, 43.17816], [27.56021, 43.17731], [27.56095, 43.17429], [27.56205, 43.17494], [27.56094, 43.1741], [27.5612, 43.17243], [27.56023, 43.16905], [27.54954, 43.17002], [27.54236, 43.17137], [27.54116, 43.17169], [27.54093, 43.17382], [27.53928, 43.17504], [27.53466, 43.17535], [27.53195, 43.17445], [27.52872, 43.17558], [27.52675, 43.17646], [27.52682, 43.1767]], [[27.56011, 43.17923], [27.55968, 43.17917], [27.56163, 43.17846], [27.56057, 43.17782], [27.56009, 43.17858], [27.56022, 43.17756], [27.56189, 43.17846], [27.56117, 43.17903], [27.56011, 43.17923]], [[27.5713, 43.18813], [27.57016, 43.18767], [27.57114, 43.18788], [27.5727, 43.18924], [27.5713, 43.18813]]], [[[27.58247, 43.17601], [27.58235, 43.17617], [27.58262, 43.1758], [27.58247, 43.17601]]], [[[27.562, 43.17064], [27.56157, 43.17208], [27.5616, 43.17246], [27.56221, 43.17226], [27.562, 43.17064]]], [[[27.54969, 43.19416], [27.5498, 43.19308], [27.54709, 43.19267], [27.54822, 43.19354], [27.54969, 43.19416]]], [[[27.54601, 43.19733], [27.54629, 43.19697], [27.54709, 43.19711], [27.54823, 43.19649], [27.54596, 43.19674], [27.54566, 43.19699], [27.54611, 43.19765], [27.54601, 43.19733]]], [[[27.54294, 43.19813], [27.54315, 43.19847], [27.5437, 43.19844], [27.54416, 43.19664], [27.54504, 43.19643], [27.5457, 43.19546], [27.54705, 43.19469], [27.54716, 43.19439], [27.54583, 43.19339], [27.54463, 43.19326], [27.54442, 43.19506], [27.54329, 43.19535], [27.54236, 43.19493], [27.54133, 43.19584], [27.54294, 43.19813]], [[27.54355, 43.19775], [27.54293, 43.19626], [27.54311, 43.19601], [27.54388, 43.19736], [27.54355, 43.19775]]], [[[27.54285, 43.20336], [27.54242, 43.20388], [27.54349, 43.20377], [27.5428, 43.20212], [27.5425, 43.20254], [27.54285, 43.20336]]], [[[27.54579, 43.20087], [27.54581, 43.20053], [27.54493, 43.20082], [27.54578, 43.20133], [27.54579, 43.20087]]], [[[27.5016, 43.21672], [27.50199, 43.21674], [27.50184, 43.2163], [27.50122, 43.21585], [27.50097, 43.21624], [27.5016, 43.21672]]], [[[27.49775, 43.21968], [27.4979, 43.21915], [27.49763, 43.21894], [27.49662, 43.21898], [27.49776, 43.21922], [27.49668, 43.22079], [27.49735, 43.22112], [27.49715, 43.22057], [27.49756, 43.22092], [27.4981, 43.22287], [27.49711, 43.22292], [27.49659, 43.22437], [27.49587, 43.22413], [27.49599, 43.22302], [27.49579, 43.22395], [27.49472, 43.22422], [27.49314, 43.22599], [27.49376, 43.22697], [27.49473, 43.22538], [27.4947, 43.22443], [27.4961, 43.22447], [27.4954, 43.22621], [27.49587, 43.2268], [27.49819, 43.2279], [27.50012, 43.22814], [27.50148, 43.22786], [27.50279, 43.22876], [27.50237, 43.23037], [27.5033, 43.22943], [27.50434, 43.22911], [27.50451, 43.2283], [27.50659, 43.22834], [27.50823, 43.22747], [27.50758, 43.22731], [27.50725, 43.22613], [27.50593, 43.22609], [27.50498, 43.22555], [27.50424, 43.22573], [27.50355, 43.22517], [27.50183, 43.22481], [27.50095, 43.22519], [27.50119, 43.22465], [27.50041, 43.22463], [27.5002, 43.22541], [27.49996, 43.22528], [27.49851, 43.22388], [27.49965, 43.22321], [27.4993, 43.22251], [27.49984, 43.22233], [27.49872, 43.22237], [27.49878, 43.22153], [27.49944, 43.22131], [27.5017, 43.22331], [27.50174, 43.22295], [27.49893, 43.22039], [27.49833, 43.22054], [27.49757, 43.22021], [27.49775, 43.21968]], [[27.49876, 43.22447], [27.50023, 43.22588], [27.49959, 43.22559], [27.49867, 43.22595], [27.49781, 43.22545], [27.498, 43.22516], [27.49706, 43.22582], [27.50038, 43.2265], [27.4963, 43.22647], [27.49628, 43.22571], [27.49829, 43.22391], [27.49876, 43.22447]]], [[[27.51951, 43.20666], [27.51889, 43.20708], [27.51887, 43.20803], [27.52006, 43.20836], [27.52074, 43.21046], [27.52144, 43.21044], [27.52313, 43.20954], [27.52296, 43.20905], [27.52151, 43.20957], [27.52083, 43.20897], [27.52116, 43.20731], [27.51957, 43.20714], [27.51951, 43.20666]]], [[[27.51105, 43.22119], [27.51148, 43.22101], [27.51146, 43.22045], [27.51108, 43.22027], [27.51106, 43.22094], [27.51044, 43.21973], [27.50965, 43.22022], [27.50971, 43.22045], [27.51043, 43.22032], [27.51075, 43.22092], [27.51007, 43.22141], [27.50988, 43.2222], [27.51127, 43.22281], [27.51215, 43.22404], [27.51163, 43.22266], [27.51025, 43.22205], [27.51074, 43.22124], [27.51098, 43.22208], [27.51146, 43.22227], [27.51105, 43.22119]]], [[[27.51371, 43.2226], [27.51322, 43.22324], [27.51489, 43.22239], [27.51385, 43.22131], [27.51344, 43.22142], [27.51392, 43.22195], [27.51371, 43.2226]]], [[[27.52492, 43.22076], [27.52577, 43.22052], [27.52478, 43.22002], [27.52392, 43.2205], [27.52481, 43.221], [27.52492, 43.22076]]], [[[27.52041, 43.21871], [27.51932, 43.21927], [27.51985, 43.21995], [27.52089, 43.21865], [27.52041, 43.21871]]], [[[27.50673, 43.20916], [27.5067, 43.20961], [27.5075, 43.20665], [27.50652, 43.20828], [27.50673, 43.20916]]], [[[27.50824, 43.20729], [27.50771, 43.20796], [27.50794, 43.20836], [27.5086, 43.20789], [27.50824, 43.20729]]], [[[27.52881, 43.19642], [27.52843, 43.19638], [27.52877, 43.197], [27.52824, 43.19779], [27.5279, 43.19743], [27.5283, 43.19656], [27.52741, 43.19669], [27.5273, 43.19622], [27.52592, 43.19617], [27.52685, 43.19838], [27.52862, 43.19827], [27.52764, 43.19908], [27.52874, 43.19882], [27.52898, 43.19832], [27.52881, 43.19642]]], [[[27.52963, 43.19725], [27.52935, 43.198], [27.52967, 43.19838], [27.53031, 43.19634], [27.52956, 43.19601], [27.52917, 43.19656], [27.52963, 43.19725]]], [[[27.52505, 43.19198], [27.52481, 43.19234], [27.52576, 43.19316], [27.52589, 43.19386], [27.52659, 43.19421], [27.52687, 43.19342], [27.52553, 43.19257], [27.525, 43.19139], [27.52505, 43.19198]]], [[[27.5107, 43.22806], [27.50878, 43.22783], [27.50827, 43.22882], [27.50836, 43.22996], [27.51052, 43.23029], [27.51145, 43.22889], [27.5115, 43.22764], [27.5107, 43.22806]]], [[[27.61693, 43.26404], [27.61745, 43.26238], [27.61724, 43.26162], [27.6149, 43.26251], [27.60945, 43.26188], [27.60786, 43.26294], [27.60756, 43.26382], [27.60827, 43.26501], [27.60706, 43.26491], [27.60602, 43.26692], [27.60604, 43.27046], [27.61317, 43.26667], [27.61693, 43.26404]]], [[[27.63471, 43.24507], [27.63561, 43.24287], [27.63119, 43.24366], [27.62718, 43.24309], [27.62442, 43.24188], [27.61762, 43.23782], [27.61796, 43.23851], [27.61765, 43.23947], [27.61668, 43.24102], [27.61594, 43.24128], [27.61395, 43.24112], [27.61395, 43.24051], [27.61163, 43.23868], [27.61088, 43.23929], [27.61369, 43.24183], [27.61489, 43.24371], [27.61504, 43.24725], [27.6145, 43.24925], [27.6134, 43.25089], [27.60826, 43.25443], [27.60786, 43.25676], [27.6096, 43.25798], [27.61235, 43.25833], [27.61488, 43.25716], [27.61543, 43.25567], [27.61703, 43.25439], [27.61611, 43.25265], [27.6163, 43.25206], [27.61652, 43.2527], [27.61759, 43.25323], [27.61788, 43.25406], [27.61973, 43.25379], [27.62199, 43.25421], [27.62521, 43.25667], [27.62651, 43.25289], [27.62617, 43.25261], [27.62619, 43.24921], [27.62695, 43.24837], [27.62805, 43.2481], [27.62895, 43.24583], [27.62984, 43.24507], [27.63271, 43.24418], [27.63399, 43.24486], [27.634, 43.24631], [27.63471, 43.24507]]], [[[27.62987, 43.25193], [27.62889, 43.25143], [27.62959, 43.251], [27.62952, 43.25047], [27.62836, 43.25046], [27.6279, 43.25095], [27.62803, 43.2518], [27.62887, 43.25343], [27.62913, 43.25254], [27.62987, 43.25193]]], [[[27.60987, 43.2454], [27.60993, 43.2457], [27.60994, 43.24523], [27.60966, 43.24444], [27.60987, 43.2454]]], [[[27.63423, 43.23877], [27.63552, 43.23722], [27.63612, 43.23493], [27.63323, 43.23454], [27.62256, 43.2303], [27.61494, 43.22925], [27.61575, 43.23052], [27.61586, 43.23167], [27.62811, 43.23894], [27.62992, 43.23957], [27.63154, 43.23967], [27.63423, 43.23877]]], [[[27.62841, 43.21106], [27.62807, 43.21161], [27.62887, 43.21137], [27.63008, 43.21164], [27.63206, 43.21253], [27.63228, 43.2142], [27.63043, 43.21452], [27.63048, 43.21628], [27.62986, 43.21697], [27.62871, 43.21711], [27.62802, 43.21683], [27.62818, 43.21649], [27.62759, 43.21665], [27.62701, 43.2176], [27.62625, 43.217], [27.62557, 43.21743], [27.62638, 43.21777], [27.62676, 43.21759], [27.62735, 43.21875], [27.62829, 43.21807], [27.62983, 43.21787], [27.63067, 43.21824], [27.63309, 43.21703], [27.63417, 43.21721], [27.63465, 43.21807], [27.63332, 43.21952], [27.63364, 43.21968], [27.63602, 43.21828], [27.63745, 43.21863], [27.63827, 43.22044], [27.63918, 43.2212], [27.63844, 43.22281], [27.63956, 43.22152], [27.63949, 43.22042], [27.6386, 43.22035], [27.63786, 43.21843], [27.63664, 43.2174], [27.63818, 43.21777], [27.6392, 43.2188], [27.63938, 43.21884], [27.63998, 43.21857], [27.63939, 43.21876], [27.63839, 43.21781], [27.63948, 43.21791], [27.63657, 43.21722], [27.63682, 43.21563], [27.6361, 43.21517], [27.6355, 43.21524], [27.63625, 43.21332], [27.63513, 43.21297], [27.63443, 43.21183], [27.63459, 43.21035], [27.63518, 43.21013], [27.63469, 43.20967], [27.63544, 43.20972], [27.63381, 43.20828], [27.63158, 43.20858], [27.63073, 43.21003], [27.63078, 43.21071], [27.62899, 43.21012], [27.62841, 43.21106]], [[27.62901, 43.21027], [27.63091, 43.21082], [27.63097, 43.20992], [27.63206, 43.20867], [27.63267, 43.2087], [27.63423, 43.21009], [27.63346, 43.21057], [27.6325, 43.21064], [27.63186, 43.20993], [27.63218, 43.20987], [27.63191, 43.20978], [27.63147, 43.21003], [27.63169, 43.21073], [27.63304, 43.2107], [27.63301, 43.21135], [27.63032, 43.21139], [27.62901, 43.21027]]], [[[27.63971, 43.21816], [27.63989, 43.21839], [27.63996, 43.21838], [27.63989, 43.21805], [27.63971, 43.21816]]], [[[27.6355, 43.20994], [27.6364, 43.2102], [27.63666, 43.21017], [27.63551, 43.20976], [27.6355, 43.20994]]], [[[27.63768, 43.21055], [27.63735, 43.21111], [27.63751, 43.21142], [27.63624, 43.21284], [27.63676, 43.21254], [27.63655, 43.21303], [27.63783, 43.21222], [27.6371, 43.21202], [27.63764, 43.21139], [27.63812, 43.21125], [27.63772, 43.21166], [27.63835, 43.21168], [27.63802, 43.21074], [27.63749, 43.21108], [27.63788, 43.21035], [27.63768, 43.21055]]], [[[27.63664, 43.2288], [27.63511, 43.22859], [27.63606, 43.22823], [27.63703, 43.22723], [27.63591, 43.22816], [27.63495, 43.22837], [27.63254, 43.22532], [27.63527, 43.22647], [27.63723, 43.2264], [27.63526, 43.22637], [27.63251, 43.2252], [27.63031, 43.22266], [27.62905, 43.22322], [27.62923, 43.22284], [27.62771, 43.22084], [27.62803, 43.22013], [27.62469, 43.21721], [27.62392, 43.21715], [27.61776, 43.22569], [27.62446, 43.22669], [27.63559, 43.23108], [27.63612, 43.23086], [27.63664, 43.2288]], [[27.62473, 43.22431], [27.62321, 43.22397], [27.62506, 43.22422], [27.62879, 43.22341], [27.62578, 43.22435], [27.62473, 43.22431]]], [[[27.62605, 43.2142], [27.62408, 43.21693], [27.627, 43.21532], [27.62605, 43.2142]]], [[[27.51008, 43.25523], [27.50975, 43.25528], [27.51066, 43.25611], [27.51339, 43.25556], [27.51656, 43.25633], [27.51975, 43.25473], [27.52201, 43.2543], [27.52292, 43.25291], [27.51008, 43.25523]]], [[[27.54196, 43.23652], [27.54048, 43.23867], [27.54667, 43.23228], [27.54382, 43.23395], [27.54196, 43.23652]]], [[[27.58196, 43.17078], [27.58195, 43.17077], [27.58197, 43.17079], [27.58196, 43.17078]]], [[[27.60601, 43.23182], [27.6059, 43.23178], [27.60602, 43.2319], [27.60601, 43.23182]]], [[[27.60454, 43.24003], [27.60315, 43.23776], [27.60145, 43.23388], [27.60085, 43.23565], [27.60136, 43.23761], [27.60051, 43.23966], [27.60435, 43.24108], [27.60454, 43.24003]]], [[[27.60023, 43.26717], [27.60026, 43.26691], [27.59765, 43.26819], [27.59477, 43.26813], [27.59289, 43.26921], [27.59153, 43.27239], [27.59423, 43.27328], [27.59687, 43.27359], [27.59711, 43.27409], [27.59996, 43.27308], [27.60051, 43.27105], [27.60023, 43.26717]]], [[[27.60125, 43.25815], [27.59864, 43.25793], [27.59825, 43.2598], [27.60083, 43.26075], [27.60068, 43.25952], [27.60125, 43.25815]]], [[[27.61434, 43.22216], [27.62143, 43.21232], [27.61975, 43.21277], [27.61858, 43.21398], [27.61695, 43.21473], [27.61299, 43.21948], [27.61136, 43.22022], [27.60963, 43.22043], [27.61284, 43.22108], [27.61434, 43.22216]]], [[[27.61325, 43.22366], [27.61413, 43.22244], [27.61292, 43.22137], [27.60993, 43.22111], [27.60891, 43.22039], [27.60653, 43.2254], [27.61193, 43.22531], [27.61325, 43.22366]]], [[[27.57732, 43.18208], [27.57512, 43.18283], [27.57409, 43.18459], [27.57501, 43.18429], [27.57532, 43.183], [27.57574, 43.18276], [27.57628, 43.18297], [27.57732, 43.18208]]], [[[27.56628, 43.1963], [27.56676, 43.19591], [27.56791, 43.19357], [27.56736, 43.19442], [27.56688, 43.19434], [27.5662, 43.19484], [27.56525, 43.19642], [27.56557, 43.1966], [27.56628, 43.1963]]], [[[27.56504, 43.19493], [27.56417, 43.19585], [27.56448, 43.19666], [27.56441, 43.19608], [27.56572, 43.19465], [27.56504, 43.19493]]], [[[27.56787, 43.19297], [27.5673, 43.19328], [27.56641, 43.19403], [27.56807, 43.19301], [27.56787, 43.19297]]], [[[27.56086, 43.19454], [27.56065, 43.19531], [27.56089, 43.19564], [27.56128, 43.1943], [27.56086, 43.19454]]], [[[27.57065, 43.19179], [27.57119, 43.1917], [27.57134, 43.19199], [27.57166, 43.19082], [27.57068, 43.1912], [27.57065, 43.19179]]], [[[27.63275, 43.21825], [27.63265, 43.21847], [27.63337, 43.21857], [27.63348, 43.21807], [27.63275, 43.21825]]], [[[27.63405, 43.22027], [27.63444, 43.22076], [27.63602, 43.22113], [27.63637, 43.22205], [27.63715, 43.22208], [27.63747, 43.22174], [27.63766, 43.22144], [27.63615, 43.22046], [27.6374, 43.21954], [27.63605, 43.21906], [27.63405, 43.22027]]], [[[27.63206, 43.24674], [27.6327, 43.24619], [27.6326, 43.24671], [27.63306, 43.24595], [27.63285, 43.24501], [27.63235, 43.24491], [27.63094, 43.24586], [27.63178, 43.24735], [27.63206, 43.24674]]], [[[27.62977, 43.24944], [27.63046, 43.24837], [27.63077, 43.24894], [27.6317, 43.24854], [27.63067, 43.24816], [27.63097, 43.2476], [27.63144, 43.24761], [27.63055, 43.24654], [27.62942, 43.24774], [27.63005, 43.24853], [27.62977, 43.24944]]], [[[27.63638, 43.21488], [27.638, 43.21432], [27.6379, 43.21399], [27.63594, 43.21468], [27.63565, 43.21518], [27.63638, 43.21488]]]]}, "properties": {"kind": "windland", "area_km2": 49.74}}, {"type": "Feature", "geometry": {"type": "MultiPolygon", "coordinates": [[[[27.54014, 43.17463], [27.54034, 43.1745], [27.54051, 43.17435], [27.54002, 43.17435], [27.54014, 43.17463]]], [[[27.53522, 43.18672], [27.53304, 43.18549], [27.53143, 43.18518], [27.53095, 43.18494], [27.52949, 43.18413], [27.5291, 43.18341], [27.5278, 43.18341], [27.52781, 43.18528], [27.53043, 43.18669], [27.53198, 43.18696], [27.53435, 43.18828], [27.53786, 43.18944], [27.53901, 43.1901], [27.53992, 43.18943], [27.54096, 43.18907], [27.53936, 43.18815], [27.53522, 43.18672]]], [[[27.54665, 43.18549], [27.5433, 43.18567], [27.54181, 43.18621], [27.54115, 43.18688], [27.54092, 43.18747], [27.54122, 43.18889], [27.54175, 43.18783], [27.54171, 43.18722], [27.54231, 43.18792], [27.54287, 43.18782], [27.54278, 43.18823], [27.54211, 43.18876], [27.54219, 43.18914], [27.54328, 43.18958], [27.5439, 43.18882], [27.54478, 43.1884], [27.54598, 43.18825], [27.54894, 43.18849], [27.54679, 43.18787], [27.54376, 43.18802], [27.54341, 43.18779], [27.54372, 43.18748], [27.54699, 43.18735], [27.55285, 43.18908], [27.55368, 43.18957], [27.55378, 43.18988], [27.5534, 43.19004], [27.55218, 43.18946], [27.5548, 43.19251], [27.55493, 43.19176], [27.55616, 43.18974], [27.5562, 43.18918], [27.55568, 43.18845], [27.5554, 43.18824], [27.55509, 43.18857], [27.55476, 43.18862], [27.55455, 43.18853], [27.55491, 43.18793], [27.55408, 43.18748], [27.54792, 43.18564], [27.54665, 43.18549]]], [[[27.53924, 43.19103], [27.53786, 43.19006], [27.53398, 43.18875], [27.53166, 43.18745], [27.53009, 43.18717], [27.52782, 43.18596], [27.5279, 43.18809], [27.52922, 43.18871], [27.53076, 43.18901], [27.53309, 43.19028], [27.53654, 43.19143], [27.53822, 43.19252], [27.53962, 43.19288], [27.54118, 43.19295], [27.54143, 43.19185], [27.54082, 43.19159], [27.5409, 43.19127], [27.53924, 43.19103]]], [[[27.55426, 43.21263], [27.55474, 43.21256], [27.55376, 43.21236], [27.55367, 43.21191], [27.55316, 43.2123], [27.55352, 43.21331], [27.55358, 43.21262], [27.55426, 43.21263]]], [[[27.54905, 43.21898], [27.54759, 43.21835], [27.54685, 43.21733], [27.54556, 43.21642], [27.54483, 43.21748], [27.54464, 43.21873], [27.54539, 43.21899], [27.54604, 43.2197], [27.54616, 43.22007], [27.54582, 43.22081], [27.54599, 43.22134], [27.54725, 43.22132], [27.54684, 43.22158], [27.54706, 43.22161], [27.54642, 43.22249], [27.54646, 43.22253], [27.54529, 43.22279], [27.54476, 43.22369], [27.54563, 43.22428], [27.5496, 43.226], [27.55127, 43.22632], [27.54445, 43.22873], [27.54261, 43.22961], [27.53969, 43.23154], [27.53846, 43.23292], [27.53521, 43.23772], [27.52967, 43.24345], [27.52637, 43.24791], [27.52195, 43.24898], [27.51605, 43.25004], [27.51607, 43.25175], [27.52456, 43.25015], [27.52798, 43.24921], [27.53155, 43.24438], [27.53717, 43.23857], [27.54044, 43.23373], [27.54155, 43.2325], [27.54404, 43.2309], [27.5457, 43.23012], [27.5517, 43.22797], [27.55566, 43.22694], [27.55516, 43.22602], [27.55466, 43.22561], [27.5524, 43.22458], [27.55159, 43.22429], [27.55134, 43.2246], [27.551, 43.22465], [27.5473, 43.22307], [27.54703, 43.22328], [27.54635, 43.22331], [27.54593, 43.22308], [27.54586, 43.22269], [27.54648, 43.22253], [27.54725, 43.22136], [27.54771, 43.22131], [27.54797, 43.22091], [27.54842, 43.22116], [27.54918, 43.22044], [27.5493, 43.21944], [27.54905, 43.21898]]], [[[27.55018, 43.22962], [27.55106, 43.23082], [27.55238, 43.22982], [27.55491, 43.22838], [27.55704, 43.22751], [27.55924, 43.22686], [27.55693, 43.22718], [27.55199, 43.22847], [27.54983, 43.22919], [27.55018, 43.22962]]], [[[27.55188, 43.23113], [27.55292, 43.23068], [27.55292, 43.23049], [27.55383, 43.22997], [27.55577, 43.22927], [27.55706, 43.2291], [27.55761, 43.22938], [27.55781, 43.22982], [27.56178, 43.22874], [27.56105, 43.22874], [27.56085, 43.22782], [27.56362, 43.22802], [27.56368, 43.22828], [27.56318, 43.22856], [27.5677, 43.22853], [27.5802, 43.2292], [27.58039, 43.23083], [27.58137, 43.23211], [27.58105, 43.23337], [27.5812, 43.23419], [27.58197, 43.23504], [27.58316, 43.23553], [27.58235, 43.23657], [27.58207, 43.2373], [27.58228, 43.23822], [27.58287, 43.23884], [27.58399, 43.23931], [27.58552, 43.23928], [27.58661, 43.23878], [27.58752, 43.23781], [27.58791, 43.23949], [27.58921, 43.23964], [27.59123, 43.24039], [27.59161, 43.24091], [27.59384, 43.24107], [27.59326, 43.24218], [27.59376, 43.2425], [27.59582, 43.24243], [27.5972, 43.24209], [27.59765, 43.24293], [27.6045, 43.24537], [27.60526, 43.24866], [27.60268, 43.25239], [27.60214, 43.25433], [27.59638, 43.25389], [27.59483, 43.25414], [27.59307, 43.25306], [27.59124, 43.25244], [27.59025, 43.25237], [27.59283, 43.25374], [27.59098, 43.25567], [27.59147, 43.25581], [27.59175, 43.25614], [27.59162, 43.25659], [27.59203, 43.25734], [27.59178, 43.25835], [27.5946, 43.25706], [27.59549, 43.25585], [27.59589, 43.25561], [27.60234, 43.25602], [27.60233, 43.25508], [27.60433, 43.25507], [27.60473, 43.2531], [27.60753, 43.24896], [27.60657, 43.244], [27.6048, 43.24371], [27.59741, 43.24098], [27.59538, 43.24047], [27.59339, 43.23909], [27.59147, 43.2386], [27.59102, 43.23831], [27.59066, 43.23765], [27.59088, 43.23672], [27.58808, 43.23396], [27.585, 43.23761], [27.58445, 43.23764], [27.58436, 43.23735], [27.58544, 43.23586], [27.58761, 43.2335], [27.58704, 43.23295], [27.58629, 43.23311], [27.58569, 43.23293], [27.58542, 43.23267], [27.58544, 43.2323], [27.5842, 43.23368], [27.5839, 43.23377], [27.58361, 43.23363], [27.58392, 43.23288], [27.58621, 43.23047], [27.58537, 43.23059], [27.5843, 43.23002], [27.58339, 43.22998], [27.58319, 43.23025], [27.58247, 43.22997], [27.58338, 43.22865], [27.5839, 43.22881], [27.58401, 43.22857], [27.58314, 43.22823], [27.58331, 43.22765], [27.56713, 43.22683], [27.56269, 43.22693], [27.55955, 43.22747], [27.55703, 43.22824], [27.55453, 43.22937], [27.55188, 43.23113]]], [[[27.55049, 43.2313], [27.54916, 43.22943], [27.54606, 43.23059], [27.54293, 43.23225], [27.54153, 43.23342], [27.53779, 43.23887], [27.53387, 43.24288], [27.53724, 43.24441], [27.53993, 43.24211], [27.55049, 43.2313]], [[27.54382, 43.23395], [27.54667, 43.23228], [27.54048, 43.23867], [27.54311, 43.23475], [27.54382, 43.23395]]], [[[27.54996, 43.23453], [27.54962, 43.23432], [27.54961, 43.23381], [27.54817, 43.23569], [27.55034, 43.2401], [27.55117, 43.23971], [27.5514, 43.23925], [27.55141, 43.23833], [27.55094, 43.23686], [27.54956, 43.2357], [27.54996, 43.23453]]], [[[27.54745, 43.23547], [27.54064, 43.2425], [27.53802, 43.24476], [27.54974, 43.25007], [27.56045, 43.25295], [27.56076, 43.25213], [27.56136, 43.25136], [27.55478, 43.24976], [27.55079, 43.24859], [27.54151, 43.24439], [27.54665, 43.23917], [27.54829, 43.24239], [27.54911, 43.24311], [27.5503, 43.24347], [27.55133, 43.24343], [27.55226, 43.2431], [27.55307, 43.24237], [27.55318, 43.24201], [27.55119, 43.24237], [27.55004, 43.24183], [27.54971, 43.24145], [27.54979, 43.24056], [27.54769, 43.23642], [27.54745, 43.23547]]], [[[27.53088, 43.24643], [27.52913, 43.2488], [27.5328, 43.24719], [27.53671, 43.24481], [27.53344, 43.24332], [27.53088, 43.24643]]], [[[27.53561, 43.24644], [27.53166, 43.24853], [27.5284, 43.24978], [27.52429, 43.2559], [27.52244, 43.25734], [27.52434, 43.25912], [27.52417, 43.25957], [27.52326, 43.2601], [27.52365, 43.26054], [27.52359, 43.26095], [27.51887, 43.26331], [27.51827, 43.26338], [27.51856, 43.26422], [27.51913, 43.2642], [27.51933, 43.26449], [27.52438, 43.26447], [27.524, 43.264], [27.52502, 43.26356], [27.52522, 43.26379], [27.52661, 43.26294], [27.5275, 43.26176], [27.52841, 43.25927], [27.52806, 43.25791], [27.52656, 43.2563], [27.53005, 43.25105], [27.53455, 43.24913], [27.53779, 43.24725], [27.54818, 43.25195], [27.55086, 43.2528], [27.55963, 43.2551], [27.56124, 43.25509], [27.56258, 43.25451], [27.56135, 43.25398], [27.56084, 43.25343], [27.56015, 43.25348], [27.5494, 43.25055], [27.5375, 43.24516], [27.53561, 43.24644]]], [[[27.52635, 43.25038], [27.52275, 43.25123], [27.51607, 43.25244], [27.51609, 43.25415], [27.52292, 43.25291], [27.52201, 43.2543], [27.52018, 43.25458], [27.5178, 43.2556], [27.51656, 43.25633], [27.5161, 43.25623], [27.51614, 43.2605], [27.52243, 43.25665], [27.52366, 43.25561], [27.52733, 43.25011], [27.52635, 43.25038]]], [[[27.52574, 43.26427], [27.52582, 43.26447], [27.52663, 43.26446], [27.52618, 43.26434], [27.52574, 43.26427]]], [[[27.56663, 43.17772], [27.56713, 43.17721], [27.56793, 43.17556], [27.56822, 43.17422], [27.56571, 43.17423], [27.56489, 43.17636], [27.56459, 43.17654], [27.56406, 43.17638], [27.56405, 43.17605], [27.56373, 43.17623], [27.56205, 43.17494], [27.56191, 43.17509], [27.56353, 43.17642], [27.56309, 43.17669], [27.56254, 43.17785], [27.56347, 43.17822], [27.56459, 43.17837], [27.5657, 43.1782], [27.56663, 43.17772]]], [[[27.57659, 43.17701], [27.5763, 43.17842], [27.57632, 43.17986], [27.57698, 43.17894], [27.57694, 43.17543], [27.57659, 43.17701]]], [[[27.5561, 43.19447], [27.55641, 43.19428], [27.55648, 43.19398], [27.55607, 43.1942], [27.55572, 43.19415], [27.55548, 43.19387], [27.55578, 43.19438], [27.5561, 43.19447]]], [[[27.55748, 43.19515], [27.55793, 43.19493], [27.55869, 43.19374], [27.55848, 43.19366], [27.55814, 43.19412], [27.55724, 43.19456], [27.55794, 43.19441], [27.55748, 43.19515]]], [[[27.556, 43.19545], [27.55601, 43.1954], [27.55598, 43.1954], [27.556, 43.19545]]], [[[27.55871, 43.20032], [27.5567, 43.20043], [27.55637, 43.20077], [27.55648, 43.20143], [27.55682, 43.20159], [27.55679, 43.20059], [27.55839, 43.20054], [27.55871, 43.20032]]], [[[27.56468, 43.2013], [27.56419, 43.2027], [27.56478, 43.2036], [27.56443, 43.20521], [27.56445, 43.20706], [27.56476, 43.20835], [27.56406, 43.2101], [27.56238, 43.211], [27.56322, 43.21238], [27.56411, 43.21295], [27.56583, 43.21163], [27.5666, 43.21167], [27.56676, 43.21207], [27.56747, 43.2126], [27.5674, 43.21286], [27.56874, 43.2137], [27.56846, 43.21401], [27.56989, 43.21484], [27.57035, 43.2155], [27.5708, 43.21563], [27.56867, 43.2188], [27.56768, 43.21942], [27.56894, 43.2193], [27.57067, 43.2194], [27.57125, 43.21959], [27.57108, 43.21841], [27.57138, 43.21811], [27.57196, 43.21799], [27.57255, 43.21819], [27.57279, 43.21874], [27.57352, 43.21867], [27.57398, 43.21883], [27.57425, 43.21955], [27.57613, 43.21949], [27.58129, 43.21857], [27.58521, 43.21914], [27.58644, 43.21978], [27.5874, 43.21889], [27.58875, 43.21906], [27.58886, 43.21938], [27.58897, 43.21855], [27.58805, 43.2186], [27.58766, 43.21803], [27.58819, 43.21756], [27.58908, 43.21773], [27.59031, 43.20819], [27.59545, 43.18308], [27.59315, 43.18309], [27.58805, 43.20805], [27.58742, 43.21287], [27.58798, 43.21311], [27.5881, 43.21411], [27.58731, 43.21498], [27.58784, 43.21556], [27.58778, 43.21591], [27.58859, 43.21659], [27.58791, 43.21726], [27.58669, 43.21704], [27.58499, 43.21756], [27.58223, 43.21782], [27.57855, 43.21685], [27.57837, 43.21637], [27.57874, 43.21571], [27.58119, 43.21393], [27.58088, 43.21386], [27.57942, 43.21382], [27.57771, 43.2143], [27.57649, 43.21507], [27.57588, 43.21619], [27.57421, 43.21543], [27.57296, 43.21511], [27.57255, 43.21456], [27.57177, 43.21407], [27.57064, 43.21382], [27.57006, 43.21298], [27.56904, 43.21244], [27.56898, 43.21146], [27.5685, 43.21074], [27.56755, 43.21016], [27.56654, 43.20995], [27.56708, 43.20807], [27.56671, 43.20676], [27.56652, 43.20409], [27.5662, 43.20326], [27.56542, 43.20244], [27.56529, 43.20088], [27.5649, 43.20074], [27.56468, 43.2013]]], [[[27.56404, 43.20786], [27.56372, 43.20716], [27.56374, 43.2061], [27.56236, 43.20864], [27.56116, 43.21004], [27.56042, 43.2106], [27.56007, 43.2107], [27.55957, 43.21056], [27.55829, 43.21098], [27.55843, 43.21112], [27.55917, 43.21103], [27.55895, 43.21144], [27.55836, 43.21154], [27.55849, 43.21179], [27.5589, 43.21178], [27.55931, 43.21125], [27.56155, 43.21204], [27.56231, 43.21206], [27.5617, 43.21123], [27.56169, 43.21075], [27.56218, 43.21032], [27.56343, 43.20981], [27.56404, 43.20786]]], [[[27.55686, 43.21187], [27.55695, 43.21178], [27.5585, 43.21226], [27.558, 43.21293], [27.5589, 43.21178], [27.55857, 43.21217], [27.55698, 43.21172], [27.55714, 43.2113], [27.55642, 43.21173], [27.55686, 43.21187]]], [[[27.57736, 43.21982], [27.57621, 43.22003], [27.57452, 43.22273], [27.57558, 43.2231], [27.57468, 43.22425], [27.57508, 43.22474], [27.57681, 43.22472], [27.57777, 43.22492], [27.57844, 43.22473], [27.57845, 43.22408], [27.57908, 43.22376], [27.58028, 43.22406], [27.58066, 43.22437], [27.58145, 43.22366], [27.58225, 43.2236], [27.58442, 43.22085], [27.58502, 43.22075], [27.58544, 43.22004], [27.58594, 43.22018], [27.58494, 43.21965], [27.58168, 43.21912], [27.57736, 43.21982]]], [[[27.57385, 43.22416], [27.5739, 43.22415], [27.57384, 43.22413], [27.57385, 43.22416]]], [[[27.58326, 43.22442], [27.5833, 43.22436], [27.58336, 43.22427], [27.58319, 43.22435], [27.58317, 43.22454], [27.58326, 43.22442]]], [[[27.58304, 43.22495], [27.58302, 43.22503], [27.58306, 43.22501], [27.58304, 43.22495]]], [[[27.56178, 43.22606], [27.56384, 43.22584], [27.5618, 43.22453], [27.56131, 43.22462], [27.55955, 43.22563], [27.55907, 43.22633], [27.56178, 43.22606]]], [[[27.56707, 43.22551], [27.56707, 43.22547], [27.567, 43.22552], [27.56706, 43.22551], [27.56707, 43.22551]]], [[[27.57949, 43.22552], [27.57928, 43.22529], [27.57867, 43.22528], [27.57949, 43.22567], [27.57949, 43.22552]]], [[[27.56528, 43.22569], [27.5661, 43.22561], [27.56607, 43.22559], [27.56528, 43.22569]]], [[[27.57461, 43.22534], [27.57327, 43.22543], [27.57466, 43.22656], [27.58072, 43.22686], [27.57743, 43.2254], [27.57623, 43.22523], [27.57461, 43.22534]]], [[[27.57324, 43.22576], [27.5728, 43.22547], [27.56617, 43.22615], [27.57422, 43.22654], [27.57324, 43.22576]]], [[[27.57894, 43.25726], [27.57878, 43.25829], [27.57903, 43.2593], [27.57954, 43.26013], [27.58043, 43.26094], [27.58165, 43.25962], [27.58034, 43.25814], [27.58101, 43.25659], [27.58229, 43.25495], [27.58289, 43.25477], [27.58334, 43.25428], [27.58617, 43.25379], [27.58652, 43.25344], [27.58711, 43.25337], [27.58802, 43.25277], [27.58682, 43.2532], [27.58452, 43.25318], [27.58265, 43.2538], [27.58164, 43.25451], [27.5811, 43.25516], [27.57977, 43.25603], [27.57894, 43.25726]]], [[[27.59135, 43.2068], [27.58968, 43.21881], [27.59143, 43.21449], [27.59192, 43.21377], [27.59677, 43.20941], [27.59745, 43.20915], [27.59842, 43.20807], [27.59793, 43.20796], [27.59764, 43.20765], [27.59793, 43.20678], [27.59834, 43.20655], [27.59897, 43.20656], [27.59948, 43.20692], [27.5994, 43.20747], [27.59991, 43.20723], [27.59926, 43.20184], [27.60074, 43.19578], [27.59979, 43.19209], [27.60019, 43.19063], [27.60168, 43.18865], [27.60165, 43.18541], [27.59821, 43.18981], [27.59762, 43.1911], [27.59759, 43.19285], [27.59846, 43.19583], [27.59706, 43.20124], [27.59713, 43.20373], [27.5942, 43.20421], [27.5985, 43.18307], [27.5962, 43.18308], [27.59135, 43.2068]], [[27.59581, 43.20564], [27.59657, 43.20512], [27.59786, 43.20611], [27.5971, 43.20664], [27.59581, 43.20564]], [[27.59585, 43.20813], [27.59535, 43.20783], [27.59534, 43.20735], [27.59581, 43.20692], [27.59649, 43.20692], [27.59694, 43.20725], [27.59688, 43.20781], [27.59649, 43.20812], [27.59585, 43.20813]]], [[[27.59404, 43.2145], [27.5938, 43.2147], [27.59398, 43.21472], [27.59404, 43.2145]]], [[[27.59508, 43.21757], [27.59433, 43.2174], [27.59404, 43.21752], [27.59464, 43.21801], [27.59508, 43.21757]]], [[[27.59192, 43.21818], [27.59195, 43.21818], [27.59201, 43.21792], [27.59192, 43.21818]]], [[[27.59058, 43.2184], [27.59047, 43.21887], [27.591, 43.21843], [27.59103, 43.21733], [27.59058, 43.2184]]], [[[27.59537, 43.21857], [27.59508, 43.21845], [27.59489, 43.21858], [27.59516, 43.21886], [27.59537, 43.21857]]], [[[27.59005, 43.21938], [27.58984, 43.21954], [27.59052, 43.21974], [27.59005, 43.21938]]], [[[27.59062, 43.22036], [27.59062, 43.22036], [27.59021, 43.22024], [27.59046, 43.22045], [27.59062, 43.22036]]], [[[27.58944, 43.22116], [27.58994, 43.22084], [27.58945, 43.22035], [27.58933, 43.22111], [27.58944, 43.22116]]], [[[27.59338, 43.22123], [27.59337, 43.22141], [27.59362, 43.22105], [27.59339, 43.22102], [27.59338, 43.22123]]], [[[27.59057, 43.2257], [27.59062, 43.22541], [27.59015, 43.2257], [27.59057, 43.22576], [27.59057, 43.2257]]], [[[27.59185, 43.22468], [27.59144, 43.22565], [27.59167, 43.22672], [27.59496, 43.22679], [27.59399, 43.22513], [27.59277, 43.22569], [27.59205, 43.22554], [27.59238, 43.22484], [27.59194, 43.22457], [27.59185, 43.22468]]], [[[27.59106, 43.2274], [27.59094, 43.22718], [27.59023, 43.2271], [27.58906, 43.2272], [27.59106, 43.2274]]], [[[27.58825, 43.22723], [27.58815, 43.22721], [27.58809, 43.22722], [27.58828, 43.22725], [27.58825, 43.22723]]], [[[27.58535, 43.22789], [27.58506, 43.22801], [27.58454, 43.22904], [27.58469, 43.2292], [27.58548, 43.22903], [27.58604, 43.22913], [27.58651, 43.22782], [27.58549, 43.22776], [27.58535, 43.22789]]], [[[27.58866, 43.22793], [27.58887, 43.2281], [27.58899, 43.22814], [27.58876, 43.22794], [27.58866, 43.22793]]], [[[27.59051, 43.2282], [27.59028, 43.22802], [27.58991, 43.228], [27.59012, 43.22812], [27.59051, 43.2282]]], [[[27.58949, 43.22844], [27.58949, 43.22844], [27.58949, 43.22844], [27.58949, 43.22844]]], [[[27.59305, 43.22894], [27.59295, 43.22887], [27.59245, 43.22853], [27.59274, 43.22903], [27.59305, 43.22894]]], [[[27.58773, 43.22914], [27.58761, 43.22975], [27.58698, 43.23005], [27.58696, 43.23035], [27.58727, 43.23029], [27.58715, 43.23007], [27.58791, 43.2299], [27.58789, 43.22964], [27.58807, 43.2296], [27.58826, 43.23007], [27.58815, 43.22936], [27.58778, 43.22888], [27.58773, 43.22914]]], [[[27.58691, 43.23099], [27.58691, 43.23106], [27.58696, 43.23101], [27.58691, 43.23099]]], [[[27.58741, 43.23133], [27.58751, 43.23135], [27.58764, 43.23127], [27.58724, 43.23132], [27.58741, 43.23133]]], [[[27.58604, 43.23175], [27.58606, 43.23171], [27.58609, 43.23168], [27.58599, 43.23177], [27.58604, 43.23175]]], [[[27.58567, 43.23196], [27.5857, 43.23194], [27.5855, 43.2322], [27.58564, 43.23201], [27.58567, 43.23196]]], [[[27.58809, 43.23195], [27.58811, 43.23238], [27.58772, 43.23271], [27.59115, 43.23608], [27.59226, 43.23364], [27.59144, 43.23357], [27.59104, 43.23293], [27.59175, 43.2323], [27.5925, 43.23226], [27.59272, 43.23085], [27.5932, 43.23153], [27.59275, 43.23039], [27.59251, 43.23015], [27.59174, 43.23018], [27.58998, 43.23106], [27.58998, 43.23158], [27.58962, 43.23141], [27.58913, 43.23189], [27.58845, 43.23156], [27.58809, 43.23195]]], [[[27.59005, 43.25699], [27.59035, 43.25768], [27.59018, 43.25916], [27.59077, 43.25986], [27.5916, 43.25963], [27.59158, 43.25889], [27.59104, 43.25837], [27.59128, 43.25721], [27.59101, 43.2569], [27.59037, 43.25676], [27.59008, 43.2564], [27.58976, 43.25665], [27.59005, 43.25699]]], [[[27.58942, 43.25826], [27.5896, 43.2585], [27.5896, 43.25813], [27.58942, 43.25826]]], [[[27.60059, 43.19144], [27.60059, 43.19266], [27.60148, 43.19576], [27.6, 43.20188], [27.60064, 43.20715], [27.60061, 43.20647], [27.60155, 43.20671], [27.60203, 43.20664], [27.60305, 43.20618], [27.60386, 43.2055], [27.60991, 43.19875], [27.60704, 43.19203], [27.60444, 43.19204], [27.60719, 43.1987], [27.60246, 43.20396], [27.60231, 43.20172], [27.60365, 43.19677], [27.60375, 43.1957], [27.60281, 43.19205], [27.60171, 43.19205], [27.60169, 43.18975], [27.60059, 43.19144]]], [[[27.60071, 43.20768], [27.60068, 43.20997], [27.601, 43.21014], [27.60121, 43.2099], [27.60145, 43.21004], [27.60168, 43.20977], [27.60118, 43.20952], [27.60071, 43.20768]]], [[[27.59971, 43.20797], [27.59928, 43.20805], [27.598, 43.20952], [27.59731, 43.20979], [27.59392, 43.21282], [27.59491, 43.21345], [27.5941, 43.21445], [27.59566, 43.21364], [27.59669, 43.21389], [27.59692, 43.2145], [27.59634, 43.21484], [27.59616, 43.21461], [27.59629, 43.21407], [27.59559, 43.214], [27.59478, 43.21495], [27.59523, 43.21524], [27.59589, 43.21488], [27.59624, 43.21515], [27.59535, 43.21557], [27.59432, 43.21546], [27.59378, 43.21614], [27.59223, 43.21624], [27.59263, 43.21649], [27.59407, 43.21667], [27.59438, 43.21642], [27.59487, 43.21634], [27.59565, 43.21676], [27.59808, 43.21351], [27.59861, 43.21332], [27.59988, 43.21026], [27.59998, 43.20785], [27.59971, 43.20797]]], [[[27.60407, 43.21073], [27.60395, 43.21089], [27.60462, 43.21135], [27.60633, 43.20972], [27.60512, 43.20903], [27.60345, 43.20924], [27.6035, 43.20948], [27.60258, 43.20972], [27.60233, 43.21017], [27.60407, 43.21073]]], [[[27.60091, 43.21061], [27.60108, 43.21036], [27.60065, 43.21018], [27.60058, 43.21045], [27.60091, 43.21061]]], [[[27.6064, 43.21089], [27.60693, 43.21027], [27.60839, 43.2094], [27.60825, 43.2093], [27.6073, 43.20967], [27.60595, 43.211], [27.6064, 43.21089]]], [[[27.60065, 43.21086], [27.60049, 43.21076], [27.60033, 43.21126], [27.60065, 43.21086]]], [[[27.60444, 43.21211], [27.60447, 43.21215], [27.60459, 43.21205], [27.60444, 43.21211]]], [[[27.60306, 43.2133], [27.60342, 43.21313], [27.60282, 43.21251], [27.60046, 43.21289], [27.59953, 43.2135], [27.59885, 43.21445], [27.5992, 43.21476], [27.59919, 43.21513], [27.59876, 43.2155], [27.59789, 43.21731], [27.5963, 43.21949], [27.5973, 43.22021], [27.60321, 43.2173], [27.60289, 43.21689], [27.60237, 43.21703], [27.60098, 43.21682], [27.60048, 43.21629], [27.59951, 43.21585], [27.60079, 43.21497], [27.59972, 43.21419], [27.60081, 43.21348], [27.60185, 43.21431], [27.60306, 43.2133]], [[27.60043, 43.21764], [27.59989, 43.21807], [27.59919, 43.21804], [27.59866, 43.21757], [27.59883, 43.21701], [27.59867, 43.21687], [27.59952, 43.21635], [27.60067, 43.2173], [27.60043, 43.21764]]], [[[27.59721, 43.21578], [27.59727, 43.21568], [27.59709, 43.21602], [27.59721, 43.21578], [27.59721, 43.21578]]], [[[27.59659, 43.21683], [27.59635, 43.21705], [27.59642, 43.21707], [27.59659, 43.21683]]], [[[27.60634, 43.21657], [27.60591, 43.21683], [27.60576, 43.21665], [27.60345, 43.21784], [27.60389, 43.21813], [27.60403, 43.21849], [27.60332, 43.21916], [27.60249, 43.21918], [27.60198, 43.21861], [27.59774, 43.22065], [27.5979, 43.22143], [27.59841, 43.22163], [27.59855, 43.22312], [27.59886, 43.22379], [27.59776, 43.22466], [27.59725, 43.22467], [27.59558, 43.22424], [27.59528, 43.22481], [27.59472, 43.22501], [27.59589, 43.2268], [27.60251, 43.22701], [27.60806, 43.21546], [27.60657, 43.21623], [27.60672, 43.2164], [27.60634, 43.21657]]], [[[27.59263, 43.22733], [27.59212, 43.22731], [27.59228, 43.22747], [27.60036, 43.22805], [27.60067, 43.22781], [27.60117, 43.22776], [27.60166, 43.22794], [27.60187, 43.2283], [27.60759, 43.22979], [27.60847, 43.22919], [27.60946, 43.22919], [27.61004, 43.22755], [27.60535, 43.22761], [27.59263, 43.22733]]], [[[27.60133, 43.22914], [27.60059, 43.22914], [27.60014, 43.2287], [27.59921, 43.22857], [27.59376, 43.2282], [27.59514, 43.22855], [27.5959, 43.22899], [27.60191, 43.23122], [27.60344, 43.23215], [27.60461, 43.23355], [27.60611, 43.23705], [27.6071, 43.23851], [27.60732, 43.23713], [27.60699, 43.23683], [27.60699, 43.23634], [27.60757, 43.23567], [27.60824, 43.23241], [27.60686, 43.23154], [27.607, 43.23033], [27.60324, 43.22926], [27.60162, 43.22895], [27.60133, 43.22914]], [[27.6059, 43.23178], [27.60601, 43.23182], [27.60602, 43.2319], [27.60595, 43.23183], [27.6059, 43.23178]]], [[[27.59559, 43.22971], [27.59586, 43.23018], [27.59703, 43.23101], [27.59781, 43.2319], [27.59899, 43.23269], [27.59712, 43.23688], [27.59733, 43.23731], [27.59692, 43.23829], [27.59634, 43.23862], [27.59619, 43.23897], [27.5957, 43.23905], [27.59509, 43.23952], [27.59573, 43.23999], [27.59772, 43.24049], [27.60506, 43.2432], [27.60653, 43.24344], [27.60655, 43.24171], [27.60697, 43.23928], [27.60562, 43.23762], [27.60352, 43.23313], [27.60289, 43.23251], [27.60154, 43.23169], [27.5958, 43.22955], [27.59559, 43.22971]], [[27.601, 43.23535], [27.60145, 43.23388], [27.60199, 43.23472], [27.60332, 43.23808], [27.60459, 43.23973], [27.60435, 43.24108], [27.60051, 43.23966], [27.60136, 43.23761], [27.60128, 43.23655], [27.60085, 43.23565], [27.601, 43.23535]]], [[[27.59557, 43.257], [27.59445, 43.25779], [27.5946, 43.25826], [27.59405, 43.25938], [27.59315, 43.25946], [27.59256, 43.25871], [27.59232, 43.25883], [27.59235, 43.2603], [27.59318, 43.26281], [27.59452, 43.26332], [27.59463, 43.26413], [27.59498, 43.26413], [27.59547, 43.26362], [27.59633, 43.26363], [27.59682, 43.26289], [27.59741, 43.2627], [27.59799, 43.26287], [27.59824, 43.26319], [27.59782, 43.26411], [27.60242, 43.26409], [27.60235, 43.25657], [27.59629, 43.25609], [27.59557, 43.257]], [[27.60064, 43.26062], [27.59945, 43.26007], [27.59825, 43.2598], [27.59864, 43.25793], [27.60125, 43.25815], [27.60068, 43.25952], [27.60083, 43.26075], [27.60064, 43.26062]]], [[[27.62427, 43.20785], [27.62468, 43.20846], [27.62427, 43.20894], [27.62293, 43.20944], [27.62243, 43.20945], [27.6218, 43.20907], [27.62166, 43.2084], [27.61645, 43.21112], [27.61222, 43.21685], [27.61113, 43.21736], [27.60869, 43.21756], [27.60755, 43.2182], [27.60742, 43.21843], [27.60782, 43.21845], [27.60786, 43.21896], [27.6084, 43.21993], [27.60994, 43.22043], [27.61136, 43.22022], [27.61263, 43.21971], [27.61449, 43.21808], [27.61642, 43.21572], [27.61695, 43.21473], [27.61858, 43.21398], [27.61975, 43.21277], [27.62107, 43.21224], [27.62143, 43.21232], [27.61434, 43.22216], [27.61627, 43.22304], [27.62386, 43.21252], [27.62473, 43.2116], [27.62501, 43.21065], [27.62557, 43.21032], [27.62497, 43.2105], [27.62451, 43.21098], [27.62447, 43.2101], [27.6265, 43.20885], [27.62648, 43.20699], [27.62405, 43.20768], [27.62427, 43.20785]]], [[[27.61075, 43.20842], [27.60854, 43.20852], [27.60834, 43.20871], [27.61033, 43.20851], [27.61075, 43.20842]]], [[[27.61075, 43.20975], [27.61102, 43.20917], [27.61052, 43.2092], [27.61036, 43.2094], [27.61069, 43.20987], [27.61075, 43.20975]]], [[[27.60987, 43.21024], [27.6084, 43.21113], [27.60795, 43.21178], [27.60703, 43.2121], [27.60612, 43.21274], [27.60662, 43.2131], [27.60604, 43.21371], [27.60532, 43.21387], [27.60434, 43.21445], [27.60422, 43.21519], [27.60327, 43.21584], [27.60339, 43.21644], [27.60382, 43.21699], [27.60847, 43.21458], [27.61068, 43.20989], [27.60987, 43.21024]]], [[[27.62651, 43.21003], [27.62651, 43.21], [27.62646, 43.21006], [27.62651, 43.21003]]], [[[27.62644, 43.21054], [27.62652, 43.21056], [27.62651, 43.2101], [27.62625, 43.21053], [27.62644, 43.21054]]], [[[27.62579, 43.21272], [27.62654, 43.21286], [27.62652, 43.21074], [27.62541, 43.2118], [27.62525, 43.21234], [27.62539, 43.21243], [27.62544, 43.21229], [27.62579, 43.21272]]], [[[27.62605, 43.214], [27.62595, 43.2141], [27.62454, 43.21274], [27.61499, 43.22597], [27.61405, 43.22696], [27.62296, 43.22809], [27.62671, 43.2294], [27.62669, 43.22749], [27.6236, 43.22649], [27.61776, 43.22569], [27.62392, 43.21715], [27.6226, 43.21713], [27.62408, 43.21693], [27.62605, 43.214]]], [[[27.60809, 43.21706], [27.60803, 43.21719], [27.60828, 43.2171], [27.60813, 43.21709], [27.60809, 43.21706]]], [[[27.61554, 43.22385], [27.61469, 43.22268], [27.61413, 43.22244], [27.61325, 43.22366], [27.6154, 43.22395], [27.61554, 43.22385]]], [[[27.61055, 43.22533], [27.60653, 43.2254], [27.60891, 43.22039], [27.60782, 43.22001], [27.60733, 43.21947], [27.60695, 43.21946], [27.60338, 43.22703], [27.61189, 43.22697], [27.61147, 43.22607], [27.61193, 43.22531], [27.61055, 43.22533]]], [[[27.61172, 43.22614], [27.6124, 43.22696], [27.6131, 43.22685], [27.61392, 43.22626], [27.61547, 43.22414], [27.61329, 43.2238], [27.61172, 43.22614]]], [[[27.61218, 43.22751], [27.61096, 43.22753], [27.61034, 43.22888], [27.61007, 43.22962], [27.61088, 43.23012], [27.61086, 43.23077], [27.61154, 43.23091], [27.6118, 43.23152], [27.62682, 43.2403], [27.6268, 43.23818], [27.61586, 43.23167], [27.61575, 43.23052], [27.61494, 43.22925], [27.62256, 43.2303], [27.62673, 43.23192], [27.62672, 43.23002], [27.62276, 43.22861], [27.61498, 43.22757], [27.61218, 43.22751]]], [[[27.60821, 43.22941], [27.60809, 43.22988], [27.60832, 43.23005], [27.60814, 43.22972], [27.60832, 43.22942], [27.6088, 43.22928], [27.60932, 43.22957], [27.60936, 43.22945], [27.60874, 43.22921], [27.60821, 43.22941]]], [[[27.61054, 43.23], [27.61019, 43.2299], [27.60993, 43.22998], [27.61036, 43.22998], [27.61073, 43.2303], [27.61041, 43.23088], [27.61082, 43.23047], [27.61077, 43.23022], [27.61054, 43.23]]], [[[27.60695, 43.23136], [27.60711, 43.23164], [27.60746, 43.23185], [27.60808, 43.23192], [27.60848, 43.23178], [27.60852, 43.23166], [27.60771, 43.23185], [27.60712, 43.23152], [27.60706, 43.23105], [27.60767, 43.23057], [27.60716, 43.23079], [27.60696, 43.23107], [27.60695, 43.23136]]], [[[27.61023, 43.23197], [27.60961, 43.23205], [27.60918, 43.23194], [27.60979, 43.23212], [27.61023, 43.23197]]], [[[27.61127, 43.23212], [27.61078, 43.23219], [27.61028, 43.23201], [27.60993, 43.23215], [27.60908, 43.23221], [27.60831, 43.23569], [27.60863, 43.236], [27.60863, 43.23645], [27.60807, 43.23714], [27.60774, 43.23912], [27.61101, 43.24199], [27.61243, 43.24357], [27.61297, 43.2452], [27.61258, 43.24801], [27.61216, 43.24907], [27.61108, 43.25037], [27.60773, 43.2523], [27.60664, 43.25318], [27.60592, 43.2542], [27.60577, 43.25506], [27.60796, 43.25505], [27.60882, 43.25383], [27.61143, 43.25241], [27.61285, 43.25141], [27.61389, 43.25027], [27.61459, 43.249], [27.61456, 43.24601], [27.6152, 43.24601], [27.61523, 43.24559], [27.61483, 43.24356], [27.61369, 43.24183], [27.61088, 43.23929], [27.61163, 43.23868], [27.61132, 43.23698], [27.61116, 43.23694], [27.61051, 43.23759], [27.61073, 43.23841], [27.61006, 43.23822], [27.61046, 43.23594], [27.61162, 43.23383], [27.61163, 43.23337], [27.61212, 43.23326], [27.61345, 43.2334], [27.61451, 43.23393], [27.61426, 43.23435], [27.6133, 43.23428], [27.61394, 43.23488], [27.61421, 43.2356], [27.6146, 43.23537], [27.61483, 43.23421], [27.61527, 43.2343], [27.61127, 43.23212]]], [[[27.6169, 43.2364], [27.61762, 43.23782], [27.62442, 43.24188], [27.62685, 43.24298], [27.62683, 43.24109], [27.61804, 43.23594], [27.6201, 43.23749], [27.61813, 43.23654], [27.61737, 43.23555], [27.61544, 43.2344], [27.61524, 43.23454], [27.6169, 43.2364]]], [[[27.61155, 43.24373], [27.61119, 43.24364], [27.61048, 43.2428], [27.6105, 43.2424], [27.60761, 43.23985], [27.60725, 43.24224], [27.60729, 43.24377], [27.60826, 43.24905], [27.60543, 43.25329], [27.60521, 43.25405], [27.60657, 43.25236], [27.61022, 43.25025], [27.61149, 43.24884], [27.61207, 43.24691], [27.61223, 43.24521], [27.61197, 43.24425], [27.61155, 43.24373]], [[27.61127, 43.2467], [27.61108, 43.24675], [27.61054, 43.24561], [27.60841, 43.24251], [27.60864, 43.24242], [27.61127, 43.2467]], [[27.60987, 43.2454], [27.60972, 43.24478], [27.60966, 43.24444], [27.60994, 43.24523], [27.60993, 43.2457], [27.60987, 43.2454]]]]}, "properties": {"kind": "pv", "area_km2": 17.2, "mw": 860.1}}, {"type": "Feature", "geometry": {"type": "Point", "coordinates": [27.55968, 43.23162]}, "properties": {"kind": "turbine", "i": 0, "mw": 6.0, "hub_m": 120.0, "rotor_m": 150.0}}, {"type": "Feature", "geometry": {"type": "Point", "coordinates": [27.57317, 43.23155]}, "properties": {"kind": "turbine", "i": 1, "mw": 6.0, "hub_m": 120.0, "rotor_m": 150.0}}, {"type": "Feature", "geometry": {"type": "Point", "coordinates": [27.54613, 43.22511]}, "properties": {"kind": "turbine", "i": 2, "mw": 6.0, "hub_m": 120.0, "rotor_m": 150.0}}, {"type": "Feature", "geometry": {"type": "Point", "coordinates": [27.56846, 43.20856]}, "properties": {"kind": "turbine", "i": 3, "mw": 6.0, "hub_m": 120.0, "rotor_m": 150.0}}, {"type": "Feature", "geometry": {"type": "Point", "coordinates": [27.55977, 43.24148]}, "properties": {"kind": "turbine", "i": 4, "mw": 6.0, "hub_m": 120.0, "rotor_m": 150.0}}, {"type": "Feature", "geometry": {"type": "Point", "coordinates": [27.57326, 43.24141]}, "properties": {"kind": "turbine", "i": 5, "mw": 6.0, "hub_m": 120.0, "rotor_m": 150.0}}, {"type": "Feature", "geometry": {"type": "Point", "coordinates": [27.58194, 43.20849]}, "properties": {"kind": "turbine", "i": 6, "mw": 6.0, "hub_m": 120.0, "rotor_m": 150.0}}, {"type": "Feature", "geometry": {"type": "Point", "coordinates": [27.54598, 43.20867]}, "properties": {"kind": "turbine", "i": 7, "mw": 6.0, "hub_m": 120.0, "rotor_m": 150.0}}, {"type": "Feature", "geometry": {"type": "Point", "coordinates": [27.54628, 43.24155]}, "properties": {"kind": "turbine", "i": 8, "mw": 6.0, "hub_m": 120.0, "rotor_m": 150.0}}, {"type": "Feature", "geometry": {"type": "Point", "coordinates": [27.58679, 43.24463]}, "properties": {"kind": "turbine", "i": 9, "mw": 6.0, "hub_m": 120.0, "rotor_m": 150.0}}, {"type": "Feature", "geometry": {"type": "Point", "coordinates": [27.57286, 43.19867]}, "properties": {"kind": "turbine", "i": 10, "mw": 6.0, "hub_m": 120.0, "rotor_m": 150.0}}, {"type": "Feature", "geometry": {"type": "Point", "coordinates": [27.53253, 43.21202]}, "properties": {"kind": "turbine", "i": 11, "mw": 6.0, "hub_m": 120.0, "rotor_m": 150.0}}, {"type": "Feature", "geometry": {"type": "Point", "coordinates": [27.52815, 43.22519]}, "properties": {"kind": "turbine", "i": 12, "mw": 6.0, "hub_m": 120.0, "rotor_m": 150.0}}, {"type": "Feature", "geometry": {"type": "Point", "coordinates": [27.56886, 43.2513]}, "properties": {"kind": "turbine", "i": 13, "mw": 6.0, "hub_m": 120.0, "rotor_m": 150.0}}, {"type": "Feature", "geometry": {"type": "Point", "coordinates": [27.58634, 43.1986]}, "properties": {"kind": "turbine", "i": 14, "mw": 6.0, "hub_m": 120.0, "rotor_m": 150.0}}, {"type": "Feature", "geometry": {"type": "Point", "coordinates": [27.52374, 43.23508]}, "properties": {"kind": "turbine", "i": 15, "mw": 6.0, "hub_m": 120.0, "rotor_m": 150.0}}, {"type": "Feature", "geometry": {"type": "Point", "coordinates": [27.55089, 43.25468]}, "properties": {"kind": "turbine", "i": 16, "mw": 6.0, "hub_m": 120.0, "rotor_m": 150.0}}, {"type": "Feature", "geometry": {"type": "Point", "coordinates": [27.53244, 43.20215]}, "properties": {"kind": "turbine", "i": 17, "mw": 6.0, "hub_m": 120.0, "rotor_m": 150.0}}, {"type": "Feature", "geometry": {"type": "Point", "coordinates": [27.60908, 43.22479]}, "properties": {"kind": "turbine", "i": 18, "mw": 6.0, "hub_m": 120.0, "rotor_m": 150.0}}, {"type": "Feature", "geometry": {"type": "Point", "coordinates": [27.60028, 43.24456]}, "properties": {"kind": "turbine", "i": 19, "mw": 6.0, "hub_m": 120.0, "rotor_m": 150.0}}, {"type": "Feature", "geometry": {"type": "Point", "coordinates": [27.53737, 43.25145]}, "properties": {"kind": "turbine", "i": 20, "mw": 6.0, "hub_m": 120.0, "rotor_m": 150.0}}, {"type": "Feature", "geometry": {"type": "Point", "coordinates": [27.52382, 43.24494]}, "properties": {"kind": "turbine", "i": 21, "mw": 6.0, "hub_m": 120.0, "rotor_m": 150.0}}, {"type": "Feature", "geometry": {"type": "Point", "coordinates": [27.57726, 43.18878]}, "properties": {"kind": "turbine", "i": 22, "mw": 6.0, "hub_m": 120.0, "rotor_m": 150.0}}, {"type": "Feature", "geometry": {"type": "Point", "coordinates": [27.56445, 43.26119]}, "properties": {"kind": "turbine", "i": 23, "mw": 6.0, "hub_m": 120.0, "rotor_m": 150.0}}, {"type": "Feature", "geometry": {"type": "Point", "coordinates": [27.57795, 43.26112]}, "properties": {"kind": "turbine", "i": 24, "mw": 6.0, "hub_m": 120.0, "rotor_m": 150.0}}, {"type": "Feature", "geometry": {"type": "Point", "coordinates": [27.56375, 43.18556]}, "properties": {"kind": "turbine", "i": 25, "mw": 6.0, "hub_m": 120.0, "rotor_m": 150.0}}, {"type": "Feature", "geometry": {"type": "Point", "coordinates": [27.53236, 43.19229]}, "properties": {"kind": "turbine", "i": 26, "mw": 6.0, "hub_m": 120.0, "rotor_m": 150.0}}, {"type": "Feature", "geometry": {"type": "Point", "coordinates": [27.55027, 43.18563]}, "properties": {"kind": "turbine", "i": 27, "mw": 6.0, "hub_m": 120.0, "rotor_m": 150.0}}, {"type": "Feature", "geometry": {"type": "Point", "coordinates": [27.61797, 43.21488]}, "properties": {"kind": "turbine", "i": 28, "mw": 6.0, "hub_m": 120.0, "rotor_m": 150.0}}, {"type": "Feature", "geometry": {"type": "Point", "coordinates": [27.51013, 43.22198]}, "properties": {"kind": "turbine", "i": 29, "mw": 6.0, "hub_m": 120.0, "rotor_m": 150.0}}, {"type": "Feature", "geometry": {"type": "Point", "coordinates": [27.59074, 43.18872]}, "properties": {"kind": "turbine", "i": 30, "mw": 6.0, "hub_m": 120.0, "rotor_m": 150.0}}, {"type": "Feature", "geometry": {"type": "Point", "coordinates": [27.51024, 43.23514]}, "properties": {"kind": "turbine", "i": 31, "mw": 6.0, "hub_m": 120.0, "rotor_m": 150.0}}, {"type": "Feature", "geometry": {"type": "Point", "coordinates": [27.62256, 43.22472]}, "properties": {"kind": "turbine", "i": 32, "mw": 6.0, "hub_m": 120.0, "rotor_m": 150.0}}, {"type": "Feature", "geometry": {"type": "Point", "coordinates": [27.60426, 43.19193]}, "properties": {"kind": "turbine", "i": 33, "mw": 6.0, "hub_m": 120.0, "rotor_m": 150.0}}, {"type": "Feature", "geometry": {"type": "Point", "coordinates": [27.62267, 43.23458]}, "properties": {"kind": "turbine", "i": 34, "mw": 6.0, "hub_m": 120.0, "rotor_m": 150.0}}, {"type": "Feature", "geometry": {"type": "Point", "coordinates": [27.54198, 43.26458]}, "properties": {"kind": "turbine", "i": 35, "mw": 6.0, "hub_m": 120.0, "rotor_m": 150.0}}, {"type": "Feature", "geometry": {"type": "Point", "coordinates": [27.61827, 43.24447]}, "properties": {"kind": "turbine", "i": 36, "mw": 6.0, "hub_m": 120.0, "rotor_m": 150.0}}, {"type": "Feature", "geometry": {"type": "Point", "coordinates": [27.60937, 43.25438]}, "properties": {"kind": "turbine", "i": 37, "mw": 6.0, "hub_m": 120.0, "rotor_m": 150.0}}, {"type": "Feature", "geometry": {"type": "Point", "coordinates": [27.51033, 43.245]}, "properties": {"kind": "turbine", "i": 38, "mw": 6.0, "hub_m": 120.0, "rotor_m": 150.0}}, {"type": "Feature", "geometry": {"type": "Point", "coordinates": [27.52846, 43.26136]}, "properties": {"kind": "turbine", "i": 39, "mw": 6.0, "hub_m": 120.0, "rotor_m": 150.0}}, {"type": "Feature", "geometry": {"type": "Point", "coordinates": [27.56904, 43.27103]}, "properties": {"kind": "turbine", "i": 40, "mw": 6.0, "hub_m": 120.0, "rotor_m": 150.0}}, {"type": "Feature", "geometry": {"type": "Point", "coordinates": [27.55554, 43.27109]}, "properties": {"kind": "turbine", "i": 41, "mw": 6.0, "hub_m": 120.0, "rotor_m": 150.0}}, {"type": "Feature", "geometry": {"type": "Point", "coordinates": [27.51491, 43.25484]}, "properties": {"kind": "turbine", "i": 42, "mw": 6.0, "hub_m": 120.0, "rotor_m": 150.0}}, {"type": "Feature", "geometry": {"type": "Point", "coordinates": [27.58616, 43.17888]}, "properties": {"kind": "turbine", "i": 43, "mw": 6.0, "hub_m": 120.0, "rotor_m": 150.0}}, {"type": "Feature", "geometry": {"type": "Point", "coordinates": [27.53227, 43.18243]}, "properties": {"kind": "turbine", "i": 44, "mw": 6.0, "hub_m": 120.0, "rotor_m": 150.0}}, {"type": "Feature", "geometry": {"type": "Point", "coordinates": [27.56815, 43.17568]}, "properties": {"kind": "turbine", "i": 45, "mw": 6.0, "hub_m": 120.0, "rotor_m": 150.0}}, {"type": "Feature", "geometry": {"type": "Point", "coordinates": [27.55468, 43.17574]}, "properties": {"kind": "turbine", "i": 46, "mw": 6.0, "hub_m": 120.0, "rotor_m": 150.0}}, {"type": "Feature", "geometry": {"type": "Point", "coordinates": [27.4967, 43.22862]}, "properties": {"kind": "turbine", "i": 47, "mw": 6.0, "hub_m": 120.0, "rotor_m": 150.0}}, {"type": "Feature", "geometry": {"type": "Point", "coordinates": [27.63142, 43.21152]}, "properties": {"kind": "turbine", "i": 48, "mw": 6.0, "hub_m": 120.0, "rotor_m": 150.0}}]}