{"type": "FeatureCollection", "features": [{"type": "Feature", "geometry": {"type": "MultiPolygon", "coordinates": [[[[27.54814, 43.22734], [27.55127, 43.22632], [27.54994, 43.22613], [27.54669, 43.22474], [27.5473, 43.22764], [27.54814, 43.22734]]], [[[27.58039, 43.23083], [27.5802, 43.2292], [27.56318, 43.22856], [27.55781, 43.22982], [27.55767, 43.23035], [27.55501, 43.2314], [27.55365, 43.23258], [27.55318, 43.23403], [27.55448, 43.23507], [27.55577, 43.23422], [27.55865, 43.23448], [27.55947, 43.23556], [27.55964, 43.23689], [27.5649, 43.23743], [27.56843, 43.23716], [27.57183, 43.23639], [27.57495, 43.23515], [27.57768, 43.23348], [27.58039, 43.23083]]], [[[27.5689, 43.21129], [27.56904, 43.21244], [27.57006, 43.21298], [27.57064, 43.21382], [27.57177, 43.21407], [27.57296, 43.21511], [27.57588, 43.21619], [27.57721, 43.21455], [27.57321, 43.21244], [27.5689, 43.21129]]]]}, "properties": {"kind": "windland", "area_km2": 1.75}}, {"type": "Feature", "geometry": {"type": "MultiPolygon", "coordinates": [[[[27.5548, 43.19251], [27.55484, 43.19229], [27.55461, 43.19229], [27.5548, 43.19251]]], [[[27.54131, 43.19236], [27.54018, 43.19236], [27.54019, 43.19291], [27.54118, 43.19295], [27.54131, 43.19236]]], [[[27.55578, 43.19438], [27.55628, 43.19445], [27.55648, 43.19398], [27.55607, 43.1942], [27.55572, 43.19415], [27.55548, 43.19387], [27.55578, 43.19438]]], [[[27.55598, 43.1954], [27.556, 43.19545], [27.55601, 43.1954], [27.55598, 43.1954]]], [[[27.55673, 43.20111], [27.55679, 43.20059], [27.55839, 43.20054], [27.55871, 43.2003], [27.5567, 43.20043], [27.55637, 43.20077], [27.55648, 43.20143], [27.55682, 43.20159], [27.55673, 43.20111]]], [[[27.55381, 43.21259], [27.55474, 43.21256], [27.55376, 43.21236], [27.55367, 43.21191], [27.55314, 43.21232], [27.55352, 43.21331], [27.55358, 43.21262], [27.55381, 43.21259]]], [[[27.54911, 43.21901], [27.54759, 43.21835], [27.54685, 43.21733], [27.54556, 43.21642], [27.54483, 43.21748], [27.54464, 43.21873], [27.54539, 43.21899], [27.54604, 43.2197], [27.54616, 43.22007], [27.54582, 43.22081], [27.54599, 43.22134], [27.54725, 43.22132], [27.54684, 43.22158], [27.54706, 43.22161], [27.54642, 43.22249], [27.54646, 43.22253], [27.54529, 43.22279], [27.54476, 43.22369], [27.54563, 43.22428], [27.5496, 43.226], [27.55127, 43.22632], [27.54445, 43.22873], [27.54261, 43.22961], [27.53969, 43.23154], [27.53846, 43.23292], [27.53521, 43.23772], [27.52953, 43.24362], [27.52833, 43.24524], [27.52834, 43.24644], [27.53003, 43.24644], [27.53155, 43.24438], [27.53717, 43.23857], [27.5409, 43.23314], [27.54242, 43.23186], [27.54407, 43.23088], [27.54785, 43.2293], [27.5517, 43.22797], [27.55566, 43.22694], [27.55516, 43.22602], [27.55466, 43.22561], [27.5524, 43.22458], [27.55159, 43.22429], [27.55134, 43.2246], [27.551, 43.22465], [27.5473, 43.22307], [27.54703, 43.22328], [27.54635, 43.22331], [27.54593, 43.22308], [27.54586, 43.22269], [27.54648, 43.22253], [27.54725, 43.22136], [27.54771, 43.22131], [27.54797, 43.22091], [27.54842, 43.22116], [27.54918, 43.22044], [27.5493, 43.21944], [27.54911, 43.21901]]], [[[27.55648, 43.2277], [27.55924, 43.22686], [27.55693, 43.22718], [27.54983, 43.22919], [27.55106, 43.23082], [27.55361, 43.22906], [27.55648, 43.2277]]], [[[27.55706, 43.2291], [27.55761, 43.22938], [27.55781, 43.22982], [27.56178, 43.22874], [27.56105, 43.22874], [27.56085, 43.22782], [27.56165, 43.22782], [27.56362, 43.22802], [27.56368, 43.22828], [27.56318, 43.22856], [27.5677, 43.22853], [27.5802, 43.2292], [27.58039, 43.23083], [27.58137, 43.23211], [27.58105, 43.23337], [27.5812, 43.23419], [27.58197, 43.23504], [27.58316, 43.23553], [27.58235, 43.23657], [27.58207, 43.2373], [27.58228, 43.23822], [27.58287, 43.23884], [27.58399, 43.23931], [27.58552, 43.23928], [27.58661, 43.23878], [27.58752, 43.23781], [27.58791, 43.23949], [27.58921, 43.23964], [27.59123, 43.24039], [27.59161, 43.24091], [27.59384, 43.24107], [27.59326, 43.24218], [27.59376, 43.2425], [27.59582, 43.24243], [27.5972, 43.24209], [27.59765, 43.24293], [27.60223, 43.24462], [27.60221, 43.24276], [27.59682, 43.24078], [27.59538, 43.24047], [27.59339, 43.23909], [27.59212, 43.23881], [27.59107, 43.23836], [27.59065, 43.23762], [27.59088, 43.23672], [27.58808, 43.23396], [27.585, 43.23761], [27.58442, 43.23762], [27.58436, 43.23735], [27.58544, 43.23586], [27.58761, 43.2335], [27.58704, 43.23295], [27.58629, 43.23311], [27.58569, 43.23293], [27.58542, 43.23267], [27.58544, 43.2323], [27.5842, 43.23368], [27.5839, 43.23377], [27.58361, 43.23363], [27.58392, 43.23288], [27.58621, 43.23047], [27.58537, 43.23059], [27.5843, 43.23002], [27.58339, 43.22998], [27.58319, 43.23025], [27.58247, 43.22997], [27.58338, 43.22865], [27.5839, 43.22881], [27.58401, 43.22857], [27.58314, 43.22823], [27.58331, 43.22765], [27.56713, 43.22683], [27.56269, 43.22693], [27.55955, 43.22747], [27.55703, 43.22824], [27.55453, 43.22937], [27.55188, 43.23113], [27.55486, 43.22953], [27.55706, 43.2291]]], [[[27.55049, 43.2313], [27.54916, 43.22943], [27.54606, 43.23059], [27.54293, 43.23225], [27.54153, 43.23342], [27.53779, 43.23887], [27.53387, 43.24288], [27.53724, 43.24441], [27.53993, 43.24211], [27.55049, 43.2313]], [[27.54311, 43.23475], [27.54445, 43.23348], [27.54667, 43.23228], [27.54048, 43.23867], [27.54311, 43.23475]]], [[[27.54996, 43.23453], [27.54962, 43.23432], [27.54961, 43.23381], [27.54817, 43.23569], [27.55034, 43.2401], [27.55117, 43.23971], [27.5514, 43.23925], [27.55141, 43.23833], [27.55094, 43.23686], [27.54956, 43.2357], [27.54996, 43.23453]]], [[[27.54743, 43.23569], [27.54745, 43.23547], [27.54064, 43.2425], [27.53802, 43.24476], [27.54974, 43.25007], [27.56045, 43.25295], [27.56076, 43.25213], [27.56136, 43.25136], [27.55478, 43.24976], [27.55079, 43.24859], [27.54151, 43.24439], [27.54665, 43.23917], [27.54829, 43.24239], [27.54911, 43.24311], [27.5503, 43.24347], [27.55133, 43.24343], [27.55226, 43.2431], [27.55307, 43.24237], [27.55318, 43.24201], [27.55119, 43.24237], [27.55004, 43.24183], [27.54971, 43.24145], [27.54979, 43.24056], [27.54743, 43.23569]]], [[[27.53217, 43.24468], [27.53088, 43.24643], [27.5342, 43.24642], [27.53671, 43.24481], [27.53344, 43.24332], [27.53217, 43.24468]]], [[[27.53566, 43.24641], [27.54021, 43.24639], [27.5375, 43.24516], [27.53566, 43.24641]]], [[[27.54818, 43.25195], [27.55292, 43.25338], [27.55963, 43.2551], [27.56124, 43.25509], [27.56258, 43.25451], [27.56135, 43.25398], [27.56084, 43.25343], [27.56015, 43.25348], [27.5494, 43.25055], [27.54066, 43.24659], [27.54068, 43.24856], [27.54818, 43.25195]]], [[[27.55744, 43.19514], [27.55793, 43.19493], [27.55869, 43.19374], [27.55848, 43.19366], [27.55814, 43.19412], [27.55724, 43.19456], [27.55794, 43.19441], [27.55744, 43.19514]]], [[[27.5647, 43.20125], [27.56419, 43.2027], [27.56478, 43.2036], [27.56443, 43.20521], [27.56445, 43.20706], [27.56476, 43.20835], [27.56406, 43.2101], [27.56238, 43.211], [27.56322, 43.21238], [27.56411, 43.21295], [27.56583, 43.21163], [27.5666, 43.21167], [27.56676, 43.21207], [27.56747, 43.2126], [27.5674, 43.21286], [27.56874, 43.2137], [27.56846, 43.21401], [27.56989, 43.21484], [27.57035, 43.2155], [27.5708, 43.21563], [27.56867, 43.2188], [27.56768, 43.21942], [27.56894, 43.2193], [27.57067, 43.2194], [27.57125, 43.21959], [27.57108, 43.21841], [27.57138, 43.21811], [27.57196, 43.21799], [27.57255, 43.21819], [27.57279, 43.21874], [27.57352, 43.21867], [27.57398, 43.21883], [27.57425, 43.21955], [27.57613, 43.21949], [27.58129, 43.21857], [27.58521, 43.21914], [27.58644, 43.21978], [27.5874, 43.21889], [27.58875, 43.21906], [27.58886, 43.21938], [27.58897, 43.21855], [27.58805, 43.2186], [27.58766, 43.21803], [27.58819, 43.21756], [27.58908, 43.21773], [27.59031, 43.2082], [27.5918, 43.20111], [27.5895, 43.20112], [27.58807, 43.20794], [27.58742, 43.21287], [27.58798, 43.21311], [27.5881, 43.21411], [27.58731, 43.21498], [27.58784, 43.21556], [27.58778, 43.21591], [27.58859, 43.21659], [27.58846, 43.21685], [27.58791, 43.21726], [27.58669, 43.21704], [27.58499, 43.21756], [27.58223, 43.21782], [27.5803, 43.21742], [27.57836, 43.2167], [27.57874, 43.21571], [27.58119, 43.21393], [27.57971, 43.21379], [27.57771, 43.2143], [27.57649, 43.21507], [27.57588, 43.21619], [27.57421, 43.21543], [27.57296, 43.21511], [27.57219, 43.21429], [27.57064, 43.21382], [27.57006, 43.21298], [27.56904, 43.21244], [27.56898, 43.21146], [27.5685, 43.21074], [27.56755, 43.21016], [27.56654, 43.20995], [27.56708, 43.20807], [27.56671, 43.20676], [27.56652, 43.20409], [27.5662, 43.20326], [27.56542, 43.20244], [27.56529, 43.20088], [27.5649, 43.20074], [27.5647, 43.20125]]], [[[27.56407, 43.20802], [27.56372, 43.20716], [27.56374, 43.2061], [27.56236, 43.20864], [27.56116, 43.21004], [27.56042, 43.2106], [27.56007, 43.2107], [27.55957, 43.21056], [27.55829, 43.21098], [27.55843, 43.21112], [27.55917, 43.21103], [27.55895, 43.21144], [27.55836, 43.21154], [27.55849, 43.21179], [27.5589, 43.21178], [27.55931, 43.21125], [27.56155, 43.21204], [27.56231, 43.21206], [27.5617, 43.21123], [27.56169, 43.21075], [27.56218, 43.21032], [27.56343, 43.20981], [27.56407, 43.20802]]], [[[27.55673, 43.21188], [27.55695, 43.21178], [27.5585, 43.21226], [27.558, 43.21293], [27.5589, 43.21178], [27.55857, 43.21217], [27.55698, 43.21172], [27.55714, 43.2113], [27.55642, 43.21173], [27.55673, 43.21188]]], [[[27.58085, 43.21918], [27.57621, 43.22003], [27.57452, 43.22273], [27.57558, 43.2231], [27.57468, 43.22425], [27.57508, 43.22474], [27.57681, 43.22472], [27.57777, 43.22492], [27.57844, 43.22473], [27.57845, 43.22408], [27.57908, 43.22376], [27.58028, 43.22406], [27.58066, 43.22437], [27.58145, 43.22366], [27.58225, 43.2236], [27.58442, 43.22085], [27.58502, 43.22075], [27.58544, 43.22004], [27.58594, 43.22018], [27.58494, 43.21965], [27.58168, 43.21912], [27.58085, 43.21918]]], [[[27.57385, 43.22416], [27.5739, 43.22415], [27.57384, 43.22413], [27.57385, 43.22416]]], [[[27.58317, 43.22454], [27.5833, 43.22436], [27.58336, 43.22427], [27.58319, 43.22435], [27.58317, 43.22454]]], [[[27.58305, 43.22498], [27.58304, 43.22495], [27.58302, 43.22503], [27.58306, 43.22501], [27.58305, 43.22498]]], [[[27.56111, 43.22612], [27.56178, 43.22606], [27.56384, 43.22584], [27.5618, 43.22453], [27.56131, 43.22462], [27.55955, 43.22563], [27.55907, 43.22633], [27.56111, 43.22612]]], [[[27.56706, 43.22551], [27.56707, 43.22551], [27.56707, 43.22547], [27.567, 43.22552], [27.56706, 43.22551]]], [[[27.57949, 43.22566], [27.57952, 43.22539], [27.57867, 43.22528], [27.57949, 43.22567], [27.57949, 43.22566]]], [[[27.56607, 43.22559], [27.56528, 43.22569], [27.5661, 43.22561], [27.56607, 43.22559]]], [[[27.57461, 43.22534], [27.57327, 43.22543], [27.57466, 43.22656], [27.58072, 43.22686], [27.57743, 43.2254], [27.57623, 43.22523], [27.57461, 43.22534]]], [[[27.57421, 43.22651], [27.5728, 43.22547], [27.56617, 43.22615], [27.57422, 43.22654], [27.57421, 43.22651]]], [[[27.59201, 43.21792], [27.59192, 43.21818], [27.59195, 43.21818], [27.59201, 43.21792]]], [[[27.59059, 43.2184], [27.59047, 43.21887], [27.591, 43.21843], [27.59103, 43.21733], [27.59059, 43.2184]]], [[[27.59052, 43.21974], [27.59005, 43.21938], [27.59008, 43.2193], [27.58984, 43.21954], [27.59052, 43.21974]]], [[[27.59059, 43.22038], [27.59062, 43.22036], [27.59021, 43.22024], [27.59046, 43.22045], [27.59059, 43.22038]]], [[[27.58933, 43.22111], [27.58994, 43.22084], [27.58945, 43.22035], [27.58933, 43.22111]]], [[[27.59057, 43.22576], [27.59058, 43.22566], [27.59062, 43.22541], [27.59015, 43.2257], [27.59057, 43.22576]]], [[[27.59106, 43.2274], [27.59094, 43.22718], [27.59023, 43.2271], [27.58906, 43.2272], [27.59106, 43.2274]]], [[[27.58828, 43.22725], [27.58815, 43.22721], [27.58809, 43.22722], [27.5881, 43.22724], [27.58828, 43.22725]]], [[[27.58535, 43.22789], [27.58506, 43.22801], [27.58454, 43.22904], [27.58469, 43.2292], [27.58548, 43.22903], [27.58604, 43.22913], [27.58651, 43.22782], [27.58549, 43.22776], [27.58535, 43.22789]]], [[[27.58876, 43.22794], [27.58864, 43.22794], [27.58899, 43.22814], [27.58882, 43.228], [27.58876, 43.22794]]], [[[27.59048, 43.22822], [27.59028, 43.22802], [27.58991, 43.228], [27.59012, 43.22812], [27.59048, 43.22822]]], [[[27.58949, 43.22844], [27.58949, 43.22844], [27.58949, 43.22844], [27.58949, 43.22844]]], [[[27.5928, 43.22901], [27.59305, 43.22894], [27.59245, 43.22853], [27.59274, 43.22903], [27.5928, 43.22901]]], [[[27.58775, 43.22909], [27.58761, 43.22975], [27.58698, 43.23005], [27.58696, 43.23035], [27.58727, 43.23029], [27.58715, 43.23007], [27.58791, 43.2299], [27.58789, 43.22964], [27.58807, 43.2296], [27.58826, 43.23007], [27.58815, 43.22936], [27.58778, 43.22888], [27.58775, 43.22909]]], [[[27.58696, 43.23101], [27.58691, 43.23099], [27.58691, 43.23106], [27.58696, 43.23101]]], [[[27.58734, 43.23132], [27.58751, 43.23135], [27.58764, 43.23127], [27.58755, 43.23119], [27.58734, 43.23132]]], [[[27.58601, 43.23176], [27.58604, 43.23175], [27.58609, 43.23168], [27.58599, 43.23177], [27.58601, 43.23176]]], [[[27.58567, 43.23196], [27.5857, 43.23194], [27.5855, 43.2322], [27.58564, 43.23201], [27.58567, 43.23196]]], [[[27.58807, 43.2319], [27.58811, 43.23238], [27.58772, 43.23271], [27.59115, 43.23608], [27.59226, 43.23364], [27.59144, 43.23357], [27.59104, 43.23293], [27.59175, 43.2323], [27.5925, 43.23226], [27.59272, 43.23085], [27.5932, 43.23153], [27.59275, 43.23039], [27.59251, 43.23015], [27.59174, 43.23018], [27.58998, 43.23106], [27.58998, 43.23158], [27.58962, 43.23141], [27.58913, 43.23189], [27.58845, 43.23156], [27.58807, 43.2319]]], [[[27.58711, 43.25337], [27.58802, 43.25277], [27.58682, 43.2532], [27.58498, 43.25312], [27.58363, 43.2534], [27.58228, 43.25401], [27.58104, 43.25519], [27.58213, 43.25519], [27.58229, 43.25495], [27.58289, 43.25477], [27.58334, 43.25428], [27.58617, 43.25379], [27.58652, 43.25344], [27.58711, 43.25337]]], [[[27.60074, 43.20714], [27.60061, 43.20647], [27.60186, 43.20669], [27.6018, 43.20106], [27.60017, 43.20107], [27.60006, 43.20148], [27.6, 43.20255], [27.60037, 43.20548], [27.60074, 43.20714]]], [[[27.59712, 43.20925], [27.59745, 43.20915], [27.59842, 43.20807], [27.59793, 43.20796], [27.59764, 43.20765], [27.59769, 43.20713], [27.59803, 43.20669], [27.59848, 43.20653], [27.59904, 43.20658], [27.59948, 43.20692], [27.5994, 43.20747], [27.59991, 43.20723], [27.59926, 43.20259], [27.59941, 43.20107], [27.5971, 43.20108], [27.59713, 43.20373], [27.5942, 43.20421], [27.59484, 43.20109], [27.59254, 43.20111], [27.59105, 43.20826], [27.58968, 43.21881], [27.59143, 43.21449], [27.5919, 43.21379], [27.59712, 43.20925]], [[27.5971, 43.20664], [27.59581, 43.20564], [27.59657, 43.20512], [27.59786, 43.20611], [27.5971, 43.20664]], [[27.59599, 43.20815], [27.59543, 43.20792], [27.59529, 43.20752], [27.59563, 43.20701], [27.59624, 43.20687], [27.59679, 43.20706], [27.59698, 43.20751], [27.59667, 43.20803], [27.59599, 43.20815]]], [[[27.60084, 43.20767], [27.60068, 43.20997], [27.601, 43.21014], [27.60121, 43.2099], [27.60145, 43.21004], [27.60168, 43.20977], [27.60118, 43.20952], [27.60084, 43.20767]]], [[[27.59974, 43.20796], [27.59928, 43.20805], [27.598, 43.20952], [27.59731, 43.20979], [27.59392, 43.21282], [27.59491, 43.21345], [27.5941, 43.21445], [27.59566, 43.21364], [27.59669, 43.21389], [27.59692, 43.2145], [27.59634, 43.21484], [27.59616, 43.21461], [27.59629, 43.21407], [27.59559, 43.214], [27.59478, 43.21495], [27.59523, 43.21524], [27.59589, 43.21488], [27.59624, 43.21515], [27.59535, 43.21557], [27.59432, 43.21546], [27.59378, 43.21614], [27.59223, 43.21624], [27.59263, 43.21649], [27.59407, 43.21667], [27.59438, 43.21642], [27.59487, 43.21634], [27.59565, 43.21676], [27.59808, 43.21351], [27.59861, 43.21332], [27.59988, 43.21026], [27.59998, 43.20785], [27.59974, 43.20796]]], [[[27.60058, 43.21045], [27.60105, 43.21061], [27.60108, 43.21036], [27.60065, 43.21018], [27.60058, 43.21045]]], [[[27.60033, 43.21126], [27.60065, 43.21086], [27.60049, 43.21076], [27.60038, 43.21112], [27.60033, 43.21126]]], [[[27.59398, 43.21472], [27.59404, 43.2145], [27.5938, 43.2147], [27.59398, 43.21472]]], [[[27.59721, 43.21578], [27.59727, 43.21568], [27.59709, 43.21602], [27.59721, 43.21578]]], [[[27.59905, 43.21419], [27.59885, 43.21445], [27.5992, 43.21476], [27.59919, 43.21513], [27.59876, 43.2155], [27.59789, 43.21731], [27.5963, 43.21949], [27.5973, 43.22021], [27.60197, 43.21795], [27.60196, 43.21696], [27.60092, 43.21679], [27.60048, 43.21629], [27.59951, 43.21585], [27.60079, 43.21497], [27.59972, 43.21419], [27.60081, 43.21348], [27.60193, 43.21425], [27.60192, 43.21264], [27.60014, 43.21304], [27.59905, 43.21419]], [[27.60045, 43.21758], [27.59996, 43.21805], [27.59925, 43.21807], [27.59866, 43.21757], [27.59883, 43.21701], [27.59867, 43.21687], [27.59952, 43.21635], [27.60067, 43.2173], [27.60045, 43.21758]]], [[[27.59642, 43.21707], [27.59659, 43.21683], [27.59635, 43.21705], [27.59642, 43.21707]]], [[[27.59503, 43.21761], [27.59516, 43.21752], [27.59481, 43.21761], [27.59433, 43.2174], [27.59404, 43.21752], [27.59464, 43.21801], [27.59503, 43.21761]]], [[[27.59516, 43.21886], [27.59537, 43.21857], [27.59508, 43.21845], [27.59489, 43.21858], [27.59516, 43.21886]]], [[[27.59925, 43.22003], [27.59774, 43.22065], [27.5979, 43.22143], [27.59841, 43.22163], [27.59855, 43.22312], [27.59888, 43.22363], [27.5987, 43.22406], [27.59755, 43.22469], [27.59558, 43.22424], [27.59528, 43.22481], [27.59472, 43.22501], [27.59589, 43.2268], [27.60251, 43.22701], [27.60636, 43.21904], [27.60352, 43.21906], [27.60277, 43.21925], [27.60198, 43.21907], [27.60197, 43.21861], [27.59925, 43.22003]]], [[[27.60994, 43.22043], [27.6118, 43.22008], [27.61356, 43.219], [27.6079, 43.21903], [27.6084, 43.21993], [27.60994, 43.22043]]], [[[27.59337, 43.22118], [27.59337, 43.22141], [27.59362, 43.22105], [27.59339, 43.22102], [27.59337, 43.22118]]], [[[27.61413, 43.22244], [27.61325, 43.22366], [27.61434, 43.22378], [27.61433, 43.22252], [27.61413, 43.22244]]], [[[27.61108, 43.22533], [27.60653, 43.2254], [27.60891, 43.22039], [27.60782, 43.22001], [27.60733, 43.21947], [27.60695, 43.21946], [27.60338, 43.22703], [27.61189, 43.22697], [27.61147, 43.22607], [27.61193, 43.22531], [27.61108, 43.22533]]], [[[27.6124, 43.22696], [27.61331, 43.22674], [27.61436, 43.22569], [27.61434, 43.2239], [27.61346, 43.22377], [27.61317, 43.22389], [27.61167, 43.22602], [27.6124, 43.22696]]], [[[27.59194, 43.22457], [27.59144, 43.22565], [27.59167, 43.22672], [27.59496, 43.22679], [27.59399, 43.22513], [27.59277, 43.22569], [27.59205, 43.22554], [27.59238, 43.22484], [27.59194, 43.22457]]], [[[27.61437, 43.22673], [27.61405, 43.22696], [27.61437, 43.22698], [27.61437, 43.22673]]], [[[27.59482, 43.22732], [27.59212, 43.22731], [27.59228, 43.22747], [27.60036, 43.22805], [27.6011, 43.22775], [27.6016, 43.2279], [27.60207, 43.22833], [27.60207, 43.22807], [27.60989, 43.22803], [27.61004, 43.22755], [27.60535, 43.22761], [27.59482, 43.22732]]], [[[27.61271, 43.22749], [27.61096, 43.22753], [27.61076, 43.22802], [27.61438, 43.228], [27.61438, 43.22752], [27.61271, 43.22749]]], [[[27.60133, 43.22914], [27.60059, 43.22914], [27.60014, 43.2287], [27.59921, 43.22857], [27.59376, 43.2282], [27.59514, 43.22855], [27.5959, 43.22899], [27.6021, 43.23132], [27.60208, 43.22903], [27.60162, 43.22895], [27.60133, 43.22914]]], [[[27.59565, 43.22968], [27.59548, 43.22976], [27.59586, 43.23018], [27.59899, 43.23269], [27.59712, 43.23688], [27.59733, 43.23731], [27.59692, 43.23829], [27.59634, 43.23862], [27.59619, 43.23897], [27.5957, 43.23905], [27.59509, 43.23952], [27.59573, 43.23999], [27.59711, 43.24028], [27.60221, 43.24215], [27.60219, 43.24028], [27.60051, 43.23966], [27.60136, 43.23761], [27.60128, 43.23655], [27.60085, 43.23565], [27.60145, 43.23388], [27.60214, 43.23507], [27.60211, 43.23199], [27.5958, 43.22955], [27.59565, 43.22968]]]]}, "properties": {"kind": "pv", "area_km2": 8.34, "mw": 417.2}}, {"type": "Feature", "geometry": {"type": "Point", "coordinates": [27.55968, 43.23162]}, "properties": {"kind": "turbine", "i": 0, "mw": 6.0, "hub_m": 120.0, "rotor_m": 150.0}}]}