{"type": "FeatureCollection", "features": [{"type": "Feature", "geometry": {"type": "MultiPolygon", "coordinates": [[[[-94.35944, 41.09268], [-94.35935, 41.07679], [-94.36077, 41.07502], [-94.36229, 41.07436], [-94.36342, 41.07605], [-94.36651, 41.07705], [-94.36722, 41.07764], [-94.36819, 41.07938], [-94.36773, 41.08041], [-94.36777, 41.08183], [-94.36878, 41.08335], [-94.37021, 41.0842], [-94.37333, 41.08495], [-94.37335, 41.08899], [-94.36581, 41.0918], [-94.35944, 41.09268]]], [[[-94.37996, 41.08373], [-94.37913, 41.08374], [-94.37962, 41.08309], [-94.38164, 41.08203], [-94.37996, 41.08373]]], [[[-94.35091, 41.07433], [-94.35138, 41.07402], [-94.35157, 41.07508], [-94.35231, 41.07583], [-94.35424, 41.07626], [-94.35431, 41.08357], [-94.33964, 41.0836], [-94.33973, 41.07289], [-94.34649, 41.0729], [-94.34852, 41.07454], [-94.34975, 41.07466], [-94.35091, 41.07433]]], [[[-94.33265, 41.06016], [-94.33351, 41.0602], [-94.33465, 41.06263], [-94.33463, 41.069], [-94.32828, 41.06901], [-94.33018, 41.06296], [-94.33203, 41.06011], [-94.33265, 41.06016]]], [[[-94.33974, 41.06471], [-94.33974, 41.06404], [-94.34094, 41.06385], [-94.34216, 41.06446], [-94.34422, 41.06472], [-94.3442, 41.06904], [-94.33974, 41.06903], [-94.33974, 41.06471]]], [[[-94.33967, 41.08792], [-94.33967, 41.08746], [-94.35432, 41.08744], [-94.35434, 41.09273], [-94.34637, 41.0913], [-94.34134, 41.08934], [-94.33968, 41.08844], [-94.33967, 41.08792]]], [[[-94.33211, 41.07287], [-94.33462, 41.07286], [-94.33454, 41.08359], [-94.33344, 41.08359], [-94.33176, 41.08159], [-94.32879, 41.07559], [-94.32828, 41.07287], [-94.33211, 41.07287]]]]}, "properties": {"kind": "windland", "area_km2": 4.43}}, {"type": "Feature", "geometry": {"type": "MultiPolygon", "coordinates": [[[[-94.36661, 41.0623], [-94.36782, 41.06228], [-94.36782, 41.06232], [-94.36661, 41.0623]]], [[[-94.36467, 41.06239], [-94.36467, 41.063], [-94.36422, 41.063], [-94.36421, 41.06238], [-94.36467, 41.06239]]], [[[-94.36589, 41.06239], [-94.36588, 41.063], [-94.36538, 41.06299], [-94.36539, 41.06238], [-94.36589, 41.06239]]], [[[-94.36679, 41.06322], [-94.3666, 41.06322], [-94.3666, 41.06284], [-94.3678, 41.06286], [-94.3678, 41.06324], [-94.36679, 41.06322]]], [[[-94.36424, 41.06407], [-94.36423, 41.06354], [-94.36466, 41.06354], [-94.36465, 41.06408], [-94.36424, 41.06407]]], [[[-94.36536, 41.06409], [-94.36537, 41.06353], [-94.36588, 41.06354], [-94.36588, 41.0641], [-94.36536, 41.06409]]], [[[-94.3672, 41.06375], [-94.3678, 41.06374], [-94.36781, 41.06412], [-94.36659, 41.0641], [-94.3666, 41.06376], [-94.3672, 41.06375]]], [[[-94.36466, 41.06462], [-94.36467, 41.06584], [-94.36431, 41.06584], [-94.36424, 41.06461], [-94.36466, 41.06462]]], [[[-94.36539, 41.06471], [-94.3659, 41.06464], [-94.36591, 41.06586], [-94.36539, 41.06585], [-94.36539, 41.06471]]], [[[-94.36784, 41.06588], [-94.36662, 41.06586], [-94.36661, 41.06464], [-94.36783, 41.06467], [-94.36784, 41.06588]]], [[[-94.36467, 41.06736], [-94.36466, 41.06768], [-94.36433, 41.06768], [-94.36432, 41.06638], [-94.36467, 41.06638], [-94.36467, 41.06736]]], [[[-94.36561, 41.06769], [-94.36538, 41.06769], [-94.36539, 41.06639], [-94.36591, 41.0664], [-94.36592, 41.06769], [-94.36561, 41.06769]]], [[[-94.36711, 41.06769], [-94.36663, 41.06769], [-94.36662, 41.0664], [-94.36784, 41.06642], [-94.36786, 41.06771], [-94.36711, 41.06769]]], [[[-94.36445, 41.06822], [-94.36466, 41.06822], [-94.36466, 41.06866], [-94.36423, 41.06865], [-94.36422, 41.06822], [-94.36445, 41.06822]]], [[[-94.36569, 41.06823], [-94.36593, 41.06823], [-94.36592, 41.06868], [-94.36537, 41.06867], [-94.36537, 41.06823], [-94.36569, 41.06823]]], [[[-94.36664, 41.06823], [-94.36786, 41.06825], [-94.36786, 41.06871], [-94.36664, 41.06869], [-94.36664, 41.06823]]], [[[-94.36453, 41.06919], [-94.36467, 41.06964], [-94.36423, 41.06964], [-94.36423, 41.06919], [-94.36453, 41.06919]]], [[[-94.36592, 41.06967], [-94.36538, 41.06966], [-94.36538, 41.06921], [-94.36592, 41.06922], [-94.36592, 41.06967]]], [[[-94.36726, 41.06924], [-94.36786, 41.06925], [-94.36786, 41.0697], [-94.36663, 41.06967], [-94.36663, 41.06923], [-94.36726, 41.06924]]], [[[-94.36592, 41.07021], [-94.36593, 41.07077], [-94.36539, 41.07077], [-94.36539, 41.0702], [-94.36592, 41.07021]]], [[[-94.36667, 41.07021], [-94.36787, 41.07024], [-94.36787, 41.07077], [-94.36664, 41.07078], [-94.36667, 41.07021]]], [[[-94.36504, 41.07131], [-94.36587, 41.07131], [-94.36424, 41.07133], [-94.36504, 41.07131]]], [[[-94.35992, 41.06297], [-94.35943, 41.06296], [-94.35942, 41.06238], [-94.35992, 41.06238], [-94.35992, 41.06297]]], [[[-94.36063, 41.06298], [-94.36063, 41.06237], [-94.36114, 41.06238], [-94.36114, 41.06298], [-94.36063, 41.06298]]], [[[-94.36211, 41.06238], [-94.36235, 41.06238], [-94.36236, 41.06299], [-94.36185, 41.06298], [-94.36185, 41.06238], [-94.36211, 41.06238]]], [[[-94.36349, 41.06238], [-94.3635, 41.06299], [-94.36307, 41.06299], [-94.36307, 41.06238], [-94.36349, 41.06238]]], [[[-94.35991, 41.06486], [-94.35991, 41.06504], [-94.35943, 41.06504], [-94.35943, 41.06351], [-94.35991, 41.06351], [-94.35991, 41.06486]]], [[[-94.36114, 41.06504], [-94.36063, 41.06504], [-94.36063, 41.06352], [-94.36114, 41.06352], [-94.36114, 41.06504]]], [[[-94.36308, 41.06353], [-94.36352, 41.06354], [-94.36351, 41.06533], [-94.36308, 41.06534], [-94.36308, 41.06353]]], [[[-94.36185, 41.06531], [-94.36185, 41.06352], [-94.36236, 41.06353], [-94.36237, 41.06543], [-94.36185, 41.06531]]], [[[-94.35944, 41.06586], [-94.35943, 41.06558], [-94.35991, 41.06558], [-94.35992, 41.06586], [-94.35944, 41.06586]]], [[[-94.36113, 41.06585], [-94.36063, 41.06585], [-94.36063, 41.06558], [-94.36113, 41.06558], [-94.36113, 41.06585]]], [[[-94.35992, 41.06667], [-94.35944, 41.06667], [-94.35944, 41.0664], [-94.35992, 41.0664], [-94.35992, 41.06667]]], [[[-94.36153, 41.06762], [-94.36064, 41.0676], [-94.36063, 41.0664], [-94.36145, 41.06654], [-94.36176, 41.06641], [-94.36235, 41.0669], [-94.36246, 41.06765], [-94.36153, 41.06762]]], [[[-94.36207, 41.06819], [-94.36236, 41.06819], [-94.36236, 41.06861], [-94.36188, 41.06859], [-94.36188, 41.06818], [-94.36207, 41.06819]]], [[[-94.36307, 41.06863], [-94.36307, 41.0682], [-94.3635, 41.06821], [-94.36351, 41.06864], [-94.36307, 41.06863]]], [[[-94.36117, 41.06885], [-94.36116, 41.06956], [-94.36063, 41.06956], [-94.36064, 41.06814], [-94.36117, 41.06816], [-94.36117, 41.06885]]], [[[-94.36208, 41.06914], [-94.36236, 41.06915], [-94.36236, 41.06958], [-94.36188, 41.06957], [-94.36188, 41.06914], [-94.36208, 41.06914]]], [[[-94.36307, 41.0696], [-94.36307, 41.06917], [-94.36352, 41.06918], [-94.36352, 41.06962], [-94.36307, 41.0696]]], [[[-94.36063, 41.07019], [-94.36118, 41.0701], [-94.3612, 41.07076], [-94.36062, 41.07077], [-94.36063, 41.07019]]], [[[-94.36235, 41.07052], [-94.36234, 41.07075], [-94.36191, 41.07075], [-94.3619, 41.07011], [-94.36235, 41.07012], [-94.36235, 41.07052]]], [[[-94.36307, 41.07014], [-94.36352, 41.07016], [-94.36352, 41.07076], [-94.36306, 41.07076], [-94.36307, 41.07014]]], [[[-94.36424, 41.07077], [-94.36423, 41.07018], [-94.36467, 41.07019], [-94.36468, 41.07077], [-94.36424, 41.07077]]], [[[-94.36156, 41.0713], [-94.36352, 41.0713], [-94.36352, 41.07134], [-94.35997, 41.07138], [-94.36156, 41.0713]]], [[[-94.35635, 41.06242], [-94.35639, 41.06242], [-94.35639, 41.06295], [-94.35636, 41.06295], [-94.35635, 41.06242]]], [[[-94.35755, 41.0624], [-94.35756, 41.06295], [-94.3571, 41.06295], [-94.3571, 41.06241], [-94.35755, 41.0624]]], [[[-94.35871, 41.06239], [-94.35871, 41.06296], [-94.35827, 41.06295], [-94.35827, 41.0624], [-94.35871, 41.06239]]], [[[-94.3564, 41.06369], [-94.3564, 41.06464], [-94.35637, 41.06349], [-94.3564, 41.06369]]], [[[-94.35755, 41.06504], [-94.35711, 41.06504], [-94.35711, 41.06349], [-94.35756, 41.06349], [-94.35755, 41.06504]]], [[[-94.35872, 41.06504], [-94.35827, 41.06504], [-94.35828, 41.06349], [-94.35871, 41.0635], [-94.35872, 41.06504]]], [[[-94.35756, 41.06558], [-94.35756, 41.06586], [-94.35711, 41.06586], [-94.35711, 41.06558], [-94.35756, 41.06558]]], [[[-94.35827, 41.06558], [-94.35872, 41.06558], [-94.35872, 41.06586], [-94.35827, 41.06586], [-94.35827, 41.06558]]], [[[-94.35711, 41.06668], [-94.35711, 41.0664], [-94.35755, 41.0664], [-94.35755, 41.06667], [-94.35711, 41.06668]]], [[[-94.35851, 41.0664], [-94.35873, 41.0664], [-94.35873, 41.06667], [-94.35827, 41.06667], [-94.35827, 41.0664], [-94.35851, 41.0664]]], [[[-94.35755, 41.06722], [-94.35755, 41.06755], [-94.35711, 41.06755], [-94.35711, 41.06722], [-94.35755, 41.06722]]], [[[-94.35826, 41.06721], [-94.35874, 41.06721], [-94.35873, 41.06757], [-94.35827, 41.06756], [-94.35826, 41.06721]]], [[[-94.35993, 41.0674], [-94.35993, 41.06759], [-94.35944, 41.06758], [-94.35945, 41.06721], [-94.35993, 41.06721], [-94.35993, 41.0674]]], [[[-94.35711, 41.06809], [-94.35755, 41.06809], [-94.35755, 41.06851], [-94.35711, 41.06851], [-94.35711, 41.06809]]], [[[-94.35872, 41.06853], [-94.35827, 41.06852], [-94.35827, 41.0681], [-94.35872, 41.06811], [-94.35872, 41.06853]]], [[[-94.35992, 41.06855], [-94.35943, 41.06854], [-94.35944, 41.06812], [-94.35992, 41.06813], [-94.35992, 41.06855]]], [[[-94.35711, 41.06905], [-94.35755, 41.06905], [-94.35755, 41.06951], [-94.35711, 41.0695], [-94.35711, 41.06905]]], [[[-94.35872, 41.06953], [-94.35826, 41.06952], [-94.35827, 41.06907], [-94.35872, 41.06907], [-94.35872, 41.06953]]], [[[-94.35991, 41.06955], [-94.35943, 41.06954], [-94.35943, 41.06908], [-94.35991, 41.06909], [-94.35991, 41.06955]]], [[[-94.3571, 41.07004], [-94.35755, 41.07005], [-94.35754, 41.07064], [-94.3571, 41.07067], [-94.3571, 41.07004]]], [[[-94.35871, 41.07007], [-94.35871, 41.07075], [-94.3583, 41.07077], [-94.35826, 41.07007], [-94.35871, 41.07007]]], [[[-94.35992, 41.07009], [-94.35991, 41.07077], [-94.35942, 41.07075], [-94.35943, 41.07008], [-94.35992, 41.07009]]]]}, "properties": {"kind": "pv", "area_km2": 0.23, "mw": 11.6}}, {"type": "Feature", "geometry": {"type": "Point", "coordinates": [-94.34823, 41.07451]}, "properties": {"kind": "turbine", "i": 0, "mw": 6.0, "hub_m": 120.0, "rotor_m": 150.0}}, {"type": "Feature", "geometry": {"type": "Point", "coordinates": [-94.36568, 41.07759]}, "properties": {"kind": "turbine", "i": 1, "mw": 6.0, "hub_m": 120.0, "rotor_m": 150.0}}, {"type": "Feature", "geometry": {"type": "Point", "coordinates": [-94.34368, 41.06469]}, "properties": {"kind": "turbine", "i": 2, "mw": 6.0, "hub_m": 120.0, "rotor_m": 150.0}}, {"type": "Feature", "geometry": {"type": "Point", "coordinates": [-94.35284, 41.08761]}, "properties": {"kind": "turbine", "i": 3, "mw": 6.0, "hub_m": 120.0, "rotor_m": 150.0}}]}