{"type": "FeatureCollection", "features": [{"type": "Feature", "geometry": {"type": "MultiPolygon", "coordinates": [[[[-94.3594, 41.08278], [-94.35935, 41.07679], [-94.36077, 41.07502], [-94.36229, 41.07436], [-94.36361, 41.07617], [-94.36658, 41.0771], [-94.36819, 41.07938], [-94.36772, 41.08042], [-94.36497, 41.08188], [-94.36046, 41.08316], [-94.35941, 41.08329], [-94.3594, 41.08278]]], [[[-94.35091, 41.07433], [-94.35138, 41.07402], [-94.35157, 41.07508], [-94.35231, 41.07583], [-94.35424, 41.07626], [-94.3543, 41.08326], [-94.34948, 41.08206], [-94.34556, 41.07993], [-94.34262, 41.07703], [-94.34077, 41.07289], [-94.34649, 41.0729], [-94.34852, 41.07454], [-94.34975, 41.07466], [-94.35091, 41.07433]]], [[[-94.34319, 41.06457], [-94.34422, 41.06472], [-94.3442, 41.06904], [-94.34078, 41.06903], [-94.34172, 41.06642], [-94.34319, 41.06457]]]]}, "properties": {"kind": "windland", "area_km2": 1.38}}, {"type": "Feature", "geometry": {"type": "Point", "coordinates": [-94.34823, 41.07451]}, "properties": {"kind": "turbine", "i": 0, "mw": 6.0, "hub_m": 120.0, "rotor_m": 150.0}}]}