{"type": "FeatureCollection", "features": [{"type": "Feature", "geometry": {"type": "MultiPolygon", "coordinates": [[[[-94.35943, 41.08756], [-94.35935, 41.07679], [-94.36077, 41.07502], [-94.36229, 41.07436], [-94.36342, 41.07605], [-94.36651, 41.07705], [-94.36722, 41.07764], [-94.36819, 41.07938], [-94.36767, 41.08075], [-94.36789, 41.08216], [-94.36878, 41.08335], [-94.37055, 41.08431], [-94.36583, 41.08644], [-94.36168, 41.08745], [-94.35943, 41.08756]]], [[[-94.35091, 41.07433], [-94.35138, 41.07402], [-94.35157, 41.07508], [-94.35231, 41.07583], [-94.35424, 41.07626], [-94.35431, 41.08357], [-94.34231, 41.0836], [-94.33966, 41.0815], [-94.33973, 41.07289], [-94.34649, 41.0729], [-94.34852, 41.07454], [-94.34975, 41.07466], [-94.35091, 41.07433]]], [[[-94.33974, 41.06471], [-94.33974, 41.06404], [-94.34094, 41.06385], [-94.34216, 41.06446], [-94.34422, 41.06472], [-94.3442, 41.06904], [-94.33974, 41.06903], [-94.33974, 41.06471]]], [[[-94.35432, 41.08744], [-94.35432, 41.08768], [-94.35237, 41.08744], [-94.35432, 41.08744]]]]}, "properties": {"kind": "windland", "area_km2": 2.37}}, {"type": "Feature", "geometry": {"type": "Point", "coordinates": [-94.34823, 41.07451]}, "properties": {"kind": "turbine", "i": 0, "mw": 6.0, "hub_m": 120.0, "rotor_m": 150.0}}, {"type": "Feature", "geometry": {"type": "Point", "coordinates": [-94.36568, 41.07759]}, "properties": {"kind": "turbine", "i": 1, "mw": 6.0, "hub_m": 120.0, "rotor_m": 150.0}}, {"type": "Feature", "geometry": {"type": "Point", "coordinates": [-94.34368, 41.06469]}, "properties": {"kind": "turbine", "i": 2, "mw": 6.0, "hub_m": 120.0, "rotor_m": 150.0}}]}