{"type": "FeatureCollection", "features": [{"type": "Feature", "geometry": {"type": "MultiPolygon", "coordinates": [[[[13.57446, 50.54029], [13.57457, 50.54025], [13.57405, 50.54024], [13.57434, 50.54037], [13.57446, 50.54029]]], [[[13.5647, 50.54149], [13.56436, 50.54014], [13.56388, 50.54012], [13.56378, 50.54336], [13.56437, 50.5426], [13.5647, 50.54149]]], [[[13.57568, 50.54032], [13.57661, 50.5414], [13.57388, 50.5421], [13.57399, 50.5422], [13.57686, 50.54142], [13.57671, 50.54256], [13.57529, 50.54327], [13.57434, 50.54279], [13.57274, 50.54352], [13.57329, 50.54372], [13.5738, 50.54498], [13.57385, 50.54583], [13.57406, 50.54521], [13.57669, 50.54385], [13.57726, 50.54285], [13.57843, 50.54207], [13.57893, 50.54121], [13.57897, 50.54053], [13.5755, 50.54026], [13.57568, 50.54032]]], [[[13.56951, 50.54138], [13.56894, 50.5418], [13.56673, 50.54233], [13.56776, 50.54396], [13.56732, 50.544], [13.5664, 50.54247], [13.56592, 50.54276], [13.56521, 50.54366], [13.5652, 50.54482], [13.56559, 50.54565], [13.56699, 50.54675], [13.56836, 50.54718], [13.57026, 50.54734], [13.56929, 50.54649], [13.56737, 50.54408], [13.56782, 50.54407], [13.568, 50.54425], [13.56813, 50.54394], [13.56898, 50.54365], [13.56975, 50.54371], [13.56994, 50.54432], [13.56949, 50.54484], [13.57077, 50.54462], [13.57111, 50.54482], [13.57116, 50.54518], [13.57041, 50.5455], [13.56983, 50.54543], [13.56957, 50.54521], [13.56916, 50.54541], [13.57043, 50.54734], [13.57087, 50.54731], [13.57217, 50.54703], [13.57114, 50.54301], [13.57163, 50.54264], [13.57345, 50.54206], [13.57385, 50.54209], [13.57286, 50.54154], [13.57263, 50.54098], [13.57281, 50.54051], [13.57372, 50.54024], [13.5717, 50.54022], [13.57232, 50.54071], [13.57102, 50.54109], [13.57049, 50.54085], [13.56988, 50.54019], [13.56977, 50.54123], [13.56951, 50.54138]], [[13.56981, 50.54208], [13.57009, 50.54251], [13.56922, 50.54214], [13.56981, 50.54208]]], [[[13.55274, 50.549], [13.55242, 50.54897], [13.55244, 50.54911], [13.55249, 50.5491], [13.55274, 50.549]]], [[[13.55591, 50.55047], [13.55607, 50.55081], [13.55637, 50.55057], [13.55705, 50.55051], [13.55645, 50.54902], [13.55594, 50.54958], [13.55591, 50.55047]]], [[[13.55729, 50.55013], [13.55844, 50.55081], [13.5592, 50.55102], [13.5627, 50.5508], [13.56287, 50.55017], [13.56248, 50.5491], [13.55687, 50.54903], [13.55729, 50.55013]], [[13.55998, 50.55018], [13.55974, 50.55041], [13.55919, 50.55048], [13.55876, 50.54995], [13.55952, 50.54972], [13.55998, 50.55018]]], [[[13.56269, 50.55082], [13.56246, 50.55085], [13.56246, 50.55092], [13.56261, 50.55096], [13.56269, 50.55082]]], [[[13.55996, 50.55122], [13.55969, 50.55105], [13.55751, 50.55123], [13.55706, 50.55177], [13.55881, 50.5523], [13.56087, 50.5521], [13.56038, 50.55201], [13.55996, 50.55122]]], [[[13.55644, 50.55753], [13.55699, 50.55673], [13.55681, 50.55613], [13.55743, 50.55542], [13.55676, 50.5551], [13.55675, 50.55482], [13.55575, 50.5544], [13.55448, 50.55423], [13.55349, 50.55432], [13.55376, 50.55301], [13.55327, 50.5522], [13.55263, 50.55174], [13.54931, 50.55519], [13.54942, 50.55557], [13.5513, 50.55555], [13.55033, 50.55703], [13.55061, 50.55822], [13.55168, 50.55928], [13.55279, 50.55991], [13.55427, 50.56022], [13.55462, 50.55981], [13.55565, 50.55969], [13.55593, 50.55948], [13.55621, 50.55962], [13.55596, 50.56009], [13.55695, 50.55974], [13.55771, 50.55919], [13.55687, 50.55899], [13.55621, 50.55939], [13.55573, 50.55913], [13.55656, 50.55839], [13.55644, 50.55798], [13.55666, 50.55773], [13.55644, 50.55753]], [[13.55378, 50.55778], [13.55382, 50.55765], [13.55322, 50.55743], [13.55324, 50.5571], [13.55413, 50.55616], [13.55459, 50.55607], [13.55489, 50.55629], [13.55492, 50.5569], [13.55544, 50.55697], [13.55567, 50.55724], [13.55548, 50.558], [13.55512, 50.55832], [13.55451, 50.55839], [13.55395, 50.55815], [13.55378, 50.55778]]], [[[13.57249, 50.55638], [13.57314, 50.55604], [13.57262, 50.55491], [13.57292, 50.5542], [13.57153, 50.55445], [13.5712, 50.55344], [13.5703, 50.55263], [13.56918, 50.55221], [13.56821, 50.55207], [13.56679, 50.5522], [13.56577, 50.55257], [13.56487, 50.55322], [13.56439, 50.55405], [13.56441, 50.55488], [13.56476, 50.55546], [13.56552, 50.55608], [13.56694, 50.55665], [13.56831, 50.55676], [13.56953, 50.55657], [13.56629, 50.55951], [13.56435, 50.56058], [13.56374, 50.56176], [13.56306, 50.56173], [13.5621, 50.56207], [13.56182, 50.56175], [13.56285, 50.56164], [13.5624, 50.56148], [13.5617, 50.56175], [13.56096, 50.56159], [13.56091, 50.56116], [13.55885, 50.56118], [13.55951, 50.56215], [13.5589, 50.56174], [13.55862, 50.56121], [13.55842, 50.56124], [13.55688, 50.56168], [13.55435, 50.56305], [13.55177, 50.56395], [13.55059, 50.56318], [13.54907, 50.56284], [13.54904, 50.56391], [13.5495, 50.56523], [13.54896, 50.56635], [13.5489, 50.56854], [13.55092, 50.56934], [13.55087, 50.569], [13.55013, 50.56875], [13.55032, 50.56841], [13.55072, 50.56841], [13.55113, 50.56871], [13.55175, 50.5685], [13.55259, 50.56875], [13.55338, 50.56858], [13.55367, 50.56828], [13.55288, 50.56772], [13.55304, 50.56717], [13.5546, 50.56629], [13.55523, 50.56625], [13.55615, 50.56577], [13.55685, 50.56573], [13.55792, 50.56496], [13.5588, 50.5648], [13.55955, 50.56412], [13.56043, 50.56416], [13.56083, 50.56473], [13.56134, 50.56409], [13.5621, 50.56378], [13.57141, 50.56234], [13.5723, 50.56129], [13.57234, 50.56047], [13.57168, 50.56059], [13.57188, 50.56102], [13.57091, 50.56175], [13.56913, 50.56208], [13.56838, 50.56198], [13.56724, 50.56218], [13.56676, 50.56205], [13.56662, 50.56179], [13.56876, 50.56049], [13.57221, 50.55739], [13.57253, 50.55689], [13.57249, 50.55638]], [[13.56845, 50.55485], [13.56791, 50.55492], [13.56727, 50.55456], [13.56729, 50.55424], [13.56772, 50.55394], [13.56816, 50.55392], [13.56853, 50.55412], [13.56845, 50.55485]], [[13.56566, 50.5546], [13.56574, 50.55437], [13.56699, 50.55662], [13.56619, 50.55598], [13.56531, 50.55572], [13.56573, 50.55538], [13.56566, 50.5546]], [[13.55849, 50.56195], [13.55839, 50.56178], [13.55863, 50.56173], [13.5588, 50.56187], [13.55849, 50.56195]], [[13.55816, 50.56219], [13.55823, 50.56241], [13.55772, 50.56248], [13.55731, 50.56192], [13.55806, 50.56184], [13.55816, 50.56219]], [[13.55791, 50.56258], [13.55837, 50.56256], [13.55873, 50.56284], [13.55786, 50.56309], [13.55766, 50.56278], [13.55791, 50.56258]]], [[[13.55743, 50.55598], [13.55765, 50.55576], [13.55706, 50.55588], [13.55727, 50.55605], [13.55743, 50.55598]]], [[[13.57395, 50.55617], [13.57407, 50.55607], [13.57378, 50.55613], [13.57395, 50.55617]]], [[[13.55778, 50.55592], [13.55776, 50.55585], [13.55739, 50.55609], [13.55764, 50.55609], [13.55778, 50.55592]]], [[[13.55703, 50.55698], [13.55662, 50.55744], [13.55659, 50.55767], [13.55725, 50.55713], [13.55717, 50.55691], [13.55703, 50.55698]]], [[[13.55709, 50.5575], [13.55722, 50.55728], [13.55672, 50.55769], [13.55708, 50.55757], [13.55709, 50.5575]]], [[[13.57515, 50.55773], [13.57467, 50.55805], [13.57514, 50.5583], [13.57606, 50.55763], [13.57515, 50.55773]]], [[[13.57285, 50.55949], [13.57301, 50.55985], [13.57393, 50.55918], [13.57338, 50.55871], [13.57285, 50.55949]]], [[[13.56361, 50.56458], [13.56423, 50.56438], [13.56547, 50.56439], [13.56964, 50.56384], [13.57028, 50.56352], [13.57107, 50.56367], [13.57149, 50.56345], [13.57242, 50.56348], [13.57307, 50.56276], [13.57326, 50.56166], [13.57452, 50.56067], [13.57461, 50.56026], [13.5735, 50.56105], [13.57253, 50.56233], [13.57186, 50.5628], [13.56241, 50.56428], [13.56201, 50.56442], [13.56163, 50.56505], [13.56225, 50.56494], [13.56274, 50.56463], [13.56361, 50.56458]]], [[[13.57329, 50.56474], [13.57237, 50.565], [13.57193, 50.56493], [13.57172, 50.56456], [13.57137, 50.56451], [13.56903, 50.56466], [13.57031, 50.5654], [13.57275, 50.56565], [13.57453, 50.56517], [13.57329, 50.56474]]], [[[13.56155, 50.56525], [13.56147, 50.56519], [13.56148, 50.56526], [13.56155, 50.56525]]], [[[13.56159, 50.56653], [13.56095, 50.56629], [13.56077, 50.56587], [13.56002, 50.56578], [13.55968, 50.56652], [13.55888, 50.56671], [13.55823, 50.56726], [13.55879, 50.56756], [13.55881, 50.56802], [13.55897, 50.56786], [13.56071, 50.56764], [13.56205, 50.5665], [13.56159, 50.56653]]], [[[13.55702, 50.56867], [13.55648, 50.56855], [13.55645, 50.5692], [13.55709, 50.56953], [13.55776, 50.56905], [13.55702, 50.56867]]], [[[13.55465, 50.57108], [13.55404, 50.57129], [13.55381, 50.57156], [13.55486, 50.57116], [13.55465, 50.57108]]], [[[13.55368, 50.57163], [13.5534, 50.57176], [13.55338, 50.57181], [13.55368, 50.57163]]], [[[13.55154, 50.57307], [13.55079, 50.57345], [13.55, 50.57338], [13.54953, 50.57411], [13.5495, 50.57435], [13.5501, 50.57483], [13.54996, 50.57526], [13.55023, 50.57578], [13.55067, 50.57603], [13.55088, 50.57657], [13.55045, 50.57701], [13.54923, 50.57714], [13.54913, 50.57754], [13.54861, 50.5778], [13.54848, 50.582], [13.55075, 50.58136], [13.55075, 50.58043], [13.55411, 50.57888], [13.55504, 50.57798], [13.55547, 50.577], [13.55643, 50.57705], [13.55364, 50.57566], [13.55171, 50.57301], [13.55154, 50.57307]]], [[[13.55806, 50.57785], [13.55852, 50.57757], [13.55904, 50.57774], [13.55944, 50.5776], [13.56143, 50.57765], [13.5618, 50.57791], [13.56271, 50.57802], [13.56424, 50.57912], [13.5651, 50.57913], [13.56276, 50.5775], [13.56223, 50.57739], [13.55762, 50.57712], [13.5574, 50.57748], [13.55806, 50.57785]]], [[[13.56022, 50.57985], [13.55998, 50.57975], [13.55928, 50.5799], [13.55886, 50.57958], [13.5594, 50.57932], [13.55874, 50.57907], [13.55765, 50.57907], [13.55845, 50.57984], [13.55559, 50.58064], [13.55482, 50.5811], [13.55513, 50.58128], [13.55447, 50.58138], [13.55376, 50.58226], [13.55615, 50.58138], [13.55655, 50.5819], [13.55673, 50.58186], [13.55628, 50.58133], [13.55732, 50.58122], [13.55758, 50.58179], [13.55868, 50.58233], [13.55892, 50.58226], [13.55831, 50.58165], [13.55971, 50.58125], [13.55997, 50.58065], [13.56406, 50.582], [13.5652, 50.58145], [13.56391, 50.58173], [13.56024, 50.58053], [13.56022, 50.57985]]], [[[13.565, 50.58131], [13.56487, 50.58088], [13.56492, 50.58124], [13.565, 50.58131]]], [[[13.56543, 50.58154], [13.56481, 50.58188], [13.56585, 50.58179], [13.56582, 50.58239], [13.56618, 50.58281], [13.56719, 50.58303], [13.5686, 50.58292], [13.56909, 50.58241], [13.56906, 50.58167], [13.56799, 50.58168], [13.56711, 50.58131], [13.56543, 50.58154]]], [[[13.55064, 50.58231], [13.55019, 50.58236], [13.55027, 50.58208], [13.55003, 50.58191], [13.54967, 50.582], [13.54939, 50.58186], [13.54957, 50.58227], [13.54847, 50.58249], [13.54845, 50.58295], [13.55097, 50.58257], [13.55092, 50.58225], [13.55064, 50.58231]]], [[[13.56729, 50.58332], [13.56729, 50.58345], [13.56918, 50.58366], [13.56819, 50.58333], [13.56729, 50.58332]]], [[[13.56995, 50.58392], [13.56995, 50.58392], [13.56995, 50.58392], [13.56995, 50.58392]]], [[[13.57404, 50.58448], [13.57403, 50.58449], [13.57404, 50.58449], [13.57404, 50.58448]]], [[[13.55825, 50.58462], [13.55845, 50.58455], [13.55844, 50.58449], [13.55822, 50.58452], [13.55825, 50.58462]]], [[[13.5653, 50.58498], [13.56529, 50.58492], [13.56529, 50.58485], [13.56516, 50.5849], [13.5653, 50.58498]]], [[[13.55785, 50.585], [13.55797, 50.58484], [13.55728, 50.58501], [13.55784, 50.58501], [13.55785, 50.585]]], [[[13.57202, 50.58652], [13.5702, 50.58626], [13.56978, 50.58661], [13.56842, 50.58687], [13.56646, 50.58647], [13.56581, 50.58653], [13.5655, 50.58684], [13.56725, 50.58835], [13.56806, 50.58843], [13.56851, 50.58871], [13.57032, 50.58894], [13.57279, 50.59013], [13.5739, 50.5903], [13.57458, 50.5907], [13.57536, 50.59073], [13.57525, 50.58971], [13.57581, 50.58919], [13.57522, 50.58806], [13.57395, 50.58767], [13.57359, 50.58722], [13.57205, 50.58676], [13.57202, 50.58652]]], [[[13.56779, 50.59378], [13.56786, 50.59376], [13.56773, 50.59374], [13.56779, 50.59378]]], [[[13.57831, 50.53171], [13.57832, 50.53171], [13.57826, 50.5314], [13.57825, 50.53169], [13.57831, 50.53171]]], [[[13.5782, 50.53343], [13.57912, 50.53388], [13.57821, 50.53302], [13.5782, 50.53343]]], [[[13.58063, 50.53528], [13.57993, 50.53462], [13.57949, 50.53422], [13.58043, 50.53531], [13.58131, 50.53591], [13.58063, 50.53528]]], [[[13.58296, 50.53571], [13.58321, 50.53517], [13.58202, 50.53461], [13.58177, 50.53476], [13.58289, 50.53591], [13.58296, 50.53571]]], [[[13.58662, 50.53545], [13.58501, 50.53523], [13.58398, 50.53546], [13.58368, 50.53613], [13.58731, 50.53817], [13.58759, 50.53766], [13.58958, 50.53764], [13.5908, 50.53788], [13.59134, 50.53825], [13.59166, 50.53882], [13.59168, 50.53783], [13.59258, 50.53702], [13.58943, 50.53721], [13.58825, 50.53618], [13.58662, 50.53545]]], [[[13.58427, 50.53873], [13.58356, 50.53888], [13.58293, 50.53864], [13.5828, 50.53815], [13.58333, 50.53778], [13.58161, 50.53619], [13.58186, 50.53662], [13.58157, 50.5371], [13.58105, 50.53728], [13.58042, 50.53718], [13.57892, 50.53548], [13.57814, 50.53523], [13.57808, 50.53712], [13.58039, 50.53752], [13.58044, 50.53794], [13.5792, 50.53855], [13.57803, 50.53876], [13.57803, 50.53895], [13.57861, 50.53904], [13.57997, 50.53994], [13.58086, 50.53954], [13.58206, 50.53951], [13.58228, 50.53967], [13.58185, 50.54033], [13.58229, 50.54074], [13.58257, 50.54161], [13.58281, 50.5415], [13.58264, 50.54076], [13.58369, 50.54197], [13.58339, 50.5427], [13.58308, 50.54277], [13.58337, 50.54365], [13.58262, 50.54447], [13.58295, 50.54592], [13.5836, 50.54696], [13.58429, 50.54608], [13.58466, 50.54505], [13.58472, 50.54236], [13.58444, 50.54121], [13.58333, 50.53958], [13.58385, 50.53949], [13.58396, 50.54], [13.58484, 50.54097], [13.58542, 50.54092], [13.58619, 50.54173], [13.58652, 50.54402], [13.58645, 50.54486], [13.58601, 50.54516], [13.58588, 50.54643], [13.58615, 50.54696], [13.58584, 50.54747], [13.58639, 50.5477], [13.58653, 50.54712], [13.58685, 50.54722], [13.58758, 50.54708], [13.58743, 50.54666], [13.588, 50.54625], [13.58756, 50.54542], [13.58756, 50.54595], [13.58691, 50.54623], [13.58652, 50.54605], [13.58619, 50.5454], [13.5865, 50.54485], [13.58693, 50.54479], [13.58739, 50.54501], [13.58741, 50.5444], [13.58615, 50.54122], [13.58427, 50.53873]], [[13.58111, 50.53828], [13.58183, 50.53853], [13.5821, 50.53904], [13.58181, 50.53934], [13.58122, 50.5393], [13.58081, 50.53903], [13.58069, 50.53848], [13.58111, 50.53828]]], [[[13.58703, 50.53878], [13.58705, 50.53873], [13.58415, 50.53714], [13.58604, 50.53883], [13.58666, 50.53908], [13.58705, 50.53896], [13.58703, 50.53878]]], [[[13.58781, 50.54154], [13.5885, 50.54234], [13.58898, 50.54216], [13.5894, 50.54222], [13.58998, 50.54136], [13.58957, 50.54043], [13.5894, 50.54046], [13.58957, 50.54103], [13.58804, 50.54166], [13.58699, 50.54029], [13.58781, 50.54154]]], [[[13.57954, 50.54079], [13.58055, 50.54124], [13.58119, 50.54147], [13.58081, 50.54107], [13.57905, 50.54054], [13.57954, 50.54079]]], [[[13.5849, 50.54366], [13.58527, 50.54383], [13.58538, 50.54334], [13.5852, 50.54333], [13.5849, 50.54366]]], [[[13.58903, 50.54678], [13.58903, 50.54678], [13.58902, 50.54677], [13.58903, 50.54678], [13.58903, 50.54678]]], [[[13.58848, 50.5492], [13.58698, 50.54855], [13.58753, 50.54861], [13.58758, 50.54848], [13.587, 50.54806], [13.58608, 50.54789], [13.58443, 50.54706], [13.58371, 50.54708], [13.58375, 50.54754], [13.58454, 50.54724], [13.58794, 50.54943], [13.58059, 50.55251], [13.58039, 50.55197], [13.57997, 50.55196], [13.57947, 50.55222], [13.57923, 50.55207], [13.57877, 50.55293], [13.57821, 50.55331], [13.57832, 50.55384], [13.57874, 50.55393], [13.57765, 50.55474], [13.57801, 50.55475], [13.58103, 50.55244], [13.58546, 50.55049], [13.58867, 50.54942], [13.5887, 50.54919], [13.58848, 50.5492]]], [[[13.58862, 50.54972], [13.58823, 50.54993], [13.58844, 50.55012], [13.58856, 50.55003], [13.58862, 50.54972]]], [[[13.57735, 50.55291], [13.57714, 50.55353], [13.57714, 50.5542], [13.5777, 50.55384], [13.57785, 50.55313], [13.57814, 50.55291], [13.57735, 50.55291]]], [[[13.5813, 50.55479], [13.58145, 50.55477], [13.58148, 50.55401], [13.58141, 50.55403], [13.5813, 50.55479]]], [[[13.58715, 50.55542], [13.58783, 50.5549], [13.58695, 50.55465], [13.58608, 50.55538], [13.5831, 50.5561], [13.58301, 50.55635], [13.58715, 50.55542]]], [[[13.57943, 50.5556], [13.57948, 50.55575], [13.57965, 50.55566], [13.57943, 50.5556]]], [[[13.58803, 50.55567], [13.58749, 50.55593], [13.58785, 50.5559], [13.58819, 50.55617], [13.58803, 50.55567]]], [[[13.5794, 50.55639], [13.57923, 50.55613], [13.57754, 50.55643], [13.57706, 50.55611], [13.57655, 50.55628], [13.5769, 50.55687], [13.5767, 50.55722], [13.57959, 50.55651], [13.5794, 50.55639]]], [[[13.58696, 50.55807], [13.58653, 50.55784], [13.58609, 50.5571], [13.5862, 50.55674], [13.58666, 50.5565], [13.58651, 50.55621], [13.58119, 50.5573], [13.58441, 50.55677], [13.58533, 50.55693], [13.58574, 50.5572], [13.5866, 50.55857], [13.58695, 50.55997], [13.58727, 50.55979], [13.58795, 50.55978], [13.58864, 50.5603], [13.5896, 50.56149], [13.58971, 50.56212], [13.58925, 50.56252], [13.59015, 50.56257], [13.5901, 50.56622], [13.59307, 50.56803], [13.59338, 50.57025], [13.59438, 50.57173], [13.59364, 50.572], [13.59465, 50.57202], [13.59516, 50.5723], [13.59581, 50.57217], [13.59773, 50.57247], [13.59816, 50.57272], [13.59825, 50.57305], [13.59885, 50.57312], [13.60096, 50.57405], [13.60008, 50.57684], [13.60041, 50.57739], [13.59976, 50.57784], [13.59963, 50.57822], [13.60003, 50.5785], [13.60005, 50.5789], [13.59961, 50.57927], [13.59882, 50.57929], [13.59868, 50.57985], [13.59947, 50.58014], [13.60003, 50.58189], [13.59956, 50.58441], [13.5996, 50.58561], [13.60077, 50.58726], [13.59597, 50.58901], [13.59346, 50.58904], [13.58909, 50.58945], [13.58754, 50.58909], [13.5898, 50.59016], [13.58722, 50.58943], [13.58566, 50.58938], [13.58724, 50.59019], [13.5861, 50.59011], [13.58487, 50.58889], [13.58412, 50.58857], [13.58405, 50.5887], [13.5859, 50.59016], [13.58726, 50.59032], [13.58977, 50.59022], [13.59051, 50.59163], [13.59465, 50.59287], [13.59535, 50.5925], [13.59698, 50.59253], [13.59446, 50.59181], [13.59462, 50.59158], [13.59428, 50.5913], [13.59429, 50.59093], [13.59494, 50.59005], [13.59547, 50.5898], [13.59699, 50.58992], [13.59831, 50.59043], [13.59935, 50.5905], [13.60014, 50.59078], [13.6005, 50.59125], [13.60325, 50.59132], [13.60436, 50.59105], [13.6057, 50.59139], [13.60545, 50.59084], [13.60396, 50.59069], [13.60278, 50.59001], [13.60153, 50.58778], [13.60032, 50.58627], [13.59987, 50.58499], [13.60097, 50.5782], [13.60267, 50.57281], [13.60213, 50.57275], [13.60236, 50.573], [13.60226, 50.5733], [13.60159, 50.57343], [13.60138, 50.57298], [13.60179, 50.5727], [13.59668, 50.57183], [13.59558, 50.57121], [13.59449, 50.57017], [13.59474, 50.56832], [13.59437, 50.56787], [13.59475, 50.56739], [13.59473, 50.56554], [13.59531, 50.56451], [13.59639, 50.56424], [13.5963, 50.56352], [13.59709, 50.56273], [13.59645, 50.56256], [13.59619, 50.56217], [13.5963, 50.56175], [13.59682, 50.56134], [13.59687, 50.55905], [13.59849, 50.55885], [13.59899, 50.55912], [13.59934, 50.55985], [13.60033, 50.55988], [13.60034, 50.55835], [13.59983, 50.55853], [13.59775, 50.55861], [13.59724, 50.55844], [13.59701, 50.55811], [13.59745, 50.55705], [13.59888, 50.55662], [13.59851, 50.55596], [13.59936, 50.55514], [13.59848, 50.55498], [13.59725, 50.55532], [13.5973, 50.55555], [13.59764, 50.55559], [13.59745, 50.55649], [13.59691, 50.55681], [13.59599, 50.55673], [13.59537, 50.5562], [13.59459, 50.55605], [13.59433, 50.55566], [13.59445, 50.55533], [13.59318, 50.55532], [13.59391, 50.55813], [13.59286, 50.55897], [13.59206, 50.5592], [13.59183, 50.55951], [13.59224, 50.55973], [13.59236, 50.56009], [13.59177, 50.56067], [13.59071, 50.56064], [13.58997, 50.56089], [13.58927, 50.56071], [13.58898, 50.5604], [13.58898, 50.55993], [13.58818, 50.55932], [13.58816, 50.55896], [13.5872, 50.55872], [13.58696, 50.55807]]], [[[13.57816, 50.55797], [13.57818, 50.55796], [13.57819, 50.55796], [13.57816, 50.55797]]], [[[13.5839, 50.56074], [13.58381, 50.56073], [13.58351, 50.56081], [13.5839, 50.56074]]], [[[13.58313, 50.56098], [13.58342, 50.56083], [13.58309, 50.56096], [13.58313, 50.56098]]], [[[13.57559, 50.56408], [13.57545, 50.56406], [13.57558, 50.56474], [13.57644, 50.56434], [13.57559, 50.56408]]], [[[13.57702, 50.58733], [13.57782, 50.58716], [13.57857, 50.58754], [13.5802, 50.58741], [13.58027, 50.58759], [13.58106, 50.58774], [13.58122, 50.58761], [13.58192, 50.5879], [13.58226, 50.5876], [13.58349, 50.58781], [13.58558, 50.58885], [13.58548, 50.58847], [13.58568, 50.5884], [13.58173, 50.58733], [13.5828, 50.5871], [13.58036, 50.58535], [13.58032, 50.5858], [13.57931, 50.58655], [13.57565, 50.58693], [13.57621, 50.58746], [13.57702, 50.58733]]], [[[13.58668, 50.58864], [13.58665, 50.58863], [13.58668, 50.58866], [13.58668, 50.58864]]], [[[13.58678, 50.58872], [13.58697, 50.58884], [13.58702, 50.58887], [13.58678, 50.58867], [13.58678, 50.58872]]], [[[13.57784, 50.58923], [13.57792, 50.58933], [13.57795, 50.58935], [13.57802, 50.58918], [13.57784, 50.58923]]], [[[13.58053, 50.59032], [13.58345, 50.59049], [13.58521, 50.5911], [13.5866, 50.59124], [13.5899, 50.59231], [13.58683, 50.5911], [13.58189, 50.59002], [13.5789, 50.59023], [13.57869, 50.59011], [13.57784, 50.59081], [13.57807, 50.59087], [13.57855, 50.5904], [13.5796, 50.59047], [13.5801, 50.5902], [13.58053, 50.59032]]], [[[13.58309, 50.59348], [13.58315, 50.5934], [13.58306, 50.59338], [13.58309, 50.59345], [13.58309, 50.59348]]], [[[13.58642, 50.59378], [13.58652, 50.59372], [13.5866, 50.59339], [13.58617, 50.59347], [13.58638, 50.5936], [13.58613, 50.59383], [13.58626, 50.59392], [13.58642, 50.59378]]], [[[13.58599, 50.59414], [13.5857, 50.59418], [13.58571, 50.5944], [13.5861, 50.59428], [13.58599, 50.59414]]], [[[13.58483, 50.59755], [13.58342, 50.5977], [13.58319, 50.59818], [13.5834, 50.59852], [13.58489, 50.59832], [13.58513, 50.59791], [13.58483, 50.59755]]], [[[13.57969, 50.59851], [13.57997, 50.59863], [13.58018, 50.59875], [13.5797, 50.5982], [13.57969, 50.59851]]], [[[13.58447, 50.59911], [13.58463, 50.59891], [13.58507, 50.59859], [13.5841, 50.59888], [13.58447, 50.59911]]], [[[13.58324, 50.60022], [13.58343, 50.60054], [13.58387, 50.60044], [13.58374, 50.60016], [13.58309, 50.60013], [13.58324, 50.60022]]], [[[13.58545, 50.60061], [13.58544, 50.60046], [13.5847, 50.60074], [13.58487, 50.60112], [13.58545, 50.60061]]], [[[13.57914, 50.60235], [13.57857, 50.60134], [13.57856, 50.60094], [13.57809, 50.60183], [13.57821, 50.60248], [13.57867, 50.60265], [13.57914, 50.60235]]], [[[13.58178, 50.60235], [13.58106, 50.60207], [13.58074, 50.60146], [13.58059, 50.60224], [13.58002, 50.6025], [13.58017, 50.60258], [13.57963, 50.60269], [13.58134, 50.6028], [13.58213, 50.60235], [13.58178, 50.60235]]], [[[13.59807, 50.53308], [13.60019, 50.53337], [13.60037, 50.53236], [13.59966, 50.53156], [13.59749, 50.53154], [13.59685, 50.53236], [13.59709, 50.53267], [13.59807, 50.53308]]], [[[13.60335, 50.53382], [13.60292, 50.53447], [13.60341, 50.53526], [13.6054, 50.53538], [13.60577, 50.53518], [13.60686, 50.53517], [13.60754, 50.53496], [13.6083, 50.53507], [13.60903, 50.53542], [13.61022, 50.53506], [13.61034, 50.53534], [13.61472, 50.53426], [13.61593, 50.53432], [13.61926, 50.53348], [13.6195, 50.53288], [13.62056, 50.5324], [13.62058, 50.53181], [13.61721, 50.53177], [13.6164, 50.53324], [13.61533, 50.53351], [13.61431, 50.53411], [13.61368, 50.53426], [13.61221, 50.53379], [13.61043, 50.53382], [13.6099, 50.53355], [13.61193, 50.53272], [13.61301, 50.53172], [13.6059, 50.53164], [13.60335, 50.53382]]], [[[13.59212, 50.53453], [13.58968, 50.53256], [13.58992, 50.53328], [13.59107, 50.53421], [13.59212, 50.53453]]], [[[13.59828, 50.54426], [13.59799, 50.54462], [13.59756, 50.54468], [13.59525, 50.54602], [13.59962, 50.54762], [13.60917, 50.54866], [13.61048, 50.54739], [13.61017, 50.54746], [13.60926, 50.54707], [13.60923, 50.54673], [13.61541, 50.54272], [13.6165, 50.5422], [13.62038, 50.53864], [13.6204, 50.53798], [13.61982, 50.53749], [13.62042, 50.53708], [13.62044, 50.53657], [13.61362, 50.54261], [13.60864, 50.54576], [13.60612, 50.54624], [13.60599, 50.5464], [13.60634, 50.54687], [13.60582, 50.5471], [13.60332, 50.54639], [13.60088, 50.54602], [13.60055, 50.5465], [13.59967, 50.54659], [13.59905, 50.5461], [13.59947, 50.54557], [13.59746, 50.54518], [13.60018, 50.54351], [13.5996, 50.54553], [13.6001, 50.5455], [13.60081, 50.54313], [13.59503, 50.53725], [13.59477, 50.53763], [13.60021, 50.5431], [13.59828, 50.54426]]], [[[13.58959, 50.54346], [13.58952, 50.54347], [13.58975, 50.5437], [13.58962, 50.54345], [13.58959, 50.54346]]], [[[13.59247, 50.54625], [13.59251, 50.54672], [13.59218, 50.54766], [13.59353, 50.54715], [13.59376, 50.54683], [13.59333, 50.54679], [13.59296, 50.54641], [13.59324, 50.54595], [13.59147, 50.54529], [13.59247, 50.54625]]], [[[13.58891, 50.54615], [13.58949, 50.54588], [13.59066, 50.54635], [13.59098, 50.54579], [13.59022, 50.54591], [13.58951, 50.54567], [13.58887, 50.54585], [13.58871, 50.54573], [13.58893, 50.54646], [13.58891, 50.54615]]], [[[13.60006, 50.54829], [13.59878, 50.54802], [13.59431, 50.54635], [13.59408, 50.54658], [13.59398, 50.54673], [13.59462, 50.54668], [13.59639, 50.54719], [13.59782, 50.54829], [13.5985, 50.5484], [13.60006, 50.54829]]], [[[13.59681, 50.54848], [13.59597, 50.54768], [13.59523, 50.5474], [13.59469, 50.54775], [13.59385, 50.54766], [13.59218, 50.54827], [13.59168, 50.54818], [13.59123, 50.54879], [13.59206, 50.5488], [13.59244, 50.54904], [13.59254, 50.55002], [13.59335, 50.55014], [13.59345, 50.55326], [13.59315, 50.55343], [13.59343, 50.55425], [13.58886, 50.55442], [13.58882, 50.5547], [13.5954, 50.55479], [13.59472, 50.55458], [13.5945, 50.55419], [13.59501, 50.5536], [13.59502, 50.55093], [13.59545, 50.54895], [13.59611, 50.54865], [13.59745, 50.54878], [13.59681, 50.54848]], [[13.59404, 50.54851], [13.59318, 50.549], [13.59269, 50.54892], [13.59248, 50.54869], [13.59266, 50.54839], [13.59351, 50.54809], [13.59392, 50.54818], [13.59404, 50.54851]]], [[[13.59919, 50.54895], [13.59934, 50.54892], [13.59897, 50.54893], [13.59919, 50.54895]]], [[[13.5895, 50.54955], [13.58933, 50.55044], [13.58962, 50.55046], [13.58989, 50.55041], [13.58951, 50.54998], [13.58983, 50.54951], [13.5895, 50.54955]]], [[[13.60168, 50.55368], [13.60094, 50.55422], [13.60254, 50.55478], [13.60321, 50.55425], [13.6019, 50.55351], [13.60168, 50.55368]]], [[[13.59776, 50.55428], [13.5977, 50.55387], [13.5968, 50.55422], [13.59631, 50.55479], [13.59749, 50.55475], [13.59806, 50.5545], [13.59776, 50.55428]]], [[[13.60279, 50.55692], [13.60278, 50.55699], [13.60363, 50.55698], [13.6035, 50.55683], [13.60279, 50.55692]]], [[[13.59055, 50.55722], [13.59053, 50.55731], [13.59078, 50.55777], [13.59111, 50.55754], [13.59121, 50.55692], [13.59039, 50.55689], [13.59055, 50.55722]]], [[[13.6023, 50.55851], [13.60187, 50.55876], [13.60119, 50.5588], [13.60117, 50.56001], [13.60174, 50.55989], [13.60255, 50.56003], [13.60257, 50.55848], [13.60237, 50.55839], [13.6023, 50.55851]]], [[[13.604, 50.56637], [13.60357, 50.56537], [13.60139, 50.56397], [13.60071, 50.56321], [13.60035, 50.56241], [13.60031, 50.56109], [13.59932, 50.56109], [13.59919, 50.56178], [13.59861, 50.56253], [13.60019, 50.56385], [13.60088, 50.56385], [13.60133, 50.56404], [13.60145, 50.56462], [13.60292, 50.56539], [13.60299, 50.56606], [13.60355, 50.56647], [13.60347, 50.56735], [13.60387, 50.56787], [13.60355, 50.56998], [13.60252, 50.57219], [13.60285, 50.57224], [13.60364, 50.56973], [13.60387, 50.56883], [13.604, 50.56637]]], [[[13.59328, 50.57213], [13.59285, 50.57229], [13.5912, 50.57779], [13.59287, 50.57258], [13.59328, 50.57213]]], [[[13.59196, 50.57789], [13.5912, 50.57779], [13.59203, 50.57794], [13.59196, 50.57789]]], [[[13.59412, 50.57816], [13.59412, 50.57816], [13.59827, 50.5787], [13.59651, 50.57847], [13.59412, 50.57816]]], [[[13.60274, 50.57911], [13.60308, 50.5781], [13.60383, 50.57762], [13.60367, 50.57757], [13.60321, 50.5779], [13.60256, 50.57793], [13.60206, 50.5804], [13.60277, 50.58029], [13.60274, 50.57911]]], [[[13.60146, 50.58428], [13.60204, 50.58576], [13.60367, 50.58717], [13.61231, 50.59035], [13.61266, 50.58972], [13.61136, 50.58941], [13.607, 50.58761], [13.60634, 50.58779], [13.60522, 50.58759], [13.60458, 50.58722], [13.60457, 50.58675], [13.60495, 50.58642], [13.60564, 50.58625], [13.60719, 50.58656], [13.60691, 50.58575], [13.6083, 50.58446], [13.61176, 50.58351], [13.61798, 50.58262], [13.61807, 50.58239], [13.61288, 50.5831], [13.60781, 50.58445], [13.60278, 50.5861], [13.60206, 50.5857], [13.60198, 50.58459], [13.6023, 50.58322], [13.60162, 50.58289], [13.60146, 50.58428]]], [[[13.6007, 50.58477], [13.60084, 50.58545], [13.60121, 50.58623], [13.60288, 50.58773], [13.6031, 50.58757], [13.60147, 50.58624], [13.6007, 50.58477]]], [[[13.60289, 50.58871], [13.60339, 50.58958], [13.60363, 50.58985], [13.60326, 50.58892], [13.60273, 50.58839], [13.60289, 50.58871]]], [[[13.6, 50.59183], [13.59931, 50.59188], [13.59863, 50.59275], [13.59881, 50.59289], [13.60011, 50.59271], [13.60083, 50.59241], [13.60145, 50.59244], [13.6018, 50.59214], [13.60244, 50.59205], [13.60249, 50.59176], [13.6, 50.59183]]], [[[13.59134, 50.59343], [13.59144, 50.59363], [13.5934, 50.5942], [13.59342, 50.59396], [13.59134, 50.59343]]], [[[13.59895, 50.59389], [13.59867, 50.59379], [13.59846, 50.59396], [13.59893, 50.59398], [13.59895, 50.59389]]], [[[13.59539, 50.59498], [13.59571, 50.59513], [13.59594, 50.59488], [13.59561, 50.59484], [13.59539, 50.59498]]], [[[13.60011, 50.59655], [13.60036, 50.59624], [13.60014, 50.5961], [13.59978, 50.59656], [13.6, 50.59668], [13.60011, 50.59655]]], [[[13.58872, 50.59856], [13.58851, 50.59874], [13.58816, 50.59933], [13.58824, 50.59935], [13.58872, 50.59856]]], [[[13.61576, 50.54309], [13.61623, 50.54271], [13.61419, 50.54435], [13.615, 50.54373], [13.61576, 50.54309]]], [[[13.6251, 50.545], [13.62552, 50.5442], [13.62516, 50.54406], [13.62433, 50.5442], [13.6252, 50.54519], [13.6251, 50.545]]], [[[13.61818, 50.54581], [13.61818, 50.5458], [13.61817, 50.54581], [13.61818, 50.54581]]], [[[13.62525, 50.54605], [13.62448, 50.54583], [13.62425, 50.54602], [13.62485, 50.54645], [13.62539, 50.54615], [13.62525, 50.54605]]], [[[13.62261, 50.54615], [13.6223, 50.54622], [13.6241, 50.54689], [13.62336, 50.54626], [13.62261, 50.54615]]], [[[13.6108, 50.54711], [13.6108, 50.54711], [13.6125, 50.54571], [13.61145, 50.54631], [13.6108, 50.54711]]], [[[13.61983, 50.54901], [13.61976, 50.54882], [13.61877, 50.54909], [13.61716, 50.54899], [13.61644, 50.54817], [13.61655, 50.5477], [13.6156, 50.54772], [13.61446, 50.54842], [13.61486, 50.54977], [13.61414, 50.55022], [13.61737, 50.55106], [13.61714, 50.55071], [13.61728, 50.55047], [13.61873, 50.5503], [13.61936, 50.55047], [13.61962, 50.55075], [13.61937, 50.55102], [13.61871, 50.55108], [13.61973, 50.55107], [13.62183, 50.55072], [13.62381, 50.54993], [13.62425, 50.55003], [13.62426, 50.55035], [13.62503, 50.5498], [13.62486, 50.54929], [13.62379, 50.54884], [13.62346, 50.54889], [13.62326, 50.54952], [13.6226, 50.5498], [13.61983, 50.54901]]], [[[13.61201, 50.5488], [13.61183, 50.54887], [13.61194, 50.54893], [13.61201, 50.54886], [13.61201, 50.5488]]], [[[13.6092, 50.54941], [13.609, 50.54947], [13.60886, 50.54951], [13.60908, 50.54953], [13.6092, 50.54941]]], [[[13.61198, 50.55037], [13.61198, 50.55037], [13.61198, 50.55037], [13.61198, 50.55037]]], [[[13.62217, 50.55121], [13.62221, 50.55126], [13.62221, 50.55127], [13.62225, 50.55119], [13.62217, 50.55121]]], [[[13.61939, 50.55172], [13.61959, 50.55161], [13.61804, 50.55163], [13.61891, 50.55226], [13.61939, 50.55172]]], [[[13.62288, 50.5524], [13.62169, 50.55388], [13.62287, 50.55397], [13.62356, 50.55179], [13.62342, 50.55153], [13.6242, 50.55039], [13.62321, 50.55109], [13.62277, 50.55196], [13.62288, 50.5524]]], [[[13.62319, 50.55498], [13.62322, 50.55511], [13.62344, 50.55504], [13.62335, 50.55479], [13.62319, 50.55498]]], [[[13.62299, 50.55564], [13.62209, 50.55671], [13.62139, 50.55685], [13.62062, 50.55748], [13.61971, 50.55742], [13.62001, 50.56032], [13.62029, 50.56084], [13.62069, 50.56126], [13.62016, 50.56043], [13.61999, 50.55919], [13.62024, 50.55805], [13.62086, 50.55742], [13.62214, 50.55697], [13.62299, 50.55564]]], [[[13.62079, 50.56134], [13.62093, 50.56145], [13.621, 50.5615], [13.62072, 50.56129], [13.62079, 50.56134]]], [[[13.62408, 50.56387], [13.62472, 50.56381], [13.6247, 50.56367], [13.624, 50.56369], [13.62408, 50.56387]]], [[[13.60454, 50.56959], [13.60454, 50.56958], [13.60435, 50.57021], [13.60453, 50.57014], [13.60454, 50.56959]]], [[[13.60446, 50.57159], [13.60408, 50.57108], [13.60368, 50.57235], [13.60454, 50.57239], [13.60446, 50.57159]]], [[[13.60893, 50.57208], [13.60873, 50.57211], [13.60874, 50.57226], [13.60919, 50.57217], [13.60893, 50.57208]]], [[[13.60474, 50.57298], [13.6035, 50.57293], [13.6031, 50.57411], [13.60411, 50.57336], [13.6053, 50.57293], [13.60474, 50.57298]]], [[[13.60937, 50.5727], [13.60696, 50.57313], [13.60507, 50.5736], [13.60598, 50.57366], [13.60713, 50.57348], [13.60968, 50.57265], [13.60937, 50.5727]]], [[[13.61027, 50.57405], [13.61038, 50.57348], [13.61079, 50.57307], [13.61009, 50.57342], [13.60995, 50.57371], [13.61027, 50.57405]]], [[[13.61623, 50.57123], [13.61491, 50.57209], [13.61458, 50.57272], [13.61316, 50.57319], [13.6129, 50.57395], [13.60977, 50.57644], [13.60829, 50.57691], [13.60808, 50.57726], [13.6101, 50.5764], [13.61074, 50.57573], [13.61451, 50.57305], [13.61531, 50.57211], [13.61652, 50.57131], [13.61776, 50.57079], [13.61826, 50.57074], [13.61918, 50.57101], [13.62095, 50.5709], [13.62141, 50.5713], [13.62143, 50.57194], [13.62176, 50.57236], [13.62154, 50.57238], [13.62144, 50.57296], [13.62302, 50.57353], [13.62333, 50.57324], [13.62403, 50.57369], [13.62439, 50.57334], [13.62376, 50.57327], [13.62253, 50.57225], [13.6226, 50.57194], [13.62314, 50.57175], [13.62298, 50.57151], [13.62332, 50.57101], [13.62381, 50.5709], [13.62476, 50.57119], [13.62503, 50.57151], [13.62462, 50.57211], [13.62492, 50.57231], [13.62489, 50.57213], [13.62573, 50.57221], [13.62794, 50.56945], [13.62827, 50.56822], [13.63069, 50.5692], [13.63052, 50.56893], [13.62883, 50.56825], [13.62847, 50.56647], [13.62779, 50.56684], [13.62597, 50.56721], [13.6248, 50.56723], [13.62443, 50.56686], [13.62437, 50.56728], [13.62478, 50.56772], [13.62364, 50.5702], [13.62303, 50.57075], [13.62168, 50.57047], [13.61938, 50.57086], [13.61784, 50.57059], [13.61623, 50.57123]], [[13.62636, 50.57036], [13.62606, 50.57087], [13.62551, 50.5711], [13.62456, 50.57092], [13.6242, 50.57057], [13.62446, 50.57001], [13.62526, 50.56979], [13.62604, 50.56993], [13.62636, 50.57036]]], [[[13.60809, 50.58947], [13.60808, 50.58953], [13.60848, 50.58961], [13.60809, 50.58947]]], [[[13.60475, 50.59007], [13.60515, 50.59024], [13.6044, 50.58956], [13.6045, 50.58982], [13.60475, 50.59007]]], [[[13.61196, 50.59084], [13.61208, 50.59094], [13.61238, 50.59101], [13.61234, 50.59098], [13.61196, 50.59084]]], [[[13.60732, 50.59271], [13.60735, 50.59271], [13.60697, 50.59243], [13.60703, 50.59252], [13.60732, 50.59271]]], [[[13.61225, 50.59417], [13.61243, 50.59396], [13.61183, 50.59379], [13.61181, 50.59396], [13.61225, 50.59417]]], [[[13.61846, 50.59615], [13.61841, 50.59615], [13.61844, 50.59618], [13.61846, 50.59615]]], [[[13.61855, 50.59689], [13.61853, 50.59716], [13.61866, 50.59743], [13.61867, 50.59693], [13.61855, 50.59689]]], [[[13.63461, 50.54214], [13.63515, 50.54325], [13.63598, 50.54387], [13.63597, 50.54439], [13.63449, 50.54285], [13.63113, 50.54149], [13.63081, 50.54129], [13.63101, 50.54093], [13.62827, 50.5409], [13.62777, 50.54181], [13.62827, 50.54251], [13.63001, 50.54155], [13.6308, 50.54182], [13.63109, 50.54422], [13.63077, 50.54454], [13.63047, 50.54457], [13.62894, 50.54384], [13.62826, 50.54386], [13.631, 50.54482], [13.63366, 50.54628], [13.63814, 50.55192], [13.63888, 50.55258], [13.64271, 50.55384], [13.64374, 50.55373], [13.64417, 50.55398], [13.64427, 50.55432], [13.64812, 50.5555], [13.64819, 50.55302], [13.64535, 50.55214], [13.64211, 50.55022], [13.64061, 50.54742], [13.63904, 50.54513], [13.63888, 50.54321], [13.63846, 50.54276], [13.63765, 50.54235], [13.63745, 50.54154], [13.63688, 50.541], [13.63336, 50.54096], [13.63461, 50.54214]], [[13.63649, 50.54605], [13.63627, 50.54581], [13.63628, 50.54564], [13.63644, 50.54597], [13.63649, 50.54605]]], [[[13.62472, 50.5412], [13.6241, 50.54191], [13.62641, 50.54263], [13.62738, 50.54089], [13.62513, 50.54086], [13.62472, 50.5412]]], [[[13.63243, 50.54621], [13.63158, 50.54577], [13.63132, 50.54606], [13.63159, 50.54669], [13.63062, 50.54793], [13.62999, 50.54815], [13.62914, 50.54958], [13.6295, 50.54961], [13.62971, 50.54928], [13.63021, 50.54909], [13.63135, 50.54937], [13.63131, 50.55004], [13.63085, 50.55025], [13.63031, 50.55024], [13.63227, 50.55244], [13.63375, 50.55285], [13.63322, 50.55172], [13.63343, 50.55145], [13.63406, 50.55128], [13.63751, 50.55261], [13.63761, 50.55287], [13.63735, 50.55311], [13.63622, 50.55339], [13.63832, 50.55298], [13.63739, 50.55217], [13.63343, 50.54707], [13.63243, 50.54621]]], [[[13.62697, 50.5482], [13.62783, 50.54816], [13.62801, 50.54799], [13.62741, 50.54796], [13.62692, 50.5477], [13.62655, 50.54843], [13.62697, 50.5482]]], [[[13.62925, 50.55013], [13.62918, 50.55012], [13.62953, 50.55047], [13.6294, 50.55018], [13.62925, 50.55013]]], [[[13.62654, 50.5505], [13.62633, 50.55049], [13.62616, 50.55107], [13.6267, 50.551], [13.62705, 50.55044], [13.62654, 50.5505]]], [[[13.6363, 50.55519], [13.63675, 50.55453], [13.63321, 50.55421], [13.63338, 50.5549], [13.63319, 50.55542], [13.6332, 50.55557], [13.63346, 50.55521], [13.63485, 50.55541], [13.63587, 50.55538], [13.6363, 50.55519]]], [[[13.63826, 50.55549], [13.63831, 50.55584], [13.63852, 50.5551], [13.63826, 50.55549]]], [[[13.63812, 50.55839], [13.63891, 50.55772], [13.63908, 50.5573], [13.63752, 50.55844], [13.63812, 50.55839]]], [[[13.63884, 50.55898], [13.63853, 50.55937], [13.63791, 50.55951], [13.63731, 50.55935], [13.63704, 50.55894], [13.63544, 50.56343], [13.63491, 50.56419], [13.63381, 50.5647], [13.63191, 50.5651], [13.63076, 50.56564], [13.63329, 50.56516], [13.63459, 50.56585], [13.63557, 50.56611], [13.63587, 50.56599], [13.63392, 50.56537], [13.63358, 50.56503], [13.63494, 50.56461], [13.6358, 50.56372], [13.63685, 50.56079], [13.63747, 50.56192], [13.63716, 50.56295], [13.63817, 50.56397], [13.63832, 50.56329], [13.63805, 50.56246], [13.64022, 50.56216], [13.64176, 50.5615], [13.64398, 50.56223], [13.64551, 50.56247], [13.64713, 50.56196], [13.64639, 50.56145], [13.64796, 50.56115], [13.64801, 50.55927], [13.64611, 50.55954], [13.64529, 50.55935], [13.64352, 50.55967], [13.63876, 50.5587], [13.63884, 50.55898]]], [[[13.62533, 50.56384], [13.62502, 50.56384], [13.62484, 50.56353], [13.62478, 50.56382], [13.62511, 50.56391], [13.62579, 50.56385], [13.62533, 50.56384]]], [[[13.62524, 50.56482], [13.62538, 50.56495], [13.6257, 50.56504], [13.62547, 50.56457], [13.62524, 50.56482]]], [[[13.6283, 50.56595], [13.62806, 50.56573], [13.62613, 50.56575], [13.62576, 50.5662], [13.62468, 50.5664], [13.62905, 50.56597], [13.6283, 50.56595]]], [[[13.64666, 50.56708], [13.64779, 50.56686], [13.6478, 50.56658], [13.64654, 50.56687], [13.64666, 50.56708]]], [[[13.62986, 50.56771], [13.62982, 50.56777], [13.63075, 50.56761], [13.63046, 50.56761], [13.62986, 50.56771]]], [[[13.62997, 50.56853], [13.63033, 50.56867], [13.62969, 50.56808], [13.62974, 50.56825], [13.62997, 50.56853]]], [[[13.62745, 50.57124], [13.62652, 50.57268], [13.62762, 50.57435], [13.62952, 50.57481], [13.63054, 50.57444], [13.6313, 50.57504], [13.63095, 50.57623], [13.63151, 50.57539], [13.63149, 50.5746], [13.63092, 50.57361], [13.6296, 50.57279], [13.63088, 50.57108], [13.63078, 50.56937], [13.62772, 50.57067], [13.62745, 50.57124]]], [[[13.62818, 50.58003], [13.62797, 50.58013], [13.62815, 50.58036], [13.63023, 50.57905], [13.63105, 50.57692], [13.63072, 50.57697], [13.63051, 50.57775], [13.63, 50.57837], [13.62818, 50.58003]]], [[[13.63505, 50.57874], [13.63491, 50.57845], [13.63422, 50.57921], [13.63487, 50.57997], [13.63505, 50.57874]]], [[[13.6473, 50.58072], [13.64739, 50.58088], [13.64741, 50.58043], [13.64725, 50.58056], [13.6473, 50.58072]]], [[[13.64137, 50.58176], [13.64074, 50.58223], [13.64259, 50.58138], [13.64741, 50.58024], [13.6426, 50.58133], [13.64137, 50.58176]]], [[[13.62447, 50.58128], [13.62163, 50.58188], [13.62147, 50.58217], [13.62531, 50.58139], [13.62802, 50.58044], [13.62761, 50.5803], [13.62672, 50.58073], [13.62447, 50.58128]]], [[[13.64671, 50.58072], [13.64582, 50.58113], [13.64547, 50.58154], [13.64608, 50.58204], [13.6459, 50.58221], [13.64563, 50.58233], [13.64513, 50.58209], [13.64487, 50.58218], [13.64572, 50.58327], [13.64432, 50.58224], [13.64347, 50.58251], [13.64313, 50.58213], [13.64276, 50.5822], [13.64306, 50.58308], [13.64269, 50.58291], [13.64225, 50.58201], [13.64151, 50.58244], [13.64129, 50.58276], [13.6415, 50.58307], [13.64079, 50.58326], [13.64129, 50.58388], [13.64078, 50.58492], [13.64096, 50.58528], [13.64079, 50.58601], [13.64549, 50.58607], [13.64593, 50.58386], [13.64544, 50.58243], [13.64736, 50.58206], [13.64739, 50.58093], [13.64704, 50.58107], [13.64671, 50.58072]]], [[[13.63344, 50.58281], [13.6331, 50.58407], [13.63288, 50.58403], [13.6333, 50.58442], [13.63523, 50.58379], [13.63441, 50.58273], [13.63344, 50.58281]]], [[[13.63778, 50.58476], [13.63794, 50.58358], [13.63921, 50.58317], [13.63941, 50.58281], [13.6372, 50.58272], [13.63687, 50.58375], [13.63629, 50.58431], [13.63637, 50.58479], [13.63593, 50.58491], [13.63505, 50.58594], [13.63699, 50.58597], [13.63756, 50.58482], [13.63778, 50.58476]]], [[[13.62995, 50.58829], [13.63029, 50.58828], [13.62996, 50.58803], [13.6298, 50.58832], [13.62995, 50.58829]]], [[[13.63117, 50.58845], [13.63165, 50.58883], [13.63233, 50.58899], [13.63305, 50.58845], [13.63308, 50.5875], [13.63117, 50.58845]]], [[[13.62849, 50.59011], [13.62897, 50.58986], [13.62969, 50.58983], [13.62879, 50.58935], [13.62715, 50.58973], [13.62752, 50.59032], [13.62603, 50.59013], [13.62513, 50.59151], [13.62527, 50.59169], [13.62564, 50.59149], [13.62625, 50.59157], [13.62695, 50.59126], [13.62764, 50.59131], [13.62849, 50.59011]]], [[[13.63055, 50.5924], [13.63224, 50.59209], [13.63169, 50.5915], [13.63053, 50.5923], [13.62921, 50.59288], [13.6301, 50.59278], [13.63055, 50.5924]]], [[[13.6328, 50.59332], [13.63283, 50.59331], [13.63268, 50.59333], [13.63269, 50.59333], [13.6328, 50.59332]]], [[[13.62804, 50.59445], [13.62729, 50.59392], [13.62381, 50.59481], [13.62819, 50.59486], [13.62804, 50.59445]]], [[[13.63135, 50.59472], [13.63037, 50.59483], [13.63032, 50.59488], [13.6318, 50.59482], [13.63135, 50.59472]]]]}, "properties": {"kind": "pv", "area_km2": 7.03, "mw": 351.3}}]}