{"type": "FeatureCollection", "features": [{"type": "Feature", "geometry": {"type": "MultiPolygon", "coordinates": [[[[13.5621, 50.54872], [13.56282, 50.54976], [13.5627, 50.5508], [13.56342, 50.55073], [13.56279, 50.5515], [13.56093, 50.55222], [13.55812, 50.55218], [13.55616, 50.55453], [13.55675, 50.55482], [13.55715, 50.55415], [13.55807, 50.55421], [13.55724, 50.5552], [13.55743, 50.55542], [13.5586, 50.55425], [13.56008, 50.55491], [13.55915, 50.55559], [13.55932, 50.55975], [13.55857, 50.56028], [13.55771, 50.55919], [13.55596, 50.56009], [13.55527, 50.56116], [13.5527, 50.56079], [13.55183, 50.56392], [13.55862, 50.56121], [13.55834, 50.56037], [13.55885, 50.56118], [13.56091, 50.56116], [13.5601, 50.55868], [13.56095, 50.56014], [13.56192, 50.56042], [13.56193, 50.5587], [13.56151, 50.55848], [13.56094, 50.55916], [13.56076, 50.55836], [13.5607, 50.5573], [13.56162, 50.55669], [13.56056, 50.55606], [13.56043, 50.55487], [13.55983, 50.55435], [13.56046, 50.55427], [13.56064, 50.55378], [13.56288, 50.55924], [13.56221, 50.56129], [13.5633, 50.56184], [13.56435, 50.56058], [13.56629, 50.55951], [13.56953, 50.55657], [13.56727, 50.55671], [13.56503, 50.55572], [13.56435, 50.55425], [13.56527, 50.55287], [13.56679, 50.5522], [13.56886, 50.55214], [13.57076, 50.55295], [13.57153, 50.55445], [13.57292, 50.5542], [13.57402, 50.55205], [13.57589, 50.55027], [13.58209, 50.54849], [13.58375, 50.54754], [13.58262, 50.54447], [13.58159, 50.54623], [13.57981, 50.54787], [13.57914, 50.54834], [13.57813, 50.54826], [13.57996, 50.54622], [13.58119, 50.54147], [13.57897, 50.54053], [13.57868, 50.54174], [13.57669, 50.54385], [13.57406, 50.54521], [13.57375, 50.5476], [13.57217, 50.54703], [13.57043, 50.54735], [13.56804, 50.54712], [13.56585, 50.5459], [13.5621, 50.54872]], [[13.57919, 50.54235], [13.57852, 50.54453], [13.57739, 50.54457], [13.57772, 50.54293], [13.57928, 50.54174], [13.57919, 50.54235]], [[13.57912, 50.54347], [13.57929, 50.5428], [13.5794, 50.54183], [13.57999, 50.54219], [13.58013, 50.54365], [13.5787, 50.54466], [13.57912, 50.54347]], [[13.57874, 50.54594], [13.57906, 50.54611], [13.57858, 50.5469], [13.57771, 50.54746], [13.57816, 50.54581], [13.57874, 50.54594]], [[13.5765, 50.5458], [13.57804, 50.54571], [13.57752, 50.5477], [13.57667, 50.54784], [13.57534, 50.5472], [13.57552, 50.54641], [13.5765, 50.5458]], [[13.56529, 50.55193], [13.56541, 50.55197], [13.56557, 50.55231], [13.56496, 50.5522], [13.5648, 50.55184], [13.56529, 50.55193]], [[13.56517, 50.55246], [13.56507, 50.55238], [13.56545, 50.55248], [13.56531, 50.55251], [13.56517, 50.55246]], [[13.56285, 50.55513], [13.5628, 50.55523], [13.56231, 50.55471], [13.56254, 50.55474], [13.56285, 50.55513]]], [[[13.5532, 50.56045], [13.55385, 50.56047], [13.55427, 50.56022], [13.55304, 50.55999], [13.5532, 50.56045]]], [[[13.55651, 50.58027], [13.55845, 50.57984], [13.55716, 50.57825], [13.55709, 50.57744], [13.55762, 50.57712], [13.55547, 50.577], [13.55467, 50.5784], [13.55545, 50.57954], [13.55581, 50.5793], [13.5567, 50.57977], [13.55654, 50.58013], [13.55551, 50.57963], [13.55607, 50.58043], [13.55651, 50.58027]]], [[[13.58927, 50.59004], [13.58984, 50.59008], [13.58678, 50.58872], [13.58566, 50.58938], [13.58722, 50.58943], [13.58927, 50.59004]]], [[[13.58582, 50.58896], [13.58661, 50.58876], [13.58668, 50.58866], [13.58548, 50.58847], [13.58582, 50.58896]]], [[[13.62136, 50.58194], [13.61807, 50.58239], [13.61798, 50.58262], [13.62147, 50.58217], [13.62136, 50.58194]]], [[[13.63313, 50.58374], [13.63327, 50.58324], [13.63346, 50.58277], [13.63288, 50.58403], [13.63313, 50.58374]]], [[[13.63504, 50.58013], [13.63619, 50.5805], [13.63823, 50.58007], [13.63648, 50.57778], [13.6356, 50.57768], [13.63491, 50.57845], [13.63504, 50.58013]]], [[[13.63159, 50.57516], [13.63597, 50.57075], [13.63776, 50.56938], [13.63974, 50.56888], [13.64088, 50.56755], [13.64079, 50.56706], [13.64028, 50.56696], [13.63536, 50.5709], [13.63477, 50.57054], [13.63572, 50.5693], [13.63738, 50.56894], [13.63832, 50.5681], [13.63587, 50.56599], [13.63557, 50.56611], [13.63652, 50.56693], [13.63143, 50.56885], [13.63163, 50.56779], [13.62982, 50.56777], [13.62969, 50.56808], [13.63099, 50.56894], [13.63052, 50.56893], [13.63069, 50.5692], [13.63133, 50.56927], [13.63078, 50.56937], [13.63088, 50.57108], [13.6296, 50.57279], [13.63092, 50.57361], [13.63149, 50.5746], [13.63072, 50.57697], [13.63159, 50.57516]], [[13.63465, 50.57042], [13.63142, 50.5692], [13.6331, 50.56825], [13.63701, 50.56733], [13.63795, 50.56831], [13.63565, 50.56918], [13.63465, 50.57042]]], [[[13.58984, 50.56607], [13.5901, 50.56622], [13.59028, 50.56469], [13.58995, 50.56484], [13.58984, 50.56607]]], [[[13.57829, 50.5524], [13.57897, 50.55242], [13.57938, 50.5518], [13.57895, 50.55163], [13.57748, 50.55227], [13.57735, 50.55291], [13.57814, 50.55291], [13.57829, 50.5524]]], [[[13.59477, 50.53763], [13.59486, 50.53747], [13.59464, 50.53749], [13.59477, 50.53763]]], [[[13.62815, 50.58036], [13.62797, 50.58013], [13.62761, 50.5803], [13.62802, 50.58044], [13.62815, 50.58036]]], [[[13.55779, 50.55578], [13.5578, 50.55589], [13.55818, 50.55587], [13.55793, 50.5558], [13.55779, 50.55578]]], [[[13.56261, 50.55096], [13.56284, 50.55086], [13.56286, 50.55082], [13.56269, 50.55082], [13.56261, 50.55096]]], [[[13.63823, 50.56283], [13.63827, 50.56408], [13.64147, 50.56453], [13.64241, 50.56446], [13.64551, 50.56247], [13.64176, 50.5615], [13.64022, 50.56216], [13.63805, 50.56246], [13.63823, 50.56283]]], [[[13.6461, 50.56697], [13.64503, 50.56684], [13.64387, 50.56767], [13.64243, 50.56793], [13.64097, 50.56878], [13.64361, 50.56813], [13.6461, 50.56697]]]]}, "properties": {"kind": "windland", "area_km2": 1.83}}, {"type": "Feature", "geometry": {"type": "MultiPolygon", "coordinates": [[[[13.55098, 50.53097], [13.55005, 50.53095], [13.54995, 50.5343], [13.55013, 50.53427], [13.55098, 50.53097]]], [[[13.56333, 50.53174], [13.55646, 50.53441], [13.55142, 50.53495], [13.55109, 50.53545], [13.5499, 50.53574], [13.54986, 50.53727], [13.55019, 50.53846], [13.54983, 50.53825], [13.54977, 50.53994], [13.54864, 50.53993], [13.54899, 50.54028], [13.54865, 50.54044], [13.55073, 50.5411], [13.55063, 50.5412], [13.55164, 50.54193], [13.5519, 50.54178], [13.55328, 50.5403], [13.55357, 50.5391], [13.55345, 50.538], [13.55455, 50.53743], [13.55556, 50.53644], [13.55387, 50.5357], [13.55642, 50.5345], [13.55857, 50.5339], [13.55915, 50.53456], [13.55605, 50.53616], [13.5574, 50.53596], [13.55823, 50.53564], [13.56032, 50.53566], [13.56222, 50.53693], [13.56559, 50.53774], [13.56655, 50.53885], [13.56824, 50.53961], [13.56971, 50.53973], [13.56963, 50.53918], [13.57762, 50.53896], [13.57727, 50.53879], [13.56951, 50.53897], [13.56969, 50.53784], [13.56925, 50.53789], [13.56867, 50.53761], [13.5678, 50.53626], [13.56653, 50.53583], [13.56554, 50.53586], [13.56509, 50.53545], [13.56365, 50.53534], [13.56268, 50.53449], [13.56323, 50.53411], [13.56627, 50.53462], [13.56703, 50.53448], [13.56782, 50.53519], [13.56964, 50.53613], [13.56994, 50.5365], [13.57051, 50.53542], [13.57261, 50.53581], [13.57177, 50.5349], [13.56999, 50.53396], [13.56862, 50.53295], [13.57399, 50.53336], [13.57438, 50.53344], [13.57487, 50.5345], [13.57677, 50.53679], [13.58039, 50.53752], [13.58023, 50.53815], [13.57847, 50.53875], [13.57778, 50.53877], [13.57782, 50.53896], [13.57861, 50.53904], [13.57997, 50.53994], [13.58086, 50.53954], [13.58206, 50.53951], [13.58228, 50.53967], [13.58185, 50.54033], [13.58229, 50.54074], [13.58257, 50.54161], [13.58281, 50.5415], [13.58264, 50.54076], [13.58369, 50.54197], [13.58339, 50.5427], [13.58308, 50.54277], [13.58337, 50.54365], [13.58262, 50.54447], [13.58295, 50.54592], [13.5836, 50.54696], [13.58429, 50.54608], [13.58466, 50.54505], [13.58472, 50.54236], [13.58444, 50.54121], [13.58333, 50.53958], [13.58385, 50.53949], [13.58396, 50.54], [13.58484, 50.54097], [13.58542, 50.54092], [13.58564, 50.54109], [13.58633, 50.54218], [13.58652, 50.54402], [13.58645, 50.54486], [13.58601, 50.54516], [13.58588, 50.54643], [13.58615, 50.54696], [13.58588, 50.54755], [13.58639, 50.5477], [13.58653, 50.54712], [13.58685, 50.54722], [13.58758, 50.54708], [13.58743, 50.54666], [13.588, 50.54625], [13.58781, 50.54561], [13.58756, 50.54542], [13.58756, 50.54595], [13.58683, 50.54622], [13.58618, 50.54537], [13.5865, 50.54485], [13.58693, 50.54479], [13.58739, 50.54501], [13.58741, 50.5444], [13.58615, 50.54122], [13.58428, 50.53873], [13.58347, 50.53887], [13.58286, 50.53857], [13.58283, 50.5381], [13.58333, 50.53778], [13.58161, 50.53619], [13.58186, 50.53662], [13.58157, 50.5371], [13.58105, 50.53728], [13.58035, 50.53716], [13.57892, 50.53548], [13.57586, 50.53413], [13.57652, 50.53347], [13.5757, 50.53313], [13.57283, 50.53289], [13.57263, 50.53227], [13.57024, 50.53234], [13.56915, 50.53269], [13.56857, 50.53267], [13.56744, 50.53253], [13.56676, 50.53197], [13.56484, 50.53243], [13.56375, 50.53311], [13.56341, 50.5329], [13.56455, 50.53203], [13.56614, 50.53167], [13.56631, 50.53132], [13.57018, 50.53162], [13.57613, 50.53243], [13.57912, 50.53388], [13.5779, 50.53274], [13.57595, 50.5319], [13.56575, 50.53106], [13.56477, 50.53114], [13.56333, 50.53174]], [[13.55112, 50.53702], [13.55121, 50.53785], [13.55103, 50.53795], [13.55073, 50.53776], [13.55069, 50.5371], [13.55105, 50.53676], [13.55112, 50.53702]], [[13.58115, 50.53828], [13.58183, 50.53853], [13.5821, 50.53904], [13.58181, 50.53934], [13.58122, 50.5393], [13.58081, 50.53903], [13.58069, 50.53848], [13.58115, 50.53828]]], [[[13.55364, 50.54085], [13.55363, 50.54199], [13.55415, 50.54318], [13.55447, 50.5435], [13.55473, 50.54316], [13.55541, 50.54327], [13.55615, 50.54682], [13.55595, 50.54738], [13.55774, 50.5478], [13.55967, 50.54752], [13.56103, 50.54662], [13.56185, 50.54511], [13.56193, 50.54448], [13.56329, 50.54378], [13.56437, 50.5426], [13.56469, 50.54114], [13.56389, 50.53952], [13.56286, 50.53873], [13.56151, 50.53816], [13.55985, 50.53786], [13.55823, 50.53787], [13.55622, 50.53835], [13.55498, 50.53901], [13.55409, 50.53987], [13.55364, 50.54085]], [[13.56015, 50.54032], [13.55951, 50.54068], [13.55907, 50.54054], [13.5589, 50.54024], [13.55923, 50.5399], [13.55966, 50.53983], [13.56004, 50.53998], [13.56015, 50.54032]], [[13.56005, 50.54126], [13.55992, 50.54173], [13.55939, 50.54198], [13.55863, 50.54191], [13.55823, 50.54158], [13.55835, 50.54106], [13.55887, 50.54081], [13.55963, 50.54087], [13.56005, 50.54126]], [[13.55766, 50.54263], [13.5567, 50.54233], [13.557, 50.54186], [13.55777, 50.54186], [13.55818, 50.54209], [13.55817, 50.54238], [13.55766, 50.54263]], [[13.55747, 50.54573], [13.55732, 50.54454], [13.5579, 50.54421], [13.55862, 50.54417], [13.55906, 50.54463], [13.55845, 50.54516], [13.55848, 50.54577], [13.55794, 50.54598], [13.55747, 50.54573]]], [[[13.55413, 50.54785], [13.55437, 50.5469], [13.55391, 50.54593], [13.554, 50.54741], [13.5517, 50.5475], [13.55232, 50.54784], [13.55244, 50.54911], [13.55346, 50.5486], [13.55413, 50.54785]]], [[[13.55594, 50.54958], [13.55587, 50.55025], [13.55607, 50.55081], [13.55637, 50.55057], [13.55705, 50.55051], [13.55672, 50.54924], [13.55634, 50.54895], [13.55594, 50.54958]]], [[[13.55649, 50.55749], [13.55702, 50.55662], [13.55681, 50.55613], [13.55743, 50.55542], [13.55676, 50.5551], [13.55675, 50.55482], [13.55575, 50.5544], [13.55448, 50.55423], [13.55349, 50.55432], [13.55376, 50.55301], [13.55327, 50.5522], [13.55263, 50.55174], [13.54902, 50.55548], [13.55015, 50.55564], [13.5513, 50.55555], [13.55033, 50.55703], [13.55061, 50.55822], [13.55168, 50.55928], [13.55279, 50.55991], [13.55427, 50.56022], [13.55462, 50.55981], [13.55565, 50.55969], [13.55593, 50.55948], [13.55621, 50.55962], [13.55596, 50.56009], [13.55695, 50.55974], [13.55771, 50.55919], [13.55687, 50.55899], [13.55621, 50.55939], [13.55573, 50.55913], [13.55656, 50.55839], [13.55649, 50.55749]], [[13.55378, 50.55776], [13.55322, 50.55743], [13.55326, 50.55707], [13.55413, 50.55616], [13.55459, 50.55607], [13.55489, 50.55629], [13.55492, 50.5569], [13.55544, 50.55697], [13.55567, 50.55724], [13.55548, 50.558], [13.55512, 50.55832], [13.55451, 50.55839], [13.55395, 50.55815], [13.55378, 50.55776]]], [[[13.55748, 50.55595], [13.55765, 50.55576], [13.55706, 50.55588], [13.55727, 50.55605], [13.55748, 50.55595]]], [[[13.5578, 50.55589], [13.55766, 50.55602], [13.55739, 50.55609], [13.55764, 50.55609], [13.5578, 50.55589]]], [[[13.52482, 50.55631], [13.52429, 50.5556], [13.52309, 50.55474], [13.5222, 50.55442], [13.5211, 50.55429], [13.52104, 50.55612], [13.52208, 50.5569], [13.5217, 50.55728], [13.52101, 50.55706], [13.52095, 50.55908], [13.52264, 50.55901], [13.524, 50.55847], [13.52484, 50.55746], [13.52482, 50.55631]]], [[[13.55697, 50.55708], [13.55662, 50.55744], [13.55659, 50.55767], [13.55725, 50.55713], [13.55717, 50.55691], [13.55697, 50.55708]]], [[[13.55712, 50.55743], [13.55722, 50.55728], [13.55672, 50.55769], [13.55708, 50.55757], [13.55712, 50.55743]]], [[[13.53546, 50.56029], [13.53483, 50.56048], [13.53121, 50.56037], [13.52893, 50.56075], [13.52646, 50.56059], [13.52537, 50.56072], [13.52697, 50.56163], [13.53292, 50.56116], [13.53534, 50.56119], [13.53746, 50.56022], [13.53546, 50.56029]]], [[[13.54391, 50.56055], [13.54307, 50.56059], [13.54714, 50.56164], [13.54637, 50.56106], [13.54391, 50.56055]]], [[[13.54858, 50.56792], [13.54905, 50.56831], [13.54894, 50.56844], [13.54634, 50.5676], [13.546, 50.56768], [13.54516, 50.56823], [13.54486, 50.56893], [13.54419, 50.5695], [13.54251, 50.56955], [13.54163, 50.56902], [13.53935, 50.56837], [13.53849, 50.56791], [13.53853, 50.56748], [13.53706, 50.56785], [13.53644, 50.56822], [13.53618, 50.56817], [13.53517, 50.56637], [13.53502, 50.56539], [13.53461, 50.56495], [13.53174, 50.56509], [13.53122, 50.56546], [13.53033, 50.56566], [13.53035, 50.56611], [13.52967, 50.56665], [13.53068, 50.56709], [13.5306, 50.56775], [13.53239, 50.56883], [13.5333, 50.56916], [13.53677, 50.56961], [13.5369, 50.56888], [13.53722, 50.56858], [13.53778, 50.56847], [13.53902, 50.56859], [13.54014, 50.56882], [13.54209, 50.56976], [13.54276, 50.5698], [13.54334, 50.57013], [13.54395, 50.56988], [13.54463, 50.57042], [13.54712, 50.5706], [13.5477, 50.57114], [13.54782, 50.57066], [13.54856, 50.57015], [13.54807, 50.56994], [13.54745, 50.56928], [13.54785, 50.56858], [13.54872, 50.56848], [13.55092, 50.56934], [13.55087, 50.569], [13.55013, 50.56875], [13.55036, 50.5684], [13.55076, 50.56842], [13.55113, 50.56871], [13.55184, 50.56849], [13.55259, 50.56875], [13.55302, 50.56872], [13.55367, 50.56828], [13.55288, 50.56772], [13.55304, 50.56717], [13.5546, 50.56629], [13.55523, 50.56625], [13.55615, 50.56577], [13.55685, 50.56573], [13.55792, 50.56496], [13.5588, 50.5648], [13.5594, 50.56417], [13.56036, 50.56413], [13.56083, 50.56473], [13.56134, 50.56409], [13.5621, 50.56378], [13.56742, 50.56287], [13.57076, 50.56251], [13.57158, 50.56224], [13.5723, 50.56129], [13.57234, 50.56047], [13.57168, 50.56059], [13.57188, 50.56102], [13.57091, 50.56175], [13.56913, 50.56208], [13.56838, 50.56198], [13.56724, 50.56218], [13.56676, 50.56205], [13.56662, 50.56179], [13.56876, 50.56049], [13.5724, 50.55716], [13.57256, 50.55624], [13.57314, 50.55604], [13.57262, 50.55491], [13.57292, 50.5542], [13.57153, 50.55445], [13.5713, 50.55362], [13.57076, 50.55295], [13.56983, 50.55241], [13.56886, 50.55214], [13.56711, 50.55214], [13.56551, 50.55271], [13.56463, 50.55353], [13.56435, 50.55425], [13.56441, 50.55488], [13.56493, 50.55564], [13.56581, 50.55622], [13.56694, 50.55665], [13.56831, 50.55676], [13.56953, 50.55657], [13.56725, 50.55871], [13.56629, 50.55951], [13.56435, 50.56058], [13.56374, 50.56176], [13.56306, 50.56173], [13.5621, 50.56207], [13.56182, 50.56175], [13.56285, 50.56164], [13.5624, 50.56148], [13.5617, 50.56175], [13.56096, 50.56159], [13.56091, 50.56116], [13.55885, 50.56118], [13.55951, 50.56215], [13.5589, 50.56174], [13.55862, 50.56121], [13.55842, 50.56124], [13.55688, 50.56168], [13.55435, 50.56305], [13.55177, 50.56395], [13.55034, 50.56308], [13.54866, 50.56283], [13.5495, 50.56523], [13.54832, 50.5675], [13.54858, 50.56792]], [[13.55842, 50.56196], [13.55842, 50.56176], [13.55878, 50.56181], [13.55874, 50.56189], [13.55842, 50.56196]], [[13.55823, 50.56241], [13.55772, 50.56248], [13.55731, 50.56192], [13.55806, 50.56184], [13.55823, 50.56241]], [[13.55804, 50.56256], [13.55854, 50.56261], [13.55873, 50.56284], [13.55786, 50.56309], [13.55767, 50.56273], [13.55804, 50.56256]], [[13.56842, 50.55487], [13.56787, 50.55491], [13.56725, 50.55454], [13.56731, 50.55421], [13.56772, 50.55394], [13.56816, 50.55392], [13.56853, 50.55412], [13.56864, 50.55456], [13.56842, 50.55487]], [[13.5657, 50.55454], [13.56574, 50.55437], [13.56699, 50.55662], [13.56619, 50.55598], [13.56531, 50.55572], [13.56573, 50.55538], [13.5657, 50.55454]]], [[[13.52301, 50.56306], [13.52295, 50.56369], [13.52364, 50.56536], [13.52437, 50.56559], [13.52469, 50.56621], [13.52488, 50.5656], [13.52424, 50.56444], [13.52377, 50.56221], [13.5231, 50.56143], [13.52181, 50.56097], [13.52092, 50.55989], [13.5216, 50.56123], [13.52239, 50.56149], [13.52314, 50.56213], [13.52332, 50.56245], [13.52273, 50.56277], [13.52301, 50.56306]]], [[[13.52587, 50.56489], [13.52712, 50.5645], [13.52788, 50.56455], [13.52768, 50.56486], [13.52641, 50.56536], [13.52706, 50.56556], [13.52798, 50.56503], [13.52823, 50.56459], [13.52918, 50.56429], [13.52974, 50.56375], [13.52962, 50.56344], [13.52885, 50.5636], [13.52604, 50.56339], [13.52547, 50.56348], [13.52508, 50.56376], [13.52499, 50.56422], [13.52534, 50.56485], [13.52587, 50.56489]]], [[[13.52128, 50.56532], [13.52241, 50.56588], [13.52296, 50.56548], [13.52352, 50.56537], [13.523, 50.56464], [13.52077, 50.56479], [13.52076, 50.56518], [13.52128, 50.56532]]], [[[13.52103, 50.56802], [13.52124, 50.56796], [13.52131, 50.56725], [13.52071, 50.56683], [13.52066, 50.56831], [13.52103, 50.56802]]], [[[13.55658, 50.56855], [13.55645, 50.5692], [13.55709, 50.56953], [13.55776, 50.56905], [13.55658, 50.56855]]], [[[13.55452, 50.5711], [13.55404, 50.57129], [13.55381, 50.57156], [13.55486, 50.57116], [13.55452, 50.5711]]], [[[13.54359, 50.57168], [13.54285, 50.57116], [13.54215, 50.57131], [13.54369, 50.57175], [13.54359, 50.57168]]], [[[13.55364, 50.57165], [13.5534, 50.57176], [13.55338, 50.57181], [13.55368, 50.57163], [13.55364, 50.57165]]], [[[13.53224, 50.56942], [13.52975, 50.568], [13.52908, 50.56797], [13.52791, 50.56751], [13.52638, 50.56799], [13.52579, 50.56766], [13.52562, 50.56827], [13.52515, 50.56844], [13.5246, 50.5684], [13.52446, 50.56941], [13.52386, 50.56978], [13.52306, 50.56968], [13.52219, 50.56897], [13.52131, 50.56913], [13.52065, 50.56868], [13.5206, 50.57011], [13.52164, 50.57051], [13.52224, 50.57037], [13.52305, 50.57051], [13.52326, 50.57087], [13.52547, 50.57208], [13.52628, 50.57221], [13.52743, 50.57207], [13.5283, 50.57132], [13.52976, 50.57086], [13.52966, 50.57064], [13.53008, 50.57047], [13.53081, 50.57078], [13.53153, 50.57393], [13.53104, 50.57424], [13.53038, 50.57716], [13.53293, 50.57725], [13.53355, 50.57759], [13.53343, 50.5766], [13.53291, 50.57598], [13.53228, 50.57564], [13.5322, 50.57516], [13.53402, 50.57421], [13.53414, 50.57432], [13.53418, 50.57383], [13.53519, 50.57351], [13.53517, 50.57314], [13.53552, 50.57285], [13.53614, 50.57272], [13.53676, 50.57289], [13.53706, 50.5726], [13.53759, 50.57249], [13.53768, 50.57206], [13.53815, 50.57177], [13.53956, 50.57189], [13.54024, 50.57146], [13.54028, 50.57101], [13.54075, 50.57062], [13.53407, 50.56988], [13.53224, 50.56942]], [[13.52234, 50.57035], [13.52221, 50.57015], [13.52139, 50.56957], [13.5219, 50.56941], [13.5225, 50.57006], [13.52234, 50.57035]], [[13.53169, 50.5711], [13.5317, 50.57111], [13.5317, 50.57111], [13.53169, 50.5711]]], [[[13.54235, 50.57544], [13.54379, 50.57461], [13.54385, 50.57432], [13.54315, 50.57415], [13.54327, 50.57375], [13.54442, 50.57356], [13.54489, 50.57367], [13.54507, 50.57319], [13.54423, 50.5729], [13.54419, 50.57229], [13.54336, 50.57217], [13.54312, 50.57301], [13.54234, 50.57373], [13.54149, 50.57356], [13.5407, 50.57375], [13.54012, 50.57353], [13.53889, 50.57394], [13.53879, 50.57431], [13.53913, 50.57482], [13.53898, 50.57513], [13.53968, 50.57627], [13.54089, 50.57657], [13.54143, 50.57617], [13.54203, 50.57602], [13.54235, 50.57544]]], [[[13.55153, 50.57307], [13.55079, 50.57345], [13.55, 50.57338], [13.54953, 50.57411], [13.5495, 50.57435], [13.5501, 50.57483], [13.54996, 50.57526], [13.55023, 50.57578], [13.55085, 50.57636], [13.5507, 50.57687], [13.54923, 50.57714], [13.54897, 50.57767], [13.54802, 50.5778], [13.54753, 50.57752], [13.54717, 50.57669], [13.54735, 50.57611], [13.54703, 50.57613], [13.54672, 50.57652], [13.54677, 50.57707], [13.54607, 50.57745], [13.54553, 50.57819], [13.54582, 50.57871], [13.54584, 50.57983], [13.54636, 50.58041], [13.54589, 50.58103], [13.54606, 50.58218], [13.54693, 50.58244], [13.55075, 50.58136], [13.55075, 50.58043], [13.55411, 50.57888], [13.55504, 50.57798], [13.55547, 50.577], [13.55643, 50.57705], [13.55364, 50.57566], [13.55171, 50.57301], [13.55153, 50.57307]]], [[[13.53507, 50.57681], [13.53555, 50.57674], [13.53572, 50.5764], [13.53459, 50.57594], [13.53462, 50.57653], [13.53491, 50.57689], [13.53507, 50.57681]]], [[[13.53468, 50.57934], [13.53445, 50.5793], [13.53466, 50.5795], [13.53466, 50.57936], [13.53468, 50.57934]]], [[[13.54387, 50.58049], [13.54349, 50.58048], [13.54283, 50.58098], [13.54409, 50.58151], [13.54443, 50.58105], [13.54387, 50.58049]]], [[[13.55019, 50.58236], [13.55027, 50.58208], [13.55003, 50.58191], [13.54967, 50.582], [13.54939, 50.58186], [13.54957, 50.58227], [13.54808, 50.58253], [13.54731, 50.58295], [13.54796, 50.5833], [13.54803, 50.58292], [13.54881, 50.58296], [13.55097, 50.58257], [13.55092, 50.58225], [13.55019, 50.58236]]], [[[13.54486, 50.58389], [13.54458, 50.58422], [13.54402, 50.58438], [13.5442, 50.5845], [13.54527, 50.58386], [13.54486, 50.58389]]], [[[13.53948, 50.58448], [13.53942, 50.58453], [13.53971, 50.58463], [13.53967, 50.5845], [13.53948, 50.58448]]], [[[13.5463, 50.58536], [13.54585, 50.58572], [13.54662, 50.58571], [13.54739, 50.58548], [13.5463, 50.58536]]], [[[13.54146, 50.58589], [13.54147, 50.58584], [13.54087, 50.58578], [13.54145, 50.58592], [13.54146, 50.58589]]], [[[13.54311, 50.5863], [13.54333, 50.58636], [13.54371, 50.5862], [13.54327, 50.58605], [13.54311, 50.5863]]], [[[13.54815, 50.59283], [13.548, 50.59316], [13.54823, 50.59356], [13.54886, 50.59348], [13.54871, 50.5944], [13.54902, 50.59432], [13.54918, 50.59377], [13.54997, 50.59348], [13.54968, 50.59317], [13.54972, 50.59274], [13.55049, 50.5924], [13.55151, 50.59153], [13.55149, 50.59117], [13.55182, 50.59085], [13.55256, 50.5907], [13.5528, 50.59034], [13.55331, 50.59017], [13.55503, 50.59004], [13.556, 50.59035], [13.55665, 50.58994], [13.5566, 50.58958], [13.55558, 50.58946], [13.55575, 50.58915], [13.55725, 50.58882], [13.5567, 50.58867], [13.55444, 50.58931], [13.55385, 50.58928], [13.55158, 50.58826], [13.54864, 50.58982], [13.5479, 50.59081], [13.54761, 50.59081], [13.54787, 50.59151], [13.54932, 50.59131], [13.54899, 50.59221], [13.54815, 50.59283]]], [[[13.55357, 50.59329], [13.55509, 50.59228], [13.55407, 50.59186], [13.55343, 50.59248], [13.55203, 50.5926], [13.55298, 50.59316], [13.55302, 50.59385], [13.55357, 50.59329]]], [[[13.55489, 50.60048], [13.55504, 50.60079], [13.55557, 50.60098], [13.55645, 50.60059], [13.55635, 50.6001], [13.55599, 50.59977], [13.55562, 50.60005], [13.55533, 50.5999], [13.55498, 50.60008], [13.55489, 50.60048]]], [[[13.55436, 50.60132], [13.55471, 50.60132], [13.55406, 50.60067], [13.55432, 50.59964], [13.55011, 50.60021], [13.54872, 50.60161], [13.5485, 50.60211], [13.55086, 50.60219], [13.55149, 50.6027], [13.55239, 50.60245], [13.55269, 50.6021], [13.55346, 50.6019], [13.55436, 50.60132]]], [[[13.55492, 50.60139], [13.5549, 50.60138], [13.55495, 50.60141], [13.55496, 50.6014], [13.55492, 50.60139]]], [[[13.57057, 50.52625], [13.57056, 50.52624], [13.57056, 50.52625], [13.57057, 50.52625]]], [[[13.57693, 50.52674], [13.57571, 50.52688], [13.57561, 50.5269], [13.57572, 50.5271], [13.57693, 50.52674]]], [[[13.57165, 50.52697], [13.57164, 50.52683], [13.57075, 50.52679], [13.57165, 50.52698], [13.57165, 50.52697]]], [[[13.57381, 50.52687], [13.57364, 50.52727], [13.5749, 50.52723], [13.57457, 50.52697], [13.57381, 50.52687]]], [[[13.56465, 50.52955], [13.56623, 50.52935], [13.56711, 50.52894], [13.56923, 50.52714], [13.5643, 50.52617], [13.56429, 50.52668], [13.56591, 50.52718], [13.56637, 50.52773], [13.56627, 50.52811], [13.56574, 50.5284], [13.56423, 50.52862], [13.56421, 50.52925], [13.56465, 50.52955]]], [[[13.57508, 50.52882], [13.57499, 50.52787], [13.57305, 50.52787], [13.56996, 50.52742], [13.57048, 50.52772], [13.57309, 50.528], [13.57458, 50.53], [13.57534, 50.52986], [13.57508, 50.52882]]], [[[13.57231, 50.52936], [13.57128, 50.53033], [13.57071, 50.53035], [13.57058, 50.53004], [13.57133, 50.52929], [13.57088, 50.52874], [13.56951, 50.5279], [13.56885, 50.52851], [13.56936, 50.52885], [13.56935, 50.52932], [13.56889, 50.52964], [13.56779, 50.52989], [13.56786, 50.53028], [13.57323, 50.53073], [13.57392, 50.53036], [13.5729, 50.52912], [13.57231, 50.52936]]], [[[13.56686, 50.52972], [13.56709, 50.52968], [13.56717, 50.52967], [13.56709, 50.52961], [13.56686, 50.52972]]], [[[13.56652, 50.52993], [13.56659, 50.52984], [13.5655, 50.53007], [13.56647, 50.53015], [13.56652, 50.52993]]], [[[13.56487, 50.5305], [13.56493, 50.53055], [13.56504, 50.53054], [13.56491, 50.53051], [13.56487, 50.5305]]], [[[13.57561, 50.53039], [13.57499, 50.53048], [13.57564, 50.53105], [13.57639, 50.53132], [13.57561, 50.53039]]], [[[13.574, 50.53115], [13.57474, 50.53121], [13.57435, 50.53085], [13.57381, 50.53114], [13.574, 50.53115]]], [[[13.57403, 50.53972], [13.57295, 50.54024], [13.57181, 50.53993], [13.5717, 50.54036], [13.57232, 50.54071], [13.57102, 50.54109], [13.57049, 50.54085], [13.56995, 50.54006], [13.56977, 50.54123], [13.56894, 50.5418], [13.56673, 50.54233], [13.56776, 50.54396], [13.56732, 50.544], [13.5664, 50.54247], [13.56556, 50.54309], [13.56513, 50.54406], [13.56535, 50.54528], [13.56638, 50.54638], [13.56729, 50.54689], [13.56836, 50.54718], [13.57026, 50.54734], [13.56929, 50.54649], [13.56737, 50.54408], [13.56782, 50.54407], [13.568, 50.54425], [13.56816, 50.54392], [13.56918, 50.54363], [13.56994, 50.54388], [13.56994, 50.54435], [13.56962, 50.54466], [13.56952, 50.54486], [13.57065, 50.54461], [13.57119, 50.54498], [13.57109, 50.54528], [13.57071, 50.54545], [13.56996, 50.54548], [13.56957, 50.54521], [13.56916, 50.54541], [13.57043, 50.54734], [13.57217, 50.54703], [13.57121, 50.54366], [13.57138, 50.54335], [13.57112, 50.54306], [13.57163, 50.54264], [13.57345, 50.54206], [13.57385, 50.54209], [13.5728, 50.54148], [13.57262, 50.54078], [13.57287, 50.54048], [13.57384, 50.54021], [13.57434, 50.54037], [13.57487, 50.5402], [13.57558, 50.54028], [13.5766, 50.54134], [13.57388, 50.5421], [13.57399, 50.5422], [13.57686, 50.54142], [13.57671, 50.54256], [13.57646, 50.54269], [13.57529, 50.54327], [13.57434, 50.54279], [13.57274, 50.54352], [13.57329, 50.54372], [13.5738, 50.54498], [13.57385, 50.54583], [13.57406, 50.54521], [13.5765, 50.54402], [13.57726, 50.54285], [13.57843, 50.54207], [13.57893, 50.54121], [13.57897, 50.54053], [13.57707, 50.5404], [13.57479, 50.53984], [13.57438, 50.53958], [13.57403, 50.53972]], [[13.57009, 50.54251], [13.56922, 50.54214], [13.56981, 50.54208], [13.57009, 50.54251]]], [[[13.56074, 50.54806], [13.55955, 50.54788], [13.5585, 50.54794], [13.55666, 50.54866], [13.55737, 50.55024], [13.55908, 50.55101], [13.5627, 50.5508], [13.56286, 50.54996], [13.56259, 50.54925], [13.56185, 50.54854], [13.56074, 50.54806]], [[13.55998, 50.55021], [13.55974, 50.55041], [13.55915, 50.55047], [13.55876, 50.54995], [13.55952, 50.54972], [13.55988, 50.54989], [13.55998, 50.55021]]], [[[13.56266, 50.55082], [13.56246, 50.55085], [13.56246, 50.55092], [13.56261, 50.55096], [13.56266, 50.55082]]], [[[13.5599, 50.55114], [13.55751, 50.55123], [13.55706, 50.55177], [13.55881, 50.5523], [13.56087, 50.5521], [13.56038, 50.55201], [13.5599, 50.55114]]], [[[13.57407, 50.55607], [13.57407, 50.55607], [13.57378, 50.55613], [13.57395, 50.55617], [13.57407, 50.55607]]], [[[13.57511, 50.55773], [13.57467, 50.55805], [13.57514, 50.5583], [13.57606, 50.55763], [13.57511, 50.55773]]], [[[13.57288, 50.55951], [13.57301, 50.55985], [13.57393, 50.55918], [13.57338, 50.55871], [13.57291, 50.55916], [13.57288, 50.55951]]], [[[13.56386, 50.56451], [13.56964, 50.56384], [13.57028, 50.56352], [13.57107, 50.56367], [13.57149, 50.56345], [13.57242, 50.56348], [13.57307, 50.56276], [13.57326, 50.56166], [13.57452, 50.56067], [13.57461, 50.56026], [13.5735, 50.56105], [13.57253, 50.56233], [13.57186, 50.5628], [13.56241, 50.56428], [13.56201, 50.56442], [13.56163, 50.56505], [13.56225, 50.56494], [13.56274, 50.56463], [13.56386, 50.56451]]], [[[13.57327, 50.56473], [13.57237, 50.565], [13.57193, 50.56493], [13.57172, 50.56456], [13.57137, 50.56451], [13.56903, 50.56466], [13.57031, 50.5654], [13.57275, 50.56565], [13.57453, 50.56517], [13.57327, 50.56473]]], [[[13.56147, 50.56519], [13.56148, 50.56526], [13.56155, 50.56525], [13.56147, 50.56519]]], [[[13.56151, 50.56652], [13.56095, 50.56629], [13.56077, 50.56587], [13.56002, 50.56578], [13.55968, 50.56652], [13.55888, 50.56671], [13.55823, 50.56726], [13.55879, 50.56756], [13.55881, 50.56802], [13.55897, 50.56786], [13.56071, 50.56764], [13.56205, 50.5665], [13.56151, 50.56652]]], [[[13.55852, 50.57757], [13.55904, 50.57774], [13.55944, 50.5776], [13.56146, 50.57766], [13.5618, 50.57791], [13.56271, 50.57802], [13.56424, 50.57912], [13.5651, 50.57913], [13.56276, 50.5775], [13.55762, 50.57712], [13.5574, 50.57748], [13.55806, 50.57785], [13.55852, 50.57757]]], [[[13.55998, 50.57975], [13.55928, 50.5799], [13.55886, 50.57958], [13.5594, 50.57932], [13.55874, 50.57907], [13.55765, 50.57907], [13.55845, 50.57984], [13.55559, 50.58064], [13.55482, 50.5811], [13.55513, 50.58128], [13.55447, 50.58138], [13.55376, 50.58226], [13.55615, 50.58138], [13.55655, 50.5819], [13.55673, 50.58186], [13.55628, 50.58133], [13.55732, 50.58122], [13.55758, 50.58179], [13.55868, 50.58233], [13.55892, 50.58226], [13.55831, 50.58165], [13.55971, 50.58125], [13.55997, 50.58065], [13.56406, 50.582], [13.5652, 50.58145], [13.56391, 50.58173], [13.56024, 50.58053], [13.56022, 50.57985], [13.55998, 50.57975]]], [[[13.56487, 50.58088], [13.56492, 50.58124], [13.565, 50.58131], [13.56487, 50.58088]]], [[[13.56481, 50.58188], [13.56585, 50.58179], [13.56574, 50.58206], [13.56606, 50.58273], [13.56709, 50.58302], [13.5686, 50.58292], [13.56909, 50.58241], [13.56906, 50.58167], [13.56799, 50.58168], [13.56711, 50.58131], [13.56543, 50.58154], [13.56481, 50.58188]]], [[[13.5673, 50.58338], [13.56877, 50.58369], [13.56918, 50.58366], [13.56819, 50.58333], [13.56728, 50.58326], [13.5673, 50.58338]]], [[[13.56995, 50.58392], [13.56995, 50.58392], [13.56995, 50.58392], [13.56995, 50.58392]]], [[[13.57403, 50.58449], [13.57404, 50.58449], [13.57404, 50.58448], [13.57403, 50.58449]]], [[[13.55832, 50.5846], [13.55845, 50.58455], [13.55844, 50.58449], [13.55822, 50.58452], [13.55832, 50.5846]]], [[[13.56528, 50.58487], [13.56516, 50.5849], [13.56532, 50.58503], [13.5653, 50.58498], [13.56528, 50.58487]]], [[[13.5565, 50.58523], [13.55626, 50.58504], [13.55592, 50.58523], [13.55541, 50.58567], [13.55555, 50.58583], [13.55777, 50.58645], [13.55931, 50.58629], [13.55969, 50.5858], [13.55806, 50.58559], [13.5578, 50.58526], [13.55797, 50.58484], [13.5565, 50.58523]]], [[[13.559, 50.58763], [13.55973, 50.58718], [13.56056, 50.58735], [13.56119, 50.58696], [13.55957, 50.58682], [13.55848, 50.58692], [13.55886, 50.5873], [13.55856, 50.58749], [13.559, 50.58763]]], [[[13.572, 50.58652], [13.5702, 50.58626], [13.56978, 50.58661], [13.56842, 50.58687], [13.56646, 50.58647], [13.56581, 50.58653], [13.5655, 50.58684], [13.56725, 50.58835], [13.56806, 50.58843], [13.56851, 50.58871], [13.57032, 50.58894], [13.57279, 50.59013], [13.5739, 50.5903], [13.57458, 50.5907], [13.57536, 50.59073], [13.57525, 50.58971], [13.57581, 50.58919], [13.57522, 50.58806], [13.57395, 50.58767], [13.57359, 50.58722], [13.57205, 50.58676], [13.572, 50.58652]]], [[[13.55755, 50.5901], [13.55761, 50.59026], [13.55788, 50.59018], [13.5582, 50.58971], [13.55718, 50.58961], [13.55697, 50.58974], [13.55697, 50.58998], [13.55755, 50.5901]]], [[[13.55851, 50.59345], [13.56073, 50.59352], [13.56081, 50.59345], [13.56012, 50.59326], [13.55939, 50.59332], [13.55881, 50.59306], [13.55818, 50.59342], [13.55851, 50.59345]]], [[[13.56786, 50.59376], [13.56773, 50.59374], [13.56779, 50.59378], [13.56786, 50.59376]]], [[[13.56169, 50.59464], [13.56148, 50.59462], [13.56146, 50.59464], [13.56161, 50.5947], [13.56169, 50.59464]]], [[[13.55709, 50.60241], [13.55655, 50.60242], [13.55611, 50.60298], [13.55665, 50.60267], [13.55759, 50.60263], [13.55796, 50.60233], [13.55761, 50.60219], [13.55709, 50.60241]]], [[[13.57099, 50.60662], [13.57161, 50.60592], [13.57213, 50.60579], [13.57349, 50.60624], [13.57307, 50.60576], [13.57312, 50.60523], [13.57134, 50.60604], [13.571, 50.60622], [13.56951, 50.60742], [13.56964, 50.60755], [13.57028, 50.60763], [13.57099, 50.60662]]], [[[13.56454, 50.6106], [13.56454, 50.60999], [13.56398, 50.61], [13.56497, 50.60771], [13.56422, 50.6074], [13.56382, 50.60777], [13.5643, 50.60831], [13.56381, 50.60997], [13.56295, 50.61029], [13.56433, 50.61035], [13.56454, 50.6106]]], [[[13.56646, 50.60968], [13.56636, 50.60971], [13.56653, 50.6097], [13.56646, 50.60968]]], [[[13.57352, 50.61182], [13.57364, 50.61158], [13.57234, 50.61135], [13.57249, 50.61012], [13.57096, 50.6101], [13.57063, 50.60806], [13.56988, 50.60836], [13.5695, 50.60826], [13.56969, 50.60791], [13.56898, 50.60791], [13.56956, 50.60861], [13.56928, 50.60904], [13.56861, 50.60922], [13.56895, 50.60939], [13.569, 50.60986], [13.56858, 50.61032], [13.56786, 50.61044], [13.5673, 50.61107], [13.56903, 50.6119], [13.56926, 50.61162], [13.57024, 50.61186], [13.56998, 50.61171], [13.57005, 50.61149], [13.57063, 50.61164], [13.57054, 50.61215], [13.57296, 50.61218], [13.57352, 50.61182]]], [[[13.58091, 50.52272], [13.58087, 50.52275], [13.58094, 50.52277], [13.58094, 50.52271], [13.58091, 50.52272]]], [[[13.58139, 50.52246], [13.58325, 50.52378], [13.5858, 50.52287], [13.58475, 50.52254], [13.58123, 50.52234], [13.58118, 50.52248], [13.58139, 50.52246]]], [[[13.58135, 50.52311], [13.58144, 50.52318], [13.58126, 50.52304], [13.58128, 50.52306], [13.58135, 50.52311]]], [[[13.57888, 50.52681], [13.57905, 50.52695], [13.5809, 50.52574], [13.58106, 50.52589], [13.58154, 50.52567], [13.58261, 50.52558], [13.58211, 50.52513], [13.57878, 50.52675], [13.57888, 50.52681]]], [[[13.58557, 50.52637], [13.58556, 50.52637], [13.58567, 50.52644], [13.58566, 50.52638], [13.58557, 50.52637]]], [[[13.57854, 50.52756], [13.578, 50.5271], [13.57583, 50.52775], [13.57618, 50.52979], [13.57749, 50.52967], [13.57675, 50.5279], [13.57744, 50.52738], [13.57799, 50.52727], [13.57874, 50.52815], [13.57854, 50.52756]]], [[[13.58436, 50.5285], [13.58247, 50.52661], [13.58202, 50.52679], [13.58451, 50.5289], [13.58525, 50.52927], [13.58553, 50.52972], [13.5874, 50.53124], [13.58773, 50.531], [13.58483, 50.52866], [13.58436, 50.5285]]], [[[13.57699, 50.53092], [13.57727, 50.53119], [13.57761, 50.53105], [13.57819, 50.53063], [13.5784, 50.53016], [13.57647, 50.53031], [13.57699, 50.53092]]], [[[13.57831, 50.53171], [13.57832, 50.53171], [13.57826, 50.5314], [13.57791, 50.53158], [13.57831, 50.53171]]], [[[13.58063, 50.53528], [13.57993, 50.53462], [13.57949, 50.53422], [13.58043, 50.53531], [13.58131, 50.53591], [13.58063, 50.53528]]], [[[13.58319, 50.53525], [13.58202, 50.53461], [13.58177, 50.53476], [13.58289, 50.53591], [13.58319, 50.53525]]], [[[13.58583, 50.53527], [13.58501, 50.53523], [13.58398, 50.53546], [13.58369, 50.53615], [13.58731, 50.53817], [13.58759, 50.53766], [13.58958, 50.53764], [13.5908, 50.53788], [13.59134, 50.53825], [13.59166, 50.53882], [13.59168, 50.53783], [13.59258, 50.53702], [13.58943, 50.53721], [13.58825, 50.53618], [13.58749, 50.53591], [13.5872, 50.5356], [13.58583, 50.53527]]], [[[13.58704, 50.53876], [13.58705, 50.53873], [13.58415, 50.53714], [13.58604, 50.53883], [13.58666, 50.53908], [13.58705, 50.53896], [13.58704, 50.53876]]], [[[13.58712, 50.54051], [13.5885, 50.54234], [13.58898, 50.54216], [13.5894, 50.54222], [13.58998, 50.54136], [13.58957, 50.54043], [13.5894, 50.54046], [13.58957, 50.54103], [13.58804, 50.54166], [13.58699, 50.54029], [13.58712, 50.54051]]], [[[13.57979, 50.54089], [13.58055, 50.54124], [13.58119, 50.54147], [13.58081, 50.54107], [13.57905, 50.54054], [13.57979, 50.54089]]], [[[13.58502, 50.54384], [13.58538, 50.54371], [13.58538, 50.54334], [13.58491, 50.54358], [13.58502, 50.54384]]], [[[13.58845, 50.54919], [13.58698, 50.54855], [13.58753, 50.54861], [13.58758, 50.54848], [13.587, 50.54806], [13.58608, 50.54789], [13.58443, 50.54706], [13.58371, 50.54708], [13.58375, 50.54754], [13.58454, 50.54724], [13.58794, 50.54943], [13.58059, 50.55251], [13.58039, 50.55197], [13.57997, 50.55196], [13.57947, 50.55222], [13.57923, 50.55207], [13.57877, 50.55293], [13.57821, 50.55331], [13.57832, 50.55384], [13.57874, 50.55393], [13.57765, 50.55474], [13.57801, 50.55475], [13.58103, 50.55244], [13.58546, 50.55049], [13.58867, 50.54942], [13.5887, 50.54919], [13.58845, 50.54919]]], [[[13.57714, 50.55353], [13.57714, 50.5542], [13.5777, 50.55384], [13.57785, 50.55313], [13.57814, 50.55291], [13.57735, 50.55291], [13.57714, 50.55353]]], [[[13.58131, 50.55479], [13.58145, 50.55477], [13.58148, 50.55401], [13.58141, 50.55403], [13.58131, 50.55479]]], [[[13.58739, 50.55531], [13.58783, 50.5549], [13.58695, 50.55465], [13.58608, 50.55538], [13.5831, 50.5561], [13.58301, 50.55635], [13.58648, 50.55565], [13.58739, 50.55531]]], [[[13.57947, 50.55568], [13.57948, 50.55575], [13.57965, 50.55566], [13.57943, 50.5556], [13.57947, 50.55568]]], [[[13.57929, 50.55626], [13.57923, 50.55613], [13.57787, 50.55645], [13.57739, 50.55639], [13.57706, 50.55611], [13.57655, 50.55628], [13.5769, 50.55687], [13.5767, 50.55722], [13.57959, 50.55651], [13.57929, 50.55626]]], [[[13.58683, 50.55803], [13.58609, 50.5571], [13.5862, 50.55674], [13.58666, 50.5565], [13.58651, 50.55621], [13.58119, 50.5573], [13.58441, 50.55677], [13.58533, 50.55693], [13.58574, 50.5572], [13.5866, 50.55857], [13.58695, 50.55997], [13.58727, 50.55979], [13.58795, 50.55978], [13.58864, 50.5603], [13.5896, 50.56149], [13.58971, 50.56212], [13.58925, 50.56252], [13.59015, 50.56257], [13.5901, 50.56622], [13.59307, 50.56803], [13.59338, 50.57025], [13.59438, 50.57173], [13.59364, 50.572], [13.59465, 50.57202], [13.59516, 50.5723], [13.59581, 50.57217], [13.59773, 50.57247], [13.59816, 50.57272], [13.59825, 50.57305], [13.59885, 50.57312], [13.60096, 50.57405], [13.60008, 50.57684], [13.60041, 50.57739], [13.59976, 50.57784], [13.59963, 50.57822], [13.60003, 50.5785], [13.60005, 50.5789], [13.59961, 50.57927], [13.59882, 50.57929], [13.59868, 50.57985], [13.59947, 50.58014], [13.60003, 50.58189], [13.59956, 50.58441], [13.5996, 50.58561], [13.60077, 50.58726], [13.59597, 50.58901], [13.59346, 50.58904], [13.58909, 50.58945], [13.58754, 50.58909], [13.5898, 50.59016], [13.58722, 50.58943], [13.58566, 50.58938], [13.58724, 50.59019], [13.5861, 50.59011], [13.58487, 50.58889], [13.58412, 50.58857], [13.58405, 50.5887], [13.5859, 50.59016], [13.58726, 50.59032], [13.58977, 50.59022], [13.59051, 50.59163], [13.59465, 50.59287], [13.59535, 50.5925], [13.59698, 50.59253], [13.59446, 50.59181], [13.59462, 50.59158], [13.59428, 50.5913], [13.59429, 50.59093], [13.59494, 50.59005], [13.59547, 50.5898], [13.59699, 50.58992], [13.59831, 50.59043], [13.59935, 50.5905], [13.60014, 50.59078], [13.6005, 50.59125], [13.60325, 50.59132], [13.60436, 50.59105], [13.6057, 50.59139], [13.60545, 50.59084], [13.60396, 50.59069], [13.60278, 50.59001], [13.60153, 50.58778], [13.60032, 50.58627], [13.59987, 50.58499], [13.60097, 50.5782], [13.60267, 50.57281], [13.60213, 50.57275], [13.60236, 50.573], [13.60226, 50.5733], [13.60159, 50.57343], [13.60138, 50.57298], [13.60179, 50.5727], [13.59668, 50.57183], [13.59558, 50.57121], [13.59449, 50.57017], [13.59474, 50.56832], [13.59437, 50.56787], [13.59475, 50.56739], [13.59473, 50.56554], [13.59531, 50.56451], [13.59639, 50.56424], [13.5963, 50.56352], [13.59709, 50.56273], [13.59645, 50.56256], [13.59619, 50.56217], [13.5963, 50.56175], [13.59682, 50.56134], [13.59687, 50.55905], [13.59849, 50.55885], [13.59899, 50.55912], [13.59934, 50.55985], [13.60033, 50.55988], [13.60034, 50.55835], [13.59983, 50.55853], [13.59775, 50.55861], [13.59724, 50.55844], [13.59701, 50.55811], [13.59745, 50.55705], [13.59888, 50.55662], [13.59851, 50.55596], [13.59936, 50.55514], [13.59848, 50.55498], [13.59725, 50.55532], [13.5973, 50.55555], [13.59764, 50.55559], [13.59745, 50.55649], [13.59691, 50.55681], [13.59599, 50.55673], [13.59537, 50.5562], [13.59459, 50.55605], [13.59433, 50.55566], [13.59445, 50.55533], [13.59318, 50.55532], [13.59391, 50.55813], [13.59286, 50.55897], [13.59206, 50.5592], [13.59183, 50.55951], [13.59224, 50.55973], [13.59236, 50.56009], [13.59177, 50.56067], [13.59071, 50.56064], [13.58997, 50.56089], [13.58927, 50.56071], [13.58898, 50.5604], [13.58898, 50.55993], [13.58818, 50.55932], [13.58816, 50.55896], [13.5872, 50.55872], [13.58683, 50.55803]]], [[[13.57818, 50.55796], [13.57819, 50.55796], [13.57816, 50.55797], [13.57818, 50.55796]]], [[[13.58381, 50.56073], [13.58351, 50.56081], [13.5839, 50.56074], [13.58381, 50.56073]]], [[[13.58342, 50.56083], [13.58334, 50.56085], [13.58308, 50.56097], [13.58313, 50.56098], [13.58342, 50.56083]]], [[[13.57545, 50.56406], [13.5756, 50.56441], [13.57558, 50.56474], [13.57644, 50.56434], [13.57545, 50.56406]]], [[[13.57709, 50.58731], [13.5779, 50.58717], [13.57857, 50.58754], [13.5802, 50.58741], [13.58027, 50.58759], [13.58106, 50.58774], [13.58122, 50.58761], [13.58192, 50.5879], [13.58226, 50.5876], [13.58349, 50.58781], [13.58558, 50.58885], [13.58548, 50.58847], [13.58568, 50.5884], [13.58173, 50.58733], [13.5828, 50.5871], [13.58036, 50.58535], [13.58032, 50.5858], [13.57931, 50.58655], [13.57565, 50.58693], [13.57621, 50.58746], [13.57709, 50.58731]]], [[[13.58665, 50.58863], [13.58668, 50.58866], [13.58668, 50.58864], [13.58665, 50.58863]]], [[[13.58697, 50.58884], [13.58702, 50.58887], [13.58678, 50.58867], [13.58678, 50.58872], [13.58697, 50.58884]]], [[[13.57786, 50.58925], [13.57795, 50.58935], [13.57802, 50.58918], [13.57784, 50.58923], [13.57786, 50.58925]]], [[[13.58055, 50.59034], [13.58345, 50.59049], [13.58521, 50.5911], [13.5866, 50.59124], [13.5899, 50.59231], [13.58683, 50.5911], [13.58189, 50.59002], [13.5789, 50.59023], [13.57869, 50.59011], [13.57784, 50.59081], [13.57807, 50.59087], [13.57855, 50.5904], [13.5796, 50.59047], [13.5801, 50.5902], [13.58055, 50.59034]]], [[[13.58311, 50.59345], [13.58315, 50.5934], [13.58306, 50.59338], [13.58309, 50.59348], [13.58311, 50.59345]]], [[[13.58647, 50.59374], [13.58652, 50.59372], [13.5866, 50.59339], [13.58617, 50.59347], [13.58638, 50.5936], [13.58613, 50.59383], [13.58626, 50.59392], [13.58647, 50.59374]]], [[[13.5857, 50.59418], [13.58571, 50.5944], [13.5861, 50.59428], [13.58599, 50.59414], [13.5857, 50.59418]]], [[[13.58436, 50.5976], [13.58342, 50.5977], [13.58319, 50.59818], [13.5834, 50.59852], [13.58489, 50.59832], [13.58513, 50.59791], [13.58483, 50.59755], [13.58436, 50.5976]]], [[[13.57976, 50.59854], [13.58018, 50.59875], [13.5797, 50.5982], [13.57954, 50.59848], [13.57976, 50.59854]]], [[[13.58448, 50.5991], [13.58463, 50.59891], [13.58507, 50.59859], [13.5841, 50.59888], [13.58448, 50.5991]]], [[[13.58329, 50.60027], [13.58343, 50.60054], [13.58387, 50.60044], [13.58374, 50.60016], [13.58309, 50.60013], [13.58329, 50.60027]]], [[[13.58544, 50.60056], [13.5847, 50.60074], [13.58487, 50.60112], [13.58549, 50.60068], [13.58544, 50.60056]]], [[[13.57908, 50.60231], [13.57857, 50.60134], [13.57856, 50.60094], [13.57809, 50.60183], [13.57821, 50.60248], [13.57867, 50.60265], [13.57908, 50.60231]]], [[[13.58169, 50.60234], [13.58106, 50.60207], [13.58074, 50.60146], [13.58059, 50.60224], [13.58002, 50.6025], [13.58017, 50.60258], [13.57963, 50.60269], [13.58134, 50.6028], [13.58213, 50.60235], [13.58169, 50.60234]]], [[[13.57434, 50.60428], [13.57387, 50.60468], [13.5743, 50.6045], [13.57434, 50.60428]]], [[[13.58485, 50.60695], [13.58445, 50.60699], [13.58394, 50.6065], [13.58347, 50.60678], [13.58306, 50.60761], [13.58435, 50.60816], [13.58598, 50.6074], [13.58601, 50.60725], [13.58512, 50.60686], [13.58562, 50.60702], [13.58655, 50.60685], [13.5869, 50.60641], [13.58576, 50.60649], [13.58482, 50.60632], [13.58439, 50.60669], [13.58485, 50.60695]]], [[[13.58129, 50.60945], [13.58119, 50.60965], [13.58169, 50.61003], [13.58198, 50.60965], [13.58177, 50.60924], [13.58129, 50.60931], [13.58129, 50.60945]]], [[[13.57772, 50.61096], [13.57783, 50.61109], [13.57842, 50.61078], [13.5782, 50.61043], [13.57753, 50.61084], [13.57772, 50.61096]]], [[[13.58019, 50.61071], [13.57999, 50.6106], [13.57944, 50.61094], [13.57997, 50.61099], [13.58036, 50.61076], [13.58019, 50.61071]]], [[[13.5841, 50.61089], [13.58408, 50.61129], [13.58428, 50.61129], [13.58402, 50.61043], [13.58375, 50.61057], [13.5841, 50.61089]]], [[[13.58359, 50.61164], [13.58238, 50.61186], [13.58133, 50.61175], [13.58056, 50.61186], [13.57996, 50.61222], [13.57914, 50.61214], [13.57907, 50.61226], [13.58392, 50.61231], [13.58443, 50.61178], [13.58373, 50.61187], [13.58379, 50.61163], [13.58359, 50.61164]]], [[[13.57485, 50.61218], [13.57477, 50.6122], [13.57473, 50.6122], [13.57495, 50.6122], [13.57485, 50.61218]]], [[[13.58725, 50.52276], [13.58877, 50.52292], [13.59025, 50.52337], [13.59146, 50.52409], [13.5927, 50.52533], [13.59359, 50.52537], [13.5936, 50.52561], [13.59399, 50.5258], [13.59698, 50.52653], [13.59937, 50.52688], [13.59962, 50.52716], [13.5949, 50.52659], [13.60213, 50.52749], [13.6002, 50.52721], [13.5995, 50.52675], [13.59761, 50.52646], [13.59838, 50.52652], [13.59464, 50.52566], [13.59382, 50.52513], [13.59396, 50.52449], [13.5948, 50.5241], [13.59559, 50.52408], [13.59734, 50.52433], [13.59927, 50.52486], [13.60029, 50.5249], [13.60462, 50.52432], [13.60493, 50.5241], [13.60517, 50.5243], [13.60667, 50.52418], [13.60724, 50.52408], [13.60769, 50.52366], [13.60807, 50.52382], [13.6082, 50.52369], [13.61202, 50.52388], [13.61771, 50.52526], [13.61825, 50.52506], [13.61893, 50.52516], [13.61906, 50.52484], [13.61792, 50.5247], [13.61749, 50.52428], [13.61729, 50.52343], [13.61698, 50.52316], [13.61659, 50.52316], [13.61663, 50.5236], [13.61703, 50.52403], [13.61626, 50.52356], [13.61574, 50.52276], [13.61407, 50.52274], [13.6155, 50.52279], [13.6158, 50.52339], [13.61356, 50.52273], [13.61259, 50.52272], [13.61207, 50.52344], [13.61055, 50.52341], [13.61038, 50.5227], [13.61029, 50.52343], [13.60987, 50.52325], [13.60927, 50.52328], [13.60892, 50.52305], [13.60854, 50.52306], [13.60838, 50.52332], [13.60782, 50.52295], [13.60797, 50.52267], [13.60705, 50.52289], [13.60635, 50.52265], [13.60561, 50.52264], [13.60576, 50.52291], [13.60507, 50.52263], [13.60403, 50.52262], [13.60372, 50.5232], [13.60408, 50.52382], [13.60479, 50.52391], [13.60134, 50.52454], [13.59972, 50.52292], [13.60011, 50.52279], [13.60144, 50.52299], [13.60276, 50.5226], [13.60102, 50.5229], [13.5995, 50.52257], [13.59971, 50.52273], [13.59946, 50.52295], [13.60106, 50.52445], [13.60105, 50.52459], [13.60044, 50.52464], [13.5996, 50.52459], [13.59769, 50.5241], [13.59476, 50.52295], [13.59413, 50.5225], [13.58624, 50.52241], [13.58678, 50.52277], [13.58725, 50.52276]], [[13.5955, 50.52599], [13.59377, 50.52552], [13.59381, 50.52523], [13.59448, 50.52564], [13.5955, 50.52599]], [[13.59973, 50.52296], [13.59976, 50.52299], [13.5996, 50.52295], [13.59961, 50.52295], [13.59973, 50.52296]]], [[[13.58954, 50.52384], [13.58755, 50.52341], [13.58884, 50.52373], [13.58897, 50.52408], [13.59018, 50.52436], [13.5913, 50.52508], [13.58954, 50.52384]]], [[[13.59088, 50.52526], [13.59031, 50.52495], [13.59016, 50.52521], [13.59082, 50.52554], [13.59118, 50.52542], [13.59088, 50.52526]]], [[[13.59245, 50.52646], [13.59288, 50.5265], [13.59238, 50.52615], [13.59217, 50.52642], [13.59245, 50.52646]]], [[[13.60042, 50.52673], [13.60069, 50.52673], [13.59879, 50.52657], [13.59959, 50.52669], [13.60042, 50.52673]]], [[[13.60356, 50.52673], [13.60101, 50.52675], [13.60677, 50.52672], [13.60749, 50.52689], [13.60713, 50.52789], [13.60676, 50.528], [13.61055, 50.52842], [13.61012, 50.52778], [13.61042, 50.52723], [13.61767, 50.52783], [13.61864, 50.52822], [13.6183, 50.52768], [13.61557, 50.5273], [13.61206, 50.52719], [13.60996, 50.52689], [13.60559, 50.52664], [13.60356, 50.52673]]], [[[13.59858, 50.52826], [13.59888, 50.52826], [13.59893, 50.52811], [13.59817, 50.52803], [13.59858, 50.52826]]], [[[13.59913, 50.53137], [13.59813, 50.53115], [13.59695, 50.5321], [13.59693, 50.53256], [13.59816, 50.53318], [13.60019, 50.53337], [13.60037, 50.53236], [13.59962, 50.53151], [13.59913, 50.53137]]], [[[13.58968, 50.53256], [13.58992, 50.53328], [13.59107, 50.53421], [13.59212, 50.53453], [13.58968, 50.53256]]], [[[13.59828, 50.54427], [13.59799, 50.54462], [13.59756, 50.54468], [13.59525, 50.54602], [13.59962, 50.54762], [13.60917, 50.54866], [13.61048, 50.54739], [13.61017, 50.54746], [13.60926, 50.54707], [13.60923, 50.54673], [13.61541, 50.54272], [13.6165, 50.5422], [13.62453, 50.53504], [13.62442, 50.5344], [13.62513, 50.53054], [13.62573, 50.52995], [13.62659, 50.52985], [13.62685, 50.52963], [13.62632, 50.5297], [13.62603, 50.52952], [13.62569, 50.52973], [13.62532, 50.52891], [13.62454, 50.52879], [13.6249, 50.52886], [13.62491, 50.52902], [13.62314, 50.52877], [13.62313, 50.5289], [13.62286, 50.52881], [13.62006, 50.52917], [13.61958, 50.52901], [13.61494, 50.52955], [13.61458, 50.52985], [13.61332, 50.52956], [13.61029, 50.52933], [13.60974, 50.52959], [13.60877, 50.52946], [13.6085, 50.52971], [13.60889, 50.53021], [13.60928, 50.53034], [13.60835, 50.53076], [13.60756, 50.53076], [13.60692, 50.53099], [13.60345, 50.53368], [13.60292, 50.53432], [13.60341, 50.53526], [13.6054, 50.53538], [13.60577, 50.53518], [13.60686, 50.53517], [13.60754, 50.53496], [13.6083, 50.53507], [13.60903, 50.53542], [13.61022, 50.53506], [13.61034, 50.53534], [13.61472, 50.53426], [13.61593, 50.53432], [13.61926, 50.53348], [13.61972, 50.5327], [13.6206, 50.5324], [13.62136, 50.53263], [13.62235, 50.53244], [13.62255, 50.53435], [13.62235, 50.53488], [13.61362, 50.54261], [13.60864, 50.54576], [13.60612, 50.54624], [13.60599, 50.5464], [13.60634, 50.54687], [13.60586, 50.5471], [13.60332, 50.54639], [13.60088, 50.54602], [13.60055, 50.5465], [13.59967, 50.54659], [13.59905, 50.5461], [13.59947, 50.54557], [13.59746, 50.54518], [13.60018, 50.54351], [13.5996, 50.54553], [13.6001, 50.5455], [13.60081, 50.54313], [13.59503, 50.53725], [13.59477, 50.53763], [13.60021, 50.5431], [13.59828, 50.54427]], [[13.62009, 50.52966], [13.62044, 50.5296], [13.62078, 50.52959], [13.62031, 50.52973], [13.62009, 50.52966]], [[13.6134, 50.53123], [13.61612, 50.53115], [13.61887, 50.53082], [13.61706, 50.53191], [13.6164, 50.53324], [13.61533, 50.53351], [13.61431, 50.53411], [13.61368, 50.53426], [13.61221, 50.53379], [13.61043, 50.53382], [13.6099, 50.53355], [13.61193, 50.53272], [13.6134, 50.53123]], [[13.61908, 50.52947], [13.61848, 50.52964], [13.6184, 50.52953], [13.61852, 50.52926], [13.61908, 50.52947]], [[13.62068, 50.53705], [13.62142, 50.53752], [13.62114, 50.53784], [13.62057, 50.53801], [13.62017, 50.53789], [13.61982, 50.53749], [13.62006, 50.53719], [13.62068, 50.53705]], [[13.62423, 50.52921], [13.62232, 50.52931], [13.62085, 50.52944], [13.62357, 50.52894], [13.62423, 50.52921]], [[13.62417, 50.5296], [13.62402, 50.52933], [13.6244, 50.5293], [13.62417, 50.5296]], [[13.6249, 50.52953], [13.62485, 50.52968], [13.62473, 50.52944], [13.6249, 50.52953]], [[13.62426, 50.52983], [13.62421, 50.52966], [13.62451, 50.52934], [13.62459, 50.52945], [13.62426, 50.52983]], [[13.62096, 50.52983], [13.62131, 50.52998], [13.62119, 50.53014], [13.62077, 50.53003], [13.62096, 50.52983]], [[13.62385, 50.53123], [13.62391, 50.53116], [13.62396, 50.53116], [13.62395, 50.53127], [13.62385, 50.53123]], [[13.62333, 50.53069], [13.62329, 50.53125], [13.62198, 50.53072], [13.62336, 50.53048], [13.62333, 50.53069]]], [[[13.58955, 50.54346], [13.58952, 50.54347], [13.58975, 50.5437], [13.58962, 50.54345], [13.58955, 50.54346]]], [[[13.59232, 50.546], [13.59251, 50.54669], [13.59218, 50.54766], [13.59353, 50.54715], [13.59376, 50.54683], [13.59333, 50.54679], [13.59296, 50.54641], [13.59324, 50.54595], [13.59147, 50.54529], [13.59232, 50.546]]], [[[13.58891, 50.54613], [13.58949, 50.54588], [13.59066, 50.54635], [13.59098, 50.54579], [13.59022, 50.54591], [13.58951, 50.54567], [13.58887, 50.54585], [13.58871, 50.54573], [13.58893, 50.54646], [13.58891, 50.54613]]], [[[13.58903, 50.54678], [13.58902, 50.54677], [13.58903, 50.54678], [13.58903, 50.54678]]], [[[13.60006, 50.54827], [13.59878, 50.54802], [13.59431, 50.54635], [13.59408, 50.54658], [13.59398, 50.54673], [13.59462, 50.54668], [13.59639, 50.54719], [13.59782, 50.54829], [13.5985, 50.5484], [13.60015, 50.54837], [13.60006, 50.54827]]], [[[13.59678, 50.54846], [13.59597, 50.54768], [13.59523, 50.5474], [13.59469, 50.54775], [13.59385, 50.54766], [13.59218, 50.54827], [13.59168, 50.54818], [13.59123, 50.54879], [13.59206, 50.5488], [13.59244, 50.54904], [13.59254, 50.55002], [13.59335, 50.55014], [13.59345, 50.55326], [13.59315, 50.55343], [13.59343, 50.55425], [13.58886, 50.55442], [13.58882, 50.5547], [13.5954, 50.55479], [13.59478, 50.55462], [13.5945, 50.55424], [13.59461, 50.55386], [13.59501, 50.5536], [13.59502, 50.55093], [13.59545, 50.54895], [13.59611, 50.54865], [13.59745, 50.54878], [13.59678, 50.54846]], [[13.59403, 50.54854], [13.59318, 50.549], [13.59269, 50.54892], [13.59248, 50.54866], [13.59266, 50.54839], [13.59355, 50.54809], [13.59394, 50.5482], [13.59403, 50.54854]]], [[[13.59934, 50.54892], [13.59897, 50.54893], [13.59919, 50.54895], [13.59934, 50.54892]]], [[[13.58837, 50.54986], [13.58823, 50.54993], [13.58844, 50.55012], [13.58862, 50.54972], [13.58837, 50.54986]]], [[[13.58944, 50.5499], [13.58933, 50.55044], [13.58989, 50.55041], [13.58951, 50.54998], [13.58983, 50.54951], [13.58951, 50.5495], [13.58944, 50.5499]]], [[[13.60163, 50.55372], [13.60094, 50.55422], [13.60254, 50.55478], [13.60321, 50.55425], [13.6019, 50.55351], [13.60163, 50.55372]]], [[[13.59772, 50.55424], [13.5977, 50.55387], [13.5968, 50.55422], [13.59631, 50.55479], [13.59749, 50.55475], [13.59806, 50.5545], [13.59772, 50.55424]]], [[[13.58791, 50.55573], [13.58749, 50.55593], [13.58785, 50.5559], [13.58819, 50.55617], [13.58833, 50.5561], [13.58791, 50.55573]]], [[[13.60278, 50.55696], [13.60278, 50.55699], [13.60363, 50.55698], [13.6035, 50.55683], [13.60278, 50.55696]]], [[[13.59054, 50.55728], [13.59078, 50.55777], [13.59111, 50.55754], [13.59121, 50.55692], [13.59039, 50.55689], [13.59054, 50.55728]]], [[[13.60226, 50.55856], [13.60179, 50.55878], [13.60119, 50.5588], [13.60117, 50.56001], [13.60174, 50.55989], [13.60255, 50.56003], [13.60257, 50.55848], [13.60237, 50.55839], [13.60226, 50.55856]]], [[[13.604, 50.56631], [13.60357, 50.56537], [13.60139, 50.56397], [13.60071, 50.56321], [13.60035, 50.56241], [13.60031, 50.56109], [13.59932, 50.56109], [13.59919, 50.56178], [13.59861, 50.56253], [13.60019, 50.56385], [13.60088, 50.56385], [13.60133, 50.56404], [13.60145, 50.56462], [13.60292, 50.56539], [13.60299, 50.56606], [13.60355, 50.56647], [13.60347, 50.56735], [13.60387, 50.56787], [13.60355, 50.56998], [13.60252, 50.57219], [13.60285, 50.57224], [13.60364, 50.56973], [13.60387, 50.56883], [13.604, 50.56631]]], [[[13.59285, 50.57229], [13.5916, 50.57643], [13.5912, 50.57779], [13.59287, 50.57258], [13.59328, 50.57213], [13.59285, 50.57229]]], [[[13.5912, 50.57779], [13.59203, 50.57794], [13.59196, 50.57789], [13.5912, 50.57779]]], [[[13.59412, 50.57816], [13.59827, 50.5787], [13.59651, 50.57847], [13.59412, 50.57816]]], [[[13.60276, 50.57908], [13.60308, 50.5781], [13.60383, 50.57762], [13.60367, 50.57757], [13.60321, 50.5779], [13.60256, 50.57793], [13.60206, 50.5804], [13.60277, 50.58029], [13.60276, 50.57908]]], [[[13.6015, 50.58455], [13.60175, 50.58528], [13.60221, 50.58598], [13.60397, 50.58733], [13.61231, 50.59035], [13.61266, 50.58972], [13.61136, 50.58941], [13.607, 50.58761], [13.60634, 50.58779], [13.60522, 50.58759], [13.60458, 50.58722], [13.60457, 50.58675], [13.60495, 50.58642], [13.60564, 50.58625], [13.60719, 50.58656], [13.60691, 50.58575], [13.6083, 50.58446], [13.61176, 50.58351], [13.61798, 50.58262], [13.61807, 50.58239], [13.61288, 50.5831], [13.60781, 50.58445], [13.60278, 50.5861], [13.60206, 50.5857], [13.60198, 50.58459], [13.6023, 50.58322], [13.60162, 50.58289], [13.6015, 50.58455]]], [[[13.60076, 50.58518], [13.60157, 50.5867], [13.60288, 50.58773], [13.6031, 50.58757], [13.60147, 50.58624], [13.6007, 50.58477], [13.60076, 50.58518]]], [[[13.59992, 50.59185], [13.59931, 50.59188], [13.59863, 50.59275], [13.59881, 50.59289], [13.60011, 50.59271], [13.60083, 50.59241], [13.60145, 50.59244], [13.6018, 50.59214], [13.60244, 50.59205], [13.60249, 50.59176], [13.59992, 50.59185]]], [[[13.59138, 50.59348], [13.59144, 50.59363], [13.5934, 50.5942], [13.59342, 50.59396], [13.59125, 50.59335], [13.59138, 50.59348]]], [[[13.59891, 50.59384], [13.59867, 50.59379], [13.59846, 50.59396], [13.59893, 50.59398], [13.59891, 50.59384]]], [[[13.59543, 50.59499], [13.59571, 50.59513], [13.59594, 50.59488], [13.59561, 50.59484], [13.59543, 50.59499]]], [[[13.60015, 50.59645], [13.60036, 50.59624], [13.60014, 50.5961], [13.59978, 50.59656], [13.6, 50.59668], [13.60015, 50.59645]]], [[[13.58866, 50.59855], [13.58816, 50.59933], [13.58824, 50.59935], [13.58848, 50.59912], [13.58866, 50.59855]]], [[[13.59215, 50.6077], [13.59227, 50.60767], [13.59221, 50.60761], [13.59205, 50.60775], [13.59215, 50.6077]]], [[[13.59009, 50.60959], [13.58996, 50.6094], [13.58606, 50.60921], [13.58529, 50.60937], [13.58467, 50.60969], [13.58604, 50.60927], [13.58921, 50.60982], [13.58838, 50.61062], [13.58891, 50.6107], [13.59026, 50.60983], [13.59009, 50.60959]]], [[[13.62029, 50.52462], [13.62142, 50.52508], [13.6217, 50.5254], [13.62132, 50.52598], [13.62048, 50.52606], [13.62092, 50.52662], [13.62166, 50.52671], [13.62205, 50.52642], [13.62262, 50.52634], [13.62343, 50.52676], [13.62345, 50.52625], [13.62393, 50.52587], [13.6227, 50.52471], [13.62135, 50.52427], [13.6204, 50.52432], [13.62029, 50.52462]]], [[[13.62191, 50.52758], [13.62183, 50.52763], [13.62217, 50.52751], [13.62203, 50.52745], [13.62191, 50.52758]]], [[[13.62035, 50.52745], [13.61961, 50.52765], [13.6196, 50.52808], [13.62128, 50.5278], [13.62075, 50.52773], [13.62035, 50.52745]]], [[[13.60512, 50.5278], [13.60508, 50.52781], [13.60529, 50.52784], [13.60528, 50.52782], [13.60512, 50.5278]]], [[[13.6176, 50.52823], [13.61745, 50.52829], [13.6175, 50.52839], [13.61767, 50.52836], [13.6176, 50.52823]]], [[[13.60721, 50.52908], [13.60735, 50.52939], [13.60833, 50.52938], [13.60811, 50.52909], [13.60721, 50.52908]]], [[[13.60705, 50.53035], [13.60702, 50.53054], [13.60726, 50.53062], [13.60713, 50.53051], [13.60705, 50.53035]]], [[[13.61576, 50.54309], [13.61623, 50.54271], [13.61419, 50.54435], [13.615, 50.54373], [13.61576, 50.54309]]], [[[13.61818, 50.5458], [13.61817, 50.54581], [13.61818, 50.54581], [13.61818, 50.5458]]], [[[13.6108, 50.54711], [13.6125, 50.54571], [13.61145, 50.54631], [13.6108, 50.54711]]], [[[13.61981, 50.54898], [13.61976, 50.54882], [13.61877, 50.54909], [13.61716, 50.54899], [13.61644, 50.54817], [13.61655, 50.5477], [13.6156, 50.54772], [13.61446, 50.54842], [13.61486, 50.54977], [13.61414, 50.55022], [13.61737, 50.55106], [13.61714, 50.55071], [13.61728, 50.55047], [13.61873, 50.5503], [13.61936, 50.55047], [13.61962, 50.55075], [13.61937, 50.55102], [13.61871, 50.55108], [13.61973, 50.55107], [13.62183, 50.55072], [13.62381, 50.54993], [13.62425, 50.55003], [13.62426, 50.55035], [13.62503, 50.5498], [13.62486, 50.54929], [13.62379, 50.54884], [13.62346, 50.54889], [13.62326, 50.54952], [13.6226, 50.5498], [13.62013, 50.5492], [13.61981, 50.54898]]], [[[13.61198, 50.54881], [13.61183, 50.54887], [13.61194, 50.54893], [13.61201, 50.54886], [13.61198, 50.54881]]], [[[13.6092, 50.54941], [13.609, 50.54947], [13.60886, 50.54951], [13.60908, 50.54953], [13.6092, 50.54941]]], [[[13.61198, 50.55037], [13.61198, 50.55037], [13.61198, 50.55037], [13.61198, 50.55037]]], [[[13.62221, 50.55126], [13.62221, 50.55127], [13.62225, 50.55119], [13.62217, 50.55121], [13.62221, 50.55126]]], [[[13.61945, 50.55168], [13.61959, 50.55161], [13.61804, 50.55163], [13.61891, 50.55226], [13.61945, 50.55168]]], [[[13.62283, 50.5525], [13.62169, 50.55388], [13.62287, 50.55397], [13.62356, 50.55179], [13.62342, 50.55153], [13.6242, 50.55039], [13.62321, 50.55109], [13.62277, 50.55196], [13.62283, 50.5525]]], [[[13.62298, 50.55562], [13.62209, 50.55671], [13.62139, 50.55685], [13.62062, 50.55748], [13.61971, 50.55742], [13.62001, 50.56032], [13.62029, 50.56084], [13.62069, 50.56126], [13.62016, 50.56043], [13.61999, 50.55919], [13.62024, 50.55805], [13.62086, 50.55742], [13.62214, 50.55697], [13.62298, 50.55562]]], [[[13.62093, 50.56145], [13.621, 50.5615], [13.62072, 50.56129], [13.62079, 50.56134], [13.62093, 50.56145]]], [[[13.60454, 50.56958], [13.60447, 50.56983], [13.60435, 50.57021], [13.60453, 50.57014], [13.60454, 50.56958]]], [[[13.60446, 50.57154], [13.60408, 50.57108], [13.60368, 50.57235], [13.60454, 50.57239], [13.60446, 50.57154]]], [[[13.60891, 50.57207], [13.60873, 50.57211], [13.60874, 50.57226], [13.60919, 50.57217], [13.60891, 50.57207]]], [[[13.60451, 50.57299], [13.6035, 50.57293], [13.6031, 50.57411], [13.60411, 50.57336], [13.6053, 50.57293], [13.60451, 50.57299]]], [[[13.60936, 50.57271], [13.60696, 50.57313], [13.60507, 50.5736], [13.60598, 50.57366], [13.60713, 50.57348], [13.60968, 50.57265], [13.60936, 50.57271]]], [[[13.61036, 50.57393], [13.61037, 50.57351], [13.61072, 50.57305], [13.61023, 50.57323], [13.60995, 50.57371], [13.61027, 50.57405], [13.61036, 50.57393]]], [[[13.61572, 50.57156], [13.61491, 50.57209], [13.61458, 50.57272], [13.61316, 50.57319], [13.6129, 50.57395], [13.60977, 50.57644], [13.60829, 50.57691], [13.60808, 50.57726], [13.6101, 50.5764], [13.61074, 50.57573], [13.61451, 50.57305], [13.61531, 50.57211], [13.61652, 50.57131], [13.61776, 50.57079], [13.61826, 50.57074], [13.61918, 50.57101], [13.62095, 50.5709], [13.62141, 50.5713], [13.62143, 50.57194], [13.62176, 50.57236], [13.62154, 50.57238], [13.62144, 50.57296], [13.62302, 50.57353], [13.62333, 50.57324], [13.62403, 50.57369], [13.62439, 50.57334], [13.62376, 50.57327], [13.62253, 50.57225], [13.6226, 50.57194], [13.62314, 50.57175], [13.62298, 50.57151], [13.62332, 50.57101], [13.62381, 50.5709], [13.62476, 50.57119], [13.62503, 50.57151], [13.62462, 50.57211], [13.62492, 50.57231], [13.62489, 50.57213], [13.62573, 50.57221], [13.62794, 50.56945], [13.62827, 50.56822], [13.63069, 50.5692], [13.63052, 50.56893], [13.62883, 50.56825], [13.62847, 50.56647], [13.62779, 50.56684], [13.62597, 50.56721], [13.6248, 50.56723], [13.62443, 50.56686], [13.62437, 50.56728], [13.62478, 50.56772], [13.62364, 50.5702], [13.62303, 50.57075], [13.62168, 50.57047], [13.61938, 50.57086], [13.61784, 50.57059], [13.61572, 50.57156]], [[13.62635, 50.57041], [13.62601, 50.57091], [13.62542, 50.5711], [13.62456, 50.57092], [13.62419, 50.57052], [13.62452, 50.56997], [13.62534, 50.56978], [13.62611, 50.56996], [13.62635, 50.57041]]], [[[13.60339, 50.58958], [13.60363, 50.58985], [13.60326, 50.58892], [13.60273, 50.58839], [13.60339, 50.58958]]], [[[13.60809, 50.58948], [13.60808, 50.58953], [13.60848, 50.58961], [13.60809, 50.58947], [13.60809, 50.58948]]], [[[13.60479, 50.5901], [13.60515, 50.59024], [13.6044, 50.58956], [13.6045, 50.58982], [13.60479, 50.5901]]], [[[13.61208, 50.59094], [13.61238, 50.59101], [13.61196, 50.59084], [13.61208, 50.59094]]], [[[13.60732, 50.59271], [13.60735, 50.59271], [13.60697, 50.59243], [13.60703, 50.59252], [13.60732, 50.59271]]], [[[13.61228, 50.59419], [13.61243, 50.59396], [13.61183, 50.59379], [13.61181, 50.59396], [13.61228, 50.59419]]], [[[13.61848, 50.59613], [13.61841, 50.59615], [13.61844, 50.59618], [13.61846, 50.59615], [13.61848, 50.59613]]], [[[13.61855, 50.59689], [13.61854, 50.59719], [13.61885, 50.59775], [13.61918, 50.59725], [13.61855, 50.59689]]], [[[13.6193, 50.60004], [13.61942, 50.60075], [13.61858, 50.60142], [13.61862, 50.60195], [13.61906, 50.60238], [13.61969, 50.6026], [13.61988, 50.60301], [13.62047, 50.60313], [13.6213, 50.60245], [13.62254, 50.60244], [13.6226, 50.60207], [13.62242, 50.60171], [13.62213, 50.60212], [13.62148, 50.6023], [13.62073, 50.60217], [13.62001, 50.60174], [13.61973, 50.60189], [13.61934, 50.60182], [13.61922, 50.60158], [13.61946, 50.60121], [13.62051, 50.60128], [13.62119, 50.60057], [13.62086, 50.60031], [13.6193, 50.60004]]], [[[13.6098, 50.60973], [13.60943, 50.60956], [13.60877, 50.60989], [13.60926, 50.61013], [13.6098, 50.60973]]], [[[13.63376, 50.52528], [13.63208, 50.52577], [13.63177, 50.52651], [13.63488, 50.52502], [13.63489, 50.52484], [13.63376, 50.52528]]], [[[13.63098, 50.52581], [13.63085, 50.52587], [13.63118, 50.52572], [13.63098, 50.52581]]], [[[13.62479, 50.52643], [13.62438, 50.52634], [13.62425, 50.52657], [13.6246, 50.52667], [13.62479, 50.52643]]], [[[13.63445, 50.52711], [13.6341, 50.52738], [13.6348, 50.52777], [13.63483, 50.52675], [13.63445, 50.52711]]], [[[13.62639, 50.52758], [13.62702, 50.52746], [13.62723, 50.52759], [13.62717, 50.52693], [13.62319, 50.52819], [13.6255, 50.52838], [13.62622, 50.52781], [13.62667, 50.52779], [13.62639, 50.52758]]], [[[13.63207, 50.52717], [13.63139, 50.52876], [13.63056, 50.52956], [13.63224, 50.53217], [13.63219, 50.53339], [13.62777, 50.54181], [13.62827, 50.54251], [13.63001, 50.54155], [13.6308, 50.54182], [13.63109, 50.54422], [13.63077, 50.54454], [13.63047, 50.54457], [13.62894, 50.54384], [13.62826, 50.54386], [13.631, 50.54482], [13.63366, 50.54628], [13.63814, 50.55192], [13.63935, 50.5528], [13.64271, 50.55384], [13.64374, 50.55373], [13.64417, 50.55398], [13.64427, 50.55432], [13.64943, 50.55591], [13.6499, 50.55572], [13.65053, 50.55578], [13.65099, 50.55615], [13.65081, 50.55662], [13.65146, 50.55698], [13.65224, 50.55722], [13.65138, 50.55677], [13.65267, 50.55703], [13.65429, 50.55695], [13.65444, 50.55725], [13.65925, 50.55571], [13.66175, 50.55428], [13.65901, 50.55217], [13.65852, 50.55142], [13.65846, 50.55031], [13.6589, 50.54948], [13.65965, 50.54881], [13.66246, 50.54767], [13.66252, 50.54541], [13.661, 50.54629], [13.6584, 50.5473], [13.65693, 50.54835], [13.65583, 50.54764], [13.65465, 50.54643], [13.65533, 50.54591], [13.65738, 50.54649], [13.65966, 50.54648], [13.66086, 50.54619], [13.66252, 50.54531], [13.6627, 50.53894], [13.66164, 50.53831], [13.66043, 50.53805], [13.65989, 50.53698], [13.65834, 50.53574], [13.65571, 50.5341], [13.65432, 50.53354], [13.65477, 50.53221], [13.65182, 50.53218], [13.65189, 50.53243], [13.65094, 50.53419], [13.65382, 50.53549], [13.6562, 50.53696], [13.65748, 50.53799], [13.6573, 50.53879], [13.65833, 50.53962], [13.65919, 50.54003], [13.65981, 50.53984], [13.66032, 50.53997], [13.66057, 50.54037], [13.66039, 50.54113], [13.66089, 50.54215], [13.66102, 50.54313], [13.66057, 50.54394], [13.659, 50.54469], [13.65741, 50.54458], [13.65584, 50.54389], [13.65447, 50.54396], [13.65331, 50.54455], [13.65108, 50.54645], [13.65378, 50.54896], [13.65483, 50.5496], [13.65504, 50.55011], [13.6548, 50.55139], [13.65302, 50.5521], [13.65249, 50.55329], [13.65179, 50.55345], [13.64937, 50.55338], [13.64538, 50.55216], [13.64211, 50.55022], [13.64061, 50.54742], [13.63904, 50.54513], [13.63874, 50.54301], [13.63765, 50.54235], [13.63745, 50.54154], [13.63403, 50.53806], [13.63472, 50.53636], [13.63515, 50.53198], [13.63468, 50.53198], [13.6348, 50.52795], [13.63427, 50.5277], [13.63389, 50.52772], [13.63268, 50.52713], [13.63415, 50.5261], [13.63483, 50.52667], [13.63486, 50.52569], [13.63294, 50.52652], [13.63207, 50.52717]], [[13.63369, 50.54241], [13.63081, 50.54129], [13.63184, 50.53937], [13.63461, 50.54214], [13.63515, 50.54325], [13.63598, 50.54387], [13.63597, 50.54439], [13.63483, 50.54311], [13.63369, 50.54241]], [[13.63641, 50.54595], [13.63627, 50.54581], [13.63628, 50.54564], [13.63649, 50.54605], [13.63641, 50.54595]], [[13.65642, 50.55294], [13.65662, 50.55283], [13.65816, 50.55416], [13.656, 50.55482], [13.6548, 50.55439], [13.65557, 50.55335], [13.65642, 50.55294]]], [[[13.62695, 50.52945], [13.62687, 50.52947], [13.6266, 50.52933], [13.62696, 50.52955], [13.62695, 50.52945]]], [[[13.62704, 50.52943], [13.62707, 50.52949], [13.62712, 50.52946], [13.62704, 50.52943]]], [[[13.62984, 50.53281], [13.62977, 50.53274], [13.6297, 50.53282], [13.62974, 50.53284], [13.62984, 50.53281]]], [[[13.629, 50.53756], [13.62514, 50.54048], [13.62511, 50.54089], [13.62451, 50.54128], [13.6241, 50.54191], [13.62433, 50.54206], [13.62641, 50.54263], [13.62935, 50.53724], [13.629, 50.53756]]], [[[13.62508, 50.54495], [13.62552, 50.5442], [13.62516, 50.54406], [13.62433, 50.5442], [13.6252, 50.54519], [13.62508, 50.54495]]], [[[13.62524, 50.54604], [13.62448, 50.54583], [13.62425, 50.54602], [13.62485, 50.54645], [13.62539, 50.54615], [13.62524, 50.54604]]], [[[13.6223, 50.54622], [13.6233, 50.54651], [13.6241, 50.54689], [13.62306, 50.54615], [13.6223, 50.54622]]], [[[13.63206, 50.546], [13.63158, 50.54577], [13.63132, 50.54606], [13.63159, 50.54669], [13.63062, 50.54793], [13.62999, 50.54815], [13.62914, 50.54958], [13.6295, 50.54961], [13.62971, 50.54928], [13.63021, 50.54909], [13.63135, 50.54937], [13.63131, 50.55004], [13.63085, 50.55025], [13.63031, 50.55024], [13.63227, 50.55244], [13.63375, 50.55285], [13.63322, 50.55172], [13.63343, 50.55145], [13.63406, 50.55128], [13.63751, 50.55261], [13.63761, 50.55287], [13.63735, 50.55311], [13.63622, 50.55339], [13.63832, 50.55298], [13.63739, 50.55217], [13.63343, 50.54707], [13.63206, 50.546]]], [[[13.62704, 50.54818], [13.62783, 50.54816], [13.62801, 50.54799], [13.62741, 50.54796], [13.62692, 50.5477], [13.62655, 50.54843], [13.62704, 50.54818]]], [[[13.6292, 50.55012], [13.62918, 50.55012], [13.62953, 50.55047], [13.6294, 50.55018], [13.6292, 50.55012]]], [[[13.62649, 50.5505], [13.62633, 50.55049], [13.62616, 50.55107], [13.6267, 50.551], [13.62705, 50.55044], [13.62649, 50.5505]]], [[[13.63362, 50.55427], [13.63321, 50.55421], [13.63338, 50.5549], [13.63319, 50.55542], [13.6332, 50.55557], [13.63346, 50.55521], [13.63456, 50.55541], [13.63587, 50.55538], [13.63673, 50.55479], [13.63675, 50.55453], [13.63362, 50.55427]]], [[[13.62321, 50.55503], [13.62344, 50.55504], [13.62335, 50.55479], [13.62317, 50.55493], [13.62321, 50.55503]]], [[[13.62502, 50.56384], [13.62484, 50.56353], [13.62478, 50.56382], [13.62511, 50.56391], [13.62579, 50.56385], [13.62502, 50.56384]]], [[[13.62411, 50.56386], [13.62472, 50.56381], [13.6247, 50.56367], [13.624, 50.56369], [13.62411, 50.56386]]], [[[13.62523, 50.56483], [13.62538, 50.56495], [13.6257, 50.56504], [13.62547, 50.56457], [13.62523, 50.56483]]], [[[13.63166, 50.56531], [13.63076, 50.56564], [13.63329, 50.56516], [13.63459, 50.56585], [13.63557, 50.56611], [13.63587, 50.56599], [13.63392, 50.56537], [13.63358, 50.56503], [13.63494, 50.56461], [13.6358, 50.56372], [13.63685, 50.56079], [13.63747, 50.56192], [13.63716, 50.56295], [13.63817, 50.56397], [13.63832, 50.56329], [13.63805, 50.56246], [13.64022, 50.56216], [13.64176, 50.5615], [13.64398, 50.56223], [13.64551, 50.56247], [13.64713, 50.56196], [13.64639, 50.56145], [13.65014, 50.56097], [13.65019, 50.55922], [13.64828, 50.55915], [13.64611, 50.55954], [13.64529, 50.55935], [13.64352, 50.55967], [13.63876, 50.5587], [13.63865, 50.5593], [13.63783, 50.5595], [13.63726, 50.55931], [13.63704, 50.55894], [13.63524, 50.56386], [13.63381, 50.5647], [13.63191, 50.5651], [13.63166, 50.56531]]], [[[13.62826, 50.56594], [13.62806, 50.56573], [13.62613, 50.56575], [13.62576, 50.5662], [13.62468, 50.5664], [13.62905, 50.56597], [13.62826, 50.56594]]], [[[13.62982, 50.56777], [13.63024, 50.5677], [13.63075, 50.56761], [13.63024, 50.56764], [13.62982, 50.56777]]], [[[13.63033, 50.56867], [13.63009, 50.56842], [13.62969, 50.56808], [13.62997, 50.56853], [13.63033, 50.56867]]], [[[13.62742, 50.57135], [13.62652, 50.57268], [13.62762, 50.57435], [13.62952, 50.57481], [13.63054, 50.57444], [13.6313, 50.57504], [13.63095, 50.57623], [13.63151, 50.57539], [13.63149, 50.5746], [13.63092, 50.57361], [13.6296, 50.57279], [13.63088, 50.57108], [13.63078, 50.56937], [13.62772, 50.57067], [13.62742, 50.57135]]], [[[13.62797, 50.58013], [13.62815, 50.58036], [13.63023, 50.57905], [13.63105, 50.57692], [13.63072, 50.57697], [13.63051, 50.57775], [13.63, 50.57837], [13.62797, 50.58013]]], [[[13.63497, 50.57855], [13.63422, 50.57921], [13.63487, 50.57997], [13.63511, 50.57934], [13.63497, 50.57855]]], [[[13.62163, 50.58188], [13.62147, 50.58217], [13.62531, 50.58139], [13.62802, 50.58044], [13.62761, 50.5803], [13.62672, 50.58073], [13.62163, 50.58188]]], [[[13.6333, 50.58315], [13.6331, 50.58407], [13.63288, 50.58403], [13.63308, 50.58435], [13.6333, 50.58442], [13.63515, 50.58388], [13.63441, 50.58273], [13.63346, 50.58277], [13.6333, 50.58315]]], [[[13.63003, 50.58828], [13.63029, 50.58828], [13.62996, 50.58803], [13.6298, 50.58832], [13.63003, 50.58828]]], [[[13.63121, 50.58848], [13.63222, 50.58903], [13.63294, 50.58849], [13.63431, 50.58814], [13.63514, 50.58764], [13.63622, 50.58688], [13.63633, 50.5865], [13.63707, 50.58592], [13.63756, 50.58482], [13.63776, 50.58483], [13.63794, 50.58358], [13.63921, 50.58317], [13.63941, 50.58281], [13.6372, 50.58272], [13.63687, 50.58375], [13.63629, 50.58431], [13.63637, 50.58479], [13.63593, 50.58491], [13.63367, 50.58718], [13.63176, 50.58804], [13.63121, 50.58848]]], [[[13.62854, 50.59007], [13.62905, 50.58984], [13.62969, 50.58983], [13.62879, 50.58935], [13.62715, 50.58973], [13.62752, 50.59032], [13.62603, 50.59013], [13.62513, 50.59151], [13.62527, 50.59169], [13.62564, 50.59149], [13.62625, 50.59157], [13.62695, 50.59126], [13.62764, 50.59131], [13.62854, 50.59007]]], [[[13.63063, 50.59237], [13.63224, 50.59209], [13.63169, 50.5915], [13.63053, 50.5923], [13.62921, 50.59288], [13.6301, 50.59278], [13.63063, 50.59237]]], [[[13.63283, 50.59331], [13.63268, 50.59332], [13.63268, 50.59333], [13.6328, 50.59332], [13.63283, 50.59331]]], [[[13.628, 50.5944], [13.62729, 50.59392], [13.62153, 50.59535], [13.62151, 50.59577], [13.62082, 50.59626], [13.62319, 50.59688], [13.62318, 50.59708], [13.62375, 50.5962], [13.62446, 50.59636], [13.62513, 50.59629], [13.62608, 50.59672], [13.62762, 50.59706], [13.62756, 50.59728], [13.62811, 50.59699], [13.6285, 50.59701], [13.62871, 50.59723], [13.62854, 50.59745], [13.62902, 50.59771], [13.62941, 50.59699], [13.62879, 50.59694], [13.62905, 50.5965], [13.62904, 50.59564], [13.6284, 50.59534], [13.628, 50.5944]]], [[[13.63132, 50.59474], [13.63037, 50.59483], [13.63065, 50.59539], [13.63112, 50.59534], [13.6318, 50.59482], [13.63132, 50.59474]]], [[[13.63265, 50.59537], [13.63361, 50.59553], [13.63376, 50.59619], [13.6332, 50.59649], [13.63166, 50.5966], [13.6323, 50.59758], [13.63329, 50.59815], [13.6346, 50.59697], [13.63364, 50.59521], [13.63265, 50.59513], [13.6324, 50.59527], [13.63265, 50.59537]]], [[[13.62173, 50.59767], [13.62204, 50.59809], [13.62189, 50.59845], [13.62092, 50.59895], [13.6202, 50.59897], [13.62078, 50.59942], [13.62129, 50.59953], [13.62283, 50.59951], [13.62254, 50.59909], [13.62287, 50.59814], [13.62334, 50.59785], [13.62407, 50.59784], [13.62375, 50.59733], [13.62322, 50.5972], [13.62273, 50.59773], [13.62173, 50.59767]]], [[[13.62579, 50.59934], [13.62573, 50.59954], [13.62668, 50.5997], [13.6264, 50.59927], [13.62587, 50.59916], [13.62579, 50.59934]]], [[[13.63325, 50.60018], [13.63346, 50.60048], [13.63416, 50.60043], [13.63419, 50.60016], [13.63293, 50.59975], [13.63325, 50.60018]]], [[[13.62711, 50.60045], [13.62717, 50.60062], [13.62732, 50.60071], [13.62756, 50.60048], [13.62711, 50.60045]]], [[[13.63128, 50.60242], [13.63151, 50.60194], [13.63063, 50.60144], [13.63041, 50.60288], [13.63062, 50.60296], [13.63087, 50.60271], [13.63068, 50.60241], [13.63128, 50.60242]]], [[[13.62771, 50.6035], [13.62743, 50.60341], [13.62722, 50.60359], [13.62747, 50.60385], [13.62728, 50.60433], [13.62786, 50.60452], [13.62771, 50.6035]]], [[[13.6321, 50.60467], [13.63214, 50.60463], [13.63199, 50.60464], [13.63202, 50.60465], [13.6321, 50.60467]]], [[[13.62875, 50.60481], [13.62917, 50.60494], [13.62952, 50.60477], [13.62931, 50.6046], [13.62875, 50.60481]]], [[[13.63831, 50.55584], [13.63832, 50.55554], [13.63852, 50.5551], [13.63826, 50.55549], [13.63831, 50.55584]]], [[[13.65178, 50.55775], [13.65189, 50.5578], [13.65157, 50.55763], [13.65178, 50.55775]]], [[[13.63908, 50.5573], [13.63799, 50.55796], [13.63752, 50.55844], [13.63812, 50.55839], [13.63908, 50.5573]]], [[[13.6575, 50.55875], [13.65771, 50.55867], [13.65767, 50.55868], [13.6575, 50.55875]]], [[[13.65318, 50.55902], [13.65413, 50.55915], [13.65747, 50.55923], [13.65334, 50.55898], [13.65323, 50.55818], [13.65318, 50.55902]]], [[[13.65304, 50.55919], [13.65232, 50.55908], [13.65231, 50.55909], [13.65294, 50.55917], [13.65304, 50.55919]]], [[[13.65184, 50.55916], [13.65161, 50.5592], [13.65231, 50.55909], [13.65184, 50.55916]]], [[[13.65725, 50.56504], [13.65689, 50.56508], [13.65686, 50.56511], [13.6569, 50.5651], [13.65725, 50.56504]]], [[[13.64911, 50.5651], [13.64905, 50.56512], [13.65001, 50.56538], [13.64911, 50.5651]]], [[[13.65643, 50.56552], [13.65647, 50.56557], [13.65648, 50.5656], [13.65651, 50.56552], [13.65643, 50.56552]]], [[[13.64933, 50.5664], [13.64929, 50.56625], [13.64654, 50.56687], [13.64666, 50.56708], [13.64959, 50.5666], [13.64933, 50.5664]]], [[[13.65466, 50.5675], [13.6528, 50.56683], [13.65078, 50.56699], [13.65031, 50.56681], [13.65022, 50.56709], [13.65086, 50.56704], [13.65276, 50.56771], [13.65316, 50.57023], [13.65473, 50.56952], [13.65503, 50.57124], [13.65462, 50.5719], [13.65481, 50.57296], [13.6538, 50.57313], [13.65322, 50.57266], [13.65273, 50.57248], [13.65266, 50.5725], [13.65331, 50.57305], [13.65344, 50.57377], [13.6529, 50.57423], [13.6523, 50.57424], [13.65261, 50.57464], [13.65201, 50.57518], [13.65145, 50.57536], [13.65088, 50.57524], [13.65124, 50.57586], [13.65065, 50.57697], [13.65055, 50.57787], [13.64996, 50.5782], [13.65022, 50.57857], [13.6545, 50.57727], [13.65608, 50.57641], [13.65532, 50.57547], [13.65511, 50.57475], [13.65539, 50.57363], [13.65656, 50.57263], [13.65594, 50.57293], [13.65595, 50.57195], [13.6562, 50.57162], [13.65594, 50.57076], [13.6562, 50.57038], [13.6571, 50.57021], [13.65774, 50.57046], [13.65784, 50.57129], [13.65754, 50.57165], [13.65774, 50.57198], [13.66501, 50.56806], [13.6669, 50.56731], [13.67074, 50.56616], [13.67029, 50.56573], [13.671, 50.56545], [13.6712, 50.56514], [13.67101, 50.56491], [13.67089, 50.56521], [13.66943, 50.566], [13.66888, 50.56599], [13.6684, 50.5663], [13.66707, 50.56589], [13.66358, 50.56673], [13.6628, 50.56664], [13.66196, 50.56628], [13.66111, 50.56628], [13.66157, 50.56654], [13.66206, 50.56811], [13.65771, 50.56911], [13.65724, 50.56896], [13.65692, 50.56797], [13.65553, 50.5683], [13.65466, 50.5675]], [[13.65317, 50.56775], [13.65338, 50.56738], [13.65398, 50.56735], [13.65466, 50.56791], [13.65457, 50.56836], [13.654, 50.56858], [13.65354, 50.5685], [13.65317, 50.56775]]], [[[13.65057, 50.57415], [13.65119, 50.57411], [13.6521, 50.57419], [13.65104, 50.57392], [13.65084, 50.57362], [13.65044, 50.57378], [13.65035, 50.57425], [13.65057, 50.57415]]], [[[13.6426, 50.58133], [13.64137, 50.58176], [13.64074, 50.58223], [13.64259, 50.58138], [13.64774, 50.58017], [13.6426, 50.58133]]], [[[13.64861, 50.58023], [13.64984, 50.58131], [13.65142, 50.58173], [13.65199, 50.5822], [13.65346, 50.5822], [13.65376, 50.58139], [13.65306, 50.58046], [13.65259, 50.5803], [13.65155, 50.5794], [13.65156, 50.57872], [13.64973, 50.57948], [13.64861, 50.58023]]], [[[13.64739, 50.58088], [13.64704, 50.58107], [13.64671, 50.58072], [13.64564, 50.58126], [13.64546, 50.58164], [13.64608, 50.58204], [13.6459, 50.58221], [13.64563, 50.58233], [13.64491, 50.58212], [13.64572, 50.58327], [13.64438, 50.58226], [13.64347, 50.58251], [13.64296, 50.58211], [13.6427, 50.58234], [13.64306, 50.58308], [13.64269, 50.58291], [13.64215, 50.58198], [13.64139, 50.58258], [13.6415, 50.58307], [13.64079, 50.58326], [13.64128, 50.58393], [13.64078, 50.58492], [13.64084, 50.5859], [13.63981, 50.58744], [13.63995, 50.58808], [13.64064, 50.5883], [13.64096, 50.58861], [13.64094, 50.58895], [13.64057, 50.58923], [13.64092, 50.58974], [13.641, 50.59061], [13.64167, 50.59055], [13.64193, 50.591], [13.64274, 50.59121], [13.64299, 50.59222], [13.64436, 50.59202], [13.64536, 50.59165], [13.64789, 50.58988], [13.64757, 50.58979], [13.64609, 50.59002], [13.64557, 50.59036], [13.64451, 50.59056], [13.64457, 50.59031], [13.64699, 50.5895], [13.64658, 50.58844], [13.64563, 50.58887], [13.64549, 50.58796], [13.64505, 50.58718], [13.64591, 50.5842], [13.64582, 50.58318], [13.64544, 50.58243], [13.64805, 50.58187], [13.64749, 50.58042], [13.64724, 50.58061], [13.64739, 50.58088]]], [[[13.65871, 50.58058], [13.65766, 50.58096], [13.6571, 50.58085], [13.65677, 50.58053], [13.65488, 50.58059], [13.65422, 50.58077], [13.65856, 50.58246], [13.65992, 50.58025], [13.65871, 50.58058]]], [[[13.65398, 50.58091], [13.65441, 50.58158], [13.65446, 50.58235], [13.65284, 50.58402], [13.65409, 50.58335], [13.65458, 50.58271], [13.65475, 50.58186], [13.65415, 50.58077], [13.65371, 50.58074], [13.65398, 50.58091]]], [[[13.65686, 50.58487], [13.65719, 50.58511], [13.65713, 50.58434], [13.65823, 50.58287], [13.65808, 50.58251], [13.65761, 50.58232], [13.65718, 50.58232], [13.65597, 50.5838], [13.65686, 50.58487]]], [[[13.65817, 50.58594], [13.65688, 50.5855], [13.65512, 50.5863], [13.65505, 50.58669], [13.66038, 50.59023], [13.65953, 50.59061], [13.65953, 50.59094], [13.66016, 50.59077], [13.66059, 50.58991], [13.66128, 50.58941], [13.66131, 50.58832], [13.65956, 50.58654], [13.65817, 50.58594]]], [[[13.64781, 50.58934], [13.64914, 50.58926], [13.64935, 50.58882], [13.65074, 50.5884], [13.65174, 50.58748], [13.65177, 50.58703], [13.65119, 50.58763], [13.64951, 50.5877], [13.64762, 50.58807], [13.64817, 50.58844], [13.64834, 50.58919], [13.64805, 50.58918], [13.64742, 50.58813], [13.64676, 50.58837], [13.64727, 50.58921], [13.64781, 50.58934]]], [[[13.65567, 50.58865], [13.65587, 50.58849], [13.65553, 50.58867], [13.65546, 50.58885], [13.65567, 50.58865]]], [[[13.63849, 50.59191], [13.63881, 50.59135], [13.63867, 50.59091], [13.63809, 50.59075], [13.63707, 50.59117], [13.63704, 50.59181], [13.6364, 50.59238], [13.63588, 50.59254], [13.63517, 50.5925], [13.63444, 50.59162], [13.63457, 50.59126], [13.63499, 50.59105], [13.63379, 50.59023], [13.63416, 50.59091], [13.63416, 50.5917], [13.63356, 50.59224], [13.63301, 50.59232], [13.63317, 50.59266], [13.63342, 50.59267], [13.63885, 50.59242], [13.63849, 50.59191]]], [[[13.65303, 50.5947], [13.65292, 50.59409], [13.65362, 50.59362], [13.65372, 50.59324], [13.65233, 50.59204], [13.65323, 50.59115], [13.65401, 50.591], [13.65472, 50.59133], [13.65529, 50.59135], [13.65638, 50.59174], [13.65713, 50.59228], [13.65757, 50.59193], [13.65468, 50.59052], [13.65273, 50.58999], [13.65024, 50.58985], [13.64862, 50.59022], [13.6474, 50.59095], [13.64709, 50.59147], [13.64754, 50.59192], [13.64723, 50.59265], [13.64873, 50.59398], [13.64917, 50.5951], [13.65322, 50.59515], [13.65303, 50.5947]], [[13.64943, 50.59225], [13.64994, 50.59203], [13.65034, 50.59243], [13.64994, 50.59263], [13.64943, 50.59225]]], [[[13.64546, 50.59298], [13.64451, 50.59291], [13.64306, 50.59321], [13.64283, 50.59282], [13.64191, 50.59303], [13.6413, 50.59297], [13.64243, 50.59453], [13.64366, 50.59556], [13.64393, 50.59552], [13.64417, 50.59497], [13.64364, 50.59411], [13.64408, 50.59431], [13.64523, 50.59415], [13.64553, 50.5944], [13.6446, 50.59511], [13.64426, 50.59608], [13.64499, 50.59593], [13.64477, 50.59542], [13.64553, 50.59586], [13.64637, 50.59588], [13.64695, 50.59631], [13.64699, 50.59508], [13.64832, 50.59509], [13.64816, 50.59454], [13.64712, 50.59347], [13.64604, 50.59302], [13.64546, 50.59298]]], [[[13.64086, 50.59474], [13.64103, 50.59471], [13.64068, 50.59389], [13.6404, 50.59375], [13.63996, 50.59381], [13.63974, 50.59331], [13.63948, 50.59343], [13.63923, 50.5932], [13.63818, 50.59326], [13.6387, 50.59354], [13.63858, 50.59426], [13.6398, 50.59524], [13.64023, 50.59615], [13.64068, 50.59572], [13.64063, 50.595], [13.64042, 50.595], [13.64086, 50.59474]]], [[[13.64119, 50.59621], [13.64036, 50.59644], [13.64046, 50.59679], [13.64207, 50.59669], [13.64159, 50.59581], [13.64203, 50.59549], [13.64164, 50.59516], [13.64104, 50.59559], [13.64138, 50.59578], [13.64119, 50.59621]]], [[[13.64029, 50.59696], [13.63971, 50.59561], [13.63913, 50.59552], [13.6392, 50.59596], [13.63993, 50.59655], [13.63999, 50.59698], [13.64029, 50.59696]]], [[[13.64694, 50.59665], [13.64694, 50.59666], [13.64694, 50.59666], [13.64694, 50.59665]]], [[[13.63719, 50.59747], [13.63718, 50.59747], [13.63719, 50.59752], [13.63719, 50.59747], [13.63719, 50.59747]]], [[[13.64466, 50.59743], [13.64438, 50.59759], [13.64362, 50.5972], [13.64328, 50.59738], [13.64179, 50.59955], [13.64185, 50.59997], [13.64357, 50.59988], [13.64687, 50.59922], [13.64688, 50.59887], [13.64466, 50.59743]]], [[[13.63548, 50.59871], [13.63398, 50.59874], [13.63398, 50.59874], [13.63544, 50.59874], [13.63545, 50.59936], [13.63548, 50.59871]]], [[[13.63943, 50.59946], [13.63858, 50.59957], [13.6374, 50.59913], [13.63752, 50.59999], [13.63874, 50.60015], [13.64092, 50.59998], [13.64077, 50.59954], [13.63966, 50.59928], [13.63943, 50.59946]]], [[[13.64377, 50.60041], [13.64148, 50.60053], [13.6412, 50.60103], [13.64126, 50.60179], [13.64208, 50.60209], [13.64172, 50.60268], [13.64156, 50.60287], [13.64126, 50.60282], [13.64084, 50.60226], [13.64018, 50.60199], [13.63955, 50.60287], [13.63967, 50.60324], [13.64077, 50.60362], [13.64105, 50.604], [13.64673, 50.60407], [13.64685, 50.59979], [13.64377, 50.60041]], [[13.64423, 50.60308], [13.64411, 50.60282], [13.64324, 50.60259], [13.64306, 50.60225], [13.64403, 50.60198], [13.64496, 50.60241], [13.64423, 50.60308]]], [[[13.63615, 50.60202], [13.63617, 50.60205], [13.6362, 50.60205], [13.63615, 50.60202]]], [[[13.66244, 50.53545], [13.66248, 50.53518], [13.66189, 50.53491], [13.6609, 50.53312], [13.65969, 50.53471], [13.65963, 50.53585], [13.66063, 50.537], [13.66159, 50.53745], [13.66274, 50.53768], [13.66279, 50.53576], [13.66244, 50.53545]]], [[[13.65941, 50.55011], [13.65926, 50.55061], [13.66013, 50.55021], [13.662, 50.55046], [13.66239, 50.55024], [13.66244, 50.54831], [13.66026, 50.54919], [13.65941, 50.55011]]], [[[13.66549, 50.55032], [13.66438, 50.55031], [13.66438, 50.5505], [13.66511, 50.55053], [13.66549, 50.55032]]], [[[13.67539, 50.55261], [13.67396, 50.55234], [13.67139, 50.55235], [13.66996, 50.55258], [13.66884, 50.55223], [13.66735, 50.55214], [13.66689, 50.55177], [13.66735, 50.55073], [13.66726, 50.55034], [13.66687, 50.55125], [13.66594, 50.55191], [13.6624, 50.55171], [13.65926, 50.55081], [13.65975, 50.55191], [13.66236, 50.55391], [13.66367, 50.55326], [13.66571, 50.55288], [13.67024, 50.5526], [13.6717, 50.55276], [13.673, 50.5532], [13.6738, 50.55271], [13.67476, 50.55281], [13.67517, 50.55317], [13.67643, 50.55293], [13.67643, 50.55265], [13.67539, 50.55261]]], [[[13.66553, 50.55344], [13.66663, 50.55343], [13.6681, 50.55326], [13.66581, 50.55341], [13.66553, 50.55344]]], [[[13.66469, 50.55357], [13.66498, 50.55379], [13.66536, 50.55381], [13.66525, 50.55347], [13.66469, 50.55357]]], [[[13.66459, 50.55359], [13.66446, 50.55362], [13.66401, 50.55376], [13.66427, 50.55375], [13.66459, 50.55359]]], [[[13.66444, 50.55529], [13.66472, 50.55551], [13.66558, 50.55513], [13.6676, 50.55496], [13.66531, 50.55486], [13.66444, 50.55529]]], [[[13.66129, 50.55577], [13.66, 50.55662], [13.65943, 50.5566], [13.65744, 50.55718], [13.65705, 50.55694], [13.6577, 50.55784], [13.66056, 50.55974], [13.66102, 50.56052], [13.66176, 50.55952], [13.66178, 50.55843], [13.66148, 50.55812], [13.66128, 50.55868], [13.66026, 50.55874], [13.65987, 50.55807], [13.65983, 50.55736], [13.6607, 50.55684], [13.66121, 50.5568], [13.66218, 50.55704], [13.66259, 50.55681], [13.66177, 50.55654], [13.66314, 50.55534], [13.66333, 50.55483], [13.66307, 50.55464], [13.66129, 50.55577]]], [[[13.67587, 50.55864], [13.67514, 50.55907], [13.6746, 50.55891], [13.6745, 50.5586], [13.67528, 50.55726], [13.6743, 50.55624], [13.67383, 50.55625], [13.672, 50.55543], [13.67159, 50.55572], [13.6707, 50.55556], [13.66977, 50.55506], [13.66884, 50.55502], [13.66884, 50.55529], [13.66919, 50.55516], [13.66981, 50.55532], [13.67056, 50.55576], [13.67151, 50.55586], [13.67289, 50.55648], [13.67244, 50.55693], [13.673, 50.55738], [13.67119, 50.55816], [13.67157, 50.55836], [13.67163, 50.55872], [13.67267, 50.55936], [13.67232, 50.55943], [13.66989, 50.55902], [13.6693, 50.5586], [13.66874, 50.55944], [13.66831, 50.55966], [13.66786, 50.55957], [13.66773, 50.559], [13.6686, 50.55788], [13.66835, 50.55786], [13.66802, 50.55721], [13.66726, 50.55683], [13.6673, 50.55656], [13.66822, 50.55602], [13.66675, 50.55648], [13.66587, 50.55718], [13.66497, 50.55847], [13.66487, 50.55966], [13.66526, 50.56036], [13.66593, 50.56093], [13.66851, 50.56033], [13.66966, 50.56041], [13.67047, 50.56093], [13.6713, 50.56031], [13.67183, 50.55951], [13.67237, 50.56047], [13.67344, 50.56138], [13.67474, 50.56199], [13.67616, 50.56232], [13.67626, 50.5588], [13.67587, 50.55864]]], [[[13.65801, 50.55863], [13.65815, 50.55849], [13.65803, 50.55857], [13.65801, 50.55863]]], [[[13.67124, 50.56261], [13.67142, 50.56315], [13.67096, 50.56194], [13.67124, 50.56261]]], [[[13.66513, 50.56279], [13.66454, 50.56438], [13.66474, 50.56442], [13.66541, 50.56276], [13.66672, 50.56249], [13.66755, 50.56274], [13.66912, 50.56259], [13.66904, 50.56247], [13.66765, 50.56266], [13.66671, 50.56238], [13.6652, 50.56268], [13.66283, 50.56286], [13.66248, 50.56268], [13.66118, 50.56291], [13.66282, 50.56298], [13.66513, 50.56279]]], [[[13.66322, 50.56371], [13.66308, 50.56342], [13.66282, 50.56298], [13.66322, 50.56371]]], [[[13.66322, 50.56371], [13.6633, 50.56396], [13.66324, 50.56375], [13.66322, 50.56371]]], [[[13.6761, 50.56457], [13.67615, 50.56273], [13.6735, 50.56351], [13.67374, 50.56527], [13.6761, 50.56457]]], [[[13.6639, 50.56435], [13.66372, 50.56433], [13.66369, 50.56438], [13.6639, 50.56435]]], [[[13.66536, 50.56443], [13.66518, 50.56445], [13.66551, 50.56443], [13.66536, 50.56443]]], [[[13.66284, 50.56456], [13.66303, 50.56451], [13.66273, 50.56457], [13.66284, 50.56456]]], [[[13.67311, 50.56788], [13.67418, 50.56726], [13.67422, 50.56755], [13.67449, 50.56747], [13.67509, 50.56804], [13.67599, 50.56847], [13.67608, 50.56517], [13.67379, 50.56585], [13.67413, 50.56692], [13.67301, 50.56736], [13.6728, 50.56797], [13.67311, 50.56788]]], [[[13.67056, 50.5668], [13.66937, 50.56716], [13.66992, 50.56768], [13.66874, 50.56788], [13.66756, 50.56771], [13.66578, 50.56838], [13.6669, 50.57015], [13.66819, 50.57018], [13.66826, 50.57063], [13.66725, 50.57072], [13.66773, 50.57153], [13.66913, 50.57165], [13.66961, 50.57227], [13.67039, 50.57228], [13.67085, 50.57258], [13.67089, 50.57301], [13.67054, 50.57347], [13.67101, 50.57377], [13.67107, 50.57417], [13.67002, 50.5747], [13.67208, 50.57393], [13.67128, 50.57291], [13.67145, 50.57233], [13.6734, 50.57098], [13.67417, 50.57104], [13.6754, 50.57429], [13.67455, 50.57454], [13.67292, 50.57402], [13.67299, 50.57435], [13.67417, 50.57482], [13.67471, 50.5754], [13.6742, 50.57869], [13.67489, 50.57914], [13.67431, 50.57931], [13.67568, 50.57961], [13.67573, 50.57771], [13.6753, 50.57738], [13.67518, 50.57697], [13.67516, 50.57752], [13.67478, 50.57765], [13.67467, 50.57673], [13.67518, 50.57464], [13.67582, 50.57447], [13.67596, 50.56958], [13.67441, 50.56911], [13.67448, 50.56968], [13.67429, 50.56964], [13.6739, 50.56908], [13.67206, 50.56935], [13.67018, 50.56875], [13.67241, 50.56809], [13.67192, 50.5679], [13.67114, 50.56663], [13.67056, 50.5668]]], [[[13.65923, 50.56752], [13.65917, 50.56755], [13.65912, 50.56757], [13.6593, 50.56746], [13.65923, 50.56752]]], [[[13.66315, 50.57279], [13.66467, 50.57207], [13.66692, 50.57169], [13.66508, 50.56873], [13.6613, 50.57078], [13.6627, 50.5728], [13.66315, 50.57279]]], [[[13.66943, 50.57372], [13.66879, 50.57356], [13.66841, 50.57395], [13.66927, 50.57384], [13.66943, 50.57372]]], [[[13.66648, 50.57491], [13.66574, 50.57515], [13.66483, 50.57502], [13.66385, 50.57568], [13.66474, 50.57683], [13.66477, 50.5772], [13.6667, 50.57695], [13.66834, 50.57612], [13.66828, 50.57568], [13.66772, 50.57553], [13.66697, 50.57491], [13.66648, 50.57491]]], [[[13.65874, 50.57801], [13.65872, 50.57801], [13.65877, 50.57805], [13.65874, 50.57801]]], [[[13.65877, 50.58021], [13.65949, 50.57963], [13.65921, 50.57922], [13.65938, 50.57967], [13.65877, 50.58021]]], [[[13.67492, 50.58155], [13.67531, 50.58142], [13.67562, 50.58152], [13.67566, 50.58031], [13.67374, 50.58047], [13.67492, 50.58155]]], [[[13.66636, 50.58513], [13.66726, 50.58538], [13.66856, 50.5848], [13.66822, 50.58392], [13.66836, 50.58365], [13.66741, 50.58342], [13.66721, 50.58309], [13.66736, 50.58273], [13.6682, 50.58243], [13.66918, 50.58266], [13.67226, 50.58057], [13.67134, 50.58008], [13.67279, 50.5798], [13.6719, 50.5793], [13.67135, 50.57941], [13.6703, 50.58], [13.66989, 50.57965], [13.66783, 50.57961], [13.66934, 50.5792], [13.66968, 50.57892], [13.66932, 50.57805], [13.66838, 50.57804], [13.66723, 50.57763], [13.66679, 50.57793], [13.66594, 50.57782], [13.6647, 50.57807], [13.66353, 50.57887], [13.66346, 50.57918], [13.66381, 50.57938], [13.66345, 50.5801], [13.66405, 50.58008], [13.66457, 50.58054], [13.66472, 50.581], [13.66451, 50.58134], [13.66345, 50.58145], [13.66261, 50.58101], [13.66251, 50.5806], [13.66294, 50.58024], [13.66173, 50.58034], [13.66035, 50.58108], [13.65966, 50.58216], [13.66034, 50.58285], [13.66636, 50.58513]]], [[[13.6749, 50.58218], [13.67546, 50.58215], [13.67562, 50.58165], [13.6749, 50.58218]]], [[[13.67146, 50.58448], [13.67319, 50.58456], [13.67412, 50.58385], [13.67378, 50.58371], [13.67288, 50.58384], [13.67146, 50.58448]]], [[[13.67544, 50.58446], [13.67547, 50.58455], [13.67555, 50.58405], [13.67524, 50.58432], [13.67544, 50.58446]]], [[[13.65833, 50.58457], [13.65881, 50.58466], [13.65952, 50.58431], [13.65848, 50.58388], [13.65797, 50.58456], [13.65833, 50.58457]]], [[[13.67053, 50.58499], [13.67053, 50.58499], [13.67054, 50.58498], [13.67053, 50.58498], [13.67053, 50.58499]]], [[[13.67502, 50.58499], [13.67449, 50.58543], [13.6755, 50.58604], [13.67553, 50.58502], [13.67519, 50.58483], [13.67502, 50.58499]]], [[[13.67317, 50.58572], [13.67381, 50.58511], [13.6724, 50.58506], [13.67202, 50.58562], [13.67156, 50.58573], [13.67064, 50.58541], [13.67051, 50.58506], [13.66907, 50.5857], [13.66842, 50.58582], [13.66809, 50.58558], [13.6679, 50.58575], [13.66995, 50.58635], [13.67275, 50.58638], [13.67338, 50.58601], [13.67317, 50.58572]]], [[[13.66764, 50.5861], [13.66751, 50.58632], [13.66795, 50.58632], [13.66775, 50.58595], [13.66764, 50.5861]]], [[[13.65823, 50.58906], [13.65844, 50.58952], [13.65798, 50.5903], [13.65868, 50.59011], [13.65919, 50.58974], [13.65823, 50.58906]]]]}, "properties": {"kind": "pv", "area_km2": 16.2, "mw": 809.9}}, {"type": "Feature", "geometry": {"type": "Point", "coordinates": [13.56246, 50.55752]}, "properties": {"kind": "turbine", "i": 0, "mw": 6.0, "hub_m": 120.0, "rotor_m": 150.0}}]}