{"type": "FeatureCollection", "features": [{"type": "Feature", "geometry": {"type": "MultiPolygon", "coordinates": [[[[-95.75712, 36.26682], [-95.75621, 36.26767], [-95.75603, 36.26878], [-95.75785, 36.27128], [-95.75816, 36.27278], [-95.75583, 36.27523], [-95.75414, 36.27512], [-95.75202, 36.27549], [-95.74926, 36.27658], [-95.74792, 36.27875], [-95.74848, 36.28162], [-95.74681, 36.28231], [-95.74627, 36.28112], [-95.7449, 36.28036], [-95.73877, 36.28045], [-95.73734, 36.2812], [-95.73669, 36.28231], [-95.73685, 36.28335], [-95.73806, 36.28439], [-95.73804, 36.285], [-95.7314, 36.28632], [-95.73002, 36.28591], [-95.72843, 36.28594], [-95.72913, 36.28467], [-95.72915, 36.28316], [-95.72847, 36.28152], [-95.72733, 36.28051], [-95.72496, 36.27982], [-95.72032, 36.28019], [-95.72133, 36.27883], [-95.72262, 36.27936], [-95.7243, 36.2795], [-95.72835, 36.27801], [-95.73189, 36.27819], [-95.73324, 36.27796], [-95.73507, 36.27688], [-95.73604, 36.2749], [-95.73813, 36.27435], [-95.74014, 36.27513], [-95.74259, 36.27502], [-95.74439, 36.27413], [-95.74544, 36.27268], [-95.74719, 36.27269], [-95.74889, 36.27214], [-95.75049, 36.27056], [-95.75073, 36.26852], [-95.74977, 36.26682], [-95.74744, 36.26564], [-95.7474, 36.2652], [-95.74975, 36.26533], [-95.75142, 36.26481], [-95.75416, 36.26535], [-95.75528, 36.26624], [-95.75712, 36.26682]]], [[[-95.76682, 36.2426], [-95.76719, 36.24232], [-95.76742, 36.24258], [-95.76688, 36.24266], [-95.76682, 36.2426]]], [[[-95.7663, 36.23803], [-95.76536, 36.23785], [-95.76281, 36.23641], [-95.76353, 36.2352], [-95.76501, 36.23673], [-95.76698, 36.23737], [-95.7663, 36.23803]]], [[[-95.73905, 36.24759], [-95.73934, 36.24743], [-95.73984, 36.24713], [-95.73998, 36.24759], [-95.73905, 36.24759]]], [[[-95.72546, 36.2397], [-95.72348, 36.2409], [-95.72243, 36.24244], [-95.72269, 36.24109], [-95.72452, 36.23791], [-95.726, 36.23949], [-95.72546, 36.2397]]], [[[-95.71296, 36.23716], [-95.7121, 36.23789], [-95.71306, 36.2379], [-95.71326, 36.239], [-95.71244, 36.2391], [-95.71104, 36.23996], [-95.71104, 36.23807], [-95.71223, 36.23688], [-95.71296, 36.23716]]], [[[-95.65723, 36.22049], [-95.65719, 36.21576], [-95.66052, 36.20958], [-95.66233, 36.21059], [-95.66619, 36.21055], [-95.66712, 36.21165], [-95.66896, 36.21206], [-95.67039, 36.21313], [-95.67039, 36.2138], [-95.6679, 36.21423], [-95.66645, 36.21504], [-95.66533, 36.21393], [-95.66342, 36.21321], [-95.66139, 36.21327], [-95.65983, 36.21381], [-95.65842, 36.21508], [-95.65793, 36.21674], [-95.65898, 36.21912], [-95.6589, 36.22114], [-95.65987, 36.22271], [-95.65973, 36.22404], [-95.65877, 36.2236], [-95.6585, 36.22246], [-95.65723, 36.22101], [-95.65723, 36.22049]]], [[[-95.66622, 36.20225], [-95.67534, 36.19797], [-95.67768, 36.19712], [-95.68165, 36.19647], [-95.68367, 36.19643], [-95.68526, 36.19755], [-95.6872, 36.19795], [-95.68926, 36.19761], [-95.69092, 36.1965], [-95.69378, 36.19677], [-95.69683, 36.19787], [-95.69892, 36.19978], [-95.69729, 36.20054], [-95.69603, 36.20185], [-95.69424, 36.19995], [-95.69268, 36.19945], [-95.69099, 36.19946], [-95.6891, 36.2002], [-95.68785, 36.20159], [-95.68762, 36.20363], [-95.68855, 36.20517], [-95.68989, 36.20604], [-95.69143, 36.20641], [-95.69184, 36.20796], [-95.69314, 36.20931], [-95.69599, 36.21018], [-95.69096, 36.21429], [-95.69066, 36.21296], [-95.68951, 36.21193], [-95.68866, 36.20666], [-95.68702, 36.20373], [-95.68464, 36.20176], [-95.68314, 36.20149], [-95.67707, 36.20241], [-95.67471, 36.20237], [-95.667, 36.20586], [-95.66274, 36.20638], [-95.66622, 36.20225]]], [[[-95.67974, 36.20939], [-95.68033, 36.20975], [-95.68089, 36.21158], [-95.68483, 36.2147], [-95.68309, 36.21564], [-95.6811, 36.21456], [-95.67882, 36.21446], [-95.67725, 36.21496], [-95.67552, 36.21607], [-95.67517, 36.21431], [-95.67731, 36.21315], [-95.67893, 36.21132], [-95.67974, 36.20939]]], [[[-95.69998, 36.22241], [-95.69664, 36.22418], [-95.69557, 36.2263], [-95.69388, 36.22673], [-95.69377, 36.2242], [-95.6946, 36.22236], [-95.69998, 36.22241]]], [[[-95.71336, 36.22604], [-95.71318, 36.22585], [-95.7137, 36.2248], [-95.71472, 36.22606], [-95.71336, 36.22604]]], [[[-95.71628, 36.20732], [-95.71136, 36.20345], [-95.71622, 36.1994], [-95.71679, 36.20157], [-95.71807, 36.20293], [-95.72064, 36.20381], [-95.7231, 36.20394], [-95.72064, 36.20535], [-95.71921, 36.20755], [-95.71701, 36.20792], [-95.71628, 36.20732]]], [[[-95.71484, 36.19491], [-95.71471, 36.19453], [-95.7152, 36.19462], [-95.71484, 36.19491]]], [[[-95.71144, 36.19208], [-95.70916, 36.19164], [-95.7066, 36.19186], [-95.70496, 36.1925], [-95.70398, 36.19359], [-95.70381, 36.19504], [-95.70427, 36.19598], [-95.70616, 36.19702], [-95.70721, 36.19903], [-95.70905, 36.19954], [-95.70775, 36.20055], [-95.70309, 36.19552], [-95.70378, 36.19402], [-95.70355, 36.18985], [-95.70508, 36.19087], [-95.70671, 36.19123], [-95.70838, 36.19107], [-95.70993, 36.19033], [-95.71144, 36.19208]]], [[[-95.69639, 36.18775], [-95.69498, 36.18854], [-95.6944, 36.18878], [-95.69472, 36.18722], [-95.69699, 36.18729], [-95.69639, 36.18775]]], [[[-95.78456, 36.23193], [-95.78296, 36.23136], [-95.7819, 36.23071], [-95.78295, 36.23055], [-95.78456, 36.23193]]], [[[-95.77473, 36.25193], [-95.77515, 36.25129], [-95.78031, 36.25138], [-95.78099, 36.25183], [-95.78065, 36.25266], [-95.77773, 36.2551], [-95.77719, 36.25615], [-95.77632, 36.25629], [-95.77487, 36.25517], [-95.77473, 36.25193]]], [[[-95.74177, 36.22213], [-95.74071, 36.22215], [-95.74235, 36.2208], [-95.74336, 36.21827], [-95.74611, 36.21538], [-95.74768, 36.21142], [-95.74939, 36.20853], [-95.7498, 36.20821], [-95.75254, 36.20859], [-95.75499, 36.20766], [-95.75548, 36.20847], [-95.75551, 36.22352], [-95.75372, 36.22278], [-95.75237, 36.22263], [-95.74992, 36.21998], [-95.7476, 36.2192], [-95.74578, 36.21924], [-95.74421, 36.21976], [-95.74276, 36.221], [-95.74233, 36.22214], [-95.74177, 36.22213]]], [[[-95.74064, 36.21381], [-95.7381, 36.21631], [-95.73741, 36.2184], [-95.73648, 36.21875], [-95.73325, 36.21526], [-95.73678, 36.21451], [-95.73952, 36.21272], [-95.74075, 36.21356], [-95.74064, 36.21381]]], [[[-95.7377, 36.20702], [-95.73579, 36.2103], [-95.73376, 36.21131], [-95.73521, 36.20967], [-95.73535, 36.20751], [-95.73793, 36.20659], [-95.7377, 36.20702]]], [[[-95.78276, 36.221], [-95.78009, 36.22023], [-95.7777, 36.22102], [-95.77582, 36.22299], [-95.77537, 36.22491], [-95.77373, 36.22305], [-95.77188, 36.22234], [-95.77311, 36.22141], [-95.7737, 36.21951], [-95.77301, 36.21736], [-95.77169, 36.21602], [-95.7695, 36.21492], [-95.76377, 36.21441], [-95.76356, 36.20884], [-95.76306, 36.20712], [-95.76519, 36.20792], [-95.77449, 36.20798], [-95.77456, 36.20955], [-95.77554, 36.21106], [-95.77729, 36.21201], [-95.77908, 36.21221], [-95.78276, 36.221]]], [[[-95.77068, 36.20411], [-95.7662, 36.20409], [-95.76558, 36.20323], [-95.76769, 36.19977], [-95.76779, 36.19827], [-95.77244, 36.20289], [-95.77256, 36.20411], [-95.77068, 36.20411]]], [[[-95.75606, 36.20044], [-95.75608, 36.20098], [-95.75425, 36.19954], [-95.7494, 36.19837], [-95.75055, 36.19786], [-95.75147, 36.19661], [-95.75215, 36.19826], [-95.756, 36.19932], [-95.75606, 36.20044]]], [[[-95.73898, 36.20188], [-95.73885, 36.20051], [-95.73802, 36.19912], [-95.73601, 36.19753], [-95.73426, 36.19726], [-95.7356, 36.19666], [-95.73677, 36.19551], [-95.73803, 36.19543], [-95.73924, 36.19743], [-95.74188, 36.19861], [-95.73967, 36.20067], [-95.73904, 36.20257], [-95.73898, 36.20188]]], [[[-95.75542, 36.22969], [-95.75496, 36.22984], [-95.75522, 36.22916], [-95.75529, 36.22941], [-95.75542, 36.22969]]], [[[-95.76738, 36.26058], [-95.76773, 36.26091], [-95.76539, 36.26208], [-95.76405, 36.26207], [-95.7652, 36.26047], [-95.76514, 36.25839], [-95.76633, 36.25878], [-95.76738, 36.26058]]], [[[-95.73618, 36.2528], [-95.736, 36.25303], [-95.73623, 36.25146], [-95.73777, 36.25146], [-95.73618, 36.2528]]], [[[-95.74529, 36.25595], [-95.74471, 36.25597], [-95.74507, 36.25428], [-95.74642, 36.25484], [-95.74779, 36.25466], [-95.74901, 36.25356], [-95.74908, 36.25181], [-95.75025, 36.2521], [-95.74778, 36.25546], [-95.74529, 36.25595]]], [[[-95.72026, 36.27273], [-95.71878, 36.27408], [-95.71725, 36.27655], [-95.70934, 36.2765], [-95.70733, 36.27727], [-95.70661, 36.27864], [-95.70654, 36.28381], [-95.70589, 36.2838], [-95.70382, 36.28209], [-95.70107, 36.28174], [-95.69869, 36.2824], [-95.69708, 36.28424], [-95.68959, 36.28172], [-95.68198, 36.27804], [-95.68503, 36.27116], [-95.68849, 36.26804], [-95.69103, 36.26426], [-95.69374, 36.26747], [-95.6966, 36.26826], [-95.69941, 36.27234], [-95.70221, 36.27427], [-95.71386, 36.27568], [-95.71762, 36.27465], [-95.72026, 36.27273]]], [[[-95.76284, 36.21912], [-95.76234, 36.21943], [-95.76215, 36.21895], [-95.76301, 36.21905], [-95.76284, 36.21912]]], [[[-95.67131, 36.26586], [-95.67095, 36.26598], [-95.67113, 36.26256], [-95.67225, 36.2629], [-95.6734, 36.26278], [-95.67482, 36.26151], [-95.6774, 36.26072], [-95.67866, 36.25935], [-95.67898, 36.25775], [-95.68153, 36.26044], [-95.68382, 36.26115], [-95.68716, 36.2614], [-95.68429, 36.26553], [-95.68046, 36.26912], [-95.67751, 36.27536], [-95.6769, 36.27494], [-95.67793, 36.27354], [-95.67759, 36.27042], [-95.67639, 36.26948], [-95.6748, 36.26926], [-95.67514, 36.26769], [-95.67419, 36.26636], [-95.67278, 36.26581], [-95.67131, 36.26586]]], [[[-95.70268, 36.21809], [-95.70283, 36.21856], [-95.69608, 36.21851], [-95.69615, 36.21717], [-95.69567, 36.21607], [-95.7043, 36.20908], [-95.70622, 36.20974], [-95.70625, 36.21588], [-95.70494, 36.21573], [-95.70376, 36.2161], [-95.70283, 36.21707], [-95.70268, 36.21809]]], [[[-95.71146, 36.21159], [-95.711, 36.21172], [-95.71099, 36.21054], [-95.71218, 36.21152], [-95.71146, 36.21159]]], [[[-95.70014, 36.26391], [-95.7001, 36.26349], [-95.70091, 36.26361], [-95.70168, 36.26419], [-95.69989, 36.26475], [-95.70014, 36.26391]]], [[[-95.70858, 36.26639], [-95.70829, 36.26584], [-95.70956, 36.2652], [-95.71011, 36.26414], [-95.71136, 36.2646], [-95.71188, 36.26685], [-95.7118, 36.27004], [-95.71223, 36.27035], [-95.71336, 36.27033], [-95.71392, 36.26936], [-95.71523, 36.2689], [-95.7166, 36.26888], [-95.71802, 36.26839], [-95.71795, 36.26425], [-95.71884, 36.2629], [-95.71843, 36.26124], [-95.71925, 36.26005], [-95.71903, 36.25864], [-95.72016, 36.25864], [-95.72021, 36.26303], [-95.7207, 36.26387], [-95.72185, 36.2645], [-95.72301, 36.26454], [-95.72406, 36.26414], [-95.72475, 36.26339], [-95.72493, 36.26233], [-95.72752, 36.2622], [-95.72585, 36.264], [-95.72709, 36.26394], [-95.72924, 36.26291], [-95.72956, 36.26354], [-95.72984, 36.26348], [-95.72948, 36.26267], [-95.73135, 36.26165], [-95.7314, 36.26398], [-95.72939, 36.26462], [-95.72664, 36.26731], [-95.72539, 36.26805], [-95.72419, 36.26832], [-95.72114, 36.26795], [-95.71886, 36.2683], [-95.71503, 36.27096], [-95.71321, 36.27148], [-95.70703, 36.27049], [-95.7081, 36.26985], [-95.70862, 36.269], [-95.70858, 36.26639]]], [[[-95.73201, 36.26387], [-95.73151, 36.26395], [-95.73166, 36.26149], [-95.73407, 36.26018], [-95.73748, 36.26224], [-95.74078, 36.26489], [-95.73201, 36.26387]]], [[[-95.73132, 36.25733], [-95.73161, 36.2578], [-95.72953, 36.26004], [-95.73079, 36.2576], [-95.73087, 36.2558], [-95.73132, 36.25733]]], [[[-95.72608, 36.25166], [-95.726, 36.25192], [-95.72497, 36.2513], [-95.72621, 36.25135], [-95.72608, 36.25166]]], [[[-95.72983, 36.24487], [-95.73136, 36.24706], [-95.73145, 36.24759], [-95.72908, 36.24756], [-95.72881, 36.24408], [-95.72727, 36.24402], [-95.72751, 36.24363], [-95.72884, 36.24409], [-95.72983, 36.24487]]], [[[-95.76728, 36.22331], [-95.76742, 36.22277], [-95.76867, 36.22286], [-95.7673, 36.22409], [-95.76728, 36.22331]]], [[[-95.7258, 36.21631], [-95.72561, 36.21614], [-95.72587, 36.21603], [-95.72597, 36.2165], [-95.7258, 36.21631]]], [[[-95.71129, 36.28589], [-95.71137, 36.28037], [-95.71555, 36.28041], [-95.71559, 36.28224], [-95.7161, 36.28322], [-95.71745, 36.28396], [-95.71986, 36.28406], [-95.72047, 36.28562], [-95.71779, 36.28565], [-95.71633, 36.28633], [-95.71544, 36.28722], [-95.71128, 36.2869], [-95.71129, 36.28589]]], [[[-95.72294, 36.28717], [-95.72297, 36.28717], [-95.72299, 36.28718], [-95.72295, 36.28718], [-95.72294, 36.28717]]], [[[-95.70696, 36.2597], [-95.70696, 36.25947], [-95.70743, 36.25946], [-95.70696, 36.25987], [-95.70696, 36.2597]]], [[[-95.75602, 36.24437], [-95.75604, 36.24436], [-95.75604, 36.24439], [-95.75602, 36.24437]]], [[[-95.70151, 36.25204], [-95.70143, 36.25204], [-95.70156, 36.25202], [-95.70151, 36.25204]]], [[[-95.70627, 36.24227], [-95.70627, 36.24279], [-95.70489, 36.24474], [-95.70401, 36.24419], [-95.70536, 36.2434], [-95.70575, 36.24224], [-95.70627, 36.24227]]], [[[-95.71999, 36.2544], [-95.72004, 36.25395], [-95.72018, 36.2539], [-95.72018, 36.25403], [-95.72006, 36.25427], [-95.71992, 36.25466], [-95.71987, 36.25475], [-95.71999, 36.2544]]], [[[-95.71207, 36.25477], [-95.71156, 36.25477], [-95.71033, 36.2531], [-95.71135, 36.25195], [-95.71205, 36.253], [-95.71207, 36.25477]]]]}, "properties": {"kind": "windland", "area_km2": 15.15}}, {"type": "Feature", "geometry": {"type": "MultiPolygon", "coordinates": [[[[-95.7396, 36.22506], [-95.73931, 36.22499], [-95.73783, 36.22456], [-95.74089, 36.22449], [-95.74091, 36.22517], [-95.7396, 36.22506]]], [[[-95.73567, 36.22571], [-95.73548, 36.22522], [-95.735, 36.22501], [-95.73618, 36.22488], [-95.73637, 36.22564], [-95.73567, 36.22571]]], [[[-95.73687, 36.22492], [-95.73758, 36.22506], [-95.73903, 36.22549], [-95.7371, 36.22588], [-95.73687, 36.22492]]], [[[-95.73512, 36.22702], [-95.7352, 36.22701], [-95.73523, 36.22711], [-95.73512, 36.22702]]], [[[-95.73398, 36.22717], [-95.73405, 36.2269], [-95.73442, 36.22747], [-95.73401, 36.22754], [-95.73398, 36.22717]]], [[[-95.73631, 36.22795], [-95.73587, 36.22762], [-95.73681, 36.22749], [-95.73697, 36.22818], [-95.73631, 36.22795]]], [[[-95.73496, 36.22981], [-95.73561, 36.23248], [-95.73523, 36.23256], [-95.73414, 36.22807], [-95.73455, 36.22801], [-95.73496, 36.22981]]], [[[-95.74039, 36.23099], [-95.73874, 36.2318], [-95.73827, 36.23083], [-95.73807, 36.22996], [-95.73895, 36.23], [-95.73952, 36.22983], [-95.7396, 36.22886], [-95.74104, 36.22894], [-95.74111, 36.23082], [-95.74039, 36.23099]]], [[[-95.73789, 36.23163], [-95.73808, 36.23195], [-95.73744, 36.23209], [-95.73709, 36.23095], [-95.73663, 36.23074], [-95.73589, 36.23084], [-95.73582, 36.23057], [-95.73758, 36.2308], [-95.73789, 36.23163]]], [[[-95.73962, 36.23221], [-95.74113, 36.2315], [-95.74124, 36.23461], [-95.73922, 36.23236], [-95.73962, 36.23221]]], [[[-95.73856, 36.23255], [-95.74127, 36.23554], [-95.74133, 36.23729], [-95.73988, 36.23575], [-95.73873, 36.2353], [-95.73656, 36.23296], [-95.73856, 36.23255]]], [[[-95.73782, 36.23521], [-95.73734, 36.23493], [-95.73568, 36.23314], [-95.73586, 36.23311], [-95.73782, 36.23521]]], [[[-95.73495, 36.23325], [-95.73696, 36.23539], [-95.73753, 36.2357], [-95.73845, 36.2359], [-95.73958, 36.2371], [-95.73763, 36.23827], [-95.73356, 36.23362], [-95.73495, 36.23325]]], [[[-95.73882, 36.23957], [-95.73881, 36.23929], [-95.73815, 36.23863], [-95.73998, 36.23754], [-95.7414, 36.23908], [-95.74152, 36.2425], [-95.73882, 36.23957]]], [[[-95.73636, 36.24088], [-95.73639, 36.2413], [-95.73642, 36.24153], [-95.73616, 36.24066], [-95.73636, 36.24088]]], [[[-95.73282, 36.24179], [-95.73362, 36.2415], [-95.73458, 36.2419], [-95.73583, 36.2421], [-95.73631, 36.24262], [-95.73383, 36.24267], [-95.73282, 36.24179]]], [[[-95.73986, 36.2423], [-95.74005, 36.24237], [-95.7396, 36.24254], [-95.7398, 36.24238], [-95.73986, 36.2423]]], [[[-95.73167, 36.22589], [-95.73307, 36.22508], [-95.73408, 36.22496], [-95.73369, 36.22566], [-95.73314, 36.22558], [-95.73267, 36.22584], [-95.73158, 36.22599], [-95.73167, 36.22589]]], [[[-95.73226, 36.22475], [-95.73102, 36.22554], [-95.73063, 36.22675], [-95.73037, 36.22596], [-95.73084, 36.22557], [-95.73096, 36.22519], [-95.73226, 36.22475]]], [[[-95.72818, 36.22668], [-95.728, 36.22673], [-95.72799, 36.22516], [-95.72826, 36.22552], [-95.72851, 36.22667], [-95.72818, 36.22668]]], [[[-95.73333, 36.22752], [-95.73335, 36.22764], [-95.73169, 36.2279], [-95.7316, 36.22752], [-95.73332, 36.22728], [-95.73333, 36.22752]]], [[[-95.72414, 36.23376], [-95.72551, 36.23186], [-95.72784, 36.22767], [-95.72827, 36.22781], [-95.72877, 36.22771], [-95.72943, 36.22942], [-95.7296, 36.23047], [-95.72946, 36.23114], [-95.72986, 36.23265], [-95.72922, 36.2321], [-95.72851, 36.23187], [-95.72772, 36.23188], [-95.72685, 36.23222], [-95.72619, 36.23303], [-95.72579, 36.23319], [-95.72594, 36.23353], [-95.72526, 36.23498], [-95.72525, 36.23568], [-95.72569, 36.2364], [-95.72972, 36.24057], [-95.73291, 36.2427], [-95.73133, 36.24273], [-95.73065, 36.24219], [-95.72907, 36.24143], [-95.7277, 36.24106], [-95.72606, 36.24149], [-95.72513, 36.24217], [-95.72469, 36.24288], [-95.72025, 36.24298], [-95.72005, 36.24226], [-95.72053, 36.24049], [-95.72414, 36.23376]], [[-95.72243, 36.24244], [-95.72348, 36.2409], [-95.72473, 36.24], [-95.72598, 36.23956], [-95.72452, 36.23791], [-95.72269, 36.24109], [-95.72243, 36.24244]]], [[[-95.73308, 36.23062], [-95.73393, 36.23049], [-95.7345, 36.23277], [-95.73323, 36.23315], [-95.73317, 36.23303], [-95.73399, 36.23278], [-95.73413, 36.23232], [-95.73375, 36.23123], [-95.73334, 36.23107], [-95.73268, 36.23114], [-95.73206, 36.2284], [-95.73253, 36.22832], [-95.73308, 36.23062]]], [[[-95.73197, 36.23254], [-95.73168, 36.23122], [-95.73273, 36.2338], [-95.73577, 36.23744], [-95.73299, 36.23442], [-95.73197, 36.23254]]], [[[-95.72752, 36.2326], [-95.72815, 36.23247], [-95.72878, 36.23263], [-95.72957, 36.2338], [-95.72911, 36.2336], [-95.72857, 36.23368], [-95.72799, 36.23408], [-95.72787, 36.23456], [-95.72682, 36.23344], [-95.72752, 36.2326]]], [[[-95.7298, 36.23436], [-95.72981, 36.23441], [-95.72979, 36.23441], [-95.7298, 36.23436]]], [[[-95.73039, 36.2355], [-95.73052, 36.23524], [-95.73062, 36.23449], [-95.7316, 36.23573], [-95.7306, 36.23576], [-95.73006, 36.23627], [-95.73039, 36.2355]]], [[[-95.72834, 36.23506], [-95.72882, 36.23512], [-95.72899, 36.23552], [-95.72936, 36.23575], [-95.72929, 36.23608], [-95.72834, 36.23506]]], [[[-95.72999, 36.23969], [-95.72984, 36.23976], [-95.72922, 36.23928], [-95.72624, 36.23609], [-95.72599, 36.23522], [-95.72653, 36.23402], [-95.73143, 36.23931], [-95.72999, 36.23969]]], [[[-95.73226, 36.23733], [-95.73242, 36.2369], [-95.73216, 36.23634], [-95.73331, 36.2376], [-95.73279, 36.23752], [-95.73233, 36.23769], [-95.73211, 36.23745], [-95.73226, 36.23733]]], [[[-95.73024, 36.24262], [-95.73041, 36.24275], [-95.72544, 36.24287], [-95.72643, 36.24195], [-95.72769, 36.24162], [-95.72876, 36.24191], [-95.73024, 36.24262]]], [[[-95.70978, 36.22588], [-95.70982, 36.22638], [-95.71013, 36.22681], [-95.7112, 36.22768], [-95.70763, 36.22764], [-95.70754, 36.22525], [-95.7102, 36.22519], [-95.70978, 36.22588]]], [[[-95.712, 36.22762], [-95.71046, 36.22621], [-95.7106, 36.22566], [-95.71102, 36.22517], [-95.7136, 36.22511], [-95.71318, 36.22585], [-95.71336, 36.22604], [-95.71472, 36.22606], [-95.71397, 36.2251], [-95.71831, 36.225], [-95.71887, 36.22581], [-95.7196, 36.22609], [-95.72098, 36.22585], [-95.72128, 36.22494], [-95.72663, 36.22481], [-95.72659, 36.22697], [-95.72628, 36.22791], [-95.72415, 36.23172], [-95.7237, 36.23159], [-95.72306, 36.23175], [-95.72166, 36.23155], [-95.71459, 36.23155], [-95.71436, 36.23077], [-95.71584, 36.23072], [-95.71611, 36.23048], [-95.71555, 36.22846], [-95.72141, 36.22869], [-95.72421, 36.22976], [-95.72485, 36.22942], [-95.72476, 36.22904], [-95.72228, 36.228], [-95.72119, 36.2278], [-95.712, 36.22762]]], [[[-95.71061, 36.22843], [-95.71032, 36.22821], [-95.71128, 36.22822], [-95.7109, 36.22873], [-95.71061, 36.22843]]], [[[-95.71384, 36.22841], [-95.71386, 36.22887], [-95.71422, 36.22945], [-95.71417, 36.22978], [-95.71358, 36.22916], [-95.71312, 36.22907], [-95.71253, 36.2283], [-95.71394, 36.22833], [-95.71384, 36.22841]]], [[[-95.70938, 36.22838], [-95.71021, 36.22888], [-95.7109, 36.22987], [-95.70974, 36.22979], [-95.70772, 36.23027], [-95.70764, 36.22818], [-95.70938, 36.22838]]], [[[-95.71365, 36.23085], [-95.71397, 36.23182], [-95.71301, 36.23159], [-95.71235, 36.23098], [-95.71365, 36.23085]]], [[[-95.71025, 36.23031], [-95.71106, 36.23053], [-95.71165, 36.23107], [-95.71228, 36.23246], [-95.71253, 36.23385], [-95.71304, 36.23376], [-95.71307, 36.23309], [-95.71369, 36.23301], [-95.71402, 36.23278], [-95.71424, 36.23325], [-95.71411, 36.2339], [-95.71461, 36.23429], [-95.71462, 36.23469], [-95.70787, 36.2347], [-95.70774, 36.23083], [-95.71025, 36.23031]]], [[[-95.7141, 36.23236], [-95.71413, 36.23237], [-95.71411, 36.2324], [-95.7141, 36.23236]]], [[[-95.7228, 36.2335], [-95.72331, 36.2327], [-95.72345, 36.23273], [-95.72313, 36.23325], [-95.7234, 36.23354], [-95.72253, 36.23559], [-95.7199, 36.24031], [-95.71938, 36.24223], [-95.71957, 36.243], [-95.71931, 36.24301], [-95.71909, 36.24275], [-95.71913, 36.24007], [-95.71847, 36.23995], [-95.71806, 36.23943], [-95.71944, 36.23848], [-95.71931, 36.23811], [-95.71542, 36.23718], [-95.71424, 36.23536], [-95.7121, 36.23527], [-95.71111, 36.23595], [-95.71152, 36.23642], [-95.71242, 36.23634], [-95.71289, 36.23654], [-95.71293, 36.23694], [-95.71223, 36.23688], [-95.71104, 36.23807], [-95.71104, 36.23996], [-95.71226, 36.23934], [-95.71178, 36.23998], [-95.71115, 36.24033], [-95.71079, 36.24026], [-95.71034, 36.23986], [-95.71017, 36.23855], [-95.70899, 36.23855], [-95.70902, 36.23523], [-95.71572, 36.23523], [-95.71573, 36.23564], [-95.71615, 36.23564], [-95.71615, 36.23577], [-95.71901, 36.23574], [-95.71916, 36.23632], [-95.72084, 36.23705], [-95.72215, 36.23503], [-95.7228, 36.2335]]], [[[-95.70821, 36.23589], [-95.70833, 36.23855], [-95.708, 36.23855], [-95.70791, 36.23587], [-95.70821, 36.23589]]], [[[-95.71834, 36.24134], [-95.7179, 36.24202], [-95.71659, 36.24211], [-95.71702, 36.24131], [-95.71757, 36.24105], [-95.71816, 36.24105], [-95.71834, 36.24134]]], [[[-95.71064, 36.24164], [-95.71062, 36.24254], [-95.71096, 36.24266], [-95.71098, 36.24175], [-95.71214, 36.24183], [-95.71302, 36.24168], [-95.71302, 36.24247], [-95.71244, 36.2431], [-95.70899, 36.24324], [-95.70899, 36.2414], [-95.70995, 36.24251], [-95.71008, 36.24137], [-95.71064, 36.24164]]], [[[-95.70813, 36.2422], [-95.70832, 36.2422], [-95.70832, 36.24325], [-95.70816, 36.24326], [-95.70813, 36.2422]]]]}, "properties": {"kind": "pv", "area_km2": 2.66, "mw": 132.9}}, {"type": "Feature", "geometry": {"type": "Point", "coordinates": [-95.72922, 36.24711]}, "properties": {"kind": "turbine", "i": 0, "mw": 6.0, "hub_m": 120.0, "rotor_m": 150.0}}, {"type": "Feature", "geometry": {"type": "Point", "coordinates": [-95.70475, 36.24438]}, "properties": {"kind": "turbine", "i": 1, "mw": 6.0, "hub_m": 120.0, "rotor_m": 150.0}}, {"type": "Feature", "geometry": {"type": "Point", "coordinates": [-95.69978, 36.21816]}, "properties": {"kind": "turbine", "i": 2, "mw": 6.0, "hub_m": 120.0, "rotor_m": 150.0}}, {"type": "Feature", "geometry": {"type": "Point", "coordinates": [-95.71173, 36.21131]}, "properties": {"kind": "turbine", "i": 3, "mw": 6.0, "hub_m": 120.0, "rotor_m": 150.0}}, {"type": "Feature", "geometry": {"type": "Point", "coordinates": [-95.73596, 36.20747]}, "properties": {"kind": "turbine", "i": 4, "mw": 6.0, "hub_m": 120.0, "rotor_m": 150.0}}, {"type": "Feature", "geometry": {"type": "Point", "coordinates": [-95.71545, 36.20135]}, "properties": {"kind": "turbine", "i": 5, "mw": 6.0, "hub_m": 120.0, "rotor_m": 150.0}}, {"type": "Feature", "geometry": {"type": "Point", "coordinates": [-95.73791, 36.26337]}, "properties": {"kind": "turbine", "i": 6, "mw": 6.0, "hub_m": 120.0, "rotor_m": 150.0}}, {"type": "Feature", "geometry": {"type": "Point", "coordinates": [-95.72585, 36.26693]}, "properties": {"kind": "turbine", "i": 7, "mw": 6.0, "hub_m": 120.0, "rotor_m": 150.0}}, {"type": "Feature", "geometry": {"type": "Point", "coordinates": [-95.70137, 36.2642]}, "properties": {"kind": "turbine", "i": 8, "mw": 6.0, "hub_m": 120.0, "rotor_m": 150.0}}, {"type": "Feature", "geometry": {"type": "Point", "coordinates": [-95.69133, 36.20848]}, "properties": {"kind": "turbine", "i": 9, "mw": 6.0, "hub_m": 120.0, "rotor_m": 150.0}}, {"type": "Feature", "geometry": {"type": "Point", "coordinates": [-95.75231, 36.21038]}, "properties": {"kind": "turbine", "i": 10, "mw": 6.0, "hub_m": 120.0, "rotor_m": 150.0}}, {"type": "Feature", "geometry": {"type": "Point", "coordinates": [-95.71378, 36.2705]}, "properties": {"kind": "turbine", "i": 11, "mw": 6.0, "hub_m": 120.0, "rotor_m": 150.0}}, {"type": "Feature", "geometry": {"type": "Point", "coordinates": [-95.68501, 36.26128]}, "properties": {"kind": "turbine", "i": 12, "mw": 6.0, "hub_m": 120.0, "rotor_m": 150.0}}, {"type": "Feature", "geometry": {"type": "Point", "coordinates": [-95.67927, 36.21204]}, "properties": {"kind": "turbine", "i": 13, "mw": 6.0, "hub_m": 120.0, "rotor_m": 150.0}}, {"type": "Feature", "geometry": {"type": "Point", "coordinates": [-95.69505, 36.19852]}, "properties": {"kind": "turbine", "i": 14, "mw": 6.0, "hub_m": 120.0, "rotor_m": 150.0}}, {"type": "Feature", "geometry": {"type": "Point", "coordinates": [-95.75427, 36.26628]}, "properties": {"kind": "turbine", "i": 15, "mw": 6.0, "hub_m": 120.0, "rotor_m": 150.0}}, {"type": "Feature", "geometry": {"type": "Point", "coordinates": [-95.70699, 36.19167]}, "properties": {"kind": "turbine", "i": 16, "mw": 6.0, "hub_m": 120.0, "rotor_m": 150.0}}, {"type": "Feature", "geometry": {"type": "Point", "coordinates": [-95.68941, 36.27105]}, "properties": {"kind": "turbine", "i": 17, "mw": 6.0, "hub_m": 120.0, "rotor_m": 150.0}}, {"type": "Feature", "geometry": {"type": "Point", "coordinates": [-95.75602, 36.20043]}, "properties": {"kind": "turbine", "i": 18, "mw": 6.0, "hub_m": 120.0, "rotor_m": 150.0}}, {"type": "Feature", "geometry": {"type": "Point", "coordinates": [-95.70182, 36.27735]}, "properties": {"kind": "turbine", "i": 19, "mw": 6.0, "hub_m": 120.0, "rotor_m": 150.0}}, {"type": "Feature", "geometry": {"type": "Point", "coordinates": [-95.76622, 36.25943]}, "properties": {"kind": "turbine", "i": 20, "mw": 6.0, "hub_m": 120.0, "rotor_m": 150.0}}, {"type": "Feature", "geometry": {"type": "Point", "coordinates": [-95.76854, 36.21001]}, "properties": {"kind": "turbine", "i": 21, "mw": 6.0, "hub_m": 120.0, "rotor_m": 150.0}}, {"type": "Feature", "geometry": {"type": "Point", "coordinates": [-95.73443, 36.2799]}, "properties": {"kind": "turbine", "i": 22, "mw": 6.0, "hub_m": 120.0, "rotor_m": 150.0}}, {"type": "Feature", "geometry": {"type": "Point", "coordinates": [-95.7465, 36.27633]}, "properties": {"kind": "turbine", "i": 23, "mw": 6.0, "hub_m": 120.0, "rotor_m": 150.0}}, {"type": "Feature", "geometry": {"type": "Point", "coordinates": [-95.67882, 36.19889]}, "properties": {"kind": "turbine", "i": 24, "mw": 6.0, "hub_m": 120.0, "rotor_m": 150.0}}, {"type": "Feature", "geometry": {"type": "Point", "coordinates": [-95.67295, 36.26484]}, "properties": {"kind": "turbine", "i": 25, "mw": 6.0, "hub_m": 120.0, "rotor_m": 150.0}}]}