{"type": "FeatureCollection", "features": [{"type": "Feature", "geometry": {"type": "MultiPolygon", "coordinates": [[[[-95.80031, 36.30544], [-95.80062, 36.30561], [-95.80001, 36.30561], [-95.80026, 36.30541], [-95.80031, 36.30544]]], [[[-95.77396, 36.27402], [-95.77105, 36.27418], [-95.7686, 36.27538], [-95.76664, 36.27536], [-95.76509, 36.27588], [-95.76379, 36.27482], [-95.76521, 36.27408], [-95.76739, 36.27372], [-95.76854, 36.27239], [-95.77396, 36.27266], [-95.77396, 36.27402]]], [[[-95.75712, 36.26682], [-95.75621, 36.26767], [-95.75603, 36.26878], [-95.75785, 36.27128], [-95.75816, 36.27278], [-95.75583, 36.27523], [-95.75414, 36.27512], [-95.75109, 36.27572], [-95.74866, 36.27715], [-95.74792, 36.27875], [-95.74814, 36.28078], [-95.74877, 36.28205], [-95.75005, 36.28309], [-95.74845, 36.28454], [-95.74806, 36.28341], [-95.74683, 36.28264], [-95.74627, 36.28112], [-95.7449, 36.28036], [-95.73909, 36.28038], [-95.73703, 36.28152], [-95.73676, 36.28314], [-95.73806, 36.28439], [-95.73797, 36.29121], [-95.73637, 36.29001], [-95.73433, 36.28955], [-95.73431, 36.28811], [-95.73325, 36.28697], [-95.73027, 36.28594], [-95.72843, 36.28594], [-95.72913, 36.28467], [-95.72915, 36.28316], [-95.72847, 36.28152], [-95.72733, 36.28051], [-95.72496, 36.27982], [-95.72032, 36.28019], [-95.72133, 36.27883], [-95.72262, 36.27936], [-95.7243, 36.2795], [-95.72835, 36.27801], [-95.73189, 36.27819], [-95.73324, 36.27796], [-95.73507, 36.27688], [-95.73604, 36.2749], [-95.73813, 36.27435], [-95.74014, 36.27513], [-95.74259, 36.27502], [-95.74439, 36.27413], [-95.74544, 36.27268], [-95.74719, 36.27269], [-95.74889, 36.27214], [-95.75049, 36.27056], [-95.75073, 36.26852], [-95.74977, 36.26682], [-95.74744, 36.26564], [-95.7474, 36.2652], [-95.74975, 36.26533], [-95.75142, 36.26481], [-95.75416, 36.26535], [-95.75528, 36.26624], [-95.75712, 36.26682]]], [[[-95.76682, 36.2426], [-95.76719, 36.24232], [-95.76742, 36.24258], [-95.76688, 36.24266], [-95.76682, 36.2426]]], [[[-95.7663, 36.23803], [-95.76536, 36.23785], [-95.76281, 36.23641], [-95.76353, 36.2352], [-95.76501, 36.23673], [-95.76698, 36.23737], [-95.7663, 36.23803]]], [[[-95.73905, 36.24759], [-95.73934, 36.24743], [-95.73984, 36.24713], [-95.73998, 36.24759], [-95.73905, 36.24759]]], [[[-95.72546, 36.2397], [-95.72348, 36.2409], [-95.72243, 36.24244], [-95.72269, 36.24109], [-95.72452, 36.23791], [-95.726, 36.23949], [-95.72546, 36.2397]]], [[[-95.71296, 36.23716], [-95.7121, 36.23789], [-95.71306, 36.2379], [-95.71326, 36.239], [-95.71244, 36.2391], [-95.71104, 36.23996], [-95.71104, 36.23807], [-95.71223, 36.23688], [-95.71296, 36.23716]]], [[[-95.6582, 36.26626], [-95.65764, 36.26718], [-95.65696, 36.2671], [-95.65701, 36.26609], [-95.6582, 36.26626]]], [[[-95.6539, 36.26996], [-95.6544, 36.27081], [-95.65551, 36.27151], [-95.65246, 36.27066], [-95.65279, 36.27003], [-95.6539, 36.26996]]], [[[-95.65634, 36.27173], [-95.65842, 36.27134], [-95.65962, 36.27011], [-95.66121, 36.27088], [-95.6596, 36.27141], [-95.65858, 36.2729], [-95.65634, 36.27173]]], [[[-95.65533, 36.28035], [-95.66466, 36.28032], [-95.66527, 36.28187], [-95.66634, 36.28261], [-95.66754, 36.28284], [-95.66944, 36.28223], [-95.67055, 36.28034], [-95.67625, 36.28053], [-95.67395, 36.28125], [-95.67228, 36.28251], [-95.6702, 36.28499], [-95.66932, 36.2871], [-95.66875, 36.28599], [-95.66755, 36.28529], [-95.66534, 36.28539], [-95.66167, 36.28384], [-95.65935, 36.28341], [-95.65567, 36.28335], [-95.65321, 36.28227], [-95.6532, 36.28159], [-95.65533, 36.28035]]], [[[-95.6378, 36.28895], [-95.63913, 36.28876], [-95.64031, 36.28799], [-95.64108, 36.28993], [-95.64023, 36.29029], [-95.63874, 36.28985], [-95.63716, 36.29019], [-95.6378, 36.28895]]], [[[-95.643, 36.29751], [-95.64398, 36.29777], [-95.64377, 36.2983], [-95.64287, 36.29854], [-95.63631, 36.29817], [-95.63693, 36.29644], [-95.63801, 36.29574], [-95.643, 36.29751]]], [[[-95.62946, 36.30176], [-95.62933, 36.30192], [-95.62922, 36.30208], [-95.62941, 36.30177], [-95.62946, 36.30176]]], [[[-95.65442, 36.30476], [-95.65489, 36.30473], [-95.6552, 36.30469], [-95.65485, 36.30517], [-95.65409, 36.30476], [-95.65442, 36.30476]]], [[[-95.66007, 36.30318], [-95.66146, 36.30158], [-95.66258, 36.30132], [-95.66359, 36.30263], [-95.66266, 36.3031], [-95.66203, 36.30401], [-95.66007, 36.30318]]], [[[-95.65719, 36.31224], [-95.65682, 36.31184], [-95.65689, 36.31171], [-95.65735, 36.31226], [-95.65719, 36.31224]]], [[[-95.66005, 36.31281], [-95.66058, 36.3127], [-95.66139, 36.3135], [-95.66261, 36.31396], [-95.66466, 36.31427], [-95.66628, 36.31411], [-95.66629, 36.31526], [-95.66439, 36.31544], [-95.66243, 36.31681], [-95.66145, 36.3143], [-95.66005, 36.31281]]], [[[-95.59405, 36.26583], [-95.59496, 36.26499], [-95.59509, 36.26369], [-95.59397, 36.26247], [-95.59257, 36.26201], [-95.59025, 36.25388], [-95.59156, 36.253], [-95.59193, 36.25158], [-95.5925, 36.25104], [-95.59681, 36.25064], [-95.59799, 36.24965], [-95.5983, 36.24839], [-95.59628, 36.24402], [-95.59682, 36.24237], [-95.59605, 36.24089], [-95.59417, 36.24025], [-95.58818, 36.24048], [-95.58785, 36.23691], [-95.58805, 36.22959], [-95.59154, 36.2295], [-95.59257, 36.22874], [-95.5929, 36.22785], [-95.59268, 36.22692], [-95.59194, 36.2262], [-95.58981, 36.22579], [-95.58976, 36.22244], [-95.59577, 36.22227], [-95.59664, 36.22358], [-95.59971, 36.22615], [-95.6021, 36.22751], [-95.60602, 36.22864], [-95.60985, 36.22892], [-95.62369, 36.22706], [-95.62635, 36.22629], [-95.62919, 36.22488], [-95.63707, 36.21816], [-95.64108, 36.21398], [-95.64577, 36.21072], [-95.65237, 36.20703], [-95.65243, 36.21664], [-95.65067, 36.21613], [-95.64892, 36.21622], [-95.64588, 36.217], [-95.64409, 36.21844], [-95.64357, 36.22009], [-95.64398, 36.22167], [-95.64523, 36.22305], [-95.64684, 36.22372], [-95.64485, 36.2245], [-95.64374, 36.22555], [-95.64322, 36.22685], [-95.64336, 36.22824], [-95.6423, 36.22956], [-95.6418, 36.23141], [-95.64055, 36.23293], [-95.63871, 36.23191], [-95.63706, 36.23163], [-95.63527, 36.23188], [-95.63385, 36.23263], [-95.63266, 36.23437], [-95.63073, 36.23579], [-95.63009, 36.23689], [-95.62995, 36.23876], [-95.6311, 36.24055], [-95.62824, 36.24097], [-95.62693, 36.23998], [-95.62544, 36.23972], [-95.62262, 36.24045], [-95.62153, 36.2417], [-95.62087, 36.24179], [-95.61972, 36.24074], [-95.61792, 36.24015], [-95.61657, 36.2404], [-95.61562, 36.24121], [-95.61539, 36.24232], [-95.61652, 36.24373], [-95.61656, 36.24612], [-95.6154, 36.24745], [-95.61402, 36.24762], [-95.61307, 36.24822], [-95.61261, 36.24908], [-95.61255, 36.25066], [-95.61023, 36.25115], [-95.60873, 36.25236], [-95.6081, 36.25426], [-95.60869, 36.25622], [-95.60715, 36.25727], [-95.60632, 36.25884], [-95.60581, 36.26192], [-95.60594, 36.26504], [-95.60699, 36.26677], [-95.60831, 36.26767], [-95.6079, 36.2696], [-95.60892, 36.27158], [-95.60727, 36.27331], [-95.60707, 36.27457], [-95.60568, 36.2742], [-95.60502, 36.27292], [-95.60289, 36.2711], [-95.60046, 36.27018], [-95.60137, 36.26939], [-95.60266, 36.27044], [-95.60434, 36.27074], [-95.60654, 36.26985], [-95.60721, 36.2688], [-95.6072, 36.26769], [-95.60494, 36.26533], [-95.60277, 36.26481], [-95.60135, 36.26532], [-95.60048, 36.26624], [-95.59897, 36.26589], [-95.59762, 36.26613], [-95.59579, 36.2678], [-95.5957, 36.26935], [-95.59527, 36.2692], [-95.59451, 36.26763], [-95.59405, 36.26583]], [[-95.60299, 36.24974], [-95.60492, 36.24772], [-95.60509, 36.2461], [-95.60401, 36.24454], [-95.6019, 36.24405], [-95.59996, 36.24507], [-95.59885, 36.24823], [-95.59945, 36.24934], [-95.60046, 36.24994], [-95.60176, 36.25009], [-95.60299, 36.24974]]], [[[-95.60945, 36.28034], [-95.60919, 36.28115], [-95.60799, 36.28034], [-95.60945, 36.28034]]], [[[-95.61125, 36.28501], [-95.61087, 36.28616], [-95.61148, 36.2881], [-95.61079, 36.28873], [-95.61024, 36.28854], [-95.61079, 36.28658], [-95.60992, 36.28468], [-95.61011, 36.28409], [-95.61125, 36.28501]]], [[[-95.61873, 36.27657], [-95.61735, 36.27655], [-95.61734, 36.27401], [-95.6186, 36.27477], [-95.62009, 36.27488], [-95.61945, 36.27657], [-95.61873, 36.27657]]], [[[-95.63525, 36.26394], [-95.63522, 36.25686], [-95.6373, 36.25543], [-95.63758, 36.25649], [-95.63856, 36.25728], [-95.63992, 36.2575], [-95.6411, 36.25713], [-95.64182, 36.25879], [-95.64159, 36.25901], [-95.63922, 36.25873], [-95.63785, 36.25926], [-95.63684, 36.26097], [-95.63761, 36.26285], [-95.63563, 36.26477], [-95.63525, 36.26394]]], [[[-95.63802, 36.26864], [-95.63803, 36.26885], [-95.63807, 36.26905], [-95.63789, 36.26877], [-95.63802, 36.26864]]], [[[-95.63044, 36.25936], [-95.62967, 36.25796], [-95.62814, 36.25724], [-95.62782, 36.25556], [-95.6288, 36.25683], [-95.63045, 36.25768], [-95.63044, 36.25936]]], [[[-95.62437, 36.25169], [-95.62417, 36.25173], [-95.62432, 36.25145], [-95.62457, 36.25167], [-95.62437, 36.25169]]], [[[-95.62232, 36.25331], [-95.62227, 36.25359], [-95.62182, 36.25345], [-95.62234, 36.25327], [-95.62232, 36.25331]]], [[[-95.6246, 36.26183], [-95.62469, 36.262], [-95.62448, 36.262], [-95.62454, 36.2617], [-95.6246, 36.26183]]], [[[-95.61257, 36.27453], [-95.61257, 36.27511], [-95.6113, 36.27558], [-95.61051, 36.27647], [-95.60828, 36.27647], [-95.6082, 36.27585], [-95.61014, 36.27602], [-95.61241, 36.27422], [-95.61257, 36.27453]]], [[[-95.61763, 36.25306], [-95.61732, 36.25305], [-95.61733, 36.25284], [-95.61777, 36.25308], [-95.61763, 36.25306]]], [[[-95.62271, 36.24615], [-95.62277, 36.24613], [-95.62297, 36.24669], [-95.62245, 36.24621], [-95.62271, 36.24615]]], [[[-95.65723, 36.22049], [-95.65687, 36.20521], [-95.66334, 36.20334], [-95.67534, 36.19797], [-95.67977, 36.19665], [-95.68367, 36.19643], [-95.68526, 36.19755], [-95.6872, 36.19795], [-95.68926, 36.19761], [-95.69092, 36.1965], [-95.69378, 36.19677], [-95.69683, 36.19787], [-95.69892, 36.19978], [-95.69729, 36.20054], [-95.69603, 36.20185], [-95.69424, 36.19995], [-95.69268, 36.19945], [-95.69099, 36.19946], [-95.6891, 36.2002], [-95.68785, 36.20159], [-95.68762, 36.20363], [-95.68855, 36.20517], [-95.68989, 36.20604], [-95.69143, 36.20641], [-95.69184, 36.20796], [-95.69314, 36.20931], [-95.69599, 36.21018], [-95.69096, 36.21429], [-95.69066, 36.21296], [-95.68951, 36.21193], [-95.68866, 36.20666], [-95.68686, 36.20354], [-95.68417, 36.20159], [-95.67707, 36.20241], [-95.67471, 36.20237], [-95.667, 36.20586], [-95.66143, 36.2067], [-95.66054, 36.20742], [-95.66017, 36.20839], [-95.66099, 36.21005], [-95.66258, 36.21061], [-95.66619, 36.21055], [-95.66712, 36.21165], [-95.66896, 36.21206], [-95.67016, 36.21286], [-95.67039, 36.2138], [-95.6679, 36.21423], [-95.66645, 36.21504], [-95.66533, 36.21393], [-95.66342, 36.21321], [-95.66139, 36.21327], [-95.65983, 36.21381], [-95.65842, 36.21508], [-95.65793, 36.21674], [-95.65898, 36.21912], [-95.6589, 36.22114], [-95.65987, 36.22271], [-95.65973, 36.22404], [-95.65877, 36.2236], [-95.6585, 36.22246], [-95.65723, 36.22101], [-95.65723, 36.22049]]], [[[-95.67974, 36.20939], [-95.68033, 36.20975], [-95.68089, 36.21158], [-95.68483, 36.2147], [-95.68309, 36.21564], [-95.6811, 36.21456], [-95.67882, 36.21446], [-95.67725, 36.21496], [-95.67552, 36.21607], [-95.67517, 36.21431], [-95.67731, 36.21315], [-95.67893, 36.21132], [-95.67974, 36.20939]]], [[[-95.69998, 36.22241], [-95.69664, 36.22418], [-95.69557, 36.2263], [-95.69388, 36.22673], [-95.69377, 36.2242], [-95.6946, 36.22236], [-95.69998, 36.22241]]], [[[-95.71336, 36.22604], [-95.71318, 36.22585], [-95.7137, 36.2248], [-95.71472, 36.22606], [-95.71336, 36.22604]]], [[[-95.71628, 36.20732], [-95.71136, 36.20345], [-95.71622, 36.1994], [-95.71679, 36.20157], [-95.71807, 36.20293], [-95.72064, 36.20381], [-95.7231, 36.20394], [-95.72064, 36.20535], [-95.71921, 36.20755], [-95.71701, 36.20792], [-95.71628, 36.20732]]], [[[-95.71484, 36.19491], [-95.71471, 36.19453], [-95.7152, 36.19462], [-95.71484, 36.19491]]], [[[-95.71144, 36.19208], [-95.70916, 36.19164], [-95.7066, 36.19186], [-95.70496, 36.1925], [-95.70398, 36.19359], [-95.70381, 36.19504], [-95.70427, 36.19598], [-95.70616, 36.19702], [-95.70721, 36.19903], [-95.70905, 36.19954], [-95.70775, 36.20055], [-95.70309, 36.19552], [-95.70378, 36.19402], [-95.70355, 36.18985], [-95.70508, 36.19087], [-95.70671, 36.19123], [-95.70838, 36.19107], [-95.70993, 36.19033], [-95.71144, 36.19208]]], [[[-95.69639, 36.18775], [-95.69498, 36.18854], [-95.6944, 36.18878], [-95.69472, 36.18722], [-95.69699, 36.18729], [-95.69639, 36.18775]]], [[[-95.67507, 36.18878], [-95.67508, 36.18878], [-95.67507, 36.18878], [-95.67507, 36.18878]]], [[[-95.67031, 36.18948], [-95.66889, 36.18949], [-95.66822, 36.18835], [-95.66702, 36.18772], [-95.66471, 36.18282], [-95.66668, 36.18438], [-95.67028, 36.18574], [-95.67031, 36.18948]]], [[[-95.66486, 36.19466], [-95.6665, 36.19471], [-95.66735, 36.19555], [-95.66587, 36.19632], [-95.66439, 36.19538], [-95.66434, 36.19464], [-95.66486, 36.19466]]], [[[-95.64967, 36.18945], [-95.64636, 36.18947], [-95.64586, 36.18947], [-95.65058, 36.18821], [-95.65098, 36.18944], [-95.64967, 36.18945]]], [[[-95.64855, 36.18047], [-95.64938, 36.18158], [-95.65103, 36.18201], [-95.65101, 36.18246], [-95.64984, 36.18302], [-95.64783, 36.18499], [-95.64364, 36.18579], [-95.64181, 36.18656], [-95.64114, 36.18786], [-95.64107, 36.19039], [-95.63739, 36.19342], [-95.6358, 36.19688], [-95.63358, 36.19739], [-95.6302, 36.20018], [-95.62974, 36.2013], [-95.6299, 36.20248], [-95.62874, 36.2033], [-95.62806, 36.20433], [-95.6274, 36.21109], [-95.62655, 36.21175], [-95.62618, 36.21271], [-95.62659, 36.21397], [-95.62767, 36.21467], [-95.62882, 36.2148], [-95.63035, 36.21447], [-95.63146, 36.21372], [-95.63228, 36.21071], [-95.63267, 36.20563], [-95.63436, 36.20419], [-95.63469, 36.20209], [-95.63631, 36.20074], [-95.63784, 36.20045], [-95.63917, 36.19975], [-95.64061, 36.19771], [-95.64148, 36.19547], [-95.6442, 36.19331], [-95.64675, 36.19333], [-95.64424, 36.19579], [-95.6441, 36.19864], [-95.64483, 36.19981], [-95.6465, 36.20033], [-95.64691, 36.20205], [-95.64799, 36.20305], [-95.64031, 36.20776], [-95.6375, 36.20988], [-95.62817, 36.21847], [-95.62443, 36.22127], [-95.62111, 36.22223], [-95.6151, 36.22274], [-95.6101, 36.22373], [-95.60792, 36.2236], [-95.60743, 36.22152], [-95.60556, 36.21924], [-95.60345, 36.21804], [-95.6007, 36.21742], [-95.60075, 36.21546], [-95.60201, 36.21264], [-95.60375, 36.21025], [-95.60502, 36.21119], [-95.60669, 36.21145], [-95.60604, 36.21256], [-95.60599, 36.21357], [-95.60663, 36.21469], [-95.6076, 36.2153], [-95.60911, 36.21554], [-95.6104, 36.21529], [-95.61286, 36.21313], [-95.614, 36.21042], [-95.61375, 36.2086], [-95.6132, 36.20771], [-95.61139, 36.20655], [-95.60969, 36.20616], [-95.60778, 36.20594], [-95.60559, 36.20634], [-95.60619, 36.20062], [-95.60669, 36.19874], [-95.60816, 36.19657], [-95.6112, 36.19415], [-95.61278, 36.19333], [-95.61569, 36.19408], [-95.61939, 36.19363], [-95.62166, 36.1925], [-95.62269, 36.19119], [-95.62316, 36.18883], [-95.6226, 36.18694], [-95.62158, 36.18537], [-95.62253, 36.18229], [-95.62262, 36.17889], [-95.62472, 36.177], [-95.6252, 36.17492], [-95.62487, 36.17355], [-95.62344, 36.17173], [-95.62343, 36.16664], [-95.63455, 36.16665], [-95.63431, 36.16824], [-95.63315, 36.16969], [-95.63293, 36.17061], [-95.63354, 36.17181], [-95.63519, 36.17244], [-95.63784, 36.17199], [-95.63903, 36.17111], [-95.63932, 36.16664], [-95.64206, 36.16664], [-95.64286, 36.16729], [-95.64356, 36.16734], [-95.64395, 36.1669], [-95.64494, 36.1669], [-95.64511, 36.16792], [-95.64266, 36.16792], [-95.64169, 36.16854], [-95.65242, 36.16855], [-95.65244, 36.17065], [-95.65051, 36.17019], [-95.64524, 36.17025], [-95.6431, 36.17147], [-95.64186, 36.17338], [-95.64175, 36.17522], [-95.64265, 36.17676], [-95.64646, 36.17967], [-95.64855, 36.18047]]], [[[-95.65722, 36.17341], [-95.65758, 36.17341], [-95.65758, 36.17285], [-95.65722, 36.17285], [-95.65719, 36.16855], [-95.65862, 36.16855], [-95.6587, 36.16738], [-95.66032, 36.16664], [-95.6668, 36.16664], [-95.6649, 36.16783], [-95.6659, 36.16821], [-95.6684, 36.16664], [-95.67031, 36.16664], [-95.67026, 36.17371], [-95.66744, 36.17374], [-95.66502, 36.17494], [-95.66391, 36.17494], [-95.6638, 36.16967], [-95.66284, 36.16863], [-95.66151, 36.16831], [-95.66019, 36.16864], [-95.65924, 36.16968], [-95.65914, 36.17493], [-95.65814, 36.17493], [-95.65722, 36.17417], [-95.65722, 36.17341]]], [[[-95.67833, 36.17359], [-95.67853, 36.17057], [-95.68009, 36.17144], [-95.68377, 36.17132], [-95.68467, 36.17074], [-95.68517, 36.16946], [-95.68613, 36.16857], [-95.68633, 36.16698], [-95.68753, 36.16662], [-95.68828, 36.16691], [-95.68827, 36.17224], [-95.68546, 36.17248], [-95.68461, 36.17311], [-95.68422, 36.17399], [-95.67833, 36.17359]]], [[[-95.69304, 36.17879], [-95.69327, 36.17879], [-95.69304, 36.17902], [-95.69304, 36.17879]]], [[[-95.70037, 36.17499], [-95.69744, 36.17476], [-95.69793, 36.17415], [-95.69898, 36.17434], [-95.69967, 36.17381], [-95.69948, 36.17316], [-95.70275, 36.17037], [-95.70492, 36.16676], [-95.70647, 36.166], [-95.70679, 36.16442], [-95.72402, 36.16465], [-95.72405, 36.17412], [-95.72172, 36.17405], [-95.71992, 36.17201], [-95.7171, 36.17139], [-95.7144, 36.17238], [-95.7131, 36.17456], [-95.71092, 36.17416], [-95.70927, 36.17492], [-95.70563, 36.1756], [-95.70241, 36.17483], [-95.70037, 36.17499]]], [[[-95.74047, 36.17276], [-95.74013, 36.17246], [-95.74126, 36.17247], [-95.74108, 36.17277], [-95.74047, 36.17276]]], [[[-95.73989, 36.17074], [-95.73463, 36.16799], [-95.73469, 36.16762], [-95.74037, 36.17056], [-95.74296, 36.17099], [-95.74261, 36.17123], [-95.73989, 36.17074]]], [[[-95.7484, 36.1692], [-95.74891, 36.16838], [-95.74928, 36.17034], [-95.74746, 36.17066], [-95.74688, 36.17046], [-95.7484, 36.1692]]], [[[-95.72977, 36.15068], [-95.72971, 36.15708], [-95.72873, 36.15743], [-95.72864, 36.14998], [-95.72977, 36.15019], [-95.72977, 36.15068]]], [[[-95.7257, 36.14611], [-95.72441, 36.14679], [-95.72386, 36.14794], [-95.72398, 36.15935], [-95.7216, 36.16014], [-95.71143, 36.15996], [-95.71097, 36.15928], [-95.71633, 36.15817], [-95.71828, 36.15606], [-95.71852, 36.15498], [-95.71799, 36.15386], [-95.71702, 36.15323], [-95.71556, 36.15299], [-95.7143, 36.15328], [-95.71302, 36.15409], [-95.71092, 36.15454], [-95.70691, 36.15469], [-95.70355, 36.15623], [-95.70218, 36.15723], [-95.70171, 36.15813], [-95.70171, 36.15919], [-95.70252, 36.16025], [-95.69351, 36.16047], [-95.6931, 36.16012], [-95.69301, 36.15646], [-95.6928, 36.12995], [-95.70251, 36.12855], [-95.70971, 36.1281], [-95.7115, 36.12873], [-95.71356, 36.1283], [-95.71462, 36.12945], [-95.71648, 36.12982], [-95.7181, 36.12918], [-95.71899, 36.12782], [-95.72713, 36.12795], [-95.7267, 36.12903], [-95.72709, 36.13024], [-95.7283, 36.13115], [-95.72992, 36.13152], [-95.72983, 36.14313], [-95.72733, 36.14397], [-95.7257, 36.14611]], [[-95.7144, 36.13649], [-95.71606, 36.13612], [-95.71739, 36.13476], [-95.71796, 36.13291], [-95.71742, 36.13138], [-95.71653, 36.13068], [-95.71534, 36.1304], [-95.71279, 36.13119], [-95.71149, 36.13101], [-95.71019, 36.13135], [-95.70902, 36.13277], [-95.70962, 36.13473], [-95.71074, 36.13545], [-95.7144, 36.13649]]], [[[-95.73484, 36.14128], [-95.73491, 36.13164], [-95.7395, 36.13168], [-95.73958, 36.13342], [-95.74411, 36.13342], [-95.74415, 36.12978], [-95.75398, 36.13159], [-95.75508, 36.13362], [-95.75504, 36.13515], [-95.7559, 36.13673], [-95.75744, 36.13789], [-95.7591, 36.1383], [-95.75807, 36.13958], [-95.75783, 36.14125], [-95.75459, 36.1404], [-95.75188, 36.14127], [-95.7505, 36.14287], [-95.74988, 36.14548], [-95.7493, 36.14551], [-95.74932, 36.14419], [-95.74871, 36.14291], [-95.74639, 36.14146], [-95.74465, 36.14129], [-95.74281, 36.14177], [-95.7411, 36.14121], [-95.73906, 36.14119], [-95.73711, 36.14183], [-95.7358, 36.14307], [-95.73482, 36.14291], [-95.73484, 36.14128]]], [[[-95.73968, 36.12927], [-95.73944, 36.13079], [-95.73492, 36.13093], [-95.73493, 36.12863], [-95.73968, 36.12927]]], [[[-95.84517, 36.22665], [-95.84518, 36.22647], [-95.84562, 36.22665], [-95.84517, 36.22665]]], [[[-95.84107, 36.22702], [-95.84089, 36.22711], [-95.84083, 36.22715], [-95.84082, 36.22697], [-95.84107, 36.22702]]], [[[-95.84042, 36.22747], [-95.8398, 36.2286], [-95.8398, 36.23212], [-95.83812, 36.23213], [-95.8366, 36.23262], [-95.83736, 36.22998], [-95.83692, 36.22787], [-95.84042, 36.22747]]], [[[-95.83628, 36.24089], [-95.83535, 36.23771], [-95.83649, 36.23861], [-95.83855, 36.23948], [-95.84098, 36.23969], [-95.84296, 36.23909], [-95.8449, 36.23706], [-95.84564, 36.23707], [-95.84564, 36.23758], [-95.84394, 36.23852], [-95.84241, 36.24009], [-95.8394, 36.24022], [-95.83732, 36.24171], [-95.83628, 36.24089]]], [[[-95.8441, 36.20276], [-95.84218, 36.20305], [-95.84048, 36.20412], [-95.83752, 36.20414], [-95.83811, 36.20128], [-95.8379, 36.19973], [-95.84103, 36.19936], [-95.84257, 36.19879], [-95.8441, 36.20276]]], [[[-95.82732, 36.23699], [-95.82857, 36.24215], [-95.82769, 36.24343], [-95.82529, 36.24457], [-95.82681, 36.242], [-95.82693, 36.23896], [-95.82614, 36.23717], [-95.82732, 36.23699]]], [[[-95.82287, 36.24578], [-95.82271, 36.2468], [-95.82043, 36.24679], [-95.81853, 36.24762], [-95.81773, 36.24762], [-95.81772, 36.24381], [-95.81999, 36.24554], [-95.82287, 36.24578]]], [[[-95.81187, 36.23319], [-95.81168, 36.23318], [-95.81182, 36.23246], [-95.8124, 36.23317], [-95.81187, 36.23319]]], [[[-95.81175, 36.23705], [-95.81291, 36.23703], [-95.81296, 36.24654], [-95.81027, 36.2462], [-95.80815, 36.24664], [-95.80659, 36.24778], [-95.80586, 36.24956], [-95.79815, 36.24946], [-95.79742, 36.24788], [-95.79129, 36.24788], [-95.79019, 36.25117], [-95.78969, 36.25025], [-95.79023, 36.24936], [-95.79011, 36.24825], [-95.78942, 36.24749], [-95.78793, 36.24682], [-95.79149, 36.24401], [-95.79274, 36.24186], [-95.79283, 36.24215], [-95.8079, 36.23989], [-95.80798, 36.23691], [-95.81175, 36.23705]]], [[[-95.79302, 36.23752], [-95.79151, 36.23796], [-95.79058, 36.23652], [-95.78926, 36.23569], [-95.78754, 36.23531], [-95.78593, 36.23546], [-95.78595, 36.23365], [-95.78553, 36.23264], [-95.7819, 36.23071], [-95.78295, 36.23055], [-95.78399, 36.23153], [-95.78545, 36.23215], [-95.78751, 36.23224], [-95.78972, 36.23147], [-95.7908, 36.2304], [-95.79126, 36.22927], [-95.79177, 36.2292], [-95.79233, 36.23064], [-95.7938, 36.23181], [-95.79256, 36.23289], [-95.79254, 36.23419], [-95.79445, 36.23608], [-95.79302, 36.23752]]], [[[-95.80917, 36.22877], [-95.81124, 36.22927], [-95.8112, 36.23052], [-95.80951, 36.22937], [-95.80917, 36.22877]]], [[[-95.77473, 36.25193], [-95.77515, 36.25129], [-95.78031, 36.25138], [-95.78135, 36.25217], [-95.77773, 36.2551], [-95.77719, 36.25615], [-95.77632, 36.25629], [-95.77487, 36.25517], [-95.77473, 36.25193]]], [[[-95.74177, 36.22213], [-95.74071, 36.22215], [-95.74235, 36.2208], [-95.74336, 36.21827], [-95.74611, 36.21538], [-95.74768, 36.21142], [-95.74939, 36.20853], [-95.7498, 36.20821], [-95.75254, 36.20859], [-95.75499, 36.20766], [-95.75548, 36.20847], [-95.75551, 36.22352], [-95.75372, 36.22278], [-95.75237, 36.22263], [-95.74992, 36.21998], [-95.7476, 36.2192], [-95.74578, 36.21924], [-95.74421, 36.21976], [-95.74276, 36.221], [-95.74233, 36.22214], [-95.74177, 36.22213]]], [[[-95.74064, 36.21381], [-95.7381, 36.21631], [-95.73741, 36.2184], [-95.73648, 36.21875], [-95.73325, 36.21526], [-95.73678, 36.21451], [-95.73952, 36.21272], [-95.74075, 36.21356], [-95.74064, 36.21381]]], [[[-95.7377, 36.20702], [-95.73579, 36.2103], [-95.73376, 36.21131], [-95.73521, 36.20967], [-95.73535, 36.20751], [-95.73793, 36.20659], [-95.7377, 36.20702]]], [[[-95.78622, 36.22091], [-95.78366, 36.22205], [-95.78295, 36.22114], [-95.78178, 36.2205], [-95.77909, 36.2204], [-95.77748, 36.22115], [-95.77636, 36.22215], [-95.77564, 36.22338], [-95.77537, 36.22491], [-95.77373, 36.22305], [-95.77188, 36.22234], [-95.77311, 36.22141], [-95.7737, 36.21951], [-95.77301, 36.21736], [-95.77169, 36.21602], [-95.7695, 36.21492], [-95.76377, 36.21441], [-95.76356, 36.20884], [-95.76298, 36.2072], [-95.76519, 36.20792], [-95.77449, 36.20798], [-95.77468, 36.20988], [-95.77584, 36.2113], [-95.7777, 36.21211], [-95.78012, 36.21207], [-95.78097, 36.21386], [-95.7805, 36.21603], [-95.78132, 36.21765], [-95.7849, 36.22029], [-95.78648, 36.22084], [-95.78622, 36.22091]]], [[[-95.78482, 36.21116], [-95.78418, 36.20999], [-95.78547, 36.20815], [-95.78517, 36.20578], [-95.79501, 36.2059], [-95.79492, 36.2118], [-95.79197, 36.21212], [-95.79036, 36.21289], [-95.78938, 36.21389], [-95.78709, 36.21249], [-95.78521, 36.212], [-95.78482, 36.21116]]], [[[-95.79978, 36.20596], [-95.81304, 36.20573], [-95.81305, 36.21557], [-95.81121, 36.21441], [-95.80878, 36.21433], [-95.809, 36.20619], [-95.79978, 36.20622], [-95.79978, 36.20596]]], [[[-95.77068, 36.20411], [-95.7662, 36.20409], [-95.76558, 36.20323], [-95.76769, 36.19977], [-95.76775, 36.1973], [-95.77017, 36.19831], [-95.77215, 36.19827], [-95.77379, 36.19762], [-95.77503, 36.19827], [-95.77509, 36.19984], [-95.77338, 36.20102], [-95.77259, 36.20224], [-95.77256, 36.20411], [-95.77068, 36.20411]]], [[[-95.75606, 36.20044], [-95.75608, 36.20098], [-95.75425, 36.19954], [-95.7494, 36.19837], [-95.75055, 36.19786], [-95.75147, 36.19661], [-95.75215, 36.19826], [-95.756, 36.19932], [-95.75606, 36.20044]]], [[[-95.82499, 36.17899], [-95.82672, 36.17899], [-95.82654, 36.17992], [-95.82706, 36.18096], [-95.8282, 36.18159], [-95.82959, 36.18168], [-95.82956, 36.18358], [-95.83001, 36.18494], [-95.81772, 36.18591], [-95.81773, 36.18026], [-95.82239, 36.17994], [-95.82499, 36.17899]]], [[[-95.81296, 36.18252], [-95.81295, 36.18593], [-95.81084, 36.18608], [-95.81056, 36.18409], [-95.80887, 36.18224], [-95.81108, 36.18207], [-95.81296, 36.18109], [-95.81296, 36.18252]]], [[[-95.79504, 36.19664], [-95.79427, 36.19751], [-95.79273, 36.19742], [-95.79178, 36.19892], [-95.78369, 36.19768], [-95.78236, 36.19634], [-95.78872, 36.19421], [-95.79226, 36.19559], [-95.79503, 36.19417], [-95.79504, 36.19664]]], [[[-95.7998, 36.19525], [-95.80098, 36.196], [-95.80142, 36.19676], [-95.7998, 36.19584], [-95.7998, 36.19525]]], [[[-95.79979, 36.19096], [-95.80864, 36.19052], [-95.80718, 36.19134], [-95.80627, 36.19254], [-95.80573, 36.19696], [-95.80329, 36.19713], [-95.80309, 36.19568], [-95.80113, 36.19398], [-95.7998, 36.19406], [-95.79979, 36.19096]]], [[[-95.84155, 36.21862], [-95.8405, 36.21857], [-95.84026, 36.21833], [-95.84265, 36.21834], [-95.84268, 36.21865], [-95.84155, 36.21862]]], [[[-95.80113, 36.15245], [-95.80113, 36.15281], [-95.80073, 36.15224], [-95.80113, 36.15233], [-95.80113, 36.15245]]], [[[-95.80585, 36.27002], [-95.8045, 36.27003], [-95.80447, 36.26918], [-95.80548, 36.26955], [-95.80585, 36.27002]]], [[[-95.80925, 36.25843], [-95.80888, 36.25759], [-95.80982, 36.25745], [-95.80927, 36.25858], [-95.80925, 36.25843]]], [[[-95.80464, 36.2576], [-95.80403, 36.2584], [-95.80396, 36.2593], [-95.80284, 36.259], [-95.80068, 36.2591], [-95.79959, 36.2598], [-95.79917, 36.26089], [-95.79857, 36.25976], [-95.79771, 36.25913], [-95.79469, 36.25893], [-95.79324, 36.25949], [-95.79255, 36.26074], [-95.79085, 36.26125], [-95.7897, 36.26208], [-95.7811, 36.26209], [-95.78123, 36.26182], [-95.78484, 36.26114], [-95.78802, 36.25947], [-95.78914, 36.25771], [-95.78927, 36.25568], [-95.7904, 36.253], [-95.79158, 36.25663], [-95.80464, 36.2576]]], [[[-95.81555, 36.29526], [-95.81487, 36.2969], [-95.81459, 36.297], [-95.81459, 36.29498], [-95.81555, 36.29526]]], [[[-95.79051, 36.16715], [-95.79074, 36.1681], [-95.78871, 36.16809], [-95.78747, 36.16857], [-95.78582, 36.16839], [-95.78393, 36.16895], [-95.78306, 36.16978], [-95.78195, 36.16803], [-95.78195, 36.16628], [-95.78336, 36.16602], [-95.78433, 36.16526], [-95.78915, 36.16554], [-95.79051, 36.16715]]], [[[-95.78412, 36.18859], [-95.78744, 36.18977], [-95.79502, 36.19056], [-95.79502, 36.19079], [-95.79293, 36.19151], [-95.78547, 36.19176], [-95.78368, 36.19249], [-95.78332, 36.19236], [-95.78442, 36.19035], [-95.78412, 36.18859]]], [[[-95.82285, 36.19919], [-95.82261, 36.19856], [-95.82481, 36.19756], [-95.82614, 36.19579], [-95.82748, 36.19546], [-95.82861, 36.19584], [-95.82729, 36.19596], [-95.82636, 36.19652], [-95.82577, 36.1988], [-95.82285, 36.19919]]], [[[-95.77325, 36.18113], [-95.77039, 36.18238], [-95.76919, 36.18253], [-95.76402, 36.18122], [-95.76403, 36.18006], [-95.76585, 36.17898], [-95.771, 36.179], [-95.77167, 36.17998], [-95.77325, 36.18113]]], [[[-95.75804, 36.17892], [-95.75776, 36.18034], [-95.75675, 36.18053], [-95.75647, 36.17939], [-95.757, 36.17891], [-95.75804, 36.17892]]], [[[-95.75668, 36.18518], [-95.75681, 36.18511], [-95.75673, 36.18548], [-95.75657, 36.18525], [-95.75668, 36.18518]]], [[[-95.76097, 36.1891], [-95.7612, 36.1875], [-95.76144, 36.18609], [-95.76214, 36.18813], [-95.76097, 36.1891]]], [[[-95.76356, 36.18541], [-95.76745, 36.1864], [-95.76678, 36.18741], [-95.76885, 36.18894], [-95.76883, 36.18964], [-95.76782, 36.18849], [-95.76356, 36.18541]]], [[[-95.78668, 36.1538], [-95.78642, 36.15658], [-95.78448, 36.15481], [-95.78202, 36.15427], [-95.78202, 36.15304], [-95.78342, 36.15271], [-95.78509, 36.15306], [-95.78677, 36.1529], [-95.78668, 36.1538]]], [[[-95.80404, 36.16893], [-95.80404, 36.17001], [-95.80359, 36.1703], [-95.80329, 36.1701], [-95.80404, 36.16893]]], [[[-95.76492, 36.14451], [-95.76697, 36.14382], [-95.76705, 36.14395], [-95.76629, 36.14466], [-95.76492, 36.14451]]], [[[-95.76852, 36.15186], [-95.76907, 36.1515], [-95.76928, 36.15186], [-95.76922, 36.15187], [-95.76852, 36.15186]]], [[[-95.73898, 36.20188], [-95.73885, 36.20051], [-95.73802, 36.19912], [-95.73601, 36.19753], [-95.73426, 36.19726], [-95.7356, 36.19666], [-95.73677, 36.19551], [-95.73803, 36.19543], [-95.73924, 36.19743], [-95.74188, 36.19861], [-95.73967, 36.20067], [-95.73904, 36.20257], [-95.73898, 36.20188]]], [[[-95.75542, 36.22969], [-95.75496, 36.22984], [-95.75522, 36.22916], [-95.75529, 36.22941], [-95.75542, 36.22969]]], [[[-95.76738, 36.26058], [-95.76773, 36.26091], [-95.76539, 36.26208], [-95.76405, 36.26207], [-95.7652, 36.26047], [-95.76514, 36.25839], [-95.76633, 36.25878], [-95.76738, 36.26058]]], [[[-95.63375, 36.2416], [-95.63417, 36.24163], [-95.63416, 36.24205], [-95.63369, 36.24159], [-95.63375, 36.2416]]], [[[-95.79071, 36.30502], [-95.79192, 36.30529], [-95.79192, 36.3056], [-95.79065, 36.3056], [-95.79033, 36.30513], [-95.79071, 36.30502]]], [[[-95.78371, 36.30534], [-95.78402, 36.30329], [-95.78316, 36.30171], [-95.78105, 36.30053], [-95.77872, 36.30041], [-95.77871, 36.2995], [-95.77988, 36.29804], [-95.77972, 36.29711], [-95.77908, 36.29639], [-95.78014, 36.29492], [-95.78302, 36.29494], [-95.78307, 36.30064], [-95.78402, 36.30169], [-95.78605, 36.30221], [-95.78648, 36.30446], [-95.78516, 36.30558], [-95.78371, 36.30534]]], [[[-95.78788, 36.32432], [-95.7882, 36.32381], [-95.7889, 36.32382], [-95.78787, 36.32435], [-95.78788, 36.32432]]], [[[-95.72951, 36.33964], [-95.72946, 36.33835], [-95.73313, 36.33836], [-95.73313, 36.33959], [-95.72951, 36.33964]]], [[[-95.77358, 36.28413], [-95.77398, 36.28402], [-95.77398, 36.28467], [-95.77358, 36.28467], [-95.77358, 36.28413]]], [[[-95.76342, 36.28294], [-95.76382, 36.28307], [-95.76288, 36.28437], [-95.7628, 36.28802], [-95.76304, 36.28922], [-95.76377, 36.29009], [-95.76302, 36.29094], [-95.76075, 36.29101], [-95.76078, 36.28543], [-95.76025, 36.28439], [-95.75865, 36.28369], [-95.75679, 36.28419], [-95.7537, 36.28361], [-95.75511, 36.28308], [-95.75856, 36.28268], [-95.76038, 36.28147], [-95.76149, 36.28156], [-95.76342, 36.28294]]], [[[-95.73618, 36.2528], [-95.736, 36.25303], [-95.73623, 36.25146], [-95.73777, 36.25146], [-95.73618, 36.2528]]], [[[-95.74529, 36.25595], [-95.74471, 36.25597], [-95.74507, 36.25428], [-95.74642, 36.25484], [-95.74779, 36.25466], [-95.74901, 36.25356], [-95.74908, 36.25181], [-95.75025, 36.2521], [-95.74778, 36.25546], [-95.74529, 36.25595]]], [[[-95.72026, 36.27273], [-95.71878, 36.27408], [-95.71725, 36.27655], [-95.70934, 36.2765], [-95.70733, 36.27727], [-95.70661, 36.27864], [-95.70654, 36.28381], [-95.70589, 36.2838], [-95.7042, 36.28226], [-95.70261, 36.28179], [-95.70023, 36.28183], [-95.69836, 36.28262], [-95.69694, 36.28469], [-95.69695, 36.2864], [-95.69759, 36.28759], [-95.69691, 36.28874], [-95.69687, 36.28973], [-95.69572, 36.28868], [-95.69425, 36.28836], [-95.6928, 36.28876], [-95.69192, 36.28968], [-95.68638, 36.28525], [-95.68294, 36.28315], [-95.68204, 36.28167], [-95.68159, 36.27965], [-95.68186, 36.27848], [-95.68428, 36.27253], [-95.68558, 36.27049], [-95.68956, 36.26674], [-95.69099, 36.26427], [-95.69374, 36.26747], [-95.6966, 36.26826], [-95.69941, 36.27234], [-95.70221, 36.27427], [-95.71386, 36.27568], [-95.71762, 36.27465], [-95.72026, 36.27273]]], [[[-95.70647, 36.29031], [-95.70649, 36.29027], [-95.70649, 36.29033], [-95.70647, 36.29031]]], [[[-95.70263, 36.29487], [-95.70648, 36.29486], [-95.70647, 36.29819], [-95.70547, 36.29716], [-95.70377, 36.29625], [-95.70075, 36.29519], [-95.70122, 36.29482], [-95.70263, 36.29487]]], [[[-95.70245, 36.30575], [-95.70317, 36.30447], [-95.70513, 36.30271], [-95.70538, 36.30477], [-95.70335, 36.30574], [-95.70245, 36.30575]]], [[[-95.6992, 36.31099], [-95.70033, 36.30962], [-95.70057, 36.30962], [-95.70027, 36.31133], [-95.69879, 36.31137], [-95.6992, 36.31099]]], [[[-95.69414, 36.31504], [-95.69739, 36.31275], [-95.69736, 36.31543], [-95.6953, 36.3163], [-95.69534, 36.31919], [-95.69386, 36.31839], [-95.69277, 36.31683], [-95.69414, 36.31504]]], [[[-95.6984, 36.32636], [-95.6984, 36.32584], [-95.69905, 36.32592], [-95.6992, 36.32644], [-95.6984, 36.32636]]], [[[-95.69905, 36.32842], [-95.69875, 36.328], [-95.69935, 36.32676], [-95.70164, 36.33048], [-95.70347, 36.33133], [-95.70519, 36.33144], [-95.70821, 36.33022], [-95.7121, 36.33027], [-95.7135, 36.33068], [-95.71464, 36.33047], [-95.71583, 36.32935], [-95.7157, 36.32752], [-95.71606, 36.32746], [-95.71626, 36.32872], [-95.71741, 36.33022], [-95.7181, 36.332], [-95.71997, 36.33337], [-95.72176, 36.33371], [-95.72504, 36.33339], [-95.72675, 36.3324], [-95.72758, 36.33114], [-95.73438, 36.3312], [-95.73512, 36.33211], [-95.73502, 36.33451], [-95.72628, 36.33465], [-95.72495, 36.33587], [-95.72458, 36.33923], [-95.7219, 36.339], [-95.71997, 36.3402], [-95.71948, 36.338], [-95.71743, 36.33684], [-95.7147, 36.33699], [-95.71227, 36.33662], [-95.7055, 36.33734], [-95.70192, 36.33662], [-95.70172, 36.33307], [-95.69946, 36.32844], [-95.69905, 36.32842]]], [[[-95.84408, 36.24464], [-95.8453, 36.24422], [-95.84528, 36.24759], [-95.8409, 36.24758], [-95.8423, 36.24627], [-95.84237, 36.24478], [-95.84408, 36.24464]]], [[[-95.83052, 36.23017], [-95.83036, 36.2297], [-95.83162, 36.22992], [-95.83094, 36.23187], [-95.83052, 36.23017]]], [[[-95.80879, 36.22278], [-95.80906, 36.22332], [-95.80856, 36.22337], [-95.80593, 36.22229], [-95.80783, 36.21934], [-95.80879, 36.22278]]], [[[-95.76284, 36.21912], [-95.76234, 36.21943], [-95.76215, 36.21895], [-95.76301, 36.21905], [-95.76284, 36.21912]]], [[[-95.68812, 36.33711], [-95.6865, 36.33314], [-95.68422, 36.33159], [-95.68213, 36.33141], [-95.68053, 36.33185], [-95.6794, 36.33141], [-95.67802, 36.33153], [-95.67667, 36.33277], [-95.67697, 36.33441], [-95.67216, 36.33329], [-95.66856, 36.33201], [-95.67075, 36.33161], [-95.67159, 36.3323], [-95.67301, 36.33268], [-95.67477, 36.33215], [-95.67556, 36.33076], [-95.67532, 36.32982], [-95.67424, 36.32858], [-95.67473, 36.32771], [-95.67686, 36.32764], [-95.67868, 36.32678], [-95.67979, 36.32533], [-95.68, 36.32383], [-95.68855, 36.32382], [-95.69024, 36.32504], [-95.69287, 36.32536], [-95.69319, 36.3258], [-95.69334, 36.32877], [-95.69665, 36.33408], [-95.6967, 36.33753], [-95.69595, 36.3386], [-95.68812, 36.33711]]], [[[-95.66377, 36.3302], [-95.66363, 36.32983], [-95.66436, 36.32909], [-95.6652, 36.32967], [-95.66632, 36.3299], [-95.66706, 36.33148], [-95.66377, 36.3302]]], [[[-95.68777, 36.31816], [-95.68868, 36.31959], [-95.68839, 36.31996], [-95.68681, 36.31851], [-95.68553, 36.31837], [-95.6845, 36.31866], [-95.68449, 36.31816], [-95.68754, 36.31752], [-95.68777, 36.31816]]], [[[-95.69733, 36.30392], [-95.69771, 36.304], [-95.69669, 36.30579], [-95.68898, 36.30555], [-95.68901, 36.2933], [-95.69534, 36.29711], [-95.6936, 36.29826], [-95.6933, 36.29986], [-95.6961, 36.30319], [-95.69733, 36.30392]]], [[[-95.6809, 36.28738], [-95.68298, 36.28845], [-95.68624, 36.29102], [-95.67666, 36.29097], [-95.67666, 36.29026], [-95.67776, 36.28929], [-95.67817, 36.28827], [-95.67811, 36.28588], [-95.67747, 36.28493], [-95.67809, 36.28489], [-95.6809, 36.28738]]], [[[-95.63076, 36.30106], [-95.63094, 36.30086], [-95.631, 36.30078], [-95.63106, 36.30101], [-95.63076, 36.30106]]], [[[-95.64058, 36.28573], [-95.64045, 36.28552], [-95.6402, 36.28525], [-95.64077, 36.28548], [-95.64058, 36.28573]]], [[[-95.65445, 36.29051], [-95.65524, 36.29018], [-95.65621, 36.28949], [-95.65626, 36.29035], [-95.65532, 36.29091], [-95.65473, 36.29092], [-95.65445, 36.29051]]], [[[-95.65338, 36.29975], [-95.65317, 36.2948], [-95.6538, 36.2948], [-95.65484, 36.29739], [-95.65626, 36.2987], [-95.65338, 36.29975]]], [[[-95.6727, 36.27604], [-95.67224, 36.2765], [-95.67202, 36.27649], [-95.67208, 36.27586], [-95.67334, 36.27566], [-95.6727, 36.27604]]], [[[-95.66571, 36.27631], [-95.66578, 36.27634], [-95.66609, 36.27646], [-95.66567, 36.27646], [-95.66571, 36.27631]]], [[[-95.66187, 36.27093], [-95.66195, 36.27064], [-95.66223, 36.27059], [-95.66268, 36.27088], [-95.66216, 36.27064], [-95.66187, 36.27093]]], [[[-95.66332, 36.27152], [-95.66345, 36.27139], [-95.66328, 36.27112], [-95.66355, 36.27156], [-95.66332, 36.27152]]], [[[-95.67131, 36.26586], [-95.67095, 36.26598], [-95.67113, 36.26256], [-95.67225, 36.2629], [-95.6734, 36.26278], [-95.67482, 36.26151], [-95.6774, 36.26072], [-95.67866, 36.25935], [-95.67898, 36.25775], [-95.68153, 36.26044], [-95.68382, 36.26115], [-95.68716, 36.2614], [-95.68429, 36.26553], [-95.68046, 36.26912], [-95.6771, 36.27637], [-95.67547, 36.27546], [-95.67686, 36.27497], [-95.6778, 36.27394], [-95.67769, 36.2706], [-95.6766, 36.26958], [-95.6748, 36.26926], [-95.67514, 36.26769], [-95.67419, 36.26636], [-95.67278, 36.26581], [-95.67131, 36.26586]]], [[[-95.70268, 36.21809], [-95.70283, 36.21856], [-95.69608, 36.21851], [-95.69615, 36.21717], [-95.69567, 36.21607], [-95.7043, 36.20908], [-95.70622, 36.20974], [-95.70625, 36.21588], [-95.70494, 36.21573], [-95.70376, 36.2161], [-95.70283, 36.21707], [-95.70268, 36.21809]]], [[[-95.71146, 36.21159], [-95.711, 36.21172], [-95.71099, 36.21054], [-95.71218, 36.21152], [-95.71146, 36.21159]]], [[[-95.59417, 36.21742], [-95.5943, 36.21854], [-95.58932, 36.21858], [-95.59248, 36.20594], [-95.59649, 36.19603], [-95.60167, 36.18649], [-95.60799, 36.1774], [-95.6156, 36.16864], [-95.61612, 36.17624], [-95.61402, 36.17724], [-95.61277, 36.17849], [-95.61209, 36.17981], [-95.61163, 36.18235], [-95.61226, 36.18485], [-95.61388, 36.1861], [-95.61239, 36.18723], [-95.60735, 36.18981], [-95.6041, 36.19232], [-95.60182, 36.1948], [-95.6005, 36.19724], [-95.59843, 36.19843], [-95.59693, 36.19982], [-95.59603, 36.20171], [-95.59605, 36.20307], [-95.59742, 36.2049], [-95.59877, 36.20578], [-95.59483, 36.2135], [-95.59417, 36.21742]]], [[[-95.70014, 36.26391], [-95.7001, 36.26349], [-95.70091, 36.26361], [-95.70168, 36.26419], [-95.69989, 36.26475], [-95.70014, 36.26391]]], [[[-95.70858, 36.26639], [-95.70829, 36.26584], [-95.70956, 36.2652], [-95.71011, 36.26414], [-95.71136, 36.2646], [-95.71188, 36.26685], [-95.7118, 36.27004], [-95.71223, 36.27035], [-95.71336, 36.27033], [-95.71392, 36.26936], [-95.71523, 36.2689], [-95.7166, 36.26888], [-95.71802, 36.26839], [-95.71795, 36.26425], [-95.71884, 36.2629], [-95.71843, 36.26124], [-95.71925, 36.26005], [-95.71903, 36.25864], [-95.72016, 36.25864], [-95.72021, 36.26303], [-95.7207, 36.26387], [-95.72185, 36.2645], [-95.72301, 36.26454], [-95.72406, 36.26414], [-95.72475, 36.26339], [-95.72493, 36.26233], [-95.72752, 36.2622], [-95.72585, 36.264], [-95.72709, 36.26394], [-95.72924, 36.26291], [-95.72956, 36.26354], [-95.72984, 36.26348], [-95.72948, 36.26267], [-95.73135, 36.26165], [-95.7314, 36.26398], [-95.72939, 36.26462], [-95.72664, 36.26731], [-95.72539, 36.26805], [-95.72419, 36.26832], [-95.72114, 36.26795], [-95.71886, 36.2683], [-95.71503, 36.27096], [-95.71321, 36.27148], [-95.70703, 36.27049], [-95.7081, 36.26985], [-95.70862, 36.269], [-95.70858, 36.26639]]], [[[-95.73201, 36.26387], [-95.73151, 36.26395], [-95.73166, 36.26149], [-95.73407, 36.26018], [-95.73748, 36.26224], [-95.74078, 36.26489], [-95.73201, 36.26387]]], [[[-95.73132, 36.25733], [-95.73161, 36.2578], [-95.72953, 36.26004], [-95.73079, 36.2576], [-95.73087, 36.2558], [-95.73132, 36.25733]]], [[[-95.72608, 36.25166], [-95.726, 36.25192], [-95.72497, 36.2513], [-95.72621, 36.25135], [-95.72608, 36.25166]]], [[[-95.72983, 36.24487], [-95.73136, 36.24706], [-95.73145, 36.24759], [-95.72908, 36.24756], [-95.72881, 36.24408], [-95.72727, 36.24402], [-95.72751, 36.24363], [-95.72884, 36.24409], [-95.72983, 36.24487]]], [[[-95.63451, 36.15312], [-95.63452, 36.15718], [-95.63244, 36.15734], [-95.63074, 36.15799], [-95.62723, 36.16072], [-95.62435, 36.16048], [-95.63305, 36.15373], [-95.63451, 36.15279], [-95.63451, 36.15312]]], [[[-95.69304, 36.16683], [-95.69304, 36.16607], [-95.69589, 36.16642], [-95.69658, 36.16748], [-95.69559, 36.16739], [-95.69541, 36.16883], [-95.69442, 36.16904], [-95.69425, 36.16954], [-95.69303, 36.16957], [-95.69304, 36.16683]]], [[[-95.70067, 36.30033], [-95.70039, 36.2998], [-95.70115, 36.29995], [-95.70067, 36.30033]]], [[[-95.76728, 36.22331], [-95.76742, 36.22277], [-95.76867, 36.22286], [-95.7673, 36.22409], [-95.76728, 36.22331]]], [[[-95.7258, 36.21631], [-95.72561, 36.21614], [-95.72587, 36.21603], [-95.72597, 36.2165], [-95.7258, 36.21631]]], [[[-95.74352, 36.2861], [-95.74651, 36.28637], [-95.74757, 36.28598], [-95.74825, 36.28525], [-95.74847, 36.28623], [-95.74943, 36.28706], [-95.75003, 36.28832], [-95.75196, 36.28897], [-95.75404, 36.2909], [-95.75397, 36.29193], [-95.75271, 36.29215], [-95.75057, 36.29184], [-95.74926, 36.29221], [-95.74837, 36.2933], [-95.74843, 36.29539], [-95.74544, 36.29602], [-95.74383, 36.29606], [-95.74278, 36.2957], [-95.74279, 36.28596], [-95.74352, 36.2861]]], [[[-95.74467, 36.30193], [-95.7445, 36.30193], [-95.74477, 36.30118], [-95.74479, 36.30193], [-95.74467, 36.30193]]], [[[-95.73741, 36.29902], [-95.73799, 36.29876], [-95.73795, 36.30556], [-95.73589, 36.30556], [-95.73408, 36.30495], [-95.73131, 36.30491], [-95.72675, 36.30581], [-95.72539, 36.30489], [-95.72678, 36.30414], [-95.72733, 36.3029], [-95.72848, 36.30278], [-95.72879, 36.30153], [-95.72843, 36.30097], [-95.73063, 36.30101], [-95.73023, 36.30012], [-95.72905, 36.30041], [-95.72904, 36.30015], [-95.72832, 36.30012], [-95.72855, 36.30032], [-95.72798, 36.30044], [-95.72829, 36.30003], [-95.72935, 36.30003], [-95.72921, 36.29953], [-95.72855, 36.29934], [-95.7289, 36.2987], [-95.73052, 36.29854], [-95.73077, 36.29825], [-95.72778, 36.29814], [-95.72847, 36.29776], [-95.72866, 36.29692], [-95.72799, 36.29678], [-95.72742, 36.29482], [-95.72593, 36.29402], [-95.72334, 36.29433], [-95.72112, 36.29596], [-95.71999, 36.29618], [-95.71889, 36.29689], [-95.718, 36.29531], [-95.71642, 36.29417], [-95.71316, 36.29357], [-95.71125, 36.29384], [-95.71137, 36.28037], [-95.71555, 36.28041], [-95.7156, 36.2823], [-95.71626, 36.28336], [-95.71764, 36.284], [-95.71986, 36.28406], [-95.72047, 36.28562], [-95.71904, 36.28546], [-95.71739, 36.28577], [-95.71602, 36.28657], [-95.71513, 36.28773], [-95.71495, 36.28981], [-95.71621, 36.29158], [-95.71851, 36.29249], [-95.72138, 36.29206], [-95.72265, 36.29116], [-95.72342, 36.28989], [-95.72353, 36.28852], [-95.72294, 36.28717], [-95.72507, 36.28744], [-95.72424, 36.2892], [-95.72445, 36.29054], [-95.72515, 36.29138], [-95.72743, 36.29243], [-95.72807, 36.29336], [-95.729, 36.29386], [-95.72882, 36.29548], [-95.72966, 36.29694], [-95.73084, 36.29753], [-95.73209, 36.29761], [-95.73435, 36.299], [-95.73741, 36.29902]]], [[[-95.75986, 36.30309], [-95.75991, 36.30325], [-95.75972, 36.30312], [-95.75986, 36.30309]]], [[[-95.74991, 36.30283], [-95.75003, 36.30287], [-95.74955, 36.303], [-95.74966, 36.3027], [-95.74991, 36.30283]]], [[[-95.76083, 36.33115], [-95.76123, 36.33026], [-95.76156, 36.33141], [-95.76281, 36.33223], [-95.76673, 36.33238], [-95.76806, 36.33188], [-95.76826, 36.33239], [-95.75986, 36.33497], [-95.75844, 36.33449], [-95.75042, 36.33447], [-95.75045, 36.33097], [-95.75226, 36.33249], [-95.755, 36.33302], [-95.75866, 36.33274], [-95.76083, 36.33115]]], [[[-95.75102, 36.32613], [-95.75049, 36.32677], [-95.7505, 36.32387], [-95.75171, 36.32386], [-95.75153, 36.32572], [-95.75102, 36.32613]]], [[[-95.84712, 36.23067], [-95.84627, 36.23304], [-95.84457, 36.23306], [-95.84456, 36.23052], [-95.84712, 36.23067]]], [[[-95.7264, 36.32704], [-95.72703, 36.32653], [-95.72791, 36.32656], [-95.72828, 36.32728], [-95.72601, 36.32727], [-95.7264, 36.32704]]], [[[-95.70696, 36.2597], [-95.70696, 36.25947], [-95.70743, 36.25946], [-95.70696, 36.25987], [-95.70696, 36.2597]]], [[[-95.76483, 36.29482], [-95.76847, 36.29484], [-95.77363, 36.29487], [-95.77323, 36.29652], [-95.7699, 36.29651], [-95.76859, 36.2955], [-95.76483, 36.29482]]], [[[-95.78326, 36.28875], [-95.7839, 36.28967], [-95.783, 36.29108], [-95.77875, 36.29104], [-95.77875, 36.28649], [-95.77957, 36.28649], [-95.77974, 36.28786], [-95.78061, 36.28873], [-95.78194, 36.28906], [-95.78326, 36.28875]]], [[[-95.78772, 36.28299], [-95.78834, 36.28423], [-95.78656, 36.28428], [-95.78666, 36.28251], [-95.78772, 36.28299]]], [[[-95.74899, 36.31899], [-95.75031, 36.31933], [-95.75609, 36.31929], [-95.75608, 36.31991], [-95.74268, 36.32005], [-95.74269, 36.3177], [-95.74398, 36.31727], [-95.74476, 36.31658], [-95.7448, 36.31481], [-95.74964, 36.3148], [-95.75058, 36.31547], [-95.74905, 36.31577], [-95.74807, 36.31681], [-95.74805, 36.31793], [-95.74899, 36.31899]]], [[[-95.75401, 36.31217], [-95.75401, 36.31204], [-95.75428, 36.31204], [-95.75408, 36.31213], [-95.75401, 36.31217]]], [[[-95.73468, 36.31449], [-95.73516, 36.31542], [-95.73437, 36.3157], [-95.73278, 36.31342], [-95.73377, 36.31246], [-95.73478, 36.3125], [-95.73468, 36.31449]]], [[[-95.77059, 36.31869], [-95.76988, 36.31989], [-95.76522, 36.31988], [-95.76522, 36.31841], [-95.77096, 36.31845], [-95.77059, 36.31869]]], [[[-95.75602, 36.24437], [-95.75604, 36.24436], [-95.75604, 36.24439], [-95.75602, 36.24437]]], [[[-95.73314, 36.32678], [-95.73378, 36.32653], [-95.7339, 36.32733], [-95.73221, 36.32731], [-95.7325, 36.32686], [-95.73314, 36.32678]]], [[[-95.67634, 36.16818], [-95.67508, 36.16818], [-95.67508, 36.16695], [-95.67663, 36.16695], [-95.67816, 36.16743], [-95.67816, 36.16909], [-95.67634, 36.16818]]], [[[-95.68272, 36.15946], [-95.67995, 36.15936], [-95.67761, 36.16042], [-95.67509, 36.16042], [-95.67504, 36.14611], [-95.67702, 36.14572], [-95.67742, 36.14857], [-95.67848, 36.14929], [-95.67986, 36.1494], [-95.68091, 36.14901], [-95.6816, 36.14826], [-95.68178, 36.14527], [-95.68278, 36.14435], [-95.68814, 36.14438], [-95.68821, 36.15328], [-95.68714, 36.15238], [-95.68557, 36.15213], [-95.6845, 36.15249], [-95.68376, 36.15322], [-95.68243, 36.15299], [-95.68131, 36.15325], [-95.68021, 36.15442], [-95.68035, 36.15572], [-95.68158, 36.1568], [-95.68507, 36.15707], [-95.68506, 36.15843], [-95.68369, 36.15866], [-95.68272, 36.15946]]], [[[-95.67019, 36.13551], [-95.67026, 36.14449], [-95.6651, 36.14454], [-95.66506, 36.14115], [-95.66445, 36.14007], [-95.66303, 36.13946], [-95.65942, 36.13946], [-95.66548, 36.13697], [-95.67019, 36.13551]]], [[[-95.63928, 36.15146], [-95.6459, 36.15134], [-95.64607, 36.15941], [-95.64529, 36.16044], [-95.64079, 36.1605], [-95.63931, 36.15967], [-95.63928, 36.15146]]], [[[-95.65492, 36.155], [-95.65481, 36.15292], [-95.6573, 36.15266], [-95.65995, 36.15383], [-95.66004, 36.1541], [-95.65895, 36.15369], [-95.6572, 36.15371], [-95.65492, 36.155]]], [[[-95.65479, 36.14909], [-95.65479, 36.14892], [-95.65495, 36.14893], [-95.65483, 36.14904], [-95.65479, 36.14909]]], [[[-95.65246, 36.14301], [-95.65178, 36.14284], [-95.65245, 36.14258], [-95.65246, 36.14301]]], [[[-95.70151, 36.25204], [-95.70143, 36.25204], [-95.70156, 36.25202], [-95.70151, 36.25204]]], [[[-95.70627, 36.24227], [-95.70627, 36.24279], [-95.70489, 36.24474], [-95.70401, 36.24419], [-95.70536, 36.2434], [-95.70575, 36.24224], [-95.70627, 36.24227]]], [[[-95.71999, 36.2544], [-95.72004, 36.25395], [-95.72018, 36.2539], [-95.72018, 36.25403], [-95.72006, 36.25427], [-95.71992, 36.25466], [-95.71987, 36.25475], [-95.71999, 36.2544]]], [[[-95.71207, 36.25477], [-95.71156, 36.25477], [-95.71033, 36.2531], [-95.71135, 36.25195], [-95.71205, 36.253], [-95.71207, 36.25477]]], [[[-95.67498, 36.13954], [-95.67495, 36.13524], [-95.67601, 36.13524], [-95.67601, 36.13958], [-95.67498, 36.13954]]], [[[-95.68804, 36.13135], [-95.68804, 36.13142], [-95.68525, 36.13141], [-95.68804, 36.13078], [-95.68804, 36.13135]]], [[[-95.68815, 36.14019], [-95.68815, 36.14052], [-95.68702, 36.14051], [-95.68725, 36.13828], [-95.68805, 36.13801], [-95.68815, 36.14019]]], [[[-95.67312, 36.30938], [-95.67349, 36.31008], [-95.67268, 36.31111], [-95.67109, 36.31039], [-95.67109, 36.30935], [-95.67312, 36.30938]]], [[[-95.68315, 36.30508], [-95.68267, 36.30491], [-95.68213, 36.30467], [-95.68338, 36.30476], [-95.6842, 36.30535], [-95.68315, 36.30508]]], [[[-95.67876, 36.29485], [-95.68424, 36.29488], [-95.68424, 36.29612], [-95.68236, 36.29541], [-95.67872, 36.29548], [-95.67736, 36.29598], [-95.67702, 36.29484], [-95.67876, 36.29485]]], [[[-95.70678, 36.32116], [-95.70782, 36.32016], [-95.7097, 36.31665], [-95.70975, 36.31489], [-95.70867, 36.31325], [-95.70964, 36.31124], [-95.71131, 36.31196], [-95.71285, 36.31194], [-95.71404, 36.31474], [-95.71371, 36.31566], [-95.71394, 36.31816], [-95.71531, 36.31944], [-95.71533, 36.32003], [-95.70886, 36.32023], [-95.70766, 36.3212], [-95.70758, 36.32275], [-95.70688, 36.32245], [-95.70678, 36.32116]]], [[[-95.71068, 36.32643], [-95.71035, 36.32644], [-95.71002, 36.3251], [-95.70914, 36.32399], [-95.71232, 36.32389], [-95.71117, 36.32486], [-95.71068, 36.32643]]], [[[-95.72111, 36.31912], [-95.72059, 36.31949], [-95.72011, 36.32004], [-95.72004, 36.31832], [-95.72111, 36.31912]]], [[[-95.63455, 36.16136], [-95.63457, 36.16253], [-95.6319, 36.16253], [-95.63355, 36.16113], [-95.63455, 36.16105], [-95.63455, 36.16136]]], [[[-95.64928, 36.25979], [-95.64956, 36.26161], [-95.64524, 36.26283], [-95.64442, 36.26379], [-95.64311, 36.26448], [-95.64241, 36.26609], [-95.64096, 36.26581], [-95.64924, 36.2578], [-95.64928, 36.25979]]], [[[-95.67261, 36.30551], [-95.67108, 36.30548], [-95.67107, 36.30338], [-95.67485, 36.30362], [-95.67624, 36.30549], [-95.67261, 36.30551]]], [[[-95.67926, 36.31927], [-95.67973, 36.31927], [-95.67973, 36.31996], [-95.67893, 36.31995], [-95.67879, 36.3193], [-95.67926, 36.31927]]], [[[-95.6297, 36.262], [-95.62996, 36.26104], [-95.63044, 36.25987], [-95.63044, 36.262], [-95.6297, 36.262]]], [[[-95.64328, 36.25469], [-95.64337, 36.25338], [-95.64253, 36.25134], [-95.64951, 36.25135], [-95.64567, 36.25507], [-95.64316, 36.25506], [-95.64328, 36.25469]]], [[[-95.71759, 36.30302], [-95.71729, 36.30416], [-95.71381, 36.3044], [-95.71391, 36.30394], [-95.71595, 36.30369], [-95.71796, 36.30259], [-95.71759, 36.30302]]], [[[-95.72763, 36.2993], [-95.72595, 36.2999], [-95.72435, 36.29971], [-95.72457, 36.29907], [-95.72736, 36.2978], [-95.72722, 36.29891], [-95.72763, 36.2993]]], [[[-95.69931, 36.31885], [-95.69778, 36.3191], [-95.69783, 36.31837], [-95.69869, 36.31837], [-95.6995, 36.31747], [-95.69931, 36.31885]]], [[[-95.64372, 36.14787], [-95.64316, 36.1484], [-95.64319, 36.14913], [-95.64193, 36.14992], [-95.64016, 36.14939], [-95.64384, 36.14694], [-95.64372, 36.14787]]]]}, "properties": {"kind": "windland", "area_km2": 80.9}}, {"type": "Feature", "geometry": {"type": "MultiPolygon", "coordinates": [[[[-95.73931, 36.22499], [-95.73783, 36.22456], [-95.74089, 36.22449], [-95.74091, 36.22517], [-95.73931, 36.22499]]], [[[-95.73566, 36.22566], [-95.73548, 36.22522], [-95.735, 36.22501], [-95.73618, 36.22488], [-95.73637, 36.22564], [-95.73566, 36.22566]]], [[[-95.7318, 36.22576], [-95.73324, 36.22502], [-95.73408, 36.22496], [-95.73369, 36.22566], [-95.73314, 36.22558], [-95.73267, 36.22584], [-95.73158, 36.22599], [-95.7318, 36.22576]]], [[[-95.73687, 36.22492], [-95.73758, 36.22506], [-95.73903, 36.22549], [-95.7371, 36.22588], [-95.73687, 36.22492]]], [[[-95.7352, 36.22701], [-95.73523, 36.22711], [-95.73512, 36.22702], [-95.7352, 36.22701]]], [[[-95.73405, 36.2269], [-95.73434, 36.22715], [-95.73442, 36.22747], [-95.73401, 36.22754], [-95.73405, 36.2269]]], [[[-95.73333, 36.22752], [-95.73335, 36.22764], [-95.73169, 36.2279], [-95.7316, 36.22752], [-95.73332, 36.22728], [-95.73333, 36.22752]]], [[[-95.73587, 36.22762], [-95.73681, 36.22749], [-95.73697, 36.22818], [-95.73631, 36.22795], [-95.73587, 36.22762]]], [[[-95.73503, 36.23009], [-95.73561, 36.23248], [-95.73523, 36.23256], [-95.73414, 36.22807], [-95.73455, 36.22801], [-95.73503, 36.23009]]], [[[-95.74016, 36.23109], [-95.73874, 36.2318], [-95.73827, 36.23083], [-95.73807, 36.22996], [-95.73895, 36.23], [-95.73952, 36.22983], [-95.7396, 36.22886], [-95.74104, 36.22894], [-95.74111, 36.23082], [-95.74016, 36.23109]]], [[[-95.73393, 36.23049], [-95.7345, 36.23277], [-95.73323, 36.23315], [-95.73317, 36.23303], [-95.73399, 36.23278], [-95.73413, 36.23232], [-95.73375, 36.23123], [-95.73334, 36.23107], [-95.73268, 36.23114], [-95.73206, 36.2284], [-95.73253, 36.22832], [-95.73308, 36.23062], [-95.73393, 36.23049]]], [[[-95.73794, 36.23171], [-95.73808, 36.23195], [-95.73744, 36.23209], [-95.73709, 36.23095], [-95.73663, 36.23074], [-95.73589, 36.23084], [-95.73582, 36.23057], [-95.73758, 36.2308], [-95.73794, 36.23171]]], [[[-95.73965, 36.2322], [-95.74113, 36.2315], [-95.74124, 36.23461], [-95.73922, 36.23236], [-95.73965, 36.2322]]], [[[-95.74065, 36.23487], [-95.74127, 36.23554], [-95.74133, 36.23729], [-95.73988, 36.23575], [-95.73873, 36.2353], [-95.73656, 36.23296], [-95.73856, 36.23255], [-95.74065, 36.23487]]], [[[-95.7378, 36.23521], [-95.73734, 36.23493], [-95.73568, 36.23314], [-95.73586, 36.23311], [-95.7378, 36.23521]]], [[[-95.7353, 36.23363], [-95.73696, 36.23539], [-95.73753, 36.2357], [-95.73845, 36.2359], [-95.73958, 36.2371], [-95.73763, 36.23827], [-95.73356, 36.23362], [-95.73495, 36.23325], [-95.7353, 36.23363]]], [[[-95.73577, 36.23744], [-95.73299, 36.23442], [-95.73203, 36.23271], [-95.73168, 36.23122], [-95.73273, 36.2338], [-95.73577, 36.23744]]], [[[-95.7323, 36.23728], [-95.73242, 36.2369], [-95.73216, 36.23634], [-95.73331, 36.2376], [-95.73279, 36.23752], [-95.73233, 36.23769], [-95.73211, 36.23745], [-95.7323, 36.23728]]], [[[-95.73884, 36.23955], [-95.73881, 36.23929], [-95.73815, 36.23863], [-95.73998, 36.23754], [-95.7414, 36.23908], [-95.74152, 36.2425], [-95.73875, 36.23964], [-95.73884, 36.23955]]], [[[-95.73637, 36.24089], [-95.73639, 36.2413], [-95.73642, 36.24153], [-95.73616, 36.24066], [-95.73637, 36.24089]]], [[[-95.73329, 36.24158], [-95.73362, 36.2415], [-95.73458, 36.2419], [-95.73583, 36.2421], [-95.73631, 36.24262], [-95.73383, 36.24267], [-95.73275, 36.24182], [-95.73329, 36.24158]]], [[[-95.73987, 36.24227], [-95.74005, 36.24237], [-95.7396, 36.24254], [-95.7398, 36.24238], [-95.73987, 36.24227]]], [[[-95.72953, 36.21781], [-95.72937, 36.21693], [-95.72898, 36.21575], [-95.72946, 36.21574], [-95.72953, 36.21781]]], [[[-95.72713, 36.22063], [-95.724, 36.21743], [-95.72231, 36.21593], [-95.72811, 36.21577], [-95.72872, 36.21873], [-95.72864, 36.22003], [-95.72835, 36.22108], [-95.72713, 36.22063]], [[-95.7258, 36.21631], [-95.72597, 36.2165], [-95.72587, 36.21603], [-95.72561, 36.21614], [-95.7258, 36.21631]]], [[[-95.72958, 36.21934], [-95.72965, 36.22123], [-95.72933, 36.22121], [-95.72958, 36.21934]]], [[[-95.72878, 36.22256], [-95.72807, 36.22193], [-95.72968, 36.22203], [-95.72958, 36.22331], [-95.72878, 36.22256]]], [[[-95.73158, 36.22509], [-95.73085, 36.22576], [-95.73063, 36.22675], [-95.73037, 36.22596], [-95.73084, 36.22557], [-95.73096, 36.22519], [-95.73226, 36.22475], [-95.73158, 36.22509]]], [[[-95.72812, 36.22669], [-95.728, 36.22673], [-95.72799, 36.22516], [-95.72826, 36.22552], [-95.72851, 36.22667], [-95.72812, 36.22669]]], [[[-95.71883, 36.22576], [-95.7196, 36.22609], [-95.72072, 36.22597], [-95.7211, 36.22572], [-95.72144, 36.22374], [-95.72064, 36.22219], [-95.72218, 36.22086], [-95.72226, 36.22054], [-95.72205, 36.22035], [-95.72162, 36.22036], [-95.72019, 36.22148], [-95.71925, 36.22051], [-95.71804, 36.21986], [-95.71709, 36.21908], [-95.71751, 36.21883], [-95.7179, 36.21892], [-95.71833, 36.2188], [-95.71856, 36.21819], [-95.72079, 36.21685], [-95.7241, 36.22036], [-95.72662, 36.22477], [-95.72659, 36.22697], [-95.72628, 36.22791], [-95.72415, 36.23172], [-95.7237, 36.23159], [-95.72306, 36.23175], [-95.72166, 36.23155], [-95.71459, 36.23155], [-95.71436, 36.23077], [-95.71584, 36.23072], [-95.71611, 36.23048], [-95.71555, 36.22846], [-95.72141, 36.22869], [-95.72421, 36.22976], [-95.72481, 36.22946], [-95.72489, 36.22919], [-95.72245, 36.22806], [-95.72139, 36.22781], [-95.71206, 36.22769], [-95.71046, 36.22621], [-95.7106, 36.22566], [-95.71138, 36.22472], [-95.71153, 36.22426], [-95.71121, 36.22266], [-95.71505, 36.22032], [-95.71673, 36.22315], [-95.71766, 36.2241], [-95.71883, 36.22576]], [[-95.71326, 36.22575], [-95.71336, 36.22604], [-95.71472, 36.22606], [-95.7137, 36.2248], [-95.71326, 36.22575]]], [[[-95.72416, 36.23374], [-95.72551, 36.23186], [-95.72784, 36.22767], [-95.72827, 36.22781], [-95.72877, 36.22771], [-95.72943, 36.22942], [-95.7296, 36.23047], [-95.72946, 36.23114], [-95.72986, 36.23265], [-95.72922, 36.2321], [-95.72851, 36.23187], [-95.72772, 36.23188], [-95.72685, 36.23222], [-95.72619, 36.23303], [-95.72579, 36.23319], [-95.72594, 36.23353], [-95.72526, 36.23498], [-95.72525, 36.23568], [-95.72569, 36.2364], [-95.72972, 36.24057], [-95.73291, 36.2427], [-95.73133, 36.24273], [-95.73065, 36.24219], [-95.72907, 36.24143], [-95.72763, 36.24107], [-95.72609, 36.24147], [-95.72515, 36.24215], [-95.7233, 36.24485], [-95.72237, 36.24514], [-95.72154, 36.2451], [-95.72066, 36.24447], [-95.72005, 36.24226], [-95.72053, 36.24049], [-95.72416, 36.23374]], [[-95.72306, 36.2414], [-95.72473, 36.24], [-95.72598, 36.23956], [-95.72452, 36.23791], [-95.72269, 36.24109], [-95.72243, 36.24244], [-95.72306, 36.2414]]], [[[-95.72769, 36.23254], [-95.72836, 36.23249], [-95.72896, 36.23275], [-95.72957, 36.2338], [-95.72911, 36.2336], [-95.72857, 36.23368], [-95.72799, 36.23408], [-95.72787, 36.23456], [-95.72682, 36.23344], [-95.72722, 36.2328], [-95.72769, 36.23254]]], [[[-95.7229, 36.23327], [-95.72345, 36.23273], [-95.72313, 36.23325], [-95.7234, 36.23354], [-95.72253, 36.23559], [-95.71989, 36.24034], [-95.71938, 36.24226], [-95.71977, 36.24371], [-95.71909, 36.24275], [-95.71913, 36.24007], [-95.71847, 36.23995], [-95.71806, 36.23943], [-95.71944, 36.23848], [-95.71931, 36.23811], [-95.71542, 36.23718], [-95.71424, 36.23536], [-95.7121, 36.23527], [-95.71111, 36.23595], [-95.71152, 36.23642], [-95.71242, 36.23634], [-95.71289, 36.23654], [-95.71293, 36.23694], [-95.71223, 36.23688], [-95.71104, 36.23807], [-95.71104, 36.23996], [-95.71226, 36.23934], [-95.71178, 36.23998], [-95.71115, 36.24033], [-95.71079, 36.24026], [-95.71034, 36.23986], [-95.71017, 36.23855], [-95.70899, 36.23855], [-95.70902, 36.23523], [-95.71572, 36.23523], [-95.71573, 36.23564], [-95.71615, 36.23564], [-95.71615, 36.23577], [-95.71901, 36.23574], [-95.71916, 36.23632], [-95.72084, 36.23705], [-95.72215, 36.23503], [-95.7229, 36.23327]]], [[[-95.72981, 36.23441], [-95.72979, 36.23441], [-95.7298, 36.23436], [-95.72981, 36.23441]]], [[[-95.73042, 36.23545], [-95.73062, 36.23449], [-95.7316, 36.23573], [-95.7306, 36.23576], [-95.73006, 36.23627], [-95.73042, 36.23545]]], [[[-95.72835, 36.23506], [-95.72882, 36.23512], [-95.72899, 36.23552], [-95.72936, 36.23575], [-95.72929, 36.23608], [-95.72835, 36.23506]]], [[[-95.72993, 36.23971], [-95.72896, 36.23903], [-95.72624, 36.23609], [-95.72599, 36.23522], [-95.72653, 36.23402], [-95.73143, 36.23931], [-95.72993, 36.23971]]], [[[-95.7304, 36.24275], [-95.7305, 36.24575], [-95.72983, 36.24487], [-95.72884, 36.24409], [-95.72768, 36.24355], [-95.72727, 36.24402], [-95.72662, 36.24399], [-95.72652, 36.24585], [-95.72523, 36.24585], [-95.72405, 36.24507], [-95.7238, 36.24521], [-95.72567, 36.2425], [-95.72643, 36.24195], [-95.72769, 36.24162], [-95.72876, 36.24191], [-95.7304, 36.24275]]], [[[-95.7288, 36.2452], [-95.72907, 36.24593], [-95.72908, 36.24756], [-95.73057, 36.24759], [-95.73062, 36.24925], [-95.72645, 36.24915], [-95.7265, 36.24891], [-95.72877, 36.24888], [-95.7288, 36.2452]]], [[[-95.72293, 36.24992], [-95.72295, 36.24952], [-95.73064, 36.24979], [-95.73071, 36.25176], [-95.72601, 36.25187], [-95.72621, 36.25135], [-95.72497, 36.2513], [-95.72593, 36.25187], [-95.72291, 36.25194], [-95.72293, 36.24992]]], [[[-95.71447, 36.21878], [-95.71389, 36.21748], [-95.71311, 36.2172], [-95.71241, 36.21732], [-95.71217, 36.21764], [-95.71221, 36.21829], [-95.71286, 36.21863], [-95.71294, 36.21902], [-95.71344, 36.21941], [-95.71111, 36.22082], [-95.71037, 36.21995], [-95.70991, 36.21996], [-95.70899, 36.21955], [-95.70897, 36.2162], [-95.71179, 36.21614], [-95.71212, 36.21641], [-95.71264, 36.21645], [-95.71329, 36.2161], [-95.7147, 36.21649], [-95.71501, 36.21643], [-95.71537, 36.21606], [-95.71908, 36.21597], [-95.71447, 36.21878]]], [[[-95.7184, 36.21761], [-95.71747, 36.21792], [-95.71721, 36.21834], [-95.71518, 36.21956], [-95.71503, 36.2194], [-95.72014, 36.21618], [-95.72038, 36.21643], [-95.7184, 36.21761]]], [[[-95.71127, 36.22181], [-95.71129, 36.2217], [-95.7145, 36.21973], [-95.71465, 36.21989], [-95.71115, 36.22202], [-95.71127, 36.22181]]], [[[-95.71382, 36.22843], [-95.71422, 36.22945], [-95.71417, 36.22978], [-95.71358, 36.22916], [-95.71312, 36.22907], [-95.71253, 36.2283], [-95.71394, 36.22833], [-95.71382, 36.22843]]], [[[-95.71367, 36.23084], [-95.71397, 36.23182], [-95.71301, 36.23159], [-95.71235, 36.23098], [-95.71367, 36.23084]]], [[[-95.71413, 36.23236], [-95.71413, 36.23237], [-95.71411, 36.2324], [-95.7141, 36.23236], [-95.71413, 36.23236]]], [[[-95.71449, 36.23425], [-95.71462, 36.23469], [-95.70787, 36.2347], [-95.70785, 36.23425], [-95.70461, 36.23433], [-95.7046, 36.23372], [-95.70394, 36.23328], [-95.70458, 36.23281], [-95.70472, 36.232], [-95.70424, 36.23166], [-95.7035, 36.23178], [-95.70351, 36.23125], [-95.70292, 36.23112], [-95.70266, 36.23067], [-95.70341, 36.23027], [-95.7039, 36.22961], [-95.70467, 36.23066], [-95.70592, 36.2311], [-95.70672, 36.23106], [-95.70984, 36.23032], [-95.71071, 36.23039], [-95.71137, 36.23074], [-95.71173, 36.2312], [-95.7124, 36.23288], [-95.71249, 36.23381], [-95.71296, 36.23385], [-95.71307, 36.23309], [-95.71369, 36.23301], [-95.71402, 36.23278], [-95.71424, 36.23325], [-95.71411, 36.2339], [-95.71449, 36.23425]], [[-95.70569, 36.23304], [-95.7051, 36.23304], [-95.70472, 36.23332], [-95.70467, 36.23386], [-95.70505, 36.23422], [-95.7057, 36.23424], [-95.70608, 36.23396], [-95.70611, 36.23337], [-95.70569, 36.23304]]], [[[-95.71811, 36.24179], [-95.7179, 36.24202], [-95.71659, 36.24211], [-95.71655, 36.24199], [-95.71702, 36.24131], [-95.71757, 36.24105], [-95.71816, 36.24105], [-95.71834, 36.24134], [-95.71811, 36.24179]]], [[[-95.71261, 36.24569], [-95.71202, 36.2456], [-95.7124, 36.24521], [-95.71222, 36.24477], [-95.71278, 36.24455], [-95.71314, 36.24509], [-95.71313, 36.24585], [-95.71261, 36.24569]]], [[[-95.72119, 36.24557], [-95.72247, 36.24568], [-95.72354, 36.24535], [-95.72296, 36.24567], [-95.72165, 36.24588], [-95.72049, 36.24527], [-95.72026, 36.24491], [-95.72119, 36.24557]]], [[[-95.71703, 36.24867], [-95.71576, 36.24867], [-95.71576, 36.24825], [-95.71711, 36.24836], [-95.71847, 36.2482], [-95.71848, 36.24835], [-95.72231, 36.2487], [-95.72228, 36.24893], [-95.71703, 36.24867]]], [[[-95.7171, 36.2519], [-95.71717, 36.25161], [-95.71656, 36.25077], [-95.71466, 36.25086], [-95.71462, 36.25014], [-95.71803, 36.25013], [-95.71802, 36.2497], [-95.71836, 36.24924], [-95.72228, 36.24948], [-95.72225, 36.25195], [-95.7196, 36.25201], [-95.71963, 36.25162], [-95.71899, 36.25127], [-95.71858, 36.25145], [-95.71846, 36.25204], [-95.71693, 36.25207], [-95.7171, 36.2519]]], [[[-95.70791, 36.21911], [-95.70732, 36.21885], [-95.70723, 36.21624], [-95.70831, 36.21622], [-95.70832, 36.21929], [-95.70791, 36.21911]]], [[[-95.70735, 36.21954], [-95.70734, 36.21951], [-95.70736, 36.21951], [-95.70735, 36.21954]]], [[[-95.70756, 36.22008], [-95.70802, 36.22017], [-95.70832, 36.22003], [-95.70831, 36.22027], [-95.70737, 36.22026], [-95.70736, 36.21995], [-95.70756, 36.22008]]], [[[-95.70969, 36.22047], [-95.71025, 36.22065], [-95.71047, 36.22121], [-95.70895, 36.22213], [-95.70898, 36.22017], [-95.70969, 36.22047]]], [[[-95.70754, 36.22095], [-95.70754, 36.22081], [-95.7083, 36.22081], [-95.70829, 36.22254], [-95.70747, 36.22304], [-95.70754, 36.22095]]], [[[-95.7105, 36.22242], [-95.71028, 36.22255], [-95.7075, 36.22414], [-95.7075, 36.22401], [-95.71048, 36.22219], [-95.7105, 36.22242]]], [[[-95.71062, 36.22323], [-95.71085, 36.22421], [-95.71, 36.22543], [-95.70981, 36.22633], [-95.71015, 36.22684], [-95.7112, 36.22768], [-95.7023, 36.22779], [-95.7067, 36.22527], [-95.70754, 36.22525], [-95.70753, 36.22479], [-95.71054, 36.22307], [-95.71062, 36.22323]]], [[[-95.70539, 36.2253], [-95.7055, 36.22529], [-95.70374, 36.22631], [-95.70539, 36.2253]]], [[[-95.70124, 36.2268], [-95.70146, 36.22622], [-95.70088, 36.22563], [-95.70035, 36.22561], [-95.6995, 36.22606], [-95.69923, 36.22642], [-95.69936, 36.22712], [-95.69966, 36.22741], [-95.70018, 36.22747], [-95.69669, 36.2296], [-95.69643, 36.2255], [-95.70368, 36.22533], [-95.70109, 36.22691], [-95.70124, 36.2268]], [[-95.69761, 36.22816], [-95.69683, 36.22835], [-95.69679, 36.22873], [-95.69726, 36.22888], [-95.69781, 36.22878], [-95.69793, 36.22839], [-95.69761, 36.22816]]], [[[-95.71051, 36.22835], [-95.71032, 36.22821], [-95.71128, 36.22822], [-95.7109, 36.22873], [-95.71051, 36.22835]]], [[[-95.70952, 36.22843], [-95.7103, 36.22897], [-95.7109, 36.22987], [-95.70974, 36.22979], [-95.70618, 36.23057], [-95.7054, 36.23041], [-95.7049, 36.23007], [-95.70395, 36.22833], [-95.70818, 36.22819], [-95.70952, 36.22843]]], [[[-95.70141, 36.22839], [-95.70306, 36.22845], [-95.70353, 36.22877], [-95.7038, 36.22923], [-95.70327, 36.22896], [-95.70297, 36.22899], [-95.70227, 36.23], [-95.70248, 36.23058], [-95.70149, 36.23063], [-95.70124, 36.23094], [-95.70122, 36.2314], [-95.70083, 36.23105], [-95.70043, 36.23121], [-95.70046, 36.2325], [-95.70092, 36.23336], [-95.70035, 36.23346], [-95.7002, 36.23374], [-95.70046, 36.23395], [-95.70114, 36.23388], [-95.70115, 36.2344], [-95.69776, 36.23448], [-95.69776, 36.23204], [-95.69879, 36.23161], [-95.69882, 36.23134], [-95.6985, 36.23118], [-95.69712, 36.23175], [-95.69709, 36.2345], [-95.69674, 36.2345], [-95.69662, 36.23116], [-95.70141, 36.22839]]], [[[-95.70131, 36.23214], [-95.70159, 36.23251], [-95.70126, 36.23269], [-95.7011, 36.23194], [-95.70132, 36.23194], [-95.70131, 36.23214]]], [[[-95.70828, 36.23588], [-95.70833, 36.23855], [-95.708, 36.23855], [-95.70791, 36.23587], [-95.70828, 36.23588]]], [[[-95.71064, 36.24164], [-95.71062, 36.24254], [-95.71096, 36.24266], [-95.71098, 36.24175], [-95.71214, 36.24183], [-95.71302, 36.24168], [-95.71302, 36.24247], [-95.71244, 36.2431], [-95.7119, 36.24315], [-95.7122, 36.24344], [-95.7122, 36.24382], [-95.71186, 36.24401], [-95.71164, 36.24458], [-95.711, 36.24441], [-95.71068, 36.24458], [-95.7105, 36.24554], [-95.71105, 36.24584], [-95.71075, 36.24615], [-95.71073, 36.2466], [-95.709, 36.24659], [-95.709, 36.24603], [-95.70972, 36.24595], [-95.71002, 36.24541], [-95.70972, 36.2449], [-95.709, 36.24486], [-95.70899, 36.2414], [-95.70995, 36.24251], [-95.71008, 36.24137], [-95.71064, 36.24164]]], [[[-95.70833, 36.24687], [-95.7083, 36.24705], [-95.70813, 36.2422], [-95.70832, 36.2422], [-95.70833, 36.24687]]], [[[-95.71236, 36.24861], [-95.71259, 36.24882], [-95.70903, 36.2492], [-95.709, 36.24713], [-95.7114, 36.24714], [-95.71141, 36.24864], [-95.71236, 36.24861]]], [[[-95.70835, 36.2486], [-95.70836, 36.24885], [-95.70835, 36.24861], [-95.70835, 36.2486]]], [[[-95.70872, 36.25122], [-95.7088, 36.25166], [-95.70927, 36.25167], [-95.70945, 36.2497], [-95.71176, 36.24945], [-95.71191, 36.25], [-95.71335, 36.25029], [-95.71335, 36.25158], [-95.7137, 36.2519], [-95.71369, 36.25215], [-95.71144, 36.2522], [-95.71135, 36.25195], [-95.71125, 36.2522], [-95.70848, 36.25226], [-95.70839, 36.24981], [-95.70878, 36.24977], [-95.70872, 36.25122]]]]}, "properties": {"kind": "pv", "area_km2": 5.12, "mw": 255.9}}, {"type": "Feature", "geometry": {"type": "Point", "coordinates": [-95.72922, 36.24711]}, "properties": {"kind": "turbine", "i": 0, "mw": 6.0, "hub_m": 120.0, "rotor_m": 150.0}}, {"type": "Feature", "geometry": {"type": "Point", "coordinates": [-95.70475, 36.24438]}, "properties": {"kind": "turbine", "i": 1, "mw": 6.0, "hub_m": 120.0, "rotor_m": 150.0}}, {"type": "Feature", "geometry": {"type": "Point", "coordinates": [-95.69978, 36.21816]}, "properties": {"kind": "turbine", "i": 2, "mw": 6.0, "hub_m": 120.0, "rotor_m": 150.0}}, {"type": "Feature", "geometry": {"type": "Point", "coordinates": [-95.71173, 36.21131]}, "properties": {"kind": "turbine", "i": 3, "mw": 6.0, "hub_m": 120.0, "rotor_m": 150.0}}, {"type": "Feature", "geometry": {"type": "Point", "coordinates": [-95.73596, 36.20747]}, "properties": {"kind": "turbine", "i": 4, "mw": 6.0, "hub_m": 120.0, "rotor_m": 150.0}}, {"type": "Feature", "geometry": {"type": "Point", "coordinates": [-95.71545, 36.20135]}, "properties": {"kind": "turbine", "i": 5, "mw": 6.0, "hub_m": 120.0, "rotor_m": 150.0}}, {"type": "Feature", "geometry": {"type": "Point", "coordinates": [-95.73791, 36.26337]}, "properties": {"kind": "turbine", "i": 6, "mw": 6.0, "hub_m": 120.0, "rotor_m": 150.0}}, {"type": "Feature", "geometry": {"type": "Point", "coordinates": [-95.72585, 36.26693]}, "properties": {"kind": "turbine", "i": 7, "mw": 6.0, "hub_m": 120.0, "rotor_m": 150.0}}, {"type": "Feature", "geometry": {"type": "Point", "coordinates": [-95.70137, 36.2642]}, "properties": {"kind": "turbine", "i": 8, "mw": 6.0, "hub_m": 120.0, "rotor_m": 150.0}}, {"type": "Feature", "geometry": {"type": "Point", "coordinates": [-95.69133, 36.20848]}, "properties": {"kind": "turbine", "i": 9, "mw": 6.0, "hub_m": 120.0, "rotor_m": 150.0}}, {"type": "Feature", "geometry": {"type": "Point", "coordinates": [-95.75231, 36.21038]}, "properties": {"kind": "turbine", "i": 10, "mw": 6.0, "hub_m": 120.0, "rotor_m": 150.0}}, {"type": "Feature", "geometry": {"type": "Point", "coordinates": [-95.71378, 36.2705]}, "properties": {"kind": "turbine", "i": 11, "mw": 6.0, "hub_m": 120.0, "rotor_m": 150.0}}, {"type": "Feature", "geometry": {"type": "Point", "coordinates": [-95.68501, 36.26128]}, "properties": {"kind": "turbine", "i": 12, "mw": 6.0, "hub_m": 120.0, "rotor_m": 150.0}}, {"type": "Feature", "geometry": {"type": "Point", "coordinates": [-95.67927, 36.21204]}, "properties": {"kind": "turbine", "i": 13, "mw": 6.0, "hub_m": 120.0, "rotor_m": 150.0}}, {"type": "Feature", "geometry": {"type": "Point", "coordinates": [-95.69505, 36.19852]}, "properties": {"kind": "turbine", "i": 14, "mw": 6.0, "hub_m": 120.0, "rotor_m": 150.0}}, {"type": "Feature", "geometry": {"type": "Point", "coordinates": [-95.75427, 36.26628]}, "properties": {"kind": "turbine", "i": 15, "mw": 6.0, "hub_m": 120.0, "rotor_m": 150.0}}, {"type": "Feature", "geometry": {"type": "Point", "coordinates": [-95.70699, 36.19167]}, "properties": {"kind": "turbine", "i": 16, "mw": 6.0, "hub_m": 120.0, "rotor_m": 150.0}}, {"type": "Feature", "geometry": {"type": "Point", "coordinates": [-95.68941, 36.27105]}, "properties": {"kind": "turbine", "i": 17, "mw": 6.0, "hub_m": 120.0, "rotor_m": 150.0}}, {"type": "Feature", "geometry": {"type": "Point", "coordinates": [-95.75602, 36.20043]}, "properties": {"kind": "turbine", "i": 18, "mw": 6.0, "hub_m": 120.0, "rotor_m": 150.0}}, {"type": "Feature", "geometry": {"type": "Point", "coordinates": [-95.70182, 36.27735]}, "properties": {"kind": "turbine", "i": 19, "mw": 6.0, "hub_m": 120.0, "rotor_m": 150.0}}, {"type": "Feature", "geometry": {"type": "Point", "coordinates": [-95.76622, 36.25943]}, "properties": {"kind": "turbine", "i": 20, "mw": 6.0, "hub_m": 120.0, "rotor_m": 150.0}}, {"type": "Feature", "geometry": {"type": "Point", "coordinates": [-95.76854, 36.21001]}, "properties": {"kind": "turbine", "i": 21, "mw": 6.0, "hub_m": 120.0, "rotor_m": 150.0}}, {"type": "Feature", "geometry": {"type": "Point", "coordinates": [-95.73443, 36.2799]}, "properties": {"kind": "turbine", "i": 22, "mw": 6.0, "hub_m": 120.0, "rotor_m": 150.0}}, {"type": "Feature", "geometry": {"type": "Point", "coordinates": [-95.7465, 36.27633]}, "properties": {"kind": "turbine", "i": 23, "mw": 6.0, "hub_m": 120.0, "rotor_m": 150.0}}, {"type": "Feature", "geometry": {"type": "Point", "coordinates": [-95.67882, 36.19889]}, "properties": {"kind": "turbine", "i": 24, "mw": 6.0, "hub_m": 120.0, "rotor_m": 150.0}}, {"type": "Feature", "geometry": {"type": "Point", "coordinates": [-95.67295, 36.26484]}, "properties": {"kind": "turbine", "i": 25, "mw": 6.0, "hub_m": 120.0, "rotor_m": 150.0}}, {"type": "Feature", "geometry": {"type": "Point", "coordinates": [-95.65931, 36.22236]}, "properties": {"kind": "turbine", "i": 26, "mw": 6.0, "hub_m": 120.0, "rotor_m": 150.0}}, {"type": "Feature", "geometry": {"type": "Point", "coordinates": [-95.71423, 36.28365]}, "properties": {"kind": "turbine", "i": 27, "mw": 6.0, "hub_m": 120.0, "rotor_m": 150.0}}, {"type": "Feature", "geometry": {"type": "Point", "coordinates": [-95.77817, 36.25257]}, "properties": {"kind": "turbine", "i": 28, "mw": 6.0, "hub_m": 120.0, "rotor_m": 150.0}}, {"type": "Feature", "geometry": {"type": "Point", "coordinates": [-95.78106, 36.21959]}, "properties": {"kind": "turbine", "i": 29, "mw": 6.0, "hub_m": 120.0, "rotor_m": 150.0}}, {"type": "Feature", "geometry": {"type": "Point", "coordinates": [-95.67734, 36.27461]}, "properties": {"kind": "turbine", "i": 30, "mw": 6.0, "hub_m": 120.0, "rotor_m": 150.0}}, {"type": "Feature", "geometry": {"type": "Point", "coordinates": [-95.66281, 36.20583]}, "properties": {"kind": "turbine", "i": 31, "mw": 6.0, "hub_m": 120.0, "rotor_m": 150.0}}, {"type": "Feature", "geometry": {"type": "Point", "coordinates": [-95.77225, 36.20005]}, "properties": {"kind": "turbine", "i": 32, "mw": 6.0, "hub_m": 120.0, "rotor_m": 150.0}}, {"type": "Feature", "geometry": {"type": "Point", "coordinates": [-95.68987, 36.2842]}, "properties": {"kind": "turbine", "i": 33, "mw": 6.0, "hub_m": 120.0, "rotor_m": 150.0}}, {"type": "Feature", "geometry": {"type": "Point", "coordinates": [-95.77074, 36.27248]}, "properties": {"kind": "turbine", "i": 34, "mw": 6.0, "hub_m": 120.0, "rotor_m": 150.0}}, {"type": "Feature", "geometry": {"type": "Point", "coordinates": [-95.66654, 36.19587]}, "properties": {"kind": "turbine", "i": 35, "mw": 6.0, "hub_m": 120.0, "rotor_m": 150.0}}, {"type": "Feature", "geometry": {"type": "Point", "coordinates": [-95.78964, 36.23255]}, "properties": {"kind": "turbine", "i": 36, "mw": 6.0, "hub_m": 120.0, "rotor_m": 150.0}}, {"type": "Feature", "geometry": {"type": "Point", "coordinates": [-95.75891, 36.28263]}, "properties": {"kind": "turbine", "i": 37, "mw": 6.0, "hub_m": 120.0, "rotor_m": 150.0}}, {"type": "Feature", "geometry": {"type": "Point", "coordinates": [-95.72676, 36.29324]}, "properties": {"kind": "turbine", "i": 38, "mw": 6.0, "hub_m": 120.0, "rotor_m": 150.0}}, {"type": "Feature", "geometry": {"type": "Point", "coordinates": [-95.74696, 36.28949]}, "properties": {"kind": "turbine", "i": 39, "mw": 6.0, "hub_m": 120.0, "rotor_m": 150.0}}, {"type": "Feature", "geometry": {"type": "Point", "coordinates": [-95.64814, 36.25223]}, "properties": {"kind": "turbine", "i": 40, "mw": 6.0, "hub_m": 120.0, "rotor_m": 150.0}}, {"type": "Feature", "geometry": {"type": "Point", "coordinates": [-95.65075, 36.20939]}, "properties": {"kind": "turbine", "i": 41, "mw": 6.0, "hub_m": 120.0, "rotor_m": 150.0}}, {"type": "Feature", "geometry": {"type": "Point", "coordinates": [-95.79046, 36.25557]}, "properties": {"kind": "turbine", "i": 42, "mw": 6.0, "hub_m": 120.0, "rotor_m": 150.0}}, {"type": "Feature", "geometry": {"type": "Point", "coordinates": [-95.67026, 36.18592]}, "properties": {"kind": "turbine", "i": 43, "mw": 6.0, "hub_m": 120.0, "rotor_m": 150.0}}, {"type": "Feature", "geometry": {"type": "Point", "coordinates": [-95.65693, 36.27178]}, "properties": {"kind": "turbine", "i": 44, "mw": 6.0, "hub_m": 120.0, "rotor_m": 150.0}}, {"type": "Feature", "geometry": {"type": "Point", "coordinates": [-95.78871, 36.20625]}, "properties": {"kind": "turbine", "i": 45, "mw": 6.0, "hub_m": 120.0, "rotor_m": 150.0}}, {"type": "Feature", "geometry": {"type": "Point", "coordinates": [-95.64297, 36.21943]}, "properties": {"kind": "turbine", "i": 46, "mw": 6.0, "hub_m": 120.0, "rotor_m": 150.0}}, {"type": "Feature", "geometry": {"type": "Point", "coordinates": [-95.79811, 36.24223]}, "properties": {"kind": "turbine", "i": 47, "mw": 6.0, "hub_m": 120.0, "rotor_m": 150.0}}, {"type": "Feature", "geometry": {"type": "Point", "coordinates": [-95.63924, 36.22939]}, "properties": {"kind": "turbine", "i": 48, "mw": 6.0, "hub_m": 120.0, "rotor_m": 150.0}}, {"type": "Feature", "geometry": {"type": "Point", "coordinates": [-95.72242, 36.16829]}, "properties": {"kind": "turbine", "i": 49, "mw": 6.0, "hub_m": 120.0, "rotor_m": 150.0}}, {"type": "Feature", "geometry": {"type": "Point", "coordinates": [-95.7062, 36.16865]}, "properties": {"kind": "turbine", "i": 50, "mw": 6.0, "hub_m": 120.0, "rotor_m": 150.0}}, {"type": "Feature", "geometry": {"type": "Point", "coordinates": [-95.69438, 36.29727]}, "properties": {"kind": "turbine", "i": 51, "mw": 6.0, "hub_m": 120.0, "rotor_m": 150.0}}, {"type": "Feature", "geometry": {"type": "Point", "coordinates": [-95.66132, 36.28155]}, "properties": {"kind": "turbine", "i": 52, "mw": 6.0, "hub_m": 120.0, "rotor_m": 150.0}}, {"type": "Feature", "geometry": {"type": "Point", "coordinates": [-95.77155, 36.18032]}, "properties": {"kind": "turbine", "i": 53, "mw": 6.0, "hub_m": 120.0, "rotor_m": 150.0}}, {"type": "Feature", "geometry": {"type": "Point", "coordinates": [-95.73523, 36.30292]}, "properties": {"kind": "turbine", "i": 54, "mw": 6.0, "hub_m": 120.0, "rotor_m": 150.0}}, {"type": "Feature", "geometry": {"type": "Point", "coordinates": [-95.68592, 36.16911]}, "properties": {"kind": "turbine", "i": 55, "mw": 6.0, "hub_m": 120.0, "rotor_m": 150.0}}, {"type": "Feature", "geometry": {"type": "Point", "coordinates": [-95.79242, 36.19629]}, "properties": {"kind": "turbine", "i": 56, "mw": 6.0, "hub_m": 120.0, "rotor_m": 150.0}}, {"type": "Feature", "geometry": {"type": "Point", "coordinates": [-95.6423, 36.1997]}, "properties": {"kind": "turbine", "i": 57, "mw": 6.0, "hub_m": 120.0, "rotor_m": 150.0}}, {"type": "Feature", "geometry": {"type": "Point", "coordinates": [-95.63618, 36.25907]}, "properties": {"kind": "turbine", "i": 58, "mw": 6.0, "hub_m": 120.0, "rotor_m": 150.0}}, {"type": "Feature", "geometry": {"type": "Point", "coordinates": [-95.80276, 36.25857]}, "properties": {"kind": "turbine", "i": 59, "mw": 6.0, "hub_m": 120.0, "rotor_m": 150.0}}, {"type": "Feature", "geometry": {"type": "Point", "coordinates": [-95.77945, 36.28874]}, "properties": {"kind": "turbine", "i": 60, "mw": 6.0, "hub_m": 120.0, "rotor_m": 150.0}}, {"type": "Feature", "geometry": {"type": "Point", "coordinates": [-95.81017, 36.23866]}, "properties": {"kind": "turbine", "i": 61, "mw": 6.0, "hub_m": 120.0, "rotor_m": 150.0}}, {"type": "Feature", "geometry": {"type": "Point", "coordinates": [-95.62718, 36.23294]}, "properties": {"kind": "turbine", "i": 62, "mw": 6.0, "hub_m": 120.0, "rotor_m": 150.0}}, {"type": "Feature", "geometry": {"type": "Point", "coordinates": [-95.71803, 36.15851]}, "properties": {"kind": "turbine", "i": 63, "mw": 6.0, "hub_m": 120.0, "rotor_m": 150.0}}, {"type": "Feature", "geometry": {"type": "Point", "coordinates": [-95.6697, 36.16947]}, "properties": {"kind": "turbine", "i": 64, "mw": 6.0, "hub_m": 120.0, "rotor_m": 150.0}}, {"type": "Feature", "geometry": {"type": "Point", "coordinates": [-95.80911, 36.20906]}, "properties": {"kind": "turbine", "i": 65, "mw": 6.0, "hub_m": 120.0, "rotor_m": 150.0}}, {"type": "Feature", "geometry": {"type": "Point", "coordinates": [-95.65764, 36.17303]}, "properties": {"kind": "turbine", "i": 66, "mw": 6.0, "hub_m": 120.0, "rotor_m": 150.0}}, {"type": "Feature", "geometry": {"type": "Point", "coordinates": [-95.67429, 36.3043]}, "properties": {"kind": "turbine", "i": 67, "mw": 6.0, "hub_m": 120.0, "rotor_m": 150.0}}, {"type": "Feature", "geometry": {"type": "Point", "coordinates": [-95.63792, 36.18992]}, "properties": {"kind": "turbine", "i": 68, "mw": 6.0, "hub_m": 120.0, "rotor_m": 150.0}}, {"type": "Feature", "geometry": {"type": "Point", "coordinates": [-95.62268, 36.21988]}, "properties": {"kind": "turbine", "i": 69, "mw": 6.0, "hub_m": 120.0, "rotor_m": 150.0}}, {"type": "Feature", "geometry": {"type": "Point", "coordinates": [-95.7112, 36.31334]}, "properties": {"kind": "turbine", "i": 70, "mw": 6.0, "hub_m": 120.0, "rotor_m": 150.0}}, {"type": "Feature", "geometry": {"type": "Point", "coordinates": [-95.70169, 36.15559]}, "properties": {"kind": "turbine", "i": 71, "mw": 6.0, "hub_m": 120.0, "rotor_m": 150.0}}, {"type": "Feature", "geometry": {"type": "Point", "coordinates": [-95.6263, 36.20664]}, "properties": {"kind": "turbine", "i": 72, "mw": 6.0, "hub_m": 120.0, "rotor_m": 150.0}}, {"type": "Feature", "geometry": {"type": "Point", "coordinates": [-95.80447, 36.19272]}, "properties": {"kind": "turbine", "i": 73, "mw": 6.0, "hub_m": 120.0, "rotor_m": 150.0}}, {"type": "Feature", "geometry": {"type": "Point", "coordinates": [-95.65364, 36.29489]}, "properties": {"kind": "turbine", "i": 74, "mw": 6.0, "hub_m": 120.0, "rotor_m": 150.0}}, {"type": "Feature", "geometry": {"type": "Point", "coordinates": [-95.61533, 36.24308]}, "properties": {"kind": "turbine", "i": 75, "mw": 6.0, "hub_m": 120.0, "rotor_m": 150.0}}, {"type": "Feature", "geometry": {"type": "Point", "coordinates": [-95.67736, 36.15614]}, "properties": {"kind": "turbine", "i": 76, "mw": 6.0, "hub_m": 120.0, "rotor_m": 150.0}}, {"type": "Feature", "geometry": {"type": "Point", "coordinates": [-95.74788, 36.31579]}, "properties": {"kind": "turbine", "i": 77, "mw": 6.0, "hub_m": 120.0, "rotor_m": 150.0}}, {"type": "Feature", "geometry": {"type": "Point", "coordinates": [-95.69506, 36.317]}, "properties": {"kind": "turbine", "i": 78, "mw": 6.0, "hub_m": 120.0, "rotor_m": 150.0}}, {"type": "Feature", "geometry": {"type": "Point", "coordinates": [-95.72174, 36.14856]}, "properties": {"kind": "turbine", "i": 79, "mw": 6.0, "hub_m": 120.0, "rotor_m": 150.0}}, {"type": "Feature", "geometry": {"type": "Point", "coordinates": [-95.62586, 36.19348]}, "properties": {"kind": "turbine", "i": 80, "mw": 6.0, "hub_m": 120.0, "rotor_m": 150.0}}, {"type": "Feature", "geometry": {"type": "Point", "coordinates": [-95.78398, 36.30179]}, "properties": {"kind": "turbine", "i": 81, "mw": 6.0, "hub_m": 120.0, "rotor_m": 150.0}}, {"type": "Feature", "geometry": {"type": "Point", "coordinates": [-95.78731, 36.16679]}, "properties": {"kind": "turbine", "i": 82, "mw": 6.0, "hub_m": 120.0, "rotor_m": 150.0}}, {"type": "Feature", "geometry": {"type": "Point", "coordinates": [-95.63748, 36.17677]}, "properties": {"kind": "turbine", "i": 83, "mw": 6.0, "hub_m": 120.0, "rotor_m": 150.0}}, {"type": "Feature", "geometry": {"type": "Point", "coordinates": [-95.61423, 36.21019]}, "properties": {"kind": "turbine", "i": 84, "mw": 6.0, "hub_m": 120.0, "rotor_m": 150.0}}, {"type": "Feature", "geometry": {"type": "Point", "coordinates": [-95.61061, 36.22343]}, "properties": {"kind": "turbine", "i": 85, "mw": 6.0, "hub_m": 120.0, "rotor_m": 150.0}}, {"type": "Feature", "geometry": {"type": "Point", "coordinates": [-95.70541, 36.14563]}, "properties": {"kind": "turbine", "i": 86, "mw": 6.0, "hub_m": 120.0, "rotor_m": 150.0}}, {"type": "Feature", "geometry": {"type": "Point", "coordinates": [-95.60688, 36.23339]}, "properties": {"kind": "turbine", "i": 87, "mw": 6.0, "hub_m": 120.0, "rotor_m": 150.0}}, {"type": "Feature", "geometry": {"type": "Point", "coordinates": [-95.81223, 36.18266]}, "properties": {"kind": "turbine", "i": 88, "mw": 6.0, "hub_m": 120.0, "rotor_m": 150.0}}, {"type": "Feature", "geometry": {"type": "Point", "coordinates": [-95.68514, 36.14609]}, "properties": {"kind": "turbine", "i": 89, "mw": 6.0, "hub_m": 120.0, "rotor_m": 150.0}}, {"type": "Feature", "geometry": {"type": "Point", "coordinates": [-95.6412, 36.16682]}, "properties": {"kind": "turbine", "i": 90, "mw": 6.0, "hub_m": 120.0, "rotor_m": 150.0}}, {"type": "Feature", "geometry": {"type": "Point", "coordinates": [-95.60753, 36.25312]}, "properties": {"kind": "turbine", "i": 91, "mw": 6.0, "hub_m": 120.0, "rotor_m": 150.0}}, {"type": "Feature", "geometry": {"type": "Point", "coordinates": [-95.66244, 36.31444]}, "properties": {"kind": "turbine", "i": 92, "mw": 6.0, "hub_m": 120.0, "rotor_m": 150.0}}, {"type": "Feature", "geometry": {"type": "Point", "coordinates": [-95.82499, 36.19882]}, "properties": {"kind": "turbine", "i": 93, "mw": 6.0, "hub_m": 120.0, "rotor_m": 150.0}}, {"type": "Feature", "geometry": {"type": "Point", "coordinates": [-95.62542, 36.18033]}, "properties": {"kind": "turbine", "i": 94, "mw": 6.0, "hub_m": 120.0, "rotor_m": 150.0}}, {"type": "Feature", "geometry": {"type": "Point", "coordinates": [-95.61379, 36.19704]}, "properties": {"kind": "turbine", "i": 95, "mw": 6.0, "hub_m": 120.0, "rotor_m": 150.0}}, {"type": "Feature", "geometry": {"type": "Point", "coordinates": [-95.76831, 36.31861]}, "properties": {"kind": "turbine", "i": 96, "mw": 6.0, "hub_m": 120.0, "rotor_m": 150.0}}, {"type": "Feature", "geometry": {"type": "Point", "coordinates": [-95.80365, 36.1697]}, "properties": {"kind": "turbine", "i": 97, "mw": 6.0, "hub_m": 120.0, "rotor_m": 150.0}}, {"type": "Feature", "geometry": {"type": "Point", "coordinates": [-95.65698, 36.1533]}, "properties": {"kind": "turbine", "i": 98, "mw": 6.0, "hub_m": 120.0, "rotor_m": 150.0}}, {"type": "Feature", "geometry": {"type": "Point", "coordinates": [-95.71735, 36.13878]}, "properties": {"kind": "turbine", "i": 99, "mw": 6.0, "hub_m": 120.0, "rotor_m": 150.0}}, {"type": "Feature", "geometry": {"type": "Point", "coordinates": [-95.78279, 36.15373]}, "properties": {"kind": "turbine", "i": 100, "mw": 6.0, "hub_m": 120.0, "rotor_m": 150.0}}, {"type": "Feature", "geometry": {"type": "Point", "coordinates": [-95.69133, 36.32695]}, "properties": {"kind": "turbine", "i": 101, "mw": 6.0, "hub_m": 120.0, "rotor_m": 150.0}}, {"type": "Feature", "geometry": {"type": "Point", "coordinates": [-95.71583, 36.32969]}, "properties": {"kind": "turbine", "i": 102, "mw": 6.0, "hub_m": 120.0, "rotor_m": 150.0}}, {"type": "Feature", "geometry": {"type": "Point", "coordinates": [-95.83823, 36.22812]}, "properties": {"kind": "turbine", "i": 103, "mw": 6.0, "hub_m": 120.0, "rotor_m": 150.0}}, {"type": "Feature", "geometry": {"type": "Point", "coordinates": [-95.76622, 36.14424]}, "properties": {"kind": "turbine", "i": 104, "mw": 6.0, "hub_m": 120.0, "rotor_m": 150.0}}, {"type": "Feature", "geometry": {"type": "Point", "coordinates": [-95.59909, 36.24343]}, "properties": {"kind": "turbine", "i": 105, "mw": 6.0, "hub_m": 120.0, "rotor_m": 150.0}}, {"type": "Feature", "geometry": {"type": "Point", "coordinates": [-95.6038, 36.26307]}, "properties": {"kind": "turbine", "i": 106, "mw": 6.0, "hub_m": 120.0, "rotor_m": 150.0}}, {"type": "Feature", "geometry": {"type": "Point", "coordinates": [-95.6083, 36.27614]}, "properties": {"kind": "turbine", "i": 107, "mw": 6.0, "hub_m": 120.0, "rotor_m": 150.0}}, {"type": "Feature", "geometry": {"type": "Point", "coordinates": [-95.72939, 36.13522]}, "properties": {"kind": "turbine", "i": 108, "mw": 6.0, "hub_m": 120.0, "rotor_m": 150.0}}, {"type": "Feature", "geometry": {"type": "Point", "coordinates": [-95.7322, 36.33261]}, "properties": {"kind": "turbine", "i": 109, "mw": 6.0, "hub_m": 120.0, "rotor_m": 150.0}}, {"type": "Feature", "geometry": {"type": "Point", "coordinates": [-95.69696, 36.13595]}, "properties": {"kind": "turbine", "i": 110, "mw": 6.0, "hub_m": 120.0, "rotor_m": 150.0}}, {"type": "Feature", "geometry": {"type": "Point", "coordinates": [-95.70375, 36.33325]}, "properties": {"kind": "turbine", "i": 111, "mw": 6.0, "hub_m": 120.0, "rotor_m": 150.0}}, {"type": "Feature", "geometry": {"type": "Point", "coordinates": [-95.62498, 36.16717]}, "properties": {"kind": "turbine", "i": 112, "mw": 6.0, "hub_m": 120.0, "rotor_m": 150.0}}]}