{"type": "FeatureCollection", "features": [{"type": "Feature", "geometry": {"type": "MultiPolygon", "coordinates": [[[[-95.77396, 36.27402], [-95.77105, 36.27418], [-95.7686, 36.27538], [-95.76664, 36.27536], [-95.76509, 36.27588], [-95.76379, 36.27482], [-95.76521, 36.27408], [-95.76739, 36.27372], [-95.76854, 36.27239], [-95.77396, 36.27266], [-95.77396, 36.27402]]], [[[-95.75712, 36.26682], [-95.75621, 36.26767], [-95.75603, 36.26878], [-95.75785, 36.27128], [-95.75816, 36.27278], [-95.75583, 36.27523], [-95.75414, 36.27512], [-95.75109, 36.27572], [-95.74866, 36.27715], [-95.74792, 36.27875], [-95.74814, 36.28078], [-95.74877, 36.28205], [-95.75005, 36.28309], [-95.74845, 36.28454], [-95.74806, 36.28341], [-95.74683, 36.28264], [-95.74627, 36.28112], [-95.7449, 36.28036], [-95.73909, 36.28038], [-95.73703, 36.28152], [-95.73676, 36.28314], [-95.73806, 36.28439], [-95.73797, 36.29121], [-95.73637, 36.29001], [-95.73433, 36.28955], [-95.73431, 36.28811], [-95.73325, 36.28697], [-95.73027, 36.28594], [-95.72843, 36.28594], [-95.72913, 36.28467], [-95.72915, 36.28316], [-95.72847, 36.28152], [-95.72733, 36.28051], [-95.72496, 36.27982], [-95.72032, 36.28019], [-95.72133, 36.27883], [-95.72262, 36.27936], [-95.7243, 36.2795], [-95.72835, 36.27801], [-95.73189, 36.27819], [-95.73324, 36.27796], [-95.73507, 36.27688], [-95.73604, 36.2749], [-95.73813, 36.27435], [-95.74014, 36.27513], [-95.74259, 36.27502], [-95.74439, 36.27413], [-95.74544, 36.27268], [-95.74719, 36.27269], [-95.74889, 36.27214], [-95.75049, 36.27056], [-95.75073, 36.26852], [-95.74977, 36.26682], [-95.74744, 36.26564], [-95.7474, 36.2652], [-95.74975, 36.26533], [-95.75142, 36.26481], [-95.75416, 36.26535], [-95.75528, 36.26624], [-95.75712, 36.26682]]], [[[-95.76682, 36.2426], [-95.76719, 36.24232], [-95.76742, 36.24258], [-95.76688, 36.24266], [-95.76682, 36.2426]]], [[[-95.7663, 36.23803], [-95.76536, 36.23785], [-95.76281, 36.23641], [-95.76353, 36.2352], [-95.76501, 36.23673], [-95.76698, 36.23737], [-95.7663, 36.23803]]], [[[-95.73905, 36.24759], [-95.73934, 36.24743], [-95.73984, 36.24713], [-95.73998, 36.24759], [-95.73905, 36.24759]]], [[[-95.72546, 36.2397], [-95.72348, 36.2409], [-95.72243, 36.24244], [-95.72269, 36.24109], [-95.72452, 36.23791], [-95.726, 36.23949], [-95.72546, 36.2397]]], [[[-95.71296, 36.23716], [-95.7121, 36.23789], [-95.71306, 36.2379], [-95.71326, 36.239], [-95.71244, 36.2391], [-95.71104, 36.23996], [-95.71104, 36.23807], [-95.71223, 36.23688], [-95.71296, 36.23716]]], [[[-95.6582, 36.26626], [-95.65764, 36.26718], [-95.65696, 36.2671], [-95.65701, 36.26609], [-95.6582, 36.26626]]], [[[-95.6539, 36.26996], [-95.6544, 36.27081], [-95.65551, 36.27151], [-95.65299, 36.27065], [-95.65267, 36.27025], [-95.6539, 36.26996]]], [[[-95.65634, 36.27173], [-95.65842, 36.27134], [-95.65962, 36.27011], [-95.66121, 36.27088], [-95.6596, 36.27141], [-95.65858, 36.2729], [-95.65634, 36.27173]]], [[[-95.66372, 36.28032], [-95.66466, 36.28032], [-95.66494, 36.28148], [-95.66588, 36.28237], [-95.66754, 36.28284], [-95.66944, 36.28223], [-95.67055, 36.28034], [-95.67625, 36.28053], [-95.67333, 36.28164], [-95.67003, 36.28532], [-95.66396, 36.28112], [-95.66302, 36.28033], [-95.66372, 36.28032]]], [[[-95.64401, 36.21184], [-95.65237, 36.20703], [-95.65243, 36.21664], [-95.65067, 36.21613], [-95.64892, 36.21622], [-95.64588, 36.217], [-95.64409, 36.21844], [-95.64357, 36.22009], [-95.64398, 36.22167], [-95.64523, 36.22305], [-95.64684, 36.22372], [-95.64485, 36.2245], [-95.64374, 36.22555], [-95.64322, 36.22685], [-95.64336, 36.22824], [-95.6423, 36.22956], [-95.6418, 36.23141], [-95.64055, 36.23293], [-95.63906, 36.23205], [-95.64008, 36.22311], [-95.64178, 36.21689], [-95.64401, 36.21184]]], [[[-95.65723, 36.22049], [-95.65687, 36.20521], [-95.66334, 36.20334], [-95.67534, 36.19797], [-95.67977, 36.19665], [-95.68367, 36.19643], [-95.68526, 36.19755], [-95.6872, 36.19795], [-95.68926, 36.19761], [-95.69092, 36.1965], [-95.69378, 36.19677], [-95.69683, 36.19787], [-95.69892, 36.19978], [-95.69729, 36.20054], [-95.69603, 36.20185], [-95.69424, 36.19995], [-95.69268, 36.19945], [-95.69099, 36.19946], [-95.6891, 36.2002], [-95.68785, 36.20159], [-95.68762, 36.20363], [-95.68855, 36.20517], [-95.68989, 36.20604], [-95.69143, 36.20641], [-95.69184, 36.20796], [-95.69314, 36.20931], [-95.69599, 36.21018], [-95.69096, 36.21429], [-95.69066, 36.21296], [-95.68951, 36.21193], [-95.68866, 36.20666], [-95.68686, 36.20354], [-95.68417, 36.20159], [-95.67707, 36.20241], [-95.67471, 36.20237], [-95.667, 36.20586], [-95.66143, 36.2067], [-95.66054, 36.20742], [-95.66017, 36.20839], [-95.66099, 36.21005], [-95.66258, 36.21061], [-95.66619, 36.21055], [-95.66712, 36.21165], [-95.66896, 36.21206], [-95.67016, 36.21286], [-95.67039, 36.2138], [-95.6679, 36.21423], [-95.66645, 36.21504], [-95.66533, 36.21393], [-95.66342, 36.21321], [-95.66139, 36.21327], [-95.65983, 36.21381], [-95.65842, 36.21508], [-95.65793, 36.21674], [-95.65898, 36.21912], [-95.6589, 36.22114], [-95.65987, 36.22271], [-95.65973, 36.22404], [-95.65877, 36.2236], [-95.6585, 36.22246], [-95.65723, 36.22101], [-95.65723, 36.22049]]], [[[-95.67974, 36.20939], [-95.68033, 36.20975], [-95.68089, 36.21158], [-95.68483, 36.2147], [-95.68309, 36.21564], [-95.6811, 36.21456], [-95.67882, 36.21446], [-95.67725, 36.21496], [-95.67552, 36.21607], [-95.67517, 36.21431], [-95.67731, 36.21315], [-95.67893, 36.21132], [-95.67974, 36.20939]]], [[[-95.69998, 36.22241], [-95.69664, 36.22418], [-95.69557, 36.2263], [-95.69388, 36.22673], [-95.69377, 36.2242], [-95.6946, 36.22236], [-95.69998, 36.22241]]], [[[-95.71336, 36.22604], [-95.71318, 36.22585], [-95.7137, 36.2248], [-95.71472, 36.22606], [-95.71336, 36.22604]]], [[[-95.71628, 36.20732], [-95.71136, 36.20345], [-95.71622, 36.1994], [-95.71679, 36.20157], [-95.71807, 36.20293], [-95.72064, 36.20381], [-95.7231, 36.20394], [-95.72064, 36.20535], [-95.71921, 36.20755], [-95.71701, 36.20792], [-95.71628, 36.20732]]], [[[-95.71484, 36.19491], [-95.71471, 36.19453], [-95.7152, 36.19462], [-95.71484, 36.19491]]], [[[-95.71144, 36.19208], [-95.70916, 36.19164], [-95.7066, 36.19186], [-95.70496, 36.1925], [-95.70398, 36.19359], [-95.70381, 36.19504], [-95.70427, 36.19598], [-95.70616, 36.19702], [-95.70721, 36.19903], [-95.70905, 36.19954], [-95.70775, 36.20055], [-95.70309, 36.19552], [-95.70378, 36.19402], [-95.70355, 36.18985], [-95.70508, 36.19087], [-95.70671, 36.19123], [-95.70838, 36.19107], [-95.70993, 36.19033], [-95.71144, 36.19208]]], [[[-95.69639, 36.18775], [-95.69498, 36.18854], [-95.6944, 36.18878], [-95.69472, 36.18722], [-95.69699, 36.18729], [-95.69639, 36.18775]]], [[[-95.67507, 36.18878], [-95.67508, 36.18878], [-95.67507, 36.18878], [-95.67507, 36.18878]]], [[[-95.67031, 36.18948], [-95.66889, 36.18949], [-95.66822, 36.18835], [-95.66702, 36.18772], [-95.66577, 36.1856], [-95.6672, 36.18459], [-95.67028, 36.18574], [-95.67031, 36.18948]]], [[[-95.66486, 36.19466], [-95.6665, 36.19471], [-95.66735, 36.19555], [-95.66587, 36.19632], [-95.66439, 36.19538], [-95.66434, 36.19464], [-95.66486, 36.19466]]], [[[-95.69304, 36.17879], [-95.69327, 36.17879], [-95.69304, 36.17902], [-95.69304, 36.17879]]], [[[-95.70037, 36.17499], [-95.69744, 36.17476], [-95.69793, 36.17415], [-95.69898, 36.17434], [-95.69967, 36.17381], [-95.69948, 36.17316], [-95.70248, 36.17058], [-95.70893, 36.16965], [-95.71676, 36.16916], [-95.72404, 36.16929], [-95.72405, 36.17412], [-95.7237, 36.17426], [-95.72172, 36.17405], [-95.71992, 36.17201], [-95.7171, 36.17139], [-95.7144, 36.17238], [-95.7131, 36.17456], [-95.71092, 36.17416], [-95.70927, 36.17492], [-95.70563, 36.1756], [-95.70241, 36.17483], [-95.70037, 36.17499]]], [[[-95.74047, 36.17276], [-95.74013, 36.17246], [-95.74126, 36.17247], [-95.74108, 36.17277], [-95.74047, 36.17276]]], [[[-95.79129, 36.24788], [-95.79019, 36.25117], [-95.78969, 36.25025], [-95.79023, 36.24936], [-95.79011, 36.24825], [-95.78942, 36.24749], [-95.78793, 36.24682], [-95.79149, 36.24401], [-95.79274, 36.24186], [-95.79283, 36.24215], [-95.79847, 36.24125], [-95.79712, 36.24788], [-95.79129, 36.24788]]], [[[-95.79302, 36.23752], [-95.79151, 36.23796], [-95.79058, 36.23652], [-95.78926, 36.23569], [-95.78754, 36.23531], [-95.78593, 36.23546], [-95.78595, 36.23365], [-95.78553, 36.23264], [-95.7819, 36.23071], [-95.78295, 36.23055], [-95.78399, 36.23153], [-95.78545, 36.23215], [-95.78751, 36.23224], [-95.78972, 36.23147], [-95.7908, 36.2304], [-95.79126, 36.22927], [-95.79177, 36.2292], [-95.79233, 36.23064], [-95.7938, 36.23181], [-95.79256, 36.23289], [-95.79254, 36.23419], [-95.79445, 36.23608], [-95.79302, 36.23752]]], [[[-95.77473, 36.25193], [-95.77515, 36.25129], [-95.78031, 36.25138], [-95.78135, 36.25217], [-95.77773, 36.2551], [-95.77719, 36.25615], [-95.77632, 36.25629], [-95.77487, 36.25517], [-95.77473, 36.25193]]], [[[-95.74177, 36.22213], [-95.74071, 36.22215], [-95.74235, 36.2208], [-95.74336, 36.21827], [-95.74611, 36.21538], [-95.74768, 36.21142], [-95.74939, 36.20853], [-95.7498, 36.20821], [-95.75254, 36.20859], [-95.75499, 36.20766], [-95.75548, 36.20847], [-95.75551, 36.22352], [-95.75372, 36.22278], [-95.75237, 36.22263], [-95.74992, 36.21998], [-95.7476, 36.2192], [-95.74578, 36.21924], [-95.74421, 36.21976], [-95.74276, 36.221], [-95.74233, 36.22214], [-95.74177, 36.22213]]], [[[-95.74064, 36.21381], [-95.7381, 36.21631], [-95.73741, 36.2184], [-95.73648, 36.21875], [-95.73325, 36.21526], [-95.73678, 36.21451], [-95.73952, 36.21272], [-95.74075, 36.21356], [-95.74064, 36.21381]]], [[[-95.7377, 36.20702], [-95.73579, 36.2103], [-95.73376, 36.21131], [-95.73521, 36.20967], [-95.73535, 36.20751], [-95.73793, 36.20659], [-95.7377, 36.20702]]], [[[-95.78622, 36.22091], [-95.78366, 36.22205], [-95.78295, 36.22114], [-95.78178, 36.2205], [-95.77909, 36.2204], [-95.77748, 36.22115], [-95.77636, 36.22215], [-95.77564, 36.22338], [-95.77537, 36.22491], [-95.77373, 36.22305], [-95.77188, 36.22234], [-95.77311, 36.22141], [-95.7737, 36.21951], [-95.77301, 36.21736], [-95.77169, 36.21602], [-95.7695, 36.21492], [-95.76377, 36.21441], [-95.76356, 36.20884], [-95.76298, 36.2072], [-95.76519, 36.20792], [-95.77449, 36.20798], [-95.77468, 36.20988], [-95.77584, 36.2113], [-95.7777, 36.21211], [-95.78012, 36.21207], [-95.78097, 36.21386], [-95.7805, 36.21603], [-95.78132, 36.21765], [-95.7849, 36.22029], [-95.78648, 36.22084], [-95.78622, 36.22091]]], [[[-95.78482, 36.21116], [-95.78418, 36.20999], [-95.78547, 36.20815], [-95.78517, 36.20578], [-95.79103, 36.20585], [-95.79414, 36.21181], [-95.79106, 36.21249], [-95.78938, 36.21389], [-95.78709, 36.21249], [-95.78521, 36.212], [-95.78482, 36.21116]]], [[[-95.77068, 36.20411], [-95.7662, 36.20409], [-95.76558, 36.20323], [-95.76769, 36.19977], [-95.76775, 36.1973], [-95.77017, 36.19831], [-95.77215, 36.19827], [-95.77379, 36.19762], [-95.77503, 36.19827], [-95.77509, 36.19984], [-95.77338, 36.20102], [-95.77259, 36.20224], [-95.77256, 36.20411], [-95.77068, 36.20411]]], [[[-95.75606, 36.20044], [-95.75608, 36.20098], [-95.75425, 36.19954], [-95.7494, 36.19837], [-95.75055, 36.19786], [-95.75147, 36.19661], [-95.75215, 36.19826], [-95.756, 36.19932], [-95.75606, 36.20044]]], [[[-95.78369, 36.19768], [-95.78236, 36.19634], [-95.78372, 36.19588], [-95.78551, 36.19803], [-95.78369, 36.19768]]], [[[-95.79162, 36.26095], [-95.7897, 36.26208], [-95.7811, 36.26209], [-95.78123, 36.26182], [-95.78484, 36.26114], [-95.78802, 36.25947], [-95.78914, 36.25771], [-95.78927, 36.25568], [-95.7904, 36.253], [-95.79158, 36.25663], [-95.794, 36.25667], [-95.79162, 36.26095]]], [[[-95.76633, 36.18183], [-95.76402, 36.18122], [-95.76403, 36.18046], [-95.76651, 36.18187], [-95.76633, 36.18183]]], [[[-95.75804, 36.17892], [-95.75776, 36.18034], [-95.75675, 36.18053], [-95.75647, 36.17939], [-95.757, 36.17891], [-95.75804, 36.17892]]], [[[-95.75668, 36.18518], [-95.75681, 36.18511], [-95.75673, 36.18548], [-95.75657, 36.18525], [-95.75668, 36.18518]]], [[[-95.76097, 36.1891], [-95.7612, 36.1875], [-95.76144, 36.18609], [-95.76214, 36.18813], [-95.76097, 36.1891]]], [[[-95.76356, 36.18541], [-95.76745, 36.1864], [-95.76678, 36.18741], [-95.76885, 36.18894], [-95.76883, 36.18964], [-95.76782, 36.18849], [-95.76356, 36.18541]]], [[[-95.73898, 36.20188], [-95.73885, 36.20051], [-95.73802, 36.19912], [-95.73601, 36.19753], [-95.73426, 36.19726], [-95.7356, 36.19666], [-95.73677, 36.19551], [-95.73803, 36.19543], [-95.73924, 36.19743], [-95.74188, 36.19861], [-95.73967, 36.20067], [-95.73904, 36.20257], [-95.73898, 36.20188]]], [[[-95.75542, 36.22969], [-95.75496, 36.22984], [-95.75522, 36.22916], [-95.75529, 36.22941], [-95.75542, 36.22969]]], [[[-95.76738, 36.26058], [-95.76773, 36.26091], [-95.76539, 36.26208], [-95.76405, 36.26207], [-95.7652, 36.26047], [-95.76514, 36.25839], [-95.76633, 36.25878], [-95.76738, 36.26058]]], [[[-95.76342, 36.28294], [-95.76382, 36.28307], [-95.76284, 36.28455], [-95.76283, 36.2882], [-95.76079, 36.28925], [-95.76078, 36.28543], [-95.7601, 36.28425], [-95.75865, 36.28369], [-95.75679, 36.28419], [-95.7537, 36.28361], [-95.75511, 36.28308], [-95.75856, 36.28268], [-95.76038, 36.28147], [-95.76149, 36.28156], [-95.76342, 36.28294]]], [[[-95.73618, 36.2528], [-95.736, 36.25303], [-95.73623, 36.25146], [-95.73777, 36.25146], [-95.73618, 36.2528]]], [[[-95.74529, 36.25595], [-95.74471, 36.25597], [-95.74507, 36.25428], [-95.74642, 36.25484], [-95.74779, 36.25466], [-95.74901, 36.25356], [-95.74908, 36.25181], [-95.75025, 36.2521], [-95.74778, 36.25546], [-95.74529, 36.25595]]], [[[-95.72026, 36.27273], [-95.71878, 36.27408], [-95.71725, 36.27655], [-95.70934, 36.2765], [-95.70733, 36.27727], [-95.70661, 36.27864], [-95.70654, 36.28381], [-95.70589, 36.2838], [-95.7042, 36.28226], [-95.70261, 36.28179], [-95.70023, 36.28183], [-95.69836, 36.28262], [-95.69694, 36.28469], [-95.69695, 36.2864], [-95.69759, 36.28759], [-95.69691, 36.28874], [-95.69687, 36.28973], [-95.69572, 36.28868], [-95.69425, 36.28836], [-95.6928, 36.28876], [-95.69192, 36.28968], [-95.68638, 36.28525], [-95.68294, 36.28315], [-95.68204, 36.28167], [-95.68159, 36.27965], [-95.68186, 36.27848], [-95.68428, 36.27253], [-95.68558, 36.27049], [-95.68956, 36.26674], [-95.69099, 36.26427], [-95.69374, 36.26747], [-95.6966, 36.26826], [-95.69941, 36.27234], [-95.70221, 36.27427], [-95.71386, 36.27568], [-95.71762, 36.27465], [-95.72026, 36.27273]]], [[[-95.70647, 36.29031], [-95.70649, 36.29027], [-95.70649, 36.29033], [-95.70647, 36.29031]]], [[[-95.70263, 36.29487], [-95.70648, 36.29486], [-95.70647, 36.29803], [-95.70377, 36.29625], [-95.70075, 36.29519], [-95.70122, 36.29482], [-95.70263, 36.29487]]], [[[-95.76284, 36.21912], [-95.76234, 36.21943], [-95.76215, 36.21895], [-95.76301, 36.21905], [-95.76284, 36.21912]]], [[[-95.68901, 36.2933], [-95.69106, 36.29472], [-95.69118, 36.2948], [-95.68901, 36.29409], [-95.68901, 36.2933]]], [[[-95.6809, 36.28738], [-95.68298, 36.28845], [-95.68624, 36.29102], [-95.68094, 36.29099], [-95.67761, 36.28948], [-95.67817, 36.28827], [-95.67816, 36.28626], [-95.67747, 36.28493], [-95.67809, 36.28489], [-95.6809, 36.28738]]], [[[-95.6727, 36.27604], [-95.67224, 36.2765], [-95.67202, 36.27649], [-95.67208, 36.27586], [-95.67334, 36.27566], [-95.6727, 36.27604]]], [[[-95.66571, 36.27631], [-95.66578, 36.27634], [-95.66609, 36.27646], [-95.66567, 36.27646], [-95.66571, 36.27631]]], [[[-95.66187, 36.27093], [-95.66195, 36.27064], [-95.66223, 36.27059], [-95.66268, 36.27088], [-95.66216, 36.27064], [-95.66187, 36.27093]]], [[[-95.66332, 36.27152], [-95.66345, 36.27139], [-95.66328, 36.27112], [-95.66355, 36.27156], [-95.66332, 36.27152]]], [[[-95.67131, 36.26586], [-95.67095, 36.26598], [-95.67113, 36.26256], [-95.67225, 36.2629], [-95.6734, 36.26278], [-95.67482, 36.26151], [-95.6774, 36.26072], [-95.67866, 36.25935], [-95.67898, 36.25775], [-95.68153, 36.26044], [-95.68382, 36.26115], [-95.68716, 36.2614], [-95.68429, 36.26553], [-95.68046, 36.26912], [-95.6771, 36.27637], [-95.67547, 36.27546], [-95.67686, 36.27497], [-95.6778, 36.27394], [-95.67769, 36.2706], [-95.6766, 36.26958], [-95.6748, 36.26926], [-95.67514, 36.26769], [-95.67419, 36.26636], [-95.67278, 36.26581], [-95.67131, 36.26586]]], [[[-95.70268, 36.21809], [-95.70283, 36.21856], [-95.69608, 36.21851], [-95.69615, 36.21717], [-95.69567, 36.21607], [-95.7043, 36.20908], [-95.70622, 36.20974], [-95.70625, 36.21588], [-95.70494, 36.21573], [-95.70376, 36.2161], [-95.70283, 36.21707], [-95.70268, 36.21809]]], [[[-95.71146, 36.21159], [-95.711, 36.21172], [-95.71099, 36.21054], [-95.71218, 36.21152], [-95.71146, 36.21159]]], [[[-95.70014, 36.26391], [-95.7001, 36.26349], [-95.70091, 36.26361], [-95.70168, 36.26419], [-95.69989, 36.26475], [-95.70014, 36.26391]]], [[[-95.70858, 36.26639], [-95.70829, 36.26584], [-95.70956, 36.2652], [-95.71011, 36.26414], [-95.71136, 36.2646], [-95.71188, 36.26685], [-95.7118, 36.27004], [-95.71223, 36.27035], [-95.71336, 36.27033], [-95.71392, 36.26936], [-95.71523, 36.2689], [-95.7166, 36.26888], [-95.71802, 36.26839], [-95.71795, 36.26425], [-95.71884, 36.2629], [-95.71843, 36.26124], [-95.71925, 36.26005], [-95.71903, 36.25864], [-95.72016, 36.25864], [-95.72021, 36.26303], [-95.7207, 36.26387], [-95.72185, 36.2645], [-95.72301, 36.26454], [-95.72406, 36.26414], [-95.72475, 36.26339], [-95.72493, 36.26233], [-95.72752, 36.2622], [-95.72585, 36.264], [-95.72709, 36.26394], [-95.72924, 36.26291], [-95.72956, 36.26354], [-95.72984, 36.26348], [-95.72948, 36.26267], [-95.73135, 36.26165], [-95.7314, 36.26398], [-95.72939, 36.26462], [-95.72664, 36.26731], [-95.72539, 36.26805], [-95.72419, 36.26832], [-95.72114, 36.26795], [-95.71886, 36.2683], [-95.71503, 36.27096], [-95.71321, 36.27148], [-95.70703, 36.27049], [-95.7081, 36.26985], [-95.70862, 36.269], [-95.70858, 36.26639]]], [[[-95.73201, 36.26387], [-95.73151, 36.26395], [-95.73166, 36.26149], [-95.73407, 36.26018], [-95.73748, 36.26224], [-95.74078, 36.26489], [-95.73201, 36.26387]]], [[[-95.73132, 36.25733], [-95.73161, 36.2578], [-95.72953, 36.26004], [-95.73079, 36.2576], [-95.73087, 36.2558], [-95.73132, 36.25733]]], [[[-95.72608, 36.25166], [-95.726, 36.25192], [-95.72497, 36.2513], [-95.72621, 36.25135], [-95.72608, 36.25166]]], [[[-95.72983, 36.24487], [-95.73136, 36.24706], [-95.73145, 36.24759], [-95.72908, 36.24756], [-95.72881, 36.24408], [-95.72727, 36.24402], [-95.72751, 36.24363], [-95.72884, 36.24409], [-95.72983, 36.24487]]], [[[-95.76728, 36.22331], [-95.76742, 36.22277], [-95.76867, 36.22286], [-95.7673, 36.22409], [-95.76728, 36.22331]]], [[[-95.7258, 36.21631], [-95.72561, 36.21614], [-95.72587, 36.21603], [-95.72597, 36.2165], [-95.7258, 36.21631]]], [[[-95.74352, 36.2861], [-95.74651, 36.28637], [-95.74757, 36.28598], [-95.74825, 36.28525], [-95.74847, 36.28623], [-95.74943, 36.28706], [-95.75003, 36.28832], [-95.75196, 36.28897], [-95.75404, 36.2909], [-95.75397, 36.29193], [-95.74966, 36.29202], [-95.74853, 36.29294], [-95.74838, 36.29426], [-95.7444, 36.29551], [-95.74278, 36.2957], [-95.74279, 36.28596], [-95.74352, 36.2861]]], [[[-95.73012, 36.29815], [-95.72778, 36.29814], [-95.72847, 36.29776], [-95.72866, 36.29692], [-95.72799, 36.29678], [-95.72742, 36.29482], [-95.72593, 36.29402], [-95.72334, 36.29433], [-95.72112, 36.29596], [-95.71999, 36.29618], [-95.71889, 36.29689], [-95.718, 36.29531], [-95.71642, 36.29417], [-95.71316, 36.29357], [-95.71125, 36.29384], [-95.71137, 36.28037], [-95.71555, 36.28041], [-95.7156, 36.2823], [-95.71626, 36.28336], [-95.71764, 36.284], [-95.71986, 36.28406], [-95.72047, 36.28562], [-95.71904, 36.28546], [-95.71739, 36.28577], [-95.7153, 36.28742], [-95.71488, 36.28947], [-95.71592, 36.29133], [-95.71851, 36.29249], [-95.72138, 36.29206], [-95.72265, 36.29116], [-95.72342, 36.28989], [-95.72353, 36.28852], [-95.72294, 36.28717], [-95.72507, 36.28744], [-95.72424, 36.2892], [-95.72467, 36.29091], [-95.72743, 36.29243], [-95.72807, 36.29336], [-95.729, 36.29386], [-95.72882, 36.29548], [-95.72966, 36.29694], [-95.73235, 36.29788], [-95.73012, 36.29815]]], [[[-95.70696, 36.2597], [-95.70696, 36.25947], [-95.70743, 36.25946], [-95.70696, 36.25987], [-95.70696, 36.2597]]], [[[-95.75602, 36.24437], [-95.75604, 36.24436], [-95.75604, 36.24439], [-95.75602, 36.24437]]], [[[-95.70151, 36.25204], [-95.70143, 36.25204], [-95.70156, 36.25202], [-95.70151, 36.25204]]], [[[-95.70627, 36.24227], [-95.70627, 36.24279], [-95.70489, 36.24474], [-95.70401, 36.24419], [-95.70536, 36.2434], [-95.70575, 36.24224], [-95.70627, 36.24227]]], [[[-95.71999, 36.2544], [-95.72004, 36.25395], [-95.72018, 36.2539], [-95.72018, 36.25403], [-95.72006, 36.25427], [-95.71992, 36.25466], [-95.71987, 36.25475], [-95.71999, 36.2544]]], [[[-95.71207, 36.25477], [-95.71156, 36.25477], [-95.71033, 36.2531], [-95.71135, 36.25195], [-95.71205, 36.253], [-95.71207, 36.25477]]], [[[-95.64928, 36.25979], [-95.64956, 36.26161], [-95.64704, 36.2623], [-95.64611, 36.26082], [-95.64924, 36.2578], [-95.64928, 36.25979]]], [[[-95.64328, 36.25469], [-95.64337, 36.25338], [-95.64253, 36.25134], [-95.64951, 36.25135], [-95.64567, 36.25507], [-95.64329, 36.25505], [-95.64328, 36.25469]]], [[[-95.7257, 36.29851], [-95.72666, 36.29824], [-95.72736, 36.2978], [-95.72722, 36.29846], [-95.7257, 36.29851]]]]}, "properties": {"kind": "windland", "area_km2": 23.67}}, {"type": "Feature", "geometry": {"type": "MultiPolygon", "coordinates": [[[[-95.72848, 36.22667], [-95.728, 36.22673], [-95.72799, 36.22516], [-95.72826, 36.22552], [-95.72848, 36.22667]]], [[[-95.71873, 36.22558], [-95.71926, 36.22603], [-95.72034, 36.22604], [-95.72104, 36.2258], [-95.72128, 36.22494], [-95.72663, 36.22481], [-95.72659, 36.22697], [-95.72628, 36.22791], [-95.72415, 36.23172], [-95.7237, 36.23159], [-95.72306, 36.23175], [-95.72166, 36.23155], [-95.71889, 36.2316], [-95.71878, 36.22864], [-95.7216, 36.22873], [-95.72421, 36.22976], [-95.72491, 36.22927], [-95.72473, 36.22903], [-95.72193, 36.2279], [-95.71875, 36.22777], [-95.71873, 36.22558]]], [[[-95.72401, 36.23378], [-95.72428, 36.23365], [-95.72551, 36.23186], [-95.72784, 36.22767], [-95.72827, 36.22781], [-95.72877, 36.22771], [-95.72943, 36.22942], [-95.7296, 36.23047], [-95.72946, 36.23114], [-95.72986, 36.23265], [-95.7289, 36.23196], [-95.72775, 36.23187], [-95.72685, 36.23222], [-95.72619, 36.23303], [-95.72584, 36.23312], [-95.72579, 36.23385], [-95.72396, 36.23389], [-95.72401, 36.23378]]], [[[-95.72709, 36.23294], [-95.72769, 36.23254], [-95.72859, 36.23255], [-95.72912, 36.23292], [-95.72955, 36.23376], [-95.72891, 36.23359], [-95.72838, 36.23379], [-95.72717, 36.23381], [-95.72682, 36.23344], [-95.72709, 36.23294]]], [[[-95.72276, 36.23357], [-95.72331, 36.2327], [-95.72345, 36.23273], [-95.72314, 36.23322], [-95.7234, 36.23354], [-95.72325, 36.2339], [-95.72259, 36.23392], [-95.72276, 36.23357]]]]}, "properties": {"kind": "pv", "area_km2": 0.57, "mw": 28.5}}, {"type": "Feature", "geometry": {"type": "Point", "coordinates": [-95.72922, 36.24711]}, "properties": {"kind": "turbine", "i": 0, "mw": 6.0, "hub_m": 120.0, "rotor_m": 150.0}}, {"type": "Feature", "geometry": {"type": "Point", "coordinates": [-95.70475, 36.24438]}, "properties": {"kind": "turbine", "i": 1, "mw": 6.0, "hub_m": 120.0, "rotor_m": 150.0}}, {"type": "Feature", "geometry": {"type": "Point", "coordinates": [-95.69978, 36.21816]}, "properties": {"kind": "turbine", "i": 2, "mw": 6.0, "hub_m": 120.0, "rotor_m": 150.0}}, {"type": "Feature", "geometry": {"type": "Point", "coordinates": [-95.71173, 36.21131]}, "properties": {"kind": "turbine", "i": 3, "mw": 6.0, "hub_m": 120.0, "rotor_m": 150.0}}, {"type": "Feature", "geometry": {"type": "Point", "coordinates": [-95.73596, 36.20747]}, "properties": {"kind": "turbine", "i": 4, "mw": 6.0, "hub_m": 120.0, "rotor_m": 150.0}}, {"type": "Feature", "geometry": {"type": "Point", "coordinates": [-95.71545, 36.20135]}, "properties": {"kind": "turbine", "i": 5, "mw": 6.0, "hub_m": 120.0, "rotor_m": 150.0}}, {"type": "Feature", "geometry": {"type": "Point", "coordinates": [-95.73791, 36.26337]}, "properties": {"kind": "turbine", "i": 6, "mw": 6.0, "hub_m": 120.0, "rotor_m": 150.0}}, {"type": "Feature", "geometry": {"type": "Point", "coordinates": [-95.72585, 36.26693]}, "properties": {"kind": "turbine", "i": 7, "mw": 6.0, "hub_m": 120.0, "rotor_m": 150.0}}, {"type": "Feature", "geometry": {"type": "Point", "coordinates": [-95.70137, 36.2642]}, "properties": {"kind": "turbine", "i": 8, "mw": 6.0, "hub_m": 120.0, "rotor_m": 150.0}}, {"type": "Feature", "geometry": {"type": "Point", "coordinates": [-95.69133, 36.20848]}, "properties": {"kind": "turbine", "i": 9, "mw": 6.0, "hub_m": 120.0, "rotor_m": 150.0}}, {"type": "Feature", "geometry": {"type": "Point", "coordinates": [-95.75231, 36.21038]}, "properties": {"kind": "turbine", "i": 10, "mw": 6.0, "hub_m": 120.0, "rotor_m": 150.0}}, {"type": "Feature", "geometry": {"type": "Point", "coordinates": [-95.71378, 36.2705]}, "properties": {"kind": "turbine", "i": 11, "mw": 6.0, "hub_m": 120.0, "rotor_m": 150.0}}, {"type": "Feature", "geometry": {"type": "Point", "coordinates": [-95.68501, 36.26128]}, "properties": {"kind": "turbine", "i": 12, "mw": 6.0, "hub_m": 120.0, "rotor_m": 150.0}}, {"type": "Feature", "geometry": {"type": "Point", "coordinates": [-95.67927, 36.21204]}, "properties": {"kind": "turbine", "i": 13, "mw": 6.0, "hub_m": 120.0, "rotor_m": 150.0}}, {"type": "Feature", "geometry": {"type": "Point", "coordinates": [-95.69505, 36.19852]}, "properties": {"kind": "turbine", "i": 14, "mw": 6.0, "hub_m": 120.0, "rotor_m": 150.0}}, {"type": "Feature", "geometry": {"type": "Point", "coordinates": [-95.75427, 36.26628]}, "properties": {"kind": "turbine", "i": 15, "mw": 6.0, "hub_m": 120.0, "rotor_m": 150.0}}, {"type": "Feature", "geometry": {"type": "Point", "coordinates": [-95.70699, 36.19167]}, "properties": {"kind": "turbine", "i": 16, "mw": 6.0, "hub_m": 120.0, "rotor_m": 150.0}}, {"type": "Feature", "geometry": {"type": "Point", "coordinates": [-95.68941, 36.27105]}, "properties": {"kind": "turbine", "i": 17, "mw": 6.0, "hub_m": 120.0, "rotor_m": 150.0}}, {"type": "Feature", "geometry": {"type": "Point", "coordinates": [-95.75602, 36.20043]}, "properties": {"kind": "turbine", "i": 18, "mw": 6.0, "hub_m": 120.0, "rotor_m": 150.0}}, {"type": "Feature", "geometry": {"type": "Point", "coordinates": [-95.70182, 36.27735]}, "properties": {"kind": "turbine", "i": 19, "mw": 6.0, "hub_m": 120.0, "rotor_m": 150.0}}, {"type": "Feature", "geometry": {"type": "Point", "coordinates": [-95.76622, 36.25943]}, "properties": {"kind": "turbine", "i": 20, "mw": 6.0, "hub_m": 120.0, "rotor_m": 150.0}}, {"type": "Feature", "geometry": {"type": "Point", "coordinates": [-95.76854, 36.21001]}, "properties": {"kind": "turbine", "i": 21, "mw": 6.0, "hub_m": 120.0, "rotor_m": 150.0}}, {"type": "Feature", "geometry": {"type": "Point", "coordinates": [-95.73443, 36.2799]}, "properties": {"kind": "turbine", "i": 22, "mw": 6.0, "hub_m": 120.0, "rotor_m": 150.0}}, {"type": "Feature", "geometry": {"type": "Point", "coordinates": [-95.7465, 36.27633]}, "properties": {"kind": "turbine", "i": 23, "mw": 6.0, "hub_m": 120.0, "rotor_m": 150.0}}, {"type": "Feature", "geometry": {"type": "Point", "coordinates": [-95.67882, 36.19889]}, "properties": {"kind": "turbine", "i": 24, "mw": 6.0, "hub_m": 120.0, "rotor_m": 150.0}}, {"type": "Feature", "geometry": {"type": "Point", "coordinates": [-95.67295, 36.26484]}, "properties": {"kind": "turbine", "i": 25, "mw": 6.0, "hub_m": 120.0, "rotor_m": 150.0}}, {"type": "Feature", "geometry": {"type": "Point", "coordinates": [-95.65931, 36.22236]}, "properties": {"kind": "turbine", "i": 26, "mw": 6.0, "hub_m": 120.0, "rotor_m": 150.0}}, {"type": "Feature", "geometry": {"type": "Point", "coordinates": [-95.71423, 36.28365]}, "properties": {"kind": "turbine", "i": 27, "mw": 6.0, "hub_m": 120.0, "rotor_m": 150.0}}, {"type": "Feature", "geometry": {"type": "Point", "coordinates": [-95.77817, 36.25257]}, "properties": {"kind": "turbine", "i": 28, "mw": 6.0, "hub_m": 120.0, "rotor_m": 150.0}}, {"type": "Feature", "geometry": {"type": "Point", "coordinates": [-95.78106, 36.21959]}, "properties": {"kind": "turbine", "i": 29, "mw": 6.0, "hub_m": 120.0, "rotor_m": 150.0}}, {"type": "Feature", "geometry": {"type": "Point", "coordinates": [-95.67734, 36.27461]}, "properties": {"kind": "turbine", "i": 30, "mw": 6.0, "hub_m": 120.0, "rotor_m": 150.0}}, {"type": "Feature", "geometry": {"type": "Point", "coordinates": [-95.66281, 36.20583]}, "properties": {"kind": "turbine", "i": 31, "mw": 6.0, "hub_m": 120.0, "rotor_m": 150.0}}, {"type": "Feature", "geometry": {"type": "Point", "coordinates": [-95.77225, 36.20005]}, "properties": {"kind": "turbine", "i": 32, "mw": 6.0, "hub_m": 120.0, "rotor_m": 150.0}}, {"type": "Feature", "geometry": {"type": "Point", "coordinates": [-95.68987, 36.2842]}, "properties": {"kind": "turbine", "i": 33, "mw": 6.0, "hub_m": 120.0, "rotor_m": 150.0}}, {"type": "Feature", "geometry": {"type": "Point", "coordinates": [-95.77074, 36.27248]}, "properties": {"kind": "turbine", "i": 34, "mw": 6.0, "hub_m": 120.0, "rotor_m": 150.0}}, {"type": "Feature", "geometry": {"type": "Point", "coordinates": [-95.66654, 36.19587]}, "properties": {"kind": "turbine", "i": 35, "mw": 6.0, "hub_m": 120.0, "rotor_m": 150.0}}, {"type": "Feature", "geometry": {"type": "Point", "coordinates": [-95.78964, 36.23255]}, "properties": {"kind": "turbine", "i": 36, "mw": 6.0, "hub_m": 120.0, "rotor_m": 150.0}}, {"type": "Feature", "geometry": {"type": "Point", "coordinates": [-95.75891, 36.28263]}, "properties": {"kind": "turbine", "i": 37, "mw": 6.0, "hub_m": 120.0, "rotor_m": 150.0}}, {"type": "Feature", "geometry": {"type": "Point", "coordinates": [-95.72676, 36.29324]}, "properties": {"kind": "turbine", "i": 38, "mw": 6.0, "hub_m": 120.0, "rotor_m": 150.0}}, {"type": "Feature", "geometry": {"type": "Point", "coordinates": [-95.74696, 36.28949]}, "properties": {"kind": "turbine", "i": 39, "mw": 6.0, "hub_m": 120.0, "rotor_m": 150.0}}]}