{"type": "FeatureCollection", "features": [{"type": "Feature", "geometry": {"type": "MultiPolygon", "coordinates": [[[[-109.14175, 41.53653], [-109.13816, 41.54005], [-109.13736, 41.53779], [-109.13587, 41.53628], [-109.13051, 41.53317], [-109.12642, 41.53206], [-109.13128, 41.53142], [-109.13614, 41.53223], [-109.14021, 41.53437], [-109.14199, 41.53616], [-109.14175, 41.53653]]], [[[-109.14251, 41.54504], [-109.14097, 41.54331], [-109.14375, 41.54099], [-109.14346, 41.54307], [-109.14251, 41.54504]]], [[[-109.12806, 41.5434], [-109.13295, 41.54744], [-109.13485, 41.54802], [-109.13765, 41.5482], [-109.1385, 41.54874], [-109.13444, 41.55023], [-109.13072, 41.55058], [-109.12703, 41.55011], [-109.12269, 41.54828], [-109.12024, 41.54615], [-109.11844, 41.54267], [-109.11854, 41.53893], [-109.12017, 41.53595], [-109.12531, 41.53583], [-109.12842, 41.53674], [-109.12632, 41.53837], [-109.12571, 41.54001], [-109.12621, 41.54168], [-109.12806, 41.5434]]]]}, "properties": {"kind": "windland", "area_km2": 1.75}}, {"type": "Feature", "geometry": {"type": "MultiPolygon", "coordinates": [[[[-109.13204, 41.53699], [-109.13095, 41.5375], [-109.13099, 41.53614], [-109.13138, 41.53642], [-109.13204, 41.53699]]], [[[-109.13151, 41.53364], [-109.13276, 41.53437], [-109.13432, 41.53562], [-109.13551, 41.53607], [-109.1365, 41.53678], [-109.13755, 41.53811], [-109.13784, 41.53969], [-109.13816, 41.54005], [-109.14175, 41.53653], [-109.14302, 41.5346], [-109.14292, 41.53815], [-109.13941, 41.54145], [-109.13901, 41.54164], [-109.13688, 41.54161], [-109.13262, 41.53668], [-109.13101, 41.53543], [-109.13107, 41.53343], [-109.13151, 41.53364]]], [[[-109.14029, 41.54156], [-109.14078, 41.54115], [-109.14289, 41.53908], [-109.14282, 41.5417], [-109.14015, 41.54166], [-109.14029, 41.54156]]], [[[-109.136, 41.54159], [-109.13599, 41.54159], [-109.13568, 41.54122], [-109.136, 41.54159]]]]}, "properties": {"kind": "pv", "area_km2": 0.36, "mw": 18.2}}, {"type": "Feature", "geometry": {"type": "Point", "coordinates": [-109.12656, 41.53775]}, "properties": {"kind": "turbine", "i": 0, "mw": 6.0, "hub_m": 120.0, "rotor_m": 150.0}}]}