{"type": "FeatureCollection", "features": [{"type": "Feature", "geometry": {"type": "MultiPolygon", "coordinates": [[[[-109.14486, 41.53222], [-109.14175, 41.53653], [-109.13816, 41.54005], [-109.13755, 41.53811], [-109.1362, 41.53652], [-109.12956, 41.53281], [-109.12471, 41.53191], [-109.11631, 41.5323], [-109.11944, 41.52993], [-109.12253, 41.52845], [-109.12595, 41.52745], [-109.13141, 41.52693], [-109.13682, 41.52763], [-109.14018, 41.52874], [-109.14452, 41.53127], [-109.14526, 41.53191], [-109.14486, 41.53222]]], [[[-109.145, 41.54705], [-109.14097, 41.54331], [-109.14605, 41.53866], [-109.14819, 41.53545], [-109.14967, 41.53992], [-109.14929, 41.54404], [-109.14687, 41.54844], [-109.145, 41.54705]]], [[[-109.12806, 41.5434], [-109.13249, 41.54719], [-109.13453, 41.54796], [-109.13779, 41.54824], [-109.14299, 41.55179], [-109.13779, 41.55411], [-109.13243, 41.55503], [-109.12695, 41.55474], [-109.12346, 41.55388], [-109.12096, 41.55286], [-109.12058, 41.54805], [-109.11896, 41.54527], [-109.11616, 41.5436], [-109.11253, 41.5433], [-109.11241, 41.53932], [-109.11335, 41.53634], [-109.12439, 41.53576], [-109.12842, 41.53674], [-109.12632, 41.53837], [-109.12571, 41.54001], [-109.12621, 41.54168], [-109.12806, 41.5434]]], [[[-109.11421, 41.54718], [-109.1151, 41.5479], [-109.11552, 41.54889], [-109.1152, 41.54856], [-109.11421, 41.54718]]]]}, "properties": {"kind": "windland", "area_km2": 4.66}}, {"type": "Feature", "geometry": {"type": "MultiPolygon", "coordinates": [[[[-109.12857, 41.5325], [-109.13151, 41.53364], [-109.13276, 41.53437], [-109.13432, 41.53562], [-109.1362, 41.53652], [-109.13755, 41.53811], [-109.13784, 41.53969], [-109.13816, 41.54005], [-109.14175, 41.53653], [-109.14302, 41.5346], [-109.14292, 41.53815], [-109.13941, 41.54145], [-109.13901, 41.54164], [-109.13688, 41.54161], [-109.13259, 41.53665], [-109.1312, 41.53555], [-109.12934, 41.53458], [-109.12715, 41.53389], [-109.12494, 41.53359], [-109.11907, 41.53381], [-109.11911, 41.53231], [-109.12857, 41.5325]]], [[[-109.13204, 41.53699], [-109.12929, 41.5383], [-109.12856, 41.53891], [-109.12831, 41.53964], [-109.12839, 41.54018], [-109.12941, 41.54149], [-109.12606, 41.54143], [-109.12572, 41.54036], [-109.12595, 41.539], [-109.12685, 41.5378], [-109.12842, 41.53674], [-109.12672, 41.53611], [-109.12466, 41.53578], [-109.11901, 41.53602], [-109.11905, 41.53435], [-109.12407, 41.5341], [-109.12635, 41.53429], [-109.12827, 41.53479], [-109.12982, 41.53544], [-109.13204, 41.53699]]], [[[-109.14031, 41.54155], [-109.14078, 41.54115], [-109.14289, 41.53908], [-109.14282, 41.5417], [-109.14015, 41.54166], [-109.14031, 41.54155]]], [[[-109.13599, 41.54159], [-109.13568, 41.54122], [-109.136, 41.54159], [-109.13599, 41.54159]]]]}, "properties": {"kind": "pv", "area_km2": 0.83, "mw": 41.7}}, {"type": "Feature", "geometry": {"type": "Point", "coordinates": [-109.12656, 41.53775]}, "properties": {"kind": "turbine", "i": 0, "mw": 6.0, "hub_m": 120.0, "rotor_m": 150.0}}, {"type": "Feature", "geometry": {"type": "Point", "coordinates": [-109.13066, 41.54769]}, "properties": {"kind": "turbine", "i": 1, "mw": 6.0, "hub_m": 120.0, "rotor_m": 150.0}}, {"type": "Feature", "geometry": {"type": "Point", "coordinates": [-109.13978, 41.53468]}, "properties": {"kind": "turbine", "i": 2, "mw": 6.0, "hub_m": 120.0, "rotor_m": 150.0}}]}