{"type": "FeatureCollection", "features": [{"type": "Feature", "geometry": {"type": "MultiPolygon", "coordinates": [[[[-109.07856, 41.52755], [-109.09797, 41.53569], [-109.10143, 41.53653], [-109.1052, 41.53677], [-109.1047, 41.54212], [-109.10491, 41.54505], [-109.1143, 41.57972], [-109.11449, 41.58162], [-109.10821, 41.5799], [-109.10324, 41.57804], [-109.09416, 41.57326], [-109.08649, 41.56724], [-109.08053, 41.56021], [-109.07651, 41.55244], [-109.07459, 41.54424], [-109.07444, 41.54007], [-109.07578, 41.5318], [-109.07753, 41.52721], [-109.07856, 41.52755]]], [[[-109.15786, 41.50447], [-109.15713, 41.50404], [-109.15693, 41.50328], [-109.15821, 41.50376], [-109.15786, 41.50447]]], [[[-109.15087, 41.50134], [-109.14947, 41.50229], [-109.14898, 41.50335], [-109.14966, 41.50474], [-109.15164, 41.50554], [-109.15183, 41.50688], [-109.15042, 41.50791], [-109.15037, 41.50938], [-109.1511, 41.51015], [-109.15248, 41.51078], [-109.15547, 41.51136], [-109.15529, 41.52711], [-109.1545, 41.52797], [-109.14546, 41.53176], [-109.14414, 41.53293], [-109.14175, 41.53653], [-109.13816, 41.54005], [-109.13755, 41.53811], [-109.1362, 41.53652], [-109.13151, 41.53364], [-109.12857, 41.5325], [-109.1241, 41.5319], [-109.10512, 41.53291], [-109.10174, 41.53262], [-109.07941, 41.52361], [-109.08467, 41.51662], [-109.09189, 41.5103], [-109.10061, 41.50515], [-109.1105, 41.50139], [-109.12117, 41.49914], [-109.13222, 41.49851], [-109.14323, 41.4995], [-109.15087, 41.50134]]], [[[-109.17555, 41.56307], [-109.1729, 41.56195], [-109.16882, 41.56121], [-109.16418, 41.55978], [-109.1602, 41.55813], [-109.14408, 41.54636], [-109.14097, 41.54331], [-109.14605, 41.53866], [-109.149, 41.53456], [-109.1574, 41.53117], [-109.15988, 41.52894], [-109.16052, 41.5268], [-109.16071, 41.50977], [-109.16267, 41.50582], [-109.16781, 41.50873], [-109.17184, 41.5116], [-109.17869, 41.51815], [-109.18371, 41.52558], [-109.1867, 41.5336], [-109.18756, 41.54191], [-109.18624, 41.55018], [-109.18478, 41.5542], [-109.1828, 41.5581], [-109.17809, 41.5645], [-109.17555, 41.56307]]], [[[-109.13741, 41.58274], [-109.13108, 41.57477], [-109.13095, 41.57324], [-109.13185, 41.56946], [-109.13192, 41.56657], [-109.1307, 41.5636], [-109.12908, 41.56175], [-109.13196, 41.56144], [-109.14517, 41.55677], [-109.14694, 41.55587], [-109.14807, 41.55477], [-109.15514, 41.56003], [-109.15845, 41.5619], [-109.16703, 41.56484], [-109.17134, 41.56564], [-109.17504, 41.56761], [-109.17015, 41.57169], [-109.16595, 41.57443], [-109.1566, 41.57891], [-109.14626, 41.58193], [-109.13764, 41.58316], [-109.13741, 41.58274]]], [[[-109.12806, 41.5434], [-109.13295, 41.54744], [-109.13485, 41.54802], [-109.13786, 41.54827], [-109.14332, 41.55203], [-109.14349, 41.55301], [-109.13007, 41.55784], [-109.12923, 41.55783], [-109.12639, 41.55528], [-109.12114, 41.55334], [-109.12045, 41.54759], [-109.11958, 41.546], [-109.11814, 41.54458], [-109.11646, 41.5437], [-109.11418, 41.54324], [-109.11208, 41.54337], [-109.10994, 41.54411], [-109.11038, 41.5365], [-109.12408, 41.53576], [-109.1279, 41.5365], [-109.12842, 41.53674], [-109.12632, 41.53837], [-109.12571, 41.54001], [-109.12621, 41.54168], [-109.12806, 41.5434]]], [[[-109.11444, 41.56096], [-109.11319, 41.55638], [-109.12466, 41.56386], [-109.12602, 41.56522], [-109.12687, 41.56777], [-109.12582, 41.57287], [-109.12612, 41.57581], [-109.12714, 41.5776], [-109.13197, 41.58345], [-109.12423, 41.5832], [-109.11957, 41.5826], [-109.11937, 41.57907], [-109.11444, 41.56096]]], [[[-109.11356, 41.54709], [-109.11462, 41.54739], [-109.11544, 41.54845], [-109.11582, 41.55298], [-109.11413, 41.55156], [-109.11241, 41.54848], [-109.11265, 41.54744], [-109.11356, 41.54709]]]]}, "properties": {"kind": "windland", "area_km2": 56.69}}, {"type": "Feature", "geometry": {"type": "MultiPolygon", "coordinates": [[[[-109.15479, 41.5064], [-109.15455, 41.50593], [-109.15948, 41.50594], [-109.15788, 41.5092], [-109.15481, 41.50915], [-109.15421, 41.50895], [-109.15486, 41.5079], [-109.15601, 41.50793], [-109.15631, 41.5077], [-109.15607, 41.50741], [-109.15493, 41.50736], [-109.15479, 41.5064]]], [[[-109.16024, 41.50596], [-109.16258, 41.50599], [-109.16071, 41.50977], [-109.16041, 41.51541], [-109.16052, 41.5268], [-109.16, 41.52871], [-109.15908, 41.52995], [-109.1574, 41.53117], [-109.149, 41.53456], [-109.1485, 41.53498], [-109.14605, 41.53866], [-109.14253, 41.54217], [-109.14097, 41.54331], [-109.14353, 41.54593], [-109.15893, 41.55739], [-109.16159, 41.55881], [-109.16418, 41.55978], [-109.16882, 41.56121], [-109.17248, 41.56183], [-109.17477, 41.56266], [-109.17814, 41.56453], [-109.17808, 41.56658], [-109.1731, 41.56385], [-109.17153, 41.56335], [-109.16811, 41.56279], [-109.1633, 41.5613], [-109.16047, 41.56025], [-109.15751, 41.55866], [-109.14191, 41.54706], [-109.14028, 41.54557], [-109.13792, 41.5428], [-109.13989, 41.54185], [-109.14222, 41.53975], [-109.14427, 41.53767], [-109.14662, 41.5341], [-109.14755, 41.5333], [-109.15615, 41.5298], [-109.15728, 41.52899], [-109.15789, 41.52822], [-109.15831, 41.52677], [-109.1582, 41.51543], [-109.15851, 41.50951], [-109.16024, 41.50596]]], [[[-109.15418, 41.5113], [-109.15129, 41.51027], [-109.15037, 41.50938], [-109.1502, 41.50864], [-109.15042, 41.50791], [-109.15099, 41.50729], [-109.15183, 41.50688], [-109.15161, 41.50582], [-109.15382, 41.50585], [-109.15422, 41.50688], [-109.15416, 41.50778], [-109.15357, 41.50871], [-109.15271, 41.50842], [-109.15242, 41.50863], [-109.15253, 41.50889], [-109.15465, 41.50968], [-109.15778, 41.50974], [-109.15748, 41.51543], [-109.15759, 41.52676], [-109.15723, 41.528], [-109.15673, 41.52864], [-109.15575, 41.52935], [-109.14705, 41.53291], [-109.14601, 41.53381], [-109.14365, 41.53739], [-109.14165, 41.53942], [-109.13941, 41.54145], [-109.13753, 41.54234], [-109.13191, 41.53606], [-109.13021, 41.53499], [-109.12774, 41.53404], [-109.12574, 41.53365], [-109.12405, 41.53356], [-109.10521, 41.53457], [-109.10196, 41.53437], [-109.0986, 41.53348], [-109.08331, 41.52684], [-109.08337, 41.52498], [-109.09961, 41.532], [-109.10286, 41.5328], [-109.10512, 41.53291], [-109.12399, 41.5319], [-109.12613, 41.53202], [-109.12786, 41.53232], [-109.12956, 41.53281], [-109.13151, 41.53364], [-109.13276, 41.53437], [-109.13432, 41.53562], [-109.1362, 41.53652], [-109.13755, 41.53811], [-109.13784, 41.53969], [-109.13816, 41.54005], [-109.14175, 41.53653], [-109.14414, 41.53293], [-109.14546, 41.53176], [-109.14666, 41.53109], [-109.1545, 41.52797], [-109.15518, 41.52737], [-109.15538, 41.52667], [-109.15545, 41.52288], [-109.15527, 41.51537], [-109.15547, 41.51136], [-109.15418, 41.5113]]], [[[-109.14546, 41.55052], [-109.14229, 41.54813], [-109.15706, 41.55908], [-109.15961, 41.56048], [-109.16205, 41.56147], [-109.16786, 41.5633], [-109.17149, 41.5639], [-109.17325, 41.56454], [-109.17806, 41.56724], [-109.17801, 41.56929], [-109.17134, 41.56564], [-109.16703, 41.56484], [-109.16114, 41.56299], [-109.15838, 41.56186], [-109.15514, 41.56003], [-109.14807, 41.55477], [-109.14694, 41.55587], [-109.14517, 41.55677], [-109.13196, 41.56144], [-109.13057, 41.56172], [-109.12908, 41.56175], [-109.1307, 41.5636], [-109.13188, 41.56641], [-109.13202, 41.56768], [-109.13185, 41.56946], [-109.13095, 41.57324], [-109.13093, 41.57407], [-109.1316, 41.57567], [-109.13318, 41.57758], [-109.13054, 41.57753], [-109.12927, 41.57583], [-109.12872, 41.5742], [-109.12874, 41.57308], [-109.12981, 41.56778], [-109.12944, 41.56584], [-109.12863, 41.5642], [-109.12763, 41.56302], [-109.12668, 41.56226], [-109.11416, 41.55409], [-109.11268, 41.55293], [-109.11027, 41.54892], [-109.11012, 41.54836], [-109.11031, 41.54715], [-109.11136, 41.54607], [-109.11287, 41.54549], [-109.1147, 41.54554], [-109.11618, 41.54621], [-109.117, 41.54705], [-109.11758, 41.54803], [-109.11807, 41.55334], [-109.11879, 41.55468], [-109.12027, 41.55557], [-109.12475, 41.5571], [-109.1255, 41.55764], [-109.12717, 41.55941], [-109.12895, 41.56007], [-109.13013, 41.56009], [-109.13121, 41.55987], [-109.14423, 41.55527], [-109.14535, 41.55472], [-109.14618, 41.55392], [-109.1466, 41.5528], [-109.14647, 41.55175], [-109.14546, 41.55052]], [[-109.11536, 41.54826], [-109.11462, 41.54739], [-109.11377, 41.54709], [-109.11278, 41.54734], [-109.11235, 41.54808], [-109.11264, 41.54897], [-109.11413, 41.55156], [-109.11582, 41.55298], [-109.11536, 41.54826]]], [[[-109.14589, 41.55241], [-109.14574, 41.55333], [-109.14523, 41.55405], [-109.14391, 41.55478], [-109.13092, 41.55938], [-109.12906, 41.55953], [-109.12765, 41.55901], [-109.12605, 41.55729], [-109.12515, 41.55666], [-109.12061, 41.5551], [-109.11936, 41.55435], [-109.11878, 41.55326], [-109.11829, 41.54791], [-109.11763, 41.54678], [-109.11667, 41.54582], [-109.11539, 41.54516], [-109.11339, 41.54489], [-109.11202, 41.54512], [-109.11034, 41.54605], [-109.10962, 41.54698], [-109.10941, 41.54844], [-109.10992, 41.54978], [-109.11209, 41.55324], [-109.11368, 41.5545], [-109.12706, 41.56335], [-109.12799, 41.56445], [-109.12902, 41.56688], [-109.12893, 41.56926], [-109.12803, 41.57301], [-109.128, 41.57424], [-109.12826, 41.57539], [-109.12968, 41.57752], [-109.12705, 41.57748], [-109.12612, 41.57581], [-109.12579, 41.57436], [-109.12582, 41.57287], [-109.12687, 41.56777], [-109.12661, 41.56642], [-109.12602, 41.56522], [-109.12466, 41.56386], [-109.11319, 41.55638], [-109.11891, 41.57734], [-109.11664, 41.57731], [-109.1078, 41.54471], [-109.10763, 41.54217], [-109.10819, 41.53496], [-109.12407, 41.5341], [-109.12635, 41.53429], [-109.12898, 41.53505], [-109.13074, 41.53596], [-109.13204, 41.53699], [-109.12902, 41.53846], [-109.12856, 41.53891], [-109.1283, 41.53968], [-109.12854, 41.54046], [-109.12958, 41.5417], [-109.12934, 41.54184], [-109.13028, 41.54281], [-109.13047, 41.54274], [-109.13218, 41.5446], [-109.13258, 41.54561], [-109.13348, 41.54564], [-109.13443, 41.54617], [-109.13529, 41.54641], [-109.13852, 41.54667], [-109.13919, 41.54693], [-109.1422, 41.54886], [-109.14167, 41.54915], [-109.14189, 41.54934], [-109.14238, 41.54898], [-109.14494, 41.5509], [-109.14553, 41.55146], [-109.14589, 41.55241]], [[-109.14286, 41.55332], [-109.14357, 41.55291], [-109.14358, 41.55225], [-109.14079, 41.55014], [-109.13779, 41.54824], [-109.13485, 41.54802], [-109.13265, 41.54729], [-109.13048, 41.54566], [-109.12862, 41.54365], [-109.1277, 41.54319], [-109.1268, 41.54241], [-109.12588, 41.54104], [-109.12582, 41.53933], [-109.12657, 41.53807], [-109.12842, 41.53674], [-109.12629, 41.536], [-109.12439, 41.53576], [-109.11038, 41.5365], [-109.10984, 41.54224], [-109.10994, 41.54411], [-109.11208, 41.54337], [-109.11418, 41.54324], [-109.11646, 41.5437], [-109.11814, 41.54458], [-109.11958, 41.546], [-109.12045, 41.54759], [-109.12114, 41.55334], [-109.12639, 41.55528], [-109.12769, 41.55618], [-109.12923, 41.55783], [-109.13007, 41.55784], [-109.14286, 41.55332]]], [[[-109.13636, 41.54201], [-109.13712, 41.54286], [-109.1393, 41.54545], [-109.13994, 41.54613], [-109.13824, 41.54561], [-109.13567, 41.54544], [-109.13445, 41.54476], [-109.13717, 41.54298], [-109.13568, 41.54122], [-109.13636, 41.54201]]], [[[-109.09348, 41.53189], [-109.09828, 41.53396], [-109.10096, 41.53474], [-109.10364, 41.53509], [-109.10747, 41.535], [-109.10691, 41.54215], [-109.10709, 41.54479], [-109.1159, 41.57729], [-109.11363, 41.57726], [-109.10512, 41.54603], [-109.10468, 41.54289], [-109.1052, 41.53677], [-109.10277, 41.53669], [-109.10047, 41.53636], [-109.09653, 41.53513], [-109.08324, 41.52935], [-109.0833, 41.52746], [-109.09348, 41.53189]]]]}, "properties": {"kind": "pv", "area_km2": 9.97, "mw": 498.4}}, {"type": "Feature", "geometry": {"type": "Point", "coordinates": [-109.12656, 41.53775]}, "properties": {"kind": "turbine", "i": 0, "mw": 6.0, "hub_m": 120.0, "rotor_m": 150.0}}, {"type": "Feature", "geometry": {"type": "Point", "coordinates": [-109.13066, 41.54769]}, "properties": {"kind": "turbine", "i": 1, "mw": 6.0, "hub_m": 120.0, "rotor_m": 150.0}}, {"type": "Feature", "geometry": {"type": "Point", "coordinates": [-109.13978, 41.53468]}, "properties": {"kind": "turbine", "i": 2, "mw": 6.0, "hub_m": 120.0, "rotor_m": 150.0}}, {"type": "Feature", "geometry": {"type": "Point", "coordinates": [-109.11334, 41.54083]}, "properties": {"kind": "turbine", "i": 3, "mw": 6.0, "hub_m": 120.0, "rotor_m": 150.0}}, {"type": "Feature", "geometry": {"type": "Point", "coordinates": [-109.12685, 41.52789]}, "properties": {"kind": "turbine", "i": 4, "mw": 6.0, "hub_m": 120.0, "rotor_m": 150.0}}, {"type": "Feature", "geometry": {"type": "Point", "coordinates": [-109.14825, 41.54468]}, "properties": {"kind": "turbine", "i": 5, "mw": 6.0, "hub_m": 120.0, "rotor_m": 150.0}}, {"type": "Feature", "geometry": {"type": "Point", "coordinates": [-109.11363, 41.53096]}, "properties": {"kind": "turbine", "i": 6, "mw": 6.0, "hub_m": 120.0, "rotor_m": 150.0}}, {"type": "Feature", "geometry": {"type": "Point", "coordinates": [-109.13037, 41.55755]}, "properties": {"kind": "turbine", "i": 7, "mw": 6.0, "hub_m": 120.0, "rotor_m": 150.0}}, {"type": "Feature", "geometry": {"type": "Point", "coordinates": [-109.14007, 41.52482]}, "properties": {"kind": "turbine", "i": 8, "mw": 6.0, "hub_m": 120.0, "rotor_m": 150.0}}, {"type": "Feature", "geometry": {"type": "Point", "coordinates": [-109.15291, 41.53489]}, "properties": {"kind": "turbine", "i": 9, "mw": 6.0, "hub_m": 120.0, "rotor_m": 150.0}}, {"type": "Feature", "geometry": {"type": "Point", "coordinates": [-109.14788, 41.55783]}, "properties": {"kind": "turbine", "i": 10, "mw": 6.0, "hub_m": 120.0, "rotor_m": 150.0}}, {"type": "Feature", "geometry": {"type": "Point", "coordinates": [-109.11715, 41.56062]}, "properties": {"kind": "turbine", "i": 11, "mw": 6.0, "hub_m": 120.0, "rotor_m": 150.0}}, {"type": "Feature", "geometry": {"type": "Point", "coordinates": [-109.12713, 41.51803]}, "properties": {"kind": "turbine", "i": 12, "mw": 6.0, "hub_m": 120.0, "rotor_m": 150.0}}, {"type": "Feature", "geometry": {"type": "Point", "coordinates": [-109.16138, 41.54489]}, "properties": {"kind": "turbine", "i": 13, "mw": 6.0, "hub_m": 120.0, "rotor_m": 150.0}}, {"type": "Feature", "geometry": {"type": "Point", "coordinates": [-109.10031, 41.53732]}, "properties": {"kind": "turbine", "i": 14, "mw": 6.0, "hub_m": 120.0, "rotor_m": 150.0}}, {"type": "Feature", "geometry": {"type": "Point", "coordinates": [-109.11392, 41.5211]}, "properties": {"kind": "turbine", "i": 15, "mw": 6.0, "hub_m": 120.0, "rotor_m": 150.0}}, {"type": "Feature", "geometry": {"type": "Point", "coordinates": [-109.10002, 41.54718]}, "properties": {"kind": "turbine", "i": 16, "mw": 6.0, "hub_m": 120.0, "rotor_m": 150.0}}, {"type": "Feature", "geometry": {"type": "Point", "coordinates": [-109.15328, 41.52174]}, "properties": {"kind": "turbine", "i": 17, "mw": 6.0, "hub_m": 120.0, "rotor_m": 150.0}}, {"type": "Feature", "geometry": {"type": "Point", "coordinates": [-109.10411, 41.55712]}, "properties": {"kind": "turbine", "i": 18, "mw": 6.0, "hub_m": 120.0, "rotor_m": 150.0}}, {"type": "Feature", "geometry": {"type": "Point", "coordinates": [-109.1611, 41.55475]}, "properties": {"kind": "turbine", "i": 19, "mw": 6.0, "hub_m": 120.0, "rotor_m": 150.0}}, {"type": "Feature", "geometry": {"type": "Point", "coordinates": [-109.1006, 41.52746]}, "properties": {"kind": "turbine", "i": 20, "mw": 6.0, "hub_m": 120.0, "rotor_m": 150.0}}, {"type": "Feature", "geometry": {"type": "Point", "coordinates": [-109.13446, 41.56748]}, "properties": {"kind": "turbine", "i": 21, "mw": 6.0, "hub_m": 120.0, "rotor_m": 150.0}}, {"type": "Feature", "geometry": {"type": "Point", "coordinates": [-109.14035, 41.51496]}, "properties": {"kind": "turbine", "i": 22, "mw": 6.0, "hub_m": 120.0, "rotor_m": 150.0}}, {"type": "Feature", "geometry": {"type": "Point", "coordinates": [-109.16622, 41.52853]}, "properties": {"kind": "turbine", "i": 23, "mw": 6.0, "hub_m": 120.0, "rotor_m": 150.0}}, {"type": "Feature", "geometry": {"type": "Point", "coordinates": [-109.1476, 41.56769]}, "properties": {"kind": "turbine", "i": 24, "mw": 6.0, "hub_m": 120.0, "rotor_m": 150.0}}, {"type": "Feature", "geometry": {"type": "Point", "coordinates": [-109.12124, 41.57055]}, "properties": {"kind": "turbine", "i": 25, "mw": 6.0, "hub_m": 120.0, "rotor_m": 150.0}}, {"type": "Feature", "geometry": {"type": "Point", "coordinates": [-109.16082, 41.56462]}, "properties": {"kind": "turbine", "i": 26, "mw": 6.0, "hub_m": 120.0, "rotor_m": 150.0}}, {"type": "Feature", "geometry": {"type": "Point", "coordinates": [-109.17469, 41.53853]}, "properties": {"kind": "turbine", "i": 27, "mw": 6.0, "hub_m": 120.0, "rotor_m": 150.0}}, {"type": "Feature", "geometry": {"type": "Point", "coordinates": [-109.08709, 41.54039]}, "properties": {"kind": "turbine", "i": 28, "mw": 6.0, "hub_m": 120.0, "rotor_m": 150.0}}, {"type": "Feature", "geometry": {"type": "Point", "coordinates": [-109.10382, 41.56698]}, "properties": {"kind": "turbine", "i": 29, "mw": 6.0, "hub_m": 120.0, "rotor_m": 150.0}}, {"type": "Feature", "geometry": {"type": "Point", "coordinates": [-109.17441, 41.54839]}, "properties": {"kind": "turbine", "i": 30, "mw": 6.0, "hub_m": 120.0, "rotor_m": 150.0}}, {"type": "Feature", "geometry": {"type": "Point", "coordinates": [-109.15356, 41.51188]}, "properties": {"kind": "turbine", "i": 31, "mw": 6.0, "hub_m": 120.0, "rotor_m": 150.0}}, {"type": "Feature", "geometry": {"type": "Point", "coordinates": [-109.11867, 41.50802]}, "properties": {"kind": "turbine", "i": 32, "mw": 6.0, "hub_m": 120.0, "rotor_m": 150.0}}, {"type": "Feature", "geometry": {"type": "Point", "coordinates": [-109.0868, 41.55025]}, "properties": {"kind": "turbine", "i": 33, "mw": 6.0, "hub_m": 120.0, "rotor_m": 150.0}}, {"type": "Feature", "geometry": {"type": "Point", "coordinates": [-109.10546, 41.5111]}, "properties": {"kind": "turbine", "i": 34, "mw": 6.0, "hub_m": 120.0, "rotor_m": 150.0}}, {"type": "Feature", "geometry": {"type": "Point", "coordinates": [-109.09089, 41.56019]}, "properties": {"kind": "turbine", "i": 35, "mw": 6.0, "hub_m": 120.0, "rotor_m": 150.0}}, {"type": "Feature", "geometry": {"type": "Point", "coordinates": [-109.13189, 41.50495]}, "properties": {"kind": "turbine", "i": 36, "mw": 6.0, "hub_m": 120.0, "rotor_m": 150.0}}, {"type": "Feature", "geometry": {"type": "Point", "coordinates": [-109.13418, 41.57734]}, "properties": {"kind": "turbine", "i": 37, "mw": 6.0, "hub_m": 120.0, "rotor_m": 150.0}}, {"type": "Feature", "geometry": {"type": "Point", "coordinates": [-109.17414, 41.55825]}, "properties": {"kind": "turbine", "i": 38, "mw": 6.0, "hub_m": 120.0, "rotor_m": 150.0}}, {"type": "Feature", "geometry": {"type": "Point", "coordinates": [-109.17087, 41.51873]}, "properties": {"kind": "turbine", "i": 39, "mw": 6.0, "hub_m": 120.0, "rotor_m": 150.0}}, {"type": "Feature", "geometry": {"type": "Point", "coordinates": [-109.09214, 41.51745]}, "properties": {"kind": "turbine", "i": 40, "mw": 6.0, "hub_m": 120.0, "rotor_m": 150.0}}, {"type": "Feature", "geometry": {"type": "Point", "coordinates": [-109.08301, 41.53046]}, "properties": {"kind": "turbine", "i": 41, "mw": 6.0, "hub_m": 120.0, "rotor_m": 150.0}}]}