{"type": "FeatureCollection", "features": [{"type": "Feature", "geometry": {"type": "MultiPolygon", "coordinates": [[[[-90.57181, 42.45717], [-90.57074, 42.45744], [-90.57042, 42.45607], [-90.56919, 42.45519], [-90.56652, 42.455], [-90.56416, 42.45349], [-90.56157, 42.45326], [-90.562, 42.44896], [-90.56142, 42.44643], [-90.56207, 42.44549], [-90.56289, 42.44545], [-90.56431, 42.44663], [-90.56908, 42.45168], [-90.57265, 42.45446], [-90.57189, 42.45564], [-90.57181, 42.45717]]], [[[-90.55407, 42.44271], [-90.55444, 42.44276], [-90.55368, 42.44331], [-90.55409, 42.44388], [-90.55193, 42.44389], [-90.55131, 42.44179], [-90.55407, 42.44271]]], [[[-90.55057, 42.44102], [-90.55078, 42.44132], [-90.54971, 42.44085], [-90.54825, 42.44075], [-90.54792, 42.43597], [-90.54865, 42.4363], [-90.54851, 42.43792], [-90.55057, 42.44102]]], [[[-90.53957, 42.43198], [-90.53951, 42.43161], [-90.54071, 42.43195], [-90.54291, 42.43343], [-90.54273, 42.43909], [-90.54143, 42.43697], [-90.5399, 42.43613], [-90.53853, 42.43462], [-90.53847, 42.43392], [-90.53932, 42.43301], [-90.53957, 42.43198]]], [[[-90.54819, 42.4477], [-90.54839, 42.44739], [-90.54975, 42.44774], [-90.55275, 42.44774], [-90.55275, 42.45106], [-90.5532, 42.4523], [-90.55263, 42.45347], [-90.5527, 42.45519], [-90.55403, 42.45651], [-90.55652, 42.45682], [-90.55748, 42.46025], [-90.55152, 42.46013], [-90.55276, 42.45855], [-90.55288, 42.45662], [-90.55162, 42.45495], [-90.55153, 42.45344], [-90.54998, 42.45221], [-90.54947, 42.45084], [-90.54715, 42.44966], [-90.54819, 42.4477]]], [[[-90.53329, 42.45199], [-90.53501, 42.45167], [-90.53645, 42.45091], [-90.53738, 42.44996], [-90.53788, 42.44866], [-90.53708, 42.4464], [-90.53466, 42.44485], [-90.53572, 42.4437], [-90.53609, 42.44235], [-90.53574, 42.44072], [-90.53449, 42.43942], [-90.53509, 42.43868], [-90.53699, 42.4398], [-90.53739, 42.44158], [-90.53857, 42.44367], [-90.53977, 42.4443], [-90.5416, 42.44437], [-90.54214, 42.44475], [-90.54215, 42.44671], [-90.54092, 42.44788], [-90.54077, 42.44937], [-90.54182, 42.45195], [-90.54302, 42.45294], [-90.54454, 42.45353], [-90.54509, 42.45462], [-90.54358, 42.45614], [-90.54233, 42.4596], [-90.5375, 42.45663], [-90.53428, 42.45355], [-90.53329, 42.45199]]]]}, "properties": {"kind": "windland", "area_km2": 1.97}}, {"type": "Feature", "geometry": {"type": "MultiPolygon", "coordinates": [[[[-90.55875, 42.4347], [-90.5586, 42.43446], [-90.5588, 42.43478], [-90.55875, 42.4347]]], [[[-90.55659, 42.43525], [-90.55639, 42.4351], [-90.55661, 42.43509], [-90.55684, 42.4354], [-90.55659, 42.43525]]], [[[-90.56734, 42.43646], [-90.56631, 42.43565], [-90.56574, 42.43466], [-90.5667, 42.43594], [-90.5672, 42.43617], [-90.56754, 42.43604], [-90.56763, 42.43576], [-90.56683, 42.43463], [-90.56763, 42.43465], [-90.56891, 42.43637], [-90.5682, 42.4361], [-90.5679, 42.43623], [-90.56787, 42.43649], [-90.56936, 42.43783], [-90.56734, 42.43646]]], [[[-90.55553, 42.43809], [-90.55256, 42.43557], [-90.54985, 42.43427], [-90.5541, 42.43436], [-90.56083, 42.44034], [-90.55782, 42.44023], [-90.55553, 42.43809]]], [[[-90.54951, 42.44286], [-90.54907, 42.44244], [-90.54718, 42.44242], [-90.54621, 42.44191], [-90.54566, 42.43975], [-90.5457, 42.43418], [-90.54839, 42.43424], [-90.55153, 42.43565], [-90.55298, 42.43664], [-90.55594, 42.43949], [-90.55563, 42.43967], [-90.55465, 42.43918], [-90.55413, 42.43912], [-90.55356, 42.43952], [-90.55304, 42.43956], [-90.55273, 42.43989], [-90.55292, 42.44039], [-90.55373, 42.44076], [-90.5529, 42.44124], [-90.55472, 42.44285], [-90.55425, 42.44305], [-90.55444, 42.44276], [-90.55284, 42.44248], [-90.55131, 42.44179], [-90.55183, 42.44332], [-90.54957, 42.44327], [-90.54951, 42.44286]], [[-90.55192, 42.43721], [-90.55175, 42.43698], [-90.55127, 42.43691], [-90.55084, 42.43723], [-90.55128, 42.43759], [-90.55175, 42.43749], [-90.55192, 42.43721]], [[-90.55187, 42.43908], [-90.55234, 42.43937], [-90.55327, 42.43917], [-90.55393, 42.4388], [-90.5539, 42.43835], [-90.55304, 42.43784], [-90.55215, 42.43794], [-90.5517, 42.4383], [-90.55187, 42.43908]], [[-90.54994, 42.44029], [-90.54844, 42.43772], [-90.54836, 42.43707], [-90.54865, 42.4363], [-90.54792, 42.43597], [-90.54791, 42.4398], [-90.54825, 42.44075], [-90.54971, 42.44085], [-90.55078, 42.44132], [-90.54994, 42.44029]]], [[[-90.56175, 42.44135], [-90.56277, 42.44246], [-90.5638, 42.44357], [-90.56139, 42.44352], [-90.56086, 42.44038], [-90.56175, 42.44135]]], [[[-90.54497, 42.44018], [-90.54552, 42.44211], [-90.54584, 42.44243], [-90.54703, 42.44295], [-90.54876, 42.44294], [-90.54883, 42.44325], [-90.54507, 42.44317], [-90.54484, 42.44294], [-90.54496, 42.44006], [-90.54497, 42.44018]]]]}, "properties": {"kind": "pv", "area_km2": 0.72, "mw": 35.9}}, {"type": "Feature", "geometry": {"type": "Point", "coordinates": [-90.55203, 42.44958]}, "properties": {"kind": "turbine", "i": 0, "mw": 6.0, "hub_m": 120.0, "rotor_m": 150.0}}, {"type": "Feature", "geometry": {"type": "Point", "coordinates": [-90.56534, 42.44987]}, "properties": {"kind": "turbine", "i": 1, "mw": 6.0, "hub_m": 120.0, "rotor_m": 150.0}}, {"type": "Feature", "geometry": {"type": "Point", "coordinates": [-90.54811, 42.43635]}, "properties": {"kind": "turbine", "i": 2, "mw": 6.0, "hub_m": 120.0, "rotor_m": 150.0}}, {"type": "Feature", "geometry": {"type": "Point", "coordinates": [-90.53872, 42.4493]}, "properties": {"kind": "turbine", "i": 3, "mw": 6.0, "hub_m": 120.0, "rotor_m": 150.0}}]}