{"type": "FeatureCollection", "features": [{"type": "Feature", "geometry": {"type": "MultiPolygon", "coordinates": [[[[-90.55282, 42.50661], [-90.55029, 42.50618], [-90.54821, 42.50661], [-90.54823, 42.50587], [-90.5499, 42.50606], [-90.54991, 42.50569], [-90.54824, 42.50518], [-90.54824, 42.50246], [-90.55109, 42.5031], [-90.55174, 42.50348], [-90.55286, 42.50504], [-90.55282, 42.50661]], [[-90.55059, 42.50312], [-90.55037, 42.50312], [-90.55058, 42.50333], [-90.55059, 42.50312]]], [[[-90.55918, 42.50585], [-90.55807, 42.50584], [-90.55779, 42.5037], [-90.55536, 42.50068], [-90.55778, 42.49987], [-90.55665, 42.5008], [-90.55857, 42.49957], [-90.56303, 42.49832], [-90.56229, 42.49826], [-90.56307, 42.49688], [-90.56306, 42.49369], [-90.5623, 42.49252], [-90.56071, 42.49196], [-90.55901, 42.49228], [-90.55796, 42.49332], [-90.55785, 42.4957], [-90.55534, 42.49612], [-90.55003, 42.49883], [-90.54754, 42.49824], [-90.54521, 42.49684], [-90.54293, 42.4966], [-90.54297, 42.49317], [-90.54932, 42.49326], [-90.55108, 42.49266], [-90.552, 42.49152], [-90.55304, 42.48601], [-90.55457, 42.486], [-90.5554, 42.48694], [-90.55679, 42.48739], [-90.55828, 42.48718], [-90.55936, 42.4864], [-90.56082, 42.48358], [-90.55971, 42.48206], [-90.55978, 42.48002], [-90.55851, 42.47788], [-90.5607, 42.47466], [-90.56343, 42.47174], [-90.56386, 42.46852], [-90.5648, 42.46629], [-90.56477, 42.46487], [-90.57517, 42.46412], [-90.57508, 42.468], [-90.57722, 42.46862], [-90.57852, 42.46669], [-90.57736, 42.4658], [-90.57714, 42.46512], [-90.57963, 42.46745], [-90.58014, 42.46971], [-90.57758, 42.47244], [-90.57704, 42.47425], [-90.5779, 42.47619], [-90.5799, 42.47739], [-90.57677, 42.47855], [-90.5753, 42.48006], [-90.57378, 42.48032], [-90.57225, 42.48108], [-90.57122, 42.48222], [-90.57083, 42.48379], [-90.56975, 42.48487], [-90.56928, 42.48608], [-90.56736, 42.48672], [-90.56589, 42.48804], [-90.56543, 42.48971], [-90.56593, 42.49118], [-90.56706, 42.49234], [-90.56899, 42.49312], [-90.56931, 42.4936], [-90.56921, 42.49316], [-90.56996, 42.49325], [-90.57029, 42.49497], [-90.56857, 42.4938], [-90.56764, 42.49462], [-90.56671, 42.49428], [-90.56538, 42.49482], [-90.56484, 42.49546], [-90.56523, 42.49629], [-90.56458, 42.49705], [-90.56469, 42.49788], [-90.5652, 42.49815], [-90.56437, 42.49887], [-90.56311, 42.49892], [-90.5627, 42.49922], [-90.56423, 42.49922], [-90.56543, 42.50057], [-90.5637, 42.50131], [-90.56183, 42.50412], [-90.56049, 42.50468], [-90.55918, 42.50585]], [[-90.56288, 42.48852], [-90.56408, 42.48785], [-90.56399, 42.48764], [-90.56255, 42.48764], [-90.56244, 42.48821], [-90.56288, 42.48852]], [[-90.55494, 42.48811], [-90.5538, 42.48855], [-90.55515, 42.48891], [-90.55491, 42.49026], [-90.55684, 42.49039], [-90.56041, 42.4882], [-90.5604, 42.48766], [-90.55524, 42.48751], [-90.55494, 42.48811]], [[-90.55572, 42.49509], [-90.55603, 42.495], [-90.55606, 42.49452], [-90.555, 42.49488], [-90.55572, 42.49509]]], [[[-90.56858, 42.5015], [-90.56758, 42.50081], [-90.5661, 42.50054], [-90.5668, 42.5002], [-90.56608, 42.50003], [-90.56562, 42.499], [-90.56591, 42.4979], [-90.56771, 42.49835], [-90.56603, 42.4973], [-90.56631, 42.49554], [-90.56733, 42.49591], [-90.56784, 42.49491], [-90.56875, 42.49459], [-90.57032, 42.49518], [-90.57072, 42.49673], [-90.57036, 42.4973], [-90.56897, 42.49785], [-90.56871, 42.49867], [-90.56978, 42.49836], [-90.57039, 42.49882], [-90.57032, 42.49797], [-90.57095, 42.49673], [-90.57195, 42.49677], [-90.57143, 42.49847], [-90.57177, 42.49986], [-90.57127, 42.50055], [-90.57037, 42.50037], [-90.57035, 42.50163], [-90.57111, 42.5009], [-90.57096, 42.50215], [-90.57058, 42.5025], [-90.56858, 42.5015]]], [[[-90.57181, 42.45717], [-90.57074, 42.45744], [-90.57042, 42.45607], [-90.56919, 42.45519], [-90.56652, 42.455], [-90.56416, 42.45349], [-90.56157, 42.45326], [-90.562, 42.44896], [-90.56142, 42.44643], [-90.56207, 42.44549], [-90.56289, 42.44545], [-90.56431, 42.44663], [-90.56908, 42.45168], [-90.57265, 42.45446], [-90.57189, 42.45564], [-90.57181, 42.45717]]], [[[-90.58432, 42.45647], [-90.58316, 42.45521], [-90.58413, 42.4541], [-90.58415, 42.4529], [-90.58551, 42.45181], [-90.58602, 42.45068], [-90.58653, 42.45166], [-90.58518, 42.45482], [-90.58521, 42.45692], [-90.58432, 42.45647]]], [[[-90.64155, 42.46215], [-90.64154, 42.45487], [-90.63206, 42.45485], [-90.63211, 42.45096], [-90.63102, 42.45096], [-90.631, 42.44992], [-90.63358, 42.45123], [-90.63595, 42.45083], [-90.63709, 42.44995], [-90.63752, 42.44889], [-90.63722, 42.44785], [-90.63636, 42.44708], [-90.64045, 42.44731], [-90.6433, 42.44708], [-90.64391, 42.44946], [-90.6462, 42.45094], [-90.64544, 42.4532], [-90.64448, 42.45373], [-90.64392, 42.45457], [-90.64406, 42.45569], [-90.64493, 42.45652], [-90.64298, 42.46216], [-90.64155, 42.46215]]], [[[-90.64231, 42.42256], [-90.64175, 42.42317], [-90.63997, 42.42158], [-90.63856, 42.42132], [-90.63726, 42.42153], [-90.63577, 42.42265], [-90.6354, 42.42489], [-90.63616, 42.42604], [-90.63786, 42.4267], [-90.64032, 42.42644], [-90.64172, 42.42539], [-90.64263, 42.42689], [-90.64431, 42.42758], [-90.6455, 42.43156], [-90.64469, 42.43268], [-90.64451, 42.43428], [-90.64503, 42.43527], [-90.64628, 42.43609], [-90.64675, 42.4419], [-90.64027, 42.43589], [-90.6341, 42.43285], [-90.63242, 42.42921], [-90.62921, 42.42579], [-90.6293, 42.42484], [-90.63071, 42.42221], [-90.63105, 42.42022], [-90.63319, 42.41956], [-90.63528, 42.41826], [-90.63625, 42.41927], [-90.63794, 42.41963], [-90.63935, 42.41924], [-90.64029, 42.41817], [-90.64231, 42.42256]]], [[[-90.61422, 42.49407], [-90.61417, 42.49374], [-90.61523, 42.49221], [-90.61526, 42.49277], [-90.61617, 42.49301], [-90.61422, 42.49407]]], [[[-90.61667, 42.49265], [-90.61616, 42.49266], [-90.61617, 42.4921], [-90.61642, 42.49174], [-90.61722, 42.49174], [-90.61667, 42.49265]]], [[[-90.61829, 42.49085], [-90.61675, 42.48995], [-90.61781, 42.48927], [-90.61863, 42.48959], [-90.61879, 42.49058], [-90.61829, 42.49085]]], [[[-90.61908, 42.4882], [-90.61883, 42.488], [-90.6189, 42.48785], [-90.61917, 42.48808], [-90.61908, 42.4882]]], [[[-90.61935, 42.48785], [-90.619, 42.48757], [-90.61905, 42.48606], [-90.61941, 42.48608], [-90.6179, 42.48418], [-90.62073, 42.48421], [-90.62046, 42.4838], [-90.62092, 42.48423], [-90.62189, 42.48438], [-90.62122, 42.48411], [-90.62164, 42.48359], [-90.61924, 42.48368], [-90.62172, 42.48324], [-90.62186, 42.48278], [-90.62253, 42.48427], [-90.6217, 42.48623], [-90.61935, 42.48785]]], [[[-90.61834, 42.48369], [-90.61774, 42.48405], [-90.61728, 42.48372], [-90.61739, 42.48358], [-90.61834, 42.48369]]], [[[-90.61537, 42.49082], [-90.61542, 42.49107], [-90.61535, 42.49137], [-90.61533, 42.491], [-90.61537, 42.49082]]], [[[-90.60422, 42.48983], [-90.60314, 42.4917], [-90.60372, 42.49424], [-90.60167, 42.49443], [-90.59975, 42.49537], [-90.5985, 42.49745], [-90.59913, 42.49982], [-90.59678, 42.4997], [-90.59679, 42.49826], [-90.59507, 42.4961], [-90.59503, 42.49355], [-90.59379, 42.49212], [-90.59201, 42.49109], [-90.59307, 42.48944], [-90.59376, 42.48677], [-90.59601, 42.48524], [-90.59661, 42.48438], [-90.59862, 42.48629], [-90.60308, 42.48761], [-90.60422, 42.48983]]], [[[-90.59226, 42.48137], [-90.59092, 42.4831], [-90.58958, 42.48353], [-90.59021, 42.48174], [-90.58968, 42.47995], [-90.59226, 42.48137]]], [[[-90.58823, 42.47833], [-90.58861, 42.47893], [-90.58724, 42.47831], [-90.58772, 42.47834], [-90.58823, 42.47833]]], [[[-90.58716, 42.48839], [-90.58675, 42.48912], [-90.58519, 42.48977], [-90.58484, 42.48957], [-90.58193, 42.49162], [-90.58066, 42.49075], [-90.5826, 42.48919], [-90.58716, 42.48839]]], [[[-90.58814, 42.50002], [-90.58903, 42.50077], [-90.58979, 42.5025], [-90.58741, 42.50312], [-90.58564, 42.50457], [-90.58529, 42.50182], [-90.58451, 42.50146], [-90.58493, 42.50215], [-90.58107, 42.49989], [-90.58199, 42.49915], [-90.58253, 42.49928], [-90.58211, 42.49977], [-90.58355, 42.49954], [-90.58599, 42.50025], [-90.58814, 42.50002]]], [[[-90.58594, 42.47803], [-90.58441, 42.47811], [-90.58295, 42.47762], [-90.58439, 42.47719], [-90.58594, 42.47803]]], [[[-90.59751, 42.44027], [-90.59758, 42.44384], [-90.59612, 42.4423], [-90.59685, 42.44038], [-90.59596, 42.43748], [-90.59486, 42.43638], [-90.59296, 42.43548], [-90.59134, 42.43288], [-90.59729, 42.43186], [-90.59939, 42.43299], [-90.59961, 42.43604], [-90.60061, 42.43747], [-90.60242, 42.43828], [-90.6057, 42.43845], [-90.60744, 42.43969], [-90.60622, 42.44044], [-90.60565, 42.44162], [-90.60599, 42.44278], [-90.60733, 42.44398], [-90.60591, 42.44538], [-90.60243, 42.44401], [-90.60226, 42.44026], [-90.59751, 42.44027]]], [[[-90.61162, 42.44233], [-90.61168, 42.44215], [-90.61287, 42.4424], [-90.61157, 42.44241], [-90.61162, 42.44233]]], [[[-90.62452, 42.44389], [-90.62449, 42.44105], [-90.62672, 42.44222], [-90.62916, 42.44232], [-90.63027, 42.4448], [-90.62686, 42.4448], [-90.62689, 42.44393], [-90.62452, 42.44389]]], [[[-90.63181, 42.44602], [-90.63181, 42.44594], [-90.63308, 42.44651], [-90.6319, 42.44698], [-90.63181, 42.44602]]], [[[-90.63099, 42.44917], [-90.63123, 42.44965], [-90.63108, 42.44973], [-90.63099, 42.44971], [-90.63099, 42.44917]]], [[[-90.63109, 42.44785], [-90.63101, 42.44805], [-90.63095, 42.44824], [-90.63093, 42.44763], [-90.63109, 42.44785]]], [[[-90.63549, 42.41115], [-90.63359, 42.41407], [-90.62984, 42.41646], [-90.62745, 42.41412], [-90.62054, 42.41029], [-90.62074, 42.4087], [-90.61936, 42.40686], [-90.61712, 42.40633], [-90.61487, 42.40728], [-90.61505, 42.39225], [-90.6223, 42.39729], [-90.62973, 42.40405], [-90.62787, 42.40445], [-90.62669, 42.4053], [-90.62631, 42.40657], [-90.6269, 42.40771], [-90.62833, 42.40844], [-90.63035, 42.40847], [-90.63181, 42.40793], [-90.63256, 42.40705], [-90.63549, 42.41115]]], [[[-90.62224, 42.42617], [-90.62401, 42.42608], [-90.62498, 42.42837], [-90.62783, 42.43105], [-90.62218, 42.43107], [-90.62064, 42.4314], [-90.61872, 42.4332], [-90.61873, 42.43414], [-90.61933, 42.43496], [-90.6214, 42.43558], [-90.62322, 42.43492], [-90.627, 42.43491], [-90.62712, 42.43606], [-90.62829, 42.43703], [-90.62952, 42.43727], [-90.63183, 42.43698], [-90.63322, 42.4376], [-90.63524, 42.43785], [-90.6369, 42.43887], [-90.64166, 42.44335], [-90.63581, 42.44322], [-90.63469, 42.44272], [-90.63376, 42.44021], [-90.63258, 42.43906], [-90.63072, 42.43843], [-90.62863, 42.43848], [-90.62651, 42.43737], [-90.62325, 42.43723], [-90.62069, 42.4381], [-90.61921, 42.43761], [-90.61762, 42.43754], [-90.61475, 42.43876], [-90.61323, 42.43847], [-90.60838, 42.43511], [-90.60457, 42.43456], [-90.60434, 42.43158], [-90.60267, 42.42998], [-90.61464, 42.42226], [-90.61629, 42.41931], [-90.62357, 42.41674], [-90.62558, 42.41892], [-90.62584, 42.42017], [-90.62551, 42.42161], [-90.62405, 42.42105], [-90.62221, 42.42116], [-90.6203, 42.42235], [-90.61957, 42.42353], [-90.62011, 42.4251], [-90.62224, 42.42617]]], [[[-90.6089, 42.41182], [-90.61086, 42.41078], [-90.6187, 42.41408], [-90.61283, 42.41639], [-90.61141, 42.4177], [-90.6106, 42.4198], [-90.59864, 42.42751], [-90.58925, 42.42926], [-90.58623, 42.42631], [-90.58137, 42.4234], [-90.58145, 42.42225], [-90.58279, 42.42118], [-90.58339, 42.41994], [-90.58553, 42.41831], [-90.58659, 42.41652], [-90.59148, 42.41659], [-90.59057, 42.41844], [-90.59131, 42.42054], [-90.59198, 42.42124], [-90.59134, 42.42223], [-90.59153, 42.42348], [-90.59335, 42.42497], [-90.59466, 42.42515], [-90.59595, 42.4249], [-90.59737, 42.42386], [-90.59778, 42.42266], [-90.59745, 42.42161], [-90.59617, 42.42066], [-90.59649, 42.41972], [-90.59615, 42.41874], [-90.59725, 42.41779], [-90.59758, 42.41663], [-90.60026, 42.41237], [-90.60237, 42.41123], [-90.60137, 42.41236], [-90.60142, 42.41348], [-90.60252, 42.4145], [-90.60424, 42.41477], [-90.60561, 42.4143], [-90.6089, 42.41182]]], [[[-90.55407, 42.44271], [-90.55444, 42.44276], [-90.55368, 42.44331], [-90.55409, 42.44388], [-90.55193, 42.44389], [-90.55131, 42.44179], [-90.55407, 42.44271]]], [[[-90.55057, 42.44102], [-90.55078, 42.44132], [-90.54971, 42.44085], [-90.54825, 42.44075], [-90.54792, 42.43597], [-90.54865, 42.4363], [-90.54851, 42.43792], [-90.55057, 42.44102]]], [[[-90.53957, 42.43198], [-90.53951, 42.43161], [-90.54071, 42.43195], [-90.54291, 42.43343], [-90.54273, 42.43909], [-90.54143, 42.43697], [-90.5399, 42.43613], [-90.53853, 42.43462], [-90.53847, 42.43392], [-90.53932, 42.43301], [-90.53957, 42.43198]]], [[[-90.54819, 42.4477], [-90.54839, 42.44739], [-90.54975, 42.44774], [-90.55275, 42.44774], [-90.55275, 42.45106], [-90.5532, 42.4523], [-90.55263, 42.45347], [-90.5527, 42.45519], [-90.55403, 42.45651], [-90.55652, 42.45682], [-90.55748, 42.46025], [-90.55152, 42.46013], [-90.55276, 42.45855], [-90.55288, 42.45662], [-90.55162, 42.45495], [-90.55153, 42.45344], [-90.54998, 42.45221], [-90.54947, 42.45084], [-90.54715, 42.44966], [-90.54819, 42.4477]]], [[[-90.54991, 42.46444], [-90.55002, 42.46406], [-90.55103, 42.46419], [-90.55197, 42.46499], [-90.55027, 42.465], [-90.54991, 42.46444]]], [[[-90.55136, 42.46542], [-90.55059, 42.4655], [-90.55206, 42.46518], [-90.55222, 42.46541], [-90.55136, 42.46542]]], [[[-90.55642, 42.469], [-90.55786, 42.46714], [-90.5581, 42.46599], [-90.55947, 42.46488], [-90.55963, 42.46573], [-90.55873, 42.4678], [-90.55847, 42.47039], [-90.55466, 42.47467], [-90.55369, 42.4747], [-90.55338, 42.47379], [-90.55386, 42.47238], [-90.55606, 42.46995], [-90.55642, 42.469]]], [[[-90.54748, 42.48524], [-90.54793, 42.48516], [-90.54746, 42.48752], [-90.5472, 42.48642], [-90.5468, 42.48642], [-90.54737, 42.48801], [-90.54714, 42.48941], [-90.54135, 42.48927], [-90.53955, 42.48843], [-90.53912, 42.48687], [-90.53825, 42.48589], [-90.54095, 42.4858], [-90.54266, 42.48493], [-90.54748, 42.48524]]], [[[-90.53162, 42.48246], [-90.53125, 42.48274], [-90.524, 42.48186], [-90.51828, 42.4818], [-90.51828, 42.47844], [-90.52965, 42.47839], [-90.53127, 42.47778], [-90.53198, 42.4764], [-90.53134, 42.47519], [-90.5298, 42.47456], [-90.51831, 42.47458], [-90.51835, 42.4717], [-90.5194, 42.47103], [-90.51984, 42.46995], [-90.51939, 42.46888], [-90.51839, 42.46823], [-90.51842, 42.46451], [-90.53133, 42.46441], [-90.53495, 42.46495], [-90.53599, 42.46591], [-90.53781, 42.46618], [-90.53783, 42.46819], [-90.53881, 42.46939], [-90.54152, 42.47052], [-90.54312, 42.47163], [-90.54784, 42.47231], [-90.54784, 42.47524], [-90.54692, 42.47761], [-90.54513, 42.47952], [-90.5447, 42.48077], [-90.5398, 42.48016], [-90.53736, 42.48155], [-90.53356, 42.48177], [-90.53162, 42.48246]]], [[[-90.54414, 42.467], [-90.54431, 42.46712], [-90.54469, 42.46732], [-90.54413, 42.46715], [-90.54414, 42.467]]], [[[-90.54237, 42.45986], [-90.54251, 42.46027], [-90.53907, 42.46103], [-90.53523, 42.46017], [-90.52851, 42.45977], [-90.5288, 42.45683], [-90.52786, 42.45595], [-90.52641, 42.45561], [-90.52496, 42.45592], [-90.5241, 42.45661], [-90.52335, 42.45826], [-90.5233, 42.46011], [-90.51842, 42.46013], [-90.51853, 42.44972], [-90.52429, 42.44985], [-90.52661, 42.45116], [-90.53016, 42.45129], [-90.53281, 42.45199], [-90.53541, 42.45152], [-90.53715, 42.45027], [-90.53782, 42.44899], [-90.53767, 42.44731], [-90.5368, 42.44613], [-90.53466, 42.44485], [-90.53572, 42.4437], [-90.53609, 42.44235], [-90.53574, 42.44072], [-90.53449, 42.43942], [-90.53509, 42.43868], [-90.53699, 42.4398], [-90.53739, 42.44158], [-90.53857, 42.44367], [-90.53977, 42.4443], [-90.5416, 42.44437], [-90.54214, 42.44475], [-90.54215, 42.44671], [-90.54092, 42.44788], [-90.54077, 42.44937], [-90.54182, 42.45195], [-90.54302, 42.45294], [-90.54454, 42.45353], [-90.54509, 42.45462], [-90.54358, 42.45614], [-90.54237, 42.45986]]], [[[-90.52818, 42.43939], [-90.52684, 42.44075], [-90.5265, 42.4424], [-90.52457, 42.44392], [-90.52385, 42.44598], [-90.51856, 42.44586], [-90.51873, 42.43107], [-90.52051, 42.43136], [-90.52221, 42.43083], [-90.52319, 42.42963], [-90.52309, 42.42836], [-90.52444, 42.42717], [-90.52565, 42.42701], [-90.52859, 42.42861], [-90.52763, 42.4296], [-90.52746, 42.4317], [-90.52932, 42.43438], [-90.53018, 42.43709], [-90.52898, 42.43799], [-90.52818, 42.43939]]], [[[-90.50498, 42.4171], [-90.50479, 42.41669], [-90.5214, 42.42397], [-90.5196, 42.42481], [-90.51891, 42.42573], [-90.5168, 42.42623], [-90.51458, 42.42791], [-90.51168, 42.4278], [-90.51029, 42.42824], [-90.50936, 42.42974], [-90.51035, 42.43123], [-90.50874, 42.43121], [-90.50867, 42.42766], [-90.5065, 42.42453], [-90.50498, 42.42376], [-90.5029, 42.42363], [-90.50343, 42.42054], [-90.50501, 42.41851], [-90.50498, 42.4171]]], [[[-90.49918, 42.431], [-90.49806, 42.4305], [-90.49885, 42.42896], [-90.49855, 42.4262], [-90.50028, 42.42729], [-90.50252, 42.42748], [-90.50366, 42.42911], [-90.50353, 42.43115], [-90.49918, 42.431]]], [[[-90.49804, 42.44088], [-90.49877, 42.4393], [-90.49775, 42.43781], [-90.49991, 42.43609], [-90.50071, 42.43497], [-90.51345, 42.43512], [-90.5132, 42.46016], [-90.50679, 42.45987], [-90.49735, 42.45594], [-90.4976, 42.45533], [-90.49969, 42.45446], [-90.50031, 42.45324], [-90.49947, 42.44942], [-90.50048, 42.44792], [-90.50038, 42.44432], [-90.49804, 42.44088]], [[-90.50141, 42.44622], [-90.50182, 42.44787], [-90.50383, 42.44885], [-90.5061, 42.44849], [-90.50736, 42.4471], [-90.50687, 42.44533], [-90.50485, 42.44435], [-90.50269, 42.44473], [-90.50141, 42.44622]]], [[[-90.49586, 42.46131], [-90.49622, 42.46052], [-90.49674, 42.46051], [-90.49901, 42.46143], [-90.50208, 42.4633], [-90.50521, 42.46431], [-90.5132, 42.46454], [-90.51312, 42.47256], [-90.51123, 42.47309], [-90.51043, 42.47444], [-90.50823, 42.47488], [-90.50734, 42.4762], [-90.50767, 42.47729], [-90.50877, 42.47806], [-90.51306, 42.47824], [-90.51306, 42.47905], [-90.51126, 42.4803], [-90.51105, 42.48179], [-90.5079, 42.48094], [-90.50645, 42.4809], [-90.50438, 42.48176], [-90.50309, 42.48354], [-90.49757, 42.48323], [-90.49579, 42.48371], [-90.48979, 42.47914], [-90.49291, 42.47788], [-90.49433, 42.47638], [-90.49455, 42.4744], [-90.49271, 42.47228], [-90.49282, 42.47025], [-90.49683, 42.46807], [-90.4979, 42.46682], [-90.49751, 42.46284], [-90.49586, 42.46131]]], [[[-90.48594, 42.476], [-90.48554, 42.47631], [-90.48257, 42.47616], [-90.47677, 42.47297], [-90.47449, 42.4692], [-90.47696, 42.46737], [-90.47738, 42.46504], [-90.47606, 42.46394], [-90.47385, 42.46317], [-90.47212, 42.46326], [-90.47122, 42.46262], [-90.46898, 42.45609], [-90.48385, 42.45806], [-90.48397, 42.45917], [-90.48233, 42.4619], [-90.48316, 42.46378], [-90.48546, 42.46473], [-90.48806, 42.46464], [-90.48998, 42.46516], [-90.49189, 42.46504], [-90.49203, 42.46531], [-90.48829, 42.46714], [-90.48727, 42.46816], [-90.48677, 42.47127], [-90.48572, 42.47344], [-90.4859, 42.47447], [-90.48674, 42.47555], [-90.48594, 42.476]]], [[[-90.4911, 42.45445], [-90.49103, 42.45467], [-90.48905, 42.45452], [-90.47354, 42.4523], [-90.46803, 42.45187], [-90.46755, 42.44883], [-90.46843, 42.45048], [-90.47079, 42.45115], [-90.47273, 42.45043], [-90.4735, 42.44893], [-90.48924, 42.4491], [-90.49082, 42.44854], [-90.49157, 42.44717], [-90.49079, 42.44581], [-90.4892, 42.44526], [-90.46728, 42.44495], [-90.46758, 42.43727], [-90.46931, 42.43771], [-90.47583, 42.43762], [-90.47736, 42.43666], [-90.47755, 42.43526], [-90.47888, 42.43657], [-90.48029, 42.43696], [-90.48198, 42.43659], [-90.48301, 42.43537], [-90.4845, 42.43581], [-90.48598, 42.43565], [-90.4863, 42.43761], [-90.4874, 42.43929], [-90.48962, 42.44123], [-90.49225, 42.44176], [-90.49274, 42.44306], [-90.49469, 42.44516], [-90.49477, 42.44642], [-90.49356, 42.44725], [-90.49304, 42.44832], [-90.49393, 42.45159], [-90.4911, 42.45445]]], [[[-90.48501, 42.43091], [-90.48499, 42.43123], [-90.48325, 42.4308], [-90.46886, 42.43043], [-90.47182, 42.42182], [-90.47361, 42.41843], [-90.47732, 42.4168], [-90.47981, 42.41522], [-90.48496, 42.41657], [-90.48534, 42.41813], [-90.48667, 42.4191], [-90.48899, 42.41958], [-90.49045, 42.41929], [-90.49132, 42.41861], [-90.49167, 42.4177], [-90.49127, 42.41662], [-90.49021, 42.41592], [-90.49037, 42.41511], [-90.49242, 42.41369], [-90.49381, 42.41174], [-90.49394, 42.41052], [-90.49793, 42.41321], [-90.49734, 42.41415], [-90.4973, 42.41533], [-90.49874, 42.41772], [-90.49831, 42.41824], [-90.49532, 42.41855], [-90.49357, 42.41964], [-90.49293, 42.42094], [-90.49226, 42.42479], [-90.48959, 42.42697], [-90.4862, 42.42894], [-90.48501, 42.43091]]], [[[-90.49182, 42.40441], [-90.49187, 42.40438], [-90.49192, 42.40447], [-90.49184, 42.40442], [-90.49182, 42.40441]]], [[[-90.48599, 42.40577], [-90.48944, 42.40799], [-90.48872, 42.41065], [-90.48803, 42.4116], [-90.48706, 42.41187], [-90.48596, 42.41032], [-90.48435, 42.40926], [-90.48291, 42.40886], [-90.47999, 42.40882], [-90.48393, 42.40429], [-90.48599, 42.40577]]], [[[-90.55627, 42.37673], [-90.55602, 42.3864], [-90.55562, 42.38676], [-90.55506, 42.38552], [-90.55408, 42.38466], [-90.55206, 42.38428], [-90.54987, 42.38511], [-90.5488, 42.38667], [-90.54931, 42.38812], [-90.55068, 42.38894], [-90.55317, 42.38925], [-90.5549, 42.38853], [-90.55506, 42.38962], [-90.55427, 42.39063], [-90.55413, 42.39188], [-90.55612, 42.39658], [-90.55433, 42.3989], [-90.55114, 42.39747], [-90.54736, 42.39499], [-90.54687, 42.38953], [-90.54587, 42.38826], [-90.54413, 42.38751], [-90.53978, 42.38731], [-90.53674, 42.38671], [-90.53439, 42.38729], [-90.5298, 42.38741], [-90.52724, 42.38821], [-90.51752, 42.38821], [-90.51563, 42.38745], [-90.51381, 42.38732], [-90.50915, 42.38823], [-90.50625, 42.38818], [-90.51697, 42.38342], [-90.52504, 42.3808], [-90.53342, 42.37878], [-90.54202, 42.37737], [-90.5425, 42.37883], [-90.54378, 42.37968], [-90.546, 42.37973], [-90.54748, 42.37876], [-90.54894, 42.37995], [-90.55068, 42.38025], [-90.55226, 42.37979], [-90.55316, 42.37899], [-90.55359, 42.37656], [-90.55627, 42.37673]]], [[[-90.50902, 42.39335], [-90.50655, 42.39208], [-90.50984, 42.39207], [-90.51352, 42.39121], [-90.51431, 42.3913], [-90.51231, 42.39173], [-90.51115, 42.39314], [-90.50977, 42.39385], [-90.50902, 42.39335]]], [[[-90.51811, 42.39723], [-90.5203, 42.39569], [-90.52246, 42.39621], [-90.52479, 42.39534], [-90.52535, 42.39354], [-90.52372, 42.39197], [-90.5281, 42.39203], [-90.53069, 42.39122], [-90.53521, 42.39112], [-90.53692, 42.39067], [-90.53894, 42.39112], [-90.54199, 42.39121], [-90.54246, 42.39642], [-90.54365, 42.39772], [-90.54879, 42.40093], [-90.54734, 42.40153], [-90.54513, 42.40321], [-90.54472, 42.4041], [-90.54504, 42.40519], [-90.54636, 42.40605], [-90.54787, 42.40614], [-90.5513, 42.40432], [-90.55054, 42.40547], [-90.55082, 42.4068], [-90.55213, 42.40781], [-90.55425, 42.40828], [-90.55579, 42.4079], [-90.55696, 42.40688], [-90.55745, 42.40569], [-90.5572, 42.40467], [-90.55938, 42.4065], [-90.55911, 42.40734], [-90.5582, 42.40796], [-90.5585, 42.40856], [-90.55646, 42.4105], [-90.5564, 42.41158], [-90.55688, 42.41239], [-90.55237, 42.41133], [-90.5306, 42.40432], [-90.51808, 42.39875], [-90.51734, 42.39829], [-90.51811, 42.39723]]], [[[-90.56215, 42.40895], [-90.5618, 42.40833], [-90.56626, 42.40737], [-90.56988, 42.40586], [-90.57375, 42.40604], [-90.57674, 42.40861], [-90.58079, 42.40952], [-90.59225, 42.4077], [-90.59921, 42.40777], [-90.5992, 42.40816], [-90.59557, 42.41022], [-90.59307, 42.41264], [-90.59232, 42.41114], [-90.591, 42.41034], [-90.58876, 42.41016], [-90.58672, 42.41059], [-90.58569, 42.41148], [-90.58538, 42.41276], [-90.58366, 42.41316], [-90.5826, 42.41388], [-90.58108, 42.41625], [-90.57888, 42.41781], [-90.57829, 42.41914], [-90.5769, 42.42019], [-90.57644, 42.42103], [-90.56681, 42.41578], [-90.5606, 42.41338], [-90.56201, 42.41268], [-90.56274, 42.41159], [-90.56292, 42.41025], [-90.56215, 42.40895]]], [[[-90.6062, 42.38766], [-90.6055, 42.38796], [-90.60333, 42.38768], [-90.59988, 42.38896], [-90.59775, 42.39056], [-90.59592, 42.39109], [-90.59518, 42.39193], [-90.59118, 42.39325], [-90.58972, 42.39457], [-90.58279, 42.38997], [-90.58215, 42.38769], [-90.58078, 42.38646], [-90.57928, 42.38295], [-90.57805, 42.38153], [-90.57829, 42.38026], [-90.57985, 42.3787], [-90.58552, 42.37989], [-90.59373, 42.38226], [-90.60158, 42.38522], [-90.60654, 42.38756], [-90.6062, 42.38766]]], [[[-90.57013, 42.37735], [-90.57174, 42.37829], [-90.57373, 42.37834], [-90.57308, 42.38], [-90.57168, 42.37986], [-90.56565, 42.37682], [-90.57013, 42.37735]]], [[[-90.58011, 42.39365], [-90.58021, 42.39345], [-90.58261, 42.39501], [-90.58111, 42.39576], [-90.58056, 42.39699], [-90.58263, 42.39995], [-90.58397, 42.40043], [-90.58562, 42.40034], [-90.58713, 42.39961], [-90.58777, 42.39862], [-90.58828, 42.39976], [-90.58745, 42.40104], [-90.58754, 42.40452], [-90.58119, 42.40566], [-90.57978, 42.4054], [-90.57793, 42.40367], [-90.57806, 42.40144], [-90.57907, 42.39829], [-90.57891, 42.3973], [-90.57849, 42.3966], [-90.57748, 42.39621], [-90.57438, 42.39598], [-90.5722, 42.39653], [-90.57075, 42.39609], [-90.56914, 42.39625], [-90.56791, 42.39697], [-90.56719, 42.39817], [-90.5673, 42.39928], [-90.56816, 42.40029], [-90.5698, 42.40082], [-90.5712, 42.40069], [-90.57282, 42.4016], [-90.57289, 42.40196], [-90.56858, 42.40207], [-90.56381, 42.40388], [-90.56333, 42.40062], [-90.56369, 42.39751], [-90.56268, 42.39625], [-90.56123, 42.39569], [-90.55942, 42.39187], [-90.56033, 42.39025], [-90.56169, 42.39054], [-90.56301, 42.39033], [-90.56413, 42.38965], [-90.56469, 42.38859], [-90.56459, 42.38755], [-90.5639, 42.38662], [-90.56277, 42.38605], [-90.56125, 42.3859], [-90.5615, 42.37941], [-90.56417, 42.38072], [-90.56416, 42.38219], [-90.5649, 42.38219], [-90.56548, 42.38328], [-90.56675, 42.38391], [-90.56677, 42.38516], [-90.56739, 42.38607], [-90.56963, 42.38691], [-90.569, 42.38837], [-90.56989, 42.3899], [-90.57208, 42.39059], [-90.57495, 42.38981], [-90.57591, 42.39057], [-90.57448, 42.39142], [-90.57375, 42.39243], [-90.57376, 42.39359], [-90.5745, 42.39458], [-90.57566, 42.39512], [-90.57721, 42.39518], [-90.57895, 42.39465], [-90.58011, 42.39365]]], [[[-90.52295, 42.50452], [-90.52299, 42.50453], [-90.52292, 42.50451], [-90.52295, 42.50452]]], [[[-90.53048, 42.50173], [-90.5294, 42.50172], [-90.52932, 42.50474], [-90.52972, 42.50526], [-90.52916, 42.50626], [-90.52342, 42.50466], [-90.52402, 42.50405], [-90.52313, 42.50406], [-90.52248, 42.50288], [-90.52245, 42.50179], [-90.52346, 42.50102], [-90.52381, 42.49992], [-90.52571, 42.50026], [-90.52869, 42.50186], [-90.52931, 42.50171], [-90.52671, 42.49982], [-90.52451, 42.49956], [-90.52584, 42.49803], [-90.52757, 42.49833], [-90.5265, 42.49781], [-90.52947, 42.4958], [-90.53087, 42.49226], [-90.53328, 42.49278], [-90.53396, 42.49343], [-90.53528, 42.49367], [-90.53562, 42.49291], [-90.53449, 42.49274], [-90.53768, 42.49204], [-90.5379, 42.49808], [-90.53967, 42.49985], [-90.54119, 42.50036], [-90.54302, 42.50048], [-90.54302, 42.50587], [-90.54024, 42.50586], [-90.53897, 42.50454], [-90.53693, 42.50416], [-90.53489, 42.50476], [-90.53397, 42.50586], [-90.53211, 42.50596], [-90.5304, 42.50652], [-90.53048, 42.50173]], [[-90.53215, 42.49565], [-90.53055, 42.49422], [-90.5305, 42.49526], [-90.53323, 42.49673], [-90.53389, 42.4983], [-90.53464, 42.49858], [-90.53533, 42.49963], [-90.53536, 42.49833], [-90.53458, 42.49825], [-90.53313, 42.49622], [-90.53445, 42.4953], [-90.53307, 42.49592], [-90.53215, 42.49565]]], [[[-90.5234, 42.5], [-90.5221, 42.50217], [-90.52299, 42.50419], [-90.52253, 42.5044], [-90.52159, 42.50413], [-90.52148, 42.50244], [-90.52255, 42.5], [-90.5234, 42.5]]], [[[-90.52134, 42.50169], [-90.52078, 42.50279], [-90.52144, 42.50287], [-90.5214, 42.50407], [-90.51013, 42.49971], [-90.51333, 42.49866], [-90.51419, 42.49948], [-90.51555, 42.49994], [-90.52164, 42.49998], [-90.52134, 42.50169]]], [[[-90.52568, 42.49176], [-90.52492, 42.4939], [-90.52225, 42.49509], [-90.52125, 42.49612], [-90.51794, 42.49612], [-90.51571, 42.49472], [-90.51545, 42.49321], [-90.51477, 42.49231], [-90.5127, 42.49168], [-90.51128, 42.49206], [-90.51048, 42.49279], [-90.51046, 42.49544], [-90.5066, 42.49622], [-90.50718, 42.49529], [-90.506, 42.49527], [-90.50653, 42.49623], [-90.50583, 42.49628], [-90.50201, 42.49498], [-90.50124, 42.49435], [-90.50178, 42.4937], [-90.50291, 42.49332], [-90.50511, 42.49461], [-90.50709, 42.49446], [-90.50741, 42.49409], [-90.50687, 42.49332], [-90.50719, 42.49304], [-90.50546, 42.49307], [-90.50306, 42.49235], [-90.50296, 42.49137], [-90.50373, 42.49094], [-90.50188, 42.49164], [-90.49998, 42.49116], [-90.49904, 42.4901], [-90.49939, 42.48908], [-90.49689, 42.48778], [-90.49827, 42.48721], [-90.50511, 42.48726], [-90.50678, 42.48648], [-90.50786, 42.4851], [-90.51051, 42.48564], [-90.5228, 42.48568], [-90.52663, 42.48599], [-90.52647, 42.48765], [-90.52744, 42.48935], [-90.52627, 42.49033], [-90.52568, 42.49176]], [[-90.51067, 42.48744], [-90.51062, 42.48569], [-90.50972, 42.48564], [-90.50953, 42.48888], [-90.51062, 42.48902], [-90.51067, 42.48744]]], [[[-90.49971, 42.49267], [-90.50025, 42.49277], [-90.50025, 42.49357], [-90.4995, 42.49279], [-90.49971, 42.49267]]], [[[-90.60434, 42.40906], [-90.60454, 42.40951], [-90.60392, 42.41], [-90.60421, 42.40948], [-90.60434, 42.40906]]], [[[-90.60972, 42.39634], [-90.60967, 42.40623], [-90.60052, 42.40403], [-90.59608, 42.40386], [-90.59498, 42.40328], [-90.5931, 42.39822], [-90.59457, 42.39735], [-90.595, 42.39609], [-90.60031, 42.39419], [-90.60265, 42.39224], [-90.60385, 42.39178], [-90.60508, 42.39209], [-90.6067, 42.39196], [-90.60988, 42.39065], [-90.60972, 42.39634]]]]}, "properties": {"kind": "windland", "area_km2": 58.49}}, {"type": "Feature", "geometry": {"type": "MultiPolygon", "coordinates": [[[[-90.56925, 42.4265], [-90.56839, 42.42671], [-90.56854, 42.42627], [-90.56799, 42.42565], [-90.56839, 42.42566], [-90.56886, 42.42604], [-90.5698, 42.42638], [-90.56925, 42.4265]]], [[[-90.56793, 42.42751], [-90.56864, 42.42747], [-90.56973, 42.42827], [-90.5697, 42.42908], [-90.56793, 42.42751]]], [[[-90.5691, 42.43085], [-90.56908, 42.43055], [-90.56934, 42.43085], [-90.5692, 42.43119], [-90.5691, 42.43085]]], [[[-90.566, 42.43347], [-90.56587, 42.43327], [-90.56629, 42.43299], [-90.56617, 42.43264], [-90.56664, 42.43239], [-90.56669, 42.43204], [-90.56632, 42.43021], [-90.56592, 42.42996], [-90.56546, 42.43006], [-90.56534, 42.42963], [-90.56622, 42.42934], [-90.56656, 42.43066], [-90.56744, 42.43206], [-90.56707, 42.43266], [-90.56649, 42.43282], [-90.56639, 42.43319], [-90.56891, 42.43637], [-90.56824, 42.43609], [-90.56792, 42.43621], [-90.56786, 42.43646], [-90.56867, 42.4373], [-90.5704, 42.43836], [-90.56994, 42.43827], [-90.56777, 42.4368], [-90.56631, 42.43565], [-90.56574, 42.43466], [-90.56684, 42.43606], [-90.56724, 42.43617], [-90.56761, 42.43595], [-90.56748, 42.43536], [-90.566, 42.43347]]], [[[-90.56875, 42.43295], [-90.56845, 42.43234], [-90.56862, 42.4318], [-90.56898, 42.43199], [-90.56932, 42.43183], [-90.56958, 42.43218], [-90.56955, 42.43294], [-90.56908, 42.43334], [-90.56874, 42.43321], [-90.56875, 42.43295]]], [[[-90.57318, 42.43476], [-90.57319, 42.43478], [-90.57317, 42.43476], [-90.57318, 42.43476]]], [[[-90.57324, 42.4357], [-90.57294, 42.43556], [-90.5733, 42.43515], [-90.57382, 42.43613], [-90.57324, 42.4357]]], [[[-90.57966, 42.4349], [-90.58102, 42.43493], [-90.58159, 42.43583], [-90.58155, 42.43691], [-90.58071, 42.43649], [-90.57966, 42.4349]]], [[[-90.57407, 42.43646], [-90.57407, 42.43643], [-90.57431, 42.43671], [-90.57402, 42.43665], [-90.57407, 42.43646]]], [[[-90.5784, 42.4417], [-90.57919, 42.44148], [-90.57924, 42.44058], [-90.58043, 42.4399], [-90.58088, 42.43889], [-90.58026, 42.43817], [-90.57964, 42.43789], [-90.57932, 42.43742], [-90.57682, 42.43664], [-90.57622, 42.43675], [-90.57531, 42.43648], [-90.57418, 42.43483], [-90.57463, 42.43504], [-90.57521, 42.43481], [-90.5774, 42.43485], [-90.57848, 42.43582], [-90.57901, 42.43596], [-90.57997, 42.43708], [-90.58151, 42.43795], [-90.58136, 42.44183], [-90.5784, 42.4417]], [[-90.57729, 42.43618], [-90.57784, 42.43659], [-90.57831, 42.43655], [-90.57851, 42.43632], [-90.57836, 42.43603], [-90.57777, 42.43575], [-90.57738, 42.43587], [-90.57729, 42.43618]]], [[[-90.57631, 42.4397], [-90.5766, 42.43923], [-90.57631, 42.4389], [-90.57398, 42.43873], [-90.57355, 42.43893], [-90.57244, 42.43854], [-90.56967, 42.43681], [-90.57001, 42.43667], [-90.57067, 42.43731], [-90.57141, 42.43754], [-90.57166, 42.43798], [-90.5728, 42.43842], [-90.57329, 42.43825], [-90.57314, 42.43769], [-90.57328, 42.43773], [-90.5747, 42.43874], [-90.57524, 42.43852], [-90.57491, 42.43774], [-90.57536, 42.43745], [-90.57586, 42.43808], [-90.57679, 42.43863], [-90.57748, 42.43935], [-90.57801, 42.43915], [-90.57793, 42.43847], [-90.57668, 42.4378], [-90.57636, 42.43744], [-90.57729, 42.43753], [-90.5785, 42.43806], [-90.57826, 42.4386], [-90.57848, 42.43906], [-90.57839, 42.43988], [-90.5774, 42.44004], [-90.57579, 42.43974], [-90.57631, 42.4397]]], [[[-90.57922, 42.43862], [-90.57932, 42.43868], [-90.57931, 42.4389], [-90.57922, 42.43863], [-90.57922, 42.43862]]], [[[-90.57085, 42.4386], [-90.57344, 42.43969], [-90.57347, 42.43995], [-90.57088, 42.43875], [-90.57085, 42.4386]]], [[[-90.57554, 42.44069], [-90.57645, 42.44096], [-90.57737, 42.4415], [-90.57531, 42.44084], [-90.57554, 42.44069]]], [[[-90.56629, 42.44406], [-90.56634, 42.44407], [-90.56642, 42.44418], [-90.56629, 42.44406]]], [[[-90.56742, 42.44583], [-90.56702, 42.44547], [-90.56841, 42.44567], [-90.56904, 42.446], [-90.56898, 42.44755], [-90.56742, 42.44583]]], [[[-90.56609, 42.42569], [-90.56622, 42.42561], [-90.5665, 42.42635], [-90.56623, 42.426], [-90.56609, 42.42569]]], [[[-90.55642, 42.42667], [-90.55633, 42.42739], [-90.55408, 42.4254], [-90.55323, 42.42559], [-90.55236, 42.42547], [-90.55138, 42.42585], [-90.55178, 42.4253], [-90.55595, 42.42539], [-90.55642, 42.42667]]], [[[-90.55591, 42.43034], [-90.55604, 42.43026], [-90.55628, 42.43115], [-90.55578, 42.43038], [-90.55591, 42.43034]]], [[[-90.56187, 42.43061], [-90.56236, 42.43051], [-90.5622, 42.43139], [-90.56195, 42.43088], [-90.56187, 42.43061]]], [[[-90.55453, 42.43079], [-90.55456, 42.43081], [-90.5545, 42.43079], [-90.55453, 42.43079]]], [[[-90.56496, 42.43154], [-90.565, 42.432], [-90.56442, 42.43058], [-90.56497, 42.43134], [-90.56496, 42.43154]]], [[[-90.55635, 42.43273], [-90.55625, 42.43252], [-90.55644, 42.43247], [-90.55635, 42.43273]]], [[[-90.55584, 42.43348], [-90.55614, 42.43345], [-90.55623, 42.4342], [-90.55561, 42.43424], [-90.55499, 42.4337], [-90.55532, 42.43347], [-90.55527, 42.43315], [-90.55362, 42.43207], [-90.55469, 42.4327], [-90.55536, 42.4327], [-90.55533, 42.4332], [-90.55584, 42.43348]]], [[[-90.5588, 42.43478], [-90.55875, 42.4347], [-90.55848, 42.43425], [-90.55863, 42.43449], [-90.5588, 42.43478]]], [[[-90.55651, 42.43505], [-90.55661, 42.43509], [-90.55684, 42.4354], [-90.55639, 42.4351], [-90.55651, 42.43505]]], [[[-90.55524, 42.43785], [-90.55227, 42.43539], [-90.54527, 42.43204], [-90.54539, 42.42901], [-90.55253, 42.43307], [-90.56083, 42.44034], [-90.55782, 42.44023], [-90.55524, 42.43785]]], [[[-90.56277, 42.44246], [-90.56446, 42.44425], [-90.56696, 42.44641], [-90.56894, 42.4486], [-90.56883, 42.45144], [-90.56516, 42.4474], [-90.56289, 42.44545], [-90.56332, 42.44544], [-90.56337, 42.44488], [-90.56144, 42.44383], [-90.56086, 42.44038], [-90.56277, 42.44246]]], [[[-90.55634, 42.45226], [-90.55571, 42.45088], [-90.55568, 42.44576], [-90.55506, 42.44552], [-90.54995, 42.44551], [-90.54936, 42.44261], [-90.54883, 42.4424], [-90.54703, 42.44239], [-90.54621, 42.44191], [-90.54569, 42.44008], [-90.5457, 42.43413], [-90.54552, 42.43391], [-90.5452, 42.43389], [-90.54524, 42.43273], [-90.55207, 42.43597], [-90.55594, 42.43949], [-90.55563, 42.43967], [-90.55465, 42.43918], [-90.55413, 42.43912], [-90.55356, 42.43952], [-90.55304, 42.43956], [-90.55273, 42.43989], [-90.55292, 42.44039], [-90.55373, 42.44076], [-90.5529, 42.44124], [-90.55472, 42.44285], [-90.55425, 42.44305], [-90.55444, 42.44276], [-90.55284, 42.44248], [-90.55131, 42.44179], [-90.55172, 42.44257], [-90.55193, 42.44389], [-90.55409, 42.44388], [-90.55409, 42.44369], [-90.55563, 42.44514], [-90.55779, 42.44541], [-90.55802, 42.44574], [-90.55902, 42.4488], [-90.55851, 42.45246], [-90.55633, 42.45242], [-90.55634, 42.45226]], [[-90.5519, 42.43713], [-90.5512, 42.43692], [-90.55089, 42.43708], [-90.55087, 42.43735], [-90.55111, 42.43756], [-90.55148, 42.43758], [-90.55182, 42.43744], [-90.5519, 42.43713]], [[-90.55197, 42.43923], [-90.55241, 42.43936], [-90.5533, 42.43916], [-90.55393, 42.4388], [-90.55388, 42.43832], [-90.553, 42.43784], [-90.55209, 42.43796], [-90.55167, 42.43851], [-90.55197, 42.43923]], [[-90.5496, 42.43982], [-90.54921, 42.43877], [-90.54842, 42.43768], [-90.54836, 42.43707], [-90.54865, 42.4363], [-90.54792, 42.43597], [-90.54791, 42.4398], [-90.54825, 42.44075], [-90.54971, 42.44085], [-90.55078, 42.44132], [-90.5496, 42.43982]]], [[[-90.55958, 42.4508], [-90.55975, 42.44877], [-90.55934, 42.44709], [-90.56119, 42.44674], [-90.5613, 42.4455], [-90.5621, 42.44548], [-90.56142, 42.44643], [-90.562, 42.44896], [-90.56148, 42.45253], [-90.55923, 42.45248], [-90.55958, 42.4508]]], [[[-90.54771, 42.42551], [-90.54703, 42.42527], [-90.54671, 42.4252], [-90.54866, 42.42524], [-90.54855, 42.42588], [-90.54771, 42.42551]]], [[[-90.55021, 42.42669], [-90.55091, 42.42695], [-90.551, 42.42745], [-90.54943, 42.42635], [-90.5497, 42.42584], [-90.55021, 42.42669]]], [[[-90.55631, 42.42779], [-90.55639, 42.42765], [-90.55639, 42.42848], [-90.55353, 42.42848], [-90.55218, 42.42822], [-90.55126, 42.42765], [-90.55237, 42.42785], [-90.55242, 42.42813], [-90.55287, 42.42831], [-90.55413, 42.42806], [-90.55452, 42.4276], [-90.5554, 42.4279], [-90.55631, 42.42779]]], [[[-90.54615, 42.42848], [-90.54624, 42.42808], [-90.54556, 42.42754], [-90.54587, 42.42733], [-90.54576, 42.42698], [-90.54647, 42.42698], [-90.54664, 42.42746], [-90.54632, 42.4279], [-90.5466, 42.42883], [-90.54615, 42.42848]]], [[[-90.54897, 42.42856], [-90.5483, 42.42841], [-90.54788, 42.42734], [-90.5522, 42.43], [-90.55174, 42.43035], [-90.54897, 42.42856]]], [[[-90.5445, 42.44278], [-90.54366, 42.44255], [-90.54179, 42.44138], [-90.54083, 42.44134], [-90.54043, 42.44082], [-90.54038, 42.43966], [-90.53943, 42.43806], [-90.5382, 42.43757], [-90.53709, 42.43611], [-90.53656, 42.43604], [-90.53623, 42.43618], [-90.536, 42.43397], [-90.53848, 42.43402], [-90.53853, 42.43462], [-90.53927, 42.43521], [-90.5399, 42.43613], [-90.54104, 42.43665], [-90.54159, 42.43715], [-90.54273, 42.43909], [-90.54272, 42.43412], [-90.54497, 42.43416], [-90.54496, 42.44013], [-90.54553, 42.44213], [-90.54676, 42.4429], [-90.54877, 42.44294], [-90.54919, 42.44559], [-90.54958, 42.44598], [-90.55027, 42.44611], [-90.55507, 42.44607], [-90.55495, 42.45054], [-90.55559, 42.4524], [-90.55317, 42.45235], [-90.55271, 42.45066], [-90.55275, 42.44774], [-90.54975, 42.44774], [-90.54839, 42.44739], [-90.54767, 42.44817], [-90.54713, 42.44918], [-90.54715, 42.44966], [-90.54824, 42.44997], [-90.54917, 42.45054], [-90.54974, 42.45124], [-90.55013, 42.45228], [-90.5475, 42.45223], [-90.54714, 42.45162], [-90.54542, 42.45124], [-90.54473, 42.45086], [-90.54454, 42.45068], [-90.54463, 42.44843], [-90.54509, 42.44812], [-90.5455, 42.44702], [-90.54614, 42.44657], [-90.54598, 42.44626], [-90.54531, 42.44599], [-90.54603, 42.44584], [-90.54622, 42.44546], [-90.54596, 42.44517], [-90.5455, 42.44512], [-90.54577, 42.44456], [-90.54525, 42.44416], [-90.54503, 42.44311], [-90.5445, 42.44278]]], [[[-90.53363, 42.4344], [-90.53355, 42.43392], [-90.53516, 42.43395], [-90.53545, 42.43664], [-90.53599, 42.43696], [-90.53672, 42.43671], [-90.53768, 42.43796], [-90.53882, 42.43838], [-90.53968, 42.43983], [-90.53972, 42.44095], [-90.54043, 42.44246], [-90.54076, 42.4426], [-90.54124, 42.4425], [-90.54135, 42.44182], [-90.54367, 42.44314], [-90.53801, 42.44302], [-90.53731, 42.44138], [-90.53725, 42.44027], [-90.53699, 42.4398], [-90.53509, 42.43868], [-90.53449, 42.43942], [-90.53531, 42.44011], [-90.5359, 42.44105], [-90.53601, 42.44298], [-90.53269, 42.44291], [-90.53282, 42.43954], [-90.53377, 42.43831], [-90.53421, 42.43674], [-90.53363, 42.4344]]], [[[-90.54504, 42.44468], [-90.54505, 42.4447], [-90.54477, 42.44486], [-90.54478, 42.44461], [-90.54504, 42.44468]]], [[[-90.54474, 42.44557], [-90.5448, 42.4456], [-90.54474, 42.44564], [-90.54474, 42.44557]]], [[[-90.54518, 42.44653], [-90.54491, 42.44669], [-90.54468, 42.44714], [-90.54471, 42.44638], [-90.54518, 42.44653]]], [[[-90.54547, 42.45183], [-90.54661, 42.45202], [-90.54677, 42.45221], [-90.54448, 42.45216], [-90.54451, 42.45147], [-90.54547, 42.45183]]]]}, "properties": {"kind": "pv", "area_km2": 3.02, "mw": 151.1}}, {"type": "Feature", "geometry": {"type": "Point", "coordinates": [-90.55203, 42.44958]}, "properties": {"kind": "turbine", "i": 0, "mw": 6.0, "hub_m": 120.0, "rotor_m": 150.0}}, {"type": "Feature", "geometry": {"type": "Point", "coordinates": [-90.56534, 42.44987]}, "properties": {"kind": "turbine", "i": 1, "mw": 6.0, "hub_m": 120.0, "rotor_m": 150.0}}, {"type": "Feature", "geometry": {"type": "Point", "coordinates": [-90.54811, 42.43635]}, "properties": {"kind": "turbine", "i": 2, "mw": 6.0, "hub_m": 120.0, "rotor_m": 150.0}}, {"type": "Feature", "geometry": {"type": "Point", "coordinates": [-90.53872, 42.4493]}, "properties": {"kind": "turbine", "i": 3, "mw": 6.0, "hub_m": 120.0, "rotor_m": 150.0}}, {"type": "Feature", "geometry": {"type": "Point", "coordinates": [-90.55608, 42.45954]}, "properties": {"kind": "turbine", "i": 4, "mw": 6.0, "hub_m": 120.0, "rotor_m": 150.0}}, {"type": "Feature", "geometry": {"type": "Point", "coordinates": [-90.53467, 42.43935]}, "properties": {"kind": "turbine", "i": 5, "mw": 6.0, "hub_m": 120.0, "rotor_m": 150.0}}, {"type": "Feature", "geometry": {"type": "Point", "coordinates": [-90.53834, 42.45916]}, "properties": {"kind": "turbine", "i": 6, "mw": 6.0, "hub_m": 120.0, "rotor_m": 150.0}}, {"type": "Feature", "geometry": {"type": "Point", "coordinates": [-90.57358, 42.46648]}, "properties": {"kind": "turbine", "i": 7, "mw": 6.0, "hub_m": 120.0, "rotor_m": 150.0}}, {"type": "Feature", "geometry": {"type": "Point", "coordinates": [-90.52619, 42.4293]}, "properties": {"kind": "turbine", "i": 8, "mw": 6.0, "hub_m": 120.0, "rotor_m": 150.0}}, {"type": "Feature", "geometry": {"type": "Point", "coordinates": [-90.52111, 42.44563]}, "properties": {"kind": "turbine", "i": 9, "mw": 6.0, "hub_m": 120.0, "rotor_m": 150.0}}, {"type": "Feature", "geometry": {"type": "Point", "coordinates": [-90.52516, 42.45558]}, "properties": {"kind": "turbine", "i": 10, "mw": 6.0, "hub_m": 120.0, "rotor_m": 150.0}}, {"type": "Feature", "geometry": {"type": "Point", "coordinates": [-90.5841, 42.42396]}, "properties": {"kind": "turbine", "i": 11, "mw": 6.0, "hub_m": 120.0, "rotor_m": 150.0}}, {"type": "Feature", "geometry": {"type": "Point", "coordinates": [-90.59259, 42.434]}, "properties": {"kind": "turbine", "i": 12, "mw": 6.0, "hub_m": 120.0, "rotor_m": 150.0}}, {"type": "Feature", "geometry": {"type": "Point", "coordinates": [-90.53795, 42.46901]}, "properties": {"kind": "turbine", "i": 13, "mw": 6.0, "hub_m": 120.0, "rotor_m": 150.0}}, {"type": "Feature", "geometry": {"type": "Point", "coordinates": [-90.55557, 42.47268]}, "properties": {"kind": "turbine", "i": 14, "mw": 6.0, "hub_m": 120.0, "rotor_m": 150.0}}, {"type": "Feature", "geometry": {"type": "Point", "coordinates": [-90.52477, 42.46544]}, "properties": {"kind": "turbine", "i": 15, "mw": 6.0, "hub_m": 120.0, "rotor_m": 150.0}}, {"type": "Feature", "geometry": {"type": "Point", "coordinates": [-90.58004, 42.41401]}, "properties": {"kind": "turbine", "i": 16, "mw": 6.0, "hub_m": 120.0, "rotor_m": 150.0}}, {"type": "Feature", "geometry": {"type": "Point", "coordinates": [-90.51263, 42.43558]}, "properties": {"kind": "turbine", "i": 17, "mw": 6.0, "hub_m": 120.0, "rotor_m": 150.0}}, {"type": "Feature", "geometry": {"type": "Point", "coordinates": [-90.56699, 42.40716]}, "properties": {"kind": "turbine", "i": 18, "mw": 6.0, "hub_m": 120.0, "rotor_m": 150.0}}, {"type": "Feature", "geometry": {"type": "Point", "coordinates": [-90.57764, 42.47643]}, "properties": {"kind": "turbine", "i": 19, "mw": 6.0, "hub_m": 120.0, "rotor_m": 150.0}}, {"type": "Feature", "geometry": {"type": "Point", "coordinates": [-90.50767, 42.44863]}, "properties": {"kind": "turbine", "i": 20, "mw": 6.0, "hub_m": 120.0, "rotor_m": 150.0}}, {"type": "Feature", "geometry": {"type": "Point", "coordinates": [-90.51171, 42.45858]}, "properties": {"kind": "turbine", "i": 21, "mw": 6.0, "hub_m": 120.0, "rotor_m": 150.0}}, {"type": "Feature", "geometry": {"type": "Point", "coordinates": [-90.542, 42.47896]}, "properties": {"kind": "turbine", "i": 22, "mw": 6.0, "hub_m": 120.0, "rotor_m": 150.0}}, {"type": "Feature", "geometry": {"type": "Point", "coordinates": [-90.59765, 42.41767]}, "properties": {"kind": "turbine", "i": 23, "mw": 6.0, "hub_m": 120.0, "rotor_m": 150.0}}, {"type": "Feature", "geometry": {"type": "Point", "coordinates": [-90.60615, 42.42771]}, "properties": {"kind": "turbine", "i": 24, "mw": 6.0, "hub_m": 120.0, "rotor_m": 150.0}}, {"type": "Feature", "geometry": {"type": "Point", "coordinates": [-90.56407, 42.48272]}, "properties": {"kind": "turbine", "i": 25, "mw": 6.0, "hub_m": 120.0, "rotor_m": 150.0}}, {"type": "Feature", "geometry": {"type": "Point", "coordinates": [-90.54496, 42.4034]}, "properties": {"kind": "turbine", "i": 26, "mw": 6.0, "hub_m": 120.0, "rotor_m": 150.0}}, {"type": "Feature", "geometry": {"type": "Point", "coordinates": [-90.52869, 42.47868]}, "properties": {"kind": "turbine", "i": 27, "mw": 6.0, "hub_m": 120.0, "rotor_m": 150.0}}, {"type": "Feature", "geometry": {"type": "Point", "coordinates": [-90.51132, 42.46844]}, "properties": {"kind": "turbine", "i": 28, "mw": 6.0, "hub_m": 120.0, "rotor_m": 150.0}}, {"type": "Feature", "geometry": {"type": "Point", "coordinates": [-90.58042, 42.40415]}, "properties": {"kind": "turbine", "i": 29, "mw": 6.0, "hub_m": 120.0, "rotor_m": 150.0}}, {"type": "Feature", "geometry": {"type": "Point", "coordinates": [-90.50884, 42.41906]}, "properties": {"kind": "turbine", "i": 30, "mw": 6.0, "hub_m": 120.0, "rotor_m": 150.0}}, {"type": "Feature", "geometry": {"type": "Point", "coordinates": [-90.61464, 42.43775]}, "properties": {"kind": "turbine", "i": 31, "mw": 6.0, "hub_m": 120.0, "rotor_m": 150.0}}, {"type": "Feature", "geometry": {"type": "Point", "coordinates": [-90.49919, 42.43858]}, "properties": {"kind": "turbine", "i": 32, "mw": 6.0, "hub_m": 120.0, "rotor_m": 150.0}}, {"type": "Feature", "geometry": {"type": "Point", "coordinates": [-90.53166, 42.40311]}, "properties": {"kind": "turbine", "i": 33, "mw": 6.0, "hub_m": 120.0, "rotor_m": 150.0}}, {"type": "Feature", "geometry": {"type": "Point", "coordinates": [-90.5936, 42.40772]}, "properties": {"kind": "turbine", "i": 34, "mw": 6.0, "hub_m": 120.0, "rotor_m": 150.0}}, {"type": "Feature", "geometry": {"type": "Point", "coordinates": [-90.49958, 42.42872]}, "properties": {"kind": "turbine", "i": 35, "mw": 6.0, "hub_m": 120.0, "rotor_m": 150.0}}, {"type": "Feature", "geometry": {"type": "Point", "coordinates": [-90.56738, 42.3973]}, "properties": {"kind": "turbine", "i": 36, "mw": 6.0, "hub_m": 120.0, "rotor_m": 150.0}}, {"type": "Feature", "geometry": {"type": "Point", "coordinates": [-90.54606, 42.48892]}, "properties": {"kind": "turbine", "i": 37, "mw": 6.0, "hub_m": 120.0, "rotor_m": 150.0}}, {"type": "Feature", "geometry": {"type": "Point", "coordinates": [-90.49827, 42.46158]}, "properties": {"kind": "turbine", "i": 38, "mw": 6.0, "hub_m": 120.0, "rotor_m": 150.0}}, {"type": "Feature", "geometry": {"type": "Point", "coordinates": [-90.61945, 42.42799]}, "properties": {"kind": "turbine", "i": 39, "mw": 6.0, "hub_m": 120.0, "rotor_m": 150.0}}, {"type": "Feature", "geometry": {"type": "Point", "coordinates": [-90.61108, 42.41466]}, "properties": {"kind": "turbine", "i": 40, "mw": 6.0, "hub_m": 120.0, "rotor_m": 150.0}}, {"type": "Feature", "geometry": {"type": "Point", "coordinates": [-90.56368, 42.49258]}, "properties": {"kind": "turbine", "i": 41, "mw": 6.0, "hub_m": 120.0, "rotor_m": 150.0}}, {"type": "Feature", "geometry": {"type": "Point", "coordinates": [-90.48979, 42.45153]}, "properties": {"kind": "turbine", "i": 42, "mw": 6.0, "hub_m": 120.0, "rotor_m": 150.0}}, {"type": "Feature", "geometry": {"type": "Point", "coordinates": [-90.54091, 42.39345]}, "properties": {"kind": "turbine", "i": 43, "mw": 6.0, "hub_m": 120.0, "rotor_m": 150.0}}, {"type": "Feature", "geometry": {"type": "Point", "coordinates": [-90.5108, 42.48158]}, "properties": {"kind": "turbine", "i": 44, "mw": 6.0, "hub_m": 120.0, "rotor_m": 150.0}}, {"type": "Feature", "geometry": {"type": "Point", "coordinates": [-90.52386, 42.48844]}, "properties": {"kind": "turbine", "i": 45, "mw": 6.0, "hub_m": 120.0, "rotor_m": 150.0}}, {"type": "Feature", "geometry": {"type": "Point", "coordinates": [-90.5808, 42.3943]}, "properties": {"kind": "turbine", "i": 46, "mw": 6.0, "hub_m": 120.0, "rotor_m": 150.0}}, {"type": "Feature", "geometry": {"type": "Point", "coordinates": [-90.49788, 42.47143]}, "properties": {"kind": "turbine", "i": 47, "mw": 6.0, "hub_m": 120.0, "rotor_m": 150.0}}, {"type": "Feature", "geometry": {"type": "Point", "coordinates": [-90.55433, 42.39045]}, "properties": {"kind": "turbine", "i": 48, "mw": 6.0, "hub_m": 120.0, "rotor_m": 150.0}}, {"type": "Feature", "geometry": {"type": "Point", "coordinates": [-90.59397, 42.39786]}, "properties": {"kind": "turbine", "i": 49, "mw": 6.0, "hub_m": 120.0, "rotor_m": 150.0}}, {"type": "Feature", "geometry": {"type": "Point", "coordinates": [-90.48588, 42.43829]}, "properties": {"kind": "turbine", "i": 50, "mw": 6.0, "hub_m": 120.0, "rotor_m": 150.0}}, {"type": "Feature", "geometry": {"type": "Point", "coordinates": [-90.60702, 42.40471]}, "properties": {"kind": "turbine", "i": 51, "mw": 6.0, "hub_m": 120.0, "rotor_m": 150.0}}, {"type": "Feature", "geometry": {"type": "Point", "coordinates": [-90.59945, 42.48676]}, "properties": {"kind": "turbine", "i": 52, "mw": 6.0, "hub_m": 120.0, "rotor_m": 150.0}}, {"type": "Feature", "geometry": {"type": "Point", "coordinates": [-90.48628, 42.42843]}, "properties": {"kind": "turbine", "i": 53, "mw": 6.0, "hub_m": 120.0, "rotor_m": 150.0}}, {"type": "Feature", "geometry": {"type": "Point", "coordinates": [-90.52761, 42.39316]}, "properties": {"kind": "turbine", "i": 54, "mw": 6.0, "hub_m": 120.0, "rotor_m": 150.0}}, {"type": "Feature", "geometry": {"type": "Point", "coordinates": [-90.4958, 42.4122]}, "properties": {"kind": "turbine", "i": 55, "mw": 6.0, "hub_m": 120.0, "rotor_m": 150.0}}, {"type": "Feature", "geometry": {"type": "Point", "coordinates": [-90.62426, 42.41822]}, "properties": {"kind": "turbine", "i": 56, "mw": 6.0, "hub_m": 120.0, "rotor_m": 150.0}}, {"type": "Feature", "geometry": {"type": "Point", "coordinates": [-90.63239, 42.43812]}, "properties": {"kind": "turbine", "i": 57, "mw": 6.0, "hub_m": 120.0, "rotor_m": 150.0}}, {"type": "Feature", "geometry": {"type": "Point", "coordinates": [-90.56776, 42.38744]}, "properties": {"kind": "turbine", "i": 58, "mw": 6.0, "hub_m": 120.0, "rotor_m": 150.0}}, {"type": "Feature", "geometry": {"type": "Point", "coordinates": [-90.53679, 42.49858]}, "properties": {"kind": "turbine", "i": 59, "mw": 6.0, "hub_m": 120.0, "rotor_m": 150.0}}, {"type": "Feature", "geometry": {"type": "Point", "coordinates": [-90.63276, 42.42826]}, "properties": {"kind": "turbine", "i": 60, "mw": 6.0, "hub_m": 120.0, "rotor_m": 150.0}}, {"type": "Feature", "geometry": {"type": "Point", "coordinates": [-90.49749, 42.48129]}, "properties": {"kind": "turbine", "i": 61, "mw": 6.0, "hub_m": 120.0, "rotor_m": 150.0}}, {"type": "Feature", "geometry": {"type": "Point", "coordinates": [-90.4847, 42.46786]}, "properties": {"kind": "turbine", "i": 62, "mw": 6.0, "hub_m": 120.0, "rotor_m": 150.0}}, {"type": "Feature", "geometry": {"type": "Point", "coordinates": [-90.55886, 42.50234]}, "properties": {"kind": "turbine", "i": 63, "mw": 6.0, "hub_m": 120.0, "rotor_m": 150.0}}, {"type": "Feature", "geometry": {"type": "Point", "coordinates": [-90.51041, 42.49143]}, "properties": {"kind": "turbine", "i": 64, "mw": 6.0, "hub_m": 120.0, "rotor_m": 150.0}}, {"type": "Feature", "geometry": {"type": "Point", "coordinates": [-90.48224, 42.41848]}, "properties": {"kind": "turbine", "i": 65, "mw": 6.0, "hub_m": 120.0, "rotor_m": 150.0}}, {"type": "Feature", "geometry": {"type": "Point", "coordinates": [-90.62463, 42.40837]}, "properties": {"kind": "turbine", "i": 66, "mw": 6.0, "hub_m": 120.0, "rotor_m": 150.0}}, {"type": "Feature", "geometry": {"type": "Point", "coordinates": [-90.6074, 42.39485]}, "properties": {"kind": "turbine", "i": 67, "mw": 6.0, "hub_m": 120.0, "rotor_m": 150.0}}, {"type": "Feature", "geometry": {"type": "Point", "coordinates": [-90.50988, 42.39278]}, "properties": {"kind": "turbine", "i": 68, "mw": 6.0, "hub_m": 120.0, "rotor_m": 150.0}}, {"type": "Feature", "geometry": {"type": "Point", "coordinates": [-90.59435, 42.388]}, "properties": {"kind": "turbine", "i": 69, "mw": 6.0, "hub_m": 120.0, "rotor_m": 150.0}}, {"type": "Feature", "geometry": {"type": "Point", "coordinates": [-90.47622, 42.4578]}, "properties": {"kind": "turbine", "i": 70, "mw": 6.0, "hub_m": 120.0, "rotor_m": 150.0}}]}