{"type": "FeatureCollection", "features": [{"type": "Feature", "geometry": {"type": "MultiPolygon", "coordinates": [[[[-81.97973, 33.45318], [-81.97946, 33.45331], [-81.97977, 33.45293], [-81.98054, 33.45257], [-81.97973, 33.45318]]], [[[-81.98026, 33.45421], [-81.98011, 33.45398], [-81.97978, 33.45378], [-81.98013, 33.45376], [-81.98059, 33.45437], [-81.98026, 33.45421]]], [[[-81.97905, 33.45225], [-81.97653, 33.45491], [-81.97588, 33.45511], [-81.97558, 33.45555], [-81.97566, 33.45597], [-81.97457, 33.45696], [-81.97384, 33.45669], [-81.97387, 33.45621], [-81.97421, 33.45565], [-81.97411, 33.45527], [-81.97566, 33.45472], [-81.97596, 33.45338], [-81.97677, 33.45272], [-81.97699, 33.45191], [-81.97924, 33.45189], [-81.97905, 33.45225]]], [[[-81.98035, 33.46029], [-81.98036, 33.4603], [-81.98036, 33.4603], [-81.98034, 33.4603], [-81.98035, 33.46029]]], [[[-81.99125, 33.46102], [-81.99085, 33.46099], [-81.99081, 33.46095], [-81.99111, 33.46081], [-81.99125, 33.46102]]], [[[-81.98311, 33.46422], [-81.98308, 33.46422], [-81.98309, 33.4642], [-81.98311, 33.46422]]], [[[-81.9841, 33.46414], [-81.98414, 33.4641], [-81.98433, 33.46432], [-81.98402, 33.46421], [-81.9841, 33.46414]]], [[[-81.98096, 33.46459], [-81.98098, 33.46448], [-81.98105, 33.4645], [-81.98099, 33.46458], [-81.98096, 33.46459]]], [[[-81.98213, 33.46442], [-81.98253, 33.4645], [-81.98226, 33.46479], [-81.98162, 33.46475], [-81.98184, 33.46433], [-81.98213, 33.46442]]], [[[-81.98388, 33.46685], [-81.98391, 33.46685], [-81.98381, 33.46702], [-81.98378, 33.46701], [-81.98388, 33.46685]]], [[[-81.98119, 33.47114], [-81.98149, 33.4718], [-81.98147, 33.47182], [-81.98111, 33.47116], [-81.98119, 33.47114]]], [[[-81.98592, 33.47225], [-81.98581, 33.47245], [-81.98564, 33.4724], [-81.98577, 33.47193], [-81.98592, 33.47225]]], [[[-81.9896, 33.47262], [-81.98959, 33.47258], [-81.98962, 33.4726], [-81.9896, 33.47262]]], [[[-81.9791, 33.47335], [-81.97847, 33.4731], [-81.97853, 33.47295], [-81.979, 33.47297], [-81.97929, 33.47326], [-81.9791, 33.47335]]], [[[-81.98038, 33.47306], [-81.98079, 33.47323], [-81.98073, 33.47341], [-81.98038, 33.47306]]], [[[-81.9786, 33.47373], [-81.97889, 33.47398], [-81.97889, 33.47406], [-81.97872, 33.47384], [-81.9786, 33.47373]]], [[[-81.97552, 33.47478], [-81.97538, 33.47461], [-81.97657, 33.47554], [-81.97555, 33.47485], [-81.97552, 33.47478]]], [[[-81.9858, 33.47637], [-81.98579, 33.47636], [-81.98579, 33.47636], [-81.98581, 33.47637], [-81.9858, 33.47637]]], [[[-81.99137, 33.47643], [-81.99141, 33.47643], [-81.99128, 33.47669], [-81.99118, 33.47657], [-81.99137, 33.47643]]], [[[-81.9842, 33.47794], [-81.98418, 33.47793], [-81.98374, 33.47733], [-81.98439, 33.47776], [-81.9842, 33.47794]]], [[[-81.98583, 33.47738], [-81.98658, 33.47663], [-81.9883, 33.47777], [-81.98772, 33.47888], [-81.98716, 33.47875], [-81.98553, 33.47766], [-81.98583, 33.47738]]], [[[-81.98947, 33.47788], [-81.98929, 33.47848], [-81.98888, 33.47887], [-81.98842, 33.47887], [-81.98903, 33.47773], [-81.98947, 33.47788]]], [[[-81.99016, 33.47854], [-81.9901, 33.47863], [-81.98996, 33.47854], [-81.99001, 33.47844], [-81.99016, 33.47854]]], [[[-81.98043, 33.48544], [-81.98051, 33.48547], [-81.98034, 33.48583], [-81.98029, 33.48583], [-81.98043, 33.48544]]], [[[-81.97909, 33.48687], [-81.97909, 33.48687], [-81.97906, 33.48683], [-81.9791, 33.48684], [-81.97909, 33.48687]]], [[[-81.97102, 33.45293], [-81.97057, 33.45315], [-81.96892, 33.45293], [-81.966, 33.45199], [-81.97176, 33.45195], [-81.97102, 33.45293]]], [[[-81.97044, 33.45503], [-81.97061, 33.4552], [-81.97006, 33.45545], [-81.96961, 33.45593], [-81.96924, 33.45582], [-81.97025, 33.45488], [-81.97044, 33.45503]]], [[[-81.97335, 33.45902], [-81.97329, 33.45903], [-81.97328, 33.45903], [-81.97333, 33.45899], [-81.97335, 33.45902]]], [[[-81.96937, 33.46148], [-81.96927, 33.4617], [-81.96905, 33.46162], [-81.9694, 33.46145], [-81.96937, 33.46148]]], [[[-81.96883, 33.46213], [-81.96907, 33.46222], [-81.969, 33.46236], [-81.96875, 33.46235], [-81.96883, 33.46213]]], [[[-81.97008, 33.46514], [-81.97011, 33.46523], [-81.96995, 33.46504], [-81.97004, 33.46502], [-81.97008, 33.46514]]], [[[-81.96944, 33.46539], [-81.96968, 33.46527], [-81.97, 33.46544], [-81.96998, 33.46547], [-81.96944, 33.46539]]], [[[-81.96991, 33.46727], [-81.96984, 33.46795], [-81.9706, 33.46854], [-81.96937, 33.46811], [-81.96993, 33.467], [-81.96991, 33.46727]]], [[[-81.9691, 33.46864], [-81.96912, 33.46861], [-81.96918, 33.46863], [-81.96915, 33.46863], [-81.9691, 33.46864]]], [[[-81.97026, 33.46948], [-81.97025, 33.46901], [-81.9707, 33.46917], [-81.9704, 33.46973], [-81.97017, 33.46965], [-81.97026, 33.46948]]], [[[-81.97118, 33.4708], [-81.97082, 33.47029], [-81.97084, 33.47026], [-81.97129, 33.47066], [-81.97209, 33.47078], [-81.97228, 33.47096], [-81.97118, 33.4708]]], [[[-81.97456, 33.47104], [-81.97445, 33.4709], [-81.97471, 33.47063], [-81.97546, 33.47091], [-81.97456, 33.47104]]], [[[-81.97088, 33.47131], [-81.97062, 33.47176], [-81.97016, 33.47155], [-81.97043, 33.47107], [-81.97088, 33.47131]]], [[[-81.97405, 33.47383], [-81.97427, 33.4739], [-81.97423, 33.47398], [-81.97406, 33.47384], [-81.97405, 33.47383]]], [[[-81.97494, 33.47398], [-81.97535, 33.47389], [-81.97494, 33.4743], [-81.97528, 33.47454], [-81.97474, 33.47436], [-81.97494, 33.47398]]], [[[-81.97563, 33.47578], [-81.97572, 33.47566], [-81.97633, 33.47606], [-81.9756, 33.47596], [-81.97563, 33.47578]]], [[[-81.97206, 33.48002], [-81.97212, 33.47956], [-81.97369, 33.4802], [-81.97346, 33.48087], [-81.97386, 33.48134], [-81.97166, 33.48087], [-81.97206, 33.48002]]], [[[-81.97442, 33.48386], [-81.97442, 33.48383], [-81.9746, 33.48387], [-81.97442, 33.48394], [-81.97442, 33.48386]]], [[[-81.97058, 33.48365], [-81.97093, 33.48374], [-81.97126, 33.48457], [-81.97181, 33.4849], [-81.97129, 33.48603], [-81.97091, 33.48768], [-81.97058, 33.48716], [-81.97019, 33.48696], [-81.97017, 33.48552], [-81.971, 33.48527], [-81.97116, 33.48502], [-81.9709, 33.48465], [-81.97016, 33.48463], [-81.97015, 33.48355], [-81.97058, 33.48365]]], [[[-81.97244, 33.48603], [-81.97243, 33.48604], [-81.97247, 33.48595], [-81.9725, 33.48596], [-81.97244, 33.48603]]], [[[-81.97223, 33.4876], [-81.97214, 33.48726], [-81.97222, 33.48657], [-81.97216, 33.4872], [-81.9733, 33.48787], [-81.97325, 33.48801], [-81.97234, 33.48802], [-81.97223, 33.4876]]], [[[-81.96231, 33.45214], [-81.96129, 33.45367], [-81.96092, 33.45312], [-81.9596, 33.45274], [-81.95905, 33.45289], [-81.95904, 33.45205], [-81.96246, 33.45202], [-81.96231, 33.45214]]], [[[-81.96183, 33.45731], [-81.96116, 33.45591], [-81.96188, 33.4539], [-81.96239, 33.45386], [-81.96277, 33.45346], [-81.96318, 33.4537], [-81.96392, 33.45352], [-81.96416, 33.45326], [-81.96407, 33.45295], [-81.96453, 33.45272], [-81.96484, 33.45219], [-81.9675, 33.45307], [-81.96675, 33.4543], [-81.96644, 33.45529], [-81.96651, 33.45565], [-81.96694, 33.45604], [-81.96675, 33.45644], [-81.96584, 33.45634], [-81.9652, 33.45734], [-81.96458, 33.45737], [-81.96423, 33.45781], [-81.9634, 33.45774], [-81.96292, 33.45832], [-81.96235, 33.4581], [-81.96183, 33.45731]], [[-81.96437, 33.45598], [-81.96265, 33.4554], [-81.96231, 33.45563], [-81.96197, 33.45641], [-81.96217, 33.45661], [-81.96391, 33.45717], [-81.96452, 33.45629], [-81.96437, 33.45598]]], [[[-81.96084, 33.45692], [-81.96051, 33.45685], [-81.96022, 33.45689], [-81.96063, 33.45652], [-81.96084, 33.45692]]], [[[-81.96127, 33.45758], [-81.96142, 33.45782], [-81.9612, 33.45775], [-81.96127, 33.45758]]], [[[-81.96871, 33.45818], [-81.9687, 33.45817], [-81.96872, 33.45819], [-81.96871, 33.45818]]], [[[-81.96503, 33.45987], [-81.96497, 33.45982], [-81.96507, 33.45986], [-81.96503, 33.45987]]], [[[-81.96162, 33.46001], [-81.96199, 33.45982], [-81.96147, 33.46044], [-81.96117, 33.46018], [-81.96126, 33.46], [-81.96162, 33.46001]]], [[[-81.96111, 33.46151], [-81.9611, 33.46149], [-81.96119, 33.46142], [-81.96113, 33.46154], [-81.96111, 33.46151]]], [[[-81.96761, 33.46193], [-81.96761, 33.46182], [-81.9677, 33.46184], [-81.96761, 33.46193]]], [[[-81.96501, 33.46382], [-81.9646, 33.46414], [-81.96403, 33.46378], [-81.96473, 33.46309], [-81.96488, 33.46344], [-81.9652, 33.46362], [-81.96501, 33.46382]]], [[[-81.96509, 33.46455], [-81.96476, 33.46518], [-81.96441, 33.46502], [-81.96456, 33.46495], [-81.96509, 33.46455]]], [[[-81.96008, 33.46652], [-81.9597, 33.4669], [-81.9593, 33.46678], [-81.95997, 33.46553], [-81.96087, 33.46572], [-81.96008, 33.46652]]], [[[-81.96263, 33.46676], [-81.96269, 33.46657], [-81.96269, 33.46644], [-81.96272, 33.46669], [-81.96255, 33.46704], [-81.96245, 33.467], [-81.96263, 33.46676]]], [[[-81.96862, 33.46725], [-81.96905, 33.46736], [-81.96878, 33.46789], [-81.96839, 33.46767], [-81.96862, 33.46725]]], [[[-81.96845, 33.46854], [-81.9683, 33.46849], [-81.96838, 33.46834], [-81.96852, 33.46839], [-81.96845, 33.46854]]], [[[-81.96453, 33.46976], [-81.96421, 33.46969], [-81.96498, 33.46941], [-81.96571, 33.46884], [-81.96589, 33.4689], [-81.96532, 33.47001], [-81.96453, 33.46976]]], [[[-81.96716, 33.46929], [-81.96791, 33.46961], [-81.96732, 33.47076], [-81.96655, 33.47033], [-81.96585, 33.47035], [-81.96647, 33.46914], [-81.96716, 33.46929]]], [[[-81.9688, 33.47001], [-81.96893, 33.47009], [-81.96843, 33.46996], [-81.9685, 33.46982], [-81.9688, 33.47001]]], [[[-81.96031, 33.47579], [-81.96025, 33.47601], [-81.95973, 33.47595], [-81.9593, 33.47576], [-81.9593, 33.4755], [-81.96031, 33.47579]]], [[[-81.96468, 33.47805], [-81.96493, 33.47794], [-81.96511, 33.47833], [-81.96569, 33.47863], [-81.96437, 33.47817], [-81.96468, 33.47805]]]]}, "properties": {"kind": "pv", "area_km2": 0.54, "mw": 27.1}}]}