{"type": "FeatureCollection", "features": [{"type": "Feature", "geometry": {"type": "MultiPolygon", "coordinates": [[[[-97.79517, 36.38354], [-97.79331, 36.38435], [-97.7923, 36.38548], [-97.7918, 36.38241], [-97.79118, 36.38107], [-97.78633, 36.37698], [-97.78454, 36.37609], [-97.78286, 36.37594], [-97.78123, 36.37633], [-97.77835, 36.3785], [-97.77682, 36.37723], [-97.77476, 36.37711], [-97.77353, 36.37779], [-97.77298, 36.37884], [-97.76844, 36.37694], [-97.76826, 36.37552], [-97.7675, 36.37435], [-97.76749, 36.36344], [-97.78081, 36.36347], [-97.78114, 36.36453], [-97.78017, 36.36569], [-97.78017, 36.3671], [-97.78121, 36.36834], [-97.78277, 36.36875], [-97.78407, 36.36851], [-97.78509, 36.36778], [-97.7856, 36.36664], [-97.78527, 36.36521], [-97.78604, 36.36448], [-97.78635, 36.36352], [-97.78773, 36.36339], [-97.79223, 36.36859], [-97.79446, 36.3731], [-97.79556, 36.37788], [-97.79567, 36.38031], [-97.79517, 36.38354]], [[-97.77474, 36.3743], [-97.77315, 36.37314], [-97.77104, 36.37329], [-97.76957, 36.37457], [-97.76969, 36.37645], [-97.77137, 36.37749], [-97.77345, 36.3773], [-97.77484, 36.37603], [-97.77474, 36.3743]]], [[[-97.78994, 36.39251], [-97.78987, 36.39448], [-97.78892, 36.39549], [-97.78551, 36.39549], [-97.7855, 36.39334], [-97.78689, 36.39251], [-97.78994, 36.39251]]], [[[-97.78072, 36.3955], [-97.77027, 36.39552], [-97.76984, 36.39364], [-97.76744, 36.39244], [-97.78022, 36.39249], [-97.78072, 36.39288], [-97.78072, 36.3955]]], [[[-97.76747, 36.38857], [-97.76754, 36.38184], [-97.76899, 36.38291], [-97.77189, 36.38273], [-97.778, 36.38531], [-97.77794, 36.38707], [-97.77885, 36.38862], [-97.76747, 36.38857]]], [[[-97.78058, 36.3596], [-97.76746, 36.35958], [-97.76745, 36.35928], [-97.76824, 36.35821], [-97.76835, 36.35674], [-97.76937, 36.35548], [-97.77709, 36.35721], [-97.78058, 36.35867], [-97.78058, 36.3596]]], [[[-97.76201, 36.36348], [-97.76271, 36.36405], [-97.76271, 36.37298], [-97.76103, 36.37342], [-97.75984, 36.37334], [-97.75203, 36.37009], [-97.75106, 36.36916], [-97.74965, 36.36886], [-97.74953, 36.36337], [-97.76201, 36.36348]], [[-97.75396, 36.36923], [-97.75604, 36.36978], [-97.75791, 36.36885], [-97.7587, 36.36683], [-97.75749, 36.36513], [-97.75552, 36.36479], [-97.75371, 36.36581], [-97.75302, 36.36769], [-97.75396, 36.36923]]], [[[-97.75798, 36.35861], [-97.75776, 36.35954], [-97.74949, 36.3595], [-97.74949, 36.35864], [-97.75226, 36.35868], [-97.75349, 36.35788], [-97.75404, 36.35685], [-97.76115, 36.35543], [-97.76013, 36.356], [-97.75925, 36.35747], [-97.75798, 36.35861]]], [[[-97.76976, 36.40262], [-97.77006, 36.40312], [-97.76731, 36.4031], [-97.76736, 36.39963], [-97.77119, 36.39962], [-97.76985, 36.40103], [-97.76976, 36.40262]]], [[[-97.78061, 36.40101], [-97.7807, 36.4008], [-97.78029, 36.40146], [-97.78046, 36.40125], [-97.78061, 36.40101]]], [[[-97.77493, 36.40313], [-97.7758, 36.40209], [-97.77791, 36.40247], [-97.77603, 36.40313], [-97.77493, 36.40313]]], [[[-97.74645, 36.39965], [-97.75535, 36.39964], [-97.75919, 36.40272], [-97.75795, 36.40313], [-97.75411, 36.40315], [-97.75019, 36.40172], [-97.74645, 36.39965]]], [[[-97.76257, 36.39963], [-97.76257, 36.39999], [-97.76213, 36.39963], [-97.76257, 36.39963]]], [[[-97.75593, 36.38704], [-97.75639, 36.38681], [-97.75633, 36.38857], [-97.75813, 36.38861], [-97.74943, 36.38864], [-97.75365, 36.38832], [-97.75593, 36.38704]]], [[[-97.73526, 36.38358], [-97.73528, 36.3836], [-97.74161, 36.38864], [-97.73628, 36.38863], [-97.7346, 36.38304], [-97.73526, 36.38358]]], [[[-97.7397, 36.38169], [-97.73505, 36.37791], [-97.73958, 36.3779], [-97.74037, 36.37922], [-97.74188, 36.37986], [-97.74316, 36.37979], [-97.74418, 36.37932], [-97.74481, 36.38086], [-97.74471, 36.38568], [-97.7397, 36.38169]]], [[[-97.74144, 36.36448], [-97.74327, 36.3648], [-97.74476, 36.36424], [-97.74483, 36.36707], [-97.74041, 36.36523], [-97.74144, 36.36448]]], [[[-97.74334, 36.37403], [-97.73526, 36.37404], [-97.73785, 36.36851], [-97.74164, 36.37009], [-97.74121, 36.37114], [-97.74139, 36.37247], [-97.74209, 36.37341], [-97.74365, 36.37404], [-97.74334, 36.37403]]], [[[-97.74492, 36.37393], [-97.74492, 36.37404], [-97.74432, 36.37404], [-97.74467, 36.37399], [-97.74492, 36.37393]]], [[[-97.74208, 36.39251], [-97.74291, 36.39463], [-97.74204, 36.39555], [-97.74111, 36.39555], [-97.73855, 36.3925], [-97.74208, 36.39251]]], [[[-97.75629, 36.39249], [-97.76266, 36.39244], [-97.76262, 36.39553], [-97.75704, 36.39551], [-97.75327, 36.39249], [-97.75629, 36.39249]]]]}, "properties": {"kind": "windland", "area_km2": 7.22}}, {"type": "Feature", "geometry": {"type": "Point", "coordinates": [-97.76903, 36.37357]}, "properties": {"kind": "turbine", "i": 0, "mw": 6.0, "hub_m": 120.0, "rotor_m": 150.0}}, {"type": "Feature", "geometry": {"type": "Point", "coordinates": [-97.77295, 36.38349]}, "properties": {"kind": "turbine", "i": 1, "mw": 6.0, "hub_m": 120.0, "rotor_m": 150.0}}, {"type": "Feature", "geometry": {"type": "Point", "coordinates": [-97.76058, 36.39324]}, "properties": {"kind": "turbine", "i": 2, "mw": 6.0, "hub_m": 120.0, "rotor_m": 150.0}}, {"type": "Feature", "geometry": {"type": "Point", "coordinates": [-97.77686, 36.3934]}, "properties": {"kind": "turbine", "i": 3, "mw": 6.0, "hub_m": 120.0, "rotor_m": 150.0}}, {"type": "Feature", "geometry": {"type": "Point", "coordinates": [-97.76105, 36.36361]}, "properties": {"kind": "turbine", "i": 4, "mw": 6.0, "hub_m": 120.0, "rotor_m": 150.0}}, {"type": "Feature", "geometry": {"type": "Point", "coordinates": [-97.78531, 36.37374]}, "properties": {"kind": "turbine", "i": 5, "mw": 6.0, "hub_m": 120.0, "rotor_m": 150.0}}, {"type": "Feature", "geometry": {"type": "Point", "coordinates": [-97.77733, 36.36378]}, "properties": {"kind": "turbine", "i": 6, "mw": 6.0, "hub_m": 120.0, "rotor_m": 150.0}}, {"type": "Feature", "geometry": {"type": "Point", "coordinates": [-97.74044, 36.37986]}, "properties": {"kind": "turbine", "i": 7, "mw": 6.0, "hub_m": 120.0, "rotor_m": 150.0}}]}