{"type": "FeatureCollection", "features": [{"type": "Feature", "geometry": {"type": "MultiPolygon", "coordinates": [[[[-97.83937, 36.45443], [-97.83934, 36.4507], [-97.84566, 36.45075], [-97.84547, 36.45121], [-97.84349, 36.45139], [-97.84182, 36.45224], [-97.84092, 36.45333], [-97.84057, 36.45471], [-97.83936, 36.45554], [-97.83937, 36.45443]]], [[[-97.84593, 36.45076], [-97.8461, 36.45076], [-97.84593, 36.45088], [-97.84593, 36.45076]]], [[[-97.84711, 36.4469], [-97.84741, 36.44648], [-97.84898, 36.44603], [-97.85106, 36.44583], [-97.85233, 36.44496], [-97.85233, 36.4457], [-97.85091, 36.44693], [-97.84711, 36.4469]]], [[[-97.83931, 36.44684], [-97.83931, 36.44617], [-97.83973, 36.44684], [-97.83931, 36.44684]]], [[[-97.8393, 36.44338], [-97.83937, 36.44334], [-97.83962, 36.44315], [-97.8393, 36.44369], [-97.8393, 36.44338]]], [[[-97.83452, 36.44679], [-97.83253, 36.44675], [-97.83089, 36.44519], [-97.82859, 36.44463], [-97.82631, 36.44511], [-97.82459, 36.44661], [-97.82135, 36.44655], [-97.82132, 36.43907], [-97.82315, 36.43796], [-97.82406, 36.43599], [-97.83448, 36.43612], [-97.83449, 36.43716], [-97.83244, 36.4385], [-97.83172, 36.44045], [-97.83246, 36.44246], [-97.83451, 36.44377], [-97.83452, 36.44679]], [[-97.82603, 36.43933], [-97.82554, 36.43933], [-97.82554, 36.43949], [-97.82603, 36.43949], [-97.82603, 36.43933]]], [[[-97.83927, 36.43617], [-97.84532, 36.43625], [-97.84621, 36.4373], [-97.84761, 36.43806], [-97.85167, 36.43829], [-97.85234, 36.43944], [-97.85232, 36.44233], [-97.85104, 36.44149], [-97.84872, 36.44153], [-97.84643, 36.4404], [-97.84511, 36.44018], [-97.84336, 36.44061], [-97.84036, 36.44239], [-97.84093, 36.44025], [-97.84044, 36.43894], [-97.83928, 36.43783], [-97.83927, 36.43617]]], [[[-97.84358, 36.43236], [-97.84286, 36.43235], [-97.84295, 36.43093], [-97.84222, 36.42966], [-97.84031, 36.42881], [-97.84261, 36.42751], [-97.84329, 36.42652], [-97.84503, 36.42728], [-97.85108, 36.42722], [-97.85059, 36.42928], [-97.84918, 36.42946], [-97.84767, 36.43017], [-97.84606, 36.4324], [-97.84358, 36.43236]]], [[[-97.83451, 36.42518], [-97.83445, 36.43225], [-97.8231, 36.43211], [-97.8226, 36.43037], [-97.82139, 36.42923], [-97.82139, 36.42367], [-97.82272, 36.42468], [-97.8248, 36.42472], [-97.82624, 36.42372], [-97.82678, 36.42219], [-97.8286, 36.42388], [-97.82998, 36.424], [-97.83141, 36.42343], [-97.83451, 36.42518]]], [[[-97.82136, 36.41759], [-97.82134, 36.41433], [-97.82188, 36.41433], [-97.82348, 36.41547], [-97.82531, 36.4155], [-97.82454, 36.41762], [-97.82136, 36.41759]]], [[[-97.82216, 36.41046], [-97.82135, 36.41046], [-97.82136, 36.40712], [-97.82553, 36.40714], [-97.82582, 36.4105], [-97.82216, 36.41046]]], [[[-97.84517, 36.41796], [-97.84396, 36.41792], [-97.84395, 36.41693], [-97.84516, 36.41629], [-97.84517, 36.41796]]], [[[-97.83442, 36.40076], [-97.83439, 36.40331], [-97.83147, 36.40329], [-97.82463, 36.40045], [-97.8249, 36.39991], [-97.83429, 36.39992], [-97.83442, 36.40076]]], [[[-97.83322, 36.38201], [-97.82965, 36.38171], [-97.82805, 36.38244], [-97.82613, 36.38468], [-97.82616, 36.38642], [-97.82555, 36.38764], [-97.82596, 36.3888], [-97.82214, 36.38879], [-97.82147, 36.38822], [-97.82327, 36.38737], [-97.82388, 36.38588], [-97.82309, 36.3844], [-97.82131, 36.38365], [-97.82132, 36.37817], [-97.83453, 36.3782], [-97.83455, 36.38087], [-97.83322, 36.38201]]], [[[-97.84086, 36.38003], [-97.83932, 36.37933], [-97.83927, 36.37635], [-97.84087, 36.37625], [-97.84204, 36.37569], [-97.84366, 36.37347], [-97.84392, 36.37232], [-97.84346, 36.3713], [-97.84263, 36.37067], [-97.83926, 36.37017], [-97.83927, 36.36367], [-97.85233, 36.36368], [-97.85238, 36.37231], [-97.85027, 36.37275], [-97.84947, 36.37364], [-97.84927, 36.37451], [-97.84969, 36.37645], [-97.85241, 36.37802], [-97.85242, 36.37861], [-97.85089, 36.37799], [-97.84918, 36.37819], [-97.84807, 36.37906], [-97.84773, 36.38053], [-97.84812, 36.38171], [-97.84944, 36.38294], [-97.85063, 36.38324], [-97.8524, 36.38297], [-97.85235, 36.3887], [-97.84601, 36.38872], [-97.84681, 36.38673], [-97.84626, 36.38235], [-97.84527, 36.38123], [-97.844, 36.38051], [-97.84086, 36.38003]], [[-97.85102, 36.37176], [-97.85186, 36.37049], [-97.85157, 36.36889], [-97.85226, 36.3678], [-97.85217, 36.36655], [-97.85091, 36.3653], [-97.84887, 36.3651], [-97.84771, 36.36564], [-97.84702, 36.36647], [-97.84709, 36.36833], [-97.84644, 36.36921], [-97.84642, 36.3704], [-97.8472, 36.37154], [-97.84835, 36.37218], [-97.84966, 36.37229], [-97.85102, 36.37176]]], [[[-97.86043, 36.3842], [-97.85859, 36.38386], [-97.85718, 36.3843], [-97.85722, 36.3814], [-97.85919, 36.3821], [-97.86137, 36.38137], [-97.86137, 36.38332], [-97.86043, 36.3842]]], [[[-97.86615, 36.38106], [-97.86602, 36.36938], [-97.86842, 36.36955], [-97.8701, 36.36843], [-97.87022, 36.38211], [-97.86708, 36.38248], [-97.86616, 36.3822], [-97.86615, 36.38106]]], [[[-97.8801, 36.37535], [-97.87924, 36.37784], [-97.87874, 36.37783], [-97.87761, 36.37629], [-97.87503, 36.37595], [-97.87499, 36.37405], [-97.87708, 36.37362], [-97.8788, 36.37225], [-97.88118, 36.37235], [-97.8801, 36.37535]]], [[[-97.87488, 36.36655], [-97.87488, 36.36365], [-97.8826, 36.36373], [-97.88299, 36.36604], [-97.88255, 36.36768], [-97.88006, 36.36733], [-97.87828, 36.36803], [-97.87667, 36.36709], [-97.87488, 36.36683], [-97.87488, 36.36655]]], [[[-97.87815, 36.3598], [-97.87486, 36.35979], [-97.87482, 36.35708], [-97.87571, 36.35617], [-97.87601, 36.35493], [-97.87482, 36.35283], [-97.87661, 36.35204], [-97.87731, 36.35034], [-97.879, 36.35158], [-97.88099, 36.35764], [-97.8807, 36.35874], [-97.88109, 36.35984], [-97.87815, 36.3598]]], [[[-97.87, 36.35438], [-97.87001, 36.35494], [-97.86846, 36.356], [-97.86818, 36.35703], [-97.86862, 36.35862], [-97.87007, 36.35979], [-97.85982, 36.35979], [-97.85911, 36.35816], [-97.85708, 36.35747], [-97.85708, 36.35637], [-97.85813, 36.35585], [-97.85875, 36.35484], [-97.85866, 36.35391], [-97.85806, 36.35313], [-97.85934, 36.35169], [-97.85909, 36.34971], [-97.86199, 36.35056], [-97.86539, 36.35051], [-97.86714, 36.34985], [-97.86748, 36.35025], [-97.86624, 36.35179], [-97.86643, 36.35316], [-97.86788, 36.3543], [-97.87, 36.35438]]], [[[-97.85704, 36.34725], [-97.85704, 36.34369], [-97.85834, 36.34292], [-97.8592, 36.34122], [-97.85849, 36.33939], [-97.85703, 36.33838], [-97.85703, 36.33467], [-97.86806, 36.33466], [-97.86601, 36.33629], [-97.86569, 36.338], [-97.86645, 36.33918], [-97.8675, 36.33982], [-97.86882, 36.33999], [-97.87012, 36.33968], [-97.87016, 36.34278], [-97.86869, 36.34313], [-97.86751, 36.34426], [-97.86489, 36.3433], [-97.86215, 36.34316], [-97.86038, 36.34349], [-97.85873, 36.34452], [-97.85775, 36.34595], [-97.85756, 36.34737], [-97.85825, 36.34895], [-97.85705, 36.34857], [-97.85704, 36.34725]]], [[[-97.87495, 36.34728], [-97.87496, 36.34575], [-97.87583, 36.34661], [-97.87706, 36.34702], [-97.87683, 36.34905], [-97.87493, 36.34807], [-97.87495, 36.34728]]], [[[-97.87496, 36.3435], [-97.87496, 36.3435], [-97.87496, 36.3435], [-97.87496, 36.3435]]], [[[-97.85201, 36.42191], [-97.852, 36.422], [-97.85172, 36.42191], [-97.85201, 36.42191]]], [[[-97.86576, 36.32998], [-97.86611, 36.33077], [-97.86085, 36.33079], [-97.86069, 36.32953], [-97.85999, 36.32868], [-97.85869, 36.32818], [-97.85705, 36.32815], [-97.85707, 36.32037], [-97.8588, 36.32037], [-97.86505, 36.32735], [-97.86572, 36.32828], [-97.86576, 36.32998]]], [[[-97.85227, 36.31651], [-97.83917, 36.31658], [-97.83913, 36.31187], [-97.84097, 36.31101], [-97.84158, 36.30948], [-97.84097, 36.30813], [-97.8391, 36.30723], [-97.83908, 36.30587], [-97.84141, 36.30587], [-97.85041, 36.31257], [-97.85224, 36.31424], [-97.85227, 36.31651]]], [[[-97.85225, 36.33466], [-97.85225, 36.33561], [-97.85109, 36.33466], [-97.85225, 36.33466]]], [[[-97.85226, 36.34292], [-97.85226, 36.34322], [-97.85, 36.34284], [-97.84812, 36.34311], [-97.84814, 36.34118], [-97.85073, 36.34073], [-97.85225, 36.33928], [-97.85226, 36.34292]]], [[[-97.84605, 36.33947], [-97.84522, 36.33951], [-97.84595, 36.33814], [-97.84508, 36.33664], [-97.8438, 36.33621], [-97.84103, 36.33626], [-97.84211, 36.33468], [-97.84805, 36.33466], [-97.84654, 36.33631], [-97.84605, 36.33947]]], [[[-97.85229, 36.35408], [-97.85058, 36.35478], [-97.84972, 36.35657], [-97.85058, 36.35814], [-97.85231, 36.35889], [-97.85231, 36.35981], [-97.85121, 36.35981], [-97.8497, 36.35844], [-97.84801, 36.35823], [-97.84647, 36.35863], [-97.84541, 36.3598], [-97.83925, 36.35981], [-97.83918, 36.34917], [-97.84664, 36.34917], [-97.84974, 36.35046], [-97.85228, 36.35028], [-97.85229, 36.35408]], [[-97.84865, 36.35524], [-97.84969, 36.35361], [-97.84903, 36.35171], [-97.8468, 36.35085], [-97.84476, 36.3513], [-97.84375, 36.353], [-97.84452, 36.35478], [-97.84652, 36.3557], [-97.84865, 36.35524]]], [[[-97.85711, 36.36365], [-97.86121, 36.36366], [-97.86131, 36.37425], [-97.85717, 36.37429], [-97.85716, 36.37311], [-97.85853, 36.3733], [-97.85979, 36.37298], [-97.86065, 36.37226], [-97.86105, 36.37117], [-97.86078, 36.37004], [-97.85993, 36.36917], [-97.85849, 36.36868], [-97.85714, 36.36875], [-97.85711, 36.36365]]], [[[-97.82106, 36.29483], [-97.83253, 36.3004], [-97.83427, 36.30147], [-97.83428, 36.30202], [-97.82484, 36.30201], [-97.82555, 36.30051], [-97.82473, 36.29894], [-97.82286, 36.29827], [-97.82108, 36.2987], [-97.82106, 36.29483]]], [[[-97.83436, 36.31255], [-97.8344, 36.31657], [-97.82119, 36.31648], [-97.82109, 36.30585], [-97.8343, 36.30589], [-97.83433, 36.30831], [-97.83333, 36.30913], [-97.83293, 36.31023], [-97.8332, 36.31122], [-97.83436, 36.31255]]], [[[-97.83238, 36.32453], [-97.83439, 36.32564], [-97.83439, 36.33079], [-97.82541, 36.33079], [-97.82335, 36.33003], [-97.82122, 36.33063], [-97.8212, 36.32035], [-97.8344, 36.32043], [-97.8344, 36.32105], [-97.83296, 36.32153], [-97.83214, 36.32249], [-97.83194, 36.32351], [-97.83238, 36.32453]]], [[[-97.83918, 36.32044], [-97.85229, 36.32038], [-97.85227, 36.32726], [-97.84823, 36.32732], [-97.84571, 36.32809], [-97.84433, 36.32923], [-97.84433, 36.3308], [-97.83916, 36.3308], [-97.83916, 36.32679], [-97.84006, 36.32603], [-97.84048, 36.32475], [-97.84014, 36.32369], [-97.83917, 36.32288], [-97.83918, 36.32044]], [[-97.84359, 36.32549], [-97.84581, 36.32545], [-97.84723, 36.32422], [-97.8471, 36.32243], [-97.84556, 36.32131], [-97.8435, 36.32133], [-97.84202, 36.32253], [-97.84202, 36.32423], [-97.84359, 36.32549]]], [[[-97.83437, 36.33817], [-97.83438, 36.34519], [-97.83384, 36.34275], [-97.83275, 36.34129], [-97.83094, 36.34041], [-97.8278, 36.34023], [-97.82575, 36.34064], [-97.82419, 36.34179], [-97.82347, 36.3434], [-97.82365, 36.34533], [-97.82124, 36.34535], [-97.82125, 36.33465], [-97.82758, 36.33467], [-97.8284, 36.33582], [-97.83142, 36.33736], [-97.8331, 36.33745], [-97.83436, 36.33686], [-97.83437, 36.33817]]], [[[-97.8344, 36.34917], [-97.83442, 36.35193], [-97.83289, 36.3511], [-97.83053, 36.35099], [-97.82902, 36.35184], [-97.82845, 36.35336], [-97.82942, 36.35496], [-97.83169, 36.35557], [-97.83097, 36.35696], [-97.83163, 36.35853], [-97.83301, 36.35925], [-97.83446, 36.35928], [-97.83447, 36.35981], [-97.82713, 36.35983], [-97.82733, 36.35868], [-97.82694, 36.3577], [-97.82598, 36.35694], [-97.82454, 36.35662], [-97.8224, 36.35742], [-97.82172, 36.35849], [-97.82192, 36.35984], [-97.82126, 36.35984], [-97.82125, 36.35598], [-97.82222, 36.35525], [-97.82266, 36.35409], [-97.82223, 36.35281], [-97.82125, 36.35195], [-97.82124, 36.34922], [-97.825, 36.34918], [-97.82703, 36.35025], [-97.82978, 36.35054], [-97.83183, 36.35012], [-97.83322, 36.34916], [-97.8344, 36.34917]]], [[[-97.83441, 36.3549], [-97.83412, 36.35485], [-97.83441, 36.35457], [-97.83441, 36.3549]]], [[[-97.82695, 36.36618], [-97.82829, 36.36599], [-97.82928, 36.3654], [-97.82997, 36.36369], [-97.83449, 36.36368], [-97.83447, 36.36963], [-97.83238, 36.37004], [-97.83133, 36.37174], [-97.83229, 36.37367], [-97.83448, 36.37433], [-97.82132, 36.37431], [-97.82131, 36.37213], [-97.82284, 36.3721], [-97.82407, 36.37152], [-97.82502, 36.37043], [-97.8252, 36.3693], [-97.82479, 36.36807], [-97.82385, 36.36733], [-97.82273, 36.36702], [-97.82129, 36.3672], [-97.82127, 36.36371], [-97.82428, 36.3637], [-97.82509, 36.36543], [-97.82695, 36.36618]]], [[[-97.82525, 36.39386], [-97.82607, 36.39267], [-97.83047, 36.39269], [-97.82553, 36.39463], [-97.82525, 36.39386]]], [[[-97.80997, 36.40323], [-97.80642, 36.4032], [-97.80645, 36.40046], [-97.80595, 36.39944], [-97.81188, 36.39945], [-97.81287, 36.39984], [-97.81277, 36.40179], [-97.81454, 36.40324], [-97.80997, 36.40323]]], [[[-97.81244, 36.39535], [-97.81205, 36.39518], [-97.8125, 36.39375], [-97.81293, 36.39409], [-97.81244, 36.39535]]], [[[-97.81656, 36.44652], [-97.81409, 36.44653], [-97.81288, 36.44544], [-97.81149, 36.44491], [-97.81005, 36.44319], [-97.80768, 36.44243], [-97.80723, 36.44125], [-97.80618, 36.44019], [-97.80471, 36.43953], [-97.80328, 36.43936], [-97.80327, 36.43593], [-97.81517, 36.43592], [-97.81306, 36.43738], [-97.81247, 36.43964], [-97.81375, 36.44173], [-97.81488, 36.44237], [-97.81652, 36.44272], [-97.81656, 36.44652]]], [[[-97.80327, 36.43206], [-97.80335, 36.42258], [-97.80753, 36.42239], [-97.81015, 36.42141], [-97.81355, 36.42141], [-97.8148, 36.42259], [-97.81661, 36.4228], [-97.81661, 36.42876], [-97.81465, 36.43005], [-97.81391, 36.43206], [-97.80327, 36.43206]], [[-97.81021, 36.42231], [-97.80869, 36.42268], [-97.80743, 36.42347], [-97.80658, 36.42461], [-97.80632, 36.42602], [-97.80675, 36.4274], [-97.80781, 36.42852], [-97.80929, 36.42921], [-97.81097, 36.42938], [-97.81253, 36.42906], [-97.81411, 36.42805], [-97.81486, 36.42692], [-97.81504, 36.4255], [-97.81455, 36.42418], [-97.81358, 36.42318], [-97.8122, 36.42251], [-97.81021, 36.42231]]], [[[-97.82136, 36.45042], [-97.8252, 36.45049], [-97.82612, 36.45223], [-97.82723, 36.45315], [-97.82879, 36.45371], [-97.83058, 36.45372], [-97.8306, 36.45417], [-97.82878, 36.45404], [-97.82686, 36.45459], [-97.82562, 36.45558], [-97.82498, 36.4568], [-97.82501, 36.45843], [-97.82572, 36.45963], [-97.82686, 36.4605], [-97.8286, 36.46118], [-97.82131, 36.46105], [-97.82133, 36.45791], [-97.82289, 36.45674], [-97.82361, 36.45482], [-97.82295, 36.45294], [-97.82136, 36.45172], [-97.82136, 36.45042]]], [[[-97.81653, 36.46103], [-97.80339, 36.46109], [-97.80338, 36.45042], [-97.80676, 36.45041], [-97.80809, 36.45137], [-97.80974, 36.45181], [-97.81162, 36.45168], [-97.81348, 36.45075], [-97.81496, 36.45138], [-97.81658, 36.45124], [-97.81657, 36.45196], [-97.81504, 36.45366], [-97.81481, 36.45498], [-97.81539, 36.4566], [-97.81655, 36.45766], [-97.81653, 36.46103]]], [[[-97.83456, 36.45835], [-97.83328, 36.45909], [-97.8337, 36.45721], [-97.83457, 36.45735], [-97.83456, 36.45835]]], [[[-97.78943, 36.28722], [-97.78816, 36.28563], [-97.7852, 36.28531], [-97.7852, 36.28496], [-97.79307, 36.28626], [-97.79252, 36.28724], [-97.78943, 36.28722]]], [[[-97.81197, 36.29125], [-97.81628, 36.29294], [-97.81631, 36.30194], [-97.80337, 36.30186], [-97.80331, 36.29518], [-97.80575, 36.29533], [-97.8076, 36.29424], [-97.80799, 36.29266], [-97.80685, 36.29122], [-97.81197, 36.29125]]], [[[-97.78538, 36.3162], [-97.78525, 36.29105], [-97.78781, 36.29107], [-97.78889, 36.29172], [-97.79026, 36.29192], [-97.7923, 36.29111], [-97.79849, 36.29116], [-97.79862, 36.31625], [-97.79273, 36.31622], [-97.79182, 36.31463], [-97.78979, 36.31399], [-97.788, 36.3146], [-97.78696, 36.3162], [-97.78538, 36.3162]], [[-97.79079, 36.3067], [-97.79191, 36.30828], [-97.79395, 36.30865], [-97.79614, 36.30779], [-97.79682, 36.30596], [-97.7956, 36.30438], [-97.79357, 36.30395], [-97.79151, 36.30505], [-97.79079, 36.3067]]], [[[-97.78535, 36.33063], [-97.78537, 36.32006], [-97.79861, 36.32012], [-97.79859, 36.3306], [-97.79472, 36.33068], [-97.7944, 36.32928], [-97.79346, 36.32813], [-97.79206, 36.32737], [-97.7902, 36.32709], [-97.78853, 36.32735], [-97.78712, 36.3281], [-97.78617, 36.32924], [-97.78583, 36.33063], [-97.78535, 36.33063]]], [[[-97.80221, 36.33712], [-97.8038, 36.33607], [-97.80414, 36.3346], [-97.81647, 36.33466], [-97.81646, 36.34535], [-97.81368, 36.34532], [-97.81234, 36.34461], [-97.81082, 36.34435], [-97.80908, 36.34303], [-97.80676, 36.34257], [-97.80509, 36.3428], [-97.80373, 36.34348], [-97.80187, 36.34296], [-97.80002, 36.3431], [-97.79821, 36.34398], [-97.79725, 36.34515], [-97.7923, 36.34513], [-97.7906, 36.34411], [-97.78818, 36.34387], [-97.78711, 36.34246], [-97.78547, 36.34163], [-97.78544, 36.33449], [-97.79854, 36.33449], [-97.79955, 36.33655], [-97.80072, 36.33712], [-97.80221, 36.33712]]], [[[-97.8056, 36.35972], [-97.80332, 36.35968], [-97.80334, 36.35315], [-97.80494, 36.35263], [-97.80636, 36.35136], [-97.80877, 36.35189], [-97.81254, 36.35136], [-97.81154, 36.35331], [-97.81226, 36.35479], [-97.81183, 36.35677], [-97.81285, 36.35979], [-97.8056, 36.35972]]], [[[-97.79854, 36.35967], [-97.79544, 36.35968], [-97.79333, 36.3584], [-97.79179, 36.35794], [-97.78997, 36.358], [-97.7882, 36.35869], [-97.78739, 36.3571], [-97.78536, 36.35642], [-97.78543, 36.35064], [-97.78731, 36.35158], [-97.78953, 36.35167], [-97.79176, 36.35071], [-97.79295, 36.349], [-97.79777, 36.34902], [-97.79857, 36.35156], [-97.79854, 36.35967]]], [[[-97.81653, 36.37173], [-97.8144, 36.37238], [-97.81355, 36.37427], [-97.80625, 36.3743], [-97.8051, 36.37492], [-97.80454, 36.37614], [-97.80507, 36.37737], [-97.80645, 36.37805], [-97.81654, 36.37815], [-97.81654, 36.38504], [-97.81405, 36.38506], [-97.81285, 36.38558], [-97.8122, 36.38655], [-97.81221, 36.38875], [-97.80027, 36.38868], [-97.80076, 36.38641], [-97.79966, 36.38457], [-97.7979, 36.38363], [-97.79558, 36.38347], [-97.79364, 36.38413], [-97.7923, 36.38548], [-97.7918, 36.38241], [-97.79118, 36.38107], [-97.78633, 36.37698], [-97.78494, 36.37621], [-97.78328, 36.37593], [-97.78162, 36.37618], [-97.78011, 36.37689], [-97.77835, 36.3785], [-97.77703, 36.37731], [-97.775, 36.37706], [-97.7737, 36.37764], [-97.77298, 36.37884], [-97.76844, 36.37694], [-97.76826, 36.37552], [-97.7675, 36.37435], [-97.76749, 36.36344], [-97.78081, 36.36347], [-97.78114, 36.36453], [-97.78017, 36.36569], [-97.78017, 36.3671], [-97.78121, 36.36834], [-97.78277, 36.36875], [-97.78407, 36.36851], [-97.78522, 36.36762], [-97.78563, 36.36626], [-97.78527, 36.36521], [-97.78604, 36.36448], [-97.78635, 36.36352], [-97.78842, 36.36319], [-97.79102, 36.36182], [-97.79327, 36.36313], [-97.79513, 36.36355], [-97.81649, 36.36369], [-97.8165, 36.36594], [-97.81512, 36.36574], [-97.81385, 36.36607], [-97.81294, 36.36682], [-97.81257, 36.36793], [-97.81289, 36.36898], [-97.81378, 36.36979], [-97.81496, 36.37013], [-97.81652, 36.36992], [-97.81653, 36.37173]], [[-97.79727, 36.36832], [-97.79639, 36.37001], [-97.79721, 36.37161], [-97.79905, 36.37226], [-97.80107, 36.37163], [-97.80207, 36.36998], [-97.80126, 36.36828], [-97.79918, 36.36761], [-97.79727, 36.36832]], [[-97.77474, 36.3743], [-97.77315, 36.37314], [-97.77104, 36.37329], [-97.76957, 36.37457], [-97.76969, 36.37645], [-97.77137, 36.37749], [-97.77345, 36.3773], [-97.77484, 36.37603], [-97.77474, 36.3743]]], [[[-97.78994, 36.39251], [-97.78978, 36.39548], [-97.78551, 36.39549], [-97.7855, 36.39334], [-97.78689, 36.39251], [-97.78994, 36.39251]]], [[[-97.78072, 36.3955], [-97.77027, 36.39552], [-97.76984, 36.39364], [-97.76744, 36.39244], [-97.78022, 36.39249], [-97.78072, 36.39288], [-97.78072, 36.3955]]], [[[-97.76747, 36.38857], [-97.76754, 36.38184], [-97.76899, 36.38291], [-97.77189, 36.38273], [-97.778, 36.38531], [-97.77794, 36.38707], [-97.77885, 36.38862], [-97.76747, 36.38857]]], [[[-97.80936, 36.40709], [-97.81658, 36.40711], [-97.81657, 36.41043], [-97.80862, 36.41036], [-97.80885, 36.40847], [-97.80854, 36.40708], [-97.80936, 36.40709]]], [[[-97.79856, 36.42577], [-97.7985, 36.42929], [-97.79662, 36.43033], [-97.79576, 36.43208], [-97.7855, 36.43211], [-97.7856, 36.43092], [-97.7874, 36.43159], [-97.78921, 36.43111], [-97.79009, 36.43019], [-97.79039, 36.42919], [-97.79003, 36.42812], [-97.78866, 36.42666], [-97.78735, 36.42615], [-97.78589, 36.42621], [-97.78546, 36.42584], [-97.78546, 36.42379], [-97.78667, 36.42354], [-97.78752, 36.42293], [-97.78878, 36.42386], [-97.79046, 36.42404], [-97.79339, 36.42324], [-97.79469, 36.42238], [-97.79546, 36.42404], [-97.79686, 36.42483], [-97.79856, 36.42482], [-97.79856, 36.42577]]], [[[-97.78956, 36.41653], [-97.78847, 36.41616], [-97.78892, 36.41422], [-97.79583, 36.41421], [-97.7986, 36.4153], [-97.7953, 36.41564], [-97.79387, 36.417], [-97.7918, 36.41636], [-97.78956, 36.41653]]], [[[-97.77632, 36.41844], [-97.77583, 36.42046], [-97.77665, 36.42213], [-97.77884, 36.42274], [-97.78067, 36.42198], [-97.78068, 36.42517], [-97.77874, 36.42642], [-97.77797, 36.42856], [-97.7787, 36.4304], [-97.78072, 36.43171], [-97.78072, 36.4321], [-97.76751, 36.43203], [-97.76754, 36.42346], [-97.76965, 36.42373], [-97.77167, 36.42321], [-97.77346, 36.42141], [-97.77498, 36.42074], [-97.77554, 36.41952], [-97.77469, 36.41802], [-97.77297, 36.41756], [-97.77151, 36.41659], [-97.76945, 36.41622], [-97.76749, 36.41658], [-97.76737, 36.40932], [-97.77253, 36.41313], [-97.77609, 36.41414], [-97.77948, 36.41422], [-97.77788, 36.41486], [-97.77684, 36.41583], [-97.77627, 36.41717], [-97.77632, 36.41844]]], [[[-97.78548, 36.407], [-97.78553, 36.407], [-97.78548, 36.40703], [-97.78548, 36.407]]], [[[-97.78801, 36.40312], [-97.78547, 36.40313], [-97.78549, 36.3996], [-97.79864, 36.39952], [-97.79866, 36.40184], [-97.79775, 36.40312], [-97.79659, 36.40311], [-97.79511, 36.40228], [-97.79312, 36.40202], [-97.79145, 36.40228], [-97.78996, 36.40311], [-97.78801, 36.40312]]], [[[-97.7985, 36.44137], [-97.79857, 36.44658], [-97.78546, 36.44668], [-97.7855, 36.43597], [-97.79048, 36.43596], [-97.79044, 36.43719], [-97.79108, 36.43856], [-97.79229, 36.43957], [-97.79392, 36.44012], [-97.79661, 36.43988], [-97.79849, 36.4386], [-97.7985, 36.44137]]], [[[-97.79386, 36.46753], [-97.79629, 36.46681], [-97.79802, 36.46498], [-97.7985, 36.46498], [-97.79857, 36.47264], [-97.79733, 36.47291], [-97.79548, 36.47203], [-97.79323, 36.47198], [-97.7911, 36.47291], [-97.79002, 36.47431], [-97.78521, 36.4751], [-97.78518, 36.46867], [-97.78575, 36.47024], [-97.78695, 36.47134], [-97.78857, 36.47194], [-97.79042, 36.47197], [-97.79206, 36.47145], [-97.7933, 36.47045], [-97.79394, 36.46918], [-97.79386, 36.46753]]], [[[-97.7852, 36.46501], [-97.78889, 36.46501], [-97.78646, 36.46599], [-97.78555, 36.46705], [-97.78518, 36.46828], [-97.7852, 36.46501]]], [[[-97.78831, 36.46114], [-97.78525, 36.46114], [-97.78542, 36.45055], [-97.79859, 36.45044], [-97.79857, 36.45759], [-97.79616, 36.45837], [-97.79463, 36.46039], [-97.79283, 36.46041], [-97.791, 36.46113], [-97.78831, 36.46114]]], [[[-97.80338, 36.47099], [-97.80328, 36.46496], [-97.81646, 36.46489], [-97.81645, 36.46702], [-97.80933, 36.46965], [-97.80338, 36.47131], [-97.80338, 36.47099]]], [[[-97.78042, 36.28492], [-97.78036, 36.28494], [-97.77995, 36.28427], [-97.78042, 36.28434], [-97.78042, 36.28492]]], [[[-97.77509, 36.28398], [-97.77451, 36.28575], [-97.77561, 36.28736], [-97.75254, 36.28747], [-97.75269, 36.28685], [-97.7541, 36.287], [-97.75543, 36.28665], [-97.75652, 36.28554], [-97.75818, 36.28676], [-97.76082, 36.28657], [-97.76208, 36.28547], [-97.76213, 36.28359], [-97.76652, 36.28346], [-97.77509, 36.28398]]], [[[-97.75654, 36.28385], [-97.75649, 36.28376], [-97.7566, 36.28375], [-97.75654, 36.28385]]], [[[-97.75102, 36.28432], [-97.75098, 36.28465], [-97.74981, 36.28435], [-97.75106, 36.28422], [-97.75102, 36.28432]]], [[[-97.75988, 36.29137], [-97.76164, 36.29136], [-97.76213, 36.29291], [-97.76138, 36.29215], [-97.7601, 36.2916], [-97.75851, 36.29165], [-97.75734, 36.29233], [-97.75595, 36.29135], [-97.75988, 36.29137]]], [[[-97.74959, 36.29133], [-97.75347, 36.29134], [-97.75181, 36.29247], [-97.75156, 36.29417], [-97.75285, 36.29558], [-97.75528, 36.29625], [-97.75661, 36.29595], [-97.75746, 36.2953], [-97.75894, 36.29605], [-97.76045, 36.29606], [-97.76176, 36.29535], [-97.76237, 36.29429], [-97.76328, 36.29516], [-97.76464, 36.29559], [-97.76799, 36.29498], [-97.76897, 36.29437], [-97.7696, 36.29321], [-97.76894, 36.29133], [-97.78047, 36.2911], [-97.78048, 36.29191], [-97.77929, 36.29229], [-97.77844, 36.29307], [-97.77811, 36.29477], [-97.77882, 36.29632], [-97.78063, 36.29702], [-97.7806, 36.30169], [-97.77011, 36.30187], [-97.7685, 36.30021], [-97.76681, 36.29978], [-97.76481, 36.30037], [-97.76364, 36.30197], [-97.76313, 36.30197], [-97.76324, 36.30063], [-97.76271, 36.29951], [-97.76169, 36.2987], [-97.76025, 36.29838], [-97.75883, 36.29875], [-97.75764, 36.29974], [-97.75727, 36.30075], [-97.75766, 36.30197], [-97.7567, 36.30197], [-97.75528, 36.30055], [-97.75358, 36.30027], [-97.75189, 36.3008], [-97.75102, 36.30197], [-97.74964, 36.30197], [-97.74959, 36.29133]], [[-97.77918, 36.29958], [-97.77927, 36.29782], [-97.77789, 36.29657], [-97.77535, 36.29615], [-97.77351, 36.29726], [-97.77339, 36.29907], [-97.77493, 36.30058], [-97.77755, 36.30075], [-97.77918, 36.29958]]], [[[-97.77996, 36.30727], [-97.78062, 36.30735], [-97.7806, 36.31621], [-97.77024, 36.31634], [-97.76954, 36.31454], [-97.76735, 36.31368], [-97.76731, 36.31022], [-97.76655, 36.30951], [-97.76523, 36.30917], [-97.7637, 36.30959], [-97.76283, 36.31081], [-97.76128, 36.31032], [-97.75962, 36.31063], [-97.75833, 36.31195], [-97.75835, 36.31322], [-97.75929, 36.3143], [-97.76088, 36.31477], [-97.76255, 36.3144], [-97.76249, 36.31642], [-97.74976, 36.31652], [-97.74969, 36.3089], [-97.75111, 36.30754], [-97.75082, 36.30584], [-97.75488, 36.30584], [-97.75576, 36.30646], [-97.757, 36.30671], [-97.7583, 36.30644], [-97.75917, 36.30584], [-97.77801, 36.30559], [-97.77871, 36.30668], [-97.77996, 36.30727]]], [[[-97.7795, 36.34371], [-97.779, 36.34512], [-97.77434, 36.3451], [-97.77243, 36.34395], [-97.77343, 36.34287], [-97.77505, 36.34313], [-97.77653, 36.34263], [-97.77857, 36.33931], [-97.78067, 36.33839], [-97.78069, 36.3425], [-97.7795, 36.34371]]], [[[-97.77187, 36.35037], [-97.77322, 36.34896], [-97.78067, 36.34898], [-97.78058, 36.3596], [-97.76746, 36.35958], [-97.76824, 36.35821], [-97.76835, 36.35674], [-97.76944, 36.3553], [-97.76924, 36.35356], [-97.77044, 36.35243], [-97.7706, 36.35092], [-97.77187, 36.35037]]], [[[-97.76201, 36.36348], [-97.76271, 36.36405], [-97.76271, 36.37298], [-97.76103, 36.37342], [-97.75984, 36.37334], [-97.75203, 36.37009], [-97.75106, 36.36916], [-97.74965, 36.36886], [-97.74953, 36.36337], [-97.76201, 36.36348]], [[-97.75396, 36.36923], [-97.75604, 36.36978], [-97.75791, 36.36885], [-97.7587, 36.36683], [-97.75749, 36.36513], [-97.75552, 36.36479], [-97.75371, 36.36581], [-97.75302, 36.36769], [-97.75396, 36.36923]]], [[[-97.75798, 36.35861], [-97.75776, 36.35954], [-97.74949, 36.3595], [-97.74949, 36.35836], [-97.75142, 36.35885], [-97.7533, 36.35807], [-97.75403, 36.35694], [-97.75414, 36.35524], [-97.75381, 36.35367], [-97.75273, 36.35262], [-97.75104, 36.35227], [-97.74951, 36.35283], [-97.74943, 36.34882], [-97.76254, 36.34892], [-97.76262, 36.35527], [-97.76032, 36.35584], [-97.75798, 36.35861]]], [[[-97.7625, 36.34371], [-97.762, 36.34505], [-97.75133, 36.34498], [-97.7507, 36.34376], [-97.7514, 36.3427], [-97.75134, 36.34161], [-97.75069, 36.34062], [-97.74971, 36.34001], [-97.74977, 36.33916], [-97.75165, 36.3363], [-97.75118, 36.33449], [-97.76255, 36.33446], [-97.7625, 36.34371]]], [[[-97.76787, 36.34166], [-97.76731, 36.34139], [-97.76733, 36.33446], [-97.77506, 36.33447], [-97.77411, 36.33629], [-97.77205, 36.33566], [-97.77005, 36.33647], [-97.76942, 36.33764], [-97.76981, 36.3392], [-97.76787, 36.34166]]], [[[-97.77698, 36.33001], [-97.77639, 36.3306], [-97.76733, 36.3306], [-97.76719, 36.32024], [-97.78059, 36.32008], [-97.78058, 36.32891], [-97.77698, 36.33001]]], [[[-97.78051, 36.33449], [-97.78066, 36.33448], [-97.78066, 36.33463], [-97.78051, 36.33449]]], [[[-97.81638, 36.32447], [-97.81644, 36.33079], [-97.80337, 36.33073], [-97.80339, 36.32018], [-97.81643, 36.32031], [-97.81638, 36.32447]]], [[[-97.84046, 36.34014], [-97.8441, 36.34001], [-97.8434, 36.34117], [-97.84329, 36.3453], [-97.83916, 36.3453], [-97.83915, 36.34011], [-97.84046, 36.34014]]], [[[-97.69579, 36.45188], [-97.69577, 36.45052], [-97.70888, 36.45052], [-97.7089, 36.46116], [-97.70644, 36.46054], [-97.70389, 36.46117], [-97.70055, 36.46117], [-97.69573, 36.45857], [-97.69579, 36.45188]]], [[[-97.70891, 36.43599], [-97.70888, 36.44665], [-97.69573, 36.44665], [-97.69574, 36.43595], [-97.70891, 36.43599]]], [[[-97.70894, 36.43212], [-97.69573, 36.43208], [-97.69576, 36.42137], [-97.69643, 36.42332], [-97.69843, 36.42417], [-97.70055, 36.42347], [-97.7016, 36.42136], [-97.70892, 36.42136], [-97.70894, 36.42592], [-97.70762, 36.42541], [-97.706, 36.42559], [-97.70478, 36.42643], [-97.70417, 36.4278], [-97.70471, 36.42911], [-97.70595, 36.42986], [-97.70755, 36.42995], [-97.70894, 36.42931], [-97.70894, 36.43212]]], [[[-97.69655, 36.40682], [-97.70876, 36.4068], [-97.70887, 36.41749], [-97.69575, 36.4175], [-97.6956, 36.40674], [-97.69655, 36.40682]]], [[[-97.70072, 36.39968], [-97.70872, 36.39968], [-97.70874, 36.40293], [-97.69556, 36.40286], [-97.69553, 36.3995], [-97.70072, 36.39968]]], [[[-97.70873, 36.39231], [-97.70871, 36.39557], [-97.69558, 36.39539], [-97.69556, 36.39239], [-97.70873, 36.39231]]], [[[-97.70247, 36.37913], [-97.70357, 36.37782], [-97.70878, 36.37781], [-97.70872, 36.38844], [-97.69555, 36.38853], [-97.69555, 36.37783], [-97.69887, 36.37782], [-97.69931, 36.37865], [-97.70022, 36.37924], [-97.70136, 36.37942], [-97.70247, 36.37913]]], [[[-97.69556, 36.37297], [-97.69564, 36.36331], [-97.70885, 36.36337], [-97.70882, 36.37395], [-97.70308, 36.37395], [-97.70232, 36.37299], [-97.70081, 36.37253], [-97.69928, 36.37296], [-97.69847, 36.37396], [-97.69555, 36.37396], [-97.69556, 36.37297]]], [[[-97.70137, 36.34887], [-97.70411, 36.34887], [-97.70413, 36.34962], [-97.70339, 36.34972], [-97.70137, 36.34887]]], [[[-97.7067, 36.34216], [-97.70717, 36.34274], [-97.70563, 36.34271], [-97.70344, 36.34351], [-97.70261, 36.345], [-97.6956, 36.34499], [-97.69562, 36.34115], [-97.69693, 36.34301], [-97.69907, 36.34335], [-97.70071, 36.34243], [-97.70121, 36.34082], [-97.70347, 36.34106], [-97.70451, 36.34057], [-97.70531, 36.33964], [-97.70666, 36.33988], [-97.7067, 36.34216]]], [[[-97.70882, 36.33436], [-97.70881, 36.33487], [-97.70733, 36.33444], [-97.70589, 36.33469], [-97.70439, 36.33593], [-97.7011, 36.33605], [-97.70034, 36.335], [-97.69916, 36.33447], [-97.70882, 36.33436]]], [[[-97.69562, 36.34071], [-97.69566, 36.33516], [-97.69621, 36.33534], [-97.69572, 36.33637], [-97.69586, 36.33761], [-97.69729, 36.33891], [-97.69623, 36.33953], [-97.69562, 36.34071]]], [[[-97.70878, 36.34333], [-97.70878, 36.34383], [-97.70827, 36.34326], [-97.70878, 36.34333]]], [[[-97.68394, 36.33815], [-97.68356, 36.33686], [-97.68067, 36.33448], [-97.68411, 36.33443], [-97.68405, 36.33557], [-97.68454, 36.33651], [-97.68552, 36.33715], [-97.68686, 36.33738], [-97.68803, 36.33716], [-97.68909, 36.33644], [-97.68955, 36.3355], [-97.68946, 36.33436], [-97.69088, 36.33434], [-97.69082, 36.34448], [-97.68084, 36.34029], [-97.68298, 36.33995], [-97.68369, 36.3392], [-97.68394, 36.33815]]], [[[-97.6792, 36.33896], [-97.68, 36.33994], [-97.67776, 36.339], [-97.67777, 36.3376], [-97.6792, 36.33896]]], [[[-97.67776, 36.34507], [-97.67776, 36.34335], [-97.68177, 36.34504], [-97.67776, 36.34507]]], [[[-97.66873, 36.33957], [-97.66893, 36.34088], [-97.67035, 36.34302], [-97.67153, 36.34388], [-97.67298, 36.34407], [-97.67298, 36.34508], [-97.66006, 36.34509], [-97.66003, 36.33817], [-97.66229, 36.33854], [-97.66397, 36.33758], [-97.66873, 36.33957]]], [[[-97.67301, 36.33453], [-97.673, 36.33524], [-97.67123, 36.33627], [-97.66698, 36.33449], [-97.67301, 36.33453]]], [[[-97.65528, 36.3451], [-97.65385, 36.3451], [-97.65527, 36.34202], [-97.65528, 36.3451]]], [[[-97.78038, 36.47106], [-97.78044, 36.47562], [-97.769, 36.47555], [-97.76759, 36.4748], [-97.76756, 36.46495], [-97.76965, 36.46496], [-97.76869, 36.46596], [-97.76823, 36.46718], [-97.76886, 36.46944], [-97.7705, 36.47069], [-97.77262, 36.47112], [-97.77515, 36.47047], [-97.77672, 36.46883], [-97.77689, 36.46682], [-97.77558, 36.46498], [-97.78042, 36.465], [-97.78038, 36.47106]]], [[[-97.75032, 36.47559], [-97.74959, 36.47559], [-97.74963, 36.46499], [-97.76277, 36.46495], [-97.76279, 36.47055], [-97.76012, 36.47037], [-97.7577, 36.47157], [-97.75669, 36.47364], [-97.75725, 36.47555], [-97.75032, 36.47559]]], [[[-97.73168, 36.4703], [-97.73167, 36.46503], [-97.73525, 36.46532], [-97.7389, 36.46502], [-97.73965, 36.46615], [-97.74107, 36.46709], [-97.74282, 36.46747], [-97.74483, 36.46722], [-97.74481, 36.47504], [-97.74018, 36.47444], [-97.73166, 36.47262], [-97.73168, 36.4703]]], [[[-97.71936, 36.46508], [-97.72127, 36.46507], [-97.72211, 36.46628], [-97.72378, 36.46725], [-97.72537, 36.46751], [-97.72689, 36.4673], [-97.72688, 36.47143], [-97.71785, 36.46871], [-97.71369, 36.46706], [-97.71369, 36.46504], [-97.71936, 36.46508]]], [[[-97.72268, 36.4505], [-97.72682, 36.45049], [-97.72681, 36.46054], [-97.72461, 36.46042], [-97.72261, 36.46119], [-97.71369, 36.46118], [-97.71366, 36.45051], [-97.72268, 36.4505]]], [[[-97.73828, 36.45048], [-97.74486, 36.45048], [-97.74484, 36.46067], [-97.74262, 36.46043], [-97.7395, 36.46115], [-97.73816, 36.45919], [-97.73576, 36.45829], [-97.73346, 36.45851], [-97.73157, 36.45968], [-97.73161, 36.45049], [-97.73828, 36.45048]]], [[[-97.74964, 36.4539], [-97.74965, 36.45049], [-97.76277, 36.45047], [-97.76276, 36.46109], [-97.74962, 36.46113], [-97.74964, 36.4539]]], [[[-97.78063, 36.45055], [-97.78046, 36.46113], [-97.76755, 36.46109], [-97.76756, 36.45048], [-97.78063, 36.45055]]], [[[-97.76752, 36.4359], [-97.78071, 36.43597], [-97.78067, 36.44669], [-97.76755, 36.44661], [-97.76752, 36.4359]]], [[[-97.77488, 36.40976], [-97.77342, 36.40874], [-97.77125, 36.40699], [-97.77545, 36.40699], [-97.77528, 36.40992], [-97.77488, 36.40976]]], [[[-97.76976, 36.40262], [-97.77006, 36.40312], [-97.76731, 36.4031], [-97.76736, 36.39963], [-97.77119, 36.39962], [-97.76985, 36.40103], [-97.76976, 36.40262]]], [[[-97.78061, 36.40101], [-97.7807, 36.4008], [-97.78069, 36.40314], [-97.77493, 36.40313], [-97.77579, 36.40209], [-97.77863, 36.4024], [-97.77993, 36.4018], [-97.78061, 36.40101]]], [[[-97.80341, 36.31254], [-97.8034, 36.30573], [-97.81631, 36.30581], [-97.81642, 36.31644], [-97.8034, 36.31631], [-97.80341, 36.31254]], [[-97.81053, 36.30765], [-97.80989, 36.3067], [-97.80878, 36.30611], [-97.80637, 36.30633], [-97.80499, 36.3079], [-97.80549, 36.30983], [-97.80718, 36.31089], [-97.80928, 36.31064], [-97.8105, 36.3094], [-97.81053, 36.30765]]], [[[-97.73809, 36.39966], [-97.75535, 36.39964], [-97.75919, 36.40272], [-97.75795, 36.40313], [-97.73146, 36.40313], [-97.73146, 36.39968], [-97.73809, 36.39966]]], [[[-97.76257, 36.39963], [-97.76257, 36.39999], [-97.76213, 36.39963], [-97.76257, 36.39963]]], [[[-97.76259, 36.4092], [-97.76271, 36.4175], [-97.74955, 36.41751], [-97.74927, 36.40705], [-97.75597, 36.40701], [-97.75688, 36.40849], [-97.75859, 36.40949], [-97.76076, 36.40972], [-97.76259, 36.4092]]], [[[-97.7505, 36.43204], [-97.74963, 36.43204], [-97.74962, 36.42279], [-97.75125, 36.42235], [-97.75213, 36.42138], [-97.76275, 36.42137], [-97.76274, 36.42933], [-97.76034, 36.4301], [-97.75884, 36.43203], [-97.7505, 36.43204]]], [[[-97.74012, 36.41751], [-97.73157, 36.4175], [-97.7315, 36.407], [-97.74449, 36.40705], [-97.74476, 36.41751], [-97.74012, 36.41751]]], [[[-97.73955, 36.43206], [-97.73695, 36.43205], [-97.73538, 36.43139], [-97.73159, 36.43076], [-97.73159, 36.42137], [-97.74482, 36.42138], [-97.74484, 36.43205], [-97.73955, 36.43206]]], [[[-97.71356, 36.40892], [-97.71355, 36.40684], [-97.72672, 36.40696], [-97.72678, 36.41754], [-97.71366, 36.41749], [-97.71356, 36.40892]]], [[[-97.7268, 36.43082], [-97.7268, 36.43086], [-97.72677, 36.43086], [-97.72679, 36.43083], [-97.7268, 36.43082]]], [[[-97.72681, 36.42141], [-97.72681, 36.42711], [-97.72536, 36.4262], [-97.72339, 36.4261], [-97.72189, 36.42667], [-97.7211, 36.42771], [-97.72104, 36.42986], [-97.72141, 36.43082], [-97.72244, 36.43164], [-97.72424, 36.43191], [-97.72405, 36.43208], [-97.71373, 36.43212], [-97.7137, 36.42136], [-97.72681, 36.42141]]], [[[-97.67222, 36.32891], [-97.67302, 36.32905], [-97.67302, 36.33002], [-97.6709, 36.32948], [-97.66969, 36.32986], [-97.66884, 36.33062], [-97.6626, 36.33061], [-97.66665, 36.3253], [-97.67099, 36.32076], [-97.67193, 36.32145], [-97.67302, 36.32166], [-97.67302, 36.32397], [-97.67138, 36.325], [-97.67073, 36.32695], [-97.67114, 36.32821], [-97.67222, 36.32891]]], [[[-97.68971, 36.32283], [-97.69095, 36.32296], [-97.69091, 36.33048], [-97.68978, 36.33049], [-97.68885, 36.32929], [-97.68696, 36.32882], [-97.6853, 36.3293], [-97.68418, 36.33056], [-97.68035, 36.33062], [-97.68267, 36.32791], [-97.68286, 36.32638], [-97.68215, 36.3253], [-97.68101, 36.32473], [-97.6778, 36.32506], [-97.6778, 36.3202], [-97.68139, 36.32029], [-97.68071, 36.32129], [-97.68079, 36.32272], [-97.68147, 36.32358], [-97.68272, 36.32413], [-97.68439, 36.3241], [-97.68577, 36.32326], [-97.68624, 36.32172], [-97.68561, 36.32039], [-97.68806, 36.32045], [-97.68832, 36.32175], [-97.68971, 36.32283]], [[-97.68463, 36.32598], [-97.68536, 36.32761], [-97.68726, 36.32828], [-97.68953, 36.32767], [-97.69042, 36.32609], [-97.68972, 36.32456], [-97.68782, 36.32383], [-97.68559, 36.32439], [-97.68463, 36.32598]]], [[[-97.6968, 36.32055], [-97.7006, 36.32052], [-97.70144, 36.32182], [-97.70448, 36.32338], [-97.70673, 36.3237], [-97.70892, 36.32319], [-97.70884, 36.33049], [-97.70244, 36.33045], [-97.70152, 36.32968], [-97.7, 36.32936], [-97.69867, 36.32964], [-97.69757, 36.33045], [-97.69569, 36.33045], [-97.69573, 36.32293], [-97.69676, 36.32181], [-97.6968, 36.32055]]], [[[-97.7089, 36.30595], [-97.70893, 36.31626], [-97.70611, 36.31553], [-97.70406, 36.31591], [-97.70267, 36.31664], [-97.6998, 36.31666], [-97.70109, 36.31583], [-97.70151, 36.31439], [-97.70085, 36.31303], [-97.69952, 36.31239], [-97.69732, 36.31257], [-97.69593, 36.31403], [-97.69566, 36.31383], [-97.69566, 36.31142], [-97.6973, 36.31176], [-97.69876, 36.31137], [-97.6999, 36.3104], [-97.70021, 36.30933], [-97.69972, 36.30812], [-97.69869, 36.30742], [-97.69712, 36.3072], [-97.69566, 36.30752], [-97.69566, 36.30596], [-97.7089, 36.30595]]], [[[-97.69778, 36.31668], [-97.69633, 36.31669], [-97.69659, 36.3161], [-97.69778, 36.31668]]], [[[-97.69091, 36.31665], [-97.67781, 36.31633], [-97.67781, 36.3159], [-97.67925, 36.31595], [-97.68049, 36.31542], [-97.68139, 36.31384], [-97.68323, 36.31418], [-97.68503, 36.31335], [-97.68561, 36.31229], [-97.68545, 36.31101], [-97.68465, 36.31018], [-97.68328, 36.30973], [-97.68865, 36.3059], [-97.69088, 36.30593], [-97.69088, 36.30875], [-97.68932, 36.30809], [-97.68723, 36.3084], [-97.68613, 36.30941], [-97.68597, 36.31091], [-97.6864, 36.31184], [-97.68741, 36.31257], [-97.68672, 36.31406], [-97.68723, 36.31552], [-97.68857, 36.31636], [-97.69091, 36.31629], [-97.69091, 36.31665]]], [[[-97.69565, 36.3021], [-97.69565, 36.30157], [-97.70001, 36.29903], [-97.70891, 36.29484], [-97.70891, 36.30208], [-97.69565, 36.3021]]], [[[-97.75593, 36.38704], [-97.75639, 36.38681], [-97.75633, 36.38857], [-97.75813, 36.38861], [-97.74943, 36.38864], [-97.75365, 36.38832], [-97.75593, 36.38704]]], [[[-97.73151, 36.38052], [-97.73528, 36.3836], [-97.74161, 36.38864], [-97.73141, 36.38863], [-97.73151, 36.38052]]], [[[-97.7397, 36.38169], [-97.73505, 36.37791], [-97.73958, 36.3779], [-97.74037, 36.37922], [-97.74188, 36.37986], [-97.74316, 36.37979], [-97.74418, 36.37932], [-97.74481, 36.38086], [-97.74471, 36.38568], [-97.7397, 36.38169]]], [[[-97.73618, 36.36346], [-97.74035, 36.36343], [-97.74122, 36.36436], [-97.74253, 36.36479], [-97.74476, 36.36424], [-97.74483, 36.36707], [-97.73618, 36.36346]]], [[[-97.74334, 36.37403], [-97.7316, 36.37405], [-97.73166, 36.36592], [-97.74164, 36.37009], [-97.74121, 36.37114], [-97.74139, 36.37247], [-97.74209, 36.37341], [-97.74365, 36.37404], [-97.74334, 36.37403]]], [[[-97.74492, 36.37393], [-97.74492, 36.37404], [-97.74432, 36.37404], [-97.74467, 36.37399], [-97.74492, 36.37393]]], [[[-97.74465, 36.34877], [-97.74471, 36.35949], [-97.73881, 36.35958], [-97.73917, 36.35811], [-97.74042, 36.35834], [-97.74173, 36.3581], [-97.74274, 36.35739], [-97.74329, 36.35615], [-97.74301, 36.3549], [-97.74208, 36.35362], [-97.7419, 36.3522], [-97.7402, 36.35082], [-97.7402, 36.34982], [-97.73962, 36.34892], [-97.74465, 36.34877]]], [[[-97.73163, 36.3572], [-97.73157, 36.35044], [-97.73403, 36.35138], [-97.73513, 36.3525], [-97.73639, 36.35284], [-97.73757, 36.35631], [-97.73592, 36.35616], [-97.73391, 36.35711], [-97.73163, 36.3572]]], [[[-97.72426, 36.3684], [-97.72534, 36.3691], [-97.72685, 36.36924], [-97.72684, 36.37119], [-97.71942, 36.3653], [-97.7217, 36.36488], [-97.72259, 36.36341], [-97.72569, 36.36342], [-97.72689, 36.36392], [-97.72689, 36.36537], [-97.7253, 36.36553], [-97.72412, 36.36641], [-97.72385, 36.36733], [-97.72426, 36.3684]]], [[[-97.72356, 36.374], [-97.71361, 36.37395], [-97.71361, 36.36606], [-97.71623, 36.36819], [-97.72356, 36.374]]], [[[-97.71651, 36.38706], [-97.71531, 36.38847], [-97.7135, 36.38846], [-97.71357, 36.37782], [-97.72675, 36.37789], [-97.72663, 36.3886], [-97.72005, 36.38852], [-97.71964, 36.38764], [-97.71877, 36.38703], [-97.71763, 36.38681], [-97.71651, 36.38706]]], [[[-97.72501, 36.33548], [-97.72675, 36.33617], [-97.72548, 36.33631], [-97.72444, 36.33689], [-97.72383, 36.33778], [-97.72375, 36.33895], [-97.72479, 36.34022], [-97.72676, 36.34064], [-97.72675, 36.34296], [-97.72383, 36.3433], [-97.7227, 36.34403], [-97.72208, 36.34503], [-97.71485, 36.34502], [-97.71395, 36.34453], [-97.7151, 36.34379], [-97.71601, 36.34206], [-97.71589, 36.34079], [-97.71508, 36.33989], [-97.71729, 36.33947], [-97.7187, 36.33871], [-97.71944, 36.33741], [-97.71913, 36.33578], [-97.72038, 36.3344], [-97.72434, 36.3344], [-97.72501, 36.33548]]], [[[-97.71367, 36.33527], [-97.71359, 36.33532], [-97.71359, 36.33515], [-97.71367, 36.33527]]], [[[-97.71567, 36.35953], [-97.71387, 36.35953], [-97.71461, 36.35879], [-97.71638, 36.35953], [-97.71567, 36.35953]]], [[[-97.71831, 36.35599], [-97.7169, 36.3554], [-97.71799, 36.35378], [-97.71742, 36.35203], [-97.71552, 36.35111], [-97.71356, 36.35145], [-97.71538, 36.35013], [-97.71619, 36.34888], [-97.72415, 36.34889], [-97.72539, 36.3497], [-97.72679, 36.35007], [-97.72686, 36.35956], [-97.71831, 36.35599]], [[-97.72356, 36.35506], [-97.72544, 36.35374], [-97.72566, 36.352], [-97.72425, 36.35036], [-97.72214, 36.3501], [-97.72007, 36.35141], [-97.71969, 36.35297], [-97.72126, 36.35477], [-97.72356, 36.35506]]], [[[-97.74489, 36.28635], [-97.74486, 36.28745], [-97.73176, 36.28748], [-97.74489, 36.28489], [-97.74489, 36.28635]]], [[[-97.71366, 36.29296], [-97.71777, 36.29144], [-97.72222, 36.29141], [-97.72316, 36.29232], [-97.72462, 36.29276], [-97.72581, 36.29264], [-97.72706, 36.29198], [-97.72702, 36.30205], [-97.7266, 36.30205], [-97.72535, 36.29957], [-97.72306, 36.29888], [-97.72173, 36.2991], [-97.72065, 36.29983], [-97.72018, 36.30082], [-97.72029, 36.30206], [-97.71369, 36.30207], [-97.71366, 36.29296]]], [[[-97.7155, 36.31668], [-97.71494, 36.31565], [-97.7137, 36.31499], [-97.71368, 36.30769], [-97.71519, 36.3081], [-97.71652, 36.30783], [-97.71773, 36.30695], [-97.71823, 36.30593], [-97.72698, 36.30592], [-97.72688, 36.31662], [-97.72614, 36.31663], [-97.72594, 36.31504], [-97.72463, 36.31338], [-97.72258, 36.31267], [-97.72145, 36.31287], [-97.72041, 36.31353], [-97.71991, 36.31546], [-97.71879, 36.31514], [-97.71738, 36.31528], [-97.7155, 36.31668]]], [[[-97.73764, 36.32107], [-97.73785, 36.3231], [-97.73904, 36.32416], [-97.74112, 36.32441], [-97.74287, 36.32352], [-97.7434, 36.32227], [-97.74327, 36.31973], [-97.74257, 36.31874], [-97.74046, 36.31765], [-97.74264, 36.31721], [-97.74369, 36.31656], [-97.74423, 36.31559], [-97.74412, 36.31404], [-97.74276, 36.31276], [-97.74051, 36.31255], [-97.73935, 36.31309], [-97.73818, 36.31432], [-97.73784, 36.31549], [-97.73815, 36.3165], [-97.73166, 36.31658], [-97.73175, 36.30591], [-97.7328, 36.30728], [-97.73471, 36.30791], [-97.73668, 36.30734], [-97.73767, 36.30589], [-97.74398, 36.30587], [-97.74402, 36.30696], [-97.74174, 36.30742], [-97.74097, 36.3082], [-97.74072, 36.30923], [-97.74107, 36.31019], [-97.74238, 36.31158], [-97.74357, 36.31202], [-97.74494, 36.31195], [-97.74479, 36.32625], [-97.74302, 36.32546], [-97.74006, 36.32572], [-97.73882, 36.32704], [-97.7392, 36.32854], [-97.73887, 36.33055], [-97.73421, 36.33054], [-97.73329, 36.32938], [-97.73155, 36.32892], [-97.73163, 36.32045], [-97.73275, 36.32139], [-97.73392, 36.32172], [-97.7361, 36.32131], [-97.73719, 36.32058], [-97.73764, 36.32107]]], [[[-97.7447, 36.3298], [-97.74468, 36.33054], [-97.74415, 36.33054], [-97.74451, 36.33014], [-97.7447, 36.3298]]], [[[-97.73181, 36.29135], [-97.73471, 36.29133], [-97.73572, 36.29219], [-97.73727, 36.29258], [-97.73881, 36.29221], [-97.73976, 36.29131], [-97.74481, 36.29132], [-97.74486, 36.3004], [-97.74371, 36.30007], [-97.74187, 36.30014], [-97.74057, 36.30086], [-97.73999, 36.30202], [-97.73727, 36.30202], [-97.73593, 36.30107], [-97.73712, 36.30081], [-97.73805, 36.30012], [-97.73839, 36.29803], [-97.73732, 36.29689], [-97.73533, 36.29658], [-97.73374, 36.29729], [-97.73303, 36.29863], [-97.73336, 36.29988], [-97.7348, 36.30088], [-97.73353, 36.30111], [-97.73235, 36.30204], [-97.7318, 36.30204], [-97.73181, 36.29135]]], [[[-97.7226, 36.32401], [-97.72439, 36.32432], [-97.72614, 36.3234], [-97.72684, 36.32453], [-97.72674, 36.33054], [-97.72368, 36.33053], [-97.72314, 36.3286], [-97.72206, 36.32789], [-97.72092, 36.32767], [-97.71975, 36.32783], [-97.71875, 36.3284], [-97.71814, 36.32935], [-97.71812, 36.33056], [-97.71362, 36.33053], [-97.7137, 36.32348], [-97.71527, 36.32394], [-97.71695, 36.32336], [-97.71759, 36.32236], [-97.71761, 36.32054], [-97.72296, 36.32051], [-97.72158, 36.32221], [-97.72183, 36.32331], [-97.7226, 36.32401]]], [[[-97.75165, 36.32399], [-97.75096, 36.32281], [-97.74968, 36.32227], [-97.74972, 36.32038], [-97.76242, 36.32029], [-97.76255, 36.3306], [-97.75226, 36.33062], [-97.75212, 36.32826], [-97.75131, 36.3274], [-97.75027, 36.32698], [-97.7514, 36.32575], [-97.75165, 36.32399]]], [[[-97.74263, 36.34477], [-97.73877, 36.34493], [-97.73733, 36.34414], [-97.73494, 36.34368], [-97.73318, 36.34395], [-97.73192, 36.34461], [-97.73153, 36.34343], [-97.73305, 36.34208], [-97.7334, 36.34031], [-97.73297, 36.33918], [-97.73389, 36.33817], [-97.73424, 36.337], [-97.73356, 36.33552], [-97.73151, 36.33479], [-97.73151, 36.3344], [-97.73848, 36.33442], [-97.7395, 36.33558], [-97.74117, 36.336], [-97.74277, 36.33554], [-97.7439, 36.33441], [-97.74465, 36.33441], [-97.74464, 36.34018], [-97.74303, 36.34147], [-97.74285, 36.34253], [-97.74339, 36.34363], [-97.74263, 36.34477]]], [[[-97.73143, 36.39556], [-97.7314, 36.3925], [-97.74208, 36.39251], [-97.74291, 36.39463], [-97.74204, 36.39555], [-97.73143, 36.39556]]], [[[-97.71715, 36.39557], [-97.7135, 36.39557], [-97.71351, 36.39233], [-97.72662, 36.39247], [-97.72664, 36.39556], [-97.71715, 36.39557]]], [[[-97.75629, 36.39249], [-97.76266, 36.39244], [-97.76262, 36.39553], [-97.75704, 36.39551], [-97.75327, 36.39249], [-97.75629, 36.39249]]], [[[-97.71727, 36.403], [-97.71352, 36.40297], [-97.7135, 36.39968], [-97.72668, 36.39967], [-97.72668, 36.40309], [-97.71727, 36.403]]], [[[-97.76274, 36.44128], [-97.76277, 36.4466], [-97.74964, 36.44662], [-97.74962, 36.43591], [-97.7609, 36.4359], [-97.76274, 36.43636], [-97.76274, 36.44128]]], [[[-97.73975, 36.43657], [-97.73993, 36.43592], [-97.74484, 36.43592], [-97.74486, 36.44662], [-97.73161, 36.44662], [-97.73165, 36.44098], [-97.7328, 36.44036], [-97.73559, 36.43976], [-97.73975, 36.43657]]], [[[-97.72326, 36.43595], [-97.72507, 36.43753], [-97.72543, 36.43918], [-97.72686, 36.44063], [-97.72683, 36.44663], [-97.71366, 36.44665], [-97.7137, 36.43599], [-97.72326, 36.43595]]], [[[-97.69785, 36.35822], [-97.6992, 36.35821], [-97.70058, 36.35947], [-97.69564, 36.35944], [-97.69562, 36.3573], [-97.69785, 36.35822]]], [[[-97.67885, 36.40303], [-97.67777, 36.40302], [-97.6778, 36.39934], [-97.69075, 36.39916], [-97.69097, 36.4175], [-97.67787, 36.41747], [-97.67778, 36.40689], [-97.67993, 36.40656], [-97.68099, 36.40515], [-97.68047, 36.40373], [-97.67885, 36.40303]]], [[[-97.69095, 36.42317], [-97.69094, 36.43206], [-97.67784, 36.43192], [-97.67788, 36.42133], [-97.69097, 36.42136], [-97.69095, 36.42317]]], [[[-97.67145, 36.39958], [-97.67302, 36.39953], [-97.67299, 36.40301], [-97.66007, 36.40301], [-97.66006, 36.39965], [-97.67145, 36.39958]]], [[[-97.65075, 36.40299], [-97.64917, 36.40299], [-97.64819, 36.39964], [-97.65527, 36.39965], [-97.65529, 36.403], [-97.65075, 36.40299]]], [[[-97.65073, 36.40686], [-97.65537, 36.40687], [-97.65566, 36.41739], [-97.65499, 36.41739], [-97.65407, 36.41575], [-97.6503, 36.40686], [-97.65073, 36.40686]]], [[[-97.68596, 36.39491], [-97.67777, 36.39523], [-97.67773, 36.39239], [-97.69078, 36.39243], [-97.69079, 36.39504], [-97.68596, 36.39491]]], [[[-97.68481, 36.37838], [-97.68556, 36.37786], [-97.68908, 36.37785], [-97.69076, 36.37851], [-97.69076, 36.38856], [-97.67771, 36.38853], [-97.67776, 36.37789], [-97.67948, 36.37789], [-97.68079, 36.37838], [-97.68218, 36.37818], [-97.68345, 36.3786], [-97.68481, 36.37838]]], [[[-97.6781, 36.36446], [-97.67776, 36.36345], [-97.69086, 36.36332], [-97.69077, 36.37398], [-97.67779, 36.37403], [-97.67776, 36.36719], [-97.67864, 36.36568], [-97.6781, 36.36446]]], [[[-97.69084, 36.35712], [-97.69086, 36.35946], [-97.67777, 36.35958], [-97.67777, 36.34893], [-97.69005, 36.34884], [-97.69078, 36.34912], [-97.69079, 36.35055], [-97.68889, 36.35183], [-97.68815, 36.35387], [-97.68889, 36.35583], [-97.69084, 36.35712]]], [[[-97.65985, 36.39233], [-97.67294, 36.39238], [-97.67299, 36.39541], [-97.65998, 36.39554], [-97.65985, 36.39233]]], [[[-97.673, 36.3724], [-97.673, 36.37403], [-97.66009, 36.37399], [-97.66006, 36.36344], [-97.67298, 36.36347], [-97.67297, 36.36472], [-97.67031, 36.36471], [-97.6678, 36.36598], [-97.66688, 36.36713], [-97.66658, 36.36848], [-97.66694, 36.36999], [-97.66822, 36.37134], [-97.67056, 36.3721], [-97.673, 36.3718], [-97.673, 36.3724]]], [[[-97.66007, 36.34895], [-97.67299, 36.34895], [-97.67299, 36.3596], [-97.66006, 36.35957], [-97.66007, 36.34895]]], [[[-97.66003, 36.38032], [-97.66005, 36.37786], [-97.67297, 36.3779], [-97.67293, 36.38851], [-97.65999, 36.38846], [-97.66003, 36.38032]]], [[[-97.65493, 36.3935], [-97.65515, 36.39554], [-97.64725, 36.39554], [-97.64672, 36.39233], [-97.65506, 36.3923], [-97.65493, 36.3935]]], [[[-97.65519, 36.38774], [-97.65521, 36.38843], [-97.64608, 36.38847], [-97.64568, 36.37788], [-97.65527, 36.37786], [-97.65519, 36.38774]]], [[[-97.64598, 36.37401], [-97.64636, 36.36925], [-97.64752, 36.36344], [-97.65528, 36.36342], [-97.65531, 36.37399], [-97.64598, 36.37401]]], [[[-97.6553, 36.34962], [-97.65528, 36.35956], [-97.64834, 36.35957], [-97.65206, 36.34898], [-97.65529, 36.34896], [-97.6553, 36.34962]]], [[[-97.66614, 36.41745], [-97.66677, 36.41664], [-97.66689, 36.4156], [-97.66646, 36.41431], [-97.66574, 36.41361], [-97.66574, 36.41257], [-97.66516, 36.41148], [-97.66741, 36.40919], [-97.66732, 36.40781], [-97.66663, 36.40688], [-97.67299, 36.40688], [-97.67309, 36.41747], [-97.66614, 36.41745]]], [[[-97.66049, 36.4226], [-97.66295, 36.42261], [-97.66437, 36.42347], [-97.66584, 36.4236], [-97.66745, 36.4229], [-97.66825, 36.42132], [-97.67309, 36.42134], [-97.67305, 36.43189], [-97.66432, 36.43187], [-97.66049, 36.42654], [-97.66049, 36.4226]]], [[[-97.68587, 36.4465], [-97.67839, 36.4464], [-97.67783, 36.44589], [-97.67777, 36.43579], [-97.69096, 36.43593], [-97.69094, 36.4466], [-97.68587, 36.4465]]], [[[-97.67158, 36.43575], [-97.67299, 36.43575], [-97.67306, 36.44152], [-97.66765, 36.43574], [-97.67158, 36.43575]]], [[[-97.6837, 36.45034], [-97.69098, 36.45047], [-97.69098, 36.45565], [-97.68339, 36.45034], [-97.6837, 36.45034]]], [[[-97.69968, 36.33891], [-97.69982, 36.33885], [-97.69986, 36.33905], [-97.69961, 36.33894], [-97.69968, 36.33891]]]]}, "properties": {"kind": "windland", "area_km2": 132.72}}, {"type": "Feature", "geometry": {"type": "MultiPolygon", "coordinates": [[[[-97.78635, 36.36352], [-97.78604, 36.36448], [-97.78527, 36.36521], [-97.78563, 36.36626], [-97.78522, 36.36762], [-97.78407, 36.36851], [-97.78277, 36.36875], [-97.78121, 36.36834], [-97.78051, 36.36774], [-97.78017, 36.3671], [-97.78017, 36.36569], [-97.78056, 36.36502], [-97.78114, 36.36453], [-97.78081, 36.36347], [-97.76749, 36.36344], [-97.7675, 36.37435], [-97.76826, 36.37552], [-97.76844, 36.37694], [-97.77298, 36.37884], [-97.7737, 36.37764], [-97.775, 36.37706], [-97.77608, 36.37704], [-97.77703, 36.37731], [-97.77787, 36.3779], [-97.77835, 36.3785], [-97.78011, 36.37689], [-97.78162, 36.37618], [-97.78371, 36.37595], [-97.78532, 36.37636], [-97.78633, 36.37698], [-97.79118, 36.38107], [-97.7918, 36.38241], [-97.7923, 36.38548], [-97.79331, 36.38435], [-97.79476, 36.38364], [-97.79644, 36.38343], [-97.79813, 36.38371], [-97.79804, 36.3894], [-97.79595, 36.38938], [-97.79374, 36.38907], [-97.78745, 36.38651], [-97.78821, 36.38595], [-97.78864, 36.38528], [-97.78833, 36.38474], [-97.78844, 36.38422], [-97.78791, 36.38342], [-97.78815, 36.38312], [-97.78814, 36.38276], [-97.7835, 36.37894], [-97.78305, 36.37892], [-97.78237, 36.37923], [-97.78163, 36.37984], [-97.78117, 36.38069], [-97.78133, 36.38109], [-97.78239, 36.38187], [-97.78297, 36.38184], [-97.78353, 36.38131], [-97.7837, 36.38145], [-97.78288, 36.3824], [-97.78284, 36.3848], [-97.76543, 36.37757], [-97.76543, 36.36179], [-97.77617, 36.36177], [-97.77617, 36.36214], [-97.78731, 36.36225], [-97.78729, 36.36346], [-97.78635, 36.36352]], [[-97.7831, 36.36353], [-97.78328, 36.3638], [-97.78368, 36.36384], [-97.78401, 36.36366], [-97.78408, 36.36334], [-97.78381, 36.36303], [-97.78345, 36.363], [-97.7831, 36.36353]], [[-97.78305, 36.36686], [-97.7833, 36.36662], [-97.78334, 36.36619], [-97.78309, 36.36597], [-97.78265, 36.36593], [-97.78238, 36.36614], [-97.78237, 36.36663], [-97.78259, 36.36687], [-97.78305, 36.36686]], [[-97.77559, 36.37884], [-97.77524, 36.37906], [-97.77536, 36.37965], [-97.77598, 36.37995], [-97.77636, 36.37973], [-97.77637, 36.3794], [-97.77596, 36.37894], [-97.77559, 36.37884]], [[-97.79557, 36.38698], [-97.79584, 36.38744], [-97.79649, 36.38756], [-97.79696, 36.38738], [-97.79714, 36.38692], [-97.79686, 36.3865], [-97.79621, 36.38639], [-97.79574, 36.38657], [-97.79557, 36.38698]]], [[[-97.7974, 36.37175], [-97.79695, 36.37136], [-97.79832, 36.37138], [-97.7983, 36.37215], [-97.7974, 36.37175]]], [[[-97.77484, 36.37603], [-97.77432, 36.37675], [-97.77345, 36.3773], [-97.7724, 36.37757], [-97.77137, 36.37749], [-97.77033, 36.37707], [-97.76969, 36.37645], [-97.76938, 36.37567], [-97.76948, 36.37477], [-97.77002, 36.37396], [-97.77104, 36.37329], [-97.77212, 36.37304], [-97.77315, 36.37314], [-97.7741, 36.37359], [-97.77474, 36.3743], [-97.77502, 36.37522], [-97.77484, 36.37603]], [[-97.77246, 36.3749], [-97.77173, 36.37517], [-97.77179, 36.37566], [-97.7722, 36.37573], [-97.77264, 36.3755], [-97.77274, 36.37521], [-97.77246, 36.3749]]], [[[-97.78352, 36.38269], [-97.78352, 36.3827], [-97.78352, 36.38269], [-97.78352, 36.38269]]], [[[-97.78351, 36.38343], [-97.78375, 36.38363], [-97.78404, 36.38387], [-97.78351, 36.38397], [-97.78351, 36.38343]]], [[[-97.78666, 36.38429], [-97.78669, 36.38433], [-97.78658, 36.38435], [-97.7866, 36.38434], [-97.78666, 36.38429]]], [[[-97.76544, 36.38082], [-97.76543, 36.37828], [-97.76659, 36.37905], [-97.76911, 36.3801], [-97.76942, 36.3801], [-97.76959, 36.3799], [-97.77035, 36.38022], [-97.76965, 36.38042], [-97.76955, 36.38095], [-97.76973, 36.38117], [-97.77101, 36.38104], [-97.7712, 36.38058], [-97.78282, 36.38544], [-97.78209, 36.38553], [-97.78152, 36.38619], [-97.78183, 36.38684], [-97.78282, 36.38692], [-97.78278, 36.3903], [-97.76541, 36.39023], [-97.76544, 36.38082]], [[-97.77163, 36.38281], [-97.77006, 36.38305], [-97.76925, 36.38297], [-97.76829, 36.3826], [-97.76754, 36.38184], [-97.76747, 36.38857], [-97.77885, 36.38862], [-97.77794, 36.38707], [-97.778, 36.38531], [-97.77189, 36.38273], [-97.77163, 36.38281]]], [[[-97.78507, 36.38905], [-97.78435, 36.38875], [-97.78346, 36.38922], [-97.78347, 36.38845], [-97.78495, 36.38852], [-97.78531, 36.3881], [-97.78578, 36.38789], [-97.78593, 36.38754], [-97.78581, 36.38714], [-97.78537, 36.38691], [-97.78485, 36.38697], [-97.78452, 36.38733], [-97.78349, 36.38711], [-97.7835, 36.38572], [-97.78945, 36.38822], [-97.78835, 36.38931], [-97.78689, 36.38929], [-97.78687, 36.3903], [-97.78431, 36.3903], [-97.7851, 36.38958], [-97.78507, 36.38905]]], [[[-97.79081, 36.38913], [-97.79072, 36.38875], [-97.79215, 36.38934], [-97.79099, 36.38933], [-97.79081, 36.38913]]], [[[-97.78684, 36.39255], [-97.7855, 36.39334], [-97.78551, 36.39549], [-97.78679, 36.39549], [-97.78677, 36.39715], [-97.78345, 36.39716], [-97.78345, 36.39084], [-97.78687, 36.39084], [-97.78684, 36.39255]]], [[[-97.76757, 36.39718], [-97.76533, 36.39719], [-97.7654, 36.39077], [-97.78278, 36.39084], [-97.78278, 36.39716], [-97.76757, 36.39718]], [[-97.78031, 36.39257], [-97.76744, 36.39244], [-97.76744, 36.39265], [-97.76869, 36.39287], [-97.76969, 36.39348], [-97.77023, 36.39438], [-97.77027, 36.39552], [-97.78072, 36.3955], [-97.78072, 36.39288], [-97.78031, 36.39257]], [[-97.76613, 36.39589], [-97.76693, 36.39616], [-97.76774, 36.39603], [-97.768, 36.39546], [-97.76793, 36.39465], [-97.76708, 36.39447], [-97.76622, 36.39452], [-97.76599, 36.39543], [-97.76613, 36.39589]]], [[[-97.78676, 36.39794], [-97.78675, 36.3983], [-97.78344, 36.39827], [-97.78344, 36.39794], [-97.78676, 36.39794]]], [[[-97.77554, 36.3988], [-97.77431, 36.40012], [-97.77446, 36.40039], [-97.77474, 36.40045], [-97.77557, 36.39995], [-97.77553, 36.40251], [-97.77493, 36.40313], [-97.77552, 36.40313], [-97.7755, 36.40479], [-97.7656, 36.40475], [-97.76524, 36.40447], [-97.76532, 36.39797], [-97.78277, 36.39795], [-97.78277, 36.39826], [-97.7756, 36.39819], [-97.77554, 36.3988]], [[-97.77205, 36.40221], [-97.77267, 36.40231], [-97.77348, 36.4017], [-97.77372, 36.40117], [-97.77356, 36.40089], [-97.77301, 36.40083], [-97.77226, 36.40134], [-97.77191, 36.40182], [-97.77205, 36.40221]], [[-97.77007, 36.40065], [-97.77119, 36.39962], [-97.76736, 36.39963], [-97.76731, 36.4031], [-97.77006, 36.40312], [-97.76963, 36.40188], [-97.77007, 36.40065]]], [[[-97.77541, 36.4072], [-97.77545, 36.40699], [-97.76853, 36.40713], [-97.76627, 36.4053], [-97.77549, 36.40533], [-97.77546, 36.4072], [-97.77541, 36.4072]]], [[[-97.76538, 36.3579], [-97.7657, 36.35801], [-97.76598, 36.35788], [-97.76612, 36.35712], [-97.76585, 36.35678], [-97.76537, 36.35684], [-97.76532, 36.35301], [-97.76999, 36.35306], [-97.76924, 36.35356], [-97.76954, 36.35458], [-97.76944, 36.3553], [-97.76905, 36.35609], [-97.76835, 36.35674], [-97.76824, 36.35821], [-97.76745, 36.35928], [-97.76746, 36.35958], [-97.77621, 36.35957], [-97.77618, 36.36123], [-97.76542, 36.36124], [-97.76538, 36.3579]], [[-97.76664, 36.35536], [-97.76702, 36.35525], [-97.76727, 36.35469], [-97.76712, 36.35423], [-97.7667, 36.35404], [-97.76594, 36.35447], [-97.76579, 36.35485], [-97.76617, 36.35532], [-97.76664, 36.35536]]], [[[-97.7579, 36.35878], [-97.7584, 36.35803], [-97.75925, 36.35747], [-97.75962, 36.35658], [-97.76032, 36.35584], [-97.76131, 36.35537], [-97.76262, 36.35527], [-97.76259, 36.35298], [-97.76465, 36.353], [-97.76476, 36.36124], [-97.75389, 36.36119], [-97.75392, 36.35953], [-97.75776, 36.35954], [-97.7579, 36.35878]], [[-97.76152, 36.35785], [-97.76181, 36.35817], [-97.76127, 36.3584], [-97.76135, 36.35877], [-97.76205, 36.3592], [-97.76289, 36.35913], [-97.76306, 36.35882], [-97.76274, 36.35725], [-97.76234, 36.35709], [-97.76191, 36.35716], [-97.76152, 36.35785]], [[-97.76046, 36.36007], [-97.76097, 36.36001], [-97.76119, 36.35979], [-97.76111, 36.35925], [-97.76086, 36.35905], [-97.7604, 36.35906], [-97.76006, 36.35935], [-97.76008, 36.35989], [-97.76046, 36.36007]], [[-97.76406, 36.36115], [-97.76429, 36.3608], [-97.76426, 36.36032], [-97.76392, 36.36006], [-97.76349, 36.36008], [-97.76322, 36.36038], [-97.76329, 36.36095], [-97.76367, 36.36121], [-97.76406, 36.36115]]], [[[-97.76472, 36.36178], [-97.76476, 36.36178], [-97.76476, 36.36182], [-97.76472, 36.36178]]], [[[-97.76386, 36.36178], [-97.76372, 36.36207], [-97.7639, 36.36245], [-97.76427, 36.36264], [-97.76476, 36.36254], [-97.76477, 36.37575], [-97.76106, 36.37573], [-97.74992, 36.37107], [-97.75015, 36.37083], [-97.74996, 36.37057], [-97.74945, 36.37063], [-97.74761, 36.36991], [-97.74744, 36.36184], [-97.76386, 36.36178]], [[-97.75672, 36.37204], [-97.75984, 36.37334], [-97.76103, 36.37342], [-97.76271, 36.37298], [-97.76271, 36.36405], [-97.76197, 36.36343], [-97.74953, 36.36337], [-97.74965, 36.36886], [-97.75106, 36.36916], [-97.75203, 36.37009], [-97.75672, 36.37204]]], [[[-97.75543, 36.37412], [-97.75939, 36.37572], [-97.74927, 36.37569], [-97.75156, 36.37388], [-97.75232, 36.3735], [-97.75357, 36.37343], [-97.75543, 36.37412]]], [[[-97.76252, 36.37632], [-97.76251, 36.37634], [-97.76239, 36.37628], [-97.76253, 36.37628], [-97.76252, 36.37632]]], [[[-97.76471, 36.37629], [-97.76477, 36.37629], [-97.76477, 36.37644], [-97.76471, 36.37629], [-97.76471, 36.37629]]], [[[-97.76473, 36.37704], [-97.76476, 36.37694], [-97.76476, 36.37727], [-97.76461, 36.37719], [-97.76473, 36.37704]]], [[[-97.75812, 36.38857], [-97.76039, 36.38857], [-97.76039, 36.38818], [-97.76067, 36.38826], [-97.76148, 36.38804], [-97.76184, 36.38773], [-97.76188, 36.38741], [-97.7614, 36.38641], [-97.76106, 36.38632], [-97.7604, 36.38658], [-97.7604, 36.38419], [-97.7632, 36.3842], [-97.76348, 36.38487], [-97.76396, 36.38505], [-97.7643, 36.38482], [-97.76432, 36.38424], [-97.76478, 36.38422], [-97.76474, 36.39023], [-97.7476, 36.39032], [-97.74734, 36.3901], [-97.74746, 36.38456], [-97.74793, 36.3858], [-97.7491, 36.38663], [-97.7491, 36.38686], [-97.75615, 36.38681], [-97.75501, 36.38775], [-97.75365, 36.38832], [-97.75227, 36.38852], [-97.74943, 36.38845], [-97.74943, 36.38864], [-97.75812, 36.38857]]], [[[-97.76155, 36.3972], [-97.75619, 36.39717], [-97.74829, 36.39086], [-97.76474, 36.39077], [-97.76466, 36.39719], [-97.76155, 36.3972]], [[-97.76155, 36.39553], [-97.76262, 36.39553], [-97.76266, 36.39244], [-97.75327, 36.39249], [-97.75704, 36.39551], [-97.76155, 36.39553]]], [[[-97.76436, 36.40377], [-97.75718, 36.398], [-97.75715, 36.39798], [-97.76465, 36.39797], [-97.76458, 36.40394], [-97.76436, 36.40377]], [[-97.76213, 36.39963], [-97.76257, 36.39999], [-97.76257, 36.39963], [-97.76213, 36.39963]]], [[[-97.76435, 36.40476], [-97.75319, 36.40482], [-97.75322, 36.40316], [-97.75795, 36.40313], [-97.75919, 36.40272], [-97.75535, 36.39964], [-97.75328, 36.39965], [-97.7533, 36.39798], [-97.7562, 36.39798], [-97.76457, 36.4047], [-97.76435, 36.40476]]], [[[-97.76532, 36.40529], [-97.76757, 36.40712], [-97.76528, 36.4071], [-97.76532, 36.40529]]], [[[-97.75642, 36.40535], [-97.76085, 36.40531], [-97.76088, 36.40587], [-97.7602, 36.40558], [-97.75957, 36.40593], [-97.75961, 36.40649], [-97.76021, 36.40678], [-97.76085, 36.40653], [-97.76091, 36.40593], [-97.76121, 36.40618], [-97.76157, 36.4061], [-97.76173, 36.40531], [-97.76458, 36.4053], [-97.76461, 36.40709], [-97.75316, 36.40697], [-97.75318, 36.40536], [-97.75642, 36.40535]]], [[[-97.75413, 36.35504], [-97.75407, 36.35673], [-97.75395, 36.35716], [-97.754, 36.35418], [-97.75413, 36.35504]]], [[[-97.743, 36.36297], [-97.74346, 36.3625], [-97.74309, 36.36179], [-97.74677, 36.36183], [-97.74693, 36.36982], [-97.74263, 36.36803], [-97.74266, 36.36617], [-97.74483, 36.36707], [-97.74476, 36.36424], [-97.74383, 36.36469], [-97.74269, 36.36481], [-97.74272, 36.36294], [-97.743, 36.36297]]], [[[-97.75479, 36.365], [-97.75603, 36.36476], [-97.75727, 36.36502], [-97.75805, 36.36555], [-97.75862, 36.36654], [-97.75872, 36.36723], [-97.75845, 36.36809], [-97.75759, 36.36917], [-97.75653, 36.36969], [-97.75554, 36.36979], [-97.75457, 36.36957], [-97.75369, 36.36901], [-97.75313, 36.36817], [-97.75303, 36.36731], [-97.75328, 36.36651], [-97.75388, 36.36563], [-97.75479, 36.365]], [[-97.75559, 36.36793], [-97.75598, 36.36787], [-97.75641, 36.36728], [-97.7564, 36.36692], [-97.75611, 36.36661], [-97.75567, 36.36676], [-97.75539, 36.3672], [-97.75531, 36.36766], [-97.75559, 36.36793]]], [[[-97.74424, 36.36938], [-97.74525, 36.3698], [-97.74509, 36.37017], [-97.74532, 36.37041], [-97.74579, 36.37044], [-97.74608, 36.37015], [-97.74696, 36.37052], [-97.74698, 36.37569], [-97.74251, 36.3757], [-97.74254, 36.37403], [-97.74365, 36.37404], [-97.74254, 36.3737], [-97.74262, 36.36863], [-97.74424, 36.36938]], [[-97.74364, 36.37098], [-97.74347, 36.37138], [-97.74356, 36.37193], [-97.74413, 36.3722], [-97.74448, 36.37192], [-97.74464, 36.37142], [-97.74415, 36.37086], [-97.74364, 36.37098]], [[-97.74443, 36.37403], [-97.74492, 36.37404], [-97.74492, 36.37393], [-97.74467, 36.37399], [-97.74443, 36.37403]]], [[[-97.74986, 36.37188], [-97.75049, 36.37296], [-97.7502, 36.37407], [-97.74829, 36.37571], [-97.74764, 36.37569], [-97.74763, 36.3708], [-97.74986, 36.37188]]], [[[-97.75107, 36.37255], [-97.75088, 36.37215], [-97.75263, 36.37288], [-97.75114, 36.37346], [-97.75107, 36.37255]]], [[[-97.74775, 36.37635], [-97.74766, 36.3765], [-97.74763, 36.37659], [-97.74764, 36.37623], [-97.74775, 36.37635]]], [[[-97.7467, 36.38888], [-97.74668, 36.38959], [-97.74234, 36.38613], [-97.74238, 36.38383], [-97.74471, 36.38568], [-97.74481, 36.38086], [-97.74418, 36.37932], [-97.7434, 36.37972], [-97.74244, 36.37989], [-97.74247, 36.37804], [-97.74336, 36.37728], [-97.74317, 36.37703], [-97.74249, 36.37698], [-97.7425, 36.37624], [-97.74697, 36.37623], [-97.7467, 36.38888]]], [[[-97.74227, 36.3903], [-97.74233, 36.38688], [-97.74664, 36.39031], [-97.74227, 36.3903]]], [[[-97.74889, 36.39451], [-97.7493, 36.39441], [-97.74943, 36.39401], [-97.74944, 36.39304], [-97.74923, 36.39281], [-97.74878, 36.39298], [-97.74876, 36.39397], [-97.74727, 36.39398], [-97.74732, 36.39085], [-97.75525, 36.39717], [-97.74721, 36.39721], [-97.74726, 36.39452], [-97.74889, 36.39451]]], [[[-97.74634, 36.39128], [-97.74591, 36.39159], [-97.74574, 36.39257], [-97.74599, 36.39299], [-97.74661, 36.39312], [-97.74655, 36.39695], [-97.74506, 36.397], [-97.74481, 36.39685], [-97.74455, 36.39607], [-97.74424, 36.39595], [-97.74394, 36.39622], [-97.74429, 36.39721], [-97.74216, 36.39721], [-97.74219, 36.39528], [-97.74291, 36.39463], [-97.74222, 36.39346], [-97.74227, 36.39085], [-97.74665, 36.39085], [-97.74664, 36.39125], [-97.74634, 36.39128]]]]}, "properties": {"kind": "pv", "area_km2": 10.68, "mw": 534.0}}, {"type": "Feature", "geometry": {"type": "Point", "coordinates": [-97.76903, 36.37357]}, "properties": {"kind": "turbine", "i": 0, "mw": 6.0, "hub_m": 120.0, "rotor_m": 150.0}}, {"type": "Feature", "geometry": {"type": "Point", "coordinates": [-97.77295, 36.38349]}, "properties": {"kind": "turbine", "i": 1, "mw": 6.0, "hub_m": 120.0, "rotor_m": 150.0}}, {"type": "Feature", "geometry": {"type": "Point", "coordinates": [-97.76058, 36.39324]}, "properties": {"kind": "turbine", "i": 2, "mw": 6.0, "hub_m": 120.0, "rotor_m": 150.0}}, {"type": "Feature", "geometry": {"type": "Point", "coordinates": [-97.77686, 36.3934]}, "properties": {"kind": "turbine", "i": 3, "mw": 6.0, "hub_m": 120.0, "rotor_m": 150.0}}, {"type": "Feature", "geometry": {"type": "Point", "coordinates": [-97.76105, 36.36361]}, "properties": {"kind": "turbine", "i": 4, "mw": 6.0, "hub_m": 120.0, "rotor_m": 150.0}}, {"type": "Feature", "geometry": {"type": "Point", "coordinates": [-97.78531, 36.37374]}, "properties": {"kind": "turbine", "i": 5, "mw": 6.0, "hub_m": 120.0, "rotor_m": 150.0}}, {"type": "Feature", "geometry": {"type": "Point", "coordinates": [-97.77733, 36.36378]}, "properties": {"kind": "turbine", "i": 6, "mw": 6.0, "hub_m": 120.0, "rotor_m": 150.0}}, {"type": "Feature", "geometry": {"type": "Point", "coordinates": [-97.74044, 36.37986]}, "properties": {"kind": "turbine", "i": 7, "mw": 6.0, "hub_m": 120.0, "rotor_m": 150.0}}, {"type": "Feature", "geometry": {"type": "Point", "coordinates": [-97.74472, 36.36674]}, "properties": {"kind": "turbine", "i": 8, "mw": 6.0, "hub_m": 120.0, "rotor_m": 150.0}}, {"type": "Feature", "geometry": {"type": "Point", "coordinates": [-97.78907, 36.39353]}, "properties": {"kind": "turbine", "i": 9, "mw": 6.0, "hub_m": 120.0, "rotor_m": 150.0}}, {"type": "Feature", "geometry": {"type": "Point", "coordinates": [-97.74022, 36.39302]}, "properties": {"kind": "turbine", "i": 10, "mw": 6.0, "hub_m": 120.0, "rotor_m": 150.0}}, {"type": "Feature", "geometry": {"type": "Point", "coordinates": [-97.75635, 36.40307]}, "properties": {"kind": "turbine", "i": 11, "mw": 6.0, "hub_m": 120.0, "rotor_m": 150.0}}, {"type": "Feature", "geometry": {"type": "Point", "coordinates": [-97.79752, 36.37386]}, "properties": {"kind": "turbine", "i": 12, "mw": 6.0, "hub_m": 120.0, "rotor_m": 150.0}}, {"type": "Feature", "geometry": {"type": "Point", "coordinates": [-97.7936, 36.36395]}, "properties": {"kind": "turbine", "i": 13, "mw": 6.0, "hub_m": 120.0, "rotor_m": 150.0}}, {"type": "Feature", "geometry": {"type": "Point", "coordinates": [-97.74414, 36.40294]}, "properties": {"kind": "turbine", "i": 14, "mw": 6.0, "hub_m": 120.0, "rotor_m": 150.0}}, {"type": "Feature", "geometry": {"type": "Point", "coordinates": [-97.73251, 36.36661]}, "properties": {"kind": "turbine", "i": 15, "mw": 6.0, "hub_m": 120.0, "rotor_m": 150.0}}, {"type": "Feature", "geometry": {"type": "Point", "coordinates": [-97.80144, 36.38378]}, "properties": {"kind": "turbine", "i": 16, "mw": 6.0, "hub_m": 120.0, "rotor_m": 150.0}}, {"type": "Feature", "geometry": {"type": "Point", "coordinates": [-97.77346, 36.35058]}, "properties": {"kind": "turbine", "i": 17, "mw": 6.0, "hub_m": 120.0, "rotor_m": 150.0}}, {"type": "Feature", "geometry": {"type": "Point", "coordinates": [-97.75719, 36.35041]}, "properties": {"kind": "turbine", "i": 18, "mw": 6.0, "hub_m": 120.0, "rotor_m": 150.0}}, {"type": "Feature", "geometry": {"type": "Point", "coordinates": [-97.78562, 36.35399]}, "properties": {"kind": "turbine", "i": 19, "mw": 6.0, "hub_m": 120.0, "rotor_m": 150.0}}, {"type": "Feature", "geometry": {"type": "Point", "coordinates": [-97.76841, 36.41307]}, "properties": {"kind": "turbine", "i": 20, "mw": 6.0, "hub_m": 120.0, "rotor_m": 150.0}}, {"type": "Feature", "geometry": {"type": "Point", "coordinates": [-97.7241, 36.38298]}, "properties": {"kind": "turbine", "i": 21, "mw": 6.0, "hub_m": 120.0, "rotor_m": 150.0}}, {"type": "Feature", "geometry": {"type": "Point", "coordinates": [-97.75212, 36.4129]}, "properties": {"kind": "turbine", "i": 22, "mw": 6.0, "hub_m": 120.0, "rotor_m": 150.0}}, {"type": "Feature", "geometry": {"type": "Point", "coordinates": [-97.73192, 36.40281]}, "properties": {"kind": "turbine", "i": 23, "mw": 6.0, "hub_m": 120.0, "rotor_m": 150.0}}, {"type": "Feature", "geometry": {"type": "Point", "coordinates": [-97.74091, 36.35024]}, "properties": {"kind": "turbine", "i": 24, "mw": 6.0, "hub_m": 120.0, "rotor_m": 150.0}}, {"type": "Feature", "geometry": {"type": "Point", "coordinates": [-97.80581, 36.36407]}, "properties": {"kind": "turbine", "i": 25, "mw": 6.0, "hub_m": 120.0, "rotor_m": 150.0}}, {"type": "Feature", "geometry": {"type": "Point", "coordinates": [-97.80973, 36.37398]}, "properties": {"kind": "turbine", "i": 26, "mw": 6.0, "hub_m": 120.0, "rotor_m": 150.0}}, {"type": "Feature", "geometry": {"type": "Point", "coordinates": [-97.72019, 36.37306]}, "properties": {"kind": "turbine", "i": 27, "mw": 6.0, "hub_m": 120.0, "rotor_m": 150.0}}, {"type": "Feature", "geometry": {"type": "Point", "coordinates": [-97.73991, 36.41277]}, "properties": {"kind": "turbine", "i": 28, "mw": 6.0, "hub_m": 120.0, "rotor_m": 150.0}}, {"type": "Feature", "geometry": {"type": "Point", "coordinates": [-97.71987, 36.39281]}, "properties": {"kind": "turbine", "i": 29, "mw": 6.0, "hub_m": 120.0, "rotor_m": 150.0}}, {"type": "Feature", "geometry": {"type": "Point", "coordinates": [-97.79787, 36.35082]}, "properties": {"kind": "turbine", "i": 30, "mw": 6.0, "hub_m": 120.0, "rotor_m": 150.0}}, {"type": "Feature", "geometry": {"type": "Point", "coordinates": [-97.81365, 36.3839]}, "properties": {"kind": "turbine", "i": 31, "mw": 6.0, "hub_m": 120.0, "rotor_m": 150.0}}, {"type": "Feature", "geometry": {"type": "Point", "coordinates": [-97.76141, 36.34058]}, "properties": {"kind": "turbine", "i": 32, "mw": 6.0, "hub_m": 120.0, "rotor_m": 150.0}}, {"type": "Feature", "geometry": {"type": "Point", "coordinates": [-97.77769, 36.34074]}, "properties": {"kind": "turbine", "i": 33, "mw": 6.0, "hub_m": 120.0, "rotor_m": 150.0}}, {"type": "Feature", "geometry": {"type": "Point", "coordinates": [-97.80933, 36.40031]}, "properties": {"kind": "turbine", "i": 34, "mw": 6.0, "hub_m": 120.0, "rotor_m": 150.0}}, {"type": "Feature", "geometry": {"type": "Point", "coordinates": [-97.79209, 36.41557]}, "properties": {"kind": "turbine", "i": 35, "mw": 6.0, "hub_m": 120.0, "rotor_m": 150.0}}, {"type": "Feature", "geometry": {"type": "Point", "coordinates": [-97.76011, 36.42286]}, "properties": {"kind": "turbine", "i": 36, "mw": 6.0, "hub_m": 120.0, "rotor_m": 150.0}}, {"type": "Feature", "geometry": {"type": "Point", "coordinates": [-97.72464, 36.35006]}, "properties": {"kind": "turbine", "i": 37, "mw": 6.0, "hub_m": 120.0, "rotor_m": 150.0}}, {"type": "Feature", "geometry": {"type": "Point", "coordinates": [-97.81003, 36.35424]}, "properties": {"kind": "turbine", "i": 38, "mw": 6.0, "hub_m": 120.0, "rotor_m": 150.0}}, {"type": "Feature", "geometry": {"type": "Point", "coordinates": [-97.78047, 36.42307]}, "properties": {"kind": "turbine", "i": 39, "mw": 6.0, "hub_m": 120.0, "rotor_m": 150.0}}, {"type": "Feature", "geometry": {"type": "Point", "coordinates": [-97.71564, 36.40264]}, "properties": {"kind": "turbine", "i": 40, "mw": 6.0, "hub_m": 120.0, "rotor_m": 150.0}}, {"type": "Feature", "geometry": {"type": "Point", "coordinates": [-97.74382, 36.42269]}, "properties": {"kind": "turbine", "i": 41, "mw": 6.0, "hub_m": 120.0, "rotor_m": 150.0}}, {"type": "Feature", "geometry": {"type": "Point", "coordinates": [-97.70788, 36.37951]}, "properties": {"kind": "turbine", "i": 42, "mw": 6.0, "hub_m": 120.0, "rotor_m": 150.0}}, {"type": "Feature", "geometry": {"type": "Point", "coordinates": [-97.72362, 36.4126]}, "properties": {"kind": "turbine", "i": 43, "mw": 6.0, "hub_m": 120.0, "rotor_m": 150.0}}, {"type": "Feature", "geometry": {"type": "Point", "coordinates": [-97.78994, 36.33758]}, "properties": {"kind": "turbine", "i": 44, "mw": 6.0, "hub_m": 120.0, "rotor_m": 150.0}}, {"type": "Feature", "geometry": {"type": "Point", "coordinates": [-97.74113, 36.33707]}, "properties": {"kind": "turbine", "i": 45, "mw": 6.0, "hub_m": 120.0, "rotor_m": 150.0}}, {"type": "Feature", "geometry": {"type": "Point", "coordinates": [-97.70809, 36.36635]}, "properties": {"kind": "turbine", "i": 46, "mw": 6.0, "hub_m": 120.0, "rotor_m": 150.0}}, {"type": "Feature", "geometry": {"type": "Point", "coordinates": [-97.70766, 36.39267]}, "properties": {"kind": "turbine", "i": 47, "mw": 6.0, "hub_m": 120.0, "rotor_m": 150.0}}, {"type": "Feature", "geometry": {"type": "Point", "coordinates": [-97.82209, 36.36423]}, "properties": {"kind": "turbine", "i": 48, "mw": 6.0, "hub_m": 120.0, "rotor_m": 150.0}}, {"type": "Feature", "geometry": {"type": "Point", "coordinates": [-97.81325, 36.41023]}, "properties": {"kind": "turbine", "i": 49, "mw": 6.0, "hub_m": 120.0, "rotor_m": 150.0}}, {"type": "Feature", "geometry": {"type": "Point", "coordinates": [-97.82586, 36.38402]}, "properties": {"kind": "turbine", "i": 50, "mw": 6.0, "hub_m": 120.0, "rotor_m": 150.0}}, {"type": "Feature", "geometry": {"type": "Point", "coordinates": [-97.75343, 36.33062]}, "properties": {"kind": "turbine", "i": 51, "mw": 6.0, "hub_m": 120.0, "rotor_m": 150.0}}, {"type": "Feature", "geometry": {"type": "Point", "coordinates": [-97.7316, 36.42256]}, "properties": {"kind": "turbine", "i": 52, "mw": 6.0, "hub_m": 120.0, "rotor_m": 150.0}}, {"type": "Feature", "geometry": {"type": "Point", "coordinates": [-97.79264, 36.42648]}, "properties": {"kind": "turbine", "i": 53, "mw": 6.0, "hub_m": 120.0, "rotor_m": 150.0}}, {"type": "Feature", "geometry": {"type": "Point", "coordinates": [-97.80214, 36.3377]}, "properties": {"kind": "turbine", "i": 54, "mw": 6.0, "hub_m": 120.0, "rotor_m": 150.0}}, {"type": "Feature", "geometry": {"type": "Point", "coordinates": [-97.83008, 36.37419]}, "properties": {"kind": "turbine", "i": 55, "mw": 6.0, "hub_m": 120.0, "rotor_m": 150.0}}, {"type": "Feature", "geometry": {"type": "Point", "coordinates": [-97.8049, 36.42331]}, "properties": {"kind": "turbine", "i": 56, "mw": 6.0, "hub_m": 120.0, "rotor_m": 150.0}}, {"type": "Feature", "geometry": {"type": "Point", "coordinates": [-97.70342, 36.4025]}, "properties": {"kind": "turbine", "i": 57, "mw": 6.0, "hub_m": 120.0, "rotor_m": 150.0}}, {"type": "Feature", "geometry": {"type": "Point", "coordinates": [-97.72079, 36.33686]}, "properties": {"kind": "turbine", "i": 58, "mw": 6.0, "hub_m": 120.0, "rotor_m": 150.0}}, {"type": "Feature", "geometry": {"type": "Point", "coordinates": [-97.69567, 36.37938]}, "properties": {"kind": "turbine", "i": 59, "mw": 6.0, "hub_m": 120.0, "rotor_m": 150.0}}, {"type": "Feature", "geometry": {"type": "Point", "coordinates": [-97.7599, 36.43602]}, "properties": {"kind": "turbine", "i": 60, "mw": 6.0, "hub_m": 120.0, "rotor_m": 150.0}}, {"type": "Feature", "geometry": {"type": "Point", "coordinates": [-97.71938, 36.42243]}, "properties": {"kind": "turbine", "i": 61, "mw": 6.0, "hub_m": 120.0, "rotor_m": 150.0}}, {"type": "Feature", "geometry": {"type": "Point", "coordinates": [-97.70733, 36.41242]}, "properties": {"kind": "turbine", "i": 62, "mw": 6.0, "hub_m": 120.0, "rotor_m": 150.0}}, {"type": "Feature", "geometry": {"type": "Point", "coordinates": [-97.77619, 36.43619]}, "properties": {"kind": "turbine", "i": 63, "mw": 6.0, "hub_m": 120.0, "rotor_m": 150.0}}, {"type": "Feature", "geometry": {"type": "Point", "coordinates": [-97.82636, 36.35111]}, "properties": {"kind": "turbine", "i": 64, "mw": 6.0, "hub_m": 120.0, "rotor_m": 150.0}}, {"type": "Feature", "geometry": {"type": "Point", "coordinates": [-97.82546, 36.41035]}, "properties": {"kind": "turbine", "i": 65, "mw": 6.0, "hub_m": 120.0, "rotor_m": 150.0}}, {"type": "Feature", "geometry": {"type": "Point", "coordinates": [-97.69589, 36.36621]}, "properties": {"kind": "turbine", "i": 66, "mw": 6.0, "hub_m": 120.0, "rotor_m": 150.0}}, {"type": "Feature", "geometry": {"type": "Point", "coordinates": [-97.81435, 36.33782]}, "properties": {"kind": "turbine", "i": 67, "mw": 6.0, "hub_m": 120.0, "rotor_m": 150.0}}, {"type": "Feature", "geometry": {"type": "Point", "coordinates": [-97.8343, 36.36435]}, "properties": {"kind": "turbine", "i": 68, "mw": 6.0, "hub_m": 120.0, "rotor_m": 150.0}}, {"type": "Feature", "geometry": {"type": "Point", "coordinates": [-97.70847, 36.34331]}, "properties": {"kind": "turbine", "i": 69, "mw": 6.0, "hub_m": 120.0, "rotor_m": 150.0}}, {"type": "Feature", "geometry": {"type": "Point", "coordinates": [-97.76173, 36.32083]}, "properties": {"kind": "turbine", "i": 70, "mw": 6.0, "hub_m": 120.0, "rotor_m": 150.0}}, {"type": "Feature", "geometry": {"type": "Point", "coordinates": [-97.83376, 36.40056]}, "properties": {"kind": "turbine", "i": 71, "mw": 6.0, "hub_m": 120.0, "rotor_m": 150.0}}, {"type": "Feature", "geometry": {"type": "Point", "coordinates": [-97.78841, 36.43631]}, "properties": {"kind": "turbine", "i": 72, "mw": 6.0, "hub_m": 120.0, "rotor_m": 150.0}}, {"type": "Feature", "geometry": {"type": "Point", "coordinates": [-97.77799, 36.321]}, "properties": {"kind": "turbine", "i": 73, "mw": 6.0, "hub_m": 120.0, "rotor_m": 150.0}}, {"type": "Feature", "geometry": {"type": "Point", "coordinates": [-97.73727, 36.32386]}, "properties": {"kind": "turbine", "i": 74, "mw": 6.0, "hub_m": 120.0, "rotor_m": 150.0}}, {"type": "Feature", "geometry": {"type": "Point", "coordinates": [-97.74355, 36.43914]}, "properties": {"kind": "turbine", "i": 75, "mw": 6.0, "hub_m": 120.0, "rotor_m": 150.0}}, {"type": "Feature", "geometry": {"type": "Point", "coordinates": [-97.79426, 36.32116]}, "properties": {"kind": "turbine", "i": 76, "mw": 6.0, "hub_m": 120.0, "rotor_m": 150.0}}, {"type": "Feature", "geometry": {"type": "Point", "coordinates": [-97.6873, 36.39245]}, "properties": {"kind": "turbine", "i": 77, "mw": 6.0, "hub_m": 120.0, "rotor_m": 150.0}}, {"type": "Feature", "geometry": {"type": "Point", "coordinates": [-97.7031, 36.42225]}, "properties": {"kind": "turbine", "i": 78, "mw": 6.0, "hub_m": 120.0, "rotor_m": 150.0}}, {"type": "Feature", "geometry": {"type": "Point", "coordinates": [-97.76789, 36.44598]}, "properties": {"kind": "turbine", "i": 79, "mw": 6.0, "hub_m": 120.0, "rotor_m": 150.0}}, {"type": "Feature", "geometry": {"type": "Point", "coordinates": [-97.75567, 36.44585]}, "properties": {"kind": "turbine", "i": 80, "mw": 6.0, "hub_m": 120.0, "rotor_m": 150.0}}, {"type": "Feature", "geometry": {"type": "Point", "coordinates": [-97.721, 36.32369]}, "properties": {"kind": "turbine", "i": 81, "mw": 6.0, "hub_m": 120.0, "rotor_m": 150.0}}, {"type": "Feature", "geometry": {"type": "Point", "coordinates": [-97.68362, 36.36937]}, "properties": {"kind": "turbine", "i": 82, "mw": 6.0, "hub_m": 120.0, "rotor_m": 150.0}}, {"type": "Feature", "geometry": {"type": "Point", "coordinates": [-97.69627, 36.34317]}, "properties": {"kind": "turbine", "i": 83, "mw": 6.0, "hub_m": 120.0, "rotor_m": 150.0}}, {"type": "Feature", "geometry": {"type": "Point", "coordinates": [-97.78011, 36.4461]}, "properties": {"kind": "turbine", "i": 84, "mw": 6.0, "hub_m": 120.0, "rotor_m": 150.0}}, {"type": "Feature", "geometry": {"type": "Point", "coordinates": [-97.83062, 36.33798]}, "properties": {"kind": "turbine", "i": 85, "mw": 6.0, "hub_m": 120.0, "rotor_m": 150.0}}, {"type": "Feature", "geometry": {"type": "Point", "coordinates": [-97.8465, 36.36447]}, "properties": {"kind": "turbine", "i": 86, "mw": 6.0, "hub_m": 120.0, "rotor_m": 150.0}}, {"type": "Feature", "geometry": {"type": "Point", "coordinates": [-97.72319, 36.43892]}, "properties": {"kind": "turbine", "i": 87, "mw": 6.0, "hub_m": 120.0, "rotor_m": 150.0}}, {"type": "Feature", "geometry": {"type": "Point", "coordinates": [-97.81285, 36.43656]}, "properties": {"kind": "turbine", "i": 88, "mw": 6.0, "hub_m": 120.0, "rotor_m": 150.0}}, {"type": "Feature", "geometry": {"type": "Point", "coordinates": [-97.85038, 36.37767]}, "properties": {"kind": "turbine", "i": 89, "mw": 6.0, "hub_m": 120.0, "rotor_m": 150.0}}, {"type": "Feature", "geometry": {"type": "Point", "coordinates": [-97.67939, 36.3792]}, "properties": {"kind": "turbine", "i": 90, "mw": 6.0, "hub_m": 120.0, "rotor_m": 150.0}}, {"type": "Feature", "geometry": {"type": "Point", "coordinates": [-97.81053, 36.32132]}, "properties": {"kind": "turbine", "i": 91, "mw": 6.0, "hub_m": 120.0, "rotor_m": 150.0}}, {"type": "Feature", "geometry": {"type": "Point", "coordinates": [-97.68307, 36.40228]}, "properties": {"kind": "turbine", "i": 92, "mw": 6.0, "hub_m": 120.0, "rotor_m": 150.0}}, {"type": "Feature", "geometry": {"type": "Point", "coordinates": [-97.68697, 36.4122]}, "properties": {"kind": "turbine", "i": 93, "mw": 6.0, "hub_m": 120.0, "rotor_m": 150.0}}, {"type": "Feature", "geometry": {"type": "Point", "coordinates": [-97.7964, 36.44627]}, "properties": {"kind": "turbine", "i": 94, "mw": 6.0, "hub_m": 120.0, "rotor_m": 150.0}}, {"type": "Feature", "geometry": {"type": "Point", "coordinates": [-97.67972, 36.35945]}, "properties": {"kind": "turbine", "i": 95, "mw": 6.0, "hub_m": 120.0, "rotor_m": 150.0}}, {"type": "Feature", "geometry": {"type": "Point", "coordinates": [-97.84273, 36.34468]}, "properties": {"kind": "turbine", "i": 96, "mw": 6.0, "hub_m": 120.0, "rotor_m": 150.0}}, {"type": "Feature", "geometry": {"type": "Point", "coordinates": [-97.68395, 36.34962]}, "properties": {"kind": "turbine", "i": 97, "mw": 6.0, "hub_m": 120.0, "rotor_m": 150.0}}, {"type": "Feature", "geometry": {"type": "Point", "coordinates": [-97.76193, 36.30766]}, "properties": {"kind": "turbine", "i": 98, "mw": 6.0, "hub_m": 120.0, "rotor_m": 150.0}}, {"type": "Feature", "geometry": {"type": "Point", "coordinates": [-97.83336, 36.42689]}, "properties": {"kind": "turbine", "i": 99, "mw": 6.0, "hub_m": 120.0, "rotor_m": 150.0}}, {"type": "Feature", "geometry": {"type": "Point", "coordinates": [-97.7088, 36.32356]}, "properties": {"kind": "turbine", "i": 100, "mw": 6.0, "hub_m": 120.0, "rotor_m": 150.0}}, {"type": "Feature", "geometry": {"type": "Point", "coordinates": [-97.7782, 36.30783]}, "properties": {"kind": "turbine", "i": 101, "mw": 6.0, "hub_m": 120.0, "rotor_m": 150.0}}, {"type": "Feature", "geometry": {"type": "Point", "coordinates": [-97.69088, 36.42212]}, "properties": {"kind": "turbine", "i": 102, "mw": 6.0, "hub_m": 120.0, "rotor_m": 150.0}}, {"type": "Feature", "geometry": {"type": "Point", "coordinates": [-97.85072, 36.35464]}, "properties": {"kind": "turbine", "i": 103, "mw": 6.0, "hub_m": 120.0, "rotor_m": 150.0}}, {"type": "Feature", "geometry": {"type": "Point", "coordinates": [-97.79848, 36.31133]}, "properties": {"kind": "turbine", "i": 104, "mw": 6.0, "hub_m": 120.0, "rotor_m": 150.0}}, {"type": "Feature", "geometry": {"type": "Point", "coordinates": [-97.74334, 36.45231]}, "properties": {"kind": "turbine", "i": 105, "mw": 6.0, "hub_m": 120.0, "rotor_m": 150.0}}, {"type": "Feature", "geometry": {"type": "Point", "coordinates": [-97.69886, 36.43208]}, "properties": {"kind": "turbine", "i": 106, "mw": 6.0, "hub_m": 120.0, "rotor_m": 150.0}}, {"type": "Feature", "geometry": {"type": "Point", "coordinates": [-97.7416, 36.30745]}, "properties": {"kind": "turbine", "i": 107, "mw": 6.0, "hub_m": 120.0, "rotor_m": 150.0}}, {"type": "Feature", "geometry": {"type": "Point", "coordinates": [-97.75958, 36.45577]}, "properties": {"kind": "turbine", "i": 108, "mw": 6.0, "hub_m": 120.0, "rotor_m": 150.0}}, {"type": "Feature", "geometry": {"type": "Point", "coordinates": [-97.77588, 36.45594]}, "properties": {"kind": "turbine", "i": 109, "mw": 6.0, "hub_m": 120.0, "rotor_m": 150.0}}, {"type": "Feature", "geometry": {"type": "Point", "coordinates": [-97.82914, 36.43672]}, "properties": {"kind": "turbine", "i": 110, "mw": 6.0, "hub_m": 120.0, "rotor_m": 150.0}}, {"type": "Feature", "geometry": {"type": "Point", "coordinates": [-97.8268, 36.32149]}, "properties": {"kind": "turbine", "i": 111, "mw": 6.0, "hub_m": 120.0, "rotor_m": 150.0}}, {"type": "Feature", "geometry": {"type": "Point", "coordinates": [-97.85871, 36.36459]}, "properties": {"kind": "turbine", "i": 112, "mw": 6.0, "hub_m": 120.0, "rotor_m": 150.0}}, {"type": "Feature", "geometry": {"type": "Point", "coordinates": [-97.70684, 36.44204]}, "properties": {"kind": "turbine", "i": 113, "mw": 6.0, "hub_m": 120.0, "rotor_m": 150.0}}, {"type": "Feature", "geometry": {"type": "Point", "coordinates": [-97.68418, 36.33646]}, "properties": {"kind": "turbine", "i": 114, "mw": 6.0, "hub_m": 120.0, "rotor_m": 150.0}}, {"type": "Feature", "geometry": {"type": "Point", "coordinates": [-97.66718, 36.37906]}, "properties": {"kind": "turbine", "i": 115, "mw": 6.0, "hub_m": 120.0, "rotor_m": 150.0}}, {"type": "Feature", "geometry": {"type": "Point", "coordinates": [-97.6966, 36.32343]}, "properties": {"kind": "turbine", "i": 116, "mw": 6.0, "hub_m": 120.0, "rotor_m": 150.0}}, {"type": "Feature", "geometry": {"type": "Point", "coordinates": [-97.79218, 36.4561]}, "properties": {"kind": "turbine", "i": 117, "mw": 6.0, "hub_m": 120.0, "rotor_m": 150.0}}, {"type": "Feature", "geometry": {"type": "Point", "coordinates": [-97.81475, 36.31149]}, "properties": {"kind": "turbine", "i": 118, "mw": 6.0, "hub_m": 120.0, "rotor_m": 150.0}}, {"type": "Feature", "geometry": {"type": "Point", "coordinates": [-97.72297, 36.45209]}, "properties": {"kind": "turbine", "i": 119, "mw": 6.0, "hub_m": 120.0, "rotor_m": 150.0}}, {"type": "Feature", "geometry": {"type": "Point", "coordinates": [-97.84694, 36.33485]}, "properties": {"kind": "turbine", "i": 120, "mw": 6.0, "hub_m": 120.0, "rotor_m": 150.0}}, {"type": "Feature", "geometry": {"type": "Point", "coordinates": [-97.6669, 36.39552]}, "properties": {"kind": "turbine", "i": 121, "mw": 6.0, "hub_m": 120.0, "rotor_m": 150.0}}, {"type": "Feature", "geometry": {"type": "Point", "coordinates": [-97.72127, 36.30724]}, "properties": {"kind": "turbine", "i": 122, "mw": 6.0, "hub_m": 120.0, "rotor_m": 150.0}}, {"type": "Feature", "geometry": {"type": "Point", "coordinates": [-97.7905, 36.30137]}, "properties": {"kind": "turbine", "i": 123, "mw": 6.0, "hub_m": 120.0, "rotor_m": 150.0}}, {"type": "Feature", "geometry": {"type": "Point", "coordinates": [-97.67175, 36.34949]}, "properties": {"kind": "turbine", "i": 124, "mw": 6.0, "hub_m": 120.0, "rotor_m": 150.0}}, {"type": "Feature", "geometry": {"type": "Point", "coordinates": [-97.67074, 36.40873]}, "properties": {"kind": "turbine", "i": 125, "mw": 6.0, "hub_m": 120.0, "rotor_m": 150.0}}, {"type": "Feature", "geometry": {"type": "Point", "coordinates": [-97.67866, 36.42198]}, "properties": {"kind": "turbine", "i": 126, "mw": 6.0, "hub_m": 120.0, "rotor_m": 150.0}}, {"type": "Feature", "geometry": {"type": "Point", "coordinates": [-97.66751, 36.35932]}, "properties": {"kind": "turbine", "i": 127, "mw": 6.0, "hub_m": 120.0, "rotor_m": 150.0}}, {"type": "Feature", "geometry": {"type": "Point", "coordinates": [-97.68664, 36.43195]}, "properties": {"kind": "turbine", "i": 128, "mw": 6.0, "hub_m": 120.0, "rotor_m": 150.0}}, {"type": "Feature", "geometry": {"type": "Point", "coordinates": [-97.76616, 36.29783]}, "properties": {"kind": "turbine", "i": 129, "mw": 6.0, "hub_m": 120.0, "rotor_m": 150.0}}, {"type": "Feature", "geometry": {"type": "Point", "coordinates": [-97.84553, 36.4303]}, "properties": {"kind": "turbine", "i": 130, "mw": 6.0, "hub_m": 120.0, "rotor_m": 150.0}}, {"type": "Feature", "geometry": {"type": "Point", "coordinates": [-97.86671, 36.37454]}, "properties": {"kind": "turbine", "i": 131, "mw": 6.0, "hub_m": 120.0, "rotor_m": 150.0}}, {"type": "Feature", "geometry": {"type": "Point", "coordinates": [-97.8126, 36.45301]}, "properties": {"kind": "turbine", "i": 132, "mw": 6.0, "hub_m": 120.0, "rotor_m": 150.0}}, {"type": "Feature", "geometry": {"type": "Point", "coordinates": [-97.66328, 36.36914]}, "properties": {"kind": "turbine", "i": 133, "mw": 6.0, "hub_m": 120.0, "rotor_m": 150.0}}, {"type": "Feature", "geometry": {"type": "Point", "coordinates": [-97.86297, 36.35146]}, "properties": {"kind": "turbine", "i": 134, "mw": 6.0, "hub_m": 120.0, "rotor_m": 150.0}}, {"type": "Feature", "geometry": {"type": "Point", "coordinates": [-97.76758, 36.46572]}, "properties": {"kind": "turbine", "i": 135, "mw": 6.0, "hub_m": 120.0, "rotor_m": 150.0}}, {"type": "Feature", "geometry": {"type": "Point", "coordinates": [-97.75535, 36.4656]}, "properties": {"kind": "turbine", "i": 136, "mw": 6.0, "hub_m": 120.0, "rotor_m": 150.0}}, {"type": "Feature", "geometry": {"type": "Point", "coordinates": [-97.69055, 36.44186]}, "properties": {"kind": "turbine", "i": 137, "mw": 6.0, "hub_m": 120.0, "rotor_m": 150.0}}, {"type": "Feature", "geometry": {"type": "Point", "coordinates": [-97.83307, 36.44663]}, "properties": {"kind": "turbine", "i": 138, "mw": 6.0, "hub_m": 120.0, "rotor_m": 150.0}}, {"type": "Feature", "geometry": {"type": "Point", "coordinates": [-97.74994, 36.29437]}, "properties": {"kind": "turbine", "i": 139, "mw": 6.0, "hub_m": 120.0, "rotor_m": 150.0}}, {"type": "Feature", "geometry": {"type": "Point", "coordinates": [-97.7798, 36.46585]}, "properties": {"kind": "turbine", "i": 140, "mw": 6.0, "hub_m": 120.0, "rotor_m": 150.0}}, {"type": "Feature", "geometry": {"type": "Point", "coordinates": [-97.83101, 36.31165]}, "properties": {"kind": "turbine", "i": 141, "mw": 6.0, "hub_m": 120.0, "rotor_m": 150.0}}, {"type": "Feature", "geometry": {"type": "Point", "coordinates": [-97.81083, 36.30158]}, "properties": {"kind": "turbine", "i": 142, "mw": 6.0, "hub_m": 120.0, "rotor_m": 150.0}}, {"type": "Feature", "geometry": {"type": "Point", "coordinates": [-97.70501, 36.30706]}, "properties": {"kind": "turbine", "i": 143, "mw": 6.0, "hub_m": 120.0, "rotor_m": 150.0}}, {"type": "Feature", "geometry": {"type": "Point", "coordinates": [-97.7026, 36.45187]}, "properties": {"kind": "turbine", "i": 144, "mw": 6.0, "hub_m": 120.0, "rotor_m": 150.0}}, {"type": "Feature", "geometry": {"type": "Point", "coordinates": [-97.73905, 36.46543]}, "properties": {"kind": "turbine", "i": 145, "mw": 6.0, "hub_m": 120.0, "rotor_m": 150.0}}, {"type": "Feature", "geometry": {"type": "Point", "coordinates": [-97.66785, 36.33957]}, "properties": {"kind": "turbine", "i": 146, "mw": 6.0, "hub_m": 120.0, "rotor_m": 150.0}}, {"type": "Feature", "geometry": {"type": "Point", "coordinates": [-97.73775, 36.29424]}, "properties": {"kind": "turbine", "i": 147, "mw": 6.0, "hub_m": 120.0, "rotor_m": 150.0}}, {"type": "Feature", "geometry": {"type": "Point", "coordinates": [-97.7255, 36.29741]}, "properties": {"kind": "turbine", "i": 148, "mw": 6.0, "hub_m": 120.0, "rotor_m": 150.0}}, {"type": "Feature", "geometry": {"type": "Point", "coordinates": [-97.68033, 36.32325]}, "properties": {"kind": "turbine", "i": 149, "mw": 6.0, "hub_m": 120.0, "rotor_m": 150.0}}, {"type": "Feature", "geometry": {"type": "Point", "coordinates": [-97.65497, 36.37893]}, "properties": {"kind": "turbine", "i": 150, "mw": 6.0, "hub_m": 120.0, "rotor_m": 150.0}}, {"type": "Feature", "geometry": {"type": "Point", "coordinates": [-97.77846, 36.29138]}, "properties": {"kind": "turbine", "i": 151, "mw": 6.0, "hub_m": 120.0, "rotor_m": 150.0}}, {"type": "Feature", "geometry": {"type": "Point", "coordinates": [-97.82477, 36.45643]}, "properties": {"kind": "turbine", "i": 152, "mw": 6.0, "hub_m": 120.0, "rotor_m": 150.0}}, {"type": "Feature", "geometry": {"type": "Point", "coordinates": [-97.65468, 36.39538]}, "properties": {"kind": "turbine", "i": 153, "mw": 6.0, "hub_m": 120.0, "rotor_m": 150.0}}, {"type": "Feature", "geometry": {"type": "Point", "coordinates": [-97.8512, 36.32172]}, "properties": {"kind": "turbine", "i": 154, "mw": 6.0, "hub_m": 120.0, "rotor_m": 150.0}}, {"type": "Feature", "geometry": {"type": "Point", "coordinates": [-97.84946, 36.44021]}, "properties": {"kind": "turbine", "i": 155, "mw": 6.0, "hub_m": 120.0, "rotor_m": 150.0}}, {"type": "Feature", "geometry": {"type": "Point", "coordinates": [-97.86321, 36.335]}, "properties": {"kind": "turbine", "i": 156, "mw": 6.0, "hub_m": 120.0, "rotor_m": 150.0}}, {"type": "Feature", "geometry": {"type": "Point", "coordinates": [-97.66639, 36.42514]}, "properties": {"kind": "turbine", "i": 157, "mw": 6.0, "hub_m": 120.0, "rotor_m": 150.0}}]}