{"type": "FeatureCollection", "features": [{"type": "Feature", "geometry": {"type": "MultiPolygon", "coordinates": [[[[-97.83089, 36.44519], [-97.8294, 36.4447], [-97.8278, 36.44467], [-97.82598, 36.44528], [-97.82459, 36.44661], [-97.82135, 36.44655], [-97.82132, 36.43907], [-97.82315, 36.43796], [-97.82406, 36.43599], [-97.83448, 36.43612], [-97.83449, 36.43716], [-97.83269, 36.43822], [-97.83174, 36.44011], [-97.83206, 36.44185], [-97.83368, 36.44343], [-97.83089, 36.44519]], [[-97.82603, 36.43933], [-97.82554, 36.43933], [-97.82554, 36.43949], [-97.82603, 36.43949], [-97.82603, 36.43933]]], [[[-97.83927, 36.43617], [-97.84232, 36.43621], [-97.84273, 36.43621], [-97.84009, 36.43851], [-97.83928, 36.43783], [-97.83927, 36.43617]]], [[[-97.84358, 36.43236], [-97.84286, 36.43235], [-97.84295, 36.43093], [-97.84222, 36.42966], [-97.84031, 36.42881], [-97.84261, 36.42751], [-97.84329, 36.42652], [-97.84503, 36.42728], [-97.85108, 36.42722], [-97.84955, 36.42938], [-97.84707, 36.43069], [-97.84606, 36.4324], [-97.84358, 36.43236]]], [[[-97.83451, 36.42518], [-97.83445, 36.43225], [-97.8231, 36.43211], [-97.8226, 36.43037], [-97.82139, 36.42923], [-97.82139, 36.42367], [-97.82272, 36.42468], [-97.8248, 36.42472], [-97.82624, 36.42372], [-97.82678, 36.42219], [-97.8286, 36.42388], [-97.82998, 36.424], [-97.83141, 36.42343], [-97.83451, 36.42518]]], [[[-97.82136, 36.41759], [-97.82134, 36.41433], [-97.82188, 36.41433], [-97.82348, 36.41547], [-97.82531, 36.4155], [-97.82454, 36.41762], [-97.82136, 36.41759]]], [[[-97.82216, 36.41046], [-97.82135, 36.41046], [-97.82136, 36.40712], [-97.82553, 36.40714], [-97.82582, 36.4105], [-97.82216, 36.41046]]], [[[-97.84517, 36.41796], [-97.84396, 36.41792], [-97.84395, 36.41693], [-97.84516, 36.41629], [-97.84517, 36.41796]]], [[[-97.83442, 36.40076], [-97.83439, 36.40331], [-97.83147, 36.40329], [-97.82463, 36.40045], [-97.8249, 36.39991], [-97.83429, 36.39992], [-97.83442, 36.40076]]], [[[-97.83322, 36.38201], [-97.82965, 36.38171], [-97.82805, 36.38244], [-97.82613, 36.38468], [-97.82616, 36.38642], [-97.82555, 36.38764], [-97.82596, 36.3888], [-97.82214, 36.38879], [-97.82147, 36.38822], [-97.82327, 36.38737], [-97.82388, 36.38588], [-97.82309, 36.3844], [-97.82131, 36.38365], [-97.82132, 36.37817], [-97.83453, 36.3782], [-97.83455, 36.38087], [-97.83322, 36.38201]]], [[[-97.84086, 36.38003], [-97.83932, 36.37933], [-97.83927, 36.37635], [-97.84087, 36.37625], [-97.84204, 36.37569], [-97.84366, 36.37347], [-97.84392, 36.37232], [-97.84346, 36.3713], [-97.84263, 36.37067], [-97.83926, 36.37017], [-97.83927, 36.36367], [-97.85233, 36.36368], [-97.85238, 36.37231], [-97.85027, 36.37275], [-97.84947, 36.37364], [-97.84927, 36.37451], [-97.84969, 36.37645], [-97.85241, 36.37802], [-97.85242, 36.37861], [-97.85089, 36.37799], [-97.84918, 36.37819], [-97.84807, 36.37906], [-97.84773, 36.38053], [-97.84812, 36.38171], [-97.84944, 36.38294], [-97.85063, 36.38324], [-97.8524, 36.38297], [-97.85235, 36.3887], [-97.84601, 36.38872], [-97.84681, 36.38673], [-97.84626, 36.38235], [-97.84527, 36.38123], [-97.844, 36.38051], [-97.84086, 36.38003]], [[-97.85102, 36.37176], [-97.85186, 36.37049], [-97.85157, 36.36889], [-97.85226, 36.3678], [-97.85217, 36.36655], [-97.85091, 36.3653], [-97.84887, 36.3651], [-97.84771, 36.36564], [-97.84702, 36.36647], [-97.84709, 36.36833], [-97.84644, 36.36921], [-97.84642, 36.3704], [-97.8472, 36.37154], [-97.84835, 36.37218], [-97.84966, 36.37229], [-97.85102, 36.37176]]], [[[-97.86043, 36.3842], [-97.85859, 36.38386], [-97.85718, 36.3843], [-97.85722, 36.3814], [-97.85919, 36.3821], [-97.86137, 36.38137], [-97.86137, 36.38332], [-97.86043, 36.3842]]], [[[-97.86615, 36.38106], [-97.86613, 36.37632], [-97.86602, 36.36938], [-97.86843, 36.36954], [-97.86898, 36.37276], [-97.86928, 36.38212], [-97.86708, 36.38248], [-97.86616, 36.3822], [-97.86615, 36.38106]]], [[[-97.86354, 36.3598], [-97.85982, 36.35979], [-97.85911, 36.35816], [-97.85708, 36.35747], [-97.85708, 36.35637], [-97.85813, 36.35585], [-97.85875, 36.35484], [-97.85866, 36.35391], [-97.85806, 36.35313], [-97.85934, 36.35169], [-97.85909, 36.34971], [-97.86072, 36.35041], [-97.86267, 36.35051], [-97.86522, 36.35649], [-97.86619, 36.35979], [-97.86354, 36.3598]]], [[[-97.85704, 36.34725], [-97.85704, 36.34369], [-97.85851, 36.34271], [-97.85928, 36.34406], [-97.85762, 36.34634], [-97.85762, 36.34771], [-97.85825, 36.34895], [-97.85705, 36.34857], [-97.85704, 36.34725]]], [[[-97.85201, 36.42191], [-97.852, 36.422], [-97.85172, 36.42191], [-97.85201, 36.42191]]], [[[-97.85225, 36.33466], [-97.85225, 36.33561], [-97.85109, 36.33466], [-97.85225, 36.33466]]], [[[-97.85226, 36.34292], [-97.85226, 36.34322], [-97.85, 36.34284], [-97.84812, 36.34311], [-97.84814, 36.34118], [-97.85073, 36.34073], [-97.85225, 36.33928], [-97.85226, 36.34292]]], [[[-97.84605, 36.33947], [-97.84522, 36.33951], [-97.84595, 36.33814], [-97.84508, 36.33664], [-97.8438, 36.33621], [-97.84103, 36.33626], [-97.84211, 36.33468], [-97.84805, 36.33466], [-97.84654, 36.33631], [-97.84605, 36.33947]]], [[[-97.85229, 36.35408], [-97.85058, 36.35478], [-97.84972, 36.35657], [-97.85058, 36.35814], [-97.85231, 36.35889], [-97.85231, 36.35981], [-97.85121, 36.35981], [-97.8497, 36.35844], [-97.84801, 36.35823], [-97.84647, 36.35863], [-97.84541, 36.3598], [-97.83925, 36.35981], [-97.83918, 36.34917], [-97.84664, 36.34917], [-97.84974, 36.35046], [-97.85228, 36.35028], [-97.85229, 36.35408]], [[-97.84865, 36.35524], [-97.84969, 36.35361], [-97.84903, 36.35171], [-97.8468, 36.35085], [-97.84476, 36.3513], [-97.84375, 36.353], [-97.84452, 36.35478], [-97.84652, 36.3557], [-97.84865, 36.35524]]], [[[-97.85711, 36.36365], [-97.86121, 36.36366], [-97.86131, 36.37425], [-97.85717, 36.37429], [-97.85716, 36.37311], [-97.85853, 36.3733], [-97.85979, 36.37298], [-97.86065, 36.37226], [-97.86105, 36.37117], [-97.86078, 36.37004], [-97.85993, 36.36917], [-97.85849, 36.36868], [-97.85714, 36.36875], [-97.85711, 36.36365]]], [[[-97.82119, 36.31648], [-97.82109, 36.30895], [-97.82403, 36.31042], [-97.83368, 36.31656], [-97.82119, 36.31648]]], [[[-97.83238, 36.32453], [-97.83439, 36.32564], [-97.83439, 36.33079], [-97.82541, 36.33079], [-97.82335, 36.33003], [-97.82122, 36.33063], [-97.8212, 36.32035], [-97.8344, 36.32043], [-97.8344, 36.32105], [-97.83296, 36.32153], [-97.83214, 36.32249], [-97.83194, 36.32351], [-97.83238, 36.32453]]], [[[-97.83918, 36.32069], [-97.84184, 36.32305], [-97.84252, 36.32488], [-97.84469, 36.32566], [-97.84681, 36.32766], [-97.84455, 36.3289], [-97.84416, 36.32979], [-97.84433, 36.3308], [-97.83916, 36.3308], [-97.83916, 36.32679], [-97.84006, 36.32603], [-97.84048, 36.32475], [-97.84014, 36.32369], [-97.83917, 36.32288], [-97.83918, 36.32069]]], [[[-97.83437, 36.33817], [-97.83438, 36.34519], [-97.83384, 36.34275], [-97.83275, 36.34129], [-97.83094, 36.34041], [-97.8278, 36.34023], [-97.82575, 36.34064], [-97.82419, 36.34179], [-97.82347, 36.3434], [-97.82365, 36.34533], [-97.82124, 36.34535], [-97.82125, 36.33465], [-97.82758, 36.33467], [-97.8284, 36.33582], [-97.83142, 36.33736], [-97.8331, 36.33745], [-97.83436, 36.33686], [-97.83437, 36.33817]]], [[[-97.8344, 36.34917], [-97.83442, 36.35193], [-97.83289, 36.3511], [-97.83053, 36.35099], [-97.82902, 36.35184], [-97.82845, 36.35336], [-97.82942, 36.35496], [-97.83169, 36.35557], [-97.83097, 36.35696], [-97.83163, 36.35853], [-97.83301, 36.35925], [-97.83446, 36.35928], [-97.83447, 36.35981], [-97.82713, 36.35983], [-97.82733, 36.35868], [-97.82694, 36.3577], [-97.82598, 36.35694], [-97.82454, 36.35662], [-97.8224, 36.35742], [-97.82172, 36.35849], [-97.82192, 36.35984], [-97.82126, 36.35984], [-97.82125, 36.35598], [-97.82222, 36.35525], [-97.82266, 36.35409], [-97.82223, 36.35281], [-97.82125, 36.35195], [-97.82124, 36.34922], [-97.825, 36.34918], [-97.82703, 36.35025], [-97.82978, 36.35054], [-97.83183, 36.35012], [-97.83322, 36.34916], [-97.8344, 36.34917]]], [[[-97.83441, 36.3549], [-97.83412, 36.35485], [-97.83441, 36.35457], [-97.83441, 36.3549]]], [[[-97.82695, 36.36618], [-97.82829, 36.36599], [-97.82928, 36.3654], [-97.82997, 36.36369], [-97.83449, 36.36368], [-97.83447, 36.36963], [-97.83238, 36.37004], [-97.83133, 36.37174], [-97.83229, 36.37367], [-97.83448, 36.37433], [-97.82132, 36.37431], [-97.82131, 36.37213], [-97.82284, 36.3721], [-97.82407, 36.37152], [-97.82502, 36.37043], [-97.8252, 36.3693], [-97.82479, 36.36807], [-97.82385, 36.36733], [-97.82273, 36.36702], [-97.82129, 36.3672], [-97.82127, 36.36371], [-97.82428, 36.3637], [-97.82509, 36.36543], [-97.82695, 36.36618]]], [[[-97.82525, 36.39386], [-97.82607, 36.39267], [-97.83047, 36.39269], [-97.82553, 36.39463], [-97.82525, 36.39386]]], [[[-97.80997, 36.40323], [-97.80642, 36.4032], [-97.80645, 36.40046], [-97.80595, 36.39944], [-97.81188, 36.39945], [-97.81287, 36.39984], [-97.81277, 36.40179], [-97.81454, 36.40324], [-97.80997, 36.40323]]], [[[-97.81244, 36.39535], [-97.81205, 36.39518], [-97.8125, 36.39375], [-97.81293, 36.39409], [-97.81244, 36.39535]]], [[[-97.81656, 36.44652], [-97.81409, 36.44653], [-97.81288, 36.44544], [-97.81149, 36.44491], [-97.81005, 36.44319], [-97.80768, 36.44243], [-97.80723, 36.44125], [-97.80618, 36.44019], [-97.80471, 36.43953], [-97.80328, 36.43936], [-97.80327, 36.43593], [-97.81517, 36.43592], [-97.81306, 36.43738], [-97.81247, 36.43964], [-97.81375, 36.44173], [-97.81488, 36.44237], [-97.81652, 36.44272], [-97.81656, 36.44652]]], [[[-97.80327, 36.43206], [-97.80335, 36.42258], [-97.80753, 36.42239], [-97.81015, 36.42141], [-97.81355, 36.42141], [-97.8148, 36.42259], [-97.81661, 36.4228], [-97.81661, 36.42876], [-97.81465, 36.43005], [-97.81391, 36.43206], [-97.80327, 36.43206]], [[-97.81021, 36.42231], [-97.80869, 36.42268], [-97.80743, 36.42347], [-97.80658, 36.42461], [-97.80632, 36.42602], [-97.80675, 36.4274], [-97.80781, 36.42852], [-97.80929, 36.42921], [-97.81097, 36.42938], [-97.81253, 36.42906], [-97.81411, 36.42805], [-97.81486, 36.42692], [-97.81504, 36.4255], [-97.81455, 36.42418], [-97.81358, 36.42318], [-97.8122, 36.42251], [-97.81021, 36.42231]]], [[[-97.82136, 36.45042], [-97.82245, 36.45044], [-97.82136, 36.45101], [-97.82136, 36.45042]]], [[[-97.80337, 36.45589], [-97.80338, 36.45042], [-97.80676, 36.45041], [-97.80809, 36.45137], [-97.80974, 36.45181], [-97.81162, 36.45168], [-97.81348, 36.45075], [-97.81496, 36.45138], [-97.81658, 36.45124], [-97.81657, 36.45196], [-97.8156, 36.45277], [-97.81491, 36.45405], [-97.80335, 36.45848], [-97.80337, 36.45589]]], [[[-97.80377, 36.30186], [-97.80337, 36.30186], [-97.80337, 36.30161], [-97.8042, 36.30186], [-97.80377, 36.30186]]], [[[-97.78538, 36.3162], [-97.7854, 36.29728], [-97.79858, 36.30017], [-97.79862, 36.31625], [-97.79273, 36.31622], [-97.79182, 36.31463], [-97.78979, 36.31399], [-97.788, 36.3146], [-97.78696, 36.3162], [-97.78538, 36.3162]], [[-97.79079, 36.3067], [-97.79191, 36.30828], [-97.79395, 36.30865], [-97.79614, 36.30779], [-97.79682, 36.30596], [-97.7956, 36.30438], [-97.79357, 36.30395], [-97.79151, 36.30505], [-97.79079, 36.3067]]], [[[-97.78535, 36.33063], [-97.78537, 36.32006], [-97.79861, 36.32012], [-97.79859, 36.3306], [-97.79472, 36.33068], [-97.7944, 36.32928], [-97.79346, 36.32813], [-97.79206, 36.32737], [-97.7902, 36.32709], [-97.78853, 36.32735], [-97.78712, 36.3281], [-97.78617, 36.32924], [-97.78583, 36.33063], [-97.78535, 36.33063]]], [[[-97.80221, 36.33712], [-97.8038, 36.33607], [-97.80414, 36.3346], [-97.81647, 36.33466], [-97.81646, 36.34535], [-97.81368, 36.34532], [-97.81234, 36.34461], [-97.81082, 36.34435], [-97.80908, 36.34303], [-97.80676, 36.34257], [-97.80509, 36.3428], [-97.80373, 36.34348], [-97.80187, 36.34296], [-97.80002, 36.3431], [-97.79821, 36.34398], [-97.79725, 36.34515], [-97.7923, 36.34513], [-97.7906, 36.34411], [-97.78818, 36.34387], [-97.78711, 36.34246], [-97.78547, 36.34163], [-97.78544, 36.33449], [-97.79854, 36.33449], [-97.79955, 36.33655], [-97.80072, 36.33712], [-97.80221, 36.33712]]], [[[-97.8056, 36.35972], [-97.80332, 36.35968], [-97.80334, 36.35315], [-97.80494, 36.35263], [-97.80636, 36.35136], [-97.80877, 36.35189], [-97.81254, 36.35136], [-97.81154, 36.35331], [-97.81226, 36.35479], [-97.81183, 36.35677], [-97.81285, 36.35979], [-97.8056, 36.35972]]], [[[-97.79854, 36.35967], [-97.79544, 36.35968], [-97.79333, 36.3584], [-97.79179, 36.35794], [-97.78997, 36.358], [-97.7882, 36.35869], [-97.78739, 36.3571], [-97.78536, 36.35642], [-97.78543, 36.35064], [-97.78731, 36.35158], [-97.78953, 36.35167], [-97.79176, 36.35071], [-97.79295, 36.349], [-97.79777, 36.34902], [-97.79857, 36.35156], [-97.79854, 36.35967]]], [[[-97.81653, 36.37173], [-97.8144, 36.37238], [-97.81355, 36.37427], [-97.80625, 36.3743], [-97.8051, 36.37492], [-97.80454, 36.37614], [-97.80507, 36.37737], [-97.80645, 36.37805], [-97.81654, 36.37815], [-97.81654, 36.38504], [-97.81405, 36.38506], [-97.81285, 36.38558], [-97.8122, 36.38655], [-97.81221, 36.38875], [-97.80027, 36.38868], [-97.80076, 36.38641], [-97.79966, 36.38457], [-97.7979, 36.38363], [-97.79558, 36.38347], [-97.79364, 36.38413], [-97.7923, 36.38548], [-97.7918, 36.38241], [-97.79118, 36.38107], [-97.78633, 36.37698], [-97.78494, 36.37621], [-97.78328, 36.37593], [-97.78162, 36.37618], [-97.78011, 36.37689], [-97.77835, 36.3785], [-97.77703, 36.37731], [-97.775, 36.37706], [-97.7737, 36.37764], [-97.77298, 36.37884], [-97.76844, 36.37694], [-97.76826, 36.37552], [-97.7675, 36.37435], [-97.76749, 36.36344], [-97.78081, 36.36347], [-97.78114, 36.36453], [-97.78017, 36.36569], [-97.78017, 36.3671], [-97.78121, 36.36834], [-97.78277, 36.36875], [-97.78407, 36.36851], [-97.78522, 36.36762], [-97.78563, 36.36626], [-97.78527, 36.36521], [-97.78604, 36.36448], [-97.78635, 36.36352], [-97.78842, 36.36319], [-97.79102, 36.36182], [-97.79327, 36.36313], [-97.79513, 36.36355], [-97.81649, 36.36369], [-97.8165, 36.36594], [-97.81512, 36.36574], [-97.81385, 36.36607], [-97.81294, 36.36682], [-97.81257, 36.36793], [-97.81289, 36.36898], [-97.81378, 36.36979], [-97.81496, 36.37013], [-97.81652, 36.36992], [-97.81653, 36.37173]], [[-97.79727, 36.36832], [-97.79639, 36.37001], [-97.79721, 36.37161], [-97.79905, 36.37226], [-97.80107, 36.37163], [-97.80207, 36.36998], [-97.80126, 36.36828], [-97.79918, 36.36761], [-97.79727, 36.36832]], [[-97.77474, 36.3743], [-97.77315, 36.37314], [-97.77104, 36.37329], [-97.76957, 36.37457], [-97.76969, 36.37645], [-97.77137, 36.37749], [-97.77345, 36.3773], [-97.77484, 36.37603], [-97.77474, 36.3743]]], [[[-97.78994, 36.39251], [-97.78978, 36.39548], [-97.78551, 36.39549], [-97.7855, 36.39334], [-97.78689, 36.39251], [-97.78994, 36.39251]]], [[[-97.78072, 36.3955], [-97.77027, 36.39552], [-97.76984, 36.39364], [-97.76744, 36.39244], [-97.78022, 36.39249], [-97.78072, 36.39288], [-97.78072, 36.3955]]], [[[-97.76747, 36.38857], [-97.76754, 36.38184], [-97.76899, 36.38291], [-97.77189, 36.38273], [-97.778, 36.38531], [-97.77794, 36.38707], [-97.77885, 36.38862], [-97.76747, 36.38857]]], [[[-97.80936, 36.40709], [-97.81658, 36.40711], [-97.81657, 36.41043], [-97.80862, 36.41036], [-97.80885, 36.40847], [-97.80854, 36.40708], [-97.80936, 36.40709]]], [[[-97.79856, 36.42577], [-97.7985, 36.42929], [-97.79662, 36.43033], [-97.79576, 36.43208], [-97.7855, 36.43211], [-97.7856, 36.43092], [-97.7874, 36.43159], [-97.78921, 36.43111], [-97.79009, 36.43019], [-97.79039, 36.42919], [-97.79003, 36.42812], [-97.78866, 36.42666], [-97.78735, 36.42615], [-97.78589, 36.42621], [-97.78546, 36.42584], [-97.78546, 36.42379], [-97.78667, 36.42354], [-97.78752, 36.42293], [-97.78878, 36.42386], [-97.79046, 36.42404], [-97.79339, 36.42324], [-97.79469, 36.42238], [-97.79546, 36.42404], [-97.79686, 36.42483], [-97.79856, 36.42482], [-97.79856, 36.42577]]], [[[-97.78956, 36.41653], [-97.78847, 36.41616], [-97.78892, 36.41422], [-97.79583, 36.41421], [-97.7986, 36.4153], [-97.7953, 36.41564], [-97.79387, 36.417], [-97.7918, 36.41636], [-97.78956, 36.41653]]], [[[-97.77632, 36.41844], [-97.77583, 36.42046], [-97.77665, 36.42213], [-97.77884, 36.42274], [-97.78067, 36.42198], [-97.78068, 36.42517], [-97.77874, 36.42642], [-97.77797, 36.42856], [-97.7787, 36.4304], [-97.78072, 36.43171], [-97.78072, 36.4321], [-97.76751, 36.43203], [-97.76754, 36.42346], [-97.76965, 36.42373], [-97.77167, 36.42321], [-97.77346, 36.42141], [-97.77498, 36.42074], [-97.77554, 36.41952], [-97.77469, 36.41802], [-97.77297, 36.41756], [-97.77151, 36.41659], [-97.76945, 36.41622], [-97.76749, 36.41658], [-97.76737, 36.40932], [-97.77253, 36.41313], [-97.77609, 36.41414], [-97.77948, 36.41422], [-97.77788, 36.41486], [-97.77684, 36.41583], [-97.77627, 36.41717], [-97.77632, 36.41844]]], [[[-97.78548, 36.407], [-97.78553, 36.407], [-97.78548, 36.40703], [-97.78548, 36.407]]], [[[-97.78801, 36.40312], [-97.78547, 36.40313], [-97.78549, 36.3996], [-97.79864, 36.39952], [-97.79866, 36.40184], [-97.79775, 36.40312], [-97.79659, 36.40311], [-97.79511, 36.40228], [-97.79312, 36.40202], [-97.79145, 36.40228], [-97.78996, 36.40311], [-97.78801, 36.40312]]], [[[-97.7985, 36.44137], [-97.79857, 36.44658], [-97.78546, 36.44668], [-97.7855, 36.43597], [-97.79048, 36.43596], [-97.79044, 36.43719], [-97.79108, 36.43856], [-97.79229, 36.43957], [-97.79392, 36.44012], [-97.79661, 36.43988], [-97.79849, 36.4386], [-97.7985, 36.44137]]], [[[-97.78831, 36.46114], [-97.78525, 36.46114], [-97.78542, 36.45055], [-97.79859, 36.45044], [-97.79857, 36.45759], [-97.79616, 36.45837], [-97.79463, 36.46039], [-97.79283, 36.46041], [-97.791, 36.46113], [-97.78831, 36.46114]]], [[[-97.75449, 36.29616], [-97.75833, 36.29585], [-97.75995, 36.29614], [-97.76119, 36.29577], [-97.76633, 36.29562], [-97.77654, 36.29613], [-97.77897, 36.29644], [-97.78063, 36.29702], [-97.7806, 36.30169], [-97.77011, 36.30187], [-97.7685, 36.30021], [-97.76681, 36.29978], [-97.76481, 36.30037], [-97.76364, 36.30197], [-97.76313, 36.30197], [-97.76324, 36.30063], [-97.76271, 36.29951], [-97.76169, 36.2987], [-97.76025, 36.29838], [-97.75883, 36.29875], [-97.75764, 36.29974], [-97.75727, 36.30075], [-97.75766, 36.30197], [-97.7567, 36.30197], [-97.75528, 36.30055], [-97.75358, 36.30027], [-97.75189, 36.3008], [-97.75102, 36.30197], [-97.74964, 36.30197], [-97.74962, 36.29663], [-97.75449, 36.29616]], [[-97.77918, 36.29958], [-97.77927, 36.29782], [-97.77789, 36.29657], [-97.77535, 36.29615], [-97.77351, 36.29726], [-97.77339, 36.29907], [-97.77493, 36.30058], [-97.77755, 36.30075], [-97.77918, 36.29958]]], [[[-97.77996, 36.30727], [-97.78062, 36.30735], [-97.7806, 36.31621], [-97.77024, 36.31634], [-97.76954, 36.31454], [-97.76735, 36.31368], [-97.76731, 36.31022], [-97.76655, 36.30951], [-97.76523, 36.30917], [-97.7637, 36.30959], [-97.76283, 36.31081], [-97.76128, 36.31032], [-97.75962, 36.31063], [-97.75833, 36.31195], [-97.75835, 36.31322], [-97.75929, 36.3143], [-97.76088, 36.31477], [-97.76255, 36.3144], [-97.76249, 36.31642], [-97.74976, 36.31652], [-97.74969, 36.3089], [-97.75111, 36.30754], [-97.75082, 36.30584], [-97.75488, 36.30584], [-97.75576, 36.30646], [-97.757, 36.30671], [-97.7583, 36.30644], [-97.75917, 36.30584], [-97.77801, 36.30559], [-97.77871, 36.30668], [-97.77996, 36.30727]]], [[[-97.7795, 36.34371], [-97.779, 36.34512], [-97.77434, 36.3451], [-97.77243, 36.34395], [-97.77343, 36.34287], [-97.77505, 36.34313], [-97.77653, 36.34263], [-97.77857, 36.33931], [-97.78067, 36.33839], [-97.78069, 36.3425], [-97.7795, 36.34371]]], [[[-97.77187, 36.35037], [-97.77322, 36.34896], [-97.78067, 36.34898], [-97.78058, 36.3596], [-97.76746, 36.35958], [-97.76824, 36.35821], [-97.76835, 36.35674], [-97.76944, 36.3553], [-97.76924, 36.35356], [-97.77044, 36.35243], [-97.7706, 36.35092], [-97.77187, 36.35037]]], [[[-97.76201, 36.36348], [-97.76271, 36.36405], [-97.76271, 36.37298], [-97.76103, 36.37342], [-97.75984, 36.37334], [-97.75203, 36.37009], [-97.75106, 36.36916], [-97.74965, 36.36886], [-97.74953, 36.36337], [-97.76201, 36.36348]], [[-97.75396, 36.36923], [-97.75604, 36.36978], [-97.75791, 36.36885], [-97.7587, 36.36683], [-97.75749, 36.36513], [-97.75552, 36.36479], [-97.75371, 36.36581], [-97.75302, 36.36769], [-97.75396, 36.36923]]], [[[-97.75798, 36.35861], [-97.75776, 36.35954], [-97.74949, 36.3595], [-97.74949, 36.35836], [-97.75142, 36.35885], [-97.7533, 36.35807], [-97.75403, 36.35694], [-97.75414, 36.35524], [-97.75381, 36.35367], [-97.75273, 36.35262], [-97.75104, 36.35227], [-97.74951, 36.35283], [-97.74943, 36.34882], [-97.76254, 36.34892], [-97.76262, 36.35527], [-97.76032, 36.35584], [-97.75798, 36.35861]]], [[[-97.7625, 36.34371], [-97.762, 36.34505], [-97.75133, 36.34498], [-97.7507, 36.34376], [-97.7514, 36.3427], [-97.75134, 36.34161], [-97.75069, 36.34062], [-97.74971, 36.34001], [-97.74977, 36.33916], [-97.75165, 36.3363], [-97.75118, 36.33449], [-97.76255, 36.33446], [-97.7625, 36.34371]]], [[[-97.76787, 36.34166], [-97.76731, 36.34139], [-97.76733, 36.33446], [-97.77506, 36.33447], [-97.77411, 36.33629], [-97.77205, 36.33566], [-97.77005, 36.33647], [-97.76942, 36.33764], [-97.76981, 36.3392], [-97.76787, 36.34166]]], [[[-97.77698, 36.33001], [-97.77639, 36.3306], [-97.76733, 36.3306], [-97.76719, 36.32024], [-97.78059, 36.32008], [-97.78058, 36.32891], [-97.77698, 36.33001]]], [[[-97.78051, 36.33449], [-97.78066, 36.33448], [-97.78066, 36.33463], [-97.78051, 36.33449]]], [[[-97.81638, 36.32447], [-97.81644, 36.33079], [-97.80337, 36.33073], [-97.80339, 36.32018], [-97.81643, 36.32031], [-97.81638, 36.32447]]], [[[-97.84046, 36.34014], [-97.8441, 36.34001], [-97.8434, 36.34117], [-97.84329, 36.3453], [-97.83916, 36.3453], [-97.83915, 36.34011], [-97.84046, 36.34014]]], [[[-97.70888, 36.45052], [-97.70888, 36.45105], [-97.70781, 36.45052], [-97.70888, 36.45052]]], [[[-97.70891, 36.43599], [-97.70888, 36.44665], [-97.70118, 36.44666], [-97.69571, 36.44302], [-97.69574, 36.43595], [-97.70891, 36.43599]]], [[[-97.70894, 36.43212], [-97.69573, 36.43208], [-97.69576, 36.42137], [-97.69643, 36.42332], [-97.69843, 36.42417], [-97.70055, 36.42347], [-97.7016, 36.42136], [-97.70892, 36.42136], [-97.70894, 36.42592], [-97.70762, 36.42541], [-97.706, 36.42559], [-97.70478, 36.42643], [-97.70417, 36.4278], [-97.70471, 36.42911], [-97.70595, 36.42986], [-97.70755, 36.42995], [-97.70894, 36.42931], [-97.70894, 36.43212]]], [[[-97.69655, 36.40682], [-97.70876, 36.4068], [-97.70887, 36.41749], [-97.69575, 36.4175], [-97.6956, 36.40674], [-97.69655, 36.40682]]], [[[-97.70072, 36.39968], [-97.70872, 36.39968], [-97.70874, 36.40293], [-97.69556, 36.40286], [-97.69553, 36.3995], [-97.70072, 36.39968]]], [[[-97.70873, 36.39231], [-97.70871, 36.39557], [-97.69558, 36.39539], [-97.69556, 36.39239], [-97.70873, 36.39231]]], [[[-97.70247, 36.37913], [-97.70357, 36.37782], [-97.70878, 36.37781], [-97.70872, 36.38844], [-97.69555, 36.38853], [-97.69555, 36.37783], [-97.69887, 36.37782], [-97.69931, 36.37865], [-97.70022, 36.37924], [-97.70136, 36.37942], [-97.70247, 36.37913]]], [[[-97.69556, 36.37297], [-97.69564, 36.36331], [-97.70885, 36.36337], [-97.70882, 36.37395], [-97.70308, 36.37395], [-97.70232, 36.37299], [-97.70081, 36.37253], [-97.69928, 36.37296], [-97.69847, 36.37396], [-97.69555, 36.37396], [-97.69556, 36.37297]]], [[[-97.70137, 36.34887], [-97.70411, 36.34887], [-97.70413, 36.34962], [-97.70339, 36.34972], [-97.70137, 36.34887]]], [[[-97.7067, 36.34216], [-97.70717, 36.34274], [-97.70563, 36.34271], [-97.70344, 36.34351], [-97.70261, 36.345], [-97.6956, 36.34499], [-97.69562, 36.34115], [-97.69693, 36.34301], [-97.69907, 36.34335], [-97.70071, 36.34243], [-97.70121, 36.34082], [-97.70347, 36.34106], [-97.70451, 36.34057], [-97.70531, 36.33964], [-97.70666, 36.33988], [-97.7067, 36.34216]]], [[[-97.70882, 36.33436], [-97.70881, 36.33487], [-97.70733, 36.33444], [-97.70589, 36.33469], [-97.70439, 36.33593], [-97.7011, 36.33605], [-97.70034, 36.335], [-97.69916, 36.33447], [-97.70882, 36.33436]]], [[[-97.69562, 36.34071], [-97.69566, 36.33516], [-97.69621, 36.33534], [-97.69572, 36.33637], [-97.69586, 36.33761], [-97.69729, 36.33891], [-97.69623, 36.33953], [-97.69562, 36.34071]]], [[[-97.70878, 36.34333], [-97.70878, 36.34383], [-97.70827, 36.34326], [-97.70878, 36.34333]]], [[[-97.68394, 36.33815], [-97.68356, 36.33686], [-97.68067, 36.33448], [-97.68411, 36.33443], [-97.68405, 36.33557], [-97.68454, 36.33651], [-97.68552, 36.33715], [-97.68686, 36.33738], [-97.68803, 36.33716], [-97.68909, 36.33644], [-97.68955, 36.3355], [-97.68946, 36.33436], [-97.69088, 36.33434], [-97.69082, 36.34448], [-97.68084, 36.34029], [-97.68298, 36.33995], [-97.68369, 36.3392], [-97.68394, 36.33815]]], [[[-97.6792, 36.33896], [-97.68, 36.33994], [-97.67776, 36.339], [-97.67777, 36.3376], [-97.6792, 36.33896]]], [[[-97.67776, 36.34507], [-97.67776, 36.34335], [-97.68177, 36.34504], [-97.67776, 36.34507]]], [[[-97.67109, 36.34366], [-97.67298, 36.34407], [-97.67298, 36.34508], [-97.6701, 36.34508], [-97.67109, 36.34366]]], [[[-97.72268, 36.4505], [-97.72682, 36.45049], [-97.7268, 36.45844], [-97.72379, 36.45754], [-97.71367, 36.45344], [-97.71366, 36.45051], [-97.72268, 36.4505]]], [[[-97.73828, 36.45048], [-97.74486, 36.45048], [-97.74484, 36.46067], [-97.74262, 36.46043], [-97.7395, 36.46115], [-97.73816, 36.45919], [-97.73576, 36.45829], [-97.73346, 36.45851], [-97.73157, 36.45968], [-97.73161, 36.45049], [-97.73828, 36.45048]]], [[[-97.74964, 36.4539], [-97.74965, 36.45049], [-97.76277, 36.45047], [-97.76276, 36.46109], [-97.74962, 36.46113], [-97.74964, 36.4539]]], [[[-97.78063, 36.45055], [-97.78046, 36.46113], [-97.76755, 36.46109], [-97.76756, 36.45048], [-97.78063, 36.45055]]], [[[-97.76752, 36.4359], [-97.78071, 36.43597], [-97.78067, 36.44669], [-97.76755, 36.44661], [-97.76752, 36.4359]]], [[[-97.77488, 36.40976], [-97.77342, 36.40874], [-97.77125, 36.40699], [-97.77545, 36.40699], [-97.77528, 36.40992], [-97.77488, 36.40976]]], [[[-97.76976, 36.40262], [-97.77006, 36.40312], [-97.76731, 36.4031], [-97.76736, 36.39963], [-97.77119, 36.39962], [-97.76985, 36.40103], [-97.76976, 36.40262]]], [[[-97.78061, 36.40101], [-97.7807, 36.4008], [-97.78069, 36.40314], [-97.77493, 36.40313], [-97.77579, 36.40209], [-97.77863, 36.4024], [-97.77993, 36.4018], [-97.78061, 36.40101]]], [[[-97.80341, 36.31254], [-97.8034, 36.30573], [-97.81462, 36.3058], [-97.81631, 36.30657], [-97.81642, 36.31644], [-97.8034, 36.31631], [-97.80341, 36.31254]], [[-97.81053, 36.30765], [-97.80989, 36.3067], [-97.80878, 36.30611], [-97.80637, 36.30633], [-97.80499, 36.3079], [-97.80549, 36.30983], [-97.80718, 36.31089], [-97.80928, 36.31064], [-97.8105, 36.3094], [-97.81053, 36.30765]]], [[[-97.73809, 36.39966], [-97.75535, 36.39964], [-97.75919, 36.40272], [-97.75795, 36.40313], [-97.73146, 36.40313], [-97.73146, 36.39968], [-97.73809, 36.39966]]], [[[-97.76257, 36.39963], [-97.76257, 36.39999], [-97.76213, 36.39963], [-97.76257, 36.39963]]], [[[-97.76259, 36.4092], [-97.76271, 36.4175], [-97.74955, 36.41751], [-97.74927, 36.40705], [-97.75597, 36.40701], [-97.75688, 36.40849], [-97.75859, 36.40949], [-97.76076, 36.40972], [-97.76259, 36.4092]]], [[[-97.7505, 36.43204], [-97.74963, 36.43204], [-97.74962, 36.42279], [-97.75125, 36.42235], [-97.75213, 36.42138], [-97.76275, 36.42137], [-97.76274, 36.42933], [-97.76034, 36.4301], [-97.75884, 36.43203], [-97.7505, 36.43204]]], [[[-97.74012, 36.41751], [-97.73157, 36.4175], [-97.7315, 36.407], [-97.74449, 36.40705], [-97.74476, 36.41751], [-97.74012, 36.41751]]], [[[-97.73955, 36.43206], [-97.73695, 36.43205], [-97.73538, 36.43139], [-97.73159, 36.43076], [-97.73159, 36.42137], [-97.74482, 36.42138], [-97.74484, 36.43205], [-97.73955, 36.43206]]], [[[-97.71356, 36.40892], [-97.71355, 36.40684], [-97.72672, 36.40696], [-97.72678, 36.41754], [-97.71366, 36.41749], [-97.71356, 36.40892]]], [[[-97.7268, 36.43082], [-97.7268, 36.43086], [-97.72677, 36.43086], [-97.72679, 36.43083], [-97.7268, 36.43082]]], [[[-97.72681, 36.42141], [-97.72681, 36.42711], [-97.72536, 36.4262], [-97.72339, 36.4261], [-97.72189, 36.42667], [-97.7211, 36.42771], [-97.72104, 36.42986], [-97.72141, 36.43082], [-97.72244, 36.43164], [-97.72424, 36.43191], [-97.72405, 36.43208], [-97.71373, 36.43212], [-97.7137, 36.42136], [-97.72681, 36.42141]]], [[[-97.68971, 36.32283], [-97.69095, 36.32296], [-97.69091, 36.33048], [-97.68978, 36.33049], [-97.68885, 36.32929], [-97.68696, 36.32882], [-97.6853, 36.3293], [-97.68418, 36.33056], [-97.68051, 36.33061], [-97.68464, 36.32624], [-97.68519, 36.32745], [-97.68648, 36.32817], [-97.68833, 36.32819], [-97.68971, 36.32751], [-97.6904, 36.3263], [-97.69013, 36.32505], [-97.68883, 36.32403], [-97.68725, 36.32386], [-97.68892, 36.3224], [-97.68971, 36.32283]]], [[[-97.6968, 36.32055], [-97.7006, 36.32052], [-97.70144, 36.32182], [-97.70448, 36.32338], [-97.70673, 36.3237], [-97.70892, 36.32319], [-97.70884, 36.33049], [-97.70244, 36.33045], [-97.70152, 36.32968], [-97.7, 36.32936], [-97.69867, 36.32964], [-97.69757, 36.33045], [-97.69569, 36.33045], [-97.69573, 36.32293], [-97.69676, 36.32181], [-97.6968, 36.32055]]], [[[-97.70893, 36.31626], [-97.70611, 36.31553], [-97.70406, 36.31591], [-97.70267, 36.31664], [-97.6998, 36.31666], [-97.70077, 36.31616], [-97.70142, 36.31526], [-97.70113, 36.31334], [-97.70891, 36.30888], [-97.70893, 36.31626]]], [[[-97.69778, 36.31668], [-97.69633, 36.31669], [-97.69681, 36.31627], [-97.69778, 36.31668]]], [[[-97.75593, 36.38704], [-97.75639, 36.38681], [-97.75633, 36.38857], [-97.75813, 36.38861], [-97.74943, 36.38864], [-97.75365, 36.38832], [-97.75593, 36.38704]]], [[[-97.73151, 36.38052], [-97.73528, 36.3836], [-97.74161, 36.38864], [-97.73141, 36.38863], [-97.73151, 36.38052]]], [[[-97.7397, 36.38169], [-97.73505, 36.37791], [-97.73958, 36.3779], [-97.74037, 36.37922], [-97.74188, 36.37986], [-97.74316, 36.37979], [-97.74418, 36.37932], [-97.74481, 36.38086], [-97.74471, 36.38568], [-97.7397, 36.38169]]], [[[-97.73618, 36.36346], [-97.74035, 36.36343], [-97.74122, 36.36436], [-97.74253, 36.36479], [-97.74476, 36.36424], [-97.74483, 36.36707], [-97.73618, 36.36346]]], [[[-97.74334, 36.37403], [-97.7316, 36.37405], [-97.73166, 36.36592], [-97.74164, 36.37009], [-97.74121, 36.37114], [-97.74139, 36.37247], [-97.74209, 36.37341], [-97.74365, 36.37404], [-97.74334, 36.37403]]], [[[-97.74492, 36.37393], [-97.74492, 36.37404], [-97.74432, 36.37404], [-97.74467, 36.37399], [-97.74492, 36.37393]]], [[[-97.74465, 36.34877], [-97.74471, 36.35949], [-97.73881, 36.35958], [-97.73917, 36.35811], [-97.74042, 36.35834], [-97.74173, 36.3581], [-97.74274, 36.35739], [-97.74329, 36.35615], [-97.74301, 36.3549], [-97.74208, 36.35362], [-97.7419, 36.3522], [-97.7402, 36.35082], [-97.7402, 36.34982], [-97.73962, 36.34892], [-97.74465, 36.34877]]], [[[-97.73163, 36.3572], [-97.73157, 36.35044], [-97.73403, 36.35138], [-97.73513, 36.3525], [-97.73639, 36.35284], [-97.73757, 36.35631], [-97.73592, 36.35616], [-97.73391, 36.35711], [-97.73163, 36.3572]]], [[[-97.72426, 36.3684], [-97.72534, 36.3691], [-97.72685, 36.36924], [-97.72684, 36.37119], [-97.71942, 36.3653], [-97.7217, 36.36488], [-97.72259, 36.36341], [-97.72569, 36.36342], [-97.72689, 36.36392], [-97.72689, 36.36537], [-97.7253, 36.36553], [-97.72412, 36.36641], [-97.72385, 36.36733], [-97.72426, 36.3684]]], [[[-97.72356, 36.374], [-97.71361, 36.37395], [-97.71361, 36.36606], [-97.71623, 36.36819], [-97.72356, 36.374]]], [[[-97.71651, 36.38706], [-97.71531, 36.38847], [-97.7135, 36.38846], [-97.71357, 36.37782], [-97.72675, 36.37789], [-97.72663, 36.3886], [-97.72005, 36.38852], [-97.71964, 36.38764], [-97.71877, 36.38703], [-97.71763, 36.38681], [-97.71651, 36.38706]]], [[[-97.72501, 36.33548], [-97.72675, 36.33617], [-97.72548, 36.33631], [-97.72444, 36.33689], [-97.72383, 36.33778], [-97.72375, 36.33895], [-97.72479, 36.34022], [-97.72676, 36.34064], [-97.72675, 36.34296], [-97.72383, 36.3433], [-97.7227, 36.34403], [-97.72208, 36.34503], [-97.71485, 36.34502], [-97.71395, 36.34453], [-97.7151, 36.34379], [-97.71601, 36.34206], [-97.71589, 36.34079], [-97.71508, 36.33989], [-97.71729, 36.33947], [-97.7187, 36.33871], [-97.71944, 36.33741], [-97.71913, 36.33578], [-97.72038, 36.3344], [-97.72434, 36.3344], [-97.72501, 36.33548]]], [[[-97.71367, 36.33527], [-97.71359, 36.33532], [-97.71359, 36.33515], [-97.71367, 36.33527]]], [[[-97.71567, 36.35953], [-97.71387, 36.35953], [-97.71461, 36.35879], [-97.71638, 36.35953], [-97.71567, 36.35953]]], [[[-97.71831, 36.35599], [-97.7169, 36.3554], [-97.71799, 36.35378], [-97.71742, 36.35203], [-97.71552, 36.35111], [-97.71356, 36.35145], [-97.71538, 36.35013], [-97.71619, 36.34888], [-97.72415, 36.34889], [-97.72539, 36.3497], [-97.72679, 36.35007], [-97.72686, 36.35956], [-97.71831, 36.35599]], [[-97.72356, 36.35506], [-97.72544, 36.35374], [-97.72566, 36.352], [-97.72425, 36.35036], [-97.72214, 36.3501], [-97.72007, 36.35141], [-97.71969, 36.35297], [-97.72126, 36.35477], [-97.72356, 36.35506]]], [[[-97.72702, 36.30205], [-97.7266, 36.30205], [-97.72643, 36.30159], [-97.72703, 36.30143], [-97.72702, 36.30205]]], [[[-97.7155, 36.31668], [-97.71494, 36.31565], [-97.7137, 36.31499], [-97.71368, 36.30769], [-97.71519, 36.3081], [-97.71652, 36.30783], [-97.71773, 36.30695], [-97.71823, 36.30593], [-97.72698, 36.30592], [-97.72688, 36.31662], [-97.72614, 36.31663], [-97.72594, 36.31504], [-97.72463, 36.31338], [-97.72258, 36.31267], [-97.72145, 36.31287], [-97.72041, 36.31353], [-97.71991, 36.31546], [-97.71879, 36.31514], [-97.71738, 36.31528], [-97.7155, 36.31668]]], [[[-97.73764, 36.32107], [-97.73785, 36.3231], [-97.73904, 36.32416], [-97.74112, 36.32441], [-97.74287, 36.32352], [-97.7434, 36.32227], [-97.74327, 36.31973], [-97.74257, 36.31874], [-97.74046, 36.31765], [-97.74264, 36.31721], [-97.74369, 36.31656], [-97.74423, 36.31559], [-97.74412, 36.31404], [-97.74276, 36.31276], [-97.74051, 36.31255], [-97.73935, 36.31309], [-97.73818, 36.31432], [-97.73784, 36.31549], [-97.73815, 36.3165], [-97.73166, 36.31658], [-97.73175, 36.30591], [-97.7328, 36.30728], [-97.73471, 36.30791], [-97.73668, 36.30734], [-97.73767, 36.30589], [-97.74398, 36.30587], [-97.74402, 36.30696], [-97.74174, 36.30742], [-97.74097, 36.3082], [-97.74072, 36.30923], [-97.74107, 36.31019], [-97.74238, 36.31158], [-97.74357, 36.31202], [-97.74494, 36.31195], [-97.74479, 36.32625], [-97.74302, 36.32546], [-97.74006, 36.32572], [-97.73882, 36.32704], [-97.7392, 36.32854], [-97.73887, 36.33055], [-97.73421, 36.33054], [-97.73329, 36.32938], [-97.73155, 36.32892], [-97.73163, 36.32045], [-97.73275, 36.32139], [-97.73392, 36.32172], [-97.7361, 36.32131], [-97.73719, 36.32058], [-97.73764, 36.32107]]], [[[-97.7447, 36.3298], [-97.74468, 36.33054], [-97.74415, 36.33054], [-97.74451, 36.33014], [-97.7447, 36.3298]]], [[[-97.74486, 36.3004], [-97.74347, 36.30005], [-97.74163, 36.30021], [-97.74041, 36.30103], [-97.73999, 36.30202], [-97.73727, 36.30202], [-97.73593, 36.30107], [-97.7379, 36.30029], [-97.7385, 36.29846], [-97.74484, 36.29724], [-97.74486, 36.3004]]], [[[-97.73336, 36.29988], [-97.7348, 36.30088], [-97.73353, 36.30111], [-97.73235, 36.30204], [-97.7318, 36.30204], [-97.73183, 36.3001], [-97.73336, 36.29988]]], [[[-97.7226, 36.32401], [-97.72439, 36.32432], [-97.72614, 36.3234], [-97.72684, 36.32453], [-97.72674, 36.33054], [-97.72368, 36.33053], [-97.72314, 36.3286], [-97.72206, 36.32789], [-97.72092, 36.32767], [-97.71975, 36.32783], [-97.71875, 36.3284], [-97.71814, 36.32935], [-97.71812, 36.33056], [-97.71362, 36.33053], [-97.7137, 36.32348], [-97.71527, 36.32394], [-97.71695, 36.32336], [-97.71759, 36.32236], [-97.71761, 36.32054], [-97.72296, 36.32051], [-97.72158, 36.32221], [-97.72183, 36.32331], [-97.7226, 36.32401]]], [[[-97.75165, 36.32399], [-97.75096, 36.32281], [-97.74968, 36.32227], [-97.74972, 36.32038], [-97.76242, 36.32029], [-97.76255, 36.3306], [-97.75226, 36.33062], [-97.75212, 36.32826], [-97.75131, 36.3274], [-97.75027, 36.32698], [-97.7514, 36.32575], [-97.75165, 36.32399]]], [[[-97.74263, 36.34477], [-97.73877, 36.34493], [-97.73733, 36.34414], [-97.73494, 36.34368], [-97.73318, 36.34395], [-97.73192, 36.34461], [-97.73153, 36.34343], [-97.73305, 36.34208], [-97.7334, 36.34031], [-97.73297, 36.33918], [-97.73389, 36.33817], [-97.73424, 36.337], [-97.73356, 36.33552], [-97.73151, 36.33479], [-97.73151, 36.3344], [-97.73848, 36.33442], [-97.7395, 36.33558], [-97.74117, 36.336], [-97.74277, 36.33554], [-97.7439, 36.33441], [-97.74465, 36.33441], [-97.74464, 36.34018], [-97.74303, 36.34147], [-97.74285, 36.34253], [-97.74339, 36.34363], [-97.74263, 36.34477]]], [[[-97.73143, 36.39556], [-97.7314, 36.3925], [-97.74208, 36.39251], [-97.74291, 36.39463], [-97.74204, 36.39555], [-97.73143, 36.39556]]], [[[-97.71715, 36.39557], [-97.7135, 36.39557], [-97.71351, 36.39233], [-97.72662, 36.39247], [-97.72664, 36.39556], [-97.71715, 36.39557]]], [[[-97.75629, 36.39249], [-97.76266, 36.39244], [-97.76262, 36.39553], [-97.75704, 36.39551], [-97.75327, 36.39249], [-97.75629, 36.39249]]], [[[-97.71727, 36.403], [-97.71352, 36.40297], [-97.7135, 36.39968], [-97.72668, 36.39967], [-97.72668, 36.40309], [-97.71727, 36.403]]], [[[-97.76274, 36.44128], [-97.76277, 36.4466], [-97.74964, 36.44662], [-97.74962, 36.43591], [-97.7609, 36.4359], [-97.76274, 36.43636], [-97.76274, 36.44128]]], [[[-97.73975, 36.43657], [-97.73993, 36.43592], [-97.74484, 36.43592], [-97.74486, 36.44662], [-97.73161, 36.44662], [-97.73165, 36.44098], [-97.7328, 36.44036], [-97.73559, 36.43976], [-97.73975, 36.43657]]], [[[-97.72326, 36.43595], [-97.72507, 36.43753], [-97.72543, 36.43918], [-97.72686, 36.44063], [-97.72683, 36.44663], [-97.71366, 36.44665], [-97.7137, 36.43599], [-97.72326, 36.43595]]], [[[-97.69785, 36.35822], [-97.6992, 36.35821], [-97.70058, 36.35947], [-97.69564, 36.35944], [-97.69562, 36.3573], [-97.69785, 36.35822]]], [[[-97.67885, 36.40303], [-97.67777, 36.40302], [-97.6778, 36.39934], [-97.69075, 36.39916], [-97.69097, 36.4175], [-97.67787, 36.41747], [-97.67778, 36.40689], [-97.67993, 36.40656], [-97.68099, 36.40515], [-97.68047, 36.40373], [-97.67885, 36.40303]]], [[[-97.69095, 36.42317], [-97.69094, 36.43206], [-97.68282, 36.43199], [-97.67784, 36.4264], [-97.67788, 36.42133], [-97.69097, 36.42136], [-97.69095, 36.42317]]], [[[-97.67145, 36.39958], [-97.67302, 36.39953], [-97.67299, 36.40301], [-97.6646, 36.40301], [-97.66362, 36.39965], [-97.67145, 36.39958]]], [[[-97.68596, 36.39491], [-97.67777, 36.39523], [-97.67773, 36.39239], [-97.69078, 36.39243], [-97.69079, 36.39504], [-97.68596, 36.39491]]], [[[-97.68481, 36.37838], [-97.68556, 36.37786], [-97.68908, 36.37785], [-97.69076, 36.37851], [-97.69076, 36.38856], [-97.67771, 36.38853], [-97.67776, 36.37789], [-97.67948, 36.37789], [-97.68079, 36.37838], [-97.68218, 36.37818], [-97.68345, 36.3786], [-97.68481, 36.37838]]], [[[-97.6781, 36.36446], [-97.67776, 36.36345], [-97.69086, 36.36332], [-97.69077, 36.37398], [-97.67779, 36.37403], [-97.67776, 36.36719], [-97.67864, 36.36568], [-97.6781, 36.36446]]], [[[-97.69084, 36.35712], [-97.69086, 36.35946], [-97.67777, 36.35958], [-97.67777, 36.34893], [-97.69005, 36.34884], [-97.69078, 36.34912], [-97.69079, 36.35055], [-97.68889, 36.35183], [-97.68815, 36.35387], [-97.68889, 36.35583], [-97.69084, 36.35712]]], [[[-97.67294, 36.39238], [-97.67299, 36.39541], [-97.66242, 36.39554], [-97.66187, 36.39234], [-97.67294, 36.39238]]], [[[-97.673, 36.3724], [-97.673, 36.37403], [-97.66103, 36.374], [-97.66129, 36.37061], [-97.66273, 36.36344], [-97.67298, 36.36347], [-97.67297, 36.36472], [-97.67031, 36.36471], [-97.6678, 36.36598], [-97.66688, 36.36713], [-97.66658, 36.36848], [-97.66694, 36.36999], [-97.66822, 36.37134], [-97.67056, 36.3721], [-97.673, 36.3718], [-97.673, 36.3724]]], [[[-97.67299, 36.34895], [-97.67299, 36.3596], [-97.66387, 36.35958], [-97.66556, 36.35443], [-97.66809, 36.34895], [-97.67299, 36.34895]]], [[[-97.67297, 36.3779], [-97.67293, 36.38851], [-97.66123, 36.38847], [-97.66073, 36.37786], [-97.67297, 36.3779]]], [[[-97.67154, 36.41746], [-97.66804, 36.41126], [-97.66729, 36.40949], [-97.66732, 36.40781], [-97.66663, 36.40688], [-97.67299, 36.40688], [-97.67309, 36.41747], [-97.67154, 36.41746]]], [[[-97.68715, 36.43589], [-97.69096, 36.43593], [-97.69094, 36.43943], [-97.68695, 36.43589], [-97.68715, 36.43589]]], [[[-97.69968, 36.33891], [-97.69982, 36.33885], [-97.69986, 36.33905], [-97.69961, 36.33894], [-97.69968, 36.33891]]]]}, "properties": {"kind": "windland", "area_km2": 103.03}}, {"type": "Feature", "geometry": {"type": "MultiPolygon", "coordinates": [[[[-97.76749, 36.36344], [-97.7675, 36.37435], [-97.76826, 36.37552], [-97.76844, 36.37694], [-97.77298, 36.37884], [-97.7737, 36.37764], [-97.7743, 36.37727], [-97.77524, 36.37702], [-97.77608, 36.37704], [-97.77703, 36.37731], [-97.77787, 36.3779], [-97.77835, 36.3785], [-97.77914, 36.37765], [-97.78045, 36.37669], [-97.78162, 36.37618], [-97.78286, 36.37594], [-97.78494, 36.37621], [-97.78602, 36.37674], [-97.78707, 36.37758], [-97.78701, 36.38171], [-97.7835, 36.37894], [-97.78305, 36.37892], [-97.78247, 36.37917], [-97.78156, 36.37994], [-97.7812, 36.3809], [-97.78222, 36.38179], [-97.78285, 36.38188], [-97.78353, 36.38131], [-97.7837, 36.38145], [-97.78288, 36.3824], [-97.78284, 36.3848], [-97.76543, 36.37757], [-97.76543, 36.36203], [-97.77617, 36.36214], [-97.77615, 36.36344], [-97.76749, 36.36344]], [[-97.77572, 36.37885], [-97.77535, 36.37891], [-97.77523, 36.37922], [-97.77546, 36.3798], [-97.77595, 36.37996], [-97.77627, 36.37983], [-97.7764, 36.37954], [-97.77614, 36.37908], [-97.77572, 36.37885]]], [[[-97.77492, 36.37583], [-97.77447, 36.3766], [-97.77364, 36.37721], [-97.77266, 36.37754], [-97.77162, 36.37754], [-97.77053, 36.37719], [-97.76982, 36.37662], [-97.76943, 36.37587], [-97.76943, 36.37497], [-97.76995, 36.37403], [-97.77082, 36.37339], [-97.77186, 36.37307], [-97.77289, 36.37309], [-97.77389, 36.37346], [-97.77462, 36.3741], [-97.775, 36.37501], [-97.77492, 36.37583]], [[-97.77249, 36.37491], [-97.77181, 36.37509], [-97.77164, 36.37541], [-97.77176, 36.37564], [-97.7722, 36.37573], [-97.77264, 36.3755], [-97.77274, 36.37521], [-97.77249, 36.37491]]], [[[-97.76562, 36.37838], [-97.76659, 36.37905], [-97.76911, 36.3801], [-97.76942, 36.3801], [-97.76959, 36.3799], [-97.77035, 36.38022], [-97.76965, 36.38042], [-97.76955, 36.38095], [-97.76973, 36.38117], [-97.77101, 36.38104], [-97.7712, 36.38058], [-97.78282, 36.38544], [-97.78209, 36.38553], [-97.78152, 36.38619], [-97.78183, 36.38684], [-97.78282, 36.38692], [-97.78279, 36.38925], [-97.77574, 36.38918], [-97.77572, 36.39027], [-97.76541, 36.39023], [-97.76543, 36.37828], [-97.76562, 36.37838]], [[-97.77327, 36.38331], [-97.77189, 36.38273], [-97.77006, 36.38305], [-97.76899, 36.38291], [-97.76809, 36.38246], [-97.76754, 36.38184], [-97.76747, 36.38857], [-97.77885, 36.38862], [-97.77794, 36.38707], [-97.778, 36.38531], [-97.77327, 36.38331]]], [[[-97.78352, 36.3827], [-97.78352, 36.38269], [-97.78352, 36.38269], [-97.78352, 36.3827]]], [[[-97.78351, 36.38397], [-97.78351, 36.38343], [-97.78404, 36.38387], [-97.78351, 36.38397]]], [[[-97.7866, 36.38434], [-97.78666, 36.38429], [-97.78669, 36.38433], [-97.78658, 36.38435], [-97.7866, 36.38434]]], [[[-97.7851, 36.3891], [-97.78442, 36.38875], [-97.78346, 36.38922], [-97.78347, 36.38845], [-97.78495, 36.38852], [-97.78531, 36.3881], [-97.78578, 36.38789], [-97.78593, 36.38754], [-97.78581, 36.38714], [-97.78537, 36.38691], [-97.78485, 36.38697], [-97.78452, 36.38733], [-97.78349, 36.38711], [-97.7835, 36.38572], [-97.78692, 36.38716], [-97.78689, 36.38929], [-97.78515, 36.38927], [-97.7851, 36.3891]]], [[[-97.76552, 36.39719], [-97.76533, 36.39719], [-97.7654, 36.39077], [-97.77572, 36.39081], [-97.77569, 36.39247], [-97.76744, 36.39244], [-97.76744, 36.39265], [-97.76911, 36.39306], [-97.76984, 36.39364], [-97.77023, 36.39438], [-97.77027, 36.39552], [-97.77564, 36.39551], [-97.77562, 36.39717], [-97.76552, 36.39719]], [[-97.76613, 36.39589], [-97.76693, 36.39616], [-97.76774, 36.39603], [-97.768, 36.39546], [-97.76793, 36.39465], [-97.76708, 36.39447], [-97.76622, 36.39452], [-97.76599, 36.39543], [-97.76613, 36.39589]]], [[[-97.76532, 36.39797], [-97.7756, 36.39795], [-97.7756, 36.39819], [-97.76532, 36.39808], [-97.76532, 36.39797]]], [[[-97.76445, 36.39808], [-97.75718, 36.398], [-97.75715, 36.39798], [-97.76465, 36.39797], [-97.76445, 36.39808]]], [[[-97.76372, 36.36209], [-97.76413, 36.36261], [-97.76476, 36.36254], [-97.76477, 36.37575], [-97.76106, 36.37573], [-97.75371, 36.37266], [-97.75374, 36.3708], [-97.75984, 36.37334], [-97.76103, 36.37342], [-97.76271, 36.37298], [-97.76271, 36.36405], [-97.76197, 36.36343], [-97.75385, 36.36339], [-97.75388, 36.36191], [-97.76372, 36.36209]]], [[[-97.75457, 36.36511], [-97.75552, 36.36479], [-97.75679, 36.36485], [-97.75788, 36.3654], [-97.75851, 36.36625], [-97.75872, 36.36723], [-97.75845, 36.36809], [-97.75759, 36.36917], [-97.75653, 36.36969], [-97.75504, 36.36972], [-97.75376, 36.36907], [-97.75382, 36.36569], [-97.75457, 36.36511]], [[-97.75556, 36.36791], [-97.75598, 36.36787], [-97.75641, 36.36728], [-97.7564, 36.36692], [-97.75611, 36.36661], [-97.75577, 36.36667], [-97.7554, 36.36717], [-97.75531, 36.36766], [-97.75556, 36.36791]]], [[[-97.75435, 36.37365], [-97.75614, 36.37441], [-97.75939, 36.37572], [-97.75366, 36.37572], [-97.75369, 36.37346], [-97.75435, 36.37365]]], [[[-97.76239, 36.37628], [-97.76253, 36.37628], [-97.76251, 36.37634], [-97.76239, 36.37628]]], [[[-97.76471, 36.37629], [-97.76477, 36.37629], [-97.76477, 36.37644], [-97.76475, 36.37638], [-97.76471, 36.37629]]], [[[-97.76473, 36.37704], [-97.76476, 36.37694], [-97.76476, 36.37727], [-97.76461, 36.37719], [-97.76473, 36.37704]]], [[[-97.75813, 36.38861], [-97.76039, 36.38857], [-97.76039, 36.38818], [-97.76067, 36.38826], [-97.76148, 36.38804], [-97.76184, 36.38773], [-97.76188, 36.38741], [-97.7614, 36.38641], [-97.76106, 36.38632], [-97.7604, 36.38658], [-97.7604, 36.38419], [-97.7632, 36.3842], [-97.76348, 36.38487], [-97.76396, 36.38505], [-97.7643, 36.38482], [-97.76432, 36.38424], [-97.76478, 36.38422], [-97.76474, 36.39023], [-97.75342, 36.39029], [-97.75345, 36.38862], [-97.75813, 36.38861]]], [[[-97.75564, 36.38731], [-97.75457, 36.38798], [-97.75346, 36.38836], [-97.75348, 36.38683], [-97.75615, 36.38681], [-97.75564, 36.38731]]], [[[-97.75619, 36.39717], [-97.75335, 36.39489], [-97.75339, 36.39258], [-97.75704, 36.39551], [-97.76262, 36.39553], [-97.76266, 36.39244], [-97.75339, 36.39249], [-97.75342, 36.39083], [-97.76474, 36.39077], [-97.76466, 36.39719], [-97.75619, 36.39717]]], [[[-97.75331, 36.39719], [-97.75334, 36.39564], [-97.75525, 36.39717], [-97.75331, 36.39719]]], [[[-97.75528, 36.39798], [-97.7562, 36.39798], [-97.75621, 36.39799], [-97.75528, 36.39798]]]]}, "properties": {"kind": "pv", "area_km2": 4.45, "mw": 222.5}}, {"type": "Feature", "geometry": {"type": "Point", "coordinates": [-97.76903, 36.37357]}, "properties": {"kind": "turbine", "i": 0, "mw": 6.0, "hub_m": 120.0, "rotor_m": 150.0}}, {"type": "Feature", "geometry": {"type": "Point", "coordinates": [-97.77295, 36.38349]}, "properties": {"kind": "turbine", "i": 1, "mw": 6.0, "hub_m": 120.0, "rotor_m": 150.0}}, {"type": "Feature", "geometry": {"type": "Point", "coordinates": [-97.76058, 36.39324]}, "properties": {"kind": "turbine", "i": 2, "mw": 6.0, "hub_m": 120.0, "rotor_m": 150.0}}, {"type": "Feature", "geometry": {"type": "Point", "coordinates": [-97.77686, 36.3934]}, "properties": {"kind": "turbine", "i": 3, "mw": 6.0, "hub_m": 120.0, "rotor_m": 150.0}}, {"type": "Feature", "geometry": {"type": "Point", "coordinates": [-97.76105, 36.36361]}, "properties": {"kind": "turbine", "i": 4, "mw": 6.0, "hub_m": 120.0, "rotor_m": 150.0}}, {"type": "Feature", "geometry": {"type": "Point", "coordinates": [-97.78531, 36.37374]}, "properties": {"kind": "turbine", "i": 5, "mw": 6.0, "hub_m": 120.0, "rotor_m": 150.0}}, {"type": "Feature", "geometry": {"type": "Point", "coordinates": [-97.77733, 36.36378]}, "properties": {"kind": "turbine", "i": 6, "mw": 6.0, "hub_m": 120.0, "rotor_m": 150.0}}, {"type": "Feature", "geometry": {"type": "Point", "coordinates": [-97.74044, 36.37986]}, "properties": {"kind": "turbine", "i": 7, "mw": 6.0, "hub_m": 120.0, "rotor_m": 150.0}}, {"type": "Feature", "geometry": {"type": "Point", "coordinates": [-97.74472, 36.36674]}, "properties": {"kind": "turbine", "i": 8, "mw": 6.0, "hub_m": 120.0, "rotor_m": 150.0}}, {"type": "Feature", "geometry": {"type": "Point", "coordinates": [-97.78907, 36.39353]}, "properties": {"kind": "turbine", "i": 9, "mw": 6.0, "hub_m": 120.0, "rotor_m": 150.0}}, {"type": "Feature", "geometry": {"type": "Point", "coordinates": [-97.74022, 36.39302]}, "properties": {"kind": "turbine", "i": 10, "mw": 6.0, "hub_m": 120.0, "rotor_m": 150.0}}, {"type": "Feature", "geometry": {"type": "Point", "coordinates": [-97.75635, 36.40307]}, "properties": {"kind": "turbine", "i": 11, "mw": 6.0, "hub_m": 120.0, "rotor_m": 150.0}}, {"type": "Feature", "geometry": {"type": "Point", "coordinates": [-97.79752, 36.37386]}, "properties": {"kind": "turbine", "i": 12, "mw": 6.0, "hub_m": 120.0, "rotor_m": 150.0}}, {"type": "Feature", "geometry": {"type": "Point", "coordinates": [-97.7936, 36.36395]}, "properties": {"kind": "turbine", "i": 13, "mw": 6.0, "hub_m": 120.0, "rotor_m": 150.0}}, {"type": "Feature", "geometry": {"type": "Point", "coordinates": [-97.74414, 36.40294]}, "properties": {"kind": "turbine", "i": 14, "mw": 6.0, "hub_m": 120.0, "rotor_m": 150.0}}, {"type": "Feature", "geometry": {"type": "Point", "coordinates": [-97.73251, 36.36661]}, "properties": {"kind": "turbine", "i": 15, "mw": 6.0, "hub_m": 120.0, "rotor_m": 150.0}}, {"type": "Feature", "geometry": {"type": "Point", "coordinates": [-97.80144, 36.38378]}, "properties": {"kind": "turbine", "i": 16, "mw": 6.0, "hub_m": 120.0, "rotor_m": 150.0}}, {"type": "Feature", "geometry": {"type": "Point", "coordinates": [-97.77346, 36.35058]}, "properties": {"kind": "turbine", "i": 17, "mw": 6.0, "hub_m": 120.0, "rotor_m": 150.0}}, {"type": "Feature", "geometry": {"type": "Point", "coordinates": [-97.75719, 36.35041]}, "properties": {"kind": "turbine", "i": 18, "mw": 6.0, "hub_m": 120.0, "rotor_m": 150.0}}, {"type": "Feature", "geometry": {"type": "Point", "coordinates": [-97.78562, 36.35399]}, "properties": {"kind": "turbine", "i": 19, "mw": 6.0, "hub_m": 120.0, "rotor_m": 150.0}}, {"type": "Feature", "geometry": {"type": "Point", "coordinates": [-97.76841, 36.41307]}, "properties": {"kind": "turbine", "i": 20, "mw": 6.0, "hub_m": 120.0, "rotor_m": 150.0}}, {"type": "Feature", "geometry": {"type": "Point", "coordinates": [-97.7241, 36.38298]}, "properties": {"kind": "turbine", "i": 21, "mw": 6.0, "hub_m": 120.0, "rotor_m": 150.0}}, {"type": "Feature", "geometry": {"type": "Point", "coordinates": [-97.75212, 36.4129]}, "properties": {"kind": "turbine", "i": 22, "mw": 6.0, "hub_m": 120.0, "rotor_m": 150.0}}, {"type": "Feature", "geometry": {"type": "Point", "coordinates": [-97.73192, 36.40281]}, "properties": {"kind": "turbine", "i": 23, "mw": 6.0, "hub_m": 120.0, "rotor_m": 150.0}}, {"type": "Feature", "geometry": {"type": "Point", "coordinates": [-97.74091, 36.35024]}, "properties": {"kind": "turbine", "i": 24, "mw": 6.0, "hub_m": 120.0, "rotor_m": 150.0}}, {"type": "Feature", "geometry": {"type": "Point", "coordinates": [-97.80581, 36.36407]}, "properties": {"kind": "turbine", "i": 25, "mw": 6.0, "hub_m": 120.0, "rotor_m": 150.0}}, {"type": "Feature", "geometry": {"type": "Point", "coordinates": [-97.80973, 36.37398]}, "properties": {"kind": "turbine", "i": 26, "mw": 6.0, "hub_m": 120.0, "rotor_m": 150.0}}, {"type": "Feature", "geometry": {"type": "Point", "coordinates": [-97.72019, 36.37306]}, "properties": {"kind": "turbine", "i": 27, "mw": 6.0, "hub_m": 120.0, "rotor_m": 150.0}}, {"type": "Feature", "geometry": {"type": "Point", "coordinates": [-97.73991, 36.41277]}, "properties": {"kind": "turbine", "i": 28, "mw": 6.0, "hub_m": 120.0, "rotor_m": 150.0}}, {"type": "Feature", "geometry": {"type": "Point", "coordinates": [-97.71987, 36.39281]}, "properties": {"kind": "turbine", "i": 29, "mw": 6.0, "hub_m": 120.0, "rotor_m": 150.0}}, {"type": "Feature", "geometry": {"type": "Point", "coordinates": [-97.79787, 36.35082]}, "properties": {"kind": "turbine", "i": 30, "mw": 6.0, "hub_m": 120.0, "rotor_m": 150.0}}, {"type": "Feature", "geometry": {"type": "Point", "coordinates": [-97.81365, 36.3839]}, "properties": {"kind": "turbine", "i": 31, "mw": 6.0, "hub_m": 120.0, "rotor_m": 150.0}}, {"type": "Feature", "geometry": {"type": "Point", "coordinates": [-97.76141, 36.34058]}, "properties": {"kind": "turbine", "i": 32, "mw": 6.0, "hub_m": 120.0, "rotor_m": 150.0}}, {"type": "Feature", "geometry": {"type": "Point", "coordinates": [-97.77769, 36.34074]}, "properties": {"kind": "turbine", "i": 33, "mw": 6.0, "hub_m": 120.0, "rotor_m": 150.0}}, {"type": "Feature", "geometry": {"type": "Point", "coordinates": [-97.80933, 36.40031]}, "properties": {"kind": "turbine", "i": 34, "mw": 6.0, "hub_m": 120.0, "rotor_m": 150.0}}, {"type": "Feature", "geometry": {"type": "Point", "coordinates": [-97.79209, 36.41557]}, "properties": {"kind": "turbine", "i": 35, "mw": 6.0, "hub_m": 120.0, "rotor_m": 150.0}}, {"type": "Feature", "geometry": {"type": "Point", "coordinates": [-97.76011, 36.42286]}, "properties": {"kind": "turbine", "i": 36, "mw": 6.0, "hub_m": 120.0, "rotor_m": 150.0}}, {"type": "Feature", "geometry": {"type": "Point", "coordinates": [-97.72464, 36.35006]}, "properties": {"kind": "turbine", "i": 37, "mw": 6.0, "hub_m": 120.0, "rotor_m": 150.0}}, {"type": "Feature", "geometry": {"type": "Point", "coordinates": [-97.81003, 36.35424]}, "properties": {"kind": "turbine", "i": 38, "mw": 6.0, "hub_m": 120.0, "rotor_m": 150.0}}, {"type": "Feature", "geometry": {"type": "Point", "coordinates": [-97.78047, 36.42307]}, "properties": {"kind": "turbine", "i": 39, "mw": 6.0, "hub_m": 120.0, "rotor_m": 150.0}}, {"type": "Feature", "geometry": {"type": "Point", "coordinates": [-97.71564, 36.40264]}, "properties": {"kind": "turbine", "i": 40, "mw": 6.0, "hub_m": 120.0, "rotor_m": 150.0}}, {"type": "Feature", "geometry": {"type": "Point", "coordinates": [-97.74382, 36.42269]}, "properties": {"kind": "turbine", "i": 41, "mw": 6.0, "hub_m": 120.0, "rotor_m": 150.0}}, {"type": "Feature", "geometry": {"type": "Point", "coordinates": [-97.70788, 36.37951]}, "properties": {"kind": "turbine", "i": 42, "mw": 6.0, "hub_m": 120.0, "rotor_m": 150.0}}, {"type": "Feature", "geometry": {"type": "Point", "coordinates": [-97.72362, 36.4126]}, "properties": {"kind": "turbine", "i": 43, "mw": 6.0, "hub_m": 120.0, "rotor_m": 150.0}}, {"type": "Feature", "geometry": {"type": "Point", "coordinates": [-97.78994, 36.33758]}, "properties": {"kind": "turbine", "i": 44, "mw": 6.0, "hub_m": 120.0, "rotor_m": 150.0}}, {"type": "Feature", "geometry": {"type": "Point", "coordinates": [-97.74113, 36.33707]}, "properties": {"kind": "turbine", "i": 45, "mw": 6.0, "hub_m": 120.0, "rotor_m": 150.0}}, {"type": "Feature", "geometry": {"type": "Point", "coordinates": [-97.70809, 36.36635]}, "properties": {"kind": "turbine", "i": 46, "mw": 6.0, "hub_m": 120.0, "rotor_m": 150.0}}, {"type": "Feature", "geometry": {"type": "Point", "coordinates": [-97.70766, 36.39267]}, "properties": {"kind": "turbine", "i": 47, "mw": 6.0, "hub_m": 120.0, "rotor_m": 150.0}}, {"type": "Feature", "geometry": {"type": "Point", "coordinates": [-97.82209, 36.36423]}, "properties": {"kind": "turbine", "i": 48, "mw": 6.0, "hub_m": 120.0, "rotor_m": 150.0}}, {"type": "Feature", "geometry": {"type": "Point", "coordinates": [-97.81325, 36.41023]}, "properties": {"kind": "turbine", "i": 49, "mw": 6.0, "hub_m": 120.0, "rotor_m": 150.0}}, {"type": "Feature", "geometry": {"type": "Point", "coordinates": [-97.82586, 36.38402]}, "properties": {"kind": "turbine", "i": 50, "mw": 6.0, "hub_m": 120.0, "rotor_m": 150.0}}, {"type": "Feature", "geometry": {"type": "Point", "coordinates": [-97.75343, 36.33062]}, "properties": {"kind": "turbine", "i": 51, "mw": 6.0, "hub_m": 120.0, "rotor_m": 150.0}}, {"type": "Feature", "geometry": {"type": "Point", "coordinates": [-97.7316, 36.42256]}, "properties": {"kind": "turbine", "i": 52, "mw": 6.0, "hub_m": 120.0, "rotor_m": 150.0}}, {"type": "Feature", "geometry": {"type": "Point", "coordinates": [-97.79264, 36.42648]}, "properties": {"kind": "turbine", "i": 53, "mw": 6.0, "hub_m": 120.0, "rotor_m": 150.0}}, {"type": "Feature", "geometry": {"type": "Point", "coordinates": [-97.80214, 36.3377]}, "properties": {"kind": "turbine", "i": 54, "mw": 6.0, "hub_m": 120.0, "rotor_m": 150.0}}, {"type": "Feature", "geometry": {"type": "Point", "coordinates": [-97.83008, 36.37419]}, "properties": {"kind": "turbine", "i": 55, "mw": 6.0, "hub_m": 120.0, "rotor_m": 150.0}}, {"type": "Feature", "geometry": {"type": "Point", "coordinates": [-97.8049, 36.42331]}, "properties": {"kind": "turbine", "i": 56, "mw": 6.0, "hub_m": 120.0, "rotor_m": 150.0}}, {"type": "Feature", "geometry": {"type": "Point", "coordinates": [-97.70342, 36.4025]}, "properties": {"kind": "turbine", "i": 57, "mw": 6.0, "hub_m": 120.0, "rotor_m": 150.0}}, {"type": "Feature", "geometry": {"type": "Point", "coordinates": [-97.72079, 36.33686]}, "properties": {"kind": "turbine", "i": 58, "mw": 6.0, "hub_m": 120.0, "rotor_m": 150.0}}, {"type": "Feature", "geometry": {"type": "Point", "coordinates": [-97.69567, 36.37938]}, "properties": {"kind": "turbine", "i": 59, "mw": 6.0, "hub_m": 120.0, "rotor_m": 150.0}}, {"type": "Feature", "geometry": {"type": "Point", "coordinates": [-97.7599, 36.43602]}, "properties": {"kind": "turbine", "i": 60, "mw": 6.0, "hub_m": 120.0, "rotor_m": 150.0}}, {"type": "Feature", "geometry": {"type": "Point", "coordinates": [-97.71938, 36.42243]}, "properties": {"kind": "turbine", "i": 61, "mw": 6.0, "hub_m": 120.0, "rotor_m": 150.0}}, {"type": "Feature", "geometry": {"type": "Point", "coordinates": [-97.70733, 36.41242]}, "properties": {"kind": "turbine", "i": 62, "mw": 6.0, "hub_m": 120.0, "rotor_m": 150.0}}, {"type": "Feature", "geometry": {"type": "Point", "coordinates": [-97.77619, 36.43619]}, "properties": {"kind": "turbine", "i": 63, "mw": 6.0, "hub_m": 120.0, "rotor_m": 150.0}}, {"type": "Feature", "geometry": {"type": "Point", "coordinates": [-97.82636, 36.35111]}, "properties": {"kind": "turbine", "i": 64, "mw": 6.0, "hub_m": 120.0, "rotor_m": 150.0}}, {"type": "Feature", "geometry": {"type": "Point", "coordinates": [-97.82546, 36.41035]}, "properties": {"kind": "turbine", "i": 65, "mw": 6.0, "hub_m": 120.0, "rotor_m": 150.0}}, {"type": "Feature", "geometry": {"type": "Point", "coordinates": [-97.69589, 36.36621]}, "properties": {"kind": "turbine", "i": 66, "mw": 6.0, "hub_m": 120.0, "rotor_m": 150.0}}, {"type": "Feature", "geometry": {"type": "Point", "coordinates": [-97.81435, 36.33782]}, "properties": {"kind": "turbine", "i": 67, "mw": 6.0, "hub_m": 120.0, "rotor_m": 150.0}}, {"type": "Feature", "geometry": {"type": "Point", "coordinates": [-97.8343, 36.36435]}, "properties": {"kind": "turbine", "i": 68, "mw": 6.0, "hub_m": 120.0, "rotor_m": 150.0}}, {"type": "Feature", "geometry": {"type": "Point", "coordinates": [-97.70847, 36.34331]}, "properties": {"kind": "turbine", "i": 69, "mw": 6.0, "hub_m": 120.0, "rotor_m": 150.0}}, {"type": "Feature", "geometry": {"type": "Point", "coordinates": [-97.76173, 36.32083]}, "properties": {"kind": "turbine", "i": 70, "mw": 6.0, "hub_m": 120.0, "rotor_m": 150.0}}, {"type": "Feature", "geometry": {"type": "Point", "coordinates": [-97.83376, 36.40056]}, "properties": {"kind": "turbine", "i": 71, "mw": 6.0, "hub_m": 120.0, "rotor_m": 150.0}}, {"type": "Feature", "geometry": {"type": "Point", "coordinates": [-97.78841, 36.43631]}, "properties": {"kind": "turbine", "i": 72, "mw": 6.0, "hub_m": 120.0, "rotor_m": 150.0}}, {"type": "Feature", "geometry": {"type": "Point", "coordinates": [-97.77799, 36.321]}, "properties": {"kind": "turbine", "i": 73, "mw": 6.0, "hub_m": 120.0, "rotor_m": 150.0}}, {"type": "Feature", "geometry": {"type": "Point", "coordinates": [-97.73727, 36.32386]}, "properties": {"kind": "turbine", "i": 74, "mw": 6.0, "hub_m": 120.0, "rotor_m": 150.0}}, {"type": "Feature", "geometry": {"type": "Point", "coordinates": [-97.74355, 36.43914]}, "properties": {"kind": "turbine", "i": 75, "mw": 6.0, "hub_m": 120.0, "rotor_m": 150.0}}, {"type": "Feature", "geometry": {"type": "Point", "coordinates": [-97.79426, 36.32116]}, "properties": {"kind": "turbine", "i": 76, "mw": 6.0, "hub_m": 120.0, "rotor_m": 150.0}}, {"type": "Feature", "geometry": {"type": "Point", "coordinates": [-97.6873, 36.39245]}, "properties": {"kind": "turbine", "i": 77, "mw": 6.0, "hub_m": 120.0, "rotor_m": 150.0}}, {"type": "Feature", "geometry": {"type": "Point", "coordinates": [-97.7031, 36.42225]}, "properties": {"kind": "turbine", "i": 78, "mw": 6.0, "hub_m": 120.0, "rotor_m": 150.0}}, {"type": "Feature", "geometry": {"type": "Point", "coordinates": [-97.76789, 36.44598]}, "properties": {"kind": "turbine", "i": 79, "mw": 6.0, "hub_m": 120.0, "rotor_m": 150.0}}, {"type": "Feature", "geometry": {"type": "Point", "coordinates": [-97.75567, 36.44585]}, "properties": {"kind": "turbine", "i": 80, "mw": 6.0, "hub_m": 120.0, "rotor_m": 150.0}}, {"type": "Feature", "geometry": {"type": "Point", "coordinates": [-97.721, 36.32369]}, "properties": {"kind": "turbine", "i": 81, "mw": 6.0, "hub_m": 120.0, "rotor_m": 150.0}}, {"type": "Feature", "geometry": {"type": "Point", "coordinates": [-97.68362, 36.36937]}, "properties": {"kind": "turbine", "i": 82, "mw": 6.0, "hub_m": 120.0, "rotor_m": 150.0}}, {"type": "Feature", "geometry": {"type": "Point", "coordinates": [-97.69627, 36.34317]}, "properties": {"kind": "turbine", "i": 83, "mw": 6.0, "hub_m": 120.0, "rotor_m": 150.0}}, {"type": "Feature", "geometry": {"type": "Point", "coordinates": [-97.78011, 36.4461]}, "properties": {"kind": "turbine", "i": 84, "mw": 6.0, "hub_m": 120.0, "rotor_m": 150.0}}, {"type": "Feature", "geometry": {"type": "Point", "coordinates": [-97.83062, 36.33798]}, "properties": {"kind": "turbine", "i": 85, "mw": 6.0, "hub_m": 120.0, "rotor_m": 150.0}}, {"type": "Feature", "geometry": {"type": "Point", "coordinates": [-97.8465, 36.36447]}, "properties": {"kind": "turbine", "i": 86, "mw": 6.0, "hub_m": 120.0, "rotor_m": 150.0}}, {"type": "Feature", "geometry": {"type": "Point", "coordinates": [-97.72319, 36.43892]}, "properties": {"kind": "turbine", "i": 87, "mw": 6.0, "hub_m": 120.0, "rotor_m": 150.0}}, {"type": "Feature", "geometry": {"type": "Point", "coordinates": [-97.81285, 36.43656]}, "properties": {"kind": "turbine", "i": 88, "mw": 6.0, "hub_m": 120.0, "rotor_m": 150.0}}, {"type": "Feature", "geometry": {"type": "Point", "coordinates": [-97.85038, 36.37767]}, "properties": {"kind": "turbine", "i": 89, "mw": 6.0, "hub_m": 120.0, "rotor_m": 150.0}}, {"type": "Feature", "geometry": {"type": "Point", "coordinates": [-97.67939, 36.3792]}, "properties": {"kind": "turbine", "i": 90, "mw": 6.0, "hub_m": 120.0, "rotor_m": 150.0}}, {"type": "Feature", "geometry": {"type": "Point", "coordinates": [-97.81053, 36.32132]}, "properties": {"kind": "turbine", "i": 91, "mw": 6.0, "hub_m": 120.0, "rotor_m": 150.0}}, {"type": "Feature", "geometry": {"type": "Point", "coordinates": [-97.68307, 36.40228]}, "properties": {"kind": "turbine", "i": 92, "mw": 6.0, "hub_m": 120.0, "rotor_m": 150.0}}, {"type": "Feature", "geometry": {"type": "Point", "coordinates": [-97.68697, 36.4122]}, "properties": {"kind": "turbine", "i": 93, "mw": 6.0, "hub_m": 120.0, "rotor_m": 150.0}}, {"type": "Feature", "geometry": {"type": "Point", "coordinates": [-97.7964, 36.44627]}, "properties": {"kind": "turbine", "i": 94, "mw": 6.0, "hub_m": 120.0, "rotor_m": 150.0}}, {"type": "Feature", "geometry": {"type": "Point", "coordinates": [-97.67972, 36.35945]}, "properties": {"kind": "turbine", "i": 95, "mw": 6.0, "hub_m": 120.0, "rotor_m": 150.0}}, {"type": "Feature", "geometry": {"type": "Point", "coordinates": [-97.84273, 36.34468]}, "properties": {"kind": "turbine", "i": 96, "mw": 6.0, "hub_m": 120.0, "rotor_m": 150.0}}, {"type": "Feature", "geometry": {"type": "Point", "coordinates": [-97.68395, 36.34962]}, "properties": {"kind": "turbine", "i": 97, "mw": 6.0, "hub_m": 120.0, "rotor_m": 150.0}}, {"type": "Feature", "geometry": {"type": "Point", "coordinates": [-97.76193, 36.30766]}, "properties": {"kind": "turbine", "i": 98, "mw": 6.0, "hub_m": 120.0, "rotor_m": 150.0}}, {"type": "Feature", "geometry": {"type": "Point", "coordinates": [-97.83336, 36.42689]}, "properties": {"kind": "turbine", "i": 99, "mw": 6.0, "hub_m": 120.0, "rotor_m": 150.0}}, {"type": "Feature", "geometry": {"type": "Point", "coordinates": [-97.7088, 36.32356]}, "properties": {"kind": "turbine", "i": 100, "mw": 6.0, "hub_m": 120.0, "rotor_m": 150.0}}, {"type": "Feature", "geometry": {"type": "Point", "coordinates": [-97.7782, 36.30783]}, "properties": {"kind": "turbine", "i": 101, "mw": 6.0, "hub_m": 120.0, "rotor_m": 150.0}}, {"type": "Feature", "geometry": {"type": "Point", "coordinates": [-97.69088, 36.42212]}, "properties": {"kind": "turbine", "i": 102, "mw": 6.0, "hub_m": 120.0, "rotor_m": 150.0}}, {"type": "Feature", "geometry": {"type": "Point", "coordinates": [-97.85072, 36.35464]}, "properties": {"kind": "turbine", "i": 103, "mw": 6.0, "hub_m": 120.0, "rotor_m": 150.0}}, {"type": "Feature", "geometry": {"type": "Point", "coordinates": [-97.79848, 36.31133]}, "properties": {"kind": "turbine", "i": 104, "mw": 6.0, "hub_m": 120.0, "rotor_m": 150.0}}, {"type": "Feature", "geometry": {"type": "Point", "coordinates": [-97.74334, 36.45231]}, "properties": {"kind": "turbine", "i": 105, "mw": 6.0, "hub_m": 120.0, "rotor_m": 150.0}}, {"type": "Feature", "geometry": {"type": "Point", "coordinates": [-97.69886, 36.43208]}, "properties": {"kind": "turbine", "i": 106, "mw": 6.0, "hub_m": 120.0, "rotor_m": 150.0}}, {"type": "Feature", "geometry": {"type": "Point", "coordinates": [-97.7416, 36.30745]}, "properties": {"kind": "turbine", "i": 107, "mw": 6.0, "hub_m": 120.0, "rotor_m": 150.0}}, {"type": "Feature", "geometry": {"type": "Point", "coordinates": [-97.75958, 36.45577]}, "properties": {"kind": "turbine", "i": 108, "mw": 6.0, "hub_m": 120.0, "rotor_m": 150.0}}, {"type": "Feature", "geometry": {"type": "Point", "coordinates": [-97.77588, 36.45594]}, "properties": {"kind": "turbine", "i": 109, "mw": 6.0, "hub_m": 120.0, "rotor_m": 150.0}}, {"type": "Feature", "geometry": {"type": "Point", "coordinates": [-97.82914, 36.43672]}, "properties": {"kind": "turbine", "i": 110, "mw": 6.0, "hub_m": 120.0, "rotor_m": 150.0}}, {"type": "Feature", "geometry": {"type": "Point", "coordinates": [-97.8268, 36.32149]}, "properties": {"kind": "turbine", "i": 111, "mw": 6.0, "hub_m": 120.0, "rotor_m": 150.0}}, {"type": "Feature", "geometry": {"type": "Point", "coordinates": [-97.85871, 36.36459]}, "properties": {"kind": "turbine", "i": 112, "mw": 6.0, "hub_m": 120.0, "rotor_m": 150.0}}, {"type": "Feature", "geometry": {"type": "Point", "coordinates": [-97.70684, 36.44204]}, "properties": {"kind": "turbine", "i": 113, "mw": 6.0, "hub_m": 120.0, "rotor_m": 150.0}}, {"type": "Feature", "geometry": {"type": "Point", "coordinates": [-97.68418, 36.33646]}, "properties": {"kind": "turbine", "i": 114, "mw": 6.0, "hub_m": 120.0, "rotor_m": 150.0}}, {"type": "Feature", "geometry": {"type": "Point", "coordinates": [-97.66718, 36.37906]}, "properties": {"kind": "turbine", "i": 115, "mw": 6.0, "hub_m": 120.0, "rotor_m": 150.0}}, {"type": "Feature", "geometry": {"type": "Point", "coordinates": [-97.6966, 36.32343]}, "properties": {"kind": "turbine", "i": 116, "mw": 6.0, "hub_m": 120.0, "rotor_m": 150.0}}, {"type": "Feature", "geometry": {"type": "Point", "coordinates": [-97.79218, 36.4561]}, "properties": {"kind": "turbine", "i": 117, "mw": 6.0, "hub_m": 120.0, "rotor_m": 150.0}}, {"type": "Feature", "geometry": {"type": "Point", "coordinates": [-97.81475, 36.31149]}, "properties": {"kind": "turbine", "i": 118, "mw": 6.0, "hub_m": 120.0, "rotor_m": 150.0}}]}