{"type": "FeatureCollection", "features": [{"type": "Feature", "geometry": {"type": "MultiPolygon", "coordinates": [[[[-87.95167, 34.79144], [-87.95174, 34.79131], [-87.95193, 34.79145], [-87.95167, 34.79144]]], [[[-87.93677, 34.79912], [-87.93737, 34.79897], [-87.93739, 34.80129], [-87.9357, 34.80097], [-87.93585, 34.79966], [-87.93677, 34.79912]]], [[[-87.93571, 34.81438], [-87.93575, 34.81397], [-87.93721, 34.81416], [-87.93842, 34.81365], [-87.93934, 34.81245], [-87.94072, 34.81151], [-87.94233, 34.809], [-87.94218, 34.79777], [-87.94867, 34.79522], [-87.95596, 34.79544], [-87.95803, 34.7999], [-87.95834, 34.80435], [-87.95708, 34.80868], [-87.95435, 34.81253], [-87.95038, 34.81555], [-87.94721, 34.81698], [-87.94419, 34.81778], [-87.94233, 34.81723], [-87.94059, 34.81734], [-87.93863, 34.81814], [-87.9359, 34.81779], [-87.93471, 34.81562], [-87.93571, 34.81438]]], [[[-87.93089, 34.8097], [-87.93107, 34.80973], [-87.93108, 34.80998], [-87.93088, 34.8097], [-87.93089, 34.8097]]], [[[-87.93113, 34.79919], [-87.93102, 34.80009], [-87.92921, 34.80082], [-87.92805, 34.80211], [-87.9257, 34.80255], [-87.92471, 34.80118], [-87.92679, 34.80126], [-87.92812, 34.80034], [-87.92843, 34.79934], [-87.92802, 34.79752], [-87.92917, 34.79637], [-87.929, 34.7949], [-87.9361, 34.79504], [-87.93277, 34.7967], [-87.93177, 34.79775], [-87.93113, 34.79919]]], [[[-87.94663, 34.79116], [-87.9455, 34.78898], [-87.94454, 34.7883], [-87.94775, 34.78924], [-87.94663, 34.79116]]], [[[-87.94356, 34.78811], [-87.94245, 34.78834], [-87.94148, 34.78913], [-87.94131, 34.79122], [-87.9376, 34.79118], [-87.93744, 34.78797], [-87.93983, 34.78781], [-87.94356, 34.78811]]], [[[-87.92322, 34.79843], [-87.92299, 34.79906], [-87.92242, 34.79851], [-87.92324, 34.79676], [-87.92322, 34.79843]]], [[[-87.93288, 34.79], [-87.93291, 34.79111], [-87.92869, 34.79103], [-87.93284, 34.78901], [-87.93288, 34.79]]]]}, "properties": {"kind": "windland", "area_km2": 3.86}}, {"type": "Feature", "geometry": {"type": "MultiPolygon", "coordinates": [[[[-87.94119, 34.79085], [-87.94125, 34.78966], [-87.94174, 34.78881], [-87.94266, 34.78826], [-87.94379, 34.78812], [-87.94466, 34.78834], [-87.9455, 34.78898], [-87.94636, 34.79048], [-87.94649, 34.7913], [-87.95001, 34.78538], [-87.95073, 34.78538], [-87.95076, 34.78793], [-87.94839, 34.79197], [-87.94777, 34.7926], [-87.94697, 34.79296], [-87.9445, 34.79292], [-87.94445, 34.79104], [-87.94384, 34.79052], [-87.94386, 34.78997], [-87.94355, 34.78978], [-87.94324, 34.78994], [-87.94316, 34.79052], [-87.94381, 34.79122], [-87.94384, 34.79291], [-87.93563, 34.79284], [-87.9355, 34.78884], [-87.9352, 34.78632], [-87.93535, 34.78549], [-87.93747, 34.78548], [-87.93722, 34.78635], [-87.9376, 34.79118], [-87.94131, 34.79122], [-87.94119, 34.79085]]], [[[-87.94869, 34.79258], [-87.94897, 34.79222], [-87.95077, 34.78915], [-87.95082, 34.79308], [-87.94821, 34.79299], [-87.94869, 34.79258]]], [[[-87.94417, 34.79346], [-87.94553, 34.79348], [-87.93666, 34.79666], [-87.93424, 34.79784], [-87.93349, 34.79861], [-87.93314, 34.79939], [-87.93303, 34.80132], [-87.93236, 34.80134], [-87.93128, 34.80274], [-87.93122, 34.80366], [-87.9291, 34.80585], [-87.92907, 34.80358], [-87.92387, 34.80362], [-87.92178, 34.80072], [-87.91807, 34.79713], [-87.91804, 34.79464], [-87.91839, 34.79464], [-87.92299, 34.79906], [-87.92334, 34.79826], [-87.92326, 34.79676], [-87.92263, 34.7965], [-87.922, 34.79595], [-87.92168, 34.79525], [-87.92168, 34.79462], [-87.92546, 34.79459], [-87.92539, 34.79498], [-87.924, 34.79465], [-87.92366, 34.79494], [-87.92385, 34.79517], [-87.92528, 34.79552], [-87.92537, 34.79864], [-87.92498, 34.79934], [-87.92519, 34.79956], [-87.9261, 34.79969], [-87.92642, 34.79929], [-87.926, 34.79878], [-87.92585, 34.79607], [-87.92699, 34.79608], [-87.92726, 34.79581], [-87.92702, 34.79555], [-87.92596, 34.79547], [-87.92614, 34.79458], [-87.92897, 34.79456], [-87.92896, 34.79324], [-87.94417, 34.79346]], [[-87.93067, 34.80016], [-87.93102, 34.80009], [-87.93137, 34.79846], [-87.9323, 34.79711], [-87.93343, 34.79624], [-87.9361, 34.79504], [-87.929, 34.7949], [-87.92926, 34.79562], [-87.92917, 34.79637], [-87.92875, 34.79704], [-87.92802, 34.79752], [-87.92803, 34.79823], [-87.92843, 34.79934], [-87.92812, 34.80034], [-87.92756, 34.80091], [-87.92679, 34.80126], [-87.92591, 34.80135], [-87.92471, 34.80118], [-87.9257, 34.80255], [-87.92685, 34.80219], [-87.92805, 34.80211], [-87.92921, 34.80082], [-87.93067, 34.80016]]], [[[-87.94698, 34.79417], [-87.9476, 34.79353], [-87.94799, 34.79353], [-87.95082, 34.79362], [-87.95083, 34.79439], [-87.96162, 34.79431], [-87.96155, 34.80333], [-87.95953, 34.80334], [-87.95959, 34.79556], [-87.94867, 34.79522], [-87.94793, 34.79565], [-87.94209, 34.79789], [-87.94211, 34.80562], [-87.94238, 34.80638], [-87.94246, 34.80846], [-87.94217, 34.80935], [-87.94129, 34.81035], [-87.94072, 34.81151], [-87.93929, 34.81252], [-87.93373, 34.81256], [-87.93372, 34.80926], [-87.93395, 34.80865], [-87.93462, 34.80816], [-87.93609, 34.8081], [-87.93615, 34.80921], [-87.93858, 34.80951], [-87.93904, 34.80915], [-87.93847, 34.81031], [-87.93724, 34.811], [-87.93649, 34.81219], [-87.93677, 34.81252], [-87.93708, 34.81241], [-87.93779, 34.8113], [-87.939, 34.81063], [-87.93958, 34.80946], [-87.94033, 34.80866], [-87.94038, 34.80661], [-87.94009, 34.80613], [-87.94004, 34.79876], [-87.94007, 34.7977], [-87.94042, 34.79693], [-87.94132, 34.79625], [-87.94698, 34.79417]]], [[[-87.94462, 34.79444], [-87.94333, 34.79491], [-87.94664, 34.79367], [-87.94647, 34.79376], [-87.94462, 34.79444]]], [[[-87.94022, 34.79627], [-87.93968, 34.79692], [-87.93941, 34.79765], [-87.93943, 34.80472], [-87.93742, 34.80474], [-87.9374, 34.80434], [-87.93669, 34.80435], [-87.9365, 34.80398], [-87.93368, 34.80131], [-87.93377, 34.79953], [-87.93427, 34.7986], [-87.93495, 34.79805], [-87.9405, 34.79605], [-87.94022, 34.79627]], [[-87.93574, 34.7999], [-87.9357, 34.80097], [-87.93739, 34.80129], [-87.93737, 34.79897], [-87.93611, 34.79942], [-87.93574, 34.7999]]], [[[-87.93291, 34.79111], [-87.93257, 34.78574], [-87.93157, 34.78578], [-87.93068, 34.78553], [-87.93467, 34.7855], [-87.93454, 34.78633], [-87.93485, 34.78887], [-87.93497, 34.79279], [-87.92895, 34.7927], [-87.92893, 34.79103], [-87.93291, 34.79111]]], [[[-87.93972, 34.80661], [-87.93973, 34.80665], [-87.93975, 34.80694], [-87.93972, 34.80661]]], [[[-87.93313, 34.81045], [-87.93308, 34.81256], [-87.93024, 34.81259], [-87.92916, 34.81091], [-87.92912, 34.80784], [-87.93306, 34.80821], [-87.93313, 34.81045]], [[-87.93107, 34.80973], [-87.93088, 34.8097], [-87.93108, 34.80998], [-87.93107, 34.80973]]]]}, "properties": {"kind": "pv", "area_km2": 3.38, "mw": 169.0}}, {"type": "Feature", "geometry": {"type": "Point", "coordinates": [-87.93581, 34.79985]}, "properties": {"kind": "turbine", "i": 0, "mw": 6.0, "hub_m": 120.0, "rotor_m": 150.0}}, {"type": "Feature", "geometry": {"type": "Point", "coordinates": [-87.9479, 34.80964]}, "properties": {"kind": "turbine", "i": 1, "mw": 6.0, "hub_m": 120.0, "rotor_m": 150.0}}, {"type": "Feature", "geometry": {"type": "Point", "coordinates": [-87.95178, 34.79973]}, "properties": {"kind": "turbine", "i": 2, "mw": 6.0, "hub_m": 120.0, "rotor_m": 150.0}}]}