{"type": "FeatureCollection", "features": [{"type": "Feature", "geometry": {"type": "MultiPolygon", "coordinates": [[[[-88.00108, 34.85367], [-87.99993, 34.85186], [-87.99679, 34.85022], [-87.99593, 34.84931], [-87.99699, 34.84742], [-87.9969, 34.84596], [-87.99579, 34.84463], [-87.99388, 34.84377], [-87.9928, 34.84195], [-87.99232, 34.83979], [-87.9934, 34.8388], [-87.9941, 34.836], [-87.99993, 34.83784], [-88.00046, 34.83815], [-88.00083, 34.83962], [-88.0019, 34.84032], [-88.00325, 34.84041], [-88.00474, 34.83974], [-88.00656, 34.84015], [-88.00712, 34.8417], [-88.00872, 34.84265], [-88.01076, 34.84504], [-88.00803, 34.84814], [-88.00234, 34.85342], [-88.00129, 34.85422], [-88.00108, 34.85367]]], [[[-88.01365, 34.84134], [-88.01129, 34.83936], [-88.01047, 34.83592], [-88.01126, 34.83509], [-88.0115, 34.83398], [-88.01111, 34.8331], [-88.01005, 34.83239], [-88.00847, 34.83234], [-88.00637, 34.83331], [-88.00528, 34.83467], [-88.00515, 34.83588], [-88.00119, 34.83404], [-87.9906, 34.8311], [-87.98918, 34.83106], [-87.98637, 34.83181], [-87.98494, 34.83171], [-87.9825, 34.83229], [-87.98195, 34.83136], [-87.9834, 34.83074], [-87.984, 34.82953], [-87.98338, 34.82814], [-87.9817, 34.82751], [-87.98185, 34.81668], [-87.98255, 34.81527], [-87.98188, 34.81395], [-87.98186, 34.80661], [-87.98595, 34.80643], [-87.98773, 34.80545], [-87.98946, 34.80537], [-87.99035, 34.80476], [-87.9908, 34.8039], [-87.99309, 34.803], [-87.99379, 34.8014], [-87.99292, 34.7999], [-87.99087, 34.79934], [-87.98979, 34.79959], [-87.98674, 34.80149], [-87.98408, 34.80265], [-87.98029, 34.80283], [-87.98172, 34.79866], [-87.983, 34.79868], [-87.984, 34.79822], [-87.98494, 34.79632], [-87.98699, 34.79638], [-87.98779, 34.79742], [-87.98905, 34.79785], [-87.99058, 34.79753], [-87.99152, 34.79645], [-87.99984, 34.79659], [-88.00068, 34.79725], [-88.00178, 34.7975], [-88.00328, 34.79708], [-88.00467, 34.79504], [-88.00509, 34.79102], [-88.00415, 34.78976], [-88.002, 34.78852], [-87.99972, 34.78636], [-88.00041, 34.7852], [-88.00406, 34.78378], [-88.00418, 34.7858], [-88.0052, 34.78695], [-88.01021, 34.78791], [-88.0111, 34.78852], [-88.01249, 34.78883], [-88.01538, 34.7885], [-88.01639, 34.78774], [-88.01759, 34.78604], [-88.01963, 34.78544], [-88.02123, 34.78413], [-88.02241, 34.78417], [-88.02436, 34.78484], [-88.02477, 34.78711], [-88.02544, 34.78826], [-88.02678, 34.79524], [-88.02699, 34.79814], [-88.02525, 34.79942], [-88.02485, 34.80155], [-88.02568, 34.80332], [-88.02687, 34.80435], [-88.02713, 34.80572], [-88.02598, 34.80718], [-88.02486, 34.80739], [-88.02383, 34.80806], [-88.02223, 34.81067], [-88.02047, 34.81107], [-88.01961, 34.81164], [-88.01841, 34.81416], [-88.01844, 34.81576], [-88.01904, 34.81743], [-88.02176, 34.81962], [-88.02247, 34.82067], [-88.02308, 34.82493], [-88.02099, 34.8299], [-88.0174, 34.83632], [-88.01365, 34.84134]]], [[[-87.96433, 34.86591], [-87.95962, 34.85986], [-87.95793, 34.85689], [-87.95919, 34.85565], [-87.95886, 34.85398], [-87.95682, 34.85248], [-87.95455, 34.85217], [-87.95466, 34.85097], [-87.95422, 34.85003], [-87.9533, 34.84936], [-87.95224, 34.84912], [-87.95125, 34.84795], [-87.95164, 34.84669], [-87.95086, 34.84469], [-87.94993, 34.84398], [-87.94845, 34.84373], [-87.94725, 34.8418], [-87.94721, 34.8415], [-87.94867, 34.84126], [-87.95476, 34.84156], [-87.95622, 34.84102], [-87.9572, 34.84019], [-87.95787, 34.83865], [-87.95761, 34.83691], [-87.95575, 34.83495], [-87.95248, 34.83424], [-87.95283, 34.8322], [-87.9526, 34.83081], [-87.95924, 34.82726], [-87.95918, 34.8346], [-87.9597, 34.83581], [-87.96083, 34.83681], [-87.95949, 34.83847], [-87.95907, 34.83979], [-87.95887, 34.85346], [-87.95963, 34.8548], [-87.96155, 34.85528], [-87.96261, 34.85492], [-87.96333, 34.8542], [-87.96354, 34.84755], [-87.96841, 34.84916], [-87.97238, 34.84927], [-87.972, 34.85069], [-87.97221, 34.85188], [-87.97574, 34.85502], [-87.97545, 34.85631], [-87.97596, 34.85735], [-87.97687, 34.85792], [-87.97799, 34.85807], [-87.97972, 34.85723], [-87.98046, 34.8557], [-87.98025, 34.85377], [-87.97924, 34.85238], [-87.97698, 34.8506], [-87.977, 34.8485], [-87.97657, 34.84744], [-87.9778, 34.84649], [-87.97818, 34.84561], [-87.9775, 34.84405], [-87.9763, 34.84352], [-87.97516, 34.84357], [-87.97263, 34.8451], [-87.97051, 34.84552], [-87.96371, 34.84338], [-87.96377, 34.8401], [-87.96549, 34.83806], [-87.96589, 34.83681], [-87.96552, 34.83523], [-87.96383, 34.83382], [-87.96386, 34.83267], [-87.97421, 34.83272], [-87.97701, 34.83199], [-87.97851, 34.83463], [-87.97727, 34.83567], [-87.97665, 34.8368], [-87.97682, 34.83805], [-87.9777, 34.83891], [-87.97878, 34.83921], [-87.98011, 34.83898], [-87.98319, 34.83616], [-87.98474, 34.83577], [-87.98698, 34.83721], [-87.98872, 34.84397], [-87.99014, 34.8461], [-87.99192, 34.84729], [-87.99118, 34.84908], [-87.99149, 34.8507], [-87.99374, 34.85317], [-87.99644, 34.85449], [-87.99746, 34.85715], [-87.99359, 34.85975], [-87.99265, 34.85974], [-87.99265, 34.86034], [-87.98921, 34.86248], [-87.9819, 34.86618], [-87.97419, 34.86926], [-87.96824, 34.87107], [-87.96433, 34.86591]]], [[[-87.98169, 34.73981], [-87.98092, 34.74197], [-87.97988, 34.74247], [-87.97929, 34.74327], [-87.97932, 34.74447], [-87.9781, 34.74656], [-87.97728, 34.75232], [-87.9766, 34.75286], [-87.97526, 34.7517], [-87.97371, 34.75118], [-87.9739, 34.74081], [-87.97283, 34.73872], [-87.97081, 34.73706], [-87.9702, 34.73552], [-87.98169, 34.73981]]], [[[-87.96045, 34.73315], [-87.95694, 34.73304], [-87.956, 34.73222], [-87.9608, 34.73316], [-87.96045, 34.73315]]], [[[-87.94887, 34.73143], [-87.95084, 34.73357], [-87.95515, 34.73666], [-87.96595, 34.7372], [-87.96687, 34.73917], [-87.96915, 34.74127], [-87.96924, 34.74387], [-87.96787, 34.74416], [-87.96498, 34.74407], [-87.96384, 34.74273], [-87.96207, 34.74253], [-87.96064, 34.74343], [-87.96029, 34.74525], [-87.95897, 34.74574], [-87.95779, 34.74673], [-87.95228, 34.7451], [-87.94211, 34.74322], [-87.94246, 34.74203], [-87.94505, 34.74208], [-87.94533, 34.7312], [-87.94887, 34.73143]]], [[[-87.93544, 34.73456], [-87.93208, 34.73451], [-87.93155, 34.7334], [-87.93017, 34.73269], [-87.92816, 34.73309], [-87.92741, 34.73392], [-87.92646, 34.73635], [-87.92627, 34.73873], [-87.92671, 34.74036], [-87.91999, 34.73849], [-87.91941, 34.73691], [-87.91936, 34.73411], [-87.91888, 34.73322], [-87.93064, 34.73141], [-87.93535, 34.73118], [-87.93544, 34.73456]]], [[[-87.91473, 34.73416], [-87.9147, 34.73455], [-87.91244, 34.73475], [-87.9139, 34.73429], [-87.91473, 34.73416]]], [[[-87.93096, 34.73839], [-87.93099, 34.73765], [-87.93103, 34.73739], [-87.93103, 34.73859], [-87.93096, 34.73839]]], [[[-87.93547, 34.74204], [-87.93982, 34.74198], [-87.93984, 34.74282], [-87.93647, 34.74222], [-87.93547, 34.74204]]], [[[-87.98663, 34.75596], [-87.98614, 34.75531], [-87.98616, 34.75442], [-87.98712, 34.75412], [-87.98794, 34.75335], [-87.99056, 34.75253], [-87.99553, 34.75273], [-87.99608, 34.75382], [-87.99735, 34.75454], [-88.00428, 34.75498], [-88.0042, 34.75795], [-87.99508, 34.757], [-87.99422, 34.75618], [-87.99314, 34.75585], [-87.99166, 34.75594], [-87.99056, 34.75654], [-87.98663, 34.75596]], [[-87.99604, 34.7552], [-87.99611, 34.75557], [-87.99667, 34.75553], [-87.99662, 34.75516], [-87.99604, 34.7552]]], [[[-88.02269, 34.78029], [-88.0219, 34.78024], [-88.02234, 34.77934], [-88.02277, 34.78029], [-88.02269, 34.78029]]], [[[-88.01801, 34.77102], [-88.01731, 34.77311], [-88.01762, 34.77862], [-88.0172, 34.77988], [-88.01739, 34.7818], [-88.01094, 34.78409], [-88.00874, 34.78378], [-88.00869, 34.77474], [-88.01349, 34.77119], [-88.01646, 34.7683], [-88.01801, 34.77102]]], [[[-88.0119, 34.76301], [-88.01259, 34.76308], [-88.01375, 34.76465], [-88.01142, 34.76735], [-88.00873, 34.76956], [-88.00879, 34.7637], [-88.01066, 34.76288], [-88.0119, 34.76301]]], [[[-87.99564, 34.76147], [-88.00412, 34.76224], [-88.004, 34.77305], [-87.99758, 34.77847], [-87.99813, 34.77742], [-87.99843, 34.7747], [-87.99965, 34.77348], [-88.00095, 34.77286], [-88.00148, 34.77203], [-88.00131, 34.77074], [-88.00018, 34.76982], [-87.99743, 34.76976], [-87.9959, 34.77055], [-87.99401, 34.77318], [-87.99362, 34.77611], [-87.99285, 34.77711], [-87.99279, 34.77835], [-87.99036, 34.77758], [-87.98781, 34.77534], [-87.98545, 34.77415], [-87.98185, 34.77294], [-87.98292, 34.7694], [-87.98238, 34.76751], [-87.98332, 34.76604], [-87.98329, 34.765], [-87.98275, 34.76414], [-87.98395, 34.76269], [-87.98351, 34.76102], [-87.98538, 34.76033], [-87.99098, 34.76091], [-87.99146, 34.76242], [-87.99325, 34.76317], [-87.99475, 34.76276], [-87.99564, 34.76147]]], [[[-87.95984, 34.75547], [-87.96095, 34.75555], [-87.96025, 34.75632], [-87.96008, 34.75725], [-87.96121, 34.75872], [-87.96119, 34.75948], [-87.95858, 34.75962], [-87.95741, 34.76008], [-87.9585, 34.75594], [-87.95984, 34.75547]]], [[[-87.95537, 34.7799], [-87.95543, 34.77371], [-87.95942, 34.77141], [-87.95982, 34.77221], [-87.95962, 34.79169], [-87.95167, 34.79144], [-87.95519, 34.78524], [-87.95537, 34.7799]]], [[[-87.93677, 34.79912], [-87.93737, 34.79897], [-87.93739, 34.80129], [-87.9357, 34.80097], [-87.93585, 34.79966], [-87.93677, 34.79912]]], [[[-87.93571, 34.81438], [-87.93575, 34.81397], [-87.93721, 34.81416], [-87.93842, 34.81365], [-87.93934, 34.81245], [-87.94072, 34.81151], [-87.94233, 34.809], [-87.94218, 34.79777], [-87.94867, 34.79522], [-87.95959, 34.79556], [-87.95946, 34.81421], [-87.95397, 34.81665], [-87.94878, 34.81842], [-87.94707, 34.81942], [-87.94592, 34.81963], [-87.94499, 34.82034], [-87.94463, 34.81822], [-87.94283, 34.81724], [-87.9404, 34.81739], [-87.93668, 34.81922], [-87.93471, 34.81562], [-87.93571, 34.81438]]], [[[-87.93089, 34.8097], [-87.93107, 34.80973], [-87.93108, 34.80998], [-87.93088, 34.8097], [-87.93089, 34.8097]]], [[[-87.93113, 34.79919], [-87.93102, 34.80009], [-87.92921, 34.80082], [-87.92805, 34.80211], [-87.9257, 34.80255], [-87.92471, 34.80118], [-87.92679, 34.80126], [-87.92812, 34.80034], [-87.92843, 34.79934], [-87.92802, 34.79752], [-87.92917, 34.79637], [-87.929, 34.7949], [-87.9361, 34.79504], [-87.93277, 34.7967], [-87.93177, 34.79775], [-87.93113, 34.79919]]], [[[-87.94663, 34.79116], [-87.94537, 34.78883], [-87.94356, 34.78811], [-87.94245, 34.78834], [-87.94148, 34.78913], [-87.94131, 34.79122], [-87.9376, 34.79118], [-87.93722, 34.78635], [-87.93821, 34.78311], [-87.93742, 34.77932], [-87.93879, 34.77911], [-87.93968, 34.77857], [-87.94037, 34.77629], [-87.93943, 34.77483], [-87.93748, 34.7745], [-87.9375, 34.77344], [-87.93897, 34.77288], [-87.93966, 34.77151], [-87.93913, 34.77029], [-87.93756, 34.76959], [-87.93762, 34.76576], [-87.95037, 34.76593], [-87.95086, 34.767], [-87.95062, 34.78433], [-87.94663, 34.79116]]], [[[-87.95041, 34.76165], [-87.95027, 34.76206], [-87.93768, 34.7619], [-87.93775, 34.75603], [-87.95135, 34.7564], [-87.95128, 34.76031], [-87.95041, 34.76165]]], [[[-87.9262, 34.74835], [-87.9313, 34.7494], [-87.93309, 34.75036], [-87.9329, 34.76756], [-87.93156, 34.76806], [-87.93083, 34.76921], [-87.93236, 34.77375], [-87.93115, 34.77501], [-87.93123, 34.77647], [-87.8982, 34.77622], [-87.89948, 34.77453], [-87.90114, 34.77464], [-87.90263, 34.77379], [-87.90443, 34.76897], [-87.9059, 34.76932], [-87.90735, 34.76919], [-87.90901, 34.76828], [-87.90957, 34.76726], [-87.90945, 34.76633], [-87.90862, 34.76543], [-87.90756, 34.76509], [-87.90624, 34.76526], [-87.90554, 34.76478], [-87.9045, 34.76307], [-87.90219, 34.76244], [-87.90225, 34.7587], [-87.90327, 34.75807], [-87.90374, 34.75701], [-87.90342, 34.75592], [-87.90228, 34.75511], [-87.90237, 34.7507], [-87.90602, 34.75064], [-87.9071, 34.74996], [-87.90754, 34.7489], [-87.90718, 34.74781], [-87.90616, 34.74707], [-87.90245, 34.74683], [-87.90245, 34.74454], [-87.90392, 34.74365], [-87.91014, 34.745], [-87.91029, 34.74721], [-87.91096, 34.74797], [-87.91199, 34.74838], [-87.91312, 34.74834], [-87.91411, 34.74786], [-87.9147, 34.74706], [-87.91481, 34.74597], [-87.91841, 34.74671], [-87.91865, 34.74794], [-87.91795, 34.7491], [-87.91799, 34.75007], [-87.91894, 34.75145], [-87.92014, 34.75198], [-87.9219, 34.7517], [-87.92277, 34.75083], [-87.92295, 34.74958], [-87.92494, 34.74951], [-87.9262, 34.74835]]], [[[-87.89724, 34.7445], [-87.89776, 34.74457], [-87.89773, 34.74837], [-87.89456, 34.74832], [-87.89616, 34.74396], [-87.89724, 34.7445]]], [[[-87.89098, 34.74472], [-87.88823, 34.75224], [-87.88783, 34.75712], [-87.88507, 34.75616], [-87.89009, 34.74575], [-87.89018, 34.74392], [-87.89157, 34.74314], [-87.89098, 34.74472]]], [[[-87.96844, 34.7711], [-87.96868, 34.77038], [-87.97057, 34.77257], [-87.97057, 34.77427], [-87.96969, 34.77493], [-87.96928, 34.776], [-87.96966, 34.77708], [-87.97056, 34.77775], [-87.9705, 34.78127], [-87.9644, 34.7812], [-87.96449, 34.77396], [-87.96702, 34.77298], [-87.96844, 34.7711]]], [[[-87.93036, 34.86505], [-87.93286, 34.8675], [-87.93321, 34.86924], [-87.93396, 34.87046], [-87.9356, 34.8715], [-87.93771, 34.87183], [-87.93823, 34.87269], [-87.93673, 34.87361], [-87.93621, 34.87485], [-87.92869, 34.87432], [-87.92959, 34.8733], [-87.93001, 34.87187], [-87.92976, 34.87044], [-87.9289, 34.86926], [-87.92756, 34.86845], [-87.92595, 34.86811], [-87.92418, 34.86832], [-87.92278, 34.86901], [-87.92291, 34.86724], [-87.92476, 34.86511], [-87.9253, 34.86476], [-87.92475, 34.8656], [-87.92482, 34.86672], [-87.92564, 34.86762], [-87.92692, 34.868], [-87.92804, 34.86781], [-87.92912, 34.86715], [-87.93036, 34.86505]]], [[[-87.92032, 34.87293], [-87.92138, 34.87198], [-87.92183, 34.87337], [-87.92014, 34.87303], [-87.92032, 34.87293]]], [[[-87.86595, 34.77578], [-87.8747, 34.78206], [-87.87287, 34.78371], [-87.87265, 34.78616], [-87.87397, 34.78788], [-87.87542, 34.78856], [-87.87701, 34.78875], [-87.87698, 34.78943], [-87.87628, 34.78998], [-87.87354, 34.79034], [-87.8714, 34.78959], [-87.86911, 34.78973], [-87.86736, 34.79065], [-87.86642, 34.79196], [-87.85874, 34.79186], [-87.8575, 34.79081], [-87.85515, 34.7899], [-87.85517, 34.78639], [-87.85625, 34.78271], [-87.85906, 34.77604], [-87.86138, 34.77191], [-87.86595, 34.77578]]], [[[-87.88566, 34.79076], [-87.88562, 34.79094], [-87.88502, 34.79083], [-87.88526, 34.79063], [-87.88566, 34.79076]]], [[[-87.90981, 34.81991], [-87.91106, 34.81983], [-87.91202, 34.82126], [-87.91335, 34.82182], [-87.91665, 34.82434], [-87.91858, 34.82805], [-87.91822, 34.82857], [-87.91799, 34.82701], [-87.91712, 34.8256], [-87.91506, 34.82422], [-87.91237, 34.82392], [-87.90981, 34.81991]]], [[[-87.94267, 34.83384], [-87.9421, 34.83426], [-87.94172, 34.83351], [-87.94209, 34.83334], [-87.94267, 34.83384]]], [[[-87.94071, 34.82872], [-87.93999, 34.82913], [-87.93986, 34.82862], [-87.94109, 34.82785], [-87.94165, 34.82643], [-87.94141, 34.82526], [-87.94028, 34.82429], [-87.9411, 34.82344], [-87.94128, 34.82233], [-87.94251, 34.82189], [-87.94265, 34.82303], [-87.94381, 34.82402], [-87.94424, 34.82555], [-87.94533, 34.82621], [-87.94686, 34.82625], [-87.94818, 34.8255], [-87.94898, 34.8238], [-87.95072, 34.82195], [-87.95939, 34.81869], [-87.95931, 34.82299], [-87.95405, 34.82519], [-87.94921, 34.82811], [-87.9472, 34.82828], [-87.94468, 34.82971], [-87.9428, 34.82851], [-87.94071, 34.82872]]], [[[-87.92322, 34.79843], [-87.92299, 34.79906], [-87.91842, 34.79466], [-87.89853, 34.78071], [-87.89878, 34.78009], [-87.92819, 34.78033], [-87.92841, 34.78294], [-87.92941, 34.78455], [-87.93074, 34.78556], [-87.93257, 34.78574], [-87.93291, 34.79111], [-87.9264, 34.791], [-87.92466, 34.79158], [-87.92383, 34.79299], [-87.92238, 34.79352], [-87.92166, 34.79468], [-87.922, 34.79595], [-87.92326, 34.79676], [-87.92322, 34.79843]]], [[[-87.89166, 34.77556], [-87.89122, 34.77608], [-87.88584, 34.77267], [-87.86986, 34.7603], [-87.87405, 34.75596], [-87.87574, 34.75717], [-87.88834, 34.76127], [-87.88434, 34.76466], [-87.88353, 34.76697], [-87.88358, 34.76835], [-87.88483, 34.77012], [-87.88967, 34.77339], [-87.89254, 34.77345], [-87.89479, 34.7721], [-87.89361, 34.77398], [-87.89166, 34.77556]]], [[[-87.89662, 34.77069], [-87.89634, 34.77075], [-87.89692, 34.76929], [-87.89809, 34.76738], [-87.89778, 34.76535], [-87.8965, 34.764], [-87.89303, 34.76162], [-87.89145, 34.76099], [-87.89235, 34.75975], [-87.89312, 34.75216], [-87.89764, 34.75224], [-87.89753, 34.76353], [-87.89839, 34.76497], [-87.90068, 34.76619], [-87.89904, 34.77045], [-87.89662, 34.77069]]], [[[-87.96633, 34.7957], [-87.97742, 34.79605], [-87.9765, 34.80003], [-87.97519, 34.80281], [-87.97302, 34.80277], [-87.97218, 34.80159], [-87.9729, 34.80063], [-87.97291, 34.79969], [-87.97205, 34.7986], [-87.96947, 34.79795], [-87.96766, 34.7967], [-87.96427, 34.79627], [-87.96428, 34.79564], [-87.96633, 34.7957]]], [[[-87.9694, 34.78733], [-87.96933, 34.79192], [-87.96629, 34.79183], [-87.96624, 34.78944], [-87.96536, 34.78863], [-87.96433, 34.78831], [-87.96436, 34.78507], [-87.96946, 34.78514], [-87.9694, 34.78733]]], [[[-88.02551, 34.81728], [-88.02331, 34.81572], [-88.02309, 34.8151], [-88.02346, 34.81453], [-88.0263, 34.81329], [-88.02551, 34.81728]]], [[[-87.99552, 34.74761], [-87.99553, 34.74885], [-87.98997, 34.74868], [-87.98737, 34.74951], [-87.98267, 34.7499], [-87.98275, 34.74711], [-87.98434, 34.74546], [-87.98584, 34.74181], [-87.99552, 34.74761]]], [[[-87.97794, 34.76148], [-87.97797, 34.76148], [-87.97791, 34.76166], [-87.97788, 34.76148], [-87.97794, 34.76148]]], [[[-87.97343, 34.76637], [-87.97287, 34.76487], [-87.9733, 34.76392], [-87.97377, 34.76492], [-87.97485, 34.76557], [-87.97512, 34.76679], [-87.97482, 34.76849], [-87.97307, 34.76879], [-87.97343, 34.76637]]], [[[-88.00231, 34.78018], [-88.0019, 34.78034], [-88.00402, 34.77852], [-88.00403, 34.77975], [-88.00231, 34.78018]]], [[[-87.99619, 34.78905], [-88.0004, 34.7923], [-88.00032, 34.79273], [-87.98244, 34.79236], [-87.98348, 34.78988], [-87.98555, 34.78803], [-87.99411, 34.78538], [-87.99619, 34.78905]]], [[[-87.98818, 34.78294], [-87.98948, 34.78138], [-87.99095, 34.78228], [-87.98795, 34.78307], [-87.98818, 34.78294]]], [[[-87.9821, 34.78502], [-87.98274, 34.78493], [-87.98183, 34.78553], [-87.98203, 34.7852], [-87.9821, 34.78502]]], [[[-87.97458, 34.78604], [-87.97495, 34.78537], [-87.97695, 34.78524], [-87.97767, 34.78527], [-87.97924, 34.7864], [-87.98098, 34.78622], [-87.97852, 34.78943], [-87.97773, 34.79219], [-87.9764, 34.79214], [-87.9758, 34.79065], [-87.97404, 34.79002], [-87.9741, 34.78704], [-87.97458, 34.78604]]], [[[-87.99514, 34.78035], [-87.99511, 34.78037], [-87.99509, 34.78035], [-87.99514, 34.78035]]], [[[-87.97937, 34.77666], [-87.98078, 34.77671], [-87.98349, 34.77771], [-87.98503, 34.7787], [-87.98495, 34.77991], [-87.9834, 34.78036], [-87.98246, 34.78107], [-87.97992, 34.78147], [-87.97518, 34.78146], [-87.97526, 34.773], [-87.97751, 34.77577], [-87.97937, 34.77666]]], [[[-87.85603, 34.82164], [-87.85729, 34.82138], [-87.86199, 34.82152], [-87.86326, 34.82111], [-87.86402, 34.82043], [-87.86536, 34.82143], [-87.8676, 34.82211], [-87.86758, 34.82716], [-87.86576, 34.82829], [-87.85831, 34.82817], [-87.85668, 34.82452], [-87.85603, 34.82164]]], [[[-87.85369, 34.80953], [-87.85312, 34.80956], [-87.85309, 34.80919], [-87.85369, 34.80953]]], [[[-87.91505, 34.84962], [-87.91699, 34.8505], [-87.92, 34.85027], [-87.9208, 34.85055], [-87.92078, 34.85078], [-87.91779, 34.85077], [-87.9158, 34.85199], [-87.91496, 34.85398], [-87.91579, 34.85625], [-87.91818, 34.85757], [-87.92076, 34.85747], [-87.92294, 34.85972], [-87.92508, 34.86054], [-87.92183, 34.86206], [-87.91957, 34.86444], [-87.91705, 34.8646], [-87.91477, 34.86613], [-87.91307, 34.86915], [-87.91348, 34.87154], [-87.90465, 34.86876], [-87.9111, 34.85593], [-87.91505, 34.84962]]], [[[-87.90915, 34.85033], [-87.90038, 34.86713], [-87.89277, 34.86354], [-87.89431, 34.86242], [-87.89519, 34.86087], [-87.89508, 34.85904], [-87.89403, 34.8576], [-87.89563, 34.85605], [-87.89591, 34.85402], [-87.89502, 34.85241], [-87.89326, 34.85134], [-87.89526, 34.84963], [-87.89495, 34.85154], [-87.89542, 34.85286], [-87.89679, 34.85414], [-87.89884, 34.85474], [-87.90089, 34.85451], [-87.90257, 34.85351], [-87.90384, 34.85173], [-87.90387, 34.84994], [-87.90747, 34.85032], [-87.90997, 34.84907], [-87.90915, 34.85033]]], [[[-87.97382, 34.82887], [-87.9639, 34.8288], [-87.96395, 34.82554], [-87.96876, 34.82295], [-87.97277, 34.81917], [-87.97521, 34.81521], [-87.97721, 34.8092], [-87.977, 34.82795], [-87.97382, 34.82887]]], [[[-87.96954, 34.81615], [-87.96729, 34.81874], [-87.96404, 34.82103], [-87.9641, 34.81775], [-87.96532, 34.81707], [-87.96582, 34.81583], [-87.96539, 34.81477], [-87.96415, 34.81404], [-87.96421, 34.80645], [-87.97321, 34.80665], [-87.9711, 34.81317], [-87.96954, 34.81615]]], [[[-87.96897, 34.80179], [-87.96842, 34.80267], [-87.96422, 34.80258], [-87.96424, 34.80029], [-87.96542, 34.8002], [-87.96739, 34.80148], [-87.96897, 34.80179]]], [[[-87.95281, 34.74946], [-87.95427, 34.75], [-87.94212, 34.74735], [-87.94971, 34.74872], [-87.95281, 34.74946]]], [[[-87.91026, 34.74066], [-87.91052, 34.74092], [-87.90978, 34.74076], [-87.91007, 34.7404], [-87.91026, 34.74066]]], [[[-87.91876, 34.7424], [-87.92074, 34.74298], [-87.92143, 34.74318], [-87.91854, 34.74258], [-87.91876, 34.7424]]], [[[-87.8754, 34.84813], [-87.87488, 34.84836], [-87.87436, 34.84713], [-87.87543, 34.84714], [-87.8754, 34.84813]]], [[[-87.86689, 34.83874], [-87.86664, 34.84142], [-87.86631, 34.84148], [-87.86337, 34.83751], [-87.86017, 34.83207], [-87.86518, 34.83215], [-87.86596, 34.83341], [-87.86731, 34.83431], [-87.86689, 34.83874]]], [[[-87.87649, 34.81869], [-87.87572, 34.81827], [-87.87438, 34.81789], [-87.8765, 34.8178], [-87.87649, 34.81869]]], [[[-87.86703, 34.79583], [-87.86925, 34.79713], [-87.87112, 34.79731], [-87.87285, 34.79703], [-87.87366, 34.79743], [-87.8745, 34.79868], [-87.87358, 34.80035], [-87.87369, 34.80195], [-87.87467, 34.80339], [-87.87668, 34.80464], [-87.87542, 34.80516], [-87.8743, 34.80617], [-87.87373, 34.80856], [-87.87478, 34.81041], [-87.8766, 34.81139], [-87.87657, 34.81393], [-87.87517, 34.81392], [-87.87376, 34.81251], [-87.87125, 34.81184], [-87.8687, 34.81236], [-87.86709, 34.81376], [-87.86447, 34.81371], [-87.86309, 34.81207], [-87.86091, 34.81094], [-87.86029, 34.80934], [-87.858, 34.80745], [-87.85488, 34.80553], [-87.85285, 34.80487], [-87.85641, 34.79716], [-87.85868, 34.79573], [-87.86703, 34.79583]]], [[[-87.91485, 34.83796], [-87.91577, 34.83656], [-87.91612, 34.83657], [-87.91901, 34.84005], [-87.91561, 34.84235], [-87.9141, 34.84167], [-87.9109, 34.84134], [-87.90896, 34.84193], [-87.90778, 34.84292], [-87.9059, 34.8428], [-87.90347, 34.84353], [-87.90492, 34.84199], [-87.9054, 34.83987], [-87.90646, 34.83919], [-87.91206, 34.83925], [-87.91372, 34.83876], [-87.91485, 34.83796]]], [[[-87.88937, 34.8427], [-87.89104, 34.84076], [-87.89094, 34.83836], [-87.89258, 34.83592], [-87.89567, 34.83323], [-87.89751, 34.8338], [-87.90184, 34.83406], [-87.90379, 34.83503], [-87.9057, 34.83525], [-87.90259, 34.83677], [-87.90044, 34.83651], [-87.89863, 34.83525], [-87.8971, 34.83472], [-87.89422, 34.83507], [-87.89268, 34.83622], [-87.89204, 34.83748], [-87.89182, 34.84143], [-87.89215, 34.8426], [-87.89161, 34.84338], [-87.88932, 34.84335], [-87.88937, 34.8427]]], [[[-87.9108, 34.83548], [-87.91101, 34.83537], [-87.91141, 34.83513], [-87.91124, 34.83544], [-87.9108, 34.83548]]], [[[-87.88079, 34.82517], [-87.88174, 34.82598], [-87.88323, 34.82657], [-87.88269, 34.82776], [-87.88272, 34.82921], [-87.88459, 34.83167], [-87.88356, 34.83328], [-87.88375, 34.83723], [-87.88292, 34.83833], [-87.88262, 34.83956], [-87.88283, 34.84092], [-87.88379, 34.84224], [-87.8798, 34.84216], [-87.87751, 34.8433], [-87.87305, 34.84323], [-87.87128, 34.84222], [-87.87204, 34.83406], [-87.87327, 34.8329], [-87.87379, 34.83124], [-87.87333, 34.82917], [-87.87227, 34.82792], [-87.87228, 34.82525], [-87.88079, 34.82517]]], [[[-87.88138, 34.80403], [-87.88401, 34.80208], [-87.88465, 34.80001], [-87.88657, 34.79998], [-87.88808, 34.7994], [-87.8894, 34.79808], [-87.88981, 34.79659], [-87.89023, 34.79676], [-87.89471, 34.80212], [-87.89806, 34.80738], [-87.89829, 34.80943], [-87.89947, 34.81201], [-87.90134, 34.81359], [-87.90389, 34.8188], [-87.90776, 34.825], [-87.90614, 34.82676], [-87.90191, 34.82636], [-87.90208, 34.82402], [-87.90081, 34.82227], [-87.89898, 34.82146], [-87.89688, 34.82145], [-87.89259, 34.81965], [-87.89051, 34.81951], [-87.88853, 34.82015], [-87.88631, 34.8191], [-87.88447, 34.81885], [-87.88247, 34.8193], [-87.88115, 34.82025], [-87.8813, 34.81039], [-87.88237, 34.80819], [-87.88213, 34.80683], [-87.88135, 34.80572], [-87.88138, 34.80403]]], [[[-87.89544, 34.84924], [-87.89546, 34.84919], [-87.89544, 34.84925], [-87.89544, 34.84924]]]]}, "properties": {"kind": "windland", "area_km2": 82.28}}, {"type": "Feature", "geometry": {"type": "MultiPolygon", "coordinates": [[[[-87.97106, 34.78294], [-87.96236, 34.78283], [-87.96244, 34.77627], [-87.96446, 34.77625], [-87.9644, 34.7812], [-87.9705, 34.78127], [-87.97056, 34.77775], [-87.96966, 34.77708], [-87.96929, 34.77621], [-87.97248, 34.77619], [-87.97248, 34.78293], [-87.97106, 34.78294]]], [[[-87.96172, 34.78161], [-87.96163, 34.79341], [-87.94821, 34.79299], [-87.94897, 34.79222], [-87.95321, 34.78491], [-87.95339, 34.77634], [-87.9554, 34.77632], [-87.95528, 34.78478], [-87.95488, 34.78595], [-87.95167, 34.79144], [-87.95962, 34.79169], [-87.95977, 34.77629], [-87.96178, 34.77627], [-87.96172, 34.78161]]], [[[-87.97148, 34.78518], [-87.97129, 34.79364], [-87.96228, 34.79339], [-87.96229, 34.79123], [-87.9628, 34.79127], [-87.9628, 34.79159], [-87.96422, 34.79168], [-87.96422, 34.79131], [-87.96451, 34.79096], [-87.9645, 34.79032], [-87.96426, 34.79002], [-87.9623, 34.7899], [-87.96236, 34.78337], [-87.97152, 34.78347], [-87.97148, 34.78518]], [[-87.96436, 34.78527], [-87.96433, 34.78831], [-87.96536, 34.78863], [-87.96624, 34.78944], [-87.96652, 34.79038], [-87.96629, 34.79183], [-87.96933, 34.79192], [-87.96946, 34.78514], [-87.96436, 34.78507], [-87.96436, 34.78527]]], [[[-87.97257, 34.78347], [-87.97267, 34.79247], [-87.97198, 34.79274], [-87.9721, 34.78612], [-87.97243, 34.78608], [-87.97257, 34.78586], [-87.97212, 34.78558], [-87.97217, 34.78347], [-87.97257, 34.78347]]], [[[-87.96281, 34.79072], [-87.96229, 34.79069], [-87.96229, 34.79044], [-87.963, 34.79045], [-87.96281, 34.79072]]], [[[-87.97196, 34.79332], [-87.97268, 34.79312], [-87.97269, 34.79369], [-87.97195, 34.79367], [-87.97196, 34.79332]]], [[[-87.97013, 34.79414], [-87.97958, 34.79446], [-87.97926, 34.79752], [-87.97867, 34.79977], [-87.97767, 34.80232], [-87.97646, 34.80449], [-87.97099, 34.80439], [-87.97103, 34.80304], [-87.97072, 34.80282], [-87.97039, 34.80303], [-87.97034, 34.80438], [-87.9622, 34.80421], [-87.96222, 34.79903], [-87.96435, 34.79847], [-87.96605, 34.79859], [-87.96668, 34.79876], [-87.96741, 34.79953], [-87.96842, 34.80005], [-87.97061, 34.8004], [-87.97096, 34.80013], [-87.97039, 34.79974], [-87.96864, 34.79953], [-87.9679, 34.79915], [-87.96774, 34.7988], [-87.96711, 34.79832], [-87.96619, 34.79806], [-87.96427, 34.79794], [-87.96223, 34.79848], [-87.96228, 34.79393], [-87.97013, 34.79414]], [[-87.96635, 34.7957], [-87.96428, 34.79564], [-87.96427, 34.79627], [-87.96637, 34.7964], [-87.96766, 34.7967], [-87.9685, 34.79711], [-87.96947, 34.79795], [-87.97085, 34.79812], [-87.97205, 34.7986], [-87.97253, 34.79901], [-87.97291, 34.79969], [-87.9729, 34.80063], [-87.97218, 34.80159], [-87.97269, 34.80206], [-87.97302, 34.80277], [-87.97519, 34.80281], [-87.9765, 34.80003], [-87.97723, 34.79744], [-87.97742, 34.79605], [-87.96635, 34.7957]], [[-87.96605, 34.80076], [-87.96542, 34.8002], [-87.96453, 34.80015], [-87.96424, 34.80029], [-87.96422, 34.80258], [-87.96842, 34.80267], [-87.96897, 34.80179], [-87.96758, 34.80156], [-87.96605, 34.80076]]], [[[-87.97862, 34.80175], [-87.97986, 34.79783], [-87.98023, 34.79449], [-87.98114, 34.79452], [-87.98222, 34.79623], [-87.98207, 34.79686], [-87.98239, 34.79708], [-87.98268, 34.79695], [-87.98292, 34.79627], [-87.98184, 34.79455], [-87.98363, 34.79461], [-87.98367, 34.79843], [-87.98278, 34.79872], [-87.98172, 34.79866], [-87.98029, 34.80283], [-87.98372, 34.80266], [-87.98374, 34.80432], [-87.97718, 34.8045], [-87.97862, 34.80175]]], [[[-87.96219, 34.80585], [-87.9622, 34.80475], [-87.97618, 34.80503], [-87.97506, 34.80731], [-87.97349, 34.81225], [-87.9729, 34.81225], [-87.9729, 34.81399], [-87.97127, 34.817], [-87.96883, 34.81982], [-87.96696, 34.82132], [-87.96208, 34.82136], [-87.96211, 34.82381], [-87.96197, 34.82387], [-87.96211, 34.81616], [-87.96354, 34.81615], [-87.9638, 34.81588], [-87.96353, 34.81562], [-87.96211, 34.81561], [-87.96219, 34.80585]], [[-87.97316, 34.80676], [-87.97321, 34.80665], [-87.96421, 34.80645], [-87.96415, 34.81404], [-87.96539, 34.81477], [-87.96582, 34.81583], [-87.96573, 34.8164], [-87.96532, 34.81707], [-87.9641, 34.81775], [-87.96404, 34.82103], [-87.96569, 34.82003], [-87.96729, 34.81874], [-87.96966, 34.81596], [-87.9711, 34.81317], [-87.97316, 34.80676]]], [[[-87.97984, 34.80633], [-87.97981, 34.80507], [-87.98375, 34.80487], [-87.98377, 34.80653], [-87.98186, 34.80661], [-87.98189, 34.81218], [-87.97987, 34.8122], [-87.97984, 34.80633]]], [[[-87.97508, 34.80936], [-87.9758, 34.80721], [-87.97689, 34.80504], [-87.97914, 34.80507], [-87.97921, 34.8122], [-87.9772, 34.81222], [-87.97721, 34.8092], [-87.97626, 34.81223], [-87.97417, 34.81224], [-87.97508, 34.80936]]], [[[-87.96932, 34.82018], [-87.97183, 34.81728], [-87.97294, 34.81542], [-87.97298, 34.8189], [-87.97284, 34.81908], [-87.97082, 34.82129], [-87.96796, 34.82131], [-87.96932, 34.82018]]], [[[-87.95271, 34.77871], [-87.95257, 34.78479], [-87.94799, 34.79242], [-87.94697, 34.79296], [-87.9445, 34.79292], [-87.94445, 34.79104], [-87.94384, 34.79052], [-87.94386, 34.78997], [-87.94355, 34.78978], [-87.94324, 34.78994], [-87.94316, 34.79052], [-87.94381, 34.79122], [-87.94384, 34.79291], [-87.93563, 34.79284], [-87.9355, 34.78884], [-87.9352, 34.78632], [-87.93619, 34.78315], [-87.93549, 34.78064], [-87.93543, 34.77758], [-87.93689, 34.77769], [-87.93803, 34.77757], [-87.93831, 34.77711], [-87.93836, 34.77637], [-87.93814, 34.77613], [-87.93779, 34.7762], [-87.93763, 34.77708], [-87.93599, 34.77716], [-87.93544, 34.77702], [-87.93551, 34.77182], [-87.93738, 34.77178], [-87.93764, 34.77151], [-87.93747, 34.77128], [-87.93697, 34.77119], [-87.93552, 34.77127], [-87.93558, 34.76746], [-87.93759, 34.76744], [-87.93756, 34.76959], [-87.9388, 34.77002], [-87.93948, 34.77077], [-87.93966, 34.77151], [-87.93948, 34.77226], [-87.93862, 34.77312], [-87.9375, 34.77344], [-87.93748, 34.7745], [-87.9386, 34.77451], [-87.93943, 34.77483], [-87.94004, 34.77539], [-87.94037, 34.77629], [-87.94027, 34.77748], [-87.93968, 34.77857], [-87.93879, 34.77911], [-87.93742, 34.77932], [-87.93748, 34.78035], [-87.93806, 34.78195], [-87.93821, 34.78311], [-87.93807, 34.78401], [-87.93722, 34.78635], [-87.9376, 34.79118], [-87.94131, 34.79122], [-87.94116, 34.79029], [-87.94148, 34.78913], [-87.94245, 34.78834], [-87.94356, 34.78811], [-87.94466, 34.78834], [-87.94537, 34.78883], [-87.94636, 34.79048], [-87.94653, 34.79127], [-87.95062, 34.78433], [-87.95072, 34.77636], [-87.95273, 34.77634], [-87.95271, 34.77871]]], [[[-87.94704, 34.79415], [-87.9476, 34.79353], [-87.96163, 34.79396], [-87.96146, 34.81556], [-87.96031, 34.81572], [-87.95484, 34.81815], [-87.94896, 34.82022], [-87.94745, 34.822], [-87.94709, 34.82212], [-87.94731, 34.82133], [-87.94699, 34.82108], [-87.94669, 34.82125], [-87.94641, 34.82213], [-87.94512, 34.82202], [-87.94512, 34.82153], [-87.94441, 34.82136], [-87.94377, 34.82134], [-87.94381, 34.82202], [-87.94461, 34.82205], [-87.94448, 34.82232], [-87.94471, 34.82253], [-87.9466, 34.8227], [-87.94579, 34.82437], [-87.94598, 34.82463], [-87.94639, 34.82463], [-87.94732, 34.82263], [-87.94837, 34.82201], [-87.94929, 34.82069], [-87.95512, 34.81863], [-87.96058, 34.81621], [-87.96145, 34.8161], [-87.9613, 34.8241], [-87.95732, 34.82558], [-87.95507, 34.82662], [-87.95155, 34.82864], [-87.94963, 34.83005], [-87.94914, 34.82981], [-87.94833, 34.82975], [-87.94666, 34.83049], [-87.94289, 34.83052], [-87.9422, 34.83012], [-87.94153, 34.83024], [-87.94112, 34.83054], [-87.93806, 34.83056], [-87.93769, 34.82902], [-87.93708, 34.82784], [-87.93705, 34.82641], [-87.93818, 34.82686], [-87.93904, 34.82691], [-87.93929, 34.82675], [-87.93943, 34.82614], [-87.93917, 34.82589], [-87.93699, 34.8253], [-87.93653, 34.82359], [-87.93732, 34.82342], [-87.93747, 34.82314], [-87.93824, 34.82268], [-87.93895, 34.82282], [-87.93907, 34.82256], [-87.93881, 34.82216], [-87.93919, 34.8211], [-87.94138, 34.82005], [-87.94243, 34.81999], [-87.94276, 34.81969], [-87.94274, 34.81919], [-87.94247, 34.81906], [-87.94198, 34.81919], [-87.94126, 34.81909], [-87.93876, 34.82014], [-87.93798, 34.82084], [-87.93764, 34.82154], [-87.9369, 34.82159], [-87.93675, 34.82194], [-87.9359, 34.82244], [-87.93275, 34.8165], [-87.92927, 34.81107], [-87.92178, 34.80072], [-87.91695, 34.79604], [-87.90705, 34.78893], [-87.90702, 34.78648], [-87.91842, 34.79466], [-87.92299, 34.79906], [-87.92334, 34.79826], [-87.92326, 34.79676], [-87.92245, 34.79638], [-87.9218, 34.79561], [-87.92166, 34.79468], [-87.92195, 34.79396], [-87.92274, 34.79329], [-87.92383, 34.79299], [-87.92431, 34.79192], [-87.92554, 34.79113], [-87.92649, 34.79099], [-87.93291, 34.79111], [-87.93257, 34.78574], [-87.93179, 34.78581], [-87.93074, 34.78556], [-87.92941, 34.78455], [-87.92841, 34.78294], [-87.92819, 34.78033], [-87.90695, 34.78015], [-87.90694, 34.77849], [-87.93021, 34.77866], [-87.93038, 34.78257], [-87.93109, 34.78363], [-87.93198, 34.78415], [-87.93225, 34.78402], [-87.93229, 34.78379], [-87.9316, 34.78329], [-87.93103, 34.78244], [-87.93105, 34.78212], [-87.93262, 34.78258], [-87.93292, 34.7825], [-87.933, 34.78228], [-87.93281, 34.78207], [-87.93108, 34.78153], [-87.93087, 34.78054], [-87.93086, 34.77867], [-87.93475, 34.7787], [-87.93484, 34.78071], [-87.93554, 34.78314], [-87.93454, 34.7863], [-87.93485, 34.78887], [-87.93497, 34.79279], [-87.92608, 34.79276], [-87.92539, 34.79498], [-87.924, 34.79465], [-87.92366, 34.79489], [-87.92385, 34.79517], [-87.92528, 34.79552], [-87.92537, 34.79864], [-87.92502, 34.79944], [-87.92558, 34.79966], [-87.92635, 34.79955], [-87.92639, 34.79921], [-87.926, 34.79878], [-87.92585, 34.79607], [-87.92699, 34.79608], [-87.92725, 34.79586], [-87.92705, 34.79556], [-87.92596, 34.79547], [-87.9265, 34.7932], [-87.94553, 34.79348], [-87.93666, 34.79666], [-87.93426, 34.79782], [-87.93349, 34.79861], [-87.93314, 34.79939], [-87.93303, 34.80132], [-87.93236, 34.80134], [-87.93128, 34.80274], [-87.93122, 34.80366], [-87.92803, 34.80696], [-87.92699, 34.80755], [-87.92724, 34.80778], [-87.93306, 34.80821], [-87.93308, 34.81401], [-87.93325, 34.81425], [-87.93356, 34.81425], [-87.93373, 34.81403], [-87.93372, 34.80926], [-87.93404, 34.80856], [-87.93462, 34.80816], [-87.93609, 34.8081], [-87.93615, 34.80921], [-87.93858, 34.80951], [-87.93904, 34.80915], [-87.93847, 34.81031], [-87.93724, 34.811], [-87.93649, 34.81219], [-87.9368, 34.81252], [-87.93708, 34.81241], [-87.93779, 34.8113], [-87.939, 34.81063], [-87.93958, 34.80946], [-87.94042, 34.80846], [-87.94038, 34.80658], [-87.94009, 34.80614], [-87.94009, 34.8055], [-87.94007, 34.7977], [-87.94035, 34.79704], [-87.94132, 34.79625], [-87.94704, 34.79415]], [[-87.95149, 34.81754], [-87.95472, 34.81635], [-87.95946, 34.81421], [-87.95959, 34.79556], [-87.94867, 34.79522], [-87.94793, 34.79565], [-87.94218, 34.79777], [-87.94211, 34.80562], [-87.94238, 34.80638], [-87.94248, 34.80814], [-87.94224, 34.8092], [-87.94129, 34.81035], [-87.94072, 34.81151], [-87.94009, 34.81209], [-87.93934, 34.81245], [-87.93842, 34.81365], [-87.93721, 34.81416], [-87.93575, 34.81397], [-87.93548, 34.81492], [-87.93471, 34.81562], [-87.93668, 34.81922], [-87.93756, 34.81859], [-87.9404, 34.81739], [-87.94283, 34.81724], [-87.94396, 34.81762], [-87.94475, 34.81839], [-87.94501, 34.81918], [-87.94485, 34.82034], [-87.94572, 34.81973], [-87.94707, 34.81942], [-87.94781, 34.81885], [-87.94878, 34.81842], [-87.95149, 34.81754]], [[-87.9513, 34.8267], [-87.95565, 34.82442], [-87.95931, 34.82299], [-87.95939, 34.81869], [-87.95519, 34.82045], [-87.95072, 34.82195], [-87.94998, 34.82301], [-87.94898, 34.8238], [-87.94818, 34.8255], [-87.9477, 34.82592], [-87.94686, 34.82625], [-87.94533, 34.82621], [-87.94424, 34.82555], [-87.94384, 34.82486], [-87.94381, 34.82402], [-87.94316, 34.82365], [-87.94265, 34.82303], [-87.94251, 34.82189], [-87.94128, 34.82233], [-87.9411, 34.82344], [-87.94028, 34.82429], [-87.94141, 34.82526], [-87.94165, 34.82643], [-87.94109, 34.82785], [-87.93986, 34.82862], [-87.93997, 34.82909], [-87.94092, 34.82865], [-87.94258, 34.82848], [-87.94361, 34.82883], [-87.94468, 34.82971], [-87.94615, 34.82874], [-87.9472, 34.82828], [-87.94921, 34.82811], [-87.9513, 34.8267]], [[-87.92955, 34.80062], [-87.93102, 34.80009], [-87.93149, 34.79823], [-87.93277, 34.7967], [-87.9336, 34.79615], [-87.9361, 34.79504], [-87.929, 34.7949], [-87.92926, 34.79562], [-87.92917, 34.79637], [-87.92875, 34.79704], [-87.92802, 34.79752], [-87.92803, 34.79823], [-87.92843, 34.79934], [-87.92812, 34.80034], [-87.92756, 34.80091], [-87.92679, 34.80126], [-87.92591, 34.80135], [-87.92471, 34.80118], [-87.9257, 34.80255], [-87.92685, 34.80219], [-87.92805, 34.80211], [-87.92863, 34.80132], [-87.92955, 34.80062]], [[-87.92843, 34.80612], [-87.92859, 34.80563], [-87.92829, 34.80521], [-87.92772, 34.80507], [-87.92717, 34.80533], [-87.92701, 34.8058], [-87.92729, 34.80622], [-87.92787, 34.80637], [-87.92843, 34.80612]], [[-87.93089, 34.8097], [-87.93088, 34.8097], [-87.93108, 34.80998], [-87.93107, 34.80973], [-87.93089, 34.8097]]], [[[-87.94639, 34.79376], [-87.94664, 34.79367], [-87.94333, 34.79491], [-87.94445, 34.79447], [-87.94639, 34.79376]]], [[[-87.96193, 34.8262], [-87.96195, 34.82446], [-87.96211, 34.8244], [-87.96218, 34.83037], [-87.96187, 34.83037], [-87.96193, 34.8262]]], [[[-87.95473, 34.82744], [-87.9576, 34.82606], [-87.96129, 34.82469], [-87.96121, 34.83038], [-87.95919, 34.8304], [-87.95924, 34.82726], [-87.95647, 34.8285], [-87.9531, 34.83044], [-87.95014, 34.83047], [-87.95195, 34.82906], [-87.95473, 34.82744]]], [[[-87.94893, 34.83032], [-87.94914, 34.83043], [-87.94783, 34.83048], [-87.9484, 34.83029], [-87.94893, 34.83032]]], [[[-87.93481, 34.77555], [-87.93444, 34.77549], [-87.93462, 34.77507], [-87.93481, 34.77506], [-87.93481, 34.77555]]], [[[-87.94011, 34.79638], [-87.93941, 34.79765], [-87.93943, 34.80472], [-87.93742, 34.80474], [-87.9374, 34.80434], [-87.93669, 34.80435], [-87.9365, 34.80398], [-87.93368, 34.80131], [-87.93377, 34.79953], [-87.93427, 34.7986], [-87.93495, 34.79805], [-87.9405, 34.79605], [-87.94011, 34.79638]], [[-87.93571, 34.80051], [-87.9357, 34.80097], [-87.93739, 34.80129], [-87.93737, 34.79897], [-87.93588, 34.79962], [-87.93571, 34.80051]]], [[[-87.93975, 34.80694], [-87.93972, 34.80661], [-87.93973, 34.80665], [-87.93975, 34.80694]]], [[[-87.93062, 34.77646], [-87.93123, 34.77647], [-87.93102, 34.77575], [-87.93115, 34.77501], [-87.93236, 34.77375], [-87.93185, 34.77294], [-87.93192, 34.77186], [-87.93088, 34.76997], [-87.93093, 34.76884], [-87.9314, 34.76819], [-87.93234, 34.76766], [-87.9329, 34.76748], [-87.93492, 34.76746], [-87.93489, 34.76934], [-87.93427, 34.76904], [-87.93398, 34.76924], [-87.93303, 34.76923], [-87.93282, 34.76947], [-87.93307, 34.76974], [-87.93488, 34.76988], [-87.93487, 34.7707], [-87.93379, 34.77045], [-87.93348, 34.77071], [-87.93418, 34.77122], [-87.93486, 34.77124], [-87.93485, 34.772], [-87.93397, 34.77226], [-87.93381, 34.77248], [-87.93408, 34.77276], [-87.93484, 34.77264], [-87.93481, 34.77452], [-87.93413, 34.77458], [-87.93376, 34.77547], [-87.93327, 34.77539], [-87.93303, 34.77564], [-87.93314, 34.77585], [-87.93356, 34.776], [-87.93479, 34.7761], [-87.93475, 34.77816], [-87.90693, 34.77794], [-87.90692, 34.77669], [-87.93062, 34.77646]]], [[[-87.89763, 34.80112], [-87.89904, 34.8038], [-87.89628, 34.80382], [-87.89623, 34.79907], [-87.89763, 34.80112]]], [[[-87.90009, 34.80329], [-87.90024, 34.80349], [-87.9002, 34.80356], [-87.90002, 34.80316], [-87.90004, 34.80315], [-87.90009, 34.80329]]], [[[-87.90776, 34.81368], [-87.90864, 34.81449], [-87.90855, 34.81459], [-87.90802, 34.8143], [-87.90733, 34.81449], [-87.90732, 34.81381], [-87.90776, 34.81368]]], [[[-87.90839, 34.81553], [-87.90868, 34.81528], [-87.90922, 34.81597], [-87.90823, 34.81584], [-87.90804, 34.81561], [-87.90839, 34.81553]]], [[[-87.90782, 34.81628], [-87.90909, 34.81652], [-87.90971, 34.81693], [-87.91075, 34.81676], [-87.91178, 34.81784], [-87.91251, 34.81788], [-87.9125, 34.81839], [-87.91314, 34.81891], [-87.91357, 34.81994], [-87.9144, 34.82011], [-87.91642, 34.82171], [-87.91287, 34.82171], [-87.91184, 34.82111], [-87.91106, 34.81983], [-87.90981, 34.81991], [-87.91098, 34.82175], [-87.90871, 34.82177], [-87.90739, 34.81969], [-87.90734, 34.81572], [-87.90782, 34.81628]]], [[[-87.90764, 34.82124], [-87.90797, 34.82176], [-87.90797, 34.82177], [-87.90741, 34.82178], [-87.9074, 34.82087], [-87.90764, 34.82124]]], [[[-87.92062, 34.82908], [-87.92027, 34.82941], [-87.92109, 34.83069], [-87.91844, 34.83071], [-87.91842, 34.82825], [-87.91858, 34.82805], [-87.91841, 34.82773], [-87.91836, 34.82307], [-87.92152, 34.82913], [-87.92138, 34.82926], [-87.92062, 34.82908]]]]}, "properties": {"kind": "pv", "area_km2": 14.11, "mw": 705.7}}, {"type": "Feature", "geometry": {"type": "Point", "coordinates": [-87.93581, 34.79985]}, "properties": {"kind": "turbine", "i": 0, "mw": 6.0, "hub_m": 120.0, "rotor_m": 150.0}}, {"type": "Feature", "geometry": {"type": "Point", "coordinates": [-87.9479, 34.80964]}, "properties": {"kind": "turbine", "i": 1, "mw": 6.0, "hub_m": 120.0, "rotor_m": 150.0}}, {"type": "Feature", "geometry": {"type": "Point", "coordinates": [-87.95178, 34.79973]}, "properties": {"kind": "turbine", "i": 2, "mw": 6.0, "hub_m": 120.0, "rotor_m": 150.0}}, {"type": "Feature", "geometry": {"type": "Point", "coordinates": [-87.93969, 34.78995]}, "properties": {"kind": "turbine", "i": 3, "mw": 6.0, "hub_m": 120.0, "rotor_m": 150.0}}, {"type": "Feature", "geometry": {"type": "Point", "coordinates": [-87.936, 34.81632]}, "properties": {"kind": "turbine", "i": 4, "mw": 6.0, "hub_m": 120.0, "rotor_m": 150.0}}, {"type": "Feature", "geometry": {"type": "Point", "coordinates": [-87.95566, 34.78982]}, "properties": {"kind": "turbine", "i": 5, "mw": 6.0, "hub_m": 120.0, "rotor_m": 150.0}}, {"type": "Feature", "geometry": {"type": "Point", "coordinates": [-87.91978, 34.79339]}, "properties": {"kind": "turbine", "i": 6, "mw": 6.0, "hub_m": 120.0, "rotor_m": 150.0}}, {"type": "Feature", "geometry": {"type": "Point", "coordinates": [-87.92765, 34.78345]}, "properties": {"kind": "turbine", "i": 7, "mw": 6.0, "hub_m": 120.0, "rotor_m": 150.0}}, {"type": "Feature", "geometry": {"type": "Point", "coordinates": [-87.94357, 34.78004]}, "properties": {"kind": "turbine", "i": 8, "mw": 6.0, "hub_m": 120.0, "rotor_m": 150.0}}, {"type": "Feature", "geometry": {"type": "Point", "coordinates": [-87.9441, 34.82613]}, "properties": {"kind": "turbine", "i": 9, "mw": 6.0, "hub_m": 120.0, "rotor_m": 150.0}}, {"type": "Feature", "geometry": {"type": "Point", "coordinates": [-87.95604, 34.82275]}, "properties": {"kind": "turbine", "i": 10, "mw": 6.0, "hub_m": 120.0, "rotor_m": 150.0}}, {"type": "Feature", "geometry": {"type": "Point", "coordinates": [-87.96786, 34.80948]}, "properties": {"kind": "turbine", "i": 11, "mw": 6.0, "hub_m": 120.0, "rotor_m": 150.0}}, {"type": "Feature", "geometry": {"type": "Point", "coordinates": [-87.96759, 34.78643]}, "properties": {"kind": "turbine", "i": 12, "mw": 6.0, "hub_m": 120.0, "rotor_m": 150.0}}, {"type": "Feature", "geometry": {"type": "Point", "coordinates": [-87.9555, 34.77665]}, "properties": {"kind": "turbine", "i": 13, "mw": 6.0, "hub_m": 120.0, "rotor_m": 150.0}}, {"type": "Feature", "geometry": {"type": "Point", "coordinates": [-87.97569, 34.79625]}, "properties": {"kind": "turbine", "i": 14, "mw": 6.0, "hub_m": 120.0, "rotor_m": 150.0}}, {"type": "Feature", "geometry": {"type": "Point", "coordinates": [-87.91168, 34.78357]}, "properties": {"kind": "turbine", "i": 15, "mw": 6.0, "hub_m": 120.0, "rotor_m": 150.0}}, {"type": "Feature", "geometry": {"type": "Point", "coordinates": [-87.97596, 34.81929]}, "properties": {"kind": "turbine", "i": 16, "mw": 6.0, "hub_m": 120.0, "rotor_m": 150.0}}, {"type": "Feature", "geometry": {"type": "Point", "coordinates": [-87.9041, 34.81985]}, "properties": {"kind": "turbine", "i": 17, "mw": 6.0, "hub_m": 120.0, "rotor_m": 150.0}}, {"type": "Feature", "geometry": {"type": "Point", "coordinates": [-87.94741, 34.76684]}, "properties": {"kind": "turbine", "i": 18, "mw": 6.0, "hub_m": 120.0, "rotor_m": 150.0}}, {"type": "Feature", "geometry": {"type": "Point", "coordinates": [-87.98383, 34.80935]}, "properties": {"kind": "turbine", "i": 19, "mw": 6.0, "hub_m": 120.0, "rotor_m": 150.0}}, {"type": "Feature", "geometry": {"type": "Point", "coordinates": [-87.91952, 34.77034]}, "properties": {"kind": "turbine", "i": 20, "mw": 6.0, "hub_m": 120.0, "rotor_m": 150.0}}, {"type": "Feature", "geometry": {"type": "Point", "coordinates": [-87.89601, 34.81003]}, "properties": {"kind": "turbine", "i": 21, "mw": 6.0, "hub_m": 120.0, "rotor_m": 150.0}}, {"type": "Feature", "geometry": {"type": "Point", "coordinates": [-87.96744, 34.77327]}, "properties": {"kind": "turbine", "i": 22, "mw": 6.0, "hub_m": 120.0, "rotor_m": 150.0}}, {"type": "Feature", "geometry": {"type": "Point", "coordinates": [-87.9877, 34.79944]}, "properties": {"kind": "turbine", "i": 23, "mw": 6.0, "hub_m": 120.0, "rotor_m": 150.0}}, {"type": "Feature", "geometry": {"type": "Point", "coordinates": [-87.90759, 34.77373]}, "properties": {"kind": "turbine", "i": 24, "mw": 6.0, "hub_m": 120.0, "rotor_m": 150.0}}, {"type": "Feature", "geometry": {"type": "Point", "coordinates": [-87.89191, 34.80018]}, "properties": {"kind": "turbine", "i": 25, "mw": 6.0, "hub_m": 120.0, "rotor_m": 150.0}}, {"type": "Feature", "geometry": {"type": "Point", "coordinates": [-87.93142, 34.76367]}, "properties": {"kind": "turbine", "i": 26, "mw": 6.0, "hub_m": 120.0, "rotor_m": 150.0}}, {"type": "Feature", "geometry": {"type": "Point", "coordinates": [-87.95227, 34.84253]}, "properties": {"kind": "turbine", "i": 27, "mw": 6.0, "hub_m": 120.0, "rotor_m": 150.0}}, {"type": "Feature", "geometry": {"type": "Point", "coordinates": [-87.91629, 34.83951]}, "properties": {"kind": "turbine", "i": 28, "mw": 6.0, "hub_m": 120.0, "rotor_m": 150.0}}, {"type": "Feature", "geometry": {"type": "Point", "coordinates": [-87.97612, 34.83246]}, "properties": {"kind": "turbine", "i": 29, "mw": 6.0, "hub_m": 120.0, "rotor_m": 150.0}}, {"type": "Feature", "geometry": {"type": "Point", "coordinates": [-87.98347, 34.77972]}, "properties": {"kind": "turbine", "i": 30, "mw": 6.0, "hub_m": 120.0, "rotor_m": 150.0}}, {"type": "Feature", "geometry": {"type": "Point", "coordinates": [-87.96825, 34.8424]}, "properties": {"kind": "turbine", "i": 31, "mw": 6.0, "hub_m": 120.0, "rotor_m": 150.0}}, {"type": "Feature", "geometry": {"type": "Point", "coordinates": [-87.94331, 34.75699]}, "properties": {"kind": "turbine", "i": 32, "mw": 6.0, "hub_m": 120.0, "rotor_m": 150.0}}, {"type": "Feature", "geometry": {"type": "Point", "coordinates": [-87.90029, 34.83634]}, "properties": {"kind": "turbine", "i": 33, "mw": 6.0, "hub_m": 120.0, "rotor_m": 150.0}}, {"type": "Feature", "geometry": {"type": "Point", "coordinates": [-87.88407, 34.81341]}, "properties": {"kind": "turbine", "i": 34, "mw": 6.0, "hub_m": 120.0, "rotor_m": 150.0}}, {"type": "Feature", "geometry": {"type": "Point", "coordinates": [-87.98805, 34.82907]}, "properties": {"kind": "turbine", "i": 35, "mw": 6.0, "hub_m": 120.0, "rotor_m": 150.0}}, {"type": "Feature", "geometry": {"type": "Point", "coordinates": [-87.99556, 34.7895]}, "properties": {"kind": "turbine", "i": 36, "mw": 6.0, "hub_m": 120.0, "rotor_m": 150.0}}, {"type": "Feature", "geometry": {"type": "Point", "coordinates": [-87.95927, 34.75687]}, "properties": {"kind": "turbine", "i": 37, "mw": 6.0, "hub_m": 120.0, "rotor_m": 150.0}}, {"type": "Feature", "geometry": {"type": "Point", "coordinates": [-87.99592, 34.81913]}, "properties": {"kind": "turbine", "i": 38, "mw": 6.0, "hub_m": 120.0, "rotor_m": 150.0}}, {"type": "Feature", "geometry": {"type": "Point", "coordinates": [-87.91937, 34.75717]}, "properties": {"kind": "turbine", "i": 39, "mw": 6.0, "hub_m": 120.0, "rotor_m": 150.0}}, {"type": "Feature", "geometry": {"type": "Point", "coordinates": [-87.89163, 34.77384]}, "properties": {"kind": "turbine", "i": 40, "mw": 6.0, "hub_m": 120.0, "rotor_m": 150.0}}, {"type": "Feature", "geometry": {"type": "Point", "coordinates": [-87.99979, 34.80922]}, "properties": {"kind": "turbine", "i": 41, "mw": 6.0, "hub_m": 120.0, "rotor_m": 150.0}}, {"type": "Feature", "geometry": {"type": "Point", "coordinates": [-87.90744, 34.76056]}, "properties": {"kind": "turbine", "i": 42, "mw": 6.0, "hub_m": 120.0, "rotor_m": 150.0}}, {"type": "Feature", "geometry": {"type": "Point", "coordinates": [-87.98332, 34.76655]}, "properties": {"kind": "turbine", "i": 43, "mw": 6.0, "hub_m": 120.0, "rotor_m": 150.0}}, {"type": "Feature", "geometry": {"type": "Point", "coordinates": [-87.93127, 34.7505]}, "properties": {"kind": "turbine", "i": 44, "mw": 6.0, "hub_m": 120.0, "rotor_m": 150.0}}, {"type": "Feature", "geometry": {"type": "Point", "coordinates": [-87.98422, 34.84228]}, "properties": {"kind": "turbine", "i": 45, "mw": 6.0, "hub_m": 120.0, "rotor_m": 150.0}}, {"type": "Feature", "geometry": {"type": "Point", "coordinates": [-87.88021, 34.82661]}, "properties": {"kind": "turbine", "i": 46, "mw": 6.0, "hub_m": 120.0, "rotor_m": 150.0}}, {"type": "Feature", "geometry": {"type": "Point", "coordinates": [-87.96041, 34.85564]}, "properties": {"kind": "turbine", "i": 47, "mw": 6.0, "hub_m": 120.0, "rotor_m": 150.0}}, {"type": "Feature", "geometry": {"type": "Point", "coordinates": [-87.9994, 34.7763]}, "properties": {"kind": "turbine", "i": 48, "mw": 6.0, "hub_m": 120.0, "rotor_m": 150.0}}, {"type": "Feature", "geometry": {"type": "Point", "coordinates": [-87.97235, 34.85225]}, "properties": {"kind": "turbine", "i": 49, "mw": 6.0, "hub_m": 120.0, "rotor_m": 150.0}}, {"type": "Feature", "geometry": {"type": "Point", "coordinates": [-87.87202, 34.80691]}, "properties": {"kind": "turbine", "i": 50, "mw": 6.0, "hub_m": 120.0, "rotor_m": 150.0}}, {"type": "Feature", "geometry": {"type": "Point", "coordinates": [-88.00762, 34.79599]}, "properties": {"kind": "turbine", "i": 51, "mw": 6.0, "hub_m": 120.0, "rotor_m": 150.0}}, {"type": "Feature", "geometry": {"type": "Point", "coordinates": [-87.90446, 34.85277]}, "properties": {"kind": "turbine", "i": 52, "mw": 6.0, "hub_m": 120.0, "rotor_m": 150.0}}, {"type": "Feature", "geometry": {"type": "Point", "coordinates": [-87.92051, 34.85924]}, "properties": {"kind": "turbine", "i": 53, "mw": 6.0, "hub_m": 120.0, "rotor_m": 150.0}}, {"type": "Feature", "geometry": {"type": "Point", "coordinates": [-88.00403, 34.82894]}, "properties": {"kind": "turbine", "i": 54, "mw": 6.0, "hub_m": 120.0, "rotor_m": 150.0}}, {"type": "Feature", "geometry": {"type": "Point", "coordinates": [-88.01173, 34.80583]}, "properties": {"kind": "turbine", "i": 55, "mw": 6.0, "hub_m": 120.0, "rotor_m": 150.0}}, {"type": "Feature", "geometry": {"type": "Point", "coordinates": [-87.91528, 34.74733]}, "properties": {"kind": "turbine", "i": 56, "mw": 6.0, "hub_m": 120.0, "rotor_m": 150.0}}, {"type": "Feature", "geometry": {"type": "Point", "coordinates": [-87.86793, 34.79706]}, "properties": {"kind": "turbine", "i": 57, "mw": 6.0, "hub_m": 120.0, "rotor_m": 150.0}}, {"type": "Feature", "geometry": {"type": "Point", "coordinates": [-87.99525, 34.76316]}, "properties": {"kind": "turbine", "i": 58, "mw": 6.0, "hub_m": 120.0, "rotor_m": 150.0}}, {"type": "Feature", "geometry": {"type": "Point", "coordinates": [-87.87174, 34.78057]}, "properties": {"kind": "turbine", "i": 59, "mw": 6.0, "hub_m": 120.0, "rotor_m": 150.0}}, {"type": "Feature", "geometry": {"type": "Point", "coordinates": [-88.00015, 34.83885]}, "properties": {"kind": "turbine", "i": 60, "mw": 6.0, "hub_m": 120.0, "rotor_m": 150.0}}, {"type": "Feature", "geometry": {"type": "Point", "coordinates": [-88.01189, 34.819]}, "properties": {"kind": "turbine", "i": 61, "mw": 6.0, "hub_m": 120.0, "rotor_m": 150.0}}, {"type": "Feature", "geometry": {"type": "Point", "coordinates": [-87.87633, 34.83652]}, "properties": {"kind": "turbine", "i": 62, "mw": 6.0, "hub_m": 120.0, "rotor_m": 150.0}}, {"type": "Feature", "geometry": {"type": "Point", "coordinates": [-88.01145, 34.78279]}, "properties": {"kind": "turbine", "i": 63, "mw": 6.0, "hub_m": 120.0, "rotor_m": 150.0}}, {"type": "Feature", "geometry": {"type": "Point", "coordinates": [-87.8835, 34.76073]}, "properties": {"kind": "turbine", "i": 64, "mw": 6.0, "hub_m": 120.0, "rotor_m": 150.0}}, {"type": "Feature", "geometry": {"type": "Point", "coordinates": [-87.90856, 34.86262]}, "properties": {"kind": "turbine", "i": 65, "mw": 6.0, "hub_m": 120.0, "rotor_m": 150.0}}, {"type": "Feature", "geometry": {"type": "Point", "coordinates": [-87.99114, 34.75332]}, "properties": {"kind": "turbine", "i": 66, "mw": 6.0, "hub_m": 120.0, "rotor_m": 150.0}}, {"type": "Feature", "geometry": {"type": "Point", "coordinates": [-87.99232, 34.85209]}, "properties": {"kind": "turbine", "i": 67, "mw": 6.0, "hub_m": 120.0, "rotor_m": 150.0}}, {"type": "Feature", "geometry": {"type": "Point", "coordinates": [-87.86421, 34.82343]}, "properties": {"kind": "turbine", "i": 68, "mw": 6.0, "hub_m": 120.0, "rotor_m": 150.0}}, {"type": "Feature", "geometry": {"type": "Point", "coordinates": [-87.9326, 34.86902]}, "properties": {"kind": "turbine", "i": 69, "mw": 6.0, "hub_m": 120.0, "rotor_m": 150.0}}, {"type": "Feature", "geometry": {"type": "Point", "coordinates": [-88.01955, 34.7926]}, "properties": {"kind": "turbine", "i": 70, "mw": 6.0, "hub_m": 120.0, "rotor_m": 150.0}}, {"type": "Feature", "geometry": {"type": "Point", "coordinates": [-87.89533, 34.74748]}, "properties": {"kind": "turbine", "i": 71, "mw": 6.0, "hub_m": 120.0, "rotor_m": 150.0}}, {"type": "Feature", "geometry": {"type": "Point", "coordinates": [-87.95505, 34.73714]}, "properties": {"kind": "turbine", "i": 72, "mw": 6.0, "hub_m": 120.0, "rotor_m": 150.0}}, {"type": "Feature", "geometry": {"type": "Point", "coordinates": [-87.92314, 34.73739]}, "properties": {"kind": "turbine", "i": 73, "mw": 6.0, "hub_m": 120.0, "rotor_m": 150.0}}]}