{"type": "FeatureCollection", "features": [{"type": "Feature", "geometry": {"type": "MultiPolygon", "coordinates": [[[[-87.98171, 34.82677], [-87.98185, 34.81668], [-87.98255, 34.81527], [-87.98188, 34.81395], [-87.98186, 34.80661], [-87.98627, 34.80637], [-87.98773, 34.80545], [-87.98967, 34.80527], [-87.99072, 34.80411], [-87.98992, 34.81078], [-87.98875, 34.81478], [-87.98503, 34.8224], [-87.98171, 34.82677]]], [[[-87.99039, 34.7994], [-87.98408, 34.80265], [-87.98029, 34.80283], [-87.98172, 34.79866], [-87.983, 34.79868], [-87.984, 34.79822], [-87.98494, 34.79632], [-87.98699, 34.79638], [-87.98762, 34.7973], [-87.9886, 34.79778], [-87.99034, 34.79765], [-87.99039, 34.7994]]], [[[-87.94993, 34.84398], [-87.94845, 34.84373], [-87.94721, 34.8415], [-87.94867, 34.84126], [-87.95476, 34.84156], [-87.95646, 34.84087], [-87.95756, 34.83965], [-87.95783, 34.83759], [-87.95684, 34.83575], [-87.95511, 34.83467], [-87.95248, 34.83424], [-87.95283, 34.8322], [-87.9526, 34.83081], [-87.95924, 34.82726], [-87.95918, 34.8346], [-87.9597, 34.83581], [-87.96083, 34.83681], [-87.95925, 34.83902], [-87.95906, 34.84181], [-87.95521, 34.84298], [-87.94993, 34.84398]]], [[[-87.96403, 34.83977], [-87.96557, 34.83793], [-87.96589, 34.83667], [-87.96539, 34.83504], [-87.96383, 34.83382], [-87.96386, 34.83267], [-87.97406, 34.83273], [-87.97637, 34.83225], [-87.96863, 34.83761], [-87.96387, 34.83996], [-87.96403, 34.83977]]], [[[-87.95537, 34.7799], [-87.95543, 34.77371], [-87.95942, 34.77141], [-87.95982, 34.77221], [-87.95962, 34.79169], [-87.95167, 34.79144], [-87.95519, 34.78524], [-87.95537, 34.7799]]], [[[-87.93677, 34.79912], [-87.93737, 34.79897], [-87.93739, 34.80129], [-87.9357, 34.80097], [-87.93585, 34.79966], [-87.93677, 34.79912]]], [[[-87.93571, 34.81438], [-87.93575, 34.81397], [-87.93721, 34.81416], [-87.93842, 34.81365], [-87.93934, 34.81245], [-87.94072, 34.81151], [-87.94233, 34.809], [-87.94218, 34.79777], [-87.94867, 34.79522], [-87.95959, 34.79556], [-87.95946, 34.81421], [-87.95397, 34.81665], [-87.94878, 34.81842], [-87.94707, 34.81942], [-87.94592, 34.81963], [-87.94499, 34.82034], [-87.94463, 34.81822], [-87.94283, 34.81724], [-87.9404, 34.81739], [-87.93668, 34.81922], [-87.93471, 34.81562], [-87.93571, 34.81438]]], [[[-87.93089, 34.8097], [-87.93107, 34.80973], [-87.93108, 34.80998], [-87.93088, 34.8097], [-87.93089, 34.8097]]], [[[-87.93113, 34.79919], [-87.93102, 34.80009], [-87.92921, 34.80082], [-87.92805, 34.80211], [-87.9257, 34.80255], [-87.92471, 34.80118], [-87.92679, 34.80126], [-87.92812, 34.80034], [-87.92843, 34.79934], [-87.92802, 34.79752], [-87.92917, 34.79637], [-87.929, 34.7949], [-87.9361, 34.79504], [-87.93277, 34.7967], [-87.93177, 34.79775], [-87.93113, 34.79919]]], [[[-87.94663, 34.79116], [-87.94537, 34.78883], [-87.94356, 34.78811], [-87.94245, 34.78834], [-87.94148, 34.78913], [-87.94131, 34.79122], [-87.9376, 34.79118], [-87.93722, 34.78635], [-87.93821, 34.78311], [-87.93742, 34.77932], [-87.93879, 34.77911], [-87.93968, 34.77857], [-87.94037, 34.77629], [-87.93943, 34.77483], [-87.93748, 34.7745], [-87.9375, 34.77344], [-87.93897, 34.77288], [-87.93966, 34.77151], [-87.93913, 34.77029], [-87.93756, 34.76959], [-87.93762, 34.76576], [-87.95037, 34.76593], [-87.95086, 34.767], [-87.95062, 34.78433], [-87.94663, 34.79116]]], [[[-87.95027, 34.76204], [-87.93768, 34.7619], [-87.93769, 34.76119], [-87.9445, 34.76127], [-87.95027, 34.76204]]], [[[-87.93299, 34.76198], [-87.9329, 34.76756], [-87.93156, 34.76806], [-87.93083, 34.76921], [-87.93236, 34.77375], [-87.93115, 34.77501], [-87.93123, 34.77647], [-87.90096, 34.77624], [-87.90742, 34.77086], [-87.91565, 34.76623], [-87.92481, 34.76302], [-87.93299, 34.76155], [-87.93299, 34.76198]]], [[[-87.96844, 34.7711], [-87.96868, 34.77038], [-87.97057, 34.77257], [-87.97057, 34.77427], [-87.96969, 34.77493], [-87.96928, 34.776], [-87.96966, 34.77708], [-87.97056, 34.77775], [-87.9705, 34.78127], [-87.9644, 34.7812], [-87.96449, 34.77396], [-87.96702, 34.77298], [-87.96844, 34.7711]]], [[[-87.90981, 34.81991], [-87.91106, 34.81983], [-87.91202, 34.82126], [-87.91335, 34.82182], [-87.91665, 34.82434], [-87.91858, 34.82805], [-87.91822, 34.82857], [-87.91799, 34.82701], [-87.91712, 34.8256], [-87.91506, 34.82422], [-87.91237, 34.82392], [-87.90981, 34.81991]]], [[[-87.94267, 34.83384], [-87.9421, 34.83426], [-87.94172, 34.83351], [-87.94209, 34.83334], [-87.94267, 34.83384]]], [[[-87.94071, 34.82872], [-87.93999, 34.82913], [-87.93986, 34.82862], [-87.94109, 34.82785], [-87.94165, 34.82643], [-87.94141, 34.82526], [-87.94028, 34.82429], [-87.9411, 34.82344], [-87.94128, 34.82233], [-87.94251, 34.82189], [-87.94265, 34.82303], [-87.94381, 34.82402], [-87.94424, 34.82555], [-87.94533, 34.82621], [-87.94686, 34.82625], [-87.94818, 34.8255], [-87.94898, 34.8238], [-87.95072, 34.82195], [-87.95939, 34.81869], [-87.95931, 34.82299], [-87.95405, 34.82519], [-87.94921, 34.82811], [-87.9472, 34.82828], [-87.94468, 34.82971], [-87.9428, 34.82851], [-87.94071, 34.82872]]], [[[-87.92322, 34.79843], [-87.92299, 34.79906], [-87.91842, 34.79466], [-87.89853, 34.78071], [-87.89878, 34.78009], [-87.92819, 34.78033], [-87.92841, 34.78294], [-87.92941, 34.78455], [-87.93074, 34.78556], [-87.93257, 34.78574], [-87.93291, 34.79111], [-87.9264, 34.791], [-87.92466, 34.79158], [-87.92383, 34.79299], [-87.92238, 34.79352], [-87.92166, 34.79468], [-87.922, 34.79595], [-87.92326, 34.79676], [-87.92322, 34.79843]]], [[[-87.96633, 34.7957], [-87.97742, 34.79605], [-87.9765, 34.80003], [-87.97519, 34.80281], [-87.97302, 34.80277], [-87.97218, 34.80159], [-87.9729, 34.80063], [-87.97291, 34.79969], [-87.97205, 34.7986], [-87.96947, 34.79795], [-87.96766, 34.7967], [-87.96427, 34.79627], [-87.96428, 34.79564], [-87.96633, 34.7957]]], [[[-87.9694, 34.78733], [-87.96933, 34.79192], [-87.96629, 34.79183], [-87.96624, 34.78944], [-87.96536, 34.78863], [-87.96433, 34.78831], [-87.96436, 34.78507], [-87.96946, 34.78514], [-87.9694, 34.78733]]], [[[-87.9876, 34.79253], [-87.98244, 34.79236], [-87.98281, 34.791], [-87.98391, 34.78935], [-87.98533, 34.78816], [-87.98707, 34.78735], [-87.98912, 34.79255], [-87.9876, 34.79253]]], [[[-87.9821, 34.78502], [-87.98274, 34.78493], [-87.98183, 34.78553], [-87.98203, 34.7852], [-87.9821, 34.78502]]], [[[-87.97458, 34.78604], [-87.97495, 34.78537], [-87.97695, 34.78524], [-87.97767, 34.78527], [-87.97924, 34.7864], [-87.98098, 34.78622], [-87.97852, 34.78943], [-87.97773, 34.79219], [-87.9764, 34.79214], [-87.9758, 34.79065], [-87.97404, 34.79002], [-87.9741, 34.78704], [-87.97458, 34.78604]]], [[[-87.97937, 34.77666], [-87.98291, 34.78067], [-87.98246, 34.78107], [-87.97992, 34.78147], [-87.97518, 34.78146], [-87.97526, 34.773], [-87.97751, 34.77577], [-87.97937, 34.77666]]], [[[-87.97382, 34.82887], [-87.9639, 34.8288], [-87.96395, 34.82554], [-87.96876, 34.82295], [-87.97277, 34.81917], [-87.97521, 34.81521], [-87.97721, 34.8092], [-87.977, 34.82795], [-87.97382, 34.82887]]], [[[-87.96954, 34.81615], [-87.96729, 34.81874], [-87.96404, 34.82103], [-87.9641, 34.81775], [-87.96532, 34.81707], [-87.96582, 34.81583], [-87.96539, 34.81477], [-87.96415, 34.81404], [-87.96421, 34.80645], [-87.97321, 34.80665], [-87.9711, 34.81317], [-87.96954, 34.81615]]], [[[-87.96897, 34.80179], [-87.96842, 34.80267], [-87.96422, 34.80258], [-87.96424, 34.80029], [-87.96542, 34.8002], [-87.96739, 34.80148], [-87.96897, 34.80179]]], [[[-87.91485, 34.83796], [-87.91577, 34.83656], [-87.91612, 34.83657], [-87.91901, 34.84005], [-87.91816, 34.84078], [-87.91368, 34.83878], [-87.91485, 34.83796]]], [[[-87.9108, 34.83548], [-87.91101, 34.83537], [-87.91141, 34.83513], [-87.91124, 34.83544], [-87.9108, 34.83548]]], [[[-87.89011, 34.79672], [-87.89471, 34.80212], [-87.89806, 34.80738], [-87.89829, 34.80943], [-87.89947, 34.81201], [-87.90134, 34.81359], [-87.90389, 34.8188], [-87.90776, 34.825], [-87.90614, 34.82676], [-87.90191, 34.82636], [-87.90208, 34.82402], [-87.90081, 34.82227], [-87.89898, 34.82146], [-87.89688, 34.82145], [-87.89486, 34.82067], [-87.89324, 34.81939], [-87.89027, 34.81155], [-87.88949, 34.80749], [-87.88941, 34.79927], [-87.88986, 34.79661], [-87.89011, 34.79672]]]]}, "properties": {"kind": "windland", "area_km2": 24.42}}, {"type": "Feature", "geometry": {"type": "MultiPolygon", "coordinates": [[[[-87.95066, 34.78346], [-87.95067, 34.78052], [-87.95073, 34.78538], [-87.95226, 34.78536], [-87.94839, 34.79197], [-87.94759, 34.79271], [-87.94697, 34.79296], [-87.9445, 34.79292], [-87.94445, 34.79104], [-87.94384, 34.79052], [-87.94386, 34.78997], [-87.94355, 34.78978], [-87.94324, 34.78994], [-87.94316, 34.79052], [-87.94381, 34.79122], [-87.94384, 34.79291], [-87.93563, 34.79284], [-87.9355, 34.78884], [-87.9352, 34.78632], [-87.93619, 34.78315], [-87.93549, 34.78064], [-87.93543, 34.77758], [-87.93594, 34.7777], [-87.93798, 34.77759], [-87.9383, 34.77713], [-87.93835, 34.77645], [-87.94037, 34.77644], [-87.94027, 34.77748], [-87.93968, 34.77857], [-87.93879, 34.77911], [-87.93742, 34.77932], [-87.93748, 34.78035], [-87.93806, 34.78195], [-87.93821, 34.78311], [-87.93807, 34.78401], [-87.93722, 34.78635], [-87.9376, 34.79118], [-87.94131, 34.79122], [-87.94116, 34.79029], [-87.94148, 34.78913], [-87.94245, 34.78834], [-87.94356, 34.78811], [-87.94466, 34.78834], [-87.94537, 34.78883], [-87.94636, 34.79048], [-87.94649, 34.7913], [-87.95061, 34.78437], [-87.95066, 34.78346]]], [[[-87.95496, 34.7858], [-87.95167, 34.79144], [-87.95962, 34.79169], [-87.95967, 34.78531], [-87.96166, 34.78529], [-87.96163, 34.79341], [-87.94821, 34.79299], [-87.94897, 34.79222], [-87.95299, 34.78536], [-87.95515, 34.78534], [-87.95496, 34.7858]]], [[[-87.94701, 34.79417], [-87.9476, 34.79353], [-87.96163, 34.79396], [-87.96146, 34.81556], [-87.96031, 34.81572], [-87.95484, 34.81815], [-87.94896, 34.82022], [-87.94802, 34.82147], [-87.94729, 34.82147], [-87.94726, 34.82121], [-87.94699, 34.82108], [-87.94662, 34.82148], [-87.94377, 34.82134], [-87.94378, 34.8215], [-87.93905, 34.82154], [-87.93923, 34.82107], [-87.94138, 34.82005], [-87.94246, 34.81997], [-87.94275, 34.81971], [-87.94279, 34.81934], [-87.94244, 34.81906], [-87.94198, 34.81919], [-87.94126, 34.81909], [-87.93876, 34.82014], [-87.93798, 34.82084], [-87.93763, 34.82155], [-87.93546, 34.82156], [-87.93275, 34.8165], [-87.92926, 34.81105], [-87.92178, 34.80072], [-87.91807, 34.79713], [-87.91804, 34.79439], [-87.92299, 34.79906], [-87.92334, 34.79826], [-87.92326, 34.79676], [-87.92263, 34.7965], [-87.922, 34.79595], [-87.92168, 34.79525], [-87.9217, 34.79449], [-87.92195, 34.79396], [-87.92255, 34.79339], [-87.92383, 34.79299], [-87.92417, 34.79211], [-87.92466, 34.79158], [-87.92554, 34.79113], [-87.9264, 34.791], [-87.93291, 34.79111], [-87.93257, 34.78574], [-87.93157, 34.78578], [-87.93054, 34.78546], [-87.92955, 34.7847], [-87.92885, 34.78375], [-87.92879, 34.77866], [-87.93021, 34.77866], [-87.93038, 34.78257], [-87.93109, 34.78363], [-87.93198, 34.78415], [-87.93225, 34.78402], [-87.93229, 34.78379], [-87.9316, 34.78329], [-87.93103, 34.78244], [-87.93105, 34.78212], [-87.93262, 34.78258], [-87.93292, 34.7825], [-87.933, 34.78228], [-87.93281, 34.78207], [-87.93108, 34.78153], [-87.93087, 34.78054], [-87.93086, 34.77867], [-87.93475, 34.7787], [-87.93484, 34.78071], [-87.93554, 34.78314], [-87.93454, 34.7863], [-87.93485, 34.78887], [-87.93497, 34.79279], [-87.92608, 34.79276], [-87.92539, 34.79498], [-87.924, 34.79465], [-87.92366, 34.79489], [-87.92385, 34.79517], [-87.92528, 34.79552], [-87.92537, 34.79864], [-87.92502, 34.79944], [-87.92558, 34.79966], [-87.92635, 34.79955], [-87.92639, 34.79921], [-87.926, 34.79878], [-87.92585, 34.79607], [-87.92699, 34.79608], [-87.92725, 34.79586], [-87.92705, 34.79556], [-87.92596, 34.79547], [-87.9265, 34.7932], [-87.94553, 34.79348], [-87.93666, 34.79666], [-87.93426, 34.79782], [-87.93349, 34.79861], [-87.93314, 34.79939], [-87.93303, 34.80132], [-87.93236, 34.80134], [-87.93128, 34.80274], [-87.93122, 34.80366], [-87.92803, 34.80696], [-87.92699, 34.80755], [-87.92724, 34.80778], [-87.93306, 34.80821], [-87.93308, 34.81401], [-87.93341, 34.81428], [-87.93373, 34.81403], [-87.93372, 34.80926], [-87.93404, 34.80856], [-87.93462, 34.80816], [-87.93609, 34.8081], [-87.93615, 34.80921], [-87.93858, 34.80951], [-87.93904, 34.80915], [-87.93847, 34.81031], [-87.93724, 34.811], [-87.93649, 34.81219], [-87.9368, 34.81252], [-87.93708, 34.81241], [-87.93779, 34.8113], [-87.939, 34.81063], [-87.93958, 34.80946], [-87.94042, 34.80846], [-87.94038, 34.80658], [-87.94009, 34.80614], [-87.94009, 34.8055], [-87.94007, 34.7977], [-87.94035, 34.79704], [-87.94132, 34.79625], [-87.94701, 34.79417]], [[-87.95149, 34.81754], [-87.95472, 34.81635], [-87.95946, 34.81421], [-87.95959, 34.79556], [-87.94867, 34.79522], [-87.94793, 34.79565], [-87.94218, 34.79777], [-87.94211, 34.80562], [-87.94238, 34.80638], [-87.94248, 34.80814], [-87.94224, 34.8092], [-87.94129, 34.81035], [-87.94072, 34.81151], [-87.94009, 34.81209], [-87.93934, 34.81245], [-87.93842, 34.81365], [-87.93721, 34.81416], [-87.93575, 34.81397], [-87.93548, 34.81492], [-87.93471, 34.81562], [-87.93668, 34.81922], [-87.93756, 34.81859], [-87.9404, 34.81739], [-87.94283, 34.81724], [-87.94396, 34.81762], [-87.94475, 34.81839], [-87.94501, 34.81918], [-87.94485, 34.82034], [-87.94572, 34.81973], [-87.94707, 34.81942], [-87.94781, 34.81885], [-87.94878, 34.81842], [-87.95149, 34.81754]], [[-87.9299, 34.80043], [-87.93102, 34.80009], [-87.93149, 34.79823], [-87.93277, 34.7967], [-87.9336, 34.79615], [-87.9361, 34.79504], [-87.929, 34.7949], [-87.92926, 34.79562], [-87.92917, 34.79637], [-87.92875, 34.79704], [-87.92802, 34.79752], [-87.92803, 34.79823], [-87.92843, 34.79934], [-87.92812, 34.80034], [-87.92756, 34.80091], [-87.92679, 34.80126], [-87.92591, 34.80135], [-87.92471, 34.80118], [-87.9257, 34.80255], [-87.92685, 34.80219], [-87.92805, 34.80211], [-87.92891, 34.80106], [-87.9299, 34.80043]], [[-87.92843, 34.80612], [-87.92859, 34.80563], [-87.92829, 34.80521], [-87.92772, 34.80507], [-87.92717, 34.80533], [-87.92701, 34.8058], [-87.92729, 34.80622], [-87.92787, 34.80637], [-87.92843, 34.80612]], [[-87.93107, 34.80973], [-87.93088, 34.8097], [-87.93108, 34.80998], [-87.93107, 34.80973]]], [[[-87.94411, 34.79463], [-87.94333, 34.79491], [-87.94664, 34.79367], [-87.94647, 34.79376], [-87.94411, 34.79463]]], [[[-87.96229, 34.79903], [-87.96435, 34.79847], [-87.96605, 34.79859], [-87.96668, 34.79876], [-87.96741, 34.79953], [-87.96839, 34.80004], [-87.97079, 34.80037], [-87.97096, 34.80013], [-87.9708, 34.79991], [-87.96864, 34.79953], [-87.9679, 34.79915], [-87.96774, 34.7988], [-87.96711, 34.79832], [-87.96619, 34.79806], [-87.96427, 34.79794], [-87.96223, 34.79848], [-87.96228, 34.7943], [-87.97269, 34.79423], [-87.97271, 34.79589], [-87.96428, 34.79564], [-87.96427, 34.79627], [-87.96637, 34.7964], [-87.96766, 34.7967], [-87.9685, 34.79711], [-87.96947, 34.79795], [-87.97109, 34.79818], [-87.97223, 34.79872], [-87.97275, 34.79932], [-87.97277, 34.80092], [-87.97218, 34.80159], [-87.97279, 34.8022], [-87.9728, 34.80324], [-87.97103, 34.80325], [-87.97099, 34.80294], [-87.97072, 34.80282], [-87.97044, 34.80293], [-87.97037, 34.80325], [-87.96221, 34.80332], [-87.96229, 34.79903]], [[-87.96624, 34.80088], [-87.96542, 34.8002], [-87.96453, 34.80015], [-87.96424, 34.80029], [-87.96422, 34.80258], [-87.96842, 34.80267], [-87.96897, 34.80179], [-87.96758, 34.80156], [-87.96624, 34.80088]]], [[[-87.95251, 34.81958], [-87.95592, 34.81831], [-87.96058, 34.81621], [-87.96145, 34.8161], [-87.96136, 34.82136], [-87.95934, 34.82138], [-87.95939, 34.81869], [-87.95598, 34.82014], [-87.95233, 34.82143], [-87.94878, 34.82146], [-87.94929, 34.82069], [-87.95251, 34.81958]]], [[[-87.96202, 34.82136], [-87.96202, 34.82122], [-87.96205, 34.81933], [-87.96208, 34.82136], [-87.96202, 34.82136]]], [[[-87.93544, 34.77648], [-87.9377, 34.77646], [-87.93766, 34.777], [-87.93599, 34.77716], [-87.93544, 34.77702], [-87.93544, 34.77648]]], [[[-87.94022, 34.79627], [-87.93968, 34.79692], [-87.93941, 34.79765], [-87.93943, 34.80472], [-87.93742, 34.80474], [-87.9374, 34.80434], [-87.93669, 34.80435], [-87.9365, 34.80398], [-87.93368, 34.80131], [-87.93377, 34.79953], [-87.93427, 34.7986], [-87.93495, 34.79805], [-87.9405, 34.79605], [-87.94022, 34.79627]], [[-87.93571, 34.80009], [-87.9357, 34.80097], [-87.93739, 34.80129], [-87.93737, 34.79897], [-87.93611, 34.79942], [-87.93571, 34.80009]]], [[[-87.93973, 34.80665], [-87.93975, 34.80694], [-87.93972, 34.80661], [-87.93973, 34.80665]]], [[[-87.93475, 34.77797], [-87.93475, 34.77816], [-87.92879, 34.77812], [-87.92877, 34.77653], [-87.93479, 34.77648], [-87.93475, 34.77797]]]]}, "properties": {"kind": "pv", "area_km2": 7.01, "mw": 350.5}}, {"type": "Feature", "geometry": {"type": "Point", "coordinates": [-87.93581, 34.79985]}, "properties": {"kind": "turbine", "i": 0, "mw": 6.0, "hub_m": 120.0, "rotor_m": 150.0}}, {"type": "Feature", "geometry": {"type": "Point", "coordinates": [-87.9479, 34.80964]}, "properties": {"kind": "turbine", "i": 1, "mw": 6.0, "hub_m": 120.0, "rotor_m": 150.0}}, {"type": "Feature", "geometry": {"type": "Point", "coordinates": [-87.95178, 34.79973]}, "properties": {"kind": "turbine", "i": 2, "mw": 6.0, "hub_m": 120.0, "rotor_m": 150.0}}, {"type": "Feature", "geometry": {"type": "Point", "coordinates": [-87.93969, 34.78995]}, "properties": {"kind": "turbine", "i": 3, "mw": 6.0, "hub_m": 120.0, "rotor_m": 150.0}}, {"type": "Feature", "geometry": {"type": "Point", "coordinates": [-87.936, 34.81632]}, "properties": {"kind": "turbine", "i": 4, "mw": 6.0, "hub_m": 120.0, "rotor_m": 150.0}}, {"type": "Feature", "geometry": {"type": "Point", "coordinates": [-87.95566, 34.78982]}, "properties": {"kind": "turbine", "i": 5, "mw": 6.0, "hub_m": 120.0, "rotor_m": 150.0}}, {"type": "Feature", "geometry": {"type": "Point", "coordinates": [-87.91978, 34.79339]}, "properties": {"kind": "turbine", "i": 6, "mw": 6.0, "hub_m": 120.0, "rotor_m": 150.0}}, {"type": "Feature", "geometry": {"type": "Point", "coordinates": [-87.92765, 34.78345]}, "properties": {"kind": "turbine", "i": 7, "mw": 6.0, "hub_m": 120.0, "rotor_m": 150.0}}, {"type": "Feature", "geometry": {"type": "Point", "coordinates": [-87.94357, 34.78004]}, "properties": {"kind": "turbine", "i": 8, "mw": 6.0, "hub_m": 120.0, "rotor_m": 150.0}}, {"type": "Feature", "geometry": {"type": "Point", "coordinates": [-87.9441, 34.82613]}, "properties": {"kind": "turbine", "i": 9, "mw": 6.0, "hub_m": 120.0, "rotor_m": 150.0}}, {"type": "Feature", "geometry": {"type": "Point", "coordinates": [-87.95604, 34.82275]}, "properties": {"kind": "turbine", "i": 10, "mw": 6.0, "hub_m": 120.0, "rotor_m": 150.0}}, {"type": "Feature", "geometry": {"type": "Point", "coordinates": [-87.96786, 34.80948]}, "properties": {"kind": "turbine", "i": 11, "mw": 6.0, "hub_m": 120.0, "rotor_m": 150.0}}, {"type": "Feature", "geometry": {"type": "Point", "coordinates": [-87.96759, 34.78643]}, "properties": {"kind": "turbine", "i": 12, "mw": 6.0, "hub_m": 120.0, "rotor_m": 150.0}}, {"type": "Feature", "geometry": {"type": "Point", "coordinates": [-87.9555, 34.77665]}, "properties": {"kind": "turbine", "i": 13, "mw": 6.0, "hub_m": 120.0, "rotor_m": 150.0}}, {"type": "Feature", "geometry": {"type": "Point", "coordinates": [-87.97569, 34.79625]}, "properties": {"kind": "turbine", "i": 14, "mw": 6.0, "hub_m": 120.0, "rotor_m": 150.0}}, {"type": "Feature", "geometry": {"type": "Point", "coordinates": [-87.91168, 34.78357]}, "properties": {"kind": "turbine", "i": 15, "mw": 6.0, "hub_m": 120.0, "rotor_m": 150.0}}, {"type": "Feature", "geometry": {"type": "Point", "coordinates": [-87.97596, 34.81929]}, "properties": {"kind": "turbine", "i": 16, "mw": 6.0, "hub_m": 120.0, "rotor_m": 150.0}}, {"type": "Feature", "geometry": {"type": "Point", "coordinates": [-87.9041, 34.81985]}, "properties": {"kind": "turbine", "i": 17, "mw": 6.0, "hub_m": 120.0, "rotor_m": 150.0}}, {"type": "Feature", "geometry": {"type": "Point", "coordinates": [-87.94741, 34.76684]}, "properties": {"kind": "turbine", "i": 18, "mw": 6.0, "hub_m": 120.0, "rotor_m": 150.0}}, {"type": "Feature", "geometry": {"type": "Point", "coordinates": [-87.98383, 34.80935]}, "properties": {"kind": "turbine", "i": 19, "mw": 6.0, "hub_m": 120.0, "rotor_m": 150.0}}, {"type": "Feature", "geometry": {"type": "Point", "coordinates": [-87.91952, 34.77034]}, "properties": {"kind": "turbine", "i": 20, "mw": 6.0, "hub_m": 120.0, "rotor_m": 150.0}}, {"type": "Feature", "geometry": {"type": "Point", "coordinates": [-87.89601, 34.81003]}, "properties": {"kind": "turbine", "i": 21, "mw": 6.0, "hub_m": 120.0, "rotor_m": 150.0}}]}