{"type": "FeatureCollection", "features": [{"type": "Feature", "geometry": {"type": "MultiPolygon", "coordinates": [[[[-101.40875, 35.58472], [-101.40269, 35.60665], [-101.39619, 35.60626], [-101.39494, 35.60673], [-101.39423, 35.60769], [-101.39437, 35.60899], [-101.39549, 35.60991], [-101.40115, 35.61056], [-101.40015, 35.61276], [-101.39885, 35.61775], [-101.39624, 35.6177], [-101.39529, 35.61823], [-101.39477, 35.61907], [-101.39486, 35.62019], [-101.39551, 35.62096], [-101.39811, 35.62157], [-101.39634, 35.63144], [-101.3899, 35.6316], [-101.3877, 35.63277], [-101.38725, 35.63404], [-101.38714, 35.63988], [-101.38523, 35.64001], [-101.38404, 35.64135], [-101.38495, 35.64457], [-101.38503, 35.64651], [-101.38142, 35.64585], [-101.375, 35.64587], [-101.37234, 35.64651], [-101.37118, 35.64764], [-101.37135, 35.64912], [-101.37284, 35.65008], [-101.37284, 35.65045], [-101.37114, 35.65208], [-101.37089, 35.65374], [-101.37277, 35.65687], [-101.37508, 35.6583], [-101.37985, 35.65881], [-101.38049, 35.6599], [-101.37899, 35.66061], [-101.37848, 35.66178], [-101.37606, 35.66213], [-101.37458, 35.66329], [-101.37421, 35.66474], [-101.37508, 35.66608], [-101.3677, 35.66586], [-101.36117, 35.66451], [-101.35392, 35.66351], [-101.35126, 35.66213], [-101.34825, 35.65413], [-101.34702, 35.64833], [-101.3465, 35.64246], [-101.34668, 35.63657], [-101.34756, 35.63072], [-101.34915, 35.62498], [-101.35142, 35.61938], [-101.35434, 35.614], [-101.3579, 35.60888], [-101.36206, 35.60406], [-101.36677, 35.59961], [-101.372, 35.59555], [-101.37769, 35.59192], [-101.38378, 35.58877], [-101.39022, 35.58613], [-101.39695, 35.58401], [-101.4039, 35.58244], [-101.40953, 35.58164], [-101.40875, 35.58472]], [[-101.38286, 35.62633], [-101.38406, 35.62523], [-101.38395, 35.62375], [-101.38253, 35.62268], [-101.38072, 35.62277], [-101.37952, 35.62388], [-101.37963, 35.62536], [-101.38105, 35.62642], [-101.38286, 35.62633]], [[-101.38478, 35.62703], [-101.38462, 35.62728], [-101.38505, 35.62746], [-101.38521, 35.62721], [-101.38478, 35.62703]]], [[[-101.41804, 35.58351], [-101.41576, 35.58542], [-101.41412, 35.58747], [-101.41036, 35.59644], [-101.41446, 35.58122], [-101.42102, 35.58106], [-101.41804, 35.58351]]], [[[-101.49189, 35.62893], [-101.49171, 35.62986], [-101.49241, 35.63319], [-101.49202, 35.63423], [-101.49225, 35.63623], [-101.48355, 35.63924], [-101.48259, 35.63865], [-101.48151, 35.63851], [-101.48057, 35.63635], [-101.47964, 35.6355], [-101.48319, 35.63546], [-101.48427, 35.63514], [-101.48527, 35.6339], [-101.4849, 35.63245], [-101.48338, 35.63164], [-101.47782, 35.63164], [-101.48347, 35.63107], [-101.48569, 35.63026], [-101.48672, 35.62839], [-101.48671, 35.62564], [-101.48713, 35.62428], [-101.48631, 35.62277], [-101.48482, 35.62231], [-101.4833, 35.62272], [-101.48211, 35.62468], [-101.48201, 35.6273], [-101.4792, 35.62768], [-101.48155, 35.62532], [-101.48193, 35.62406], [-101.48154, 35.62317], [-101.48068, 35.62255], [-101.47956, 35.62232], [-101.47845, 35.62255], [-101.47093, 35.62979], [-101.46772, 35.62846], [-101.46319, 35.62763], [-101.46271, 35.62672], [-101.46185, 35.62615], [-101.46027, 35.62314], [-101.45937, 35.62256], [-101.45801, 35.62242], [-101.45647, 35.6232], [-101.45604, 35.62445], [-101.45641, 35.62587], [-101.459, 35.62998], [-101.46055, 35.6311], [-101.46699, 35.63237], [-101.4669, 35.63343], [-101.46002, 35.63345], [-101.45965, 35.63196], [-101.45815, 35.63112], [-101.457, 35.63115], [-101.45585, 35.6317], [-101.45317, 35.63116], [-101.45203, 35.63131], [-101.45069, 35.63254], [-101.45061, 35.63519], [-101.44873, 35.63604], [-101.44833, 35.63785], [-101.4468, 35.63863], [-101.44188, 35.64268], [-101.43674, 35.64121], [-101.43668, 35.63264], [-101.43604, 35.63165], [-101.43459, 35.63109], [-101.43305, 35.63141], [-101.43204, 35.63264], [-101.43201, 35.64001], [-101.429, 35.63941], [-101.4223, 35.6393], [-101.41081, 35.63824], [-101.40855, 35.63827], [-101.40568, 35.63881], [-101.40627, 35.63496], [-101.40652, 35.6248], [-101.40589, 35.62326], [-101.40405, 35.6226], [-101.40423, 35.61801], [-101.40481, 35.61653], [-101.41108, 35.60655], [-101.41277, 35.60493], [-101.41311, 35.60354], [-101.4129, 35.60244], [-101.41876, 35.58861], [-101.42733, 35.58134], [-101.43256, 35.58186], [-101.43959, 35.58315], [-101.44644, 35.585], [-101.45303, 35.58738], [-101.45931, 35.59029], [-101.4652, 35.59367], [-101.47067, 35.59752], [-101.47564, 35.60178], [-101.48008, 35.60642], [-101.48395, 35.6114], [-101.48719, 35.61666], [-101.48979, 35.62215], [-101.49189, 35.62893]], [[-101.43945, 35.62411], [-101.43899, 35.62324], [-101.43809, 35.62266], [-101.43536, 35.6225], [-101.43377, 35.62321], [-101.43327, 35.62464], [-101.43368, 35.62552], [-101.43462, 35.62623], [-101.43713, 35.62645], [-101.43888, 35.62569], [-101.43945, 35.62411]], [[-101.41532, 35.62741], [-101.41641, 35.6271], [-101.41718, 35.6264], [-101.41751, 35.62442], [-101.41677, 35.62306], [-101.41508, 35.62253], [-101.41328, 35.62328], [-101.41268, 35.62508], [-101.41342, 35.62685], [-101.41532, 35.62741]]], [[[-101.35684, 35.66814], [-101.36075, 35.6686], [-101.36692, 35.66989], [-101.36954, 35.66987], [-101.3698, 35.67128], [-101.36658, 35.67213], [-101.36411, 35.67473], [-101.36051, 35.67623], [-101.35601, 35.67057], [-101.35434, 35.66786], [-101.35684, 35.66814]]], [[[-101.42784, 35.64793], [-101.42986, 35.64609], [-101.43013, 35.64415], [-101.43086, 35.64426], [-101.43151, 35.64603], [-101.43285, 35.64695], [-101.43341, 35.64826], [-101.4347, 35.64896], [-101.43735, 35.64904], [-101.43743, 35.65016], [-101.43517, 35.65271], [-101.43399, 35.65276], [-101.43186, 35.6514], [-101.42784, 35.64793]]], [[[-101.45137, 35.65471], [-101.46007, 35.65161], [-101.46066, 35.65293], [-101.46199, 35.65365], [-101.46398, 35.65332], [-101.46537, 35.6517], [-101.46553, 35.65277], [-101.46641, 35.65362], [-101.4675, 35.65393], [-101.46882, 35.6537], [-101.46916, 35.66854], [-101.4709, 35.67087], [-101.47564, 35.67354], [-101.47762, 35.67826], [-101.47328, 35.68237], [-101.46806, 35.68643], [-101.46237, 35.69006], [-101.45627, 35.69321], [-101.44982, 35.69586], [-101.44309, 35.69798], [-101.43335, 35.69995], [-101.43659, 35.69464], [-101.44139, 35.69007], [-101.44403, 35.68363], [-101.44388, 35.68178], [-101.44122, 35.6741], [-101.44012, 35.67239], [-101.4372, 35.66935], [-101.43796, 35.66936], [-101.43794, 35.66785], [-101.43908, 35.66733], [-101.43903, 35.66578], [-101.43782, 35.6639], [-101.43748, 35.6639], [-101.43688, 35.66239], [-101.43686, 35.65757], [-101.43994, 35.65773], [-101.44233, 35.65693], [-101.44455, 35.65692], [-101.44465, 35.65914], [-101.44581, 35.66028], [-101.44787, 35.66038], [-101.45032, 35.66127], [-101.45417, 35.66112], [-101.45553, 35.66015], [-101.45565, 35.65867], [-101.45424, 35.65748], [-101.45113, 35.65738], [-101.4505, 35.65501], [-101.45137, 35.65471]]], [[[-101.43235, 35.66964], [-101.43198, 35.67134], [-101.43059, 35.67185], [-101.42718, 35.67404], [-101.42344, 35.67489], [-101.42246, 35.67588], [-101.4224, 35.677], [-101.4231, 35.67797], [-101.42435, 35.67845], [-101.42886, 35.67777], [-101.43168, 35.67631], [-101.43312, 35.67514], [-101.43468, 35.67489], [-101.43578, 35.67408], [-101.43694, 35.67581], [-101.43931, 35.68288], [-101.43748, 35.6878], [-101.4323, 35.69292], [-101.42768, 35.70065], [-101.42181, 35.701], [-101.4146, 35.70086], [-101.41186, 35.69835], [-101.40691, 35.69585], [-101.40804, 35.69471], [-101.4079, 35.69333], [-101.41079, 35.69309], [-101.41341, 35.6912], [-101.41418, 35.68997], [-101.41421, 35.68813], [-101.4185, 35.68972], [-101.42016, 35.68928], [-101.4211, 35.68809], [-101.421, 35.68687], [-101.42028, 35.68602], [-101.41477, 35.68337], [-101.41258, 35.68361], [-101.41143, 35.68507], [-101.40927, 35.68482], [-101.40963, 35.68382], [-101.40969, 35.67733], [-101.40936, 35.67618], [-101.41001, 35.6756], [-101.41179, 35.67551], [-101.41173, 35.67433], [-101.41232, 35.6728], [-101.41221, 35.67186], [-101.41147, 35.67091], [-101.41199, 35.66986], [-101.41194, 35.6678], [-101.41084, 35.666], [-101.41202, 35.66474], [-101.41341, 35.66464], [-101.4146, 35.66378], [-101.4164, 35.66006], [-101.41604, 35.65759], [-101.41864, 35.657], [-101.4275, 35.65693], [-101.42886, 35.65759], [-101.4317, 35.65774], [-101.43215, 35.6657], [-101.43148, 35.66673], [-101.43143, 35.66949], [-101.43235, 35.66964]], [[-101.42214, 35.66914], [-101.42429, 35.66867], [-101.42593, 35.66871], [-101.42771, 35.66766], [-101.42847, 35.6659], [-101.42743, 35.66431], [-101.42315, 35.66319], [-101.42104, 35.66385], [-101.41979, 35.66572], [-101.41968, 35.66685], [-101.4205, 35.66838], [-101.42214, 35.66914]]], [[[-101.42063, 35.65291], [-101.41206, 35.65042], [-101.41062, 35.64649], [-101.40819, 35.64507], [-101.40557, 35.64493], [-101.40557, 35.64436], [-101.41158, 35.64378], [-101.41354, 35.64393], [-101.41541, 35.64451], [-101.4198, 35.64679], [-101.42291, 35.64937], [-101.42109, 35.65046], [-101.42063, 35.65291]]], [[[-101.37403, 35.68065], [-101.37339, 35.67865], [-101.37161, 35.67779], [-101.37046, 35.67786], [-101.36949, 35.67837], [-101.36884, 35.67978], [-101.36749, 35.68036], [-101.36634, 35.68194], [-101.3637, 35.67956], [-101.36714, 35.67897], [-101.36799, 35.67828], [-101.36871, 35.67682], [-101.37442, 35.67393], [-101.37411, 35.67543], [-101.37458, 35.67647], [-101.37403, 35.67813], [-101.37466, 35.68], [-101.37403, 35.68065]]], [[[-101.37672, 35.68746], [-101.37646, 35.6873], [-101.37683, 35.68741], [-101.37672, 35.68746]]], [[[-101.46762, 35.64391], [-101.4683, 35.64269], [-101.46788, 35.64145], [-101.46833, 35.64044], [-101.46812, 35.63943], [-101.46991, 35.63868], [-101.46992, 35.6393], [-101.46903, 35.64059], [-101.46919, 35.642], [-101.47042, 35.64309], [-101.47211, 35.64318], [-101.46884, 35.64429], [-101.46762, 35.64391]]], [[[-101.4076, 35.67069], [-101.40664, 35.67149], [-101.40618, 35.6702], [-101.4063, 35.67005], [-101.4076, 35.67069]]], [[[-101.48044, 35.67298], [-101.47884, 35.67066], [-101.47418, 35.66806], [-101.47368, 35.66738], [-101.47352, 35.64906], [-101.47312, 35.64702], [-101.49195, 35.64053], [-101.49338, 35.64362], [-101.49333, 35.64538], [-101.4882, 35.64538], [-101.48707, 35.64601], [-101.48656, 35.64705], [-101.48685, 35.64815], [-101.48804, 35.64901], [-101.49275, 35.64922], [-101.49088, 35.65698], [-101.48862, 35.66258], [-101.4857, 35.66796], [-101.48092, 35.67451], [-101.48044, 35.67298]]], [[[-101.47238, 35.63703], [-101.47143, 35.63715], [-101.47166, 35.6356], [-101.47717, 35.63551], [-101.47631, 35.63628], [-101.47238, 35.63703]]], [[[-101.45878, 35.64167], [-101.46234, 35.64169], [-101.4613, 35.64334], [-101.46041, 35.64353], [-101.45856, 35.64273], [-101.45634, 35.64314], [-101.45401, 35.64543], [-101.45432, 35.64115], [-101.45569, 35.6417], [-101.45878, 35.64167]]], [[[-101.40632, 35.68668], [-101.40634, 35.68944], [-101.40459, 35.68947], [-101.40129, 35.6878], [-101.4013, 35.68568], [-101.40383, 35.68365], [-101.40473, 35.68506], [-101.40664, 35.68578], [-101.40632, 35.68668]]], [[[-101.39492, 35.63855], [-101.39433, 35.64289], [-101.39266, 35.64475], [-101.39189, 35.64482], [-101.39196, 35.63533], [-101.39556, 35.63531], [-101.39492, 35.63855]]]]}, "properties": {"kind": "windland", "area_km2": 89.79}}, {"type": "Feature", "geometry": {"type": "Point", "coordinates": [-101.4119, 35.64457]}, "properties": {"kind": "turbine", "i": 0, "mw": 6.0, "hub_m": 120.0, "rotor_m": 150.0}}, {"type": "Feature", "geometry": {"type": "Point", "coordinates": [-101.4236, 35.63117]}, "properties": {"kind": "turbine", "i": 1, "mw": 6.0, "hub_m": 120.0, "rotor_m": 150.0}}, {"type": "Feature", "geometry": {"type": "Point", "coordinates": [-101.43215, 35.64745]}, "properties": {"kind": "turbine", "i": 2, "mw": 6.0, "hub_m": 120.0, "rotor_m": 150.0}}, {"type": "Feature", "geometry": {"type": "Point", "coordinates": [-101.40748, 35.63149]}, "properties": {"kind": "turbine", "i": 3, "mw": 6.0, "hub_m": 120.0, "rotor_m": 150.0}}, {"type": "Feature", "geometry": {"type": "Point", "coordinates": [-101.42439, 35.65748]}, "properties": {"kind": "turbine", "i": 4, "mw": 6.0, "hub_m": 120.0, "rotor_m": 150.0}}, {"type": "Feature", "geometry": {"type": "Point", "coordinates": [-101.43558, 35.62763]}, "properties": {"kind": "turbine", "i": 5, "mw": 6.0, "hub_m": 120.0, "rotor_m": 150.0}}, {"type": "Feature", "geometry": {"type": "Point", "coordinates": [-101.41121, 35.62154]}, "properties": {"kind": "turbine", "i": 6, "mw": 6.0, "hub_m": 120.0, "rotor_m": 150.0}}, {"type": "Feature", "geometry": {"type": "Point", "coordinates": [-101.44797, 35.63726]}, "properties": {"kind": "turbine", "i": 7, "mw": 6.0, "hub_m": 120.0, "rotor_m": 150.0}}, {"type": "Feature", "geometry": {"type": "Point", "coordinates": [-101.4232, 35.61801]}, "properties": {"kind": "turbine", "i": 8, "mw": 6.0, "hub_m": 120.0, "rotor_m": 150.0}}, {"type": "Feature", "geometry": {"type": "Point", "coordinates": [-101.44061, 35.66045]}, "properties": {"kind": "turbine", "i": 9, "mw": 6.0, "hub_m": 120.0, "rotor_m": 150.0}}, {"type": "Feature", "geometry": {"type": "Point", "coordinates": [-101.39519, 35.62515]}, "properties": {"kind": "turbine", "i": 10, "mw": 6.0, "hub_m": 120.0, "rotor_m": 150.0}}, {"type": "Feature", "geometry": {"type": "Point", "coordinates": [-101.42872, 35.66727]}, "properties": {"kind": "turbine", "i": 11, "mw": 6.0, "hub_m": 120.0, "rotor_m": 150.0}}, {"type": "Feature", "geometry": {"type": "Point", "coordinates": [-101.4126, 35.66759]}, "properties": {"kind": "turbine", "i": 12, "mw": 6.0, "hub_m": 120.0, "rotor_m": 150.0}}, {"type": "Feature", "geometry": {"type": "Point", "coordinates": [-101.43931, 35.61768]}, "properties": {"kind": "turbine", "i": 13, "mw": 6.0, "hub_m": 120.0, "rotor_m": 150.0}}, {"type": "Feature", "geometry": {"type": "Point", "coordinates": [-101.4517, 35.62731]}, "properties": {"kind": "turbine", "i": 14, "mw": 6.0, "hub_m": 120.0, "rotor_m": 150.0}}, {"type": "Feature", "geometry": {"type": "Point", "coordinates": [-101.3834, 35.63526]}, "properties": {"kind": "turbine", "i": 15, "mw": 6.0, "hub_m": 120.0, "rotor_m": 150.0}}, {"type": "Feature", "geometry": {"type": "Point", "coordinates": [-101.4526, 35.65691]}, "properties": {"kind": "turbine", "i": 16, "mw": 6.0, "hub_m": 120.0, "rotor_m": 150.0}}, {"type": "Feature", "geometry": {"type": "Point", "coordinates": [-101.41887, 35.60822]}, "properties": {"kind": "turbine", "i": 17, "mw": 6.0, "hub_m": 120.0, "rotor_m": 150.0}}, {"type": "Feature", "geometry": {"type": "Point", "coordinates": [-101.39883, 35.61192]}, "properties": {"kind": "turbine", "i": 18, "mw": 6.0, "hub_m": 120.0, "rotor_m": 150.0}}, {"type": "Feature", "geometry": {"type": "Point", "coordinates": [-101.43498, 35.6079]}, "properties": {"kind": "turbine", "i": 19, "mw": 6.0, "hub_m": 120.0, "rotor_m": 150.0}}, {"type": "Feature", "geometry": {"type": "Point", "coordinates": [-101.42096, 35.6773]}, "properties": {"kind": "turbine", "i": 20, "mw": 6.0, "hub_m": 120.0, "rotor_m": 150.0}}, {"type": "Feature", "geometry": {"type": "Point", "coordinates": [-101.37908, 35.62547]}, "properties": {"kind": "turbine", "i": 21, "mw": 6.0, "hub_m": 120.0, "rotor_m": 150.0}}, {"type": "Feature", "geometry": {"type": "Point", "coordinates": [-101.4513, 35.61415]}, "properties": {"kind": "turbine", "i": 22, "mw": 6.0, "hub_m": 120.0, "rotor_m": 150.0}}, {"type": "Feature", "geometry": {"type": "Point", "coordinates": [-101.38684, 35.61544]}, "properties": {"kind": "turbine", "i": 23, "mw": 6.0, "hub_m": 120.0, "rotor_m": 150.0}}, {"type": "Feature", "geometry": {"type": "Point", "coordinates": [-101.44898, 35.67015]}, "properties": {"kind": "turbine", "i": 24, "mw": 6.0, "hub_m": 120.0, "rotor_m": 150.0}}, {"type": "Feature", "geometry": {"type": "Point", "coordinates": [-101.46459, 35.65337]}, "properties": {"kind": "turbine", "i": 25, "mw": 6.0, "hub_m": 120.0, "rotor_m": 150.0}}, {"type": "Feature", "geometry": {"type": "Point", "coordinates": [-101.43708, 35.67697]}, "properties": {"kind": "turbine", "i": 26, "mw": 6.0, "hub_m": 120.0, "rotor_m": 150.0}}, {"type": "Feature", "geometry": {"type": "Point", "coordinates": [-101.46368, 35.62377]}, "properties": {"kind": "turbine", "i": 27, "mw": 6.0, "hub_m": 120.0, "rotor_m": 150.0}}, {"type": "Feature", "geometry": {"type": "Point", "coordinates": [-101.37141, 35.63879]}, "properties": {"kind": "turbine", "i": 28, "mw": 6.0, "hub_m": 120.0, "rotor_m": 150.0}}, {"type": "Feature", "geometry": {"type": "Point", "coordinates": [-101.46097, 35.66661]}, "properties": {"kind": "turbine", "i": 29, "mw": 6.0, "hub_m": 120.0, "rotor_m": 150.0}}, {"type": "Feature", "geometry": {"type": "Point", "coordinates": [-101.44697, 35.60436]}, "properties": {"kind": "turbine", "i": 30, "mw": 6.0, "hub_m": 120.0, "rotor_m": 150.0}}, {"type": "Feature", "geometry": {"type": "Point", "coordinates": [-101.47215, 35.63676]}, "properties": {"kind": "turbine", "i": 31, "mw": 6.0, "hub_m": 120.0, "rotor_m": 150.0}}, {"type": "Feature", "geometry": {"type": "Point", "coordinates": [-101.4226, 35.59827]}, "properties": {"kind": "turbine", "i": 32, "mw": 6.0, "hub_m": 120.0, "rotor_m": 150.0}}, {"type": "Feature", "geometry": {"type": "Point", "coordinates": [-101.37199, 35.65853]}, "properties": {"kind": "turbine", "i": 33, "mw": 6.0, "hub_m": 120.0, "rotor_m": 150.0}}, {"type": "Feature", "geometry": {"type": "Point", "coordinates": [-101.36767, 35.64874]}, "properties": {"kind": "turbine", "i": 34, "mw": 6.0, "hub_m": 120.0, "rotor_m": 150.0}}, {"type": "Feature", "geometry": {"type": "Point", "coordinates": [-101.36709, 35.629]}, "properties": {"kind": "turbine", "i": 35, "mw": 6.0, "hub_m": 120.0, "rotor_m": 150.0}}, {"type": "Feature", "geometry": {"type": "Point", "coordinates": [-101.39048, 35.60221]}, "properties": {"kind": "turbine", "i": 36, "mw": 6.0, "hub_m": 120.0, "rotor_m": 150.0}}, {"type": "Feature", "geometry": {"type": "Point", "coordinates": [-101.46328, 35.61061]}, "properties": {"kind": "turbine", "i": 37, "mw": 6.0, "hub_m": 120.0, "rotor_m": 150.0}}, {"type": "Feature", "geometry": {"type": "Point", "coordinates": [-101.43335, 35.68692]}, "properties": {"kind": "turbine", "i": 38, "mw": 6.0, "hub_m": 120.0, "rotor_m": 150.0}}, {"type": "Feature", "geometry": {"type": "Point", "coordinates": [-101.37073, 35.61576]}, "properties": {"kind": "turbine", "i": 39, "mw": 6.0, "hub_m": 120.0, "rotor_m": 150.0}}, {"type": "Feature", "geometry": {"type": "Point", "coordinates": [-101.40237, 35.59539]}, "properties": {"kind": "turbine", "i": 40, "mw": 6.0, "hub_m": 120.0, "rotor_m": 150.0}}, {"type": "Feature", "geometry": {"type": "Point", "coordinates": [-101.40513, 35.68749]}, "properties": {"kind": "turbine", "i": 41, "mw": 6.0, "hub_m": 120.0, "rotor_m": 150.0}}, {"type": "Feature", "geometry": {"type": "Point", "coordinates": [-101.44938, 35.68331]}, "properties": {"kind": "turbine", "i": 42, "mw": 6.0, "hub_m": 120.0, "rotor_m": 150.0}}, {"type": "Feature", "geometry": {"type": "Point", "coordinates": [-101.43861, 35.59466]}, "properties": {"kind": "turbine", "i": 43, "mw": 6.0, "hub_m": 120.0, "rotor_m": 150.0}}, {"type": "Feature", "geometry": {"type": "Point", "coordinates": [-101.37849, 35.60574]}, "properties": {"kind": "turbine", "i": 44, "mw": 6.0, "hub_m": 120.0, "rotor_m": 150.0}}, {"type": "Feature", "geometry": {"type": "Point", "coordinates": [-101.42135, 35.69046]}, "properties": {"kind": "turbine", "i": 45, "mw": 6.0, "hub_m": 120.0, "rotor_m": 150.0}}, {"type": "Feature", "geometry": {"type": "Point", "coordinates": [-101.48051, 35.64647]}, "properties": {"kind": "turbine", "i": 46, "mw": 6.0, "hub_m": 120.0, "rotor_m": 150.0}}, {"type": "Feature", "geometry": {"type": "Point", "coordinates": [-101.47567, 35.62023]}, "properties": {"kind": "turbine", "i": 47, "mw": 6.0, "hub_m": 120.0, "rotor_m": 150.0}}, {"type": "Feature", "geometry": {"type": "Point", "coordinates": [-101.45895, 35.60083]}, "properties": {"kind": "turbine", "i": 48, "mw": 6.0, "hub_m": 120.0, "rotor_m": 150.0}}, {"type": "Feature", "geometry": {"type": "Point", "coordinates": [-101.46137, 35.67977]}, "properties": {"kind": "turbine", "i": 49, "mw": 6.0, "hub_m": 120.0, "rotor_m": 150.0}}, {"type": "Feature", "geometry": {"type": "Point", "coordinates": [-101.35529, 35.63911]}, "properties": {"kind": "turbine", "i": 50, "mw": 6.0, "hub_m": 120.0, "rotor_m": 150.0}}, {"type": "Feature", "geometry": {"type": "Point", "coordinates": [-101.42633, 35.58832]}, "properties": {"kind": "turbine", "i": 51, "mw": 6.0, "hub_m": 120.0, "rotor_m": 150.0}}, {"type": "Feature", "geometry": {"type": "Point", "coordinates": [-101.47709, 35.66628]}, "properties": {"kind": "turbine", "i": 52, "mw": 6.0, "hub_m": 120.0, "rotor_m": 150.0}}, {"type": "Feature", "geometry": {"type": "Point", "coordinates": [-101.36, 35.66205]}, "properties": {"kind": "turbine", "i": 53, "mw": 6.0, "hub_m": 120.0, "rotor_m": 150.0}}, {"type": "Feature", "geometry": {"type": "Point", "coordinates": [-101.35568, 35.65226]}, "properties": {"kind": "turbine", "i": 54, "mw": 6.0, "hub_m": 120.0, "rotor_m": 150.0}}, {"type": "Feature", "geometry": {"type": "Point", "coordinates": [-101.35874, 35.61929]}, "properties": {"kind": "turbine", "i": 55, "mw": 6.0, "hub_m": 120.0, "rotor_m": 150.0}}, {"type": "Feature", "geometry": {"type": "Point", "coordinates": [-101.36432, 35.67184]}, "properties": {"kind": "turbine", "i": 56, "mw": 6.0, "hub_m": 120.0, "rotor_m": 150.0}}, {"type": "Feature", "geometry": {"type": "Point", "coordinates": [-101.48485, 35.65625]}, "properties": {"kind": "turbine", "i": 57, "mw": 6.0, "hub_m": 120.0, "rotor_m": 150.0}}]}