{"type": "FeatureCollection", "features": [{"type": "Feature", "geometry": {"type": "MultiPolygon", "coordinates": [[[[-101.39589, 35.62118], [-101.39811, 35.62157], [-101.39634, 35.63144], [-101.39079, 35.63149], [-101.3894, 35.63171], [-101.38801, 35.63246], [-101.38725, 35.63404], [-101.38714, 35.63988], [-101.38567, 35.63986], [-101.38686, 35.63351], [-101.38928, 35.62838], [-101.39289, 35.62373], [-101.39589, 35.62118]]], [[[-101.45203, 35.63131], [-101.45069, 35.63254], [-101.45061, 35.63519], [-101.44873, 35.63604], [-101.44833, 35.63785], [-101.4468, 35.63863], [-101.44188, 35.64268], [-101.43674, 35.64121], [-101.43668, 35.63264], [-101.43604, 35.63165], [-101.43459, 35.63109], [-101.43305, 35.63141], [-101.43204, 35.63264], [-101.43201, 35.64001], [-101.429, 35.63941], [-101.4223, 35.6393], [-101.41081, 35.63824], [-101.40855, 35.63827], [-101.40568, 35.63881], [-101.40627, 35.63496], [-101.40654, 35.62507], [-101.40589, 35.62326], [-101.40405, 35.6226], [-101.40451, 35.61709], [-101.40539, 35.61561], [-101.40607, 35.61533], [-101.41247, 35.61361], [-101.41579, 35.61314], [-101.41915, 35.61294], [-101.42588, 35.61334], [-101.43237, 35.61481], [-101.43839, 35.61728], [-101.44371, 35.62066], [-101.44811, 35.62483], [-101.45143, 35.62962], [-101.45203, 35.63131]], [[-101.43945, 35.62411], [-101.43899, 35.62324], [-101.43809, 35.62266], [-101.43536, 35.6225], [-101.43377, 35.62321], [-101.43327, 35.62464], [-101.43368, 35.62552], [-101.43462, 35.62623], [-101.43713, 35.62645], [-101.43888, 35.62569], [-101.43945, 35.62411]], [[-101.41532, 35.62741], [-101.41641, 35.6271], [-101.41718, 35.6264], [-101.41751, 35.62442], [-101.41677, 35.62306], [-101.41508, 35.62253], [-101.41328, 35.62328], [-101.41268, 35.62508], [-101.41342, 35.62685], [-101.41532, 35.62741]]], [[[-101.42784, 35.64793], [-101.42986, 35.64609], [-101.43013, 35.64415], [-101.43086, 35.64426], [-101.43151, 35.64603], [-101.43285, 35.64695], [-101.43341, 35.64826], [-101.4347, 35.64896], [-101.43735, 35.64904], [-101.43743, 35.65016], [-101.43517, 35.65271], [-101.43399, 35.65276], [-101.43186, 35.6514], [-101.42784, 35.64793]]], [[[-101.43815, 35.66466], [-101.43688, 35.66239], [-101.43686, 35.65757], [-101.43994, 35.65773], [-101.44233, 35.65693], [-101.44455, 35.65692], [-101.4446, 35.65895], [-101.4453, 35.65998], [-101.44247, 35.66225], [-101.43815, 35.66466]]], [[[-101.41195, 35.66798], [-101.41084, 35.666], [-101.41202, 35.66474], [-101.41341, 35.66464], [-101.4146, 35.66378], [-101.4164, 35.66006], [-101.41604, 35.65759], [-101.41864, 35.657], [-101.4275, 35.65693], [-101.42886, 35.65759], [-101.4317, 35.65774], [-101.43215, 35.6657], [-101.43147, 35.66744], [-101.42642, 35.66855], [-101.42825, 35.66696], [-101.4282, 35.66509], [-101.42677, 35.66397], [-101.42292, 35.66318], [-101.42104, 35.66385], [-101.41972, 35.66593], [-101.42011, 35.6679], [-101.42161, 35.66902], [-101.41412, 35.66866], [-101.41197, 35.66827], [-101.41195, 35.66798]]], [[[-101.4241, 35.66879], [-101.42429, 35.66867], [-101.4248, 35.66878], [-101.42393, 35.66888], [-101.4241, 35.66879]]], [[[-101.42063, 35.65291], [-101.41206, 35.65042], [-101.41062, 35.64649], [-101.40819, 35.64507], [-101.40557, 35.64493], [-101.40557, 35.64436], [-101.41158, 35.64378], [-101.41354, 35.64393], [-101.41541, 35.64451], [-101.4198, 35.64679], [-101.42291, 35.64937], [-101.42109, 35.65046], [-101.42063, 35.65291]]], [[[-101.45395, 35.64494], [-101.454, 35.64255], [-101.45433, 35.64183], [-101.45398, 35.64517], [-101.45395, 35.64494]]], [[[-101.45435, 35.64129], [-101.45432, 35.64115], [-101.45435, 35.64117], [-101.45435, 35.64129]]], [[[-101.39492, 35.63855], [-101.39433, 35.64289], [-101.39266, 35.64475], [-101.39189, 35.64482], [-101.39196, 35.63533], [-101.39556, 35.63531], [-101.39492, 35.63855]]]]}, "properties": {"kind": "windland", "area_km2": 13.8}}, {"type": "Feature", "geometry": {"type": "Point", "coordinates": [-101.4119, 35.64457]}, "properties": {"kind": "turbine", "i": 0, "mw": 6.0, "hub_m": 120.0, "rotor_m": 150.0}}, {"type": "Feature", "geometry": {"type": "Point", "coordinates": [-101.4236, 35.63117]}, "properties": {"kind": "turbine", "i": 1, "mw": 6.0, "hub_m": 120.0, "rotor_m": 150.0}}, {"type": "Feature", "geometry": {"type": "Point", "coordinates": [-101.43215, 35.64745]}, "properties": {"kind": "turbine", "i": 2, "mw": 6.0, "hub_m": 120.0, "rotor_m": 150.0}}, {"type": "Feature", "geometry": {"type": "Point", "coordinates": [-101.40748, 35.63149]}, "properties": {"kind": "turbine", "i": 3, "mw": 6.0, "hub_m": 120.0, "rotor_m": 150.0}}, {"type": "Feature", "geometry": {"type": "Point", "coordinates": [-101.42439, 35.65748]}, "properties": {"kind": "turbine", "i": 4, "mw": 6.0, "hub_m": 120.0, "rotor_m": 150.0}}, {"type": "Feature", "geometry": {"type": "Point", "coordinates": [-101.43558, 35.62763]}, "properties": {"kind": "turbine", "i": 5, "mw": 6.0, "hub_m": 120.0, "rotor_m": 150.0}}, {"type": "Feature", "geometry": {"type": "Point", "coordinates": [-101.41121, 35.62154]}, "properties": {"kind": "turbine", "i": 6, "mw": 6.0, "hub_m": 120.0, "rotor_m": 150.0}}, {"type": "Feature", "geometry": {"type": "Point", "coordinates": [-101.44797, 35.63726]}, "properties": {"kind": "turbine", "i": 7, "mw": 6.0, "hub_m": 120.0, "rotor_m": 150.0}}, {"type": "Feature", "geometry": {"type": "Point", "coordinates": [-101.4232, 35.61801]}, "properties": {"kind": "turbine", "i": 8, "mw": 6.0, "hub_m": 120.0, "rotor_m": 150.0}}]}