{"type": "FeatureCollection", "features": [{"type": "Feature", "geometry": {"type": "MultiPolygon", "coordinates": [[[[18.26887, 50.45129], [18.26896, 50.45129], [18.26923, 50.45085], [18.269, 50.45088], [18.26887, 50.45129]]], [[[18.27228, 50.44494], [18.27617, 50.44436], [18.2788, 50.44452], [18.28128, 50.44391], [18.28223, 50.44277], [18.27909, 50.44285], [18.27693, 50.44221], [18.27565, 50.44134], [18.27495, 50.44134], [18.27228, 50.44494]]], [[[18.27132, 50.42152], [18.27075, 50.42396], [18.27116, 50.4244], [18.27329, 50.42331], [18.27596, 50.42298], [18.27567, 50.42183], [18.27612, 50.42047], [18.27868, 50.41873], [18.28245, 50.41844], [18.28437, 50.41898], [18.28583, 50.41994], [18.28671, 50.42151], [18.2863, 50.42326], [18.28466, 50.42466], [18.28223, 50.42537], [18.28295, 50.427], [18.28248, 50.42962], [18.28448, 50.43034], [18.28652, 50.43025], [18.28503, 50.43071], [18.28625, 50.43234], [18.28699, 50.43608], [18.28681, 50.43718], [18.2869, 50.43831], [18.28701, 50.43828], [18.2874, 50.43644], [18.28896, 50.43449], [18.29068, 50.43368], [18.29416, 50.4331], [18.28751, 50.43072], [18.29024, 50.42644], [18.28996, 50.4261], [18.29379, 50.42415], [18.29558, 50.42371], [18.29835, 50.42116], [18.2965, 50.42029], [18.29702, 50.41953], [18.30115, 50.41847], [18.30044, 50.41732], [18.30043, 50.41595], [18.30251, 50.41287], [18.30496, 50.4116], [18.30758, 50.41135], [18.31075, 50.4122], [18.31278, 50.41421], [18.31467, 50.4133], [18.31483, 50.41054], [18.31652, 50.40861], [18.31415, 50.40936], [18.31202, 50.4095], [18.30997, 50.40911], [18.30721, 50.40778], [18.30597, 50.4064], [18.30551, 50.40506], [18.30591, 50.4037], [18.30748, 50.40207], [18.31037, 50.40026], [18.31231, 50.3996], [18.31498, 50.39953], [18.31738, 50.40027], [18.31876, 50.40136], [18.31937, 50.40267], [18.31885, 50.4057], [18.318, 50.40745], [18.32253, 50.40598], [18.32357, 50.40362], [18.32539, 50.40221], [18.32786, 50.40159], [18.33037, 50.40175], [18.33121, 50.40002], [18.30745, 50.39559], [18.2985, 50.39288], [18.29152, 50.39745], [18.29019, 50.39878], [18.28644, 50.40076], [18.2864, 50.40147], [18.28999, 50.40203], [18.29226, 50.40345], [18.29306, 50.40565], [18.29235, 50.4073], [18.2889, 50.4096], [18.28673, 50.41011], [18.28458, 50.41007], [18.28371, 50.41192], [18.28156, 50.41315], [18.28108, 50.41424], [18.27992, 50.41508], [18.27809, 50.41546], [18.27653, 50.41522], [18.27538, 50.4146], [18.27346, 50.41497], [18.27298, 50.41689], [18.2713, 50.41829], [18.27132, 50.42152]], [[18.27655, 50.41871], [18.27675, 50.41949], [18.27581, 50.41884], [18.27566, 50.41693], [18.27655, 50.41871]], [[18.2949, 50.39694], [18.2936, 50.39611], [18.29534, 50.39503], [18.29641, 50.39591], [18.2949, 50.39694]], [[18.29399, 50.40253], [18.29186, 50.40152], [18.29231, 50.40119], [18.29348, 50.40128], [18.29387, 50.4009], [18.29488, 50.40124], [18.29399, 50.40253]]], [[[18.2931, 50.39088], [18.29183, 50.39042], [18.28786, 50.39241], [18.28713, 50.39167], [18.29075, 50.39003], [18.28607, 50.38848], [18.28329, 50.38796], [18.28175, 50.38863], [18.28082, 50.38796], [18.27765, 50.38759], [18.27653, 50.38643], [18.27559, 50.38735], [18.27589, 50.39014], [18.27524, 50.39032], [18.27472, 50.38599], [18.27392, 50.38582], [18.27468, 50.39059], [18.27391, 50.39187], [18.27198, 50.39304], [18.26927, 50.39353], [18.26667, 50.39316], [18.26448, 50.39188], [18.26353, 50.392], [18.26283, 50.38984], [18.26125, 50.39172], [18.26349, 50.39469], [18.26605, 50.39566], [18.2674, 50.3971], [18.26789, 50.39913], [18.26779, 50.40234], [18.26888, 50.40662], [18.27045, 50.40566], [18.2709, 50.40384], [18.27197, 50.40265], [18.27538, 50.40143], [18.27556, 50.39988], [18.27657, 50.39868], [18.27973, 50.39747], [18.27929, 50.39532], [18.28076, 50.39351], [18.28265, 50.39269], [18.28474, 50.39241], [18.2894, 50.39331], [18.2931, 50.39088]]], [[[18.25762, 50.39579], [18.25539, 50.39283], [18.25274, 50.39187], [18.25128, 50.39017], [18.24699, 50.38785], [18.24472, 50.38764], [18.24279, 50.38687], [18.23948, 50.38802], [18.23971, 50.3884], [18.24196, 50.38786], [18.24327, 50.38985], [18.24164, 50.39008], [18.24149, 50.38975], [18.23861, 50.39061], [18.23859, 50.38989], [18.23743, 50.38853], [18.23343, 50.38936], [18.23044, 50.38963], [18.22859, 50.38943], [18.22643, 50.39176], [18.22959, 50.39223], [18.22619, 50.392], [18.22314, 50.39378], [18.22197, 50.3967], [18.22239, 50.3971], [18.22718, 50.39576], [18.22593, 50.39422], [18.22703, 50.39392], [18.22851, 50.39551], [18.23619, 50.39345], [18.23857, 50.39319], [18.23917, 50.39439], [18.23995, 50.39436], [18.24024, 50.39225], [18.24321, 50.39153], [18.24362, 50.39313], [18.24297, 50.39368], [18.24286, 50.39481], [18.24185, 50.39562], [18.24156, 50.39484], [18.24102, 50.39503], [18.24132, 50.39566], [18.24033, 50.39596], [18.24079, 50.39788], [18.24348, 50.3966], [18.24638, 50.39639], [18.24931, 50.39722], [18.25108, 50.39878], [18.25126, 50.40132], [18.24906, 50.40322], [18.24547, 50.40379], [18.24369, 50.40352], [18.24199, 50.40279], [18.23885, 50.40381], [18.23608, 50.40116], [18.23544, 50.40098], [18.23694, 50.403], [18.23481, 50.40081], [18.23357, 50.40049], [18.23169, 50.4008], [18.23074, 50.39968], [18.22896, 50.39922], [18.22755, 50.39981], [18.22699, 50.39964], [18.22826, 50.39904], [18.2228, 50.39767], [18.22311, 50.39912], [18.22211, 50.40145], [18.22423, 50.40184], [18.22552, 50.40256], [18.23699, 50.41514], [18.23837, 50.41446], [18.24049, 50.41404], [18.24262, 50.41418], [18.24486, 50.41487], [18.24581, 50.41312], [18.24723, 50.4121], [18.25069, 50.41138], [18.2522, 50.41034], [18.25536, 50.40928], [18.25599, 50.40514], [18.25506, 50.40277], [18.25545, 50.40095], [18.25468, 50.39859], [18.25561, 50.39699], [18.25762, 50.39579]]], [[[18.22895, 50.41422], [18.22094, 50.40524], [18.21933, 50.40498], [18.21623, 50.40699], [18.21371, 50.40754], [18.20731, 50.40694], [18.20518, 50.40624], [18.20323, 50.40677], [18.20122, 50.40684], [18.19525, 50.40512], [18.19008, 50.40561], [18.19096, 50.40439], [18.1917, 50.40423], [18.19158, 50.40387], [18.18639, 50.40238], [18.1858, 50.40362], [18.19305, 50.41084], [18.19326, 50.41219], [18.19247, 50.41497], [18.19645, 50.41439], [18.19966, 50.4133], [18.20179, 50.41332], [18.20356, 50.41378], [18.20374, 50.41288], [18.20466, 50.41251], [18.20525, 50.41315], [18.20598, 50.41294], [18.20555, 50.41232], [18.20615, 50.41291], [18.20743, 50.41184], [18.21085, 50.41119], [18.2111, 50.41153], [18.21167, 50.41084], [18.21254, 50.41119], [18.21159, 50.41192], [18.21034, 50.41192], [18.21047, 50.41223], [18.20412, 50.41404], [18.20456, 50.41429], [18.211, 50.41239], [18.21098, 50.41279], [18.21195, 50.41329], [18.2105, 50.41487], [18.20829, 50.41578], [18.20635, 50.41612], [18.20716, 50.41904], [18.20512, 50.42258], [18.20275, 50.42391], [18.19912, 50.42416], [18.19824, 50.42571], [18.19862, 50.4259], [18.20439, 50.42418], [18.21852, 50.42202], [18.21906, 50.42038], [18.22075, 50.41906], [18.23081, 50.41613], [18.22895, 50.41422]], [[18.21193, 50.41007], [18.21147, 50.41065], [18.20906, 50.41126], [18.21013, 50.41002], [18.2109, 50.41049], [18.21193, 50.41007]], [[18.22171, 50.40921], [18.22081, 50.40942], [18.22127, 50.40854], [18.22171, 50.40921]], [[18.22095, 50.40995], [18.2207, 50.40975], [18.22196, 50.40935], [18.22185, 50.40989], [18.22095, 50.40995]]], [[[18.19536, 50.4185], [18.19459, 50.41862], [18.19156, 50.41906], [18.19214, 50.41976], [18.1949, 50.41996], [18.19536, 50.4185]]], [[[18.18303, 50.41337], [18.18509, 50.4132], [18.18674, 50.41359], [18.18722, 50.41192], [18.18099, 50.40596], [18.17816, 50.4059], [18.17614, 50.40516], [18.1741, 50.40698], [18.17279, 50.40755], [18.17418, 50.40867], [18.17502, 50.41025], [18.17481, 50.41163], [18.17364, 50.41294], [18.17873, 50.41216], [18.18303, 50.41337]], [[18.17912, 50.40866], [18.17981, 50.40819], [18.17922, 50.40775], [18.17864, 50.4084], [18.17912, 50.40758], [18.18156, 50.40739], [18.18154, 50.40994], [18.17948, 50.40942], [18.17912, 50.40866]], [[18.18213, 50.40998], [18.18169, 50.41017], [18.18174, 50.4096], [18.18241, 50.40983], [18.18213, 50.40998]]], [[[18.20192, 50.40299], [18.20248, 50.40278], [18.20243, 50.40264], [18.20173, 50.40293], [18.20192, 50.40299]]], [[[18.20143, 50.39583], [18.201, 50.3962], [18.19996, 50.39473], [18.19587, 50.39169], [18.19843, 50.39487], [18.19837, 50.39734], [18.20255, 50.40043], [18.20185, 50.39818], [18.20186, 50.39582], [18.20143, 50.39583]]], [[[18.19298, 50.3901], [18.19284, 50.38871], [18.1919, 50.38866], [18.19229, 50.38667], [18.19225, 50.38798], [18.19306, 50.3865], [18.19493, 50.38592], [18.1961, 50.38198], [18.19508, 50.38114], [18.19907, 50.38133], [18.19852, 50.37824], [18.1922, 50.37757], [18.19098, 50.37831], [18.19115, 50.37684], [18.19055, 50.37679], [18.19012, 50.37884], [18.19027, 50.37682], [18.18906, 50.37674], [18.18759, 50.37834], [18.18744, 50.37979], [18.18623, 50.37985], [18.1843, 50.38117], [18.18585, 50.3829], [18.18627, 50.38455], [18.18475, 50.38796], [18.18265, 50.38983], [18.18491, 50.39235], [18.18973, 50.39059], [18.19162, 50.39038], [18.19371, 50.39065], [18.19298, 50.3901]]], [[[18.13572, 50.38393], [18.13876, 50.37642], [18.14153, 50.37363], [18.1414, 50.37124], [18.13851, 50.37474], [18.13481, 50.37502], [18.13401, 50.37674], [18.13163, 50.37753], [18.13159, 50.37936], [18.12872, 50.38242], [18.1302, 50.3835], [18.13091, 50.38472], [18.13339, 50.38445], [18.13537, 50.38477], [18.13572, 50.38393]]], [[[18.12912, 50.37346], [18.12942, 50.37339], [18.12883, 50.37295], [18.12907, 50.37348], [18.12912, 50.37346]]], [[[18.14959, 50.36602], [18.15302, 50.36524], [18.15452, 50.36419], [18.15401, 50.36205], [18.15289, 50.36121], [18.15008, 50.36041], [18.14331, 50.36102], [18.13892, 50.36391], [18.13754, 50.36809], [18.13623, 50.36954], [18.13454, 50.37052], [18.13504, 50.37079], [18.13677, 50.37062], [18.1389, 50.36901], [18.14113, 50.37058], [18.14051, 50.36744], [18.14118, 50.36649], [18.14247, 50.36587], [18.14673, 50.3656], [18.14889, 50.36617], [18.14959, 50.36602]]], [[[18.22195, 50.36522], [18.22144, 50.36565], [18.22532, 50.36753], [18.22624, 50.36629], [18.22473, 50.36542], [18.22472, 50.36478], [18.22195, 50.36522]]], [[[18.2257, 50.36511], [18.22683, 50.36587], [18.22886, 50.36491], [18.22824, 50.3644], [18.22743, 50.36502], [18.2263, 50.36422], [18.22547, 50.36457], [18.2257, 50.36511]]], [[[18.2297, 50.37581], [18.2321, 50.37536], [18.23475, 50.3756], [18.23342, 50.375], [18.23136, 50.37523], [18.22911, 50.37489], [18.2297, 50.37581]]], [[[18.2748, 50.38177], [18.27676, 50.38228], [18.277, 50.38178], [18.27493, 50.38151], [18.2748, 50.38177]]], [[[18.30341, 50.37469], [18.30484, 50.37549], [18.30781, 50.37358], [18.30584, 50.37277], [18.30215, 50.37251], [18.29945, 50.37432], [18.29743, 50.37218], [18.29604, 50.37224], [18.29908, 50.37549], [18.30177, 50.37568], [18.30341, 50.37469]]], [[[18.29309, 50.38104], [18.29079, 50.37969], [18.28997, 50.37975], [18.29249, 50.38127], [18.29207, 50.3816], [18.29591, 50.38395], [18.29297, 50.38566], [18.2913, 50.38472], [18.29111, 50.38568], [18.29757, 50.38797], [18.30571, 50.38266], [18.30449, 50.38128], [18.30208, 50.38255], [18.29981, 50.38283], [18.29797, 50.38264], [18.29675, 50.3835], [18.29792, 50.38263], [18.29589, 50.38195], [18.29432, 50.38057], [18.29309, 50.38104]]], [[[18.30698, 50.38734], [18.30292, 50.38999], [18.30938, 50.39194], [18.33305, 50.39633], [18.33602, 50.39665], [18.33901, 50.39168], [18.33857, 50.39084], [18.33668, 50.39015], [18.3353, 50.38899], [18.3339, 50.3886], [18.33094, 50.38853], [18.32724, 50.38734], [18.32425, 50.388], [18.32025, 50.38726], [18.31487, 50.38736], [18.31271, 50.38666], [18.31049, 50.38505], [18.30698, 50.38734]]], [[[18.34269, 50.39616], [18.34219, 50.39706], [18.34342, 50.39714], [18.34361, 50.39675], [18.34269, 50.39616]]], [[[18.35834, 50.39349], [18.36, 50.39619], [18.365, 50.39497], [18.37749, 50.39082], [18.37608, 50.38991], [18.37529, 50.38877], [18.37391, 50.38867], [18.37371, 50.38948], [18.37373, 50.38867], [18.37141, 50.3887], [18.37027, 50.38978], [18.36843, 50.39065], [18.36627, 50.39097], [18.36417, 50.39074], [18.35899, 50.39229], [18.35834, 50.39349]], [[18.37365, 50.39144], [18.37369, 50.39093], [18.3738, 50.39089], [18.37356, 50.39199], [18.37365, 50.39144]]], [[[18.36921, 50.38415], [18.36973, 50.38257], [18.37196, 50.38166], [18.37094, 50.38097], [18.36796, 50.38064], [18.36485, 50.3818], [18.36419, 50.38244], [18.36921, 50.38415]]], [[[18.39237, 50.38338], [18.39128, 50.38265], [18.38689, 50.3836], [18.38896, 50.38641], [18.39154, 50.38667], [18.39062, 50.3854], [18.39229, 50.38673], [18.39324, 50.38674], [18.39236, 50.38525], [18.39237, 50.38338]]], [[[18.4087, 50.38219], [18.40828, 50.38412], [18.40862, 50.38417], [18.40865, 50.38442], [18.41422, 50.38422], [18.41436, 50.38379], [18.41478, 50.38425], [18.4191, 50.38481], [18.41997, 50.38448], [18.4175, 50.38349], [18.41629, 50.38191], [18.41389, 50.38127], [18.41154, 50.38194], [18.40881, 50.38183], [18.4087, 50.38219]]], [[[18.42458, 50.3771], [18.43274, 50.37886], [18.43504, 50.37936], [18.43397, 50.37851], [18.43374, 50.37726], [18.43275, 50.37694], [18.42738, 50.37634], [18.42575, 50.37657], [18.42517, 50.37611], [18.42352, 50.37652], [18.42458, 50.3771]]], [[[18.41432, 50.3603], [18.41627, 50.3602], [18.41939, 50.35829], [18.42227, 50.35754], [18.42095, 50.35767], [18.42075, 50.35736], [18.42455, 50.35701], [18.42274, 50.35566], [18.42216, 50.35415], [18.41432, 50.35497], [18.41427, 50.35636], [18.41336, 50.35775], [18.41393, 50.35917], [18.4137, 50.36047], [18.41432, 50.3603]]], [[[18.41963, 50.35049], [18.42835, 50.34961], [18.42264, 50.34638], [18.42224, 50.34468], [18.41863, 50.345], [18.41893, 50.34895], [18.41922, 50.35053], [18.41963, 50.35049]]], [[[18.41733, 50.34294], [18.41869, 50.34101], [18.4185, 50.34027], [18.41975, 50.33954], [18.41837, 50.33641], [18.41309, 50.33727], [18.41434, 50.33807], [18.41525, 50.3394], [18.41485, 50.34228], [18.41703, 50.34313], [18.41733, 50.34294]], [[18.41602, 50.33788], [18.41673, 50.33775], [18.4169, 50.33852], [18.41626, 50.33861], [18.41602, 50.33788]]], [[[18.39937, 50.36342], [18.3994, 50.3617], [18.39846, 50.36033], [18.39654, 50.35973], [18.39512, 50.35871], [18.39388, 50.35531], [18.39501, 50.35315], [18.39653, 50.35222], [18.39882, 50.35165], [18.4011, 50.34902], [18.40132, 50.34714], [18.39988, 50.34556], [18.39981, 50.3438], [18.39937, 50.34385], [18.39996, 50.34793], [18.39638, 50.34863], [18.39716, 50.35028], [18.38295, 50.3558], [18.37175, 50.35406], [18.37167, 50.35434], [18.38309, 50.35609], [18.38836, 50.35835], [18.38371, 50.36047], [18.38473, 50.36191], [18.3841, 50.3624], [18.39097, 50.36367], [18.39145, 50.36338], [18.39219, 50.36388], [18.39499, 50.36428], [18.39858, 50.36289], [18.39937, 50.36342]], [[18.38974, 50.35873], [18.3904, 50.35939], [18.38944, 50.35978], [18.38878, 50.35911], [18.38974, 50.35873]], [[18.38817, 50.36068], [18.38979, 50.362], [18.38863, 50.36155], [18.38817, 50.36068]]], [[[18.39638, 50.36406], [18.39557, 50.36435], [18.39843, 50.36457], [18.39929, 50.36403], [18.3989, 50.36313], [18.39638, 50.36406]]], [[[18.36542, 50.36651], [18.36515, 50.3686], [18.3668, 50.36874], [18.36744, 50.36768], [18.36882, 50.36669], [18.36542, 50.36651]]], [[[18.36469, 50.3665], [18.35516, 50.366], [18.3551, 50.36679], [18.35281, 50.36677], [18.35288, 50.36592], [18.34804, 50.36562], [18.34577, 50.36774], [18.3471, 50.36992], [18.34601, 50.37212], [18.34879, 50.37195], [18.34877, 50.37228], [18.35019, 50.37233], [18.35118, 50.37006], [18.35414, 50.36871], [18.36457, 50.36863], [18.36469, 50.3665]]], [[[18.26359, 50.33775], [18.26327, 50.33633], [18.26307, 50.33684], [18.25957, 50.33119], [18.26291, 50.33716], [18.26247, 50.33813], [18.26133, 50.33817], [18.26215, 50.33872], [18.26219, 50.3394], [18.26311, 50.33767], [18.26361, 50.33854], [18.26359, 50.33775]]], [[[18.2535, 50.27251], [18.25872, 50.2725], [18.26106, 50.27159], [18.25969, 50.27036], [18.26001, 50.26997], [18.25852, 50.27068], [18.25707, 50.27108], [18.25282, 50.27179], [18.2586, 50.27052], [18.26174, 50.26836], [18.25976, 50.26573], [18.25979, 50.26436], [18.26055, 50.26308], [18.25875, 50.26196], [18.2559, 50.26364], [18.25781, 50.2654], [18.25835, 50.26658], [18.25759, 50.26865], [18.25609, 50.26969], [18.25322, 50.27007], [18.2482, 50.26991], [18.24642, 50.26947], [18.2454, 50.26863], [18.23825, 50.26793], [18.23606, 50.2701], [18.23623, 50.27051], [18.23963, 50.27112], [18.2414, 50.27225], [18.24359, 50.27202], [18.24549, 50.2723], [18.24819, 50.27182], [18.25029, 50.27208], [18.25208, 50.27285], [18.2535, 50.27251]], [[18.25988, 50.27085], [18.25915, 50.27131], [18.25876, 50.2708], [18.25942, 50.2705], [18.25988, 50.27085]], [[18.25292, 50.27111], [18.25307, 50.27126], [18.2526, 50.27116], [18.25272, 50.27112], [18.25292, 50.27111]]], [[[18.26196, 50.26813], [18.26049, 50.26972], [18.26101, 50.27012], [18.26284, 50.26945], [18.2632, 50.2701], [18.264, 50.26904], [18.26196, 50.26813]]], [[[18.28181, 50.25214], [18.28249, 50.25213], [18.2829, 50.25177], [18.28186, 50.25136], [18.28181, 50.25214]]], [[[18.28193, 50.25117], [18.28412, 50.25177], [18.28448, 50.25145], [18.28198, 50.25074], [18.28193, 50.25117]]], [[[18.28472, 50.25121], [18.28235, 50.25038], [18.28217, 50.25049], [18.28472, 50.25121]]], [[[18.28498, 50.25085], [18.28362, 50.25021], [18.28292, 50.25026], [18.28498, 50.25085]]], [[[18.28498, 50.25039], [18.28539, 50.25034], [18.28606, 50.24967], [18.28505, 50.24942], [18.28368, 50.25005], [18.28498, 50.25039]]], [[[18.28632, 50.2495], [18.28669, 50.24927], [18.28587, 50.24938], [18.28632, 50.2495]]], [[[18.16648, 50.28429], [18.16855, 50.28727], [18.16901, 50.28594], [18.17022, 50.28489], [18.16903, 50.28455], [18.16884, 50.28348], [18.16983, 50.28322], [18.16969, 50.28348], [18.17125, 50.28335], [18.17241, 50.28364], [18.17081, 50.2835], [18.17244, 50.28434], [18.17209, 50.28495], [18.1729, 50.28538], [18.17037, 50.2883], [18.16917, 50.28725], [18.16898, 50.29029], [18.17131, 50.28932], [18.17181, 50.2895], [18.1738, 50.29158], [18.17526, 50.29234], [18.17432, 50.29271], [18.1758, 50.29459], [18.1758, 50.29594], [18.1751, 50.29724], [18.17369, 50.29826], [18.17217, 50.29878], [18.1726, 50.30133], [18.17195, 50.30267], [18.1705, 50.30378], [18.1708, 50.305], [18.17467, 50.30495], [18.17894, 50.30639], [18.18003, 50.30711], [18.18347, 50.30732], [18.18415, 50.3055], [18.18678, 50.30371], [18.18566, 50.30248], [18.18539, 50.30115], [18.18596, 50.29976], [18.18708, 50.29878], [18.18431, 50.29739], [18.18343, 50.29543], [18.18441, 50.29346], [18.18689, 50.29219], [18.18675, 50.29091], [18.18608, 50.29019], [18.18415, 50.29107], [18.18273, 50.28907], [18.18387, 50.28883], [18.18186, 50.28704], [18.17852, 50.28648], [18.1765, 50.28497], [18.17593, 50.28264], [18.17777, 50.28062], [18.17619, 50.27756], [18.16624, 50.28407], [18.16648, 50.28429]], [[18.17281, 50.2837], [18.17296, 50.28341], [18.17349, 50.28427], [18.17294, 50.28401], [18.17281, 50.2837]], [[18.17878, 50.28722], [18.17757, 50.2875], [18.17734, 50.28726], [18.17867, 50.28669], [18.17878, 50.28722]], [[18.17414, 50.28979], [18.17501, 50.28909], [18.17382, 50.28852], [18.17464, 50.28693], [18.17405, 50.28673], [18.17349, 50.28778], [18.17276, 50.28767], [18.17281, 50.28673], [18.17234, 50.28658], [18.17325, 50.28559], [18.17637, 50.28747], [18.17551, 50.28737], [18.17458, 50.28779], [18.17582, 50.28831], [18.17435, 50.28837], [18.1754, 50.28884], [18.17479, 50.29074], [18.17358, 50.29033], [18.17472, 50.29015], [18.17414, 50.28979]], [[18.18012, 50.29368], [18.18069, 50.2942], [18.17977, 50.29465], [18.17909, 50.29374], [18.18012, 50.29368]], [[18.1793, 50.29632], [18.17945, 50.29604], [18.17929, 50.29647], [18.17888, 50.29665], [18.1793, 50.29632]], [[18.17622, 50.29919], [18.17606, 50.30004], [18.17429, 50.2997], [18.17463, 50.29914], [18.17622, 50.29919]]], [[[18.19266, 50.28981], [18.19276, 50.2913], [18.19299, 50.29182], [18.19398, 50.28948], [18.19266, 50.28981]]], [[[18.12746, 50.33197], [18.12838, 50.33203], [18.12855, 50.32989], [18.13063, 50.32806], [18.13241, 50.3273], [18.13556, 50.3269], [18.13558, 50.32483], [18.13015, 50.32473], [18.12721, 50.33118], [18.12699, 50.33192], [18.12746, 50.33197]]], [[[18.1891, 50.27091], [18.18714, 50.27166], [18.18905, 50.27243], [18.18938, 50.27082], [18.1891, 50.27091]]], [[[18.13866, 50.31421], [18.14775, 50.30256], [18.14558, 50.30196], [18.14245, 50.30579], [18.14288, 50.30731], [18.14245, 50.30916], [18.13807, 50.31324], [18.13747, 50.31495], [18.13784, 50.31526], [18.13866, 50.31421]]], [[[18.15208, 50.30725], [18.15412, 50.30861], [18.15563, 50.30782], [18.15188, 50.30712], [18.15208, 50.30725]]], [[[18.16061, 50.41849], [18.16112, 50.42074], [18.15965, 50.42298], [18.16018, 50.42339], [18.16299, 50.42249], [18.16333, 50.42288], [18.16244, 50.42317], [18.16317, 50.42382], [18.16241, 50.42389], [18.16192, 50.42337], [18.16063, 50.42373], [18.16298, 50.42552], [18.16433, 50.42557], [18.16703, 50.42405], [18.16882, 50.42351], [18.16992, 50.42136], [18.16253, 50.41453], [18.15968, 50.41474], [18.15761, 50.41438], [18.15592, 50.41354], [18.15469, 50.4122], [18.15376, 50.41274], [18.15465, 50.41413], [18.1589, 50.41579], [18.16061, 50.41849]]], [[[18.17047, 50.41508], [18.17086, 50.41451], [18.17114, 50.41422], [18.1699, 50.41455], [18.17047, 50.41508]]], [[[18.15389, 50.41247], [18.15464, 50.4121], [18.1544, 50.41114], [18.15286, 50.41209], [18.15318, 50.41228], [18.15354, 50.41203], [18.15389, 50.41247]]], [[[18.14934, 50.40534], [18.1495, 50.40532], [18.14948, 50.40524], [18.14934, 50.40534]]], [[[18.16819, 50.29138], [18.16773, 50.29074], [18.16545, 50.29197], [18.16263, 50.2923], [18.1624, 50.29294], [18.16335, 50.29341], [18.16545, 50.29342], [18.1669, 50.29235], [18.1692, 50.2917], [18.16879, 50.29115], [18.16819, 50.29138]]], [[[18.16874, 50.32488], [18.16887, 50.32556], [18.17057, 50.32512], [18.16936, 50.3246], [18.16874, 50.32488]]], [[[18.19504, 50.31808], [18.19121, 50.31752], [18.18924, 50.31813], [18.18663, 50.32339], [18.18382, 50.32548], [18.19068, 50.32382], [18.18944, 50.32257], [18.18725, 50.3224], [18.18941, 50.32243], [18.18979, 50.32128], [18.19107, 50.32052], [18.19385, 50.32052], [18.19571, 50.31917], [18.19504, 50.31808]]], [[[18.19365, 50.32721], [18.18766, 50.32876], [18.18742, 50.32883], [18.18897, 50.32908], [18.19135, 50.32867], [18.19398, 50.32761], [18.19421, 50.32707], [18.19365, 50.32721]]], [[[18.17974, 50.32809], [18.18106, 50.32665], [18.17268, 50.32993], [18.17399, 50.33174], [18.17467, 50.33205], [18.17513, 50.33077], [18.1768, 50.32918], [18.17974, 50.32809]]], [[[18.16809, 50.40612], [18.16804, 50.40601], [18.16754, 50.40641], [18.16823, 50.40635], [18.16809, 50.40612]]], [[[18.2079, 50.31075], [18.208, 50.31045], [18.20534, 50.30928], [18.20325, 50.31009], [18.20392, 50.31158], [18.20636, 50.3125], [18.20753, 50.31364], [18.20794, 50.31503], [18.2092, 50.31535], [18.21203, 50.31345], [18.21186, 50.31279], [18.20942, 50.3122], [18.2079, 50.31075]]], [[[18.21065, 50.3123], [18.21185, 50.31264], [18.21202, 50.31167], [18.21068, 50.31092], [18.20839, 50.31052], [18.20871, 50.31148], [18.21065, 50.3123]]], [[[18.19066, 50.32978], [18.19201, 50.32962], [18.19391, 50.32859], [18.19392, 50.32787], [18.19066, 50.32978]]], [[[18.19819, 50.39788], [18.1978, 50.39816], [18.1984, 50.40005], [18.19922, 50.39965], [18.19885, 50.39945], [18.19939, 50.39892], [18.19819, 50.39788]]], [[[18.24936, 50.37046], [18.25058, 50.37102], [18.25091, 50.37069], [18.25005, 50.37038], [18.25093, 50.37016], [18.25125, 50.37047], [18.2517, 50.37018], [18.25222, 50.37106], [18.25095, 50.37121], [18.253, 50.3723], [18.25437, 50.37204], [18.25454, 50.37075], [18.25319, 50.37027], [18.25252, 50.37081], [18.25228, 50.37042], [18.2528, 50.37002], [18.2502, 50.37014], [18.24936, 50.37046]]], [[[18.24155, 50.37187], [18.24112, 50.37168], [18.24069, 50.37148], [18.24092, 50.37197], [18.24194, 50.37203], [18.24155, 50.37187]]], [[[18.26533, 50.36756], [18.2665, 50.36777], [18.2651, 50.36692], [18.26439, 50.36857], [18.26472, 50.36877], [18.26533, 50.36756]]], [[[18.26463, 50.36892], [18.26472, 50.36877], [18.26404, 50.36962], [18.26463, 50.36892]]], [[[18.26007, 50.34341], [18.25937, 50.34481], [18.25983, 50.34506], [18.26069, 50.34353], [18.26007, 50.34341]]], [[[18.24596, 50.34077], [18.24692, 50.34292], [18.24645, 50.34274], [18.24471, 50.34399], [18.24739, 50.34599], [18.24809, 50.34538], [18.2482, 50.34572], [18.24864, 50.34543], [18.24657, 50.34089], [18.24596, 50.34077]]], [[[18.24447, 50.33638], [18.24414, 50.3348], [18.24634, 50.33121], [18.2458, 50.33118], [18.24374, 50.33442], [18.24195, 50.33128], [18.24388, 50.33627], [18.24447, 50.33638]]], [[[18.23671, 50.34005], [18.23659, 50.34011], [18.23685, 50.34012], [18.23671, 50.34005], [18.23671, 50.34005]]], [[[18.22425, 50.27999], [18.22692, 50.28017], [18.22864, 50.28171], [18.23103, 50.28062], [18.23157, 50.27967], [18.23111, 50.27799], [18.23046, 50.27864], [18.22965, 50.2787], [18.23115, 50.27775], [18.23025, 50.27751], [18.22957, 50.27773], [18.22825, 50.27858], [18.22612, 50.27905], [18.22425, 50.27999]]], [[[18.2296, 50.28577], [18.22792, 50.28615], [18.22599, 50.28606], [18.22594, 50.29055], [18.22755, 50.28989], [18.22991, 50.29001], [18.23032, 50.28972], [18.23052, 50.28929], [18.2294, 50.2879], [18.22814, 50.2881], [18.22771, 50.28702], [18.22812, 50.28775], [18.23003, 50.28741], [18.2296, 50.28577]]], [[[18.22501, 50.29109], [18.22266, 50.29254], [18.22231, 50.29424], [18.22536, 50.29327], [18.22496, 50.292], [18.22563, 50.29053], [18.22501, 50.29109]]], [[[18.21839, 50.29735], [18.21715, 50.29647], [18.216, 50.29891], [18.21754, 50.29897], [18.21909, 50.29813], [18.21839, 50.29735]]], [[[18.20939, 50.29632], [18.20945, 50.29619], [18.20938, 50.29622], [18.20939, 50.29632]]], [[[18.22812, 50.30149], [18.22831, 50.30106], [18.22788, 50.30177], [18.22812, 50.30149]]], [[[18.19618, 50.30617], [18.19679, 50.30617], [18.19764, 50.30624], [18.19607, 50.30559], [18.19618, 50.30617]]], [[[18.18166, 50.34287], [18.18151, 50.34262], [18.18049, 50.34334], [18.18083, 50.34532], [18.18283, 50.34587], [18.18527, 50.3449], [18.18325, 50.34424], [18.18166, 50.34287]]], [[[18.23761, 50.30751], [18.23843, 50.30733], [18.24338, 50.29652], [18.24241, 50.29672], [18.23761, 50.30751]]], [[[18.205, 50.26874], [18.20418, 50.26917], [18.20558, 50.27101], [18.20735, 50.27229], [18.20822, 50.27163], [18.20872, 50.26969], [18.20645, 50.26775], [18.205, 50.26874]], [[18.20708, 50.26973], [18.20709, 50.26981], [18.2069, 50.26979], [18.20693, 50.26968], [18.20708, 50.26973]]], [[[18.26365, 50.46119], [18.26396, 50.46095], [18.25795, 50.46081], [18.26337, 50.46146], [18.26365, 50.46119]]], [[[18.31721, 50.42175], [18.31725, 50.42135], [18.31502, 50.42335], [18.3138, 50.42318], [18.30903, 50.42715], [18.30538, 50.42679], [18.3059, 50.42719], [18.30461, 50.42665], [18.30323, 50.42836], [18.30128, 50.43241], [18.29942, 50.43245], [18.29855, 50.4336], [18.30089, 50.43476], [18.30338, 50.43398], [18.30629, 50.43407], [18.3079, 50.43317], [18.30854, 50.43196], [18.31012, 50.43083], [18.31038, 50.42926], [18.31142, 50.42806], [18.31371, 50.427], [18.31559, 50.42669], [18.3177, 50.42553], [18.31721, 50.42175]]], [[[18.28664, 50.26433], [18.28579, 50.26426], [18.28578, 50.26427], [18.28664, 50.26434], [18.28664, 50.26433]]], [[[18.28684, 50.37252], [18.28758, 50.37198], [18.28756, 50.37109], [18.28878, 50.37144], [18.28778, 50.37207], [18.28941, 50.3728], [18.29096, 50.37125], [18.28724, 50.37025], [18.28684, 50.37252]]], [[[18.28443, 50.37599], [18.28432, 50.37625], [18.28487, 50.37621], [18.28444, 50.37597], [18.28443, 50.37599]]], [[[18.40825, 50.38444], [18.4085, 50.38442], [18.40846, 50.38422], [18.40827, 50.38427], [18.40825, 50.38444]]], [[[18.44824, 50.38923], [18.4485, 50.38939], [18.44855, 50.38929], [18.44824, 50.38923]]], [[[18.42754, 50.36077], [18.4296, 50.36255], [18.43096, 50.36244], [18.43949, 50.36007], [18.44206, 50.35891], [18.43868, 50.35918], [18.43502, 50.35862], [18.42754, 50.36077]]], [[[18.45671, 50.35694], [18.45619, 50.35687], [18.45574, 50.35678], [18.45676, 50.35735], [18.45671, 50.35694]]], [[[18.45359, 50.35588], [18.45173, 50.35592], [18.44933, 50.35747], [18.45286, 50.35956], [18.45489, 50.35952], [18.45679, 50.35995], [18.45679, 50.35843], [18.45584, 50.35787], [18.45631, 50.35751], [18.45359, 50.35588]]], [[[18.33921, 50.34784], [18.34477, 50.34902], [18.3452, 50.34966], [18.34556, 50.3492], [18.34754, 50.34957], [18.34726, 50.3504], [18.34806, 50.35019], [18.34832, 50.34967], [18.36194, 50.35219], [18.36398, 50.35376], [18.36228, 50.35198], [18.33921, 50.34784]]], [[[18.32209, 50.34447], [18.32195, 50.34477], [18.32938, 50.34614], [18.3295, 50.34584], [18.32209, 50.34447]]], [[[18.38369, 50.27222], [18.38354, 50.27218], [18.38252, 50.27294], [18.38447, 50.27238], [18.38369, 50.27222]]], [[[18.44068, 50.38536], [18.43844, 50.38488], [18.43868, 50.38563], [18.44116, 50.38566], [18.44077, 50.38585], [18.44197, 50.38563], [18.44068, 50.38536]]], [[[18.43933, 50.38618], [18.43964, 50.38609], [18.43888, 50.38599], [18.43922, 50.38622], [18.43933, 50.38618]]], [[[18.14187, 50.38419], [18.14582, 50.38443], [18.14507, 50.38406], [18.14323, 50.38394], [18.14565, 50.38368], [18.14418, 50.38329], [18.14607, 50.38348], [18.1449, 50.38287], [18.14487, 50.38241], [18.144, 50.38232], [18.1441, 50.38174], [18.14592, 50.38183], [18.14486, 50.38079], [18.14333, 50.38066], [18.14187, 50.38419]]], [[[18.3326, 50.45914], [18.33194, 50.45844], [18.3311, 50.45847], [18.32836, 50.45887], [18.32805, 50.45943], [18.32687, 50.45915], [18.32705, 50.45872], [18.32466, 50.45767], [18.32335, 50.45886], [18.3245, 50.45917], [18.32432, 50.45982], [18.32294, 50.45965], [18.32175, 50.46081], [18.3326, 50.45914]]], [[[18.31926, 50.44775], [18.31859, 50.44555], [18.3194, 50.44334], [18.31645, 50.4446], [18.3139, 50.44489], [18.31104, 50.44435], [18.30903, 50.44355], [18.30464, 50.44386], [18.29856, 50.4422], [18.2964, 50.44219], [18.29839, 50.4426], [18.29691, 50.44576], [18.30926, 50.44891], [18.31163, 50.4487], [18.31391, 50.4491], [18.31867, 50.44839], [18.31926, 50.44775]]], [[[18.37463, 50.44466], [18.37525, 50.44614], [18.37509, 50.44421], [18.37463, 50.44466]]], [[[18.37744, 50.43191], [18.37653, 50.43222], [18.37837, 50.43331], [18.38042, 50.43177], [18.38077, 50.43105], [18.38052, 50.43085], [18.37744, 50.43191]]], [[[18.39824, 50.42345], [18.39853, 50.4253], [18.39804, 50.42653], [18.39567, 50.42835], [18.39283, 50.42914], [18.39359, 50.43049], [18.39261, 50.43046], [18.39241, 50.42989], [18.39167, 50.42983], [18.3919, 50.43081], [18.38918, 50.43127], [18.38706, 50.43255], [18.38741, 50.43305], [18.38633, 50.43339], [18.38739, 50.4377], [18.38897, 50.43961], [18.38842, 50.44222], [18.39749, 50.4376], [18.39745, 50.43543], [18.39862, 50.43249], [18.40092, 50.43062], [18.39956, 50.42921], [18.39911, 50.42712], [18.39926, 50.42577], [18.40021, 50.42455], [18.40248, 50.42334], [18.40564, 50.42291], [18.4082, 50.42334], [18.4104, 50.42467], [18.41028, 50.42111], [18.4076, 50.4163], [18.39824, 50.42345]], [[18.39534, 50.43373], [18.39668, 50.43369], [18.39722, 50.43457], [18.39521, 50.43408], [18.39507, 50.43477], [18.39381, 50.43448], [18.39323, 50.43428], [18.393, 50.43323], [18.39323, 50.43346], [18.39535, 50.43328], [18.39534, 50.43373]], [[18.39127, 50.43678], [18.3925, 50.43438], [18.39285, 50.43435], [18.39306, 50.43557], [18.39235, 50.43697], [18.39127, 50.43678]]], [[[18.35698, 50.41815], [18.35954, 50.42078], [18.36299, 50.42132], [18.36572, 50.42351], [18.36668, 50.42158], [18.36459, 50.42106], [18.36565, 50.42024], [18.36518, 50.41958], [18.36625, 50.41825], [18.36961, 50.41648], [18.36967, 50.41598], [18.368, 50.41669], [18.36731, 50.41639], [18.36977, 50.41528], [18.3687, 50.41452], [18.36999, 50.41493], [18.37056, 50.4138], [18.37176, 50.41313], [18.374, 50.41279], [18.37613, 50.41196], [18.37905, 50.4118], [18.37945, 50.41076], [18.37822, 50.41038], [18.37888, 50.40956], [18.37663, 50.40954], [18.37591, 50.41044], [18.37595, 50.40846], [18.37984, 50.40811], [18.38091, 50.40695], [18.38022, 50.40629], [18.37704, 50.40591], [18.37998, 50.40596], [18.3798, 50.4037], [18.38162, 50.40155], [18.37881, 50.40041], [18.38189, 50.40125], [18.38478, 50.39978], [18.38796, 50.3997], [18.39117, 50.40097], [18.3925, 50.40323], [18.39818, 50.40426], [18.39975, 50.40351], [18.40266, 50.40291], [18.40222, 50.38984], [18.40218, 50.39021], [18.40007, 50.38978], [18.40013, 50.38954], [18.39712, 50.39026], [18.39695, 50.39068], [18.3958, 50.39052], [18.39396, 50.39152], [18.39155, 50.39166], [18.3912, 50.39216], [18.39054, 50.39227], [18.39012, 50.39161], [18.38766, 50.39217], [18.36311, 50.39961], [18.36451, 50.40103], [18.36532, 50.40339], [18.36486, 50.40346], [18.36305, 50.40679], [18.36028, 50.4093], [18.35863, 50.41316], [18.35717, 50.41487], [18.35698, 50.41815]], [[18.361, 50.41106], [18.36091, 50.41083], [18.36088, 50.41068], [18.36136, 50.41086], [18.3613, 50.41121], [18.361, 50.41106]], [[18.36244, 50.41715], [18.36272, 50.41667], [18.36397, 50.41685], [18.36383, 50.41741], [18.36244, 50.41715]], [[18.36306, 50.4199], [18.36316, 50.41992], [18.36281, 50.42027], [18.36254, 50.42016], [18.36306, 50.4199]], [[18.36373, 50.41992], [18.36426, 50.4199], [18.36417, 50.42014], [18.36316, 50.42029], [18.36373, 50.41992]]], [[[18.40143, 50.38921], [18.4022, 50.38937], [18.40221, 50.38901], [18.40146, 50.38921], [18.40143, 50.38921]]], [[[18.39005, 50.40679], [18.38975, 50.40702], [18.39032, 50.40736], [18.38989, 50.40764], [18.38934, 50.40731], [18.38656, 50.40827], [18.38443, 50.4083], [18.38248, 50.40783], [18.38299, 50.40839], [18.38004, 50.41158], [18.38276, 50.41368], [18.38336, 50.41577], [18.38545, 50.41705], [18.38626, 50.41681], [18.38743, 50.41755], [18.38556, 50.41835], [18.38631, 50.41806], [18.38745, 50.41922], [18.38821, 50.41926], [18.3876, 50.42018], [18.38788, 50.4205], [18.39132, 50.42], [18.39403, 50.42053], [18.39888, 50.41692], [18.39806, 50.41675], [18.39656, 50.4178], [18.39467, 50.41813], [18.39232, 50.41767], [18.39111, 50.41677], [18.39074, 50.41535], [18.39183, 50.41406], [18.39173, 50.41223], [18.39336, 50.40999], [18.39321, 50.40882], [18.39382, 50.40749], [18.39005, 50.40679]], [[18.38932, 50.41718], [18.38728, 50.41802], [18.38653, 50.41796], [18.38958, 50.41705], [18.38932, 50.41718]]], [[[18.30025, 50.45559], [18.30012, 50.45556], [18.29923, 50.45577], [18.30057, 50.45566], [18.30025, 50.45559]]], [[[18.327, 50.45259], [18.32704, 50.45284], [18.33424, 50.45184], [18.3352, 50.44998], [18.32674, 50.45125], [18.327, 50.45259]]], [[[18.33031, 50.43947], [18.33143, 50.4406], [18.33307, 50.44368], [18.33313, 50.44541], [18.33607, 50.44561], [18.33735, 50.4449], [18.3395, 50.44444], [18.3418, 50.44482], [18.34125, 50.44436], [18.33861, 50.44403], [18.33683, 50.44337], [18.3354, 50.44235], [18.3347, 50.44106], [18.33483, 50.43969], [18.33659, 50.43688], [18.3396, 50.43482], [18.33123, 50.43744], [18.33031, 50.43947]]], [[[18.35679, 50.44], [18.35948, 50.43626], [18.35691, 50.4357], [18.35517, 50.43759], [18.35197, 50.43847], [18.35339, 50.44142], [18.35679, 50.44]]], [[[18.34338, 50.44466], [18.34422, 50.44453], [18.34352, 50.44383], [18.3421, 50.44411], [18.34338, 50.44466]]], [[[18.33732, 50.43112], [18.34114, 50.43064], [18.34288, 50.42984], [18.34501, 50.42942], [18.34242, 50.42769], [18.34208, 50.42534], [18.34313, 50.42382], [18.34517, 50.42276], [18.346, 50.42123], [18.34806, 50.41915], [18.35094, 50.41788], [18.35129, 50.41369], [18.35296, 50.41183], [18.35488, 50.40756], [18.35778, 50.40491], [18.35883, 50.40313], [18.35879, 50.40231], [18.35628, 50.40075], [18.34821, 50.40119], [18.34761, 50.40357], [18.34947, 50.40452], [18.35058, 50.40569], [18.35091, 50.40704], [18.35041, 50.40836], [18.34932, 50.40941], [18.34761, 50.41023], [18.34398, 50.41049], [18.34233, 50.41194], [18.33738, 50.41822], [18.33877, 50.42188], [18.33996, 50.42351], [18.34003, 50.42472], [18.33797, 50.42829], [18.33317, 50.43257], [18.33732, 50.43112]]], [[[18.32408, 50.43662], [18.32342, 50.43699], [18.32519, 50.43698], [18.32531, 50.43666], [18.32408, 50.43662]]], [[[18.32398, 50.42227], [18.32324, 50.422], [18.32351, 50.42446], [18.32652, 50.42838], [18.32653, 50.43043], [18.32525, 50.43274], [18.32637, 50.43286], [18.32798, 50.43059], [18.3326, 50.42653], [18.33369, 50.42491], [18.33052, 50.42235], [18.32398, 50.42227]]], [[[18.33351, 50.41454], [18.33369, 50.41394], [18.33161, 50.41478], [18.33194, 50.41655], [18.33351, 50.41454]]], [[[18.33238, 50.42132], [18.33216, 50.42059], [18.33214, 50.42053], [18.33147, 50.42096], [18.33157, 50.42135], [18.33259, 50.42192], [18.33238, 50.42132]]], [[[18.37021, 50.44904], [18.36922, 50.44665], [18.36629, 50.44727], [18.36449, 50.44958], [18.36397, 50.45157], [18.37048, 50.44948], [18.37021, 50.44904]]], [[[18.4419, 50.40002], [18.44148, 50.39913], [18.44247, 50.39726], [18.44381, 50.39727], [18.44459, 50.39602], [18.43485, 50.40007], [18.43561, 50.40115], [18.43573, 50.40265], [18.43399, 50.40474], [18.43058, 50.40565], [18.42831, 50.40546], [18.42658, 50.40481], [18.42411, 50.40524], [18.42094, 50.40706], [18.42143, 50.40866], [18.42202, 50.40917], [18.42703, 50.40713], [18.4301, 50.40673], [18.43272, 50.40707], [18.43544, 50.40835], [18.43667, 50.40684], [18.43543, 50.40694], [18.43518, 50.4057], [18.4376, 50.40549], [18.43734, 50.40601], [18.4419, 50.40002]]], [[[18.41824, 50.41132], [18.42018, 50.41021], [18.41851, 50.40846], [18.41448, 50.41145], [18.41824, 50.41132]]], [[[18.42183, 50.4061], [18.42097, 50.40672], [18.42549, 50.404], [18.42367, 50.40494], [18.42183, 50.4061]]], [[[18.44343, 50.34348], [18.45016, 50.34353], [18.45168, 50.34218], [18.45501, 50.34043], [18.4545, 50.33813], [18.44767, 50.33692], [18.44588, 50.34062], [18.4439, 50.34237], [18.44343, 50.34348]]], [[[18.43972, 50.313], [18.43671, 50.31534], [18.43831, 50.31571], [18.4404, 50.31508], [18.44269, 50.31493], [18.44352, 50.31444], [18.44161, 50.3116], [18.43972, 50.313]]], [[[18.42087, 50.40126], [18.42542, 50.39925], [18.42208, 50.3987], [18.41987, 50.39705], [18.41953, 50.39487], [18.42112, 50.393], [18.41747, 50.39039], [18.41656, 50.3884], [18.41364, 50.38807], [18.4084, 50.3883], [18.40853, 50.39718], [18.40927, 50.39769], [18.40854, 50.3974], [18.40859, 50.39859], [18.41094, 50.39903], [18.41096, 50.3993], [18.41033, 50.39989], [18.40862, 50.3996], [18.40874, 50.40368], [18.41072, 50.40423], [18.41361, 50.40601], [18.41491, 50.40508], [18.41545, 50.40389], [18.41671, 50.40318], [18.41738, 50.40334], [18.42087, 50.40126]], [[18.4118, 50.39322], [18.41203, 50.39335], [18.41033, 50.39405], [18.41088, 50.39355], [18.4118, 50.39322]], [[18.41755, 50.39692], [18.41236, 50.39743], [18.41033, 50.39713], [18.40936, 50.39622], [18.40968, 50.39591], [18.41209, 50.39648], [18.41517, 50.3952], [18.4156, 50.39548], [18.41282, 50.39662], [18.41361, 50.39682], [18.41681, 50.39584], [18.41864, 50.39725], [18.41755, 50.39692]], [[18.41898, 50.39737], [18.42047, 50.3988], [18.41635, 50.40019], [18.4151, 50.39946], [18.41498, 50.39898], [18.41828, 50.39735], [18.41898, 50.39737]], [[18.41612, 50.3977], [18.41543, 50.39816], [18.41276, 50.39761], [18.41726, 50.39735], [18.41612, 50.3977]]], [[[18.43155, 50.39671], [18.43377, 50.39578], [18.43123, 50.39548], [18.43043, 50.39717], [18.43155, 50.39671]]], [[[18.41441, 50.41698], [18.41544, 50.41883], [18.41815, 50.41785], [18.41708, 50.41669], [18.41671, 50.41523], [18.41348, 50.41535], [18.41441, 50.41698]]], [[[18.30171, 50.45572], [18.30166, 50.45572], [18.30171, 50.45573], [18.30171, 50.45572]]], [[[18.31522, 50.29497], [18.31427, 50.29511], [18.3145, 50.29565], [18.31698, 50.29668], [18.31733, 50.29616], [18.31522, 50.29497]]], [[[18.31782, 50.29601], [18.31671, 50.29517], [18.31621, 50.29513], [18.31754, 50.29614], [18.31782, 50.29601]]], [[[18.31847, 50.29509], [18.31794, 50.29515], [18.31693, 50.29518], [18.31777, 50.29571], [18.3189, 50.29565], [18.31847, 50.29509]]], [[[18.32827, 50.29966], [18.32804, 50.29902], [18.32206, 50.29749], [18.32171, 50.29784], [18.32827, 50.29966]]], [[[18.19866, 50.38251], [18.19675, 50.3824], [18.19607, 50.38569], [18.19721, 50.38568], [18.19866, 50.38251]]], [[[18.30472, 50.33587], [18.30522, 50.33603], [18.30705, 50.33424], [18.3066, 50.33401], [18.30472, 50.33587]]], [[[18.28306, 50.32168], [18.28273, 50.32242], [18.28395, 50.32261], [18.28431, 50.32186], [18.28306, 50.32168]]], [[[18.44508, 50.36729], [18.4453, 50.36771], [18.44654, 50.36745], [18.44632, 50.36701], [18.44508, 50.36729]]], [[[18.45163, 50.36706], [18.45131, 50.36784], [18.45205, 50.36795], [18.45241, 50.36716], [18.45163, 50.36706]]], [[[18.37753, 50.44079], [18.37745, 50.4417], [18.38076, 50.44162], [18.38077, 50.43814], [18.37932, 50.43514], [18.37939, 50.43783], [18.37866, 50.43912], [18.37747, 50.43999], [18.37753, 50.44079]]], [[[18.42574, 50.40424], [18.42447, 50.40497], [18.42445, 50.40505], [18.42647, 50.40475], [18.42574, 50.40424]]], [[[18.43457, 50.32647], [18.43401, 50.3258], [18.43209, 50.32542], [18.43229, 50.32847], [18.43626, 50.32749], [18.43457, 50.32647]]], [[[18.44384, 50.3264], [18.44235, 50.32738], [18.4408, 50.32785], [18.44218, 50.32802], [18.45071, 50.32741], [18.45011, 50.3262], [18.44763, 50.32662], [18.44408, 50.32613], [18.44384, 50.3264]]], [[[18.41396, 50.39694], [18.41459, 50.39711], [18.41703, 50.39658], [18.41665, 50.39614], [18.41396, 50.39694]]]]}, "properties": {"kind": "windland", "area_km2": 42.6}}, {"type": "Feature", "geometry": {"type": "MultiPolygon", "coordinates": [[[[18.27925, 50.35953], [18.27955, 50.35917], [18.27566, 50.35777], [18.2771, 50.35833], [18.27685, 50.35865], [18.27586, 50.35887], [18.27673, 50.35997], [18.27591, 50.36015], [18.27633, 50.36083], [18.27544, 50.36166], [18.27533, 50.36359], [18.27667, 50.36375], [18.27741, 50.36344], [18.27741, 50.3629], [18.27815, 50.36256], [18.27788, 50.36166], [18.27925, 50.35953]]], [[[18.27984, 50.36017], [18.27979, 50.36015], [18.27974, 50.36025], [18.27977, 50.36022], [18.27984, 50.36017]]], [[[18.2817, 50.36143], [18.28224, 50.36141], [18.28223, 50.3609], [18.28144, 50.36116], [18.2817, 50.36143]]], [[[18.2793, 50.36088], [18.27904, 50.36127], [18.2801, 50.3619], [18.28036, 50.36183], [18.28075, 50.3615], [18.2805, 50.36114], [18.2793, 50.36088]]], [[[18.28352, 50.3639], [18.28715, 50.36414], [18.28739, 50.36398], [18.28658, 50.36375], [18.28665, 50.36339], [18.28636, 50.36306], [18.28564, 50.36325], [18.28491, 50.36306], [18.28454, 50.36313], [18.28409, 50.36375], [18.28293, 50.36385], [18.28352, 50.3639]]], [[[18.28242, 50.36383], [18.28232, 50.36384], [18.28251, 50.36384], [18.2825, 50.36384], [18.28242, 50.36383]]], [[[18.28295, 50.36468], [18.28302, 50.36512], [18.2841, 50.36462], [18.28279, 50.36453], [18.28295, 50.36468]]], [[[18.28043, 50.36465], [18.28068, 50.36507], [18.28122, 50.36505], [18.28151, 50.36483], [18.28043, 50.36465]]], [[[18.28515, 50.36503], [18.28501, 50.36503], [18.28517, 50.36504], [18.28515, 50.36503]]], [[[18.27547, 50.36504], [18.27525, 50.36491], [18.27523, 50.36519], [18.2754, 50.36508], [18.27547, 50.36504]]], [[[18.28215, 50.36533], [18.28223, 50.36533], [18.28218, 50.3653], [18.28215, 50.36533]]], [[[18.28041, 50.36571], [18.28012, 50.36574], [18.28106, 50.36586], [18.2807, 50.36573], [18.28041, 50.36571]]], [[[18.2843, 50.36622], [18.28284, 50.36594], [18.28221, 50.36601], [18.28427, 50.36627], [18.2843, 50.36622]]], [[[18.27576, 50.36637], [18.27783, 50.366], [18.27809, 50.3657], [18.27517, 50.3663], [18.27515, 50.36658], [18.27576, 50.36637]]], [[[18.28577, 50.3665], [18.28576, 50.36639], [18.2851, 50.36639], [18.28577, 50.3665]]], [[[18.2776, 50.36671], [18.27626, 50.36698], [18.2751, 50.36752], [18.27503, 50.36872], [18.27574, 50.36868], [18.27616, 50.36897], [18.27703, 50.36899], [18.27718, 50.36746], [18.27777, 50.36741], [18.27786, 50.36665], [18.2776, 50.36671]]], [[[18.28503, 50.36911], [18.28502, 50.36918], [18.28556, 50.36919], [18.28529, 50.3691], [18.28503, 50.36911]]], [[[18.28635, 50.35987], [18.28614, 50.35978], [18.28603, 50.35977], [18.286, 50.35983], [18.28635, 50.35987]]], [[[18.29481, 50.36007], [18.29449, 50.36035], [18.29395, 50.36045], [18.29265, 50.36398], [18.29298, 50.36415], [18.29384, 50.36183], [18.29328, 50.36427], [18.29363, 50.36439], [18.29426, 50.36286], [18.29396, 50.36447], [18.29427, 50.36453], [18.29536, 50.36015], [18.29481, 50.36007]]], [[[18.2935, 50.36038], [18.2933, 50.36034], [18.29348, 50.36047], [18.2935, 50.36038]]], [[[18.29286, 50.36084], [18.29267, 50.3607], [18.29235, 50.361], [18.29232, 50.36172], [18.29275, 50.3614], [18.29286, 50.36084]]], [[[18.29198, 50.36196], [18.29199, 50.36197], [18.29202, 50.36195], [18.29201, 50.36196], [18.29198, 50.36196]]], [[[18.29481, 50.36639], [18.29378, 50.36586], [18.29359, 50.36496], [18.29217, 50.36443], [18.29012, 50.36319], [18.28959, 50.36391], [18.29255, 50.36554], [18.29481, 50.36639]]], [[[18.28626, 50.36471], [18.28627, 50.36471], [18.28626, 50.36471], [18.28626, 50.36471]]], [[[18.28814, 50.36488], [18.28918, 50.36599], [18.28979, 50.36522], [18.29035, 50.36548], [18.29058, 50.36624], [18.29234, 50.36725], [18.29371, 50.36748], [18.29382, 50.36723], [18.29432, 50.36734], [18.29415, 50.36771], [18.29508, 50.36782], [18.29519, 50.36748], [18.29095, 50.36577], [18.28818, 50.36424], [18.28771, 50.36454], [18.28814, 50.36488]]], [[[18.28735, 50.36695], [18.28829, 50.36735], [18.28817, 50.36626], [18.28694, 50.36504], [18.28713, 50.36565], [18.28686, 50.36649], [18.28735, 50.36695]]], [[[18.28932, 50.36664], [18.28931, 50.36718], [18.2909, 50.36737], [18.28932, 50.36652], [18.28932, 50.36664]]], [[[18.28939, 50.36815], [18.28942, 50.36816], [18.28954, 50.36815], [18.28935, 50.36811], [18.28939, 50.36815]]], [[[18.28826, 50.36829], [18.28823, 50.36801], [18.28739, 50.3679], [18.2867, 50.36748], [18.28689, 50.36799], [18.28579, 50.3692], [18.28665, 50.36922], [18.28756, 50.36816], [18.28826, 50.36829]]], [[[18.29483, 50.36855], [18.29375, 50.36838], [18.29219, 50.36797], [18.29457, 50.3694], [18.29579, 50.36943], [18.29566, 50.36905], [18.29526, 50.36928], [18.29491, 50.36912], [18.29483, 50.36855]]], [[[18.29986, 50.36892], [18.29997, 50.36902], [18.29939, 50.36926], [18.29938, 50.36951], [18.30311, 50.3696], [18.30312, 50.36947], [18.30049, 50.36888], [18.29986, 50.36892]]], [[[18.29205, 50.36934], [18.29254, 50.36935], [18.29246, 50.36906], [18.29212, 50.36892], [18.29205, 50.36934]]]]}, "properties": {"kind": "pv", "area_km2": 0.33, "mw": 16.5}}, {"type": "Feature", "geometry": {"type": "Point", "coordinates": [18.29917, 50.37421]}, "properties": {"kind": "turbine", "i": 0, "mw": 6.0, "hub_m": 120.0, "rotor_m": 150.0}}, {"type": "Feature", "geometry": {"type": "Point", "coordinates": [18.32648, 50.34528]}, "properties": {"kind": "turbine", "i": 1, "mw": 6.0, "hub_m": 120.0, "rotor_m": 150.0}}, {"type": "Feature", "geometry": {"type": "Point", "coordinates": [18.29861, 50.38405]}, "properties": {"kind": "turbine", "i": 2, "mw": 6.0, "hub_m": 120.0, "rotor_m": 150.0}}, {"type": "Feature", "geometry": {"type": "Point", "coordinates": [18.27772, 50.39014]}, "properties": {"kind": "turbine", "i": 3, "mw": 6.0, "hub_m": 120.0, "rotor_m": 150.0}}, {"type": "Feature", "geometry": {"type": "Point", "coordinates": [18.31382, 50.38769]}, "properties": {"kind": "turbine", "i": 4, "mw": 6.0, "hub_m": 120.0, "rotor_m": 150.0}}, {"type": "Feature", "geometry": {"type": "Point", "coordinates": [18.29805, 50.39389]}, "properties": {"kind": "turbine", "i": 5, "mw": 6.0, "hub_m": 120.0, "rotor_m": 150.0}}, {"type": "Feature", "geometry": {"type": "Point", "coordinates": [18.35083, 50.36883]}, "properties": {"kind": "turbine", "i": 6, "mw": 6.0, "hub_m": 120.0, "rotor_m": 150.0}}, {"type": "Feature", "geometry": {"type": "Point", "coordinates": [18.32903, 50.39133]}, "properties": {"kind": "turbine", "i": 7, "mw": 6.0, "hub_m": 120.0, "rotor_m": 150.0}}, {"type": "Feature", "geometry": {"type": "Point", "coordinates": [18.22262, 50.36584]}, "properties": {"kind": "turbine", "i": 8, "mw": 6.0, "hub_m": 120.0, "rotor_m": 150.0}}, {"type": "Feature", "geometry": {"type": "Point", "coordinates": [18.25187, 50.39281]}, "properties": {"kind": "turbine", "i": 9, "mw": 6.0, "hub_m": 120.0, "rotor_m": 150.0}}, {"type": "Feature", "geometry": {"type": "Point", "coordinates": [18.31326, 50.39753]}, "properties": {"kind": "turbine", "i": 10, "mw": 6.0, "hub_m": 120.0, "rotor_m": 150.0}}, {"type": "Feature", "geometry": {"type": "Point", "coordinates": [18.27202, 50.39986]}, "properties": {"kind": "turbine", "i": 11, "mw": 6.0, "hub_m": 120.0, "rotor_m": 150.0}}, {"type": "Feature", "geometry": {"type": "Point", "coordinates": [18.23667, 50.38917]}, "properties": {"kind": "turbine", "i": 12, "mw": 6.0, "hub_m": 120.0, "rotor_m": 150.0}}, {"type": "Feature", "geometry": {"type": "Point", "coordinates": [18.29749, 50.40374]}, "properties": {"kind": "turbine", "i": 13, "mw": 6.0, "hub_m": 120.0, "rotor_m": 150.0}}, {"type": "Feature", "geometry": {"type": "Point", "coordinates": [18.32847, 50.40117]}, "properties": {"kind": "turbine", "i": 14, "mw": 6.0, "hub_m": 120.0, "rotor_m": 150.0}}, {"type": "Feature", "geometry": {"type": "Point", "coordinates": [18.2513, 50.40265]}, "properties": {"kind": "turbine", "i": 15, "mw": 6.0, "hub_m": 120.0, "rotor_m": 150.0}}, {"type": "Feature", "geometry": {"type": "Point", "coordinates": [18.36549, 50.3823]}, "properties": {"kind": "turbine", "i": 16, "mw": 6.0, "hub_m": 120.0, "rotor_m": 150.0}}, {"type": "Feature", "geometry": {"type": "Point", "coordinates": [18.31252, 50.41065]}, "properties": {"kind": "turbine", "i": 17, "mw": 6.0, "hub_m": 120.0, "rotor_m": 150.0}}, {"type": "Feature", "geometry": {"type": "Point", "coordinates": [18.28667, 50.41334]}, "properties": {"kind": "turbine", "i": 18, "mw": 6.0, "hub_m": 120.0, "rotor_m": 150.0}}, {"type": "Feature", "geometry": {"type": "Point", "coordinates": [18.22583, 50.39876]}, "properties": {"kind": "turbine", "i": 19, "mw": 6.0, "hub_m": 120.0, "rotor_m": 150.0}}, {"type": "Feature", "geometry": {"type": "Point", "coordinates": [18.349, 50.40164]}, "properties": {"kind": "turbine", "i": 20, "mw": 6.0, "hub_m": 120.0, "rotor_m": 150.0}}, {"type": "Feature", "geometry": {"type": "Point", "coordinates": [18.36495, 50.39215]}, "properties": {"kind": "turbine", "i": 21, "mw": 6.0, "hub_m": 120.0, "rotor_m": 150.0}}, {"type": "Feature", "geometry": {"type": "Point", "coordinates": [18.38728, 50.3598]}, "properties": {"kind": "turbine", "i": 22, "mw": 6.0, "hub_m": 120.0, "rotor_m": 150.0}}, {"type": "Feature", "geometry": {"type": "Point", "coordinates": [18.23552, 50.40885]}, "properties": {"kind": "turbine", "i": 23, "mw": 6.0, "hub_m": 120.0, "rotor_m": 150.0}}, {"type": "Feature", "geometry": {"type": "Point", "coordinates": [18.19621, 50.37834]}, "properties": {"kind": "turbine", "i": 24, "mw": 6.0, "hub_m": 120.0, "rotor_m": 150.0}}, {"type": "Feature", "geometry": {"type": "Point", "coordinates": [18.34332, 50.41136]}, "properties": {"kind": "turbine", "i": 25, "mw": 6.0, "hub_m": 120.0, "rotor_m": 150.0}}, {"type": "Feature", "geometry": {"type": "Point", "coordinates": [18.27583, 50.42294]}, "properties": {"kind": "turbine", "i": 26, "mw": 6.0, "hub_m": 120.0, "rotor_m": 150.0}}, {"type": "Feature", "geometry": {"type": "Point", "coordinates": [18.36953, 50.4021]}, "properties": {"kind": "turbine", "i": 27, "mw": 6.0, "hub_m": 120.0, "rotor_m": 150.0}}, {"type": "Feature", "geometry": {"type": "Point", "coordinates": [18.18276, 50.34517]}, "properties": {"kind": "turbine", "i": 28, "mw": 6.0, "hub_m": 120.0, "rotor_m": 150.0}}, {"type": "Feature", "geometry": {"type": "Point", "coordinates": [18.39807, 50.35019]}, "properties": {"kind": "turbine", "i": 29, "mw": 6.0, "hub_m": 120.0, "rotor_m": 150.0}}, {"type": "Feature", "geometry": {"type": "Point", "coordinates": [18.18886, 50.3289]}, "properties": {"kind": "turbine", "i": 30, "mw": 6.0, "hub_m": 120.0, "rotor_m": 150.0}}, {"type": "Feature", "geometry": {"type": "Point", "coordinates": [18.31691, 50.42389]}, "properties": {"kind": "turbine", "i": 31, "mw": 6.0, "hub_m": 120.0, "rotor_m": 150.0}}, {"type": "Feature", "geometry": {"type": "Point", "coordinates": [18.39114, 50.38288]}, "properties": {"kind": "turbine", "i": 32, "mw": 6.0, "hub_m": 120.0, "rotor_m": 150.0}}, {"type": "Feature", "geometry": {"type": "Point", "coordinates": [18.21499, 50.40836]}, "properties": {"kind": "turbine", "i": 33, "mw": 6.0, "hub_m": 120.0, "rotor_m": 150.0}}, {"type": "Feature", "geometry": {"type": "Point", "coordinates": [18.20018, 50.39815]}, "properties": {"kind": "turbine", "i": 34, "mw": 6.0, "hub_m": 120.0, "rotor_m": 150.0}}, {"type": "Feature", "geometry": {"type": "Point", "coordinates": [18.20538, 50.30959]}, "properties": {"kind": "turbine", "i": 35, "mw": 6.0, "hub_m": 120.0, "rotor_m": 150.0}}, {"type": "Feature", "geometry": {"type": "Point", "coordinates": [18.36385, 50.41183]}, "properties": {"kind": "turbine", "i": 36, "mw": 6.0, "hub_m": 120.0, "rotor_m": 150.0}}, {"type": "Feature", "geometry": {"type": "Point", "coordinates": [18.34277, 50.4212]}, "properties": {"kind": "turbine", "i": 37, "mw": 6.0, "hub_m": 120.0, "rotor_m": 150.0}}, {"type": "Feature", "geometry": {"type": "Point", "coordinates": [18.18536, 50.38794]}, "properties": {"kind": "turbine", "i": 38, "mw": 6.0, "hub_m": 120.0, "rotor_m": 150.0}}, {"type": "Feature", "geometry": {"type": "Point", "coordinates": [18.18944, 50.31906]}, "properties": {"kind": "turbine", "i": 39, "mw": 6.0, "hub_m": 120.0, "rotor_m": 150.0}}, {"type": "Feature", "geometry": {"type": "Point", "coordinates": [18.3906, 50.39272]}, "properties": {"kind": "turbine", "i": 40, "mw": 6.0, "hub_m": 120.0, "rotor_m": 150.0}}, {"type": "Feature", "geometry": {"type": "Point", "coordinates": [18.29068, 50.43314]}, "properties": {"kind": "turbine", "i": 41, "mw": 6.0, "hub_m": 120.0, "rotor_m": 150.0}}, {"type": "Feature", "geometry": {"type": "Point", "coordinates": [18.22721, 50.28712]}, "properties": {"kind": "turbine", "i": 42, "mw": 6.0, "hub_m": 120.0, "rotor_m": 150.0}}, {"type": "Feature", "geometry": {"type": "Point", "coordinates": [18.19446, 50.40786]}, "properties": {"kind": "turbine", "i": 43, "mw": 6.0, "hub_m": 120.0, "rotor_m": 150.0}}, {"type": "Feature", "geometry": {"type": "Point", "coordinates": [18.20928, 50.41807]}, "properties": {"kind": "turbine", "i": 44, "mw": 6.0, "hub_m": 120.0, "rotor_m": 150.0}}, {"type": "Feature", "geometry": {"type": "Point", "coordinates": [18.33708, 50.43093]}, "properties": {"kind": "turbine", "i": 45, "mw": 6.0, "hub_m": 120.0, "rotor_m": 150.0}}, {"type": "Feature", "geometry": {"type": "Point", "coordinates": [18.41417, 50.33741]}, "properties": {"kind": "turbine", "i": 46, "mw": 6.0, "hub_m": 120.0, "rotor_m": 150.0}}, {"type": "Feature", "geometry": {"type": "Point", "coordinates": [18.3952, 50.40268]}, "properties": {"kind": "turbine", "i": 47, "mw": 6.0, "hub_m": 120.0, "rotor_m": 150.0}}, {"type": "Feature", "geometry": {"type": "Point", "coordinates": [18.41822, 50.35721]}, "properties": {"kind": "turbine", "i": 48, "mw": 6.0, "hub_m": 120.0, "rotor_m": 150.0}}, {"type": "Feature", "geometry": {"type": "Point", "coordinates": [18.41167, 50.38334]}, "properties": {"kind": "turbine", "i": 49, "mw": 6.0, "hub_m": 120.0, "rotor_m": 150.0}}, {"type": "Feature", "geometry": {"type": "Point", "coordinates": [18.38439, 50.41229]}, "properties": {"kind": "turbine", "i": 50, "mw": 6.0, "hub_m": 120.0, "rotor_m": 150.0}}, {"type": "Feature", "geometry": {"type": "Point", "coordinates": [18.41113, 50.39318]}, "properties": {"kind": "turbine", "i": 51, "mw": 6.0, "hub_m": 120.0, "rotor_m": 150.0}}, {"type": "Feature", "geometry": {"type": "Point", "coordinates": [18.42389, 50.34748]}, "properties": {"kind": "turbine", "i": 52, "mw": 6.0, "hub_m": 120.0, "rotor_m": 150.0}}, {"type": "Feature", "geometry": {"type": "Point", "coordinates": [18.2747, 50.44262]}, "properties": {"kind": "turbine", "i": 53, "mw": 6.0, "hub_m": 120.0, "rotor_m": 150.0}}, {"type": "Feature", "geometry": {"type": "Point", "coordinates": [18.30039, 50.44322]}, "properties": {"kind": "turbine", "i": 54, "mw": 6.0, "hub_m": 120.0, "rotor_m": 150.0}}, {"type": "Feature", "geometry": {"type": "Point", "coordinates": [18.15103, 50.36082]}, "properties": {"kind": "turbine", "i": 55, "mw": 6.0, "hub_m": 120.0, "rotor_m": 150.0}}, {"type": "Feature", "geometry": {"type": "Point", "coordinates": [18.24351, 50.27108]}, "properties": {"kind": "turbine", "i": 56, "mw": 6.0, "hub_m": 120.0, "rotor_m": 150.0}}, {"type": "Feature", "geometry": {"type": "Point", "coordinates": [18.17393, 50.40737]}, "properties": {"kind": "turbine", "i": 57, "mw": 6.0, "hub_m": 120.0, "rotor_m": 150.0}}, {"type": "Feature", "geometry": {"type": "Point", "coordinates": [18.18036, 50.29913]}, "properties": {"kind": "turbine", "i": 58, "mw": 6.0, "hub_m": 120.0, "rotor_m": 150.0}}, {"type": "Feature", "geometry": {"type": "Point", "coordinates": [18.42742, 50.37712]}, "properties": {"kind": "turbine", "i": 59, "mw": 6.0, "hub_m": 120.0, "rotor_m": 150.0}}, {"type": "Feature", "geometry": {"type": "Point", "coordinates": [18.43343, 50.36083]}, "properties": {"kind": "turbine", "i": 60, "mw": 6.0, "hub_m": 120.0, "rotor_m": 150.0}}, {"type": "Feature", "geometry": {"type": "Point", "coordinates": [18.31561, 50.44686]}, "properties": {"kind": "turbine", "i": 61, "mw": 6.0, "hub_m": 120.0, "rotor_m": 150.0}}, {"type": "Feature", "geometry": {"type": "Point", "coordinates": [18.35726, 50.43796]}, "properties": {"kind": "turbine", "i": 62, "mw": 6.0, "hub_m": 120.0, "rotor_m": 150.0}}, {"type": "Feature", "geometry": {"type": "Point", "coordinates": [18.33635, 50.44405]}, "properties": {"kind": "turbine", "i": 63, "mw": 6.0, "hub_m": 120.0, "rotor_m": 150.0}}, {"type": "Feature", "geometry": {"type": "Point", "coordinates": [18.25925, 50.26488]}, "properties": {"kind": "turbine", "i": 64, "mw": 6.0, "hub_m": 120.0, "rotor_m": 150.0}}, {"type": "Feature", "geometry": {"type": "Point", "coordinates": [18.41573, 50.40314]}, "properties": {"kind": "turbine", "i": 65, "mw": 6.0, "hub_m": 120.0, "rotor_m": 150.0}}, {"type": "Feature", "geometry": {"type": "Point", "coordinates": [18.37817, 50.43186]}, "properties": {"kind": "turbine", "i": 66, "mw": 6.0, "hub_m": 120.0, "rotor_m": 150.0}}, {"type": "Feature", "geometry": {"type": "Point", "coordinates": [18.18094, 50.28929]}, "properties": {"kind": "turbine", "i": 67, "mw": 6.0, "hub_m": 120.0, "rotor_m": 150.0}}, {"type": "Feature", "geometry": {"type": "Point", "coordinates": [18.39907, 50.42576]}, "properties": {"kind": "turbine", "i": 68, "mw": 6.0, "hub_m": 120.0, "rotor_m": 150.0}}, {"type": "Feature", "geometry": {"type": "Point", "coordinates": [18.13505, 50.37028]}, "properties": {"kind": "turbine", "i": 69, "mw": 6.0, "hub_m": 120.0, "rotor_m": 150.0}}, {"type": "Feature", "geometry": {"type": "Point", "coordinates": [18.41501, 50.41626]}, "properties": {"kind": "turbine", "i": 70, "mw": 6.0, "hub_m": 120.0, "rotor_m": 150.0}}, {"type": "Feature", "geometry": {"type": "Point", "coordinates": [18.20769, 50.27023]}, "properties": {"kind": "turbine", "i": 71, "mw": 6.0, "hub_m": 120.0, "rotor_m": 150.0}}, {"type": "Feature", "geometry": {"type": "Point", "coordinates": [18.16308, 50.41696]}, "properties": {"kind": "turbine", "i": 72, "mw": 6.0, "hub_m": 120.0, "rotor_m": 150.0}}, {"type": "Feature", "geometry": {"type": "Point", "coordinates": [18.16538, 50.29219]}, "properties": {"kind": "turbine", "i": 73, "mw": 6.0, "hub_m": 120.0, "rotor_m": 150.0}}]}