{"type": "FeatureCollection", "features": [{"type": "Feature", "geometry": {"type": "MultiPolygon", "coordinates": [[[[2.92335, 48.60073], [2.92555, 48.6001], [2.92598, 48.5993], [2.92415, 48.60022], [2.92049, 48.601], [2.92095, 48.60142], [2.92335, 48.60073]]], [[[2.9283, 48.59442], [2.93206, 48.59422], [2.93387, 48.5952], [2.9344, 48.59672], [2.93595, 48.59631], [2.93419, 48.59483], [2.93321, 48.59234], [2.93083, 48.59286], [2.92879, 48.59271], [2.92666, 48.59185], [2.92549, 48.59068], [2.92116, 48.59251], [2.92274, 48.59291], [2.92616, 48.59466], [2.9283, 48.59442]]], [[[2.92143, 48.58782], [2.92526, 48.58619], [2.92521, 48.58565], [2.91809, 48.58503], [2.91504, 48.58511], [2.91461, 48.58939], [2.91721, 48.58961], [2.92143, 48.58782]]], [[[2.91702, 48.58118], [2.91797, 48.58117], [2.91814, 48.57921], [2.91662, 48.5812], [2.91702, 48.58118]]], [[[2.94942, 48.57114], [2.94906, 48.57204], [2.95195, 48.57152], [2.95033, 48.56924], [2.94913, 48.56951], [2.94942, 48.57114]]], [[[2.92973, 48.6051], [2.9317, 48.60258], [2.92511, 48.60447], [2.92873, 48.60638], [2.92973, 48.6051]]], [[[2.96156, 48.60767], [2.96061, 48.60523], [2.95898, 48.60443], [2.95288, 48.60411], [2.94907, 48.60325], [2.94729, 48.60429], [2.94428, 48.60472], [2.94293, 48.60566], [2.94101, 48.60627], [2.93826, 48.60624], [2.93602, 48.60542], [2.93383, 48.60824], [2.94051, 48.60966], [2.94681, 48.61007], [2.95311, 48.60967], [2.95744, 48.60886], [2.95687, 48.60886], [2.95641, 48.60827], [2.95482, 48.60836], [2.9536, 48.60757], [2.95397, 48.60523], [2.956, 48.60542], [2.95581, 48.60575], [2.95694, 48.60604], [2.95655, 48.60718], [2.95775, 48.60795], [2.95752, 48.60884], [2.96156, 48.60767]]], [[[2.94164, 48.57452], [2.93939, 48.57428], [2.93933, 48.57541], [2.94131, 48.57503], [2.94164, 48.57452]]], [[[2.94677, 48.57803], [2.94709, 48.57814], [2.94726, 48.57742], [2.94645, 48.57699], [2.9452, 48.5779], [2.94677, 48.57803]]], [[[2.95488, 48.57812], [2.95356, 48.57773], [2.94934, 48.57756], [2.94791, 48.5786], [2.94853, 48.58], [2.94755, 48.58126], [2.94857, 48.5814], [2.94974, 48.58015], [2.95148, 48.57937], [2.95361, 48.57909], [2.956, 48.57943], [2.95816, 48.57835], [2.96054, 48.57801], [2.95876, 48.57359], [2.95649, 48.57457], [2.9522, 48.57547], [2.9526, 48.57599], [2.95798, 48.57625], [2.95785, 48.57722], [2.95532, 48.57703], [2.95488, 48.57812]]], [[[2.95577, 48.56926], [2.95152, 48.57032], [2.95229, 48.57146], [2.9543, 48.57099], [2.95622, 48.5699], [2.95577, 48.56926]]], [[[2.95115, 48.56836], [2.9541, 48.56824], [2.95472, 48.56792], [2.95163, 48.5682], [2.95115, 48.56836]]], [[[2.96917, 48.57323], [2.96847, 48.57383], [2.96753, 48.57396], [2.96761, 48.57423], [2.96552, 48.5745], [2.96621, 48.57713], [2.96972, 48.5768], [2.97298, 48.57786], [2.97246, 48.57567], [2.96917, 48.57323]]], [[[2.9782, 48.58844], [2.97741, 48.58979], [2.97902, 48.59004], [2.97907, 48.58794], [2.9782, 48.58844]]], [[[2.97702, 48.58121], [2.97639, 48.5813], [2.97783, 48.5827], [2.97773, 48.58245], [2.97702, 48.58121]]], [[[2.92832, 48.59843], [2.92833, 48.59833], [2.92702, 48.59847], [2.92822, 48.59866], [2.92832, 48.59843]]], [[[2.93243, 48.58404], [2.93252, 48.58395], [2.93236, 48.58405], [2.93243, 48.58404]]], [[[2.93338, 48.58329], [2.93319, 48.5833], [2.93295, 48.58359], [2.93305, 48.5835], [2.93338, 48.58329]]], [[[2.96041, 48.6], [2.95976, 48.60057], [2.96367, 48.60193], [2.96718, 48.6017], [2.9667, 48.59506], [2.96432, 48.59502], [2.96196, 48.5942], [2.96112, 48.59864], [2.96041, 48.6]]], [[[2.97292, 48.59503], [2.9734, 48.5961], [2.97268, 48.59736], [2.97295, 48.60097], [2.9753, 48.59876], [2.97811, 48.59386], [2.97238, 48.593], [2.97292, 48.59503]]]]}, "properties": {"kind": "windland", "area_km2": 2.57}}, {"type": "Feature", "geometry": {"type": "Point", "coordinates": [2.96186, 48.5961]}, "properties": {"kind": "turbine", "i": 0, "mw": 6.0, "hub_m": 120.0, "rotor_m": 150.0}}, {"type": "Feature", "geometry": {"type": "Point", "coordinates": [2.95778, 48.57739]}, "properties": {"kind": "turbine", "i": 1, "mw": 6.0, "hub_m": 120.0, "rotor_m": 150.0}}, {"type": "Feature", "geometry": {"type": "Point", "coordinates": [2.92225, 48.58623]}, "properties": {"kind": "turbine", "i": 2, "mw": 6.0, "hub_m": 120.0, "rotor_m": 150.0}}]}