{"type": "FeatureCollection", "features": [{"type": "Feature", "geometry": {"type": "MultiPolygon", "coordinates": [[[[2.91017, 48.60449], [2.92555, 48.6001], [2.92598, 48.5993], [2.92415, 48.60022], [2.92027, 48.60103], [2.91713, 48.6009], [2.9148, 48.60008], [2.91507, 48.60114], [2.91334, 48.60213], [2.91182, 48.60219], [2.91195, 48.60058], [2.9113, 48.59981], [2.91302, 48.59913], [2.91036, 48.59777], [2.90903, 48.59925], [2.90964, 48.60215], [2.9082, 48.60419], [2.90882, 48.60487], [2.91017, 48.60449]]], [[[2.9283, 48.59442], [2.93206, 48.59422], [2.93387, 48.5952], [2.9344, 48.59672], [2.93595, 48.59631], [2.93419, 48.59483], [2.93321, 48.59234], [2.93083, 48.59286], [2.92879, 48.59271], [2.92666, 48.59185], [2.92549, 48.59068], [2.92116, 48.59251], [2.92274, 48.59291], [2.92616, 48.59466], [2.9283, 48.59442]]], [[[2.92143, 48.58782], [2.92526, 48.58619], [2.92521, 48.58565], [2.91809, 48.58503], [2.90945, 48.58492], [2.9079, 48.58446], [2.90701, 48.58351], [2.90729, 48.58204], [2.90905, 48.58114], [2.91797, 48.58117], [2.91814, 48.57921], [2.91687, 48.57911], [2.91732, 48.57733], [2.91244, 48.5784], [2.90881, 48.5786], [2.90387, 48.5819], [2.90431, 48.58505], [2.90833, 48.58546], [2.91104, 48.58703], [2.91173, 48.5888], [2.91081, 48.59079], [2.91382, 48.58949], [2.91721, 48.58961], [2.92143, 48.58782]], [[2.91264, 48.57957], [2.91374, 48.5797], [2.9136, 48.58044], [2.91246, 48.58018], [2.91264, 48.57957]]], [[[2.91896, 48.56585], [2.92037, 48.56641], [2.92235, 48.56645], [2.9227, 48.56518], [2.9194, 48.56486], [2.91896, 48.56585]]], [[[2.94942, 48.57114], [2.94906, 48.57204], [2.95195, 48.57152], [2.95033, 48.56924], [2.94913, 48.56951], [2.94942, 48.57114]]], [[[2.96411, 48.56097], [2.96457, 48.5614], [2.965, 48.56121], [2.96419, 48.56096], [2.96411, 48.56097]]], [[[2.92612, 48.60891], [2.92648, 48.60926], [2.9317, 48.60258], [2.91551, 48.60721], [2.91683, 48.60895], [2.91676, 48.61102], [2.91978, 48.61265], [2.92099, 48.61178], [2.92034, 48.61004], [2.92151, 48.60859], [2.92384, 48.60812], [2.92612, 48.60891]]], [[[2.94069, 48.61537], [2.94098, 48.61596], [2.94577, 48.61678], [2.94896, 48.61554], [2.95311, 48.61551], [2.96038, 48.61113], [2.96193, 48.60937], [2.96061, 48.60523], [2.95852, 48.60434], [2.95288, 48.60411], [2.94907, 48.60325], [2.94729, 48.60429], [2.94428, 48.60472], [2.94293, 48.60566], [2.94101, 48.60627], [2.93826, 48.60624], [2.93602, 48.60542], [2.93046, 48.6124], [2.92469, 48.61479], [2.92818, 48.61595], [2.9291, 48.61449], [2.93087, 48.6133], [2.93279, 48.61272], [2.93473, 48.61262], [2.93862, 48.61345], [2.94069, 48.61537]], [[2.95581, 48.60575], [2.95694, 48.60604], [2.95655, 48.60718], [2.95775, 48.60795], [2.95752, 48.60886], [2.95687, 48.60886], [2.95641, 48.60827], [2.95482, 48.60836], [2.9536, 48.60757], [2.95397, 48.60523], [2.956, 48.60542], [2.95581, 48.60575]]], [[[2.94164, 48.57452], [2.93939, 48.57428], [2.93933, 48.57541], [2.94131, 48.57503], [2.94164, 48.57452]]], [[[2.94677, 48.57803], [2.94709, 48.57814], [2.94726, 48.57742], [2.94645, 48.57699], [2.9452, 48.5779], [2.94677, 48.57803]]], [[[2.95488, 48.57812], [2.95356, 48.57773], [2.94934, 48.57756], [2.94791, 48.5786], [2.94853, 48.58], [2.94755, 48.58126], [2.94857, 48.5814], [2.94974, 48.58015], [2.95148, 48.57937], [2.95361, 48.57909], [2.956, 48.57943], [2.95816, 48.57835], [2.96054, 48.57801], [2.95876, 48.57359], [2.95649, 48.57457], [2.9522, 48.57547], [2.9526, 48.57599], [2.95798, 48.57625], [2.95785, 48.57722], [2.95532, 48.57703], [2.95488, 48.57812]]], [[[2.95577, 48.56926], [2.95152, 48.57032], [2.95229, 48.57146], [2.9543, 48.57099], [2.95622, 48.5699], [2.95577, 48.56926]]], [[[2.95115, 48.56836], [2.9541, 48.56824], [2.95493, 48.56767], [2.95354, 48.56814], [2.95115, 48.56836]]], [[[2.96784, 48.56661], [2.96924, 48.56646], [2.96892, 48.56472], [2.96612, 48.56492], [2.96626, 48.56635], [2.96784, 48.56661]]], [[[2.96816, 48.56352], [2.96912, 48.56406], [2.96978, 48.56285], [2.96753, 48.56201], [2.96668, 48.56226], [2.96816, 48.56352]]], [[[2.9762, 48.57053], [2.97539, 48.56879], [2.9719, 48.56835], [2.96949, 48.56682], [2.9687, 48.5669], [2.97077, 48.56858], [2.97114, 48.57065], [2.97013, 48.57239], [2.96847, 48.57383], [2.96552, 48.5745], [2.96621, 48.57713], [2.96972, 48.5768], [2.97298, 48.57786], [2.97242, 48.57526], [2.97287, 48.57369], [2.97013, 48.57366], [2.96996, 48.57281], [2.97125, 48.57241], [2.9727, 48.57234], [2.97291, 48.57362], [2.97395, 48.57263], [2.97566, 48.57186], [2.97953, 48.57165], [2.98224, 48.5726], [2.98371, 48.57443], [2.98622, 48.57397], [2.9818, 48.56964], [2.97903, 48.56761], [2.979, 48.56924], [2.97695, 48.57046], [2.9762, 48.57053]]], [[[2.98516, 48.60416], [2.98268, 48.60462], [2.98128, 48.60807], [2.98554, 48.60411], [2.98516, 48.60416]]], [[[2.99149, 48.58589], [2.99001, 48.58649], [2.98929, 48.58829], [2.99196, 48.58989], [2.99182, 48.58568], [2.99149, 48.58589]]], [[[2.98924, 48.59865], [2.98736, 48.59921], [2.98487, 48.59921], [2.98442, 48.60032], [2.98731, 48.5999], [2.98868, 48.60002], [2.98924, 48.59865]]], [[[2.9782, 48.58844], [2.97741, 48.58979], [2.98109, 48.59035], [2.98163, 48.58885], [2.98334, 48.5881], [2.98427, 48.5858], [2.98337, 48.58507], [2.9782, 48.58844]]], [[[2.97807, 48.58311], [2.97757, 48.58112], [2.97639, 48.5813], [2.97764, 48.58246], [2.97807, 48.58311]]], [[[2.92832, 48.59843], [2.92833, 48.59833], [2.92702, 48.59847], [2.92822, 48.59866], [2.92832, 48.59843]]], [[[2.93243, 48.58404], [2.93252, 48.58395], [2.93236, 48.58405], [2.93243, 48.58404]]], [[[2.93338, 48.58329], [2.93319, 48.5833], [2.93295, 48.58359], [2.93305, 48.5835], [2.93338, 48.58329]]], [[[2.9644, 48.61392], [2.96139, 48.61555], [2.9581, 48.61767], [2.96227, 48.61682], [2.96649, 48.61534], [2.96807, 48.61354], [2.96619, 48.61232], [2.9644, 48.61392]]], [[[2.96041, 48.6], [2.95976, 48.60057], [2.96367, 48.60193], [2.96718, 48.6017], [2.9667, 48.59506], [2.96432, 48.59502], [2.96196, 48.5942], [2.96112, 48.59864], [2.96041, 48.6]]], [[[2.97292, 48.59503], [2.9734, 48.5961], [2.97268, 48.59736], [2.97295, 48.60097], [2.97528, 48.60104], [2.97695, 48.60155], [2.97802, 48.60124], [2.98084, 48.59428], [2.97238, 48.593], [2.97292, 48.59503]]]]}, "properties": {"kind": "windland", "area_km2": 6.02}}, {"type": "Feature", "geometry": {"type": "Point", "coordinates": [2.96186, 48.5961]}, "properties": {"kind": "turbine", "i": 0, "mw": 6.0, "hub_m": 120.0, "rotor_m": 150.0}}, {"type": "Feature", "geometry": {"type": "Point", "coordinates": [2.95778, 48.57739]}, "properties": {"kind": "turbine", "i": 1, "mw": 6.0, "hub_m": 120.0, "rotor_m": 150.0}}, {"type": "Feature", "geometry": {"type": "Point", "coordinates": [2.92225, 48.58623]}, "properties": {"kind": "turbine", "i": 2, "mw": 6.0, "hub_m": 120.0, "rotor_m": 150.0}}, {"type": "Feature", "geometry": {"type": "Point", "coordinates": [2.94699, 48.60595]}, "properties": {"kind": "turbine", "i": 3, "mw": 6.0, "hub_m": 120.0, "rotor_m": 150.0}}, {"type": "Feature", "geometry": {"type": "Point", "coordinates": [2.92718, 48.60594]}, "properties": {"kind": "turbine", "i": 4, "mw": 6.0, "hub_m": 120.0, "rotor_m": 150.0}}, {"type": "Feature", "geometry": {"type": "Point", "coordinates": [2.97671, 48.59939]}, "properties": {"kind": "turbine", "i": 5, "mw": 6.0, "hub_m": 120.0, "rotor_m": 150.0}}, {"type": "Feature", "geometry": {"type": "Point", "coordinates": [2.96185, 48.60924]}, "properties": {"kind": "turbine", "i": 6, "mw": 6.0, "hub_m": 120.0, "rotor_m": 150.0}}, {"type": "Feature", "geometry": {"type": "Point", "coordinates": [2.98167, 48.58625]}, "properties": {"kind": "turbine", "i": 7, "mw": 6.0, "hub_m": 120.0, "rotor_m": 150.0}}, {"type": "Feature", "geometry": {"type": "Point", "coordinates": [2.97178, 48.56982]}, "properties": {"kind": "turbine", "i": 8, "mw": 6.0, "hub_m": 120.0, "rotor_m": 150.0}}]}