{"type": "FeatureCollection", "features": [{"type": "Feature", "geometry": {"type": "MultiPolygon", "coordinates": [[[[-96.84366, 40.32843], [-96.84352, 40.33352], [-96.84121, 40.33356], [-96.83967, 40.33246], [-96.8376, 40.33244], [-96.83669, 40.33202], [-96.83682, 40.3307], [-96.8363, 40.32947], [-96.83531, 40.32865], [-96.83393, 40.32825], [-96.83231, 40.32673], [-96.8284, 40.32573], [-96.82659, 40.32579], [-96.82517, 40.32528], [-96.82328, 40.32515], [-96.82257, 40.32293], [-96.8364, 40.32294], [-96.84366, 40.32843]]], [[[-96.8295, 40.31817], [-96.82948, 40.31908], [-96.82154, 40.31906], [-96.82199, 40.31573], [-96.82291, 40.31351], [-96.82438, 40.3154], [-96.82668, 40.31615], [-96.8295, 40.31817]]], [[[-96.8288, 40.31209], [-96.82562, 40.30988], [-96.82733, 40.30839], [-96.82997, 40.3084], [-96.82924, 40.31037], [-96.8301, 40.31209], [-96.8288, 40.31209]]], [[[-96.83896, 40.31543], [-96.83896, 40.31608], [-96.83758, 40.31684], [-96.83561, 40.31546], [-96.83896, 40.31543]]], [[[-96.84872, 40.32717], [-96.84869, 40.32295], [-96.85798, 40.32297], [-96.85795, 40.32635], [-96.85576, 40.32874], [-96.85241, 40.33107], [-96.84872, 40.32717]]], [[[-96.84435, 40.3045], [-96.84401, 40.30428], [-96.84555, 40.30451], [-96.84435, 40.3045]]], [[[-96.83897, 40.30437], [-96.83897, 40.30451], [-96.8365, 40.30451], [-96.83897, 40.30418], [-96.83897, 40.30437]]], [[[-96.84415, 40.30969], [-96.84401, 40.30837], [-96.85465, 40.30838], [-96.858, 40.31175], [-96.858, 40.3191], [-96.84567, 40.31908], [-96.84514, 40.31759], [-96.844, 40.31653], [-96.844, 40.31266], [-96.84442, 40.31101], [-96.84415, 40.30969]]]]}, "properties": {"kind": "windland", "area_km2": 3.17}}, {"type": "Feature", "geometry": {"type": "Point", "coordinates": [-96.82796, 40.31887]}, "properties": {"kind": "turbine", "i": 0, "mw": 6.0, "hub_m": 120.0, "rotor_m": 150.0}}, {"type": "Feature", "geometry": {"type": "Point", "coordinates": [-96.84053, 40.32897]}, "properties": {"kind": "turbine", "i": 1, "mw": 6.0, "hub_m": 120.0, "rotor_m": 150.0}}]}