{"type": "FeatureCollection", "features": [{"type": "Feature", "geometry": {"type": "MultiPolygon", "coordinates": [[[[-96.84373, 40.33738], [-96.84619, 40.33731], [-96.84766, 40.33672], [-96.84848, 40.33559], [-96.84857, 40.33359], [-96.85161, 40.3368], [-96.84783, 40.33788], [-96.84372, 40.33846], [-96.84373, 40.33738]]], [[[-96.84366, 40.32843], [-96.84352, 40.33352], [-96.84121, 40.33356], [-96.83967, 40.33246], [-96.8376, 40.33244], [-96.83669, 40.33202], [-96.83682, 40.3307], [-96.8363, 40.32947], [-96.83531, 40.32865], [-96.83393, 40.32825], [-96.83231, 40.32673], [-96.82465, 40.32519], [-96.8223, 40.3253], [-96.82257, 40.32293], [-96.8364, 40.32294], [-96.84366, 40.32843]]], [[[-96.8295, 40.31817], [-96.82948, 40.31908], [-96.82091, 40.31906], [-96.81791, 40.3173], [-96.81957, 40.31707], [-96.8207, 40.3165], [-96.82271, 40.31338], [-96.82356, 40.31397], [-96.82438, 40.3154], [-96.82668, 40.31615], [-96.8295, 40.31817]]], [[[-96.8288, 40.31209], [-96.82495, 40.30942], [-96.82495, 40.30839], [-96.82997, 40.3084], [-96.82924, 40.31037], [-96.8301, 40.31209], [-96.8288, 40.31209]]], [[[-96.83896, 40.31543], [-96.83896, 40.31608], [-96.83758, 40.31684], [-96.83561, 40.31546], [-96.83896, 40.31543]]], [[[-96.84872, 40.32717], [-96.84869, 40.32295], [-96.85798, 40.32297], [-96.85784, 40.33372], [-96.856, 40.33484], [-96.84872, 40.32717]]], [[[-96.86525, 40.3191], [-96.86305, 40.31909], [-96.86303, 40.30907], [-96.86487, 40.31194], [-96.86621, 40.31565], [-96.86657, 40.31909], [-96.86525, 40.3191]]], [[[-96.85799, 40.30453], [-96.84401, 40.3045], [-96.84401, 40.29955], [-96.85136, 40.30109], [-96.85573, 40.30298], [-96.85799, 40.30453]]], [[[-96.83896, 40.29994], [-96.83897, 40.30451], [-96.8249, 40.30452], [-96.82526, 40.30356], [-96.83179, 40.30072], [-96.83662, 40.2997], [-96.83896, 40.29948], [-96.83896, 40.29994]]], [[[-96.84415, 40.30969], [-96.84401, 40.30837], [-96.85798, 40.30839], [-96.858, 40.3191], [-96.84567, 40.31908], [-96.84514, 40.31759], [-96.844, 40.31653], [-96.844, 40.31266], [-96.84442, 40.31101], [-96.84415, 40.30969]]], [[[-96.81617, 40.32291], [-96.81706, 40.32291], [-96.81673, 40.32514], [-96.81595, 40.32291], [-96.81617, 40.32291]]], [[[-96.82303, 40.33271], [-96.82474, 40.33113], [-96.8251, 40.33235], [-96.82651, 40.33359], [-96.82391, 40.33356], [-96.82303, 40.33271]]], [[[-96.83867, 40.33809], [-96.83867, 40.33849], [-96.83815, 40.33817], [-96.83855, 40.33812], [-96.83867, 40.33809]]], [[[-96.86528, 40.32297], [-96.86605, 40.32296], [-96.8653, 40.32514], [-96.86297, 40.32901], [-96.86303, 40.32296], [-96.86528, 40.32297]]]]}, "properties": {"kind": "windland", "area_km2": 4.9}}, {"type": "Feature", "geometry": {"type": "MultiPolygon", "coordinates": [[[[-96.84289, 40.3192], [-96.84183, 40.31766], [-96.84184, 40.31017], [-96.84434, 40.31022], [-96.84436, 40.3117], [-96.844, 40.31266], [-96.844, 40.31653], [-96.84514, 40.31759], [-96.84567, 40.31908], [-96.85266, 40.31909], [-96.85265, 40.31938], [-96.84289, 40.3192]]], [[[-96.84113, 40.3124], [-96.84112, 40.31772], [-96.84205, 40.31918], [-96.84181, 40.31918], [-96.84143, 40.31877], [-96.84091, 40.3187], [-96.84113, 40.31178], [-96.84113, 40.3124]]]]}, "properties": {"kind": "pv", "area_km2": 0.24, "mw": 12.0}}, {"type": "Feature", "geometry": {"type": "Point", "coordinates": [-96.82796, 40.31887]}, "properties": {"kind": "turbine", "i": 0, "mw": 6.0, "hub_m": 120.0, "rotor_m": 150.0}}, {"type": "Feature", "geometry": {"type": "Point", "coordinates": [-96.84053, 40.32897]}, "properties": {"kind": "turbine", "i": 1, "mw": 6.0, "hub_m": 120.0, "rotor_m": 150.0}}, {"type": "Feature", "geometry": {"type": "Point", "coordinates": [-96.85404, 40.30949]}, "properties": {"kind": "turbine", "i": 2, "mw": 6.0, "hub_m": 120.0, "rotor_m": 150.0}}, {"type": "Feature", "geometry": {"type": "Point", "coordinates": [-96.82828, 40.30901]}, "properties": {"kind": "turbine", "i": 3, "mw": 6.0, "hub_m": 120.0, "rotor_m": 150.0}}, {"type": "Feature", "geometry": {"type": "Point", "coordinates": [-96.85782, 40.32601]}, "properties": {"kind": "turbine", "i": 4, "mw": 6.0, "hub_m": 120.0, "rotor_m": 150.0}}]}