{"type": "FeatureCollection", "features": [{"type": "Feature", "geometry": {"type": "MultiPolygon", "coordinates": [[[[-96.8578, 40.3433], [-96.85779, 40.34383], [-96.85589, 40.34272], [-96.85271, 40.34267], [-96.85106, 40.34196], [-96.84926, 40.3419], [-96.84689, 40.34273], [-96.84368, 40.34504], [-96.84373, 40.33738], [-96.84619, 40.33731], [-96.84766, 40.33672], [-96.84848, 40.33559], [-96.84857, 40.33359], [-96.8578, 40.3433]]], [[[-96.84366, 40.32843], [-96.84352, 40.33352], [-96.84121, 40.33356], [-96.83967, 40.33246], [-96.8376, 40.33244], [-96.83669, 40.33202], [-96.83682, 40.3307], [-96.8363, 40.32947], [-96.83531, 40.32865], [-96.83393, 40.32825], [-96.83231, 40.32673], [-96.82465, 40.32519], [-96.8223, 40.3253], [-96.82257, 40.32293], [-96.8364, 40.32294], [-96.84366, 40.32843]]], [[[-96.8295, 40.31817], [-96.82948, 40.31908], [-96.82091, 40.31906], [-96.81791, 40.3173], [-96.81957, 40.31707], [-96.8207, 40.3165], [-96.82271, 40.31338], [-96.82356, 40.31397], [-96.82438, 40.3154], [-96.82668, 40.31615], [-96.8295, 40.31817]]], [[[-96.80862, 40.30911], [-96.80847, 40.31106], [-96.80808, 40.31124], [-96.80744, 40.31011], [-96.80561, 40.30853], [-96.80862, 40.30911]]], [[[-96.81377, 40.30612], [-96.81377, 40.30418], [-96.81466, 40.30219], [-96.81406, 40.29924], [-96.8159, 40.29921], [-96.81531, 40.29776], [-96.81626, 40.29638], [-96.81757, 40.29555], [-96.81976, 40.29555], [-96.81989, 40.30732], [-96.81377, 40.30612]]], [[[-96.8288, 40.31209], [-96.82495, 40.30942], [-96.82495, 40.30839], [-96.82997, 40.3084], [-96.82924, 40.31037], [-96.8301, 40.31209], [-96.8288, 40.31209]]], [[[-96.83896, 40.31543], [-96.83896, 40.31608], [-96.83758, 40.31684], [-96.83561, 40.31546], [-96.83896, 40.31543]]], [[[-96.84872, 40.32717], [-96.84869, 40.32295], [-96.85798, 40.32297], [-96.85781, 40.33674], [-96.84872, 40.32717]]], [[[-96.86286, 40.34205], [-96.86284, 40.33746], [-96.87706, 40.3374], [-96.87703, 40.34104], [-96.87285, 40.34458], [-96.86823, 40.34749], [-96.86286, 40.34205]]], [[[-96.88204, 40.30382], [-96.88204, 40.30345], [-96.88203, 40.30284], [-96.88299, 40.30442], [-96.88204, 40.30382]]], [[[-96.88365, 40.30828], [-96.88493, 40.30828], [-96.88549, 40.30956], [-96.88648, 40.31294], [-96.88712, 40.31901], [-96.88214, 40.31904], [-96.88208, 40.31007], [-96.88365, 40.30828]]], [[[-96.87704, 40.31051], [-96.87709, 40.31905], [-96.86305, 40.31909], [-96.86303, 40.30838], [-96.87167, 40.30828], [-96.87304, 40.30893], [-96.87486, 40.30916], [-96.87704, 40.31051]]], [[[-96.87069, 40.30385], [-96.86299, 40.29702], [-96.86238, 40.29506], [-96.86139, 40.29451], [-96.86009, 40.2944], [-96.85948, 40.29384], [-96.8733, 40.29381], [-96.87693, 40.29685], [-96.87698, 40.30175], [-96.87518, 40.30166], [-96.8734, 40.30204], [-96.87069, 40.30385]]], [[[-96.83866, 40.28381], [-96.838, 40.28584], [-96.83704, 40.28654], [-96.83659, 40.28622], [-96.8358, 40.28718], [-96.8326, 40.28825], [-96.83121, 40.28701], [-96.83188, 40.2844], [-96.83866, 40.28381]], [[-96.83538, 40.2844], [-96.83498, 40.2842], [-96.83464, 40.28432], [-96.83488, 40.2846], [-96.83552, 40.2846], [-96.83538, 40.2844]], [[-96.83439, 40.28461], [-96.83459, 40.28457], [-96.8346, 40.28441], [-96.83432, 40.28451], [-96.83439, 40.28461]]], [[[-96.8188, 40.28957], [-96.81846, 40.29023], [-96.81887, 40.29187], [-96.8175, 40.2919], [-96.81728, 40.29313], [-96.81605, 40.29349], [-96.81607, 40.29248], [-96.8155, 40.29156], [-96.81329, 40.29077], [-96.8139, 40.29044], [-96.81665, 40.29049], [-96.8188, 40.28957]]], [[[-96.8098, 40.29302], [-96.81035, 40.29505], [-96.81079, 40.29565], [-96.81211, 40.29607], [-96.81217, 40.29711], [-96.81106, 40.29715], [-96.81026, 40.29678], [-96.80723, 40.29709], [-96.80543, 40.29653], [-96.8098, 40.29302]]], [[[-96.84508, 40.28934], [-96.84401, 40.28886], [-96.84385, 40.28377], [-96.8511, 40.28452], [-96.85547, 40.28544], [-96.85969, 40.28669], [-96.86729, 40.28997], [-96.84587, 40.28996], [-96.84508, 40.28934]]], [[[-96.84592, 40.29422], [-96.84624, 40.29382], [-96.85135, 40.29382], [-96.85283, 40.29419], [-96.85412, 40.29497], [-96.85801, 40.2985], [-96.85799, 40.30453], [-96.84401, 40.3045], [-96.84402, 40.29544], [-96.84592, 40.29422]]], [[[-96.83846, 40.29446], [-96.83898, 40.29487], [-96.83897, 40.30451], [-96.8249, 40.30452], [-96.82479, 40.29239], [-96.82563, 40.29321], [-96.8269, 40.29364], [-96.82937, 40.29346], [-96.8309, 40.29241], [-96.83244, 40.29399], [-96.83424, 40.29471], [-96.83685, 40.29483], [-96.83846, 40.29446]]], [[[-96.82488, 40.29001], [-96.8248, 40.29014], [-96.8248, 40.28973], [-96.8249, 40.28997], [-96.82488, 40.29001]]], [[[-96.84415, 40.30969], [-96.84401, 40.30837], [-96.85798, 40.30839], [-96.858, 40.3191], [-96.84567, 40.31908], [-96.84514, 40.31759], [-96.844, 40.31653], [-96.844, 40.31266], [-96.84442, 40.31101], [-96.84415, 40.30969]]], [[[-96.81974, 40.29098], [-96.81974, 40.29173], [-96.81927, 40.29148], [-96.81921, 40.29088], [-96.81975, 40.29039], [-96.81974, 40.29098]]], [[[-96.80218, 40.30094], [-96.80212, 40.30003], [-96.80311, 40.30037], [-96.80315, 40.30081], [-96.80218, 40.30094]]], [[[-96.79781, 40.30837], [-96.79778, 40.31025], [-96.7985, 40.31152], [-96.80048, 40.31352], [-96.80285, 40.31425], [-96.80421, 40.31564], [-96.80674, 40.31622], [-96.81048, 40.31529], [-96.81168, 40.31533], [-96.81086, 40.31718], [-96.81161, 40.31902], [-96.79488, 40.319], [-96.79518, 40.31467], [-96.79596, 40.31125], [-96.797, 40.30837], [-96.79781, 40.30837]]], [[[-96.83355, 40.35151], [-96.835, 40.35152], [-96.835, 40.35402], [-96.83089, 40.35348], [-96.82297, 40.35151], [-96.82738, 40.35182], [-96.83355, 40.35151]]], [[[-96.84316, 40.35063], [-96.84575, 40.34967], [-96.84965, 40.34678], [-96.85216, 40.34747], [-96.85284, 40.35101], [-96.85398, 40.35289], [-96.8489, 40.35382], [-96.8427, 40.35427], [-96.84263, 40.35277], [-96.84138, 40.35149], [-96.84316, 40.35063]]], [[[-96.85819, 40.3496], [-96.85824, 40.34968], [-96.85821, 40.34968], [-96.85819, 40.3496]]], [[[-96.81617, 40.32291], [-96.81706, 40.32291], [-96.81705, 40.32339], [-96.81672, 40.32517], [-96.81518, 40.32864], [-96.815, 40.33187], [-96.81561, 40.33364], [-96.80564, 40.33354], [-96.80563, 40.33318], [-96.80707, 40.33348], [-96.80909, 40.33336], [-96.81162, 40.33191], [-96.81316, 40.33156], [-96.81416, 40.33069], [-96.81446, 40.32931], [-96.81406, 40.32818], [-96.8131, 40.32745], [-96.8114, 40.32713], [-96.80914, 40.32594], [-96.8064, 40.3259], [-96.80566, 40.32558], [-96.80566, 40.32287], [-96.81617, 40.32291]]], [[[-96.82218, 40.33357], [-96.82149, 40.33358], [-96.82171, 40.33315], [-96.82322, 40.33261], [-96.82474, 40.33113], [-96.8251, 40.33235], [-96.82651, 40.33359], [-96.82218, 40.33357]]], [[[-96.82829, 40.33746], [-96.8298, 40.33754], [-96.83083, 40.33907], [-96.83366, 40.34082], [-96.83238, 40.34308], [-96.831, 40.34439], [-96.8297, 40.34491], [-96.82739, 40.34348], [-96.82474, 40.34337], [-96.82483, 40.33742], [-96.82829, 40.33746]]], [[[-96.83867, 40.33809], [-96.83867, 40.33865], [-96.83815, 40.33817], [-96.83867, 40.33809]]], [[[-96.80561, 40.34143], [-96.80563, 40.3374], [-96.81978, 40.33746], [-96.81959, 40.34763], [-96.81397, 40.34763], [-96.80756, 40.34336], [-96.80561, 40.34143]]], [[[-96.80062, 40.32286], [-96.80062, 40.32618], [-96.79943, 40.32751], [-96.79912, 40.32888], [-96.79943, 40.33023], [-96.80059, 40.33154], [-96.80059, 40.3335], [-96.79896, 40.33351], [-96.7965, 40.32842], [-96.79516, 40.32286], [-96.80062, 40.32286]]], [[[-96.86463, 40.30452], [-96.86304, 40.30452], [-96.86304, 40.30308], [-96.86344, 40.30343], [-96.86463, 40.30452]]], [[[-96.8829, 40.33353], [-96.88214, 40.33353], [-96.88216, 40.3229], [-96.88686, 40.32287], [-96.88484, 40.33007], [-96.8829, 40.33353]]], [[[-96.86528, 40.32297], [-96.87711, 40.32291], [-96.87709, 40.3335], [-96.87516, 40.33302], [-96.87342, 40.33354], [-96.86289, 40.33359], [-96.86303, 40.32296], [-96.86528, 40.32297]]], [[[-96.81583, 40.31213], [-96.81681, 40.31235], [-96.81643, 40.31306], [-96.81476, 40.31339], [-96.81485, 40.31185], [-96.81583, 40.31213]]]]}, "properties": {"kind": "windland", "area_km2": 18.09}}, {"type": "Feature", "geometry": {"type": "Point", "coordinates": [-96.82796, 40.31887]}, "properties": {"kind": "turbine", "i": 0, "mw": 6.0, "hub_m": 120.0, "rotor_m": 150.0}}, {"type": "Feature", "geometry": {"type": "Point", "coordinates": [-96.84053, 40.32897]}, "properties": {"kind": "turbine", "i": 1, "mw": 6.0, "hub_m": 120.0, "rotor_m": 150.0}}, {"type": "Feature", "geometry": {"type": "Point", "coordinates": [-96.85404, 40.30949]}, "properties": {"kind": "turbine", "i": 2, "mw": 6.0, "hub_m": 120.0, "rotor_m": 150.0}}, {"type": "Feature", "geometry": {"type": "Point", "coordinates": [-96.82828, 40.30901]}, "properties": {"kind": "turbine", "i": 3, "mw": 6.0, "hub_m": 120.0, "rotor_m": 150.0}}, {"type": "Feature", "geometry": {"type": "Point", "coordinates": [-96.85782, 40.32601]}, "properties": {"kind": "turbine", "i": 4, "mw": 6.0, "hub_m": 120.0, "rotor_m": 150.0}}, {"type": "Feature", "geometry": {"type": "Point", "coordinates": [-96.84451, 40.33892]}, "properties": {"kind": "turbine", "i": 5, "mw": 6.0, "hub_m": 120.0, "rotor_m": 150.0}}, {"type": "Feature", "geometry": {"type": "Point", "coordinates": [-96.81529, 40.31205]}, "properties": {"kind": "turbine", "i": 6, "mw": 6.0, "hub_m": 120.0, "rotor_m": 150.0}}, {"type": "Feature", "geometry": {"type": "Point", "coordinates": [-96.81487, 40.3252]}, "properties": {"kind": "turbine", "i": 7, "mw": 6.0, "hub_m": 120.0, "rotor_m": 150.0}}, {"type": "Feature", "geometry": {"type": "Point", "coordinates": [-96.85751, 40.33587]}, "properties": {"kind": "turbine", "i": 8, "mw": 6.0, "hub_m": 120.0, "rotor_m": 150.0}}, {"type": "Feature", "geometry": {"type": "Point", "coordinates": [-96.85436, 40.29963]}, "properties": {"kind": "turbine", "i": 9, "mw": 6.0, "hub_m": 120.0, "rotor_m": 150.0}}, {"type": "Feature", "geometry": {"type": "Point", "coordinates": [-96.82733, 40.33859]}, "properties": {"kind": "turbine", "i": 10, "mw": 6.0, "hub_m": 120.0, "rotor_m": 150.0}}, {"type": "Feature", "geometry": {"type": "Point", "coordinates": [-96.83729, 40.29602]}, "properties": {"kind": "turbine", "i": 11, "mw": 6.0, "hub_m": 120.0, "rotor_m": 150.0}}, {"type": "Feature", "geometry": {"type": "Point", "coordinates": [-96.81561, 40.30219]}, "properties": {"kind": "turbine", "i": 12, "mw": 6.0, "hub_m": 120.0, "rotor_m": 150.0}}, {"type": "Feature", "geometry": {"type": "Point", "coordinates": [-96.8751, 40.32304]}, "properties": {"kind": "turbine", "i": 13, "mw": 6.0, "hub_m": 120.0, "rotor_m": 150.0}}, {"type": "Feature", "geometry": {"type": "Point", "coordinates": [-96.87552, 40.30989]}, "properties": {"kind": "turbine", "i": 14, "mw": 6.0, "hub_m": 120.0, "rotor_m": 150.0}}, {"type": "Feature", "geometry": {"type": "Point", "coordinates": [-96.81444, 40.33835]}, "properties": {"kind": "turbine", "i": 15, "mw": 6.0, "hub_m": 120.0, "rotor_m": 150.0}}, {"type": "Feature", "geometry": {"type": "Point", "coordinates": [-96.87479, 40.3329]}, "properties": {"kind": "turbine", "i": 16, "mw": 6.0, "hub_m": 120.0, "rotor_m": 150.0}}, {"type": "Feature", "geometry": {"type": "Point", "coordinates": [-96.85038, 40.28968]}, "properties": {"kind": "turbine", "i": 17, "mw": 6.0, "hub_m": 120.0, "rotor_m": 150.0}}, {"type": "Feature", "geometry": {"type": "Point", "coordinates": [-96.8485, 40.34886]}, "properties": {"kind": "turbine", "i": 18, "mw": 6.0, "hub_m": 120.0, "rotor_m": 150.0}}]}