{"type": "FeatureCollection", "features": [{"type": "Feature", "geometry": {"type": "MultiPolygon", "coordinates": [[[[-96.85588, 40.34128], [-96.8524, 40.34245], [-96.8508, 40.34192], [-96.84879, 40.34198], [-96.84689, 40.34273], [-96.84565, 40.34375], [-96.8437, 40.34393], [-96.84373, 40.33738], [-96.84619, 40.33731], [-96.84766, 40.33672], [-96.84848, 40.33559], [-96.84857, 40.33359], [-96.85588, 40.34128]]], [[[-96.84366, 40.32843], [-96.84352, 40.33352], [-96.84121, 40.33356], [-96.83967, 40.33246], [-96.8376, 40.33244], [-96.83669, 40.33202], [-96.83682, 40.3307], [-96.8363, 40.32947], [-96.83531, 40.32865], [-96.83393, 40.32825], [-96.83231, 40.32673], [-96.82465, 40.32519], [-96.8223, 40.3253], [-96.82257, 40.32293], [-96.8364, 40.32294], [-96.84366, 40.32843]]], [[[-96.8295, 40.31817], [-96.82948, 40.31908], [-96.82091, 40.31906], [-96.81791, 40.3173], [-96.81957, 40.31707], [-96.8207, 40.3165], [-96.82271, 40.31338], [-96.82356, 40.31397], [-96.82438, 40.3154], [-96.82668, 40.31615], [-96.8295, 40.31817]]], [[[-96.81377, 40.30612], [-96.81427, 40.30459], [-96.81977, 40.3], [-96.81989, 40.30732], [-96.81377, 40.30612]]], [[[-96.8288, 40.31209], [-96.82495, 40.30942], [-96.82495, 40.30839], [-96.82997, 40.3084], [-96.82924, 40.31037], [-96.8301, 40.31209], [-96.8288, 40.31209]]], [[[-96.83896, 40.31543], [-96.83896, 40.31608], [-96.83758, 40.31684], [-96.83561, 40.31546], [-96.83896, 40.31543]]], [[[-96.84872, 40.32717], [-96.84869, 40.32295], [-96.85798, 40.32297], [-96.85781, 40.33674], [-96.84872, 40.32717]]], [[[-96.86284, 40.33746], [-96.86291, 40.33746], [-96.86305, 40.33746], [-96.86284, 40.3376], [-96.86284, 40.33746]]], [[[-96.87233, 40.31907], [-96.86305, 40.31909], [-96.86303, 40.30838], [-96.87055, 40.30835], [-96.87251, 40.31232], [-96.87321, 40.31471], [-96.87367, 40.31906], [-96.87233, 40.31907]]], [[[-96.84586, 40.29427], [-96.85125, 40.29523], [-96.85622, 40.29688], [-96.85801, 40.2985], [-96.85799, 40.30453], [-96.84401, 40.3045], [-96.84402, 40.29544], [-96.84586, 40.29427]]], [[[-96.83846, 40.29446], [-96.83898, 40.29487], [-96.83897, 40.30451], [-96.8249, 40.30452], [-96.8248, 40.2973], [-96.83228, 40.29488], [-96.83387, 40.2946], [-96.83685, 40.29483], [-96.83846, 40.29446]]], [[[-96.84415, 40.30969], [-96.84401, 40.30837], [-96.85798, 40.30839], [-96.858, 40.3191], [-96.84567, 40.31908], [-96.84514, 40.31759], [-96.844, 40.31653], [-96.844, 40.31266], [-96.84442, 40.31101], [-96.84415, 40.30969]]], [[[-96.80894, 40.31583], [-96.81048, 40.31529], [-96.81168, 40.31533], [-96.81086, 40.31718], [-96.81161, 40.31902], [-96.80833, 40.31901], [-96.80855, 40.31594], [-96.80894, 40.31583]]], [[[-96.81617, 40.32291], [-96.81706, 40.32291], [-96.81705, 40.32339], [-96.81672, 40.32517], [-96.81518, 40.32864], [-96.815, 40.33187], [-96.81561, 40.33364], [-96.81454, 40.33366], [-96.81285, 40.33169], [-96.81427, 40.33049], [-96.81429, 40.32855], [-96.81335, 40.32758], [-96.8114, 40.32713], [-96.80966, 40.32609], [-96.80872, 40.32288], [-96.81617, 40.32291]]], [[[-96.82218, 40.33357], [-96.82149, 40.33358], [-96.82171, 40.33315], [-96.82322, 40.33261], [-96.82474, 40.33113], [-96.8251, 40.33235], [-96.82651, 40.33359], [-96.82218, 40.33357]]], [[[-96.82829, 40.33746], [-96.8298, 40.33754], [-96.83083, 40.33907], [-96.83366, 40.34082], [-96.83234, 40.3431], [-96.82477, 40.34072], [-96.82483, 40.33742], [-96.82829, 40.33746]]], [[[-96.83867, 40.33809], [-96.83867, 40.33865], [-96.83815, 40.33817], [-96.83867, 40.33809]]], [[[-96.81978, 40.33746], [-96.81977, 40.33803], [-96.81897, 40.33747], [-96.81978, 40.33746]]], [[[-96.86463, 40.30452], [-96.86304, 40.30452], [-96.86304, 40.30308], [-96.86344, 40.30343], [-96.86463, 40.30452]]], [[[-96.86528, 40.32297], [-96.87326, 40.32293], [-96.8709, 40.32914], [-96.86774, 40.33341], [-96.86289, 40.33359], [-96.86303, 40.32296], [-96.86528, 40.32297]]], [[[-96.81583, 40.31213], [-96.81681, 40.31235], [-96.81643, 40.31306], [-96.81476, 40.31339], [-96.81485, 40.31185], [-96.81583, 40.31213]]]]}, "properties": {"kind": "windland", "area_km2": 9.41}}, {"type": "Feature", "geometry": {"type": "Point", "coordinates": [-96.82796, 40.31887]}, "properties": {"kind": "turbine", "i": 0, "mw": 6.0, "hub_m": 120.0, "rotor_m": 150.0}}, {"type": "Feature", "geometry": {"type": "Point", "coordinates": [-96.84053, 40.32897]}, "properties": {"kind": "turbine", "i": 1, "mw": 6.0, "hub_m": 120.0, "rotor_m": 150.0}}, {"type": "Feature", "geometry": {"type": "Point", "coordinates": [-96.85404, 40.30949]}, "properties": {"kind": "turbine", "i": 2, "mw": 6.0, "hub_m": 120.0, "rotor_m": 150.0}}, {"type": "Feature", "geometry": {"type": "Point", "coordinates": [-96.82828, 40.30901]}, "properties": {"kind": "turbine", "i": 3, "mw": 6.0, "hub_m": 120.0, "rotor_m": 150.0}}, {"type": "Feature", "geometry": {"type": "Point", "coordinates": [-96.85782, 40.32601]}, "properties": {"kind": "turbine", "i": 4, "mw": 6.0, "hub_m": 120.0, "rotor_m": 150.0}}, {"type": "Feature", "geometry": {"type": "Point", "coordinates": [-96.84451, 40.33892]}, "properties": {"kind": "turbine", "i": 5, "mw": 6.0, "hub_m": 120.0, "rotor_m": 150.0}}]}