{"type": "FeatureCollection", "features": [{"type": "Feature", "geometry": {"type": "MultiPolygon", "coordinates": [[[[-95.38277, 29.00975], [-95.38243, 29.01209], [-95.38037, 29.0112], [-95.37428, 29.01127], [-95.37427, 29.01091], [-95.37544, 29.01034], [-95.3777, 29.00834], [-95.37959, 29.00811], [-95.38112, 29.00724], [-95.38283, 29.00932], [-95.38277, 29.00975]]], [[[-95.35716, 29.00917], [-95.35752, 29.01098], [-95.35818, 29.01183], [-95.35945, 29.01235], [-95.36231, 29.01259], [-95.36415, 29.01502], [-95.36662, 29.01586], [-95.36075, 29.01713], [-95.3588, 29.01805], [-95.35526, 29.02106], [-95.35314, 29.02371], [-95.35137, 29.02467], [-95.3528, 29.02012], [-95.35448, 29.01963], [-95.35646, 29.01781], [-95.35788, 29.01478], [-95.35763, 29.01257], [-95.35697, 29.01169], [-95.35591, 29.01119], [-95.35444, 29.01122], [-95.35334, 29.01171], [-95.34945, 29.00737], [-95.34813, 29.00667], [-95.346, 29.00619], [-95.34328, 29.00672], [-95.34125, 29.00661], [-95.33995, 29.0074], [-95.33945, 29.00864], [-95.33968, 29.01355], [-95.33617, 29.01186], [-95.33563, 29.00675], [-95.33668, 29.00574], [-95.33686, 29.00452], [-95.33781, 29.00275], [-95.33725, 29.00029], [-95.338, 28.99765], [-95.33728, 28.9936], [-95.3391, 28.99127], [-95.34155, 28.99299], [-95.34342, 28.99343], [-95.34359, 28.99978], [-95.3442, 29.00097], [-95.34584, 29.0017], [-95.35053, 29.00165], [-95.35119, 29.00232], [-95.35133, 29.00574], [-95.35221, 29.00745], [-95.35409, 29.00871], [-95.35716, 29.00917]]], [[[-95.42547, 29.00484], [-95.42556, 29.00893], [-95.42346, 29.00808], [-95.4234, 29.00509], [-95.42444, 29.0044], [-95.42547, 29.00484]]], [[[-95.41899, 29.00499], [-95.41903, 29.00685], [-95.41721, 29.00675], [-95.41739, 29.00569], [-95.41895, 29.00472], [-95.41899, 29.00499]]], [[[-95.38076, 28.99806], [-95.3802, 28.99834], [-95.37877, 28.99641], [-95.37929, 28.99644], [-95.38076, 28.99806]]], [[[-95.36523, 29.00318], [-95.36713, 29.00282], [-95.36838, 29.00207], [-95.36817, 29.00368], [-95.36565, 29.00374], [-95.36523, 29.00318]]], [[[-95.45258, 29.00138], [-95.45005, 28.99791], [-95.44827, 28.99642], [-95.44819, 28.99443], [-95.44762, 28.99272], [-95.44676, 28.99161], [-95.44769, 28.99064], [-95.44778, 28.98952], [-95.44715, 28.98854], [-95.44565, 28.98788], [-95.44755, 28.98441], [-95.44813, 28.98531], [-95.44934, 28.98602], [-95.45004, 28.98755], [-95.44885, 28.9888], [-95.44855, 28.99043], [-95.45013, 28.99447], [-95.45103, 28.99537], [-95.45095, 28.99724], [-95.4515, 28.99908], [-95.45261, 29.00023], [-95.45272, 29.00158], [-95.45258, 29.00138]]], [[[-95.44425, 28.98082], [-95.44463, 28.98083], [-95.44261, 28.9845], [-95.44125, 28.98285], [-95.43931, 28.97923], [-95.43394, 28.97496], [-95.43396, 28.97348], [-95.43493, 28.97245], [-95.43819, 28.97301], [-95.43898, 28.9741], [-95.44026, 28.97473], [-95.44045, 28.97666], [-95.44187, 28.97927], [-95.44298, 28.98041], [-95.44425, 28.98082]]], [[[-95.43037, 28.97779], [-95.4309, 28.97777], [-95.43211, 28.9786], [-95.43004, 28.97862], [-95.42825, 28.97917], [-95.42785, 28.97731], [-95.42849, 28.97695], [-95.43037, 28.97779]]], [[[-95.43906, 28.98778], [-95.43875, 28.98646], [-95.44164, 28.98985], [-95.43927, 28.98988], [-95.43906, 28.98778]]], [[[-95.39774, 29.03937], [-95.39774, 29.03937], [-95.39774, 29.03937], [-95.39774, 29.03937]]], [[[-95.39756, 29.04594], [-95.39831, 29.04571], [-95.39892, 29.04746], [-95.4003, 29.04869], [-95.39978, 29.05094], [-95.40093, 29.0543], [-95.39424, 29.05462], [-95.39471, 29.05354], [-95.39465, 29.0522], [-95.39152, 29.0467], [-95.39161, 29.04506], [-95.3926, 29.04375], [-95.39366, 29.04304], [-95.3938, 29.04447], [-95.39453, 29.04552], [-95.39581, 29.04603], [-95.39756, 29.04594]]], [[[-95.38036, 29.05192], [-95.38257, 29.05363], [-95.37808, 29.05273], [-95.37167, 29.05075], [-95.37369, 29.04478], [-95.37584, 29.04536], [-95.37533, 29.04847], [-95.3783, 29.04907], [-95.37784, 29.05152], [-95.38036, 29.05192]]], [[[-95.3795, 29.04734], [-95.37918, 29.04899], [-95.379, 29.04898], [-95.37947, 29.04716], [-95.3795, 29.04734]]], [[[-95.38306, 29.04491], [-95.38207, 29.0454], [-95.38133, 29.0439], [-95.3822, 29.04462], [-95.38306, 29.04491]]], [[[-95.39197, 28.9766], [-95.39285, 28.97689], [-95.39226, 28.97829], [-95.38693, 28.97439], [-95.38337, 28.97239], [-95.37875, 28.9705], [-95.37802, 28.96981], [-95.37753, 28.9686], [-95.3777, 28.96738], [-95.37986, 28.96148], [-95.38142, 28.96226], [-95.38284, 28.96228], [-95.39196, 28.9645], [-95.39049, 28.96535], [-95.39001, 28.96706], [-95.39078, 28.96949], [-95.39024, 28.97086], [-95.3908, 28.97515], [-95.39197, 28.9766]]], [[[-95.34748, 29.0213], [-95.34804, 29.02116], [-95.34679, 29.02439], [-95.34544, 29.02408], [-95.3458, 29.02128], [-95.34748, 29.0213]]], [[[-95.38032, 29.02066], [-95.38016, 29.01897], [-95.37957, 29.01772], [-95.37815, 29.01614], [-95.37628, 29.01513], [-95.37873, 29.01509], [-95.38017, 29.01592], [-95.38251, 29.01596], [-95.38253, 29.01696], [-95.38135, 29.01762], [-95.38087, 29.01866], [-95.38113, 29.01976], [-95.38205, 29.02055], [-95.38125, 29.02118], [-95.38029, 29.02121], [-95.38032, 29.02066]]], [[[-95.43088, 29.01028], [-95.43062, 29.01084], [-95.43, 29.01052], [-95.42994, 29.00788], [-95.43109, 29.00758], [-95.43181, 29.00861], [-95.43088, 29.01028]]], [[[-95.40218, 28.97931], [-95.40365, 28.98153], [-95.40187, 28.9818], [-95.39876, 28.98137], [-95.3991, 28.97852], [-95.39943, 28.97829], [-95.40223, 28.97753], [-95.40218, 28.97931]]], [[[-95.35538, 28.96843], [-95.35515, 28.96817], [-95.35743, 28.96518], [-95.35763, 28.96542], [-95.35538, 28.96843]]], [[[-95.40808, 28.97597], [-95.40784, 28.97528], [-95.4089, 28.97558], [-95.40986, 28.97708], [-95.40825, 28.97722], [-95.40808, 28.97597]]], [[[-95.40605, 28.9685], [-95.40555, 28.96891], [-95.40514, 28.96758], [-95.40668, 28.96793], [-95.40605, 28.9685]]], [[[-95.42399, 28.98125], [-95.42154, 28.97912], [-95.42146, 28.97858], [-95.42274, 28.97839], [-95.42337, 28.97894], [-95.42417, 28.98148], [-95.42399, 28.98125]]], [[[-95.43392, 28.99041], [-95.42921, 28.98701], [-95.4247, 28.98212], [-95.42582, 28.98291], [-95.42822, 28.98343], [-95.43102, 28.98276], [-95.43295, 28.983], [-95.43438, 28.98871], [-95.43451, 28.99091], [-95.43392, 28.99041]]], [[[-95.43676, 28.99363], [-95.43759, 28.99394], [-95.43664, 28.99547], [-95.4361, 28.99326], [-95.43676, 28.99363]]], [[[-95.41129, 28.96909], [-95.411, 28.96892], [-95.41165, 28.96908], [-95.4115, 28.96908], [-95.41129, 28.96909]]], [[[-95.44405, 29.01295], [-95.44364, 29.01327], [-95.44325, 29.0128], [-95.44443, 29.01274], [-95.44405, 29.01295]]], [[[-95.4228, 28.9728], [-95.42306, 28.97264], [-95.4241, 28.97431], [-95.42152, 28.97428], [-95.42132, 28.97337], [-95.4228, 28.9728]]], [[[-95.36689, 29.03953], [-95.36697, 29.03986], [-95.36127, 29.04237], [-95.35926, 29.04098], [-95.35702, 29.04082], [-95.35482, 29.03981], [-95.35292, 29.03991], [-95.34932, 29.03657], [-95.34568, 29.0324], [-95.35557, 29.0329], [-95.35609, 29.03243], [-95.35473, 29.03083], [-95.35428, 29.03131], [-95.35352, 29.03047], [-95.35399, 29.02999], [-95.3556, 29.03102], [-95.3577, 29.03084], [-95.35888, 29.03207], [-95.37429, 29.01958], [-95.37515, 29.0204], [-95.37483, 29.0214], [-95.36621, 29.02828], [-95.36848, 29.03034], [-95.36728, 29.03256], [-95.36668, 29.03497], [-95.36689, 29.03953]]], [[[-95.33796, 29.01829], [-95.34021, 29.01959], [-95.34037, 29.02189], [-95.33988, 29.02306], [-95.33796, 29.01829]]], [[[-95.34374, 29.02908], [-95.34334, 29.02912], [-95.34306, 29.02872], [-95.34374, 29.02908]]], [[[-95.34473, 29.03101], [-95.34473, 29.03107], [-95.34466, 29.03096], [-95.34473, 29.03101]]], [[[-95.36725, 29.049], [-95.36205, 29.04634], [-95.36921, 29.0432], [-95.36725, 29.049]]], [[[-95.34696, 29.01548], [-95.34499, 29.01685], [-95.34447, 29.01627], [-95.34615, 29.01337], [-95.34771, 29.01526], [-95.34696, 29.01548]]], [[[-95.37182, 29.03506], [-95.37209, 29.03429], [-95.37236, 29.03622], [-95.37178, 29.03697], [-95.37182, 29.03506]]], [[[-95.41873, 28.98529], [-95.41722, 28.986], [-95.4167, 28.98557], [-95.41676, 28.98462], [-95.41615, 28.98347], [-95.41757, 28.98391], [-95.41873, 28.98529]]], [[[-95.40121, 28.96666], [-95.40122, 28.96666], [-95.40245, 28.96694], [-95.40097, 28.96737], [-95.40095, 28.9666], [-95.40121, 28.96666]]], [[[-95.3869, 29.01527], [-95.38694, 29.01526], [-95.3869, 29.01532], [-95.3869, 29.01527]]]]}, "properties": {"kind": "windland", "area_km2": 9.26}}, {"type": "Feature", "geometry": {"type": "MultiPolygon", "coordinates": [[[[-95.39468, 29.00484], [-95.39726, 29.00583], [-95.40374, 29.0086], [-95.40091, 29.00794], [-95.39714, 29.00632], [-95.39468, 29.00484]]], [[[-95.40438, 29.00797], [-95.4031, 29.00744], [-95.40342, 29.00685], [-95.40436, 29.00721], [-95.40438, 29.00797]]], [[[-95.39795, 29.00872], [-95.39842, 29.00865], [-95.39874, 29.00826], [-95.39967, 29.00865], [-95.39968, 29.00962], [-95.39854, 29.00958], [-95.39699, 29.00875], [-95.39653, 29.00885], [-95.39618, 29.00925], [-95.39581, 29.00897], [-95.39603, 29.00842], [-95.39591, 29.0079], [-95.39632, 29.00725], [-95.39741, 29.00771], [-95.39733, 29.00835], [-95.39795, 29.00872]]], [[[-95.40427, 29.00939], [-95.40379, 29.00929], [-95.40307, 29.00905], [-95.40433, 29.00925], [-95.40427, 29.00939]]], [[[-95.39553, 29.00949], [-95.39553, 29.00948], [-95.39554, 29.00948], [-95.39553, 29.00949]]], [[[-95.40382, 29.01291], [-95.40348, 29.01314], [-95.40338, 29.01346], [-95.40287, 29.01324], [-95.40312, 29.01266], [-95.40298, 29.01226], [-95.40152, 29.01173], [-95.40155, 29.01093], [-95.40132, 29.01056], [-95.40032, 29.01045], [-95.40029, 29.00891], [-95.40253, 29.00987], [-95.4042, 29.01034], [-95.40401, 29.01077], [-95.40421, 29.01127], [-95.40423, 29.01289], [-95.40382, 29.01291]]], [[[-95.40091, 29.01206], [-95.40089, 29.01209], [-95.40085, 29.01206], [-95.40091, 29.01206]]], [[[-95.39992, 29.01218], [-95.39953, 29.01214], [-95.39959, 29.01199], [-95.3999, 29.01217], [-95.39992, 29.01218]]], [[[-95.39449, 29.01005], [-95.39511, 29.00992], [-95.39484, 29.01027], [-95.39483, 29.01069], [-95.39506, 29.01101], [-95.3955, 29.01112], [-95.39569, 29.01253], [-95.3949, 29.01254], [-95.39483, 29.01192], [-95.39436, 29.01191], [-95.39433, 29.01386], [-95.39452, 29.01406], [-95.39481, 29.01403], [-95.39492, 29.01308], [-95.3957, 29.01307], [-95.39575, 29.01517], [-95.39351, 29.01519], [-95.39309, 29.01373], [-95.39387, 29.01372], [-95.39384, 29.01201], [-95.39298, 29.01201], [-95.39297, 29.01178], [-95.39254, 29.01178], [-95.39224, 29.01078], [-95.39289, 29.01065], [-95.39337, 29.00987], [-95.39402, 29.01013], [-95.39449, 29.01005]]], [[[-95.39807, 29.01266], [-95.39931, 29.01265], [-95.39992, 29.01278], [-95.39993, 29.01299], [-95.39631, 29.01305], [-95.3963, 29.01221], [-95.39658, 29.01216], [-95.39659, 29.01281], [-95.39805, 29.0128], [-95.39807, 29.01266]]], [[[-95.40053, 29.01253], [-95.40092, 29.01275], [-95.40099, 29.01282], [-95.40054, 29.01282], [-95.40053, 29.01253]]], [[[-95.39995, 29.01378], [-95.39995, 29.0139], [-95.3969, 29.01394], [-95.39634, 29.01389], [-95.39633, 29.01359], [-95.39994, 29.01353], [-95.39995, 29.01378]]], [[[-95.40139, 29.01348], [-95.40134, 29.01404], [-95.40057, 29.01404], [-95.40055, 29.01336], [-95.40143, 29.01336], [-95.40139, 29.01348]]], [[[-95.39751, 29.01514], [-95.39636, 29.01516], [-95.39636, 29.01443], [-95.39996, 29.01444], [-95.39998, 29.01513], [-95.39751, 29.01514]]], [[[-95.40423, 29.01471], [-95.40422, 29.01484], [-95.40398, 29.0149], [-95.40407, 29.01461], [-95.40423, 29.01471]]], [[[-95.40059, 29.01512], [-95.40058, 29.01458], [-95.40208, 29.01456], [-95.40267, 29.01509], [-95.40059, 29.01512]]], [[[-95.40292, 29.01561], [-95.40421, 29.0154], [-95.40421, 29.01564], [-95.4006, 29.01571], [-95.40292, 29.01561]]], [[[-95.39723, 29.01575], [-95.39638, 29.01577], [-95.39637, 29.0157], [-95.39723, 29.01569], [-95.39723, 29.01575]]], [[[-95.39891, 29.01572], [-95.39784, 29.01568], [-95.39999, 29.01567], [-95.39999, 29.01572], [-95.39891, 29.01572]]], [[[-95.38645, 29.00089], [-95.38594, 29.00032], [-95.38568, 28.99978], [-95.38633, 29.00071], [-95.38645, 29.00089]]], [[[-95.38406, 28.99803], [-95.38453, 28.99802], [-95.38483, 28.99984], [-95.38528, 29.0009], [-95.38579, 29.00151], [-95.38726, 29.00263], [-95.38709, 29.00314], [-95.38585, 29.00408], [-95.38503, 29.00413], [-95.38375, 29.00367], [-95.3837, 29.00148], [-95.38407, 29.00099], [-95.38399, 29.00062], [-95.38368, 29.00037], [-95.38362, 28.99796], [-95.38406, 28.99803]]], [[[-95.39339, 29.00412], [-95.39058, 29.00295], [-95.38833, 29.0013], [-95.38716, 29.00011], [-95.38587, 28.99792], [-95.38658, 28.99805], [-95.38719, 28.99932], [-95.39104, 29.00261], [-95.39429, 29.00461], [-95.39339, 29.00412]]], [[[-95.38655, 29.00434], [-95.38771, 29.00332], [-95.38827, 29.0046], [-95.38602, 29.0046], [-95.38655, 29.00434]]], [[[-95.39148, 29.00539], [-95.39021, 29.00652], [-95.38958, 29.00534], [-95.39006, 29.00526], [-95.39015, 29.00493], [-95.38972, 29.00447], [-95.38913, 29.00451], [-95.38831, 29.00274], [-95.39236, 29.00521], [-95.39148, 29.00539]]], [[[-95.39239, 29.00436], [-95.39358, 29.00483], [-95.39496, 29.00566], [-95.39346, 29.00499], [-95.39239, 29.00436]]], [[[-95.38868, 29.00536], [-95.38869, 29.00537], [-95.38866, 29.00536], [-95.38868, 29.00536]]], [[[-95.38504, 29.00547], [-95.38863, 29.00595], [-95.38896, 29.00622], [-95.38834, 29.00652], [-95.38836, 29.00723], [-95.38906, 29.00751], [-95.38955, 29.00801], [-95.38999, 29.00808], [-95.39024, 29.00855], [-95.38968, 29.00869], [-95.38946, 29.00909], [-95.38658, 29.00914], [-95.38631, 29.00943], [-95.38382, 29.00651], [-95.38378, 29.0049], [-95.38504, 29.00547]]], [[[-95.39202, 29.00579], [-95.39217, 29.00576], [-95.39206, 29.00597], [-95.39189, 29.00582], [-95.39202, 29.00579]]], [[[-95.38446, 29.00848], [-95.38576, 29.01024], [-95.38476, 29.01037], [-95.38433, 29.01071], [-95.38436, 29.01372], [-95.38398, 29.01373], [-95.38384, 29.00765], [-95.38446, 29.00848]]], [[[-95.3873, 29.01229], [-95.38667, 29.01262], [-95.3862, 29.01314], [-95.38497, 29.01339], [-95.38492, 29.01089], [-95.38566, 29.01078], [-95.38629, 29.01092], [-95.38752, 29.01228], [-95.3873, 29.01229]]], [[[-95.39042, 29.01427], [-95.38736, 29.01066], [-95.3865, 29.00966], [-95.39078, 29.00969], [-95.39092, 29.01003], [-95.38955, 29.00992], [-95.38913, 29.01012], [-95.38756, 29.01021], [-95.38733, 29.01046], [-95.3876, 29.01074], [-95.38887, 29.01068], [-95.38898, 29.01127], [-95.38963, 29.01165], [-95.39018, 29.01162], [-95.39054, 29.01138], [-95.39065, 29.01058], [-95.3913, 29.01055], [-95.39253, 29.01472], [-95.39132, 29.01481], [-95.39129, 29.01539], [-95.39221, 29.01586], [-95.39167, 29.01586], [-95.391, 29.01508], [-95.39042, 29.01427]]], [[[-95.38498, 29.01393], [-95.38652, 29.01361], [-95.38774, 29.01253], [-95.39077, 29.01578], [-95.38502, 29.01598], [-95.38498, 29.01393]], [[-95.3869, 29.01527], [-95.3869, 29.01532], [-95.38694, 29.01526], [-95.3869, 29.01527]]], [[[-95.38441, 29.01599], [-95.38404, 29.016], [-95.384, 29.01427], [-95.38437, 29.01427], [-95.38441, 29.01599]]], [[[-95.39472, 29.01572], [-95.39576, 29.01579], [-95.39354, 29.01573], [-95.39386, 29.01572], [-95.39472, 29.01572]]]]}, "properties": {"kind": "pv", "area_km2": 1.13, "mw": 56.7}}, {"type": "Feature", "geometry": {"type": "Point", "coordinates": [-95.37886, 29.0103]}, "properties": {"kind": "turbine", "i": 0, "mw": 6.0, "hub_m": 120.0, "rotor_m": 150.0}}, {"type": "Feature", "geometry": {"type": "Point", "coordinates": [-95.40065, 28.98026]}, "properties": {"kind": "turbine", "i": 1, "mw": 6.0, "hub_m": 120.0, "rotor_m": 150.0}}, {"type": "Feature", "geometry": {"type": "Point", "coordinates": [-95.42373, 29.0062]}, "properties": {"kind": "turbine", "i": 2, "mw": 6.0, "hub_m": 120.0, "rotor_m": 150.0}}, {"type": "Feature", "geometry": {"type": "Point", "coordinates": [-95.37167, 29.0236]}, "properties": {"kind": "turbine", "i": 3, "mw": 6.0, "hub_m": 120.0, "rotor_m": 150.0}}, {"type": "Feature", "geometry": {"type": "Point", "coordinates": [-95.3602, 29.01392]}, "properties": {"kind": "turbine", "i": 4, "mw": 6.0, "hub_m": 120.0, "rotor_m": 150.0}}, {"type": "Feature", "geometry": {"type": "Point", "coordinates": [-95.43076, 28.98631]}, "properties": {"kind": "turbine", "i": 5, "mw": 6.0, "hub_m": 120.0, "rotor_m": 150.0}}, {"type": "Feature", "geometry": {"type": "Point", "coordinates": [-95.37788, 28.96749]}, "properties": {"kind": "turbine", "i": 6, "mw": 6.0, "hub_m": 120.0, "rotor_m": 150.0}}, {"type": "Feature", "geometry": {"type": "Point", "coordinates": [-95.42297, 28.97327]}, "properties": {"kind": "turbine", "i": 7, "mw": 6.0, "hub_m": 120.0, "rotor_m": 150.0}}, {"type": "Feature", "geometry": {"type": "Point", "coordinates": [-95.38904, 28.964]}, "properties": {"kind": "turbine", "i": 8, "mw": 6.0, "hub_m": 120.0, "rotor_m": 150.0}}, {"type": "Feature", "geometry": {"type": "Point", "coordinates": [-95.34874, 29.00424]}, "properties": {"kind": "turbine", "i": 9, "mw": 6.0, "hub_m": 120.0, "rotor_m": 150.0}}, {"type": "Feature", "geometry": {"type": "Point", "coordinates": [-95.3644, 29.03361]}, "properties": {"kind": "turbine", "i": 10, "mw": 6.0, "hub_m": 120.0, "rotor_m": 150.0}}, {"type": "Feature", "geometry": {"type": "Point", "coordinates": [-95.39468, 29.04625]}, "properties": {"kind": "turbine", "i": 11, "mw": 6.0, "hub_m": 120.0, "rotor_m": 150.0}}, {"type": "Feature", "geometry": {"type": "Point", "coordinates": [-95.44192, 28.98281]}, "properties": {"kind": "turbine", "i": 12, "mw": 6.0, "hub_m": 120.0, "rotor_m": 150.0}}]}