{"type": "FeatureCollection", "features": [{"type": "Feature", "geometry": {"type": "MultiPolygon", "coordinates": [[[[-95.42027, 29.10212], [-95.41989, 29.10081], [-95.42119, 29.10069], [-95.4221, 29.10019], [-95.42262, 29.09937], [-95.42264, 29.09843], [-95.42148, 29.09713], [-95.41929, 29.09695], [-95.41953, 29.09585], [-95.41926, 29.09429], [-95.41751, 29.09237], [-95.42184, 29.09186], [-95.4228, 29.09085], [-95.42336, 29.08908], [-95.42271, 29.08771], [-95.42103, 29.08716], [-95.41916, 29.08348], [-95.41945, 29.08182], [-95.41918, 29.0802], [-95.41974, 29.0801], [-95.42241, 29.0815], [-95.4244, 29.08179], [-95.42451, 29.0921], [-95.42628, 29.09169], [-95.42689, 29.10083], [-95.42035, 29.1024], [-95.42027, 29.10212]]], [[[-95.40649, 29.07053], [-95.40734, 29.0735], [-95.40611, 29.07463], [-95.40555, 29.07631], [-95.40326, 29.07546], [-95.40061, 29.07533], [-95.40057, 29.07408], [-95.39924, 29.07279], [-95.39903, 29.07113], [-95.4002, 29.06934], [-95.40192, 29.06869], [-95.40439, 29.06666], [-95.4053, 29.06922], [-95.40649, 29.07053]]], [[[-95.38277, 29.00975], [-95.38243, 29.01209], [-95.38037, 29.0112], [-95.37428, 29.01127], [-95.37427, 29.01091], [-95.37544, 29.01034], [-95.3777, 29.00834], [-95.37959, 29.00811], [-95.38112, 29.00724], [-95.38283, 29.00932], [-95.38277, 29.00975]]], [[[-95.35716, 29.00917], [-95.35752, 29.01098], [-95.35818, 29.01183], [-95.35945, 29.01235], [-95.36231, 29.01259], [-95.36415, 29.01502], [-95.36662, 29.01586], [-95.36075, 29.01713], [-95.3588, 29.01805], [-95.35526, 29.02106], [-95.35314, 29.02371], [-95.35137, 29.02467], [-95.3528, 29.02012], [-95.35448, 29.01963], [-95.3561, 29.01834], [-95.3577, 29.01532], [-95.35769, 29.01278], [-95.35697, 29.01169], [-95.35543, 29.01114], [-95.35339, 29.01174], [-95.34945, 29.00737], [-95.34813, 29.00667], [-95.346, 29.00619], [-95.34328, 29.00672], [-95.34125, 29.00661], [-95.33995, 29.0074], [-95.33945, 29.00864], [-95.33968, 29.01355], [-95.33589, 29.01175], [-95.33292, 29.01108], [-95.33172, 29.00948], [-95.33265, 29.00882], [-95.33413, 29.0087], [-95.33518, 29.00805], [-95.33563, 29.00675], [-95.33668, 29.00574], [-95.33686, 29.00452], [-95.33775, 29.00313], [-95.33725, 29.00029], [-95.338, 28.99765], [-95.33728, 28.9936], [-95.3391, 28.99127], [-95.34155, 28.99299], [-95.34342, 28.99343], [-95.34359, 28.99978], [-95.3442, 29.00097], [-95.34584, 29.0017], [-95.35053, 29.00165], [-95.35119, 29.00232], [-95.35133, 29.00574], [-95.35221, 29.00745], [-95.35409, 29.00871], [-95.35716, 29.00917]]], [[[-95.34238, 28.96227], [-95.34299, 28.96296], [-95.34451, 28.96434], [-95.34197, 28.96246], [-95.34238, 28.96227]]], [[[-95.35114, 28.93399], [-95.34853, 28.92965], [-95.36109, 28.92507], [-95.3603, 28.92617], [-95.35679, 28.9292], [-95.35625, 28.93045], [-95.35399, 28.93298], [-95.35248, 28.93316], [-95.35114, 28.93399]]], [[[-95.37608, 28.94053], [-95.37746, 28.94051], [-95.377, 28.94237], [-95.37566, 28.94267], [-95.37381, 28.94141], [-95.37468, 28.94019], [-95.37608, 28.94053]]], [[[-95.42547, 29.00484], [-95.42556, 29.00893], [-95.42346, 29.00808], [-95.4234, 29.00509], [-95.42444, 29.0044], [-95.42547, 29.00484]]], [[[-95.41899, 29.00499], [-95.41903, 29.00685], [-95.41721, 29.00675], [-95.41739, 29.00569], [-95.41895, 29.00472], [-95.41899, 29.00499]]], [[[-95.38076, 28.99806], [-95.3802, 28.99834], [-95.37877, 28.99641], [-95.37929, 28.99644], [-95.38076, 28.99806]]], [[[-95.43406, 29.06745], [-95.4331, 29.06682], [-95.43101, 29.06629], [-95.43415, 29.06632], [-95.43406, 29.06745]]], [[[-95.45001, 29.07842], [-95.4444, 29.07558], [-95.43754, 29.06749], [-95.43753, 29.06699], [-95.44458, 29.0753], [-95.44999, 29.07798], [-95.45001, 29.07842]]], [[[-95.44599, 29.09113], [-95.44596, 29.09192], [-95.44348, 29.09284], [-95.44401, 29.09115], [-95.44599, 29.09113]]], [[[-95.43878, 29.09195], [-95.43865, 29.09367], [-95.44045, 29.09659], [-95.43142, 29.09962], [-95.43082, 29.09072], [-95.43223, 29.08998], [-95.43268, 29.08874], [-95.43198, 29.08739], [-95.43058, 29.08688], [-95.43052, 29.08598], [-95.43209, 29.08593], [-95.43459, 29.08666], [-95.43455, 29.0918], [-95.43878, 29.09195]]], [[[-95.45513, 29.08629], [-95.45563, 29.08437], [-95.45505, 29.08382], [-95.45451, 29.0672], [-95.45639, 29.06743], [-95.46063, 29.06704], [-95.46284, 29.06793], [-95.46462, 29.07041], [-95.46219, 29.07206], [-95.46126, 29.07333], [-95.46087, 29.07534], [-95.46147, 29.07721], [-95.46278, 29.07851], [-95.46506, 29.0796], [-95.46929, 29.08076], [-95.46053, 29.08672], [-95.45525, 29.08963], [-95.45513, 29.08629]]], [[[-95.47451, 29.07643], [-95.47078, 29.07651], [-95.4683, 29.07604], [-95.46597, 29.07505], [-95.46838, 29.07347], [-95.46982, 29.07147], [-95.473, 29.07093], [-95.47436, 29.06974], [-95.47591, 29.0696], [-95.47776, 29.07029], [-95.48152, 29.06997], [-95.47784, 29.0737], [-95.47451, 29.07643]]], [[[-95.36523, 29.00318], [-95.36713, 29.00282], [-95.36838, 29.00207], [-95.36817, 29.00368], [-95.36565, 29.00374], [-95.36523, 29.00318]]], [[[-95.43452, 29.08117], [-95.43452, 29.08117], [-95.43436, 29.07526], [-95.43452, 29.08117]]], [[[-95.50208, 28.98951], [-95.50357, 28.98987], [-95.50533, 28.98969], [-95.50698, 28.98878], [-95.50789, 28.98741], [-95.50865, 28.9874], [-95.50872, 28.98776], [-95.50517, 28.98998], [-95.49581, 28.99386], [-95.49331, 28.99555], [-95.49198, 28.99696], [-95.48424, 29.00838], [-95.46834, 29.00427], [-95.4656, 29.00396], [-95.46453, 29.00322], [-95.4628, 29.00306], [-95.46194, 29.00243], [-95.46306, 29.00037], [-95.46436, 28.99975], [-95.4657, 29.00031], [-95.467, 29.00029], [-95.47014, 28.99824], [-95.47306, 28.99818], [-95.4746, 28.99698], [-95.47452, 28.99518], [-95.47289, 28.99408], [-95.46863, 28.99407], [-95.46642, 28.9955], [-95.46572, 28.99536], [-95.4721, 28.98348], [-95.47481, 28.98412], [-95.47565, 28.98526], [-95.47672, 28.98574], [-95.47907, 28.98562], [-95.48042, 28.98432], [-95.48609, 28.98626], [-95.49132, 28.9873], [-95.49184, 28.98948], [-95.49332, 28.9905], [-95.49459, 28.99043], [-95.49547, 28.98989], [-95.49599, 28.98886], [-95.49589, 28.98767], [-95.50014, 28.98763], [-95.50085, 28.98867], [-95.50208, 28.98951]]], [[[-95.50838, 29.0203], [-95.50495, 29.02004], [-95.48208, 29.02158], [-95.48637, 29.01352], [-95.49818, 29.01646], [-95.5023, 29.01856], [-95.50872, 29.01846], [-95.50838, 29.0203]]], [[[-95.45154, 28.95591], [-95.45178, 28.95564], [-95.45244, 28.95645], [-95.45513, 28.95811], [-95.45602, 28.96016], [-95.45834, 28.96137], [-95.45834, 28.96232], [-95.45899, 28.96353], [-95.46085, 28.96438], [-95.45973, 28.96541], [-95.45907, 28.96428], [-95.4577, 28.96368], [-95.45674, 28.96156], [-95.45578, 28.96062], [-95.45417, 28.96027], [-95.45183, 28.96096], [-95.45154, 28.95591]]], [[[-95.44597, 28.96289], [-95.44431, 28.96346], [-95.44008, 28.95362], [-95.4409, 28.95308], [-95.44147, 28.9521], [-95.44326, 28.95145], [-95.4468, 28.95236], [-95.44756, 28.95334], [-95.44614, 28.95401], [-95.44534, 28.95531], [-95.44659, 28.95865], [-95.44542, 28.95945], [-95.445, 28.96048], [-95.44532, 28.96182], [-95.44638, 28.96276], [-95.44597, 28.96289]]], [[[-95.45776, 28.98037], [-95.4593, 28.98142], [-95.46116, 28.98184], [-95.46144, 28.98356], [-95.4627, 28.98479], [-95.46421, 28.98509], [-95.46635, 28.98435], [-95.46668, 28.9845], [-95.46045, 28.99615], [-95.45714, 28.99709], [-95.45586, 28.99665], [-95.45618, 28.9952], [-95.45597, 28.99416], [-95.45453, 28.99235], [-95.4537, 28.99039], [-95.45627, 28.98851], [-95.45667, 28.98653], [-95.45596, 28.98513], [-95.45373, 28.98429], [-95.45256, 28.98274], [-95.45273, 28.98061], [-95.45227, 28.97851], [-95.45702, 28.97748], [-95.45707, 28.97913], [-95.45776, 28.98037]]], [[[-95.48718, 28.95866], [-95.49011, 28.95779], [-95.4932, 28.96006], [-95.48964, 28.96001], [-95.48854, 28.95931], [-95.48666, 28.95923], [-95.48718, 28.95866]]], [[[-95.41474, 29.09942], [-95.41492, 29.10006], [-95.41381, 29.09925], [-95.41252, 29.09913], [-95.41261, 29.09829], [-95.41474, 29.09942]]], [[[-95.50704, 28.98327], [-95.50682, 28.9791], [-95.50785, 28.98324], [-95.50704, 28.98327]]], [[[-95.4989, 28.96421], [-95.50064, 28.96386], [-95.50151, 28.96616], [-95.50259, 28.98255], [-95.50211, 28.98256], [-95.50096, 28.98124], [-95.49944, 28.98109], [-95.49882, 28.96803], [-95.49929, 28.96655], [-95.4987, 28.96518], [-95.4989, 28.96421]]], [[[-95.48926, 28.96748], [-95.48998, 28.96758], [-95.48999, 28.96915], [-95.48859, 28.96744], [-95.48926, 28.96748]]], [[[-95.48645, 28.97178], [-95.48691, 28.97187], [-95.48694, 28.97248], [-95.48504, 28.97216], [-95.4848, 28.97126], [-95.4841, 28.97055], [-95.48211, 28.9703], [-95.48209, 28.96944], [-95.48645, 28.97178]]], [[[-95.47662, 28.97654], [-95.47706, 28.9762], [-95.4776, 28.97794], [-95.4769, 28.9784], [-95.47517, 28.97774], [-95.47565, 28.97687], [-95.47662, 28.97654]]], [[[-95.47118, 28.97465], [-95.47188, 28.97484], [-95.47031, 28.97482], [-95.46927, 28.97543], [-95.46717, 28.9746], [-95.46708, 28.97372], [-95.46646, 28.97289], [-95.46718, 28.9715], [-95.46878, 28.97256], [-95.46973, 28.97414], [-95.47118, 28.97465]]], [[[-95.44528, 28.97544], [-95.44709, 28.97542], [-95.44746, 28.97699], [-95.44605, 28.97661], [-95.44528, 28.97544]]], [[[-95.5002, 29.01258], [-95.48844, 29.00965], [-95.49552, 28.9993], [-95.49601, 29.00027], [-95.49702, 29.00092], [-95.50027, 29.00102], [-95.50039, 29.00263], [-95.4987, 29.00301], [-95.49782, 29.00427], [-95.49809, 29.00555], [-95.49903, 29.00632], [-95.50008, 29.00651], [-95.50996, 29.00608], [-95.50933, 29.01422], [-95.50326, 29.0144], [-95.5002, 29.01258]]], [[[-95.47595, 29.01055], [-95.4822, 29.01222], [-95.47704, 29.02192], [-95.46619, 29.01969], [-95.46503, 29.01862], [-95.45823, 29.00934], [-95.45968, 29.00664], [-95.4608, 29.00723], [-95.46283, 29.00741], [-95.46408, 29.008], [-95.46715, 29.00836], [-95.47595, 29.01055]]], [[[-95.45343, 29.0007], [-95.45392, 29.00094], [-95.4529, 29.00183], [-95.45005, 28.99791], [-95.44827, 28.99642], [-95.44819, 28.99443], [-95.44762, 28.99272], [-95.44676, 28.99161], [-95.44769, 28.99064], [-95.44778, 28.98952], [-95.44715, 28.98854], [-95.44565, 28.98788], [-95.44755, 28.98441], [-95.45029, 28.98738], [-95.44885, 28.9888], [-95.44859, 28.99063], [-95.45013, 28.99447], [-95.45103, 28.99537], [-95.45086, 28.99664], [-95.4515, 28.99908], [-95.45218, 28.99996], [-95.45343, 29.0007]]], [[[-95.44425, 28.98082], [-95.44463, 28.98083], [-95.44261, 28.9845], [-95.44125, 28.98285], [-95.43931, 28.97923], [-95.43394, 28.97496], [-95.43396, 28.97348], [-95.43493, 28.97245], [-95.43819, 28.97301], [-95.43898, 28.9741], [-95.44026, 28.97473], [-95.44045, 28.97666], [-95.44187, 28.97927], [-95.44298, 28.98041], [-95.44425, 28.98082]]], [[[-95.43037, 28.97779], [-95.4309, 28.97777], [-95.43211, 28.9786], [-95.43004, 28.97862], [-95.42825, 28.97917], [-95.42785, 28.97731], [-95.42849, 28.97695], [-95.43037, 28.97779]]], [[[-95.43906, 28.98778], [-95.43875, 28.98646], [-95.44164, 28.98985], [-95.43927, 28.98988], [-95.43906, 28.98778]]], [[[-95.46366, 29.0229], [-95.4635, 29.02281], [-95.46347, 29.02273], [-95.46372, 29.02289], [-95.46366, 29.0229]]], [[[-95.48026, 29.02717], [-95.48, 29.02653], [-95.48053, 29.02556], [-95.49356, 29.02468], [-95.49351, 29.03173], [-95.49237, 29.02799], [-95.49137, 29.02665], [-95.48985, 29.02576], [-95.48791, 29.02534], [-95.4859, 29.02537], [-95.48378, 29.02595], [-95.48032, 29.02762], [-95.48026, 29.02717]]], [[[-95.50403, 29.02407], [-95.50753, 29.02411], [-95.50627, 29.02895], [-95.50526, 29.02579], [-95.50403, 29.02407]]], [[[-95.38751, 29.07557], [-95.38751, 29.07557], [-95.38751, 29.07557], [-95.38751, 29.07557]]], [[[-95.38129, 29.07987], [-95.38191, 29.07958], [-95.39349, 29.0793], [-95.3934, 29.08292], [-95.3929, 29.08327], [-95.39166, 29.08335], [-95.39022, 29.08308], [-95.38832, 29.08402], [-95.38717, 29.08406], [-95.38669, 29.08278], [-95.38599, 29.08232], [-95.38477, 29.08224], [-95.38391, 29.08267], [-95.38405, 29.08487], [-95.37955, 29.08501], [-95.38055, 29.0837], [-95.3805, 29.08028], [-95.38129, 29.07987]]], [[[-95.37721, 29.08501], [-95.37341, 29.08521], [-95.37604, 29.08965], [-95.38757, 29.09001], [-95.38759, 29.09361], [-95.38413, 29.0947], [-95.38232, 29.09396], [-95.37991, 29.09368], [-95.37917, 29.09439], [-95.38523, 29.10481], [-95.37393, 29.10357], [-95.3739, 29.0976], [-95.37118, 29.09074], [-95.37103, 29.08882], [-95.36987, 29.08716], [-95.37155, 29.08704], [-95.37274, 29.08632], [-95.3733, 29.08508], [-95.37321, 29.08326], [-95.37617, 29.08312], [-95.37637, 29.08416], [-95.37721, 29.08501]]], [[[-95.386, 29.10427], [-95.38741, 29.104], [-95.38689, 29.10485], [-95.386, 29.10483], [-95.386, 29.10427]]], [[[-95.38973, 29.10024], [-95.38895, 29.10152], [-95.38935, 29.10034], [-95.38994, 29.09991], [-95.38973, 29.10024]]], [[[-95.39592, 29.08993], [-95.3947, 29.09195], [-95.39453, 29.08451], [-95.39619, 29.0848], [-95.3977, 29.08382], [-95.3979, 29.07924], [-95.40291, 29.07943], [-95.39592, 29.08993]]], [[[-95.36371, 29.09302], [-95.36568, 29.09384], [-95.36774, 29.09381], [-95.36957, 29.09834], [-95.36953, 29.10271], [-95.36251, 29.1013], [-95.3517, 29.09811], [-95.34129, 29.09401], [-95.33139, 29.08903], [-95.32222, 29.0833], [-95.32305, 29.08204], [-95.32286, 29.08047], [-95.3282, 29.08579], [-95.33326, 29.0878], [-95.33484, 29.08765], [-95.33608, 29.08683], [-95.33694, 29.0853], [-95.33749, 29.08299], [-95.33878, 29.08399], [-95.34056, 29.0843], [-95.34257, 29.08363], [-95.34665, 29.08373], [-95.34816, 29.08275], [-95.35094, 29.0828], [-95.3512, 29.08419], [-95.35231, 29.08559], [-95.35404, 29.08637], [-95.35567, 29.08642], [-95.356, 29.08788], [-95.35699, 29.08876], [-95.36038, 29.08916], [-95.36155, 29.09221], [-95.36244, 29.09281], [-95.36371, 29.09302]]], [[[-95.41525, 29.10185], [-95.4153, 29.10139], [-95.41583, 29.1032], [-95.4154, 29.10326], [-95.41525, 29.10185]]], [[[-95.39774, 29.03937], [-95.39774, 29.03937], [-95.39774, 29.03937], [-95.39774, 29.03937]]], [[[-95.39756, 29.04594], [-95.39831, 29.04571], [-95.39892, 29.04746], [-95.4003, 29.04869], [-95.39982, 29.05129], [-95.40048, 29.05352], [-95.40158, 29.05496], [-95.4017, 29.05567], [-95.3995, 29.05812], [-95.39868, 29.05863], [-95.39727, 29.05885], [-95.39343, 29.05716], [-95.39199, 29.05694], [-95.39199, 29.05638], [-95.39341, 29.0556], [-95.39423, 29.05463], [-95.39474, 29.05287], [-95.39444, 29.05169], [-95.39197, 29.04772], [-95.39137, 29.04604], [-95.39161, 29.04506], [-95.3926, 29.04375], [-95.39366, 29.04304], [-95.3938, 29.04447], [-95.39453, 29.04552], [-95.39581, 29.04603], [-95.39756, 29.04594]]], [[[-95.38036, 29.05192], [-95.38704, 29.05649], [-95.38976, 29.05777], [-95.38803, 29.05937], [-95.38655, 29.05812], [-95.38485, 29.05749], [-95.38233, 29.0578], [-95.38107, 29.05699], [-95.37942, 29.05706], [-95.37631, 29.05969], [-95.37458, 29.06046], [-95.37381, 29.06175], [-95.37385, 29.063], [-95.37196, 29.0641], [-95.37092, 29.06574], [-95.36952, 29.06634], [-95.36446, 29.06535], [-95.36087, 29.06525], [-95.35974, 29.06388], [-95.36325, 29.06294], [-95.3643, 29.06389], [-95.36568, 29.06411], [-95.36742, 29.06316], [-95.37369, 29.04478], [-95.37584, 29.04536], [-95.37533, 29.04847], [-95.3783, 29.04907], [-95.37784, 29.05152], [-95.38036, 29.05192]]], [[[-95.3795, 29.04734], [-95.37918, 29.04899], [-95.379, 29.04898], [-95.37947, 29.04716], [-95.3795, 29.04734]]], [[[-95.38306, 29.04491], [-95.38207, 29.0454], [-95.38133, 29.0439], [-95.3822, 29.04462], [-95.38306, 29.04491]]], [[[-95.39197, 28.9766], [-95.39285, 28.97689], [-95.39226, 28.97829], [-95.38693, 28.97439], [-95.38337, 28.97239], [-95.37875, 28.9705], [-95.37802, 28.96981], [-95.37753, 28.9686], [-95.3777, 28.96738], [-95.37986, 28.96148], [-95.38142, 28.96226], [-95.38284, 28.96228], [-95.39196, 28.9645], [-95.39049, 28.96535], [-95.39001, 28.96706], [-95.39078, 28.96949], [-95.39024, 28.97086], [-95.3908, 28.97515], [-95.39197, 28.9766]]], [[[-95.34748, 29.0213], [-95.34804, 29.02116], [-95.34679, 29.02439], [-95.34544, 29.02408], [-95.3458, 29.02128], [-95.34748, 29.0213]]], [[[-95.38032, 29.02066], [-95.38016, 29.01897], [-95.37957, 29.01772], [-95.37815, 29.01614], [-95.37628, 29.01513], [-95.37873, 29.01509], [-95.38017, 29.01592], [-95.38251, 29.01596], [-95.38253, 29.01696], [-95.38135, 29.01762], [-95.38087, 29.01866], [-95.38113, 29.01976], [-95.38205, 29.02055], [-95.38125, 29.02118], [-95.38029, 29.02121], [-95.38032, 29.02066]]], [[[-95.43088, 29.01028], [-95.43062, 29.01084], [-95.43, 29.01052], [-95.42994, 29.00788], [-95.43109, 29.00758], [-95.43181, 29.00861], [-95.43088, 29.01028]]], [[[-95.40218, 28.97931], [-95.40365, 28.98153], [-95.40187, 28.9818], [-95.39876, 28.98137], [-95.3991, 28.97852], [-95.39943, 28.97829], [-95.40223, 28.97753], [-95.40218, 28.97931]]], [[[-95.34467, 28.96447], [-95.34457, 28.96438], [-95.34475, 28.96452], [-95.34467, 28.96447]]], [[[-95.34478, 28.96454], [-95.34564, 28.96503], [-95.34565, 28.96517], [-95.34545, 28.96503], [-95.34478, 28.96454]]], [[[-95.35538, 28.96843], [-95.35515, 28.96817], [-95.35743, 28.96518], [-95.35763, 28.96542], [-95.35538, 28.96843]]], [[[-95.34077, 28.92683], [-95.34152, 28.92646], [-95.3421, 28.92737], [-95.33851, 28.9279], [-95.34077, 28.92683]]], [[[-95.37905, 28.90374], [-95.37965, 28.90366], [-95.38053, 28.90447], [-95.38192, 28.90506], [-95.3829, 28.91228], [-95.3776, 28.91092], [-95.37678, 28.90913], [-95.37473, 28.9071], [-95.37122, 28.90691], [-95.36978, 28.90722], [-95.37319, 28.90522], [-95.37719, 28.90392], [-95.37905, 28.90374]]], [[[-95.49736, 29.04924], [-95.49617, 29.04748], [-95.49396, 29.04642], [-95.49203, 29.04624], [-95.48975, 29.04695], [-95.4915, 29.04527], [-95.49188, 29.04403], [-95.49065, 29.0417], [-95.48929, 29.04066], [-95.48811, 29.04049], [-95.48683, 29.0409], [-95.48507, 29.03999], [-95.48307, 29.04023], [-95.48101, 29.03907], [-95.47963, 29.03887], [-95.47707, 29.03957], [-95.47591, 29.04173], [-95.47554, 29.0417], [-95.47499, 29.0402], [-95.475, 29.03651], [-95.47644, 29.03497], [-95.47751, 29.03447], [-95.47891, 29.03475], [-95.48011, 29.03453], [-95.48681, 29.03086], [-95.48809, 29.03451], [-95.48946, 29.03633], [-95.49235, 29.03772], [-95.49569, 29.03765], [-95.49756, 29.03671], [-95.49905, 29.0353], [-95.49976, 29.03304], [-95.50002, 29.03032], [-95.50038, 29.03432], [-95.5017, 29.03762], [-95.50269, 29.03891], [-95.49742, 29.0495], [-95.49736, 29.04924]]], [[[-95.40808, 28.97597], [-95.40784, 28.97528], [-95.4089, 28.97558], [-95.40986, 28.97708], [-95.40825, 28.97722], [-95.40808, 28.97597]]], [[[-95.40605, 28.9685], [-95.40555, 28.96891], [-95.40514, 28.96758], [-95.40668, 28.96793], [-95.40605, 28.9685]]], [[[-95.42399, 28.98125], [-95.42154, 28.97912], [-95.42146, 28.97858], [-95.42274, 28.97839], [-95.42337, 28.97894], [-95.42417, 28.98148], [-95.42399, 28.98125]]], [[[-95.43392, 28.99041], [-95.42921, 28.98701], [-95.4247, 28.98212], [-95.42582, 28.98291], [-95.42822, 28.98343], [-95.43102, 28.98276], [-95.43295, 28.983], [-95.43438, 28.98871], [-95.43451, 28.99091], [-95.43392, 28.99041]]], [[[-95.43676, 28.99363], [-95.43759, 28.99394], [-95.43664, 28.99547], [-95.4361, 28.99326], [-95.43676, 28.99363]]], [[[-95.41129, 28.96909], [-95.411, 28.96892], [-95.41165, 28.96908], [-95.4115, 28.96908], [-95.41129, 28.96909]]], [[[-95.44405, 29.01295], [-95.44364, 29.01327], [-95.44325, 29.0128], [-95.44443, 29.01274], [-95.44405, 29.01295]]], [[[-95.46722, 29.03511], [-95.46797, 29.03663], [-95.46586, 29.03514], [-95.46541, 29.03356], [-95.46572, 29.03219], [-95.46722, 29.03511]]], [[[-95.4228, 28.9728], [-95.42306, 28.97264], [-95.4241, 28.97431], [-95.42152, 28.97428], [-95.42132, 28.97337], [-95.4228, 28.9728]]], [[[-95.36689, 29.03953], [-95.36697, 29.03986], [-95.36127, 29.04237], [-95.35962, 29.04112], [-95.35702, 29.04082], [-95.35482, 29.03981], [-95.35019, 29.04045], [-95.34872, 29.04139], [-95.34785, 29.04279], [-95.3479, 29.04489], [-95.34888, 29.0464], [-95.34801, 29.04743], [-95.34455, 29.04416], [-95.34296, 29.04408], [-95.34154, 29.04486], [-95.33807, 29.04102], [-95.3333, 29.03359], [-95.33463, 29.03345], [-95.33763, 29.03213], [-95.33885, 29.03094], [-95.33945, 29.02843], [-95.33844, 29.02537], [-95.33772, 29.02435], [-95.33677, 29.02376], [-95.33431, 29.02394], [-95.33272, 29.02547], [-95.33305, 29.02792], [-95.33172, 29.02777], [-95.33146, 29.02629], [-95.33049, 29.02541], [-95.3309, 29.02314], [-95.33067, 29.01567], [-95.33412, 29.01641], [-95.34007, 29.01932], [-95.34037, 29.02189], [-95.33967, 29.0237], [-95.33975, 29.02505], [-95.34088, 29.02698], [-95.3409, 29.02768], [-95.34159, 29.02792], [-95.3416, 29.02762], [-95.34374, 29.02908], [-95.3421, 29.02948], [-95.34172, 29.03007], [-95.34207, 29.03027], [-95.34369, 29.02976], [-95.34384, 29.03035], [-95.34473, 29.03101], [-95.34481, 29.03213], [-95.34378, 29.03208], [-95.34383, 29.03109], [-95.34319, 29.03052], [-95.34218, 29.03058], [-95.34091, 29.03187], [-95.34114, 29.03215], [-95.35557, 29.0329], [-95.35609, 29.03243], [-95.35473, 29.03083], [-95.35428, 29.03131], [-95.35352, 29.03047], [-95.35399, 29.02999], [-95.3556, 29.03102], [-95.3577, 29.03084], [-95.35888, 29.03207], [-95.37401, 29.01953], [-95.37469, 29.01976], [-95.37515, 29.0204], [-95.37483, 29.0214], [-95.36621, 29.02828], [-95.36848, 29.03034], [-95.36728, 29.03256], [-95.36668, 29.03497], [-95.36689, 29.03953]], [[-95.33807, 29.03307], [-95.33802, 29.03279], [-95.33886, 29.03275], [-95.33883, 29.03208], [-95.33655, 29.03272], [-95.33652, 29.03377], [-95.33708, 29.03377], [-95.33711, 29.03343], [-95.33807, 29.03307]]], [[[-95.3478, 29.05017], [-95.34828, 29.05101], [-95.34927, 29.05189], [-95.34831, 29.05225], [-95.34695, 29.05079], [-95.3478, 29.05017]]], [[[-95.32561, 29.02483], [-95.32606, 29.0249], [-95.32532, 29.02764], [-95.32586, 29.0303], [-95.33502, 29.04389], [-95.33395, 29.04469], [-95.33355, 29.04559], [-95.33358, 29.04374], [-95.33292, 29.04252], [-95.32535, 29.03801], [-95.32464, 29.03549], [-95.32108, 29.0298], [-95.3197, 29.02903], [-95.31764, 29.02883], [-95.31658, 29.02813], [-95.31481, 29.02783], [-95.31468, 29.0264], [-95.31567, 29.02414], [-95.31526, 29.02073], [-95.31411, 29.01899], [-95.31325, 29.01823], [-95.31191, 29.0178], [-95.30831, 29.01809], [-95.31074, 29.01637], [-95.31266, 29.01636], [-95.31517, 29.01502], [-95.31641, 29.01513], [-95.32378, 29.0218], [-95.32389, 29.02356], [-95.32561, 29.02483]]], [[[-95.36526, 29.05488], [-95.36413, 29.05828], [-95.35622, 29.06041], [-95.35437, 29.05862], [-95.35536, 29.05775], [-95.35607, 29.05631], [-95.35609, 29.05494], [-95.35567, 29.05389], [-95.35678, 29.05194], [-95.3584, 29.05127], [-95.35952, 29.05032], [-95.36028, 29.04882], [-95.36028, 29.04736], [-95.36921, 29.0432], [-95.36526, 29.05488]]], [[[-95.2952, 29.0254], [-95.29645, 29.02489], [-95.30037, 29.02667], [-95.29931, 29.02754], [-95.2979, 29.02742], [-95.29637, 29.02794], [-95.29384, 29.02986], [-95.29078, 29.03342], [-95.28991, 29.03528], [-95.28836, 29.03648], [-95.28803, 29.03818], [-95.28673, 29.03966], [-95.28572, 29.03968], [-95.28351, 29.03457], [-95.2816, 29.02837], [-95.28305, 29.02859], [-95.28857, 29.02749], [-95.29015, 29.02837], [-95.29217, 29.02838], [-95.29362, 29.0275], [-95.2946, 29.02548], [-95.2952, 29.0254]]], [[[-95.30438, 29.02445], [-95.30443, 29.02477], [-95.30394, 29.02487], [-95.30079, 29.02341], [-95.30616, 29.01961], [-95.30455, 29.0231], [-95.30438, 29.02445]]], [[[-95.28743, 29.02335], [-95.28336, 29.02424], [-95.28237, 29.02372], [-95.28241, 29.01987], [-95.28042, 29.01631], [-95.2787, 29.01533], [-95.27854, 29.0137], [-95.28236, 29.011], [-95.29198, 29.0216], [-95.29063, 29.02243], [-95.28995, 29.02345], [-95.28743, 29.02335]]], [[[-95.30786, 29.06729], [-95.31306, 29.0672], [-95.31378, 29.06719], [-95.30822, 29.07173], [-95.30394, 29.06738], [-95.30786, 29.06729]]], [[[-95.31446, 29.07261], [-95.31402, 29.07228], [-95.32146, 29.06619], [-95.3213, 29.06785], [-95.32238, 29.07042], [-95.32313, 29.07121], [-95.32463, 29.07162], [-95.32989, 29.07152], [-95.33128, 29.07033], [-95.33142, 29.06791], [-95.33256, 29.06693], [-95.33305, 29.06592], [-95.33489, 29.06727], [-95.33677, 29.06755], [-95.33541, 29.06979], [-95.33558, 29.07648], [-95.3361, 29.07751], [-95.33698, 29.07804], [-95.33804, 29.07816], [-95.33904, 29.07782], [-95.33974, 29.0771], [-95.33981, 29.07068], [-95.34112, 29.06885], [-95.34289, 29.07196], [-95.34577, 29.07399], [-95.34487, 29.07459], [-95.34436, 29.07555], [-95.34434, 29.07775], [-95.34501, 29.07886], [-95.341, 29.07963], [-95.34019, 29.07886], [-95.3388, 29.07848], [-95.33466, 29.07898], [-95.33313, 29.08001], [-95.33245, 29.08137], [-95.33266, 29.0829], [-95.33205, 29.08278], [-95.33076, 29.08217], [-95.32752, 29.07873], [-95.32819, 29.07699], [-95.32709, 29.07543], [-95.32503, 29.07499], [-95.32143, 29.07502], [-95.3191, 29.07604], [-95.31813, 29.07501], [-95.31671, 29.07465], [-95.31596, 29.07337], [-95.31446, 29.07261]]], [[[-95.31782, 29.06237], [-95.31784, 29.0632], [-95.3175, 29.06323], [-95.30061, 29.0636], [-95.2976, 29.05988], [-95.30032, 29.05904], [-95.30182, 29.06047], [-95.30329, 29.06095], [-95.30508, 29.06103], [-95.30928, 29.05936], [-95.31279, 29.05945], [-95.31525, 29.0591], [-95.31707, 29.0574], [-95.31771, 29.05585], [-95.31701, 29.05185], [-95.31793, 29.0526], [-95.32027, 29.05362], [-95.32313, 29.05447], [-95.32525, 29.05459], [-95.31945, 29.0592], [-95.3183, 29.06079], [-95.31782, 29.06237]]], [[[-95.293, 29.0534], [-95.293, 29.05343], [-95.29299, 29.05341], [-95.293, 29.0534]]], [[[-95.34696, 29.01548], [-95.34499, 29.01685], [-95.34447, 29.01627], [-95.34615, 29.01337], [-95.34771, 29.01526], [-95.34696, 29.01548]]], [[[-95.37182, 29.03506], [-95.37209, 29.03429], [-95.37236, 29.03622], [-95.37178, 29.03697], [-95.37182, 29.03506]]], [[[-95.36879, 28.90784], [-95.36932, 28.90748], [-95.36947, 28.9074], [-95.36892, 28.90791], [-95.36862, 28.90794], [-95.36879, 28.90784]]], [[[-95.3616, 28.90517], [-95.35155, 28.91163], [-95.34641, 28.91548], [-95.3434, 28.91738], [-95.34151, 28.91814], [-95.34067, 28.91677], [-95.35035, 28.91168], [-95.35124, 28.91061], [-95.35124, 28.90945], [-95.35823, 28.90586], [-95.36186, 28.90499], [-95.3616, 28.90517]]], [[[-95.32572, 28.96447], [-95.32271, 28.96455], [-95.32334, 28.96267], [-95.32267, 28.9606], [-95.32302, 28.9603], [-95.3262, 28.96028], [-95.32629, 28.96375], [-95.32572, 28.96447]]], [[[-95.38348, 29.07235], [-95.38012, 29.07377], [-95.37922, 29.07456], [-95.37924, 29.07286], [-95.3785, 29.07182], [-95.38073, 29.07071], [-95.38317, 29.06839], [-95.3853, 29.06571], [-95.38584, 29.06362], [-95.38721, 29.0642], [-95.38926, 29.06414], [-95.39041, 29.06346], [-95.39232, 29.0614], [-95.39523, 29.06275], [-95.39712, 29.06311], [-95.40022, 29.06266], [-95.40202, 29.06172], [-95.40076, 29.06389], [-95.39924, 29.06517], [-95.39752, 29.06508], [-95.39615, 29.06561], [-95.3952, 29.06632], [-95.39432, 29.06765], [-95.39289, 29.06866], [-95.3915, 29.06897], [-95.39024, 29.068], [-95.38856, 29.0681], [-95.38645, 29.0692], [-95.3858, 29.07023], [-95.38422, 29.07083], [-95.38348, 29.07235]]], [[[-95.36544, 29.07236], [-95.36709, 29.07485], [-95.36489, 29.07595], [-95.36247, 29.07232], [-95.36237, 29.07065], [-95.36345, 29.07188], [-95.36544, 29.07236]]], [[[-95.37185, 29.07047], [-95.37185, 29.07062], [-95.37151, 29.07062], [-95.37171, 29.07054], [-95.37185, 29.07047]]], [[[-95.36098, 29.0787], [-95.36128, 29.0782], [-95.36217, 29.07954], [-95.36139, 29.08077], [-95.36105, 29.08445], [-95.36046, 29.08458], [-95.35948, 29.08129], [-95.35865, 29.08047], [-95.3567, 29.07942], [-95.35643, 29.07915], [-95.35754, 29.07962], [-95.35931, 29.07959], [-95.36098, 29.0787]]], [[[-95.35622, 29.07473], [-95.35591, 29.07509], [-95.35564, 29.07378], [-95.35641, 29.07366], [-95.35622, 29.07473]]], [[[-95.35176, 29.07678], [-95.35169, 29.07672], [-95.35175, 29.07668], [-95.35176, 29.07678]]], [[[-95.33903, 29.05398], [-95.33867, 29.0542], [-95.33847, 29.0539], [-95.33895, 29.0533], [-95.33903, 29.05398]]], [[[-95.33644, 29.04984], [-95.33674, 29.04976], [-95.33687, 29.04971], [-95.33657, 29.05], [-95.33644, 29.04984]]], [[[-95.3313, 29.05177], [-95.33195, 29.05228], [-95.33078, 29.05325], [-95.3296, 29.05102], [-95.32807, 29.04995], [-95.32681, 29.04965], [-95.32451, 29.04987], [-95.3222, 29.04922], [-95.31559, 29.04496], [-95.3143, 29.04447], [-95.31198, 29.04443], [-95.30966, 29.04538], [-95.30888, 29.04631], [-95.30856, 29.04763], [-95.30953, 29.05061], [-95.31149, 29.05241], [-95.31206, 29.05453], [-95.30804, 29.05465], [-95.30538, 29.05572], [-95.30485, 29.05367], [-95.30399, 29.05267], [-95.30295, 29.05211], [-95.30044, 29.05208], [-95.29851, 29.05333], [-95.29873, 29.05096], [-95.29999, 29.04758], [-95.29994, 29.04626], [-95.29897, 29.04446], [-95.29709, 29.04356], [-95.29377, 29.04337], [-95.29134, 29.04284], [-95.29147, 29.04247], [-95.29351, 29.04136], [-95.29454, 29.03987], [-95.29475, 29.03869], [-95.29656, 29.03789], [-95.2979, 29.03954], [-95.29953, 29.03991], [-95.30082, 29.03944], [-95.30187, 29.03834], [-95.30521, 29.03716], [-95.30755, 29.03775], [-95.30805, 29.03956], [-95.30997, 29.04047], [-95.31189, 29.03989], [-95.31587, 29.04009], [-95.32002, 29.03885], [-95.32145, 29.04121], [-95.32842, 29.04522], [-95.32908, 29.05001], [-95.32986, 29.05105], [-95.3313, 29.05177]]], [[[-95.32794, 29.06165], [-95.3273, 29.0614], [-95.33368, 29.05617], [-95.33344, 29.05789], [-95.33388, 29.0591], [-95.33547, 29.06047], [-95.33739, 29.06081], [-95.33679, 29.06267], [-95.33444, 29.06061], [-95.33196, 29.05958], [-95.32973, 29.06003], [-95.32794, 29.06165]]], [[[-95.34684, 29.06875], [-95.34675, 29.06865], [-95.34655, 29.06831], [-95.34694, 29.06829], [-95.34684, 29.06875]]], [[[-95.29218, 29.048], [-95.29203, 29.04782], [-95.29421, 29.0481], [-95.29365, 29.04927], [-95.29218, 29.048]]], [[[-95.3084, 28.98968], [-95.31038, 28.98837], [-95.31146, 28.98835], [-95.31148, 28.98874], [-95.31206, 28.98874], [-95.31201, 28.98963], [-95.31118, 28.99022], [-95.31068, 28.99117], [-95.30856, 28.9906], [-95.3084, 28.98968]]], [[[-95.30164, 28.98549], [-95.30171, 28.9846], [-95.30194, 28.98395], [-95.30202, 28.98633], [-95.30155, 28.98599], [-95.30164, 28.98549]]], [[[-95.32995, 28.9832], [-95.3303, 28.98344], [-95.33, 28.98411], [-95.32899, 28.98295], [-95.32995, 28.9832]]], [[[-95.32271, 29.0105], [-95.32191, 29.01066], [-95.32183, 29.00932], [-95.32315, 29.00932], [-95.32271, 29.0105]]], [[[-95.30915, 29.01224], [-95.30851, 29.01224], [-95.30786, 29.01152], [-95.31016, 29.0099], [-95.31169, 29.01116], [-95.31047, 29.01204], [-95.30915, 29.01224]]], [[[-95.30267, 28.99609], [-95.302, 28.99449], [-95.30176, 28.99406], [-95.30222, 28.99408], [-95.30254, 28.99547], [-95.30381, 28.99678], [-95.30281, 28.99664], [-95.30267, 28.99609]]], [[[-95.31762, 28.98832], [-95.31749, 28.98988], [-95.31712, 28.98984], [-95.31716, 28.98937], [-95.31762, 28.98832]]], [[[-95.50479, 29.00249], [-95.50467, 29.00087], [-95.50698, 29.00083], [-95.50706, 29.00241], [-95.50479, 29.00249]]], [[[-95.50069, 28.99613], [-95.50324, 28.9951], [-95.50356, 28.99623], [-95.50461, 28.99701], [-95.49983, 28.99716], [-95.49981, 28.99648], [-95.50069, 28.99613]]], [[[-95.48283, 28.97573], [-95.48304, 28.97635], [-95.48384, 28.97749], [-95.48289, 28.97767], [-95.48283, 28.97573]]], [[[-95.45199, 28.97399], [-95.45257, 28.97317], [-95.45442, 28.97385], [-95.4542, 28.97423], [-95.45141, 28.97471], [-95.45133, 28.97436], [-95.45199, 28.97399]]], [[[-95.45354, 28.96628], [-95.45384, 28.96568], [-95.45437, 28.96658], [-95.45366, 28.96662], [-95.45354, 28.96628]]], [[[-95.4053, 29.08767], [-95.40569, 29.08674], [-95.40439, 29.08973], [-95.40482, 29.08897], [-95.4053, 29.08767]]], [[[-95.41873, 28.98529], [-95.41722, 28.986], [-95.4167, 28.98557], [-95.41676, 28.98462], [-95.41615, 28.98347], [-95.41757, 28.98391], [-95.41873, 28.98529]]], [[[-95.40121, 28.96666], [-95.40122, 28.96666], [-95.40245, 28.96694], [-95.40097, 28.96737], [-95.40095, 28.9666], [-95.40121, 28.96666]]], [[[-95.3869, 29.01527], [-95.38694, 29.01526], [-95.3869, 29.01532], [-95.3869, 29.01527]]], [[[-95.39428, 29.07542], [-95.3942, 29.07391], [-95.39427, 29.07388], [-95.39428, 29.07542]]], [[[-95.40074, 29.1046], [-95.40061, 29.10483], [-95.40052, 29.10484], [-95.40067, 29.10459], [-95.40074, 29.1046]]]]}, "properties": {"kind": "windland", "area_km2": 56.57}}, {"type": "Feature", "geometry": {"type": "MultiPolygon", "coordinates": [[[[-95.41315, 28.98392], [-95.412, 28.98629], [-95.41183, 28.98623], [-95.41386, 28.98254], [-95.41383, 28.98226], [-95.41348, 28.98207], [-95.40874, 28.98265], [-95.40877, 28.98228], [-95.41003, 28.98214], [-95.41079, 28.98176], [-95.41215, 28.98152], [-95.41419, 28.98177], [-95.41426, 28.9818], [-95.41315, 28.98392]]], [[[-95.42044, 28.9807], [-95.41924, 28.97992], [-95.4181, 28.97942], [-95.42172, 28.97924], [-95.42313, 28.98035], [-95.42417, 28.98148], [-95.42361, 28.9805], [-95.42337, 28.97921], [-95.42423, 28.97919], [-95.42436, 28.98486], [-95.42171, 28.98171], [-95.42044, 28.9807]]], [[[-95.41504, 28.98172], [-95.41618, 28.98163], [-95.41838, 28.98233], [-95.41895, 28.98277], [-95.42001, 28.98393], [-95.42066, 28.985], [-95.42081, 28.98556], [-95.42061, 28.98727], [-95.41864, 28.98717], [-95.41835, 28.98736], [-95.41822, 28.98782], [-95.41244, 28.98725], [-95.41275, 28.98592], [-95.41383, 28.98628], [-95.41449, 28.98601], [-95.41489, 28.9849], [-95.4137, 28.98416], [-95.41504, 28.98172]], [[-95.41609, 28.98358], [-95.41671, 28.98444], [-95.4167, 28.98557], [-95.41722, 28.986], [-95.41799, 28.98561], [-95.41883, 28.98547], [-95.41757, 28.98391], [-95.41615, 28.98347], [-95.41609, 28.98358]]], [[[-95.41871, 28.98146], [-95.41983, 28.9823], [-95.42135, 28.98384], [-95.42443, 28.98749], [-95.42448, 28.98976], [-95.42287, 28.98842], [-95.41881, 28.98813], [-95.41888, 28.98768], [-95.42056, 28.98781], [-95.42107, 28.98765], [-95.42141, 28.98527], [-95.42052, 28.98363], [-95.41897, 28.98201], [-95.41635, 28.9811], [-95.41541, 28.98106], [-95.4146, 28.98134], [-95.41212, 28.98098], [-95.41058, 28.98125], [-95.40946, 28.9817], [-95.40851, 28.98175], [-95.40608, 28.98128], [-95.40587, 28.98144], [-95.40515, 28.98354], [-95.40465, 28.98328], [-95.40185, 28.98367], [-95.39581, 28.98284], [-95.39609, 28.98216], [-95.39676, 28.98137], [-95.397, 28.98067], [-95.39725, 28.97892], [-95.39693, 28.97866], [-95.39665, 28.97886], [-95.39627, 28.98101], [-95.39554, 28.9819], [-95.39521, 28.98273], [-95.39452, 28.98277], [-95.39445, 28.98328], [-95.39231, 28.98288], [-95.39159, 28.98244], [-95.39318, 28.98265], [-95.39407, 28.98241], [-95.39416, 28.9821], [-95.3948, 28.98169], [-95.39577, 28.98052], [-95.39659, 28.97827], [-95.39741, 28.97737], [-95.39894, 28.97642], [-95.40005, 28.97599], [-95.40161, 28.97569], [-95.40308, 28.97579], [-95.40395, 28.97636], [-95.40434, 28.97705], [-95.40421, 28.97864], [-95.40437, 28.97935], [-95.40502, 28.98015], [-95.40609, 28.98084], [-95.40714, 28.98111], [-95.40829, 28.98113], [-95.41431, 28.98012], [-95.41657, 28.98048], [-95.41871, 28.98146]], [[-95.40215, 28.97819], [-95.40223, 28.97753], [-95.40186, 28.97752], [-95.4004, 28.97785], [-95.3991, 28.97852], [-95.39876, 28.98137], [-95.40187, 28.9818], [-95.40365, 28.98153], [-95.40247, 28.98011], [-95.40214, 28.9791], [-95.40215, 28.97819]]], [[[-95.41387, 28.98486], [-95.41369, 28.98566], [-95.413, 28.98542], [-95.41343, 28.98465], [-95.41387, 28.98486]]], [[[-95.41182, 28.9872], [-95.41176, 28.98719], [-95.41185, 28.98708], [-95.41182, 28.9872]]], [[[-95.4221, 29.00222], [-95.42239, 29.00171], [-95.42478, 29.00277], [-95.42482, 29.00457], [-95.42444, 29.0044], [-95.4234, 29.00509], [-95.42346, 29.00808], [-95.42492, 29.0087], [-95.42497, 29.01071], [-95.4216, 29.00939], [-95.42148, 29.00392], [-95.42189, 29.00243], [-95.4221, 29.00222]]], [[[-95.41353, 29.00624], [-95.41395, 29.00594], [-95.41399, 29.00538], [-95.41366, 29.00501], [-95.41315, 29.00497], [-95.41313, 29.00444], [-95.41373, 29.0045], [-95.41414, 29.00413], [-95.41543, 29.00425], [-95.41607, 29.00411], [-95.42087, 29.00404], [-95.42096, 29.00849], [-95.42069, 29.0091], [-95.41948, 29.00879], [-95.41756, 29.00858], [-95.41325, 29.00866], [-95.41318, 29.00625], [-95.41353, 29.00624]], [[-95.41838, 29.00524], [-95.41739, 29.00569], [-95.41721, 29.00675], [-95.41903, 29.00685], [-95.41899, 29.00474], [-95.41838, 29.00524]]], [[[-95.41509, 29.0114], [-95.41535, 29.01039], [-95.4168, 29.01036], [-95.41686, 29.01179], [-95.41325, 29.01185], [-95.41324, 29.01149], [-95.41509, 29.0114]]], [[[-95.41698, 29.0125], [-95.41738, 29.01281], [-95.41822, 29.0128], [-95.41859, 29.01252], [-95.41865, 29.01208], [-95.41875, 29.01295], [-95.41689, 29.013], [-95.4161, 29.0128], [-95.41528, 29.01312], [-95.41505, 29.01274], [-95.41326, 29.01275], [-95.41326, 29.01239], [-95.41693, 29.01233], [-95.41698, 29.0125]]], [[[-95.41476, 29.01328], [-95.41522, 29.01319], [-95.41523, 29.01344], [-95.41549, 29.01357], [-95.4155, 29.01429], [-95.41332, 29.01422], [-95.41327, 29.01329], [-95.41476, 29.01328]]], [[[-95.41546, 29.01467], [-95.41555, 29.01456], [-95.41601, 29.01488], [-95.41672, 29.01482], [-95.41703, 29.01444], [-95.41703, 29.01353], [-95.41758, 29.01352], [-95.41778, 29.01431], [-95.41885, 29.01465], [-95.41881, 29.01534], [-95.41805, 29.01549], [-95.41669, 29.01542], [-95.41623, 29.0159], [-95.41419, 29.01594], [-95.41385, 29.01612], [-95.41334, 29.01589], [-95.41334, 29.01563], [-95.41503, 29.0156], [-95.41528, 29.01534], [-95.41503, 29.01507], [-95.41332, 29.01509], [-95.41333, 29.01476], [-95.41546, 29.01467]]], [[[-95.41163, 29.01515], [-95.40877, 29.014], [-95.40752, 29.01395], [-95.40576, 29.01444], [-95.40561, 29.01389], [-95.40486, 29.01361], [-95.40483, 29.01142], [-95.40722, 29.01124], [-95.40834, 29.01136], [-95.40887, 29.01193], [-95.40995, 29.01224], [-95.41047, 29.01217], [-95.41078, 29.01179], [-95.41263, 29.01168], [-95.41272, 29.01562], [-95.41163, 29.01515]]], [[[-95.41611, 29.01675], [-95.41607, 29.01714], [-95.41462, 29.01647], [-95.41623, 29.01644], [-95.41611, 29.01675]]], [[[-95.4249, 29.01655], [-95.4251, 29.01651], [-95.42512, 29.01711], [-95.42389, 29.01713], [-95.4239, 29.01694], [-95.42491, 29.01693], [-95.4249, 29.01655]]], [[[-95.41273, 29.01659], [-95.41276, 29.01825], [-95.41246, 29.01825], [-95.41242, 29.01656], [-95.41272, 29.01632], [-95.41273, 29.01659]]], [[[-95.41449, 29.01805], [-95.41417, 29.01842], [-95.41338, 29.01845], [-95.41337, 29.01811], [-95.41402, 29.01809], [-95.4142, 29.01783], [-95.41401, 29.01759], [-95.41336, 29.01757], [-95.41335, 29.0165], [-95.41579, 29.01762], [-95.41566, 29.01787], [-95.41449, 29.01805]]], [[[-95.41884, 29.01813], [-95.41882, 29.01839], [-95.41863, 29.01822], [-95.41866, 29.01775], [-95.41933, 29.01769], [-95.41965, 29.01716], [-95.41989, 29.01716], [-95.4199, 29.01773], [-95.4192, 29.01777], [-95.41884, 29.01813]]], [[[-95.42514, 29.01801], [-95.42395, 29.01804], [-95.42396, 29.01767], [-95.42513, 29.01765], [-95.42514, 29.01801]]], [[[-95.41449, 29.01903], [-95.41442, 29.01892], [-95.41502, 29.01844], [-95.41535, 29.01864], [-95.41594, 29.01864], [-95.41647, 29.01909], [-95.41539, 29.01918], [-95.41449, 29.01903]]], [[[-95.41277, 29.01892], [-95.41262, 29.01883], [-95.41254, 29.01879], [-95.41277, 29.01879], [-95.41277, 29.01892]]], [[[-95.41766, 29.01983], [-95.41714, 29.02041], [-95.41707, 29.01943], [-95.41658, 29.01909], [-95.41705, 29.01896], [-95.4182, 29.01924], [-95.41766, 29.01983]]], [[[-95.4231, 29.02054], [-95.42311, 29.02053], [-95.42312, 29.02091], [-95.42307, 29.02081], [-95.4231, 29.02054]]], [[[-95.42442, 29.02142], [-95.42441, 29.02071], [-95.4252, 29.0208], [-95.42521, 29.02127], [-95.42442, 29.02142]]], [[[-95.4214, 29.02118], [-95.42144, 29.02117], [-95.42147, 29.02115], [-95.42147, 29.02117], [-95.4214, 29.02118]]], [[[-95.42484, 29.02233], [-95.42382, 29.0219], [-95.42373, 29.02059], [-95.42394, 29.02181], [-95.4247, 29.02201], [-95.42523, 29.02187], [-95.42524, 29.02235], [-95.42484, 29.02233]]], [[[-95.41246, 29.02311], [-95.41273, 29.02346], [-95.41199, 29.02349], [-95.41272, 29.02163], [-95.4128, 29.02186], [-95.4124, 29.02258], [-95.41246, 29.02311]]], [[[-95.42302, 29.0221], [-95.42314, 29.02166], [-95.42351, 29.02242], [-95.42526, 29.02326], [-95.42528, 29.02395], [-95.42277, 29.02239], [-95.42302, 29.0221]]], [[[-95.41632, 29.02397], [-95.41589, 29.02376], [-95.41589, 29.02345], [-95.41636, 29.02336], [-95.4166, 29.02306], [-95.41645, 29.02196], [-95.41945, 29.02225], [-95.41994, 29.0226], [-95.42073, 29.02248], [-95.42106, 29.02436], [-95.41647, 29.02444], [-95.41632, 29.02397]]], [[[-95.41369, 29.02348], [-95.41353, 29.02326], [-95.41316, 29.02307], [-95.41424, 29.0231], [-95.41429, 29.02377], [-95.41361, 29.02379], [-95.41369, 29.02348]]], [[[-95.42182, 29.02354], [-95.42155, 29.02343], [-95.4214, 29.02268], [-95.42204, 29.02254], [-95.42476, 29.02429], [-95.42312, 29.02432], [-95.42182, 29.02354]]], [[[-95.41295, 29.02426], [-95.41298, 29.02476], [-95.41191, 29.02473], [-95.41188, 29.02403], [-95.4131, 29.02398], [-95.41295, 29.02426]]], [[[-95.42165, 29.02408], [-95.42179, 29.02416], [-95.42209, 29.02434], [-95.42168, 29.02435], [-95.42165, 29.02408]]], [[[-95.41463, 29.02538], [-95.41355, 29.0256], [-95.41337, 29.02593], [-95.41338, 29.02671], [-95.41293, 29.02679], [-95.41264, 29.02706], [-95.41251, 29.02662], [-95.41189, 29.02658], [-95.41255, 29.02609], [-95.41255, 29.02561], [-95.4123, 29.02528], [-95.41504, 29.0253], [-95.41505, 29.02551], [-95.41463, 29.02538]]], [[[-95.41389, 29.0286], [-95.4137, 29.02865], [-95.41428, 29.0284], [-95.41503, 29.02835], [-95.41389, 29.0286]]], [[[-95.41278, 29.02878], [-95.41245, 29.02927], [-95.41239, 29.02814], [-95.41258, 29.0285], [-95.41306, 29.0287], [-95.41278, 29.02878]]], [[[-95.41335, 29.03339], [-95.41323, 29.03279], [-95.41281, 29.03252], [-95.41326, 29.0327], [-95.4136, 29.03352], [-95.41332, 29.03352], [-95.41335, 29.03339]]], [[[-95.40262, 28.97173], [-95.4026, 28.97102], [-95.40298, 28.97093], [-95.40305, 28.97055], [-95.40775, 28.97047], [-95.40779, 28.97079], [-95.40809, 28.97095], [-95.40888, 28.9709], [-95.40912, 28.97044], [-95.4137, 28.97036], [-95.41381, 28.97354], [-95.41082, 28.97363], [-95.40918, 28.97339], [-95.40793, 28.97288], [-95.40605, 28.97291], [-95.40599, 28.9708], [-95.4057, 28.97057], [-95.40538, 28.97082], [-95.40543, 28.97292], [-95.40506, 28.97319], [-95.40534, 28.97346], [-95.40783, 28.97342], [-95.40902, 28.97391], [-95.41066, 28.97415], [-95.41079, 28.97553], [-95.41106, 28.97575], [-95.4114, 28.97551], [-95.41128, 28.97416], [-95.41145, 28.97487], [-95.41174, 28.97503], [-95.41203, 28.97483], [-95.41202, 28.97414], [-95.41383, 28.97408], [-95.41392, 28.97824], [-95.41031, 28.97892], [-95.40744, 28.97921], [-95.40633, 28.97895], [-95.40608, 28.97844], [-95.40614, 28.97684], [-95.40584, 28.97584], [-95.40538, 28.9751], [-95.40476, 28.97457], [-95.40398, 28.97419], [-95.40268, 28.97393], [-95.40262, 28.97173]], [[-95.41331, 28.97214], [-95.41348, 28.97137], [-95.41327, 28.97106], [-95.41153, 28.97092], [-95.4109, 28.97118], [-95.41092, 28.9721], [-95.41119, 28.9724], [-95.41237, 28.97241], [-95.41331, 28.97214]], [[-95.40967, 28.97695], [-95.40914, 28.97636], [-95.4089, 28.97558], [-95.40784, 28.97528], [-95.40825, 28.97722], [-95.40986, 28.97708], [-95.40967, 28.97695]]], [[[-95.40868, 28.98319], [-95.41041, 28.98305], [-95.41311, 28.98267], [-95.41124, 28.98606], [-95.40824, 28.98524], [-95.40579, 28.98332], [-95.40637, 28.98186], [-95.40815, 28.98223], [-95.40814, 28.98297], [-95.40868, 28.98319]]], [[[-95.40447, 28.98407], [-95.40476, 28.98426], [-95.4055, 28.98421], [-95.40613, 28.98475], [-95.40567, 28.98463], [-95.40539, 28.98486], [-95.40222, 28.98441], [-95.40447, 28.98407]]], [[[-95.41184, 29.00869], [-95.40648, 29.00873], [-95.4031, 29.00744], [-95.40342, 29.00685], [-95.40673, 29.00812], [-95.41262, 29.00806], [-95.41263, 29.00868], [-95.41184, 29.00869]]], [[[-95.40307, 29.00905], [-95.40338, 29.0091], [-95.40433, 29.00925], [-95.40427, 29.00939], [-95.40307, 29.00905]]], [[[-95.40513, 29.00919], [-95.40552, 29.00933], [-95.40571, 29.00939], [-95.40495, 29.00932], [-95.40513, 29.00919]]], [[[-95.40399, 29.01488], [-95.40404, 29.01476], [-95.40407, 29.01461], [-95.40422, 29.01484], [-95.40399, 29.01488]]], [[[-95.40906, 29.01462], [-95.41056, 29.01528], [-95.41057, 29.01607], [-95.40857, 29.01615], [-95.40855, 29.01452], [-95.40906, 29.01462]]], [[[-95.40581, 29.015], [-95.40701, 29.01469], [-95.40724, 29.01717], [-95.40868, 29.01715], [-95.40866, 29.01662], [-95.4093, 29.01663], [-95.40934, 29.01831], [-95.4049, 29.01841], [-95.40489, 29.01804], [-95.40879, 29.01796], [-95.40905, 29.01776], [-95.40881, 29.01742], [-95.40707, 29.01745], [-95.40706, 29.01599], [-95.40687, 29.0157], [-95.40483, 29.01566], [-95.40483, 29.01526], [-95.40581, 29.015]]], [[[-95.40765, 29.01592], [-95.40766, 29.01516], [-95.40793, 29.01513], [-95.40796, 29.01608], [-95.40765, 29.01592]]], [[[-95.41136, 29.01564], [-95.41216, 29.01598], [-95.41216, 29.01605], [-95.41118, 29.01606], [-95.41118, 29.01556], [-95.41136, 29.01564]]], [[[-95.40543, 29.01636], [-95.40527, 29.0162], [-95.40645, 29.01619], [-95.40645, 29.01655], [-95.4055, 29.01656], [-95.40543, 29.01636]]], [[[-95.40508, 29.01727], [-95.40536, 29.0171], [-95.40645, 29.01709], [-95.40645, 29.01746], [-95.40488, 29.0175], [-95.40487, 29.0173], [-95.40508, 29.01727]]], [[[-95.41059, 29.01675], [-95.41039, 29.01717], [-95.4106, 29.01717], [-95.41063, 29.01828], [-95.40995, 29.01829], [-95.40992, 29.01662], [-95.41058, 29.01661], [-95.41059, 29.01675]]], [[[-95.41124, 29.01801], [-95.4112, 29.0166], [-95.4118, 29.01659], [-95.41184, 29.01826], [-95.41125, 29.01827], [-95.41124, 29.01801]]], [[[-95.40382, 29.01854], [-95.40367, 29.01866], [-95.40322, 29.0185], [-95.40317, 29.01711], [-95.40339, 29.01711], [-95.40342, 29.01783], [-95.40368, 29.01802], [-95.40401, 29.01782], [-95.404, 29.0171], [-95.40425, 29.01717], [-95.40428, 29.01846], [-95.40382, 29.01854]]], [[[-95.40839, 29.02011], [-95.4081, 29.0199], [-95.40803, 29.01915], [-95.4074, 29.0189], [-95.41199, 29.0188], [-95.41129, 29.01908], [-95.41123, 29.01986], [-95.41166, 29.02021], [-95.41251, 29.02022], [-95.41245, 29.02058], [-95.40846, 29.02065], [-95.40839, 29.02011]]], [[[-95.40874, 29.02161], [-95.40838, 29.02164], [-95.40841, 29.0212], [-95.41226, 29.02112], [-95.41211, 29.02151], [-95.40874, 29.02161]]], [[[-95.4119, 29.02206], [-95.41171, 29.02253], [-95.40843, 29.02263], [-95.40837, 29.0224], [-95.40841, 29.02218], [-95.4119, 29.02206]]], [[[-95.40858, 29.02327], [-95.4085, 29.02317], [-95.41033, 29.02312], [-95.41023, 29.02336], [-95.40858, 29.02327]]], [[[-95.40387, 29.02343], [-95.4044, 29.02342], [-95.40452, 29.02369], [-95.40376, 29.02372], [-95.40372, 29.02346], [-95.40387, 29.02343]]], [[[-95.4114, 29.02334], [-95.41127, 29.02428], [-95.41119, 29.02427], [-95.4112, 29.0239], [-95.41065, 29.0238], [-95.41099, 29.0231], [-95.4115, 29.02308], [-95.4114, 29.02334]]], [[[-95.40271, 29.02436], [-95.40337, 29.02419], [-95.40367, 29.02458], [-95.40402, 29.02525], [-95.40377, 29.02561], [-95.40377, 29.02615], [-95.40485, 29.02767], [-95.40303, 29.02886], [-95.40275, 29.02852], [-95.40417, 29.02757], [-95.40424, 29.02726], [-95.40383, 29.02713], [-95.40239, 29.02808], [-95.40261, 29.02764], [-95.40363, 29.02694], [-95.40369, 29.02667], [-95.40329, 29.02651], [-95.40236, 29.02713], [-95.40138, 29.02574], [-95.40154, 29.02524], [-95.4014, 29.0245], [-95.40166, 29.02478], [-95.40207, 29.02487], [-95.40249, 29.02471], [-95.40271, 29.02436]]], [[[-95.40423, 29.02435], [-95.40416, 29.02425], [-95.40466, 29.02423], [-95.40494, 29.02494], [-95.40617, 29.02642], [-95.40598, 29.02662], [-95.40468, 29.02515], [-95.40423, 29.02435]]], [[[-95.40541, 29.02428], [-95.40563, 29.02454], [-95.40651, 29.02453], [-95.4056, 29.02458], [-95.40701, 29.02624], [-95.40757, 29.02663], [-95.40817, 29.02517], [-95.40974, 29.02581], [-95.40852, 29.02909], [-95.40791, 29.02857], [-95.40732, 29.02895], [-95.40776, 29.02973], [-95.40823, 29.02985], [-95.40755, 29.03167], [-95.4062, 29.03258], [-95.40592, 29.03225], [-95.40727, 29.03132], [-95.40728, 29.03098], [-95.4069, 29.0309], [-95.40555, 29.03182], [-95.40527, 29.03149], [-95.40713, 29.03025], [-95.40717, 29.02989], [-95.40676, 29.02982], [-95.4049, 29.03106], [-95.40463, 29.03074], [-95.406, 29.02985], [-95.40603, 29.02951], [-95.40566, 29.02941], [-95.40482, 29.02994], [-95.40462, 29.02961], [-95.40514, 29.02913], [-95.40486, 29.02886], [-95.40356, 29.02948], [-95.4034, 29.02929], [-95.40522, 29.0281], [-95.40591, 29.02871], [-95.40655, 29.02898], [-95.40727, 29.02879], [-95.40757, 29.02841], [-95.40723, 29.02763], [-95.40761, 29.02766], [-95.40772, 29.02733], [-95.40546, 29.02466], [-95.40527, 29.02422], [-95.40541, 29.02428]]], [[[-95.41141, 29.02526], [-95.41115, 29.02553], [-95.41111, 29.02598], [-95.41032, 29.02599], [-95.41066, 29.0254], [-95.41141, 29.02526]]], [[[-95.40455, 29.02589], [-95.40574, 29.02714], [-95.40549, 29.02753], [-95.40441, 29.02612], [-95.4044, 29.02571], [-95.40455, 29.02589]]], [[[-95.40683, 29.02721], [-95.40645, 29.02721], [-95.40619, 29.02756], [-95.40653, 29.02687], [-95.40683, 29.02721]]], [[[-95.40613, 29.02767], [-95.40616, 29.02761], [-95.40601, 29.02804], [-95.40587, 29.02797], [-95.40613, 29.02767]]], [[[-95.40849, 29.03317], [-95.40838, 29.03299], [-95.40868, 29.03268], [-95.40867, 29.03245], [-95.409, 29.03148], [-95.40878, 29.03114], [-95.40839, 29.03117], [-95.40883, 29.02999], [-95.4106, 29.02937], [-95.41088, 29.02967], [-95.41171, 29.02995], [-95.41215, 29.02986], [-95.41239, 29.02945], [-95.41249, 29.02992], [-95.41284, 29.03026], [-95.41441, 29.03063], [-95.41518, 29.0312], [-95.41521, 29.03228], [-95.41416, 29.03106], [-95.41363, 29.0308], [-95.41273, 29.03084], [-95.412, 29.03113], [-95.41286, 29.03052], [-95.4105, 29.02963], [-95.40882, 29.03026], [-95.40855, 29.03097], [-95.40888, 29.03114], [-95.40905, 29.03152], [-95.40881, 29.03211], [-95.41048, 29.03284], [-95.4101, 29.03358], [-95.41015, 29.03304], [-95.40994, 29.03283], [-95.40959, 29.03293], [-95.40933, 29.03359], [-95.40843, 29.03361], [-95.40849, 29.03317]]], [[[-95.4106, 29.03267], [-95.4108, 29.03234], [-95.41109, 29.032], [-95.41087, 29.03228], [-95.4106, 29.03267]]], [[[-95.40787, 29.03223], [-95.40793, 29.03274], [-95.40762, 29.03296], [-95.40736, 29.03363], [-95.4071, 29.03363], [-95.40657, 29.03301], [-95.40787, 29.03223]]], [[[-95.40496, 29.03319], [-95.40502, 29.03367], [-95.40427, 29.03368], [-95.40371, 29.03283], [-95.40331, 29.03256], [-95.40178, 29.03258], [-95.4001, 29.0306], [-95.40056, 29.02983], [-95.40096, 29.02956], [-95.4031, 29.0321], [-95.40343, 29.03217], [-95.40359, 29.03178], [-95.40171, 29.02956], [-95.40242, 29.02937], [-95.4042, 29.03146], [-95.40423, 29.03185], [-95.40513, 29.03291], [-95.40496, 29.03319]]], [[[-95.41241, 29.03297], [-95.41269, 29.03309], [-95.41273, 29.03336], [-95.41247, 29.0333], [-95.41222, 29.03354], [-95.41188, 29.03355], [-95.41227, 29.03284], [-95.41241, 29.03297]]], [[[-95.40049, 28.97202], [-95.40109, 28.97196], [-95.40117, 28.97159], [-95.39917, 28.97151], [-95.39916, 28.97113], [-95.40091, 28.97109], [-95.40115, 28.97087], [-95.401, 28.97059], [-95.40197, 28.97057], [-95.40203, 28.97299], [-95.39919, 28.97303], [-95.39917, 28.97205], [-95.40049, 28.97202]]], [[[-95.40188, 28.97391], [-95.4, 28.97399], [-95.39922, 28.97421], [-95.39921, 28.97357], [-95.40205, 28.97353], [-95.40207, 28.97393], [-95.40188, 28.97391]]], [[[-95.39353, 28.97497], [-95.3939, 28.97488], [-95.39404, 28.97462], [-95.39365, 28.97403], [-95.39367, 28.97208], [-95.39406, 28.97188], [-95.39462, 28.97074], [-95.39853, 28.97063], [-95.39861, 28.97434], [-95.3969, 28.975], [-95.39549, 28.97622], [-95.39391, 28.97979], [-95.39342, 28.98036], [-95.39283, 28.98056], [-95.39207, 28.98038], [-95.39119, 28.97991], [-95.38771, 28.97712], [-95.38308, 28.97439], [-95.38303, 28.97224], [-95.38874, 28.9755], [-95.39226, 28.97829], [-95.39285, 28.97689], [-95.39178, 28.97649], [-95.39094, 28.97556], [-95.39059, 28.97225], [-95.39024, 28.97086], [-95.39235, 28.97074], [-95.39253, 28.97157], [-95.39278, 28.97184], [-95.39269, 28.97223], [-95.39286, 28.97255], [-95.39265, 28.97288], [-95.39298, 28.97439], [-95.39286, 28.97481], [-95.39311, 28.97504], [-95.39353, 28.97497]], [[-95.3976, 28.97381], [-95.39765, 28.97312], [-95.39727, 28.97225], [-95.39692, 28.97211], [-95.39663, 28.97239], [-95.39676, 28.97297], [-95.39526, 28.97368], [-95.39488, 28.97346], [-95.39452, 28.97349], [-95.39422, 28.97426], [-95.3947, 28.9749], [-95.39527, 28.97482], [-95.39586, 28.97502], [-95.39654, 28.97469], [-95.39645, 28.97397], [-95.39671, 28.97377], [-95.39714, 28.974], [-95.3976, 28.97381]]], [[[-95.39557, 29.00516], [-95.39726, 29.00583], [-95.40374, 29.0086], [-95.40091, 29.00794], [-95.39714, 29.00632], [-95.39468, 29.00484], [-95.39557, 29.00516]]], [[[-95.39813, 29.00873], [-95.39852, 29.00859], [-95.39874, 29.00826], [-95.39967, 29.00865], [-95.39968, 29.00962], [-95.39854, 29.00958], [-95.39699, 29.00875], [-95.39653, 29.00885], [-95.39618, 29.00925], [-95.39581, 29.00897], [-95.39603, 29.00842], [-95.39591, 29.0079], [-95.39632, 29.00725], [-95.39741, 29.00771], [-95.39736, 29.0084], [-95.39813, 29.00873]]], [[[-95.39554, 29.00948], [-95.39553, 29.00949], [-95.39553, 29.00949], [-95.39553, 29.00948], [-95.39554, 29.00948]]], [[[-95.40366, 29.01298], [-95.40338, 29.01346], [-95.40287, 29.01324], [-95.40312, 29.01266], [-95.40298, 29.01226], [-95.40152, 29.01173], [-95.40155, 29.01093], [-95.40132, 29.01056], [-95.40032, 29.01045], [-95.40029, 29.00891], [-95.40253, 29.00987], [-95.4042, 29.01034], [-95.40401, 29.01077], [-95.40421, 29.01127], [-95.40423, 29.01289], [-95.40366, 29.01298]]], [[[-95.40089, 29.01209], [-95.40085, 29.01206], [-95.40091, 29.01206], [-95.40089, 29.01209]]], [[[-95.39991, 29.01223], [-95.39953, 29.01214], [-95.39959, 29.01199], [-95.39992, 29.01218], [-95.39991, 29.01223]]], [[[-95.39454, 29.01001], [-95.39511, 29.00992], [-95.39484, 29.01027], [-95.39483, 29.01069], [-95.39506, 29.01101], [-95.3955, 29.01112], [-95.39569, 29.01253], [-95.3949, 29.01254], [-95.39483, 29.01192], [-95.39436, 29.01191], [-95.39433, 29.01386], [-95.39452, 29.01406], [-95.39481, 29.01403], [-95.39492, 29.01308], [-95.3957, 29.01307], [-95.39575, 29.01517], [-95.39351, 29.01519], [-95.39309, 29.01373], [-95.39387, 29.01372], [-95.39384, 29.01201], [-95.39298, 29.01201], [-95.39297, 29.01178], [-95.39254, 29.01178], [-95.39224, 29.01078], [-95.39289, 29.01065], [-95.39337, 29.00987], [-95.39408, 29.01014], [-95.39454, 29.01001]]], [[[-95.39903, 29.01263], [-95.39992, 29.01278], [-95.39993, 29.01299], [-95.39631, 29.01305], [-95.3963, 29.01221], [-95.39658, 29.01216], [-95.39659, 29.01281], [-95.39903, 29.01263]]], [[[-95.40096, 29.01279], [-95.40054, 29.01282], [-95.40053, 29.01253], [-95.40092, 29.01275], [-95.40096, 29.01279]]], [[[-95.39663, 29.0139], [-95.39634, 29.01389], [-95.39633, 29.01359], [-95.39994, 29.01353], [-95.39995, 29.0139], [-95.39663, 29.0139]]], [[[-95.40135, 29.01355], [-95.40134, 29.01404], [-95.40057, 29.01404], [-95.40055, 29.01336], [-95.40143, 29.01336], [-95.40135, 29.01355]]], [[[-95.39739, 29.01515], [-95.39636, 29.01516], [-95.39636, 29.01443], [-95.39996, 29.01444], [-95.39998, 29.01513], [-95.39739, 29.01515]]], [[[-95.40058, 29.01458], [-95.40208, 29.01456], [-95.40267, 29.01509], [-95.40059, 29.01512], [-95.40058, 29.01458]]], [[[-95.40325, 29.01557], [-95.40421, 29.0154], [-95.40421, 29.01567], [-95.40061, 29.01574], [-95.40325, 29.01557]]], [[[-95.39578, 29.01634], [-95.39578, 29.01668], [-95.39419, 29.01671], [-95.39404, 29.01625], [-95.39363, 29.01609], [-95.39354, 29.01573], [-95.39576, 29.01571], [-95.39578, 29.01634]]], [[[-95.39723, 29.01569], [-95.39723, 29.01575], [-95.39638, 29.01577], [-95.39637, 29.0157], [-95.39723, 29.01569]]], [[[-95.39785, 29.01574], [-95.39999, 29.01567], [-95.39999, 29.01575], [-95.39891, 29.01572], [-95.39785, 29.01574]]], [[[-95.39956, 29.0163], [-95.4, 29.01629], [-95.40002, 29.01662], [-95.39923, 29.01663], [-95.39922, 29.01629], [-95.39956, 29.0163]]], [[[-95.40422, 29.01621], [-95.40403, 29.01656], [-95.40063, 29.01662], [-95.40062, 29.01628], [-95.40422, 29.01621]]], [[[-95.40256, 29.01712], [-95.40257, 29.01753], [-95.40066, 29.0175], [-95.40065, 29.01716], [-95.40256, 29.01712]]], [[[-95.39639, 29.01631], [-95.39861, 29.01627], [-95.39866, 29.01892], [-95.3979, 29.01881], [-95.39646, 29.019], [-95.39639, 29.01631]]], [[[-95.39562, 29.01813], [-95.39461, 29.01819], [-95.39434, 29.01724], [-95.39579, 29.01722], [-95.39583, 29.01828], [-95.39562, 29.01813]]], [[[-95.39962, 29.01889], [-95.39927, 29.01891], [-95.39924, 29.01717], [-95.40003, 29.01717], [-95.40007, 29.01891], [-95.39962, 29.01889]]], [[[-95.40245, 29.01838], [-95.40068, 29.0184], [-95.40067, 29.01804], [-95.40259, 29.018], [-95.4026, 29.01843], [-95.40245, 29.01838]]], [[[-95.40124, 29.01894], [-95.40123, 29.01893], [-95.40125, 29.01893], [-95.40124, 29.01894]]], [[[-95.4024, 29.01896], [-95.40233, 29.01892], [-95.40248, 29.01891], [-95.40247, 29.01898], [-95.4024, 29.01896]]], [[[-95.40262, 29.01957], [-95.40266, 29.01953], [-95.40271, 29.01959], [-95.40269, 29.0196], [-95.40262, 29.01957]]], [[[-95.40247, 29.02126], [-95.40235, 29.02136], [-95.40191, 29.02164], [-95.40202, 29.02103], [-95.40262, 29.02115], [-95.40247, 29.02126]]], [[[-95.39623, 29.02212], [-95.39617, 29.02212], [-95.39614, 29.02213], [-95.3962, 29.0221], [-95.39623, 29.02212]]], [[[-95.39789, 29.02279], [-95.39785, 29.02288], [-95.39734, 29.02228], [-95.39818, 29.02228], [-95.39835, 29.02243], [-95.39789, 29.02279]]], [[[-95.39904, 29.02257], [-95.39894, 29.02249], [-95.39917, 29.02236], [-95.39947, 29.02279], [-95.39923, 29.02286], [-95.39904, 29.02257]]], [[[-95.39862, 29.02365], [-95.39857, 29.02373], [-95.3985, 29.02366], [-95.39856, 29.02366], [-95.39862, 29.02365]]], [[[-95.40084, 29.02808], [-95.39998, 29.02732], [-95.39956, 29.02735], [-95.39915, 29.02769], [-95.39894, 29.02743], [-95.39926, 29.02689], [-95.39975, 29.02698], [-95.40018, 29.02674], [-95.40126, 29.028], [-95.40084, 29.02808]]], [[[-95.39717, 29.02835], [-95.39717, 29.02833], [-95.39728, 29.02835], [-95.39718, 29.02837], [-95.39717, 29.02835]]], [[[-95.39937, 29.03033], [-95.3995, 29.02993], [-95.3988, 29.02982], [-95.39871, 29.02952], [-95.39954, 29.02942], [-95.40035, 29.02878], [-95.40059, 29.02913], [-95.40008, 29.02949], [-95.39953, 29.0304], [-95.39937, 29.03033]]], [[[-95.39645, 29.03069], [-95.39723, 29.03074], [-95.39739, 29.0313], [-95.39488, 29.03135], [-95.39466, 29.03065], [-95.39645, 29.03069]]], [[[-95.39862, 29.03105], [-95.3989, 29.03111], [-95.39913, 29.03083], [-95.39926, 29.03089], [-95.39893, 29.03155], [-95.39814, 29.03167], [-95.39787, 29.03076], [-95.39846, 29.03055], [-95.39862, 29.03105]]], [[[-95.39692, 29.03194], [-95.39684, 29.03255], [-95.39526, 29.03257], [-95.39504, 29.03189], [-95.39701, 29.03185], [-95.39692, 29.03194]]], [[[-95.3994, 29.03205], [-95.3998, 29.03115], [-95.4012, 29.03279], [-95.40043, 29.0333], [-95.3994, 29.03205]]], [[[-95.39899, 29.03293], [-95.39921, 29.03277], [-95.39995, 29.03364], [-95.39872, 29.03378], [-95.39865, 29.0335], [-95.39899, 29.03293]]], [[[-95.39775, 29.03373], [-95.39687, 29.03382], [-95.39723, 29.03309], [-95.3979, 29.03306], [-95.39801, 29.03344], [-95.39775, 29.03373]]], [[[-95.39528, 29.03384], [-95.39565, 29.03311], [-95.39656, 29.0331], [-95.39619, 29.03383], [-95.39528, 29.03384]]], [[[-95.39301, 28.97074], [-95.393, 28.97073], [-95.39306, 28.97073], [-95.39303, 28.97077], [-95.39301, 28.97074]]], [[[-95.39363, 28.97128], [-95.39361, 28.97131], [-95.39358, 28.97137], [-95.39355, 28.97131], [-95.39363, 28.97128]]], [[[-95.38396, 28.97768], [-95.38347, 28.97747], [-95.38316, 28.9777], [-95.38314, 28.97707], [-95.38514, 28.97828], [-95.38396, 28.97768]]], [[[-95.38628, 28.97898], [-95.38628, 28.97888], [-95.38649, 28.97909], [-95.38635, 28.97901], [-95.38628, 28.97898]]], [[[-95.38637, 28.97987], [-95.3864, 28.9797], [-95.38661, 28.97984], [-95.38638, 28.97996], [-95.38637, 28.97987]]], [[[-95.386, 28.98054], [-95.38679, 28.98042], [-95.38711, 28.98017], [-95.39017, 28.98218], [-95.39002, 28.98231], [-95.38667, 28.98059], [-95.38487, 28.98134], [-95.386, 28.98054]]], [[[-95.39136, 28.98299], [-95.39137, 28.98297], [-95.39157, 28.98311], [-95.39136, 28.98299]]], [[[-95.3852, 28.99662], [-95.3855, 28.9968], [-95.38578, 28.99695], [-95.38528, 28.99683], [-95.3852, 28.99662]]], [[[-95.38713, 28.99924], [-95.39104, 29.00261], [-95.39429, 29.00461], [-95.39119, 29.00329], [-95.38833, 29.0013], [-95.38716, 29.00011], [-95.38578, 28.99776], [-95.38658, 28.99805], [-95.38713, 28.99924]]], [[[-95.38617, 29.00062], [-95.38585, 29.00017], [-95.38568, 28.99978], [-95.38645, 29.00089], [-95.38617, 29.00062]]], [[[-95.38443, 28.99798], [-95.38461, 28.99822], [-95.38483, 28.99984], [-95.38527, 29.00088], [-95.38579, 29.00151], [-95.38726, 29.00263], [-95.38709, 29.00314], [-95.38618, 29.00391], [-95.38557, 29.00413], [-95.38503, 29.00413], [-95.38389, 29.00367], [-95.38362, 29.00374], [-95.37987, 29.00203], [-95.37712, 28.99808], [-95.37578, 28.99651], [-95.37347, 28.99434], [-95.38045, 28.9948], [-95.38303, 28.99761], [-95.38359, 28.99793], [-95.38443, 28.99798]], [[-95.38379, 29.00144], [-95.38404, 29.00115], [-95.38405, 29.00078], [-95.38356, 29.00034], [-95.38305, 29.0004], [-95.38274, 29.00073], [-95.38213, 29.00077], [-95.38182, 29.00116], [-95.38192, 29.00163], [-95.38233, 29.00185], [-95.3828, 29.00181], [-95.38314, 29.00151], [-95.38379, 29.00144]], [[-95.3797, 28.99729], [-95.3802, 28.99834], [-95.38076, 28.99806], [-95.37929, 28.99644], [-95.37877, 28.99641], [-95.3797, 28.99729]]], [[[-95.38685, 29.00412], [-95.38771, 29.00332], [-95.38827, 29.0046], [-95.38602, 29.0046], [-95.38685, 29.00412]]], [[[-95.39127, 29.0055], [-95.39021, 29.00652], [-95.38958, 29.00534], [-95.39006, 29.00526], [-95.39015, 29.00493], [-95.38972, 29.00447], [-95.38913, 29.00451], [-95.38831, 29.00274], [-95.39236, 29.00521], [-95.39127, 29.0055]]], [[[-95.39405, 29.00511], [-95.39496, 29.00566], [-95.39239, 29.00436], [-95.39314, 29.00461], [-95.39405, 29.00511]]], [[[-95.38868, 29.00536], [-95.38869, 29.00537], [-95.38866, 29.00536], [-95.38868, 29.00536]]], [[[-95.38531, 29.00556], [-95.38863, 29.00595], [-95.38896, 29.00622], [-95.38834, 29.00652], [-95.38836, 29.00723], [-95.38906, 29.00751], [-95.38955, 29.00801], [-95.38999, 29.00808], [-95.39024, 29.00855], [-95.38968, 29.00869], [-95.38946, 29.00909], [-95.38658, 29.00914], [-95.38631, 29.00943], [-95.38082, 29.0031], [-95.38302, 29.00427], [-95.38313, 29.00458], [-95.38531, 29.00556]]], [[[-95.39213, 29.00584], [-95.39206, 29.00597], [-95.39189, 29.00582], [-95.39217, 29.00576], [-95.39213, 29.00584]]], [[[-95.38681, 29.01254], [-95.3862, 29.01314], [-95.38497, 29.01339], [-95.38492, 29.01089], [-95.38566, 29.01078], [-95.38636, 29.01097], [-95.38752, 29.01228], [-95.38681, 29.01254]]], [[[-95.38872, 29.01226], [-95.3865, 29.00966], [-95.39078, 29.00969], [-95.39092, 29.01003], [-95.38955, 29.00992], [-95.38913, 29.01012], [-95.38759, 29.0102], [-95.38734, 29.01054], [-95.3876, 29.01074], [-95.38887, 29.01068], [-95.38898, 29.01127], [-95.38963, 29.01165], [-95.39018, 29.01162], [-95.39054, 29.01138], [-95.39065, 29.01058], [-95.3913, 29.01055], [-95.39253, 29.01472], [-95.39132, 29.01481], [-95.39129, 29.01539], [-95.39214, 29.01575], [-95.3923, 29.016], [-95.3926, 29.01598], [-95.39284, 29.01645], [-95.39309, 29.01643], [-95.39352, 29.01802], [-95.391, 29.01508], [-95.38872, 29.01226]]], [[[-95.38531, 29.01391], [-95.38652, 29.01361], [-95.38774, 29.01253], [-95.39077, 29.01578], [-95.3889, 29.0158], [-95.38865, 29.01597], [-95.38871, 29.02001], [-95.38711, 29.02003], [-95.38709, 29.0186], [-95.3869, 29.0183], [-95.38505, 29.01825], [-95.38498, 29.01393], [-95.38531, 29.01391]], [[-95.38694, 29.01526], [-95.3869, 29.01527], [-95.3869, 29.01532], [-95.38693, 29.01527], [-95.38694, 29.01526]]], [[[-95.39299, 29.01912], [-95.39221, 29.01927], [-95.39203, 29.01996], [-95.39174, 29.01996], [-95.39158, 29.01925], [-95.39117, 29.01894], [-95.38931, 29.01934], [-95.38925, 29.01633], [-95.39097, 29.01632], [-95.392, 29.01754], [-95.39166, 29.01863], [-95.39208, 29.0187], [-95.39249, 29.01811], [-95.39324, 29.01899], [-95.39299, 29.01912]]], [[[-95.38649, 29.01947], [-95.38493, 29.01955], [-95.38469, 29.01982], [-95.38496, 29.02008], [-95.38649, 29.02001], [-95.38659, 29.0219], [-95.38313, 29.02195], [-95.38273, 29.02228], [-95.38272, 29.02281], [-95.37852, 29.02296], [-95.37843, 29.02011], [-95.3782, 29.01902], [-95.37689, 29.01738], [-95.37635, 29.01709], [-95.37522, 29.01696], [-95.3744, 29.01584], [-95.37436, 29.01348], [-95.38011, 29.01341], [-95.38018, 29.014], [-95.38064, 29.01431], [-95.38437, 29.01427], [-95.38444, 29.01829], [-95.38294, 29.01858], [-95.38277, 29.01891], [-95.38307, 29.0191], [-95.38478, 29.01878], [-95.38648, 29.01876], [-95.38649, 29.01947]], [[-95.38017, 29.01592], [-95.3794, 29.01564], [-95.37873, 29.01509], [-95.37628, 29.01513], [-95.37648, 29.01543], [-95.37728, 29.01563], [-95.37815, 29.01614], [-95.37947, 29.01759], [-95.38016, 29.01897], [-95.38029, 29.02121], [-95.38125, 29.02118], [-95.38205, 29.02055], [-95.38113, 29.01976], [-95.38088, 29.01904], [-95.3809, 29.01847], [-95.3815, 29.01748], [-95.38253, 29.01696], [-95.38251, 29.01596], [-95.38017, 29.01592]]], [[[-95.38761, 29.02093], [-95.38758, 29.02138], [-95.38719, 29.02139], [-95.38716, 29.02057], [-95.38761, 29.02056], [-95.38761, 29.02093]]], [[[-95.38868, 29.02137], [-95.3882, 29.02138], [-95.38822, 29.02055], [-95.38867, 29.02055], [-95.38868, 29.02137]]], [[[-95.38699, 29.02235], [-95.38721, 29.02193], [-95.38919, 29.02191], [-95.38932, 29.02223], [-95.38794, 29.02227], [-95.3877, 29.02251], [-95.38792, 29.02279], [-95.38888, 29.02278], [-95.38908, 29.02516], [-95.38608, 29.02763], [-95.38605, 29.02663], [-95.38667, 29.02657], [-95.38686, 29.02632], [-95.38665, 29.02606], [-95.38603, 29.02609], [-95.38589, 29.02245], [-95.38699, 29.02235]]], [[[-95.38977, 29.02338], [-95.39053, 29.02337], [-95.39056, 29.02382], [-95.38953, 29.02375], [-95.38951, 29.02326], [-95.38977, 29.02338]]], [[[-95.38542, 29.02613], [-95.38507, 29.02614], [-95.38499, 29.02382], [-95.38533, 29.02381], [-95.38542, 29.02613]]], [[[-95.39376, 29.02613], [-95.3938, 29.02633], [-95.39356, 29.02636], [-95.39345, 29.0253], [-95.3938, 29.02532], [-95.39376, 29.02613]]], [[[-95.38882, 29.02625], [-95.38853, 29.02634], [-95.38922, 29.02577], [-95.39033, 29.02645], [-95.39082, 29.02634], [-95.39117, 29.02596], [-95.39112, 29.02697], [-95.38937, 29.02629], [-95.38882, 29.02625]]], [[[-95.38539, 29.02667], [-95.38548, 29.02811], [-95.38516, 29.02831], [-95.38509, 29.02668], [-95.38539, 29.02667]]], [[[-95.39525, 29.02977], [-95.39574, 29.02961], [-95.39606, 29.03009], [-95.3945, 29.03011], [-95.39439, 29.02968], [-95.39525, 29.02977]]], [[[-95.39316, 29.03019], [-95.39251, 29.03034], [-95.3926, 29.02971], [-95.39375, 29.02969], [-95.39388, 29.03016], [-95.39316, 29.03019]]], [[[-95.38643, 29.03078], [-95.38634, 29.03265], [-95.38657, 29.034], [-95.38534, 29.03402], [-95.38456, 29.03366], [-95.38347, 29.03284], [-95.38188, 29.03031], [-95.38128, 29.02972], [-95.38003, 29.02921], [-95.37768, 29.0294], [-95.37684, 29.02972], [-95.37623, 29.03021], [-95.37538, 29.03164], [-95.37533, 29.03239], [-95.37588, 29.03419], [-95.37461, 29.03421], [-95.37423, 29.03174], [-95.37453, 29.03072], [-95.37514, 29.03022], [-95.37844, 29.02882], [-95.37953, 29.02868], [-95.38414, 29.02919], [-95.38635, 29.03057], [-95.38643, 29.03078]]], [[[-95.39433, 29.03167], [-95.39462, 29.03258], [-95.39381, 29.03262], [-95.39353, 29.03283], [-95.39208, 29.0323], [-95.39216, 29.03218], [-95.39269, 29.03251], [-95.393, 29.03246], [-95.39375, 29.03176], [-95.394, 29.0307], [-95.39433, 29.03167]]], [[[-95.38708, 29.03382], [-95.38696, 29.03263], [-95.38696, 29.03121], [-95.38845, 29.03202], [-95.38778, 29.03398], [-95.38698, 29.03399], [-95.38708, 29.03382]]], [[[-95.38896, 29.0325], [-95.389, 29.03235], [-95.39085, 29.03348], [-95.39095, 29.03392], [-95.38843, 29.03397], [-95.38896, 29.0325]]], [[[-95.39147, 29.0333], [-95.39109, 29.03297], [-95.39178, 29.03276], [-95.39327, 29.03333], [-95.3931, 29.03366], [-95.39196, 29.03336], [-95.39156, 29.03391], [-95.39147, 29.0333]]], [[[-95.39422, 29.03312], [-95.39497, 29.03312], [-95.39461, 29.03386], [-95.39368, 29.03386], [-95.39406, 29.03312], [-95.39422, 29.03312]]], [[[-95.38328, 28.97796], [-95.38435, 28.9785], [-95.38433, 28.97854], [-95.3838, 28.97853], [-95.38319, 28.97895], [-95.38316, 28.9778], [-95.38328, 28.97796]]], [[[-95.38366, 28.97944], [-95.38398, 28.9791], [-95.38472, 28.97956], [-95.38462, 28.98003], [-95.38239, 28.98013], [-95.38238, 28.97994], [-95.38321, 28.97993], [-95.3832, 28.97949], [-95.38366, 28.97944]]], [[[-95.38113, 28.97997], [-95.38177, 28.97995], [-95.38177, 28.98008], [-95.38119, 28.98004], [-95.38113, 28.97997]]], [[[-95.37876, 28.98018], [-95.37716, 28.98023], [-95.37716, 28.98004], [-95.37953, 28.97999], [-95.37953, 28.98018], [-95.37876, 28.98018]]], [[[-95.37654, 28.98005], [-95.37655, 28.98024], [-95.37607, 28.98026], [-95.37596, 28.98006], [-95.37654, 28.98005]]], [[[-95.37411, 28.98029], [-95.37212, 28.98298], [-95.37169, 28.98272], [-95.37364, 28.9801], [-95.37426, 28.98009], [-95.37411, 28.98029]]], [[[-95.37748, 28.98275], [-95.37635, 28.98079], [-95.37674, 28.98078], [-95.3768, 28.98152], [-95.37736, 28.9818], [-95.37794, 28.98177], [-95.37866, 28.9814], [-95.3794, 28.98137], [-95.37969, 28.9811], [-95.37973, 28.98072], [-95.38052, 28.98081], [-95.38072, 28.9812], [-95.38117, 28.98134], [-95.3819, 28.98122], [-95.38215, 28.98067], [-95.38382, 28.98067], [-95.37777, 28.98329], [-95.37748, 28.98275]]], [[[-95.37559, 28.98065], [-95.377, 28.98362], [-95.37163, 28.98596], [-95.37114, 28.98525], [-95.375, 28.98007], [-95.37529, 28.98007], [-95.37559, 28.98065]]], [[[-95.37816, 28.98403], [-95.37834, 28.98396], [-95.37873, 28.98379], [-95.3782, 28.9841], [-95.37816, 28.98403]]], [[[-95.37351, 28.98604], [-95.37389, 28.98584], [-95.37739, 28.98436], [-95.373, 28.98652], [-95.3727, 28.98635], [-95.37351, 28.98604]]], [[[-95.38208, 28.99033], [-95.38152, 28.99031], [-95.38002, 28.98749], [-95.38049, 28.9873], [-95.38208, 28.99033]]], [[[-95.37754, 28.98856], [-95.37905, 28.98789], [-95.37784, 28.98914], [-95.37715, 28.98954], [-95.37625, 28.98977], [-95.37472, 28.98964], [-95.37588, 28.98917], [-95.37654, 28.98924], [-95.37754, 28.98856]]], [[[-95.37972, 28.98868], [-95.37999, 28.98918], [-95.37922, 28.9892], [-95.3794, 28.98902], [-95.37972, 28.98868]]], [[[-95.37457, 28.98963], [-95.37427, 28.9896], [-95.37449, 28.98948], [-95.37457, 28.98963]]], [[[-95.38031, 28.9901], [-95.38044, 28.99], [-95.38057, 28.99022], [-95.37983, 28.99014], [-95.38031, 28.9901]]], [[[-95.38009, 28.99121], [-95.37961, 28.99104], [-95.37905, 28.99061], [-95.38097, 28.99095], [-95.38107, 28.99115], [-95.38009, 28.99121]]], [[[-95.37749, 28.99069], [-95.37843, 28.99089], [-95.37973, 28.99168], [-95.38138, 28.99171], [-95.38185, 28.99258], [-95.38088, 28.99226], [-95.37036, 28.99024], [-95.36966, 28.99002], [-95.36929, 28.98959], [-95.37357, 28.99038], [-95.37749, 28.99069]]], [[[-95.37424, 28.99211], [-95.37422, 28.9921], [-95.37447, 28.99215], [-95.37433, 28.99215], [-95.37424, 28.99211]]], [[[-95.38267, 28.99192], [-95.38317, 28.99249], [-95.38359, 28.99332], [-95.38304, 28.99309], [-95.38229, 28.99171], [-95.38267, 28.99192]]], [[[-95.37547, 28.99322], [-95.37263, 28.99331], [-95.37158, 28.99227], [-95.37652, 28.99324], [-95.37547, 28.99322]]], [[[-95.37651, 28.99401], [-95.37596, 28.99397], [-95.37752, 28.99406], [-95.37696, 28.99403], [-95.37651, 28.99401]]], [[[-95.37369, 28.99629], [-95.37366, 28.99562], [-95.37541, 28.99768], [-95.37499, 28.99766], [-95.37462, 28.99791], [-95.37392, 28.99782], [-95.37312, 28.99734], [-95.3727, 28.99728], [-95.3723, 28.99751], [-95.37189, 28.99828], [-95.36962, 28.99715], [-95.37021, 28.99692], [-95.37139, 28.99505], [-95.37128, 28.99453], [-95.37068, 28.99419], [-95.3724, 28.9944], [-95.37354, 28.99548], [-95.37315, 28.99532], [-95.37213, 28.99533], [-95.37137, 28.99558], [-95.37105, 28.99602], [-95.37129, 28.99661], [-95.37226, 28.99674], [-95.37318, 28.99664], [-95.37369, 28.99629]]], [[[-95.37585, 28.99819], [-95.37605, 28.99843], [-95.37582, 28.99839], [-95.37585, 28.99819]]], [[[-95.37748, 29.00011], [-95.37787, 29.00056], [-95.37656, 28.99993], [-95.37689, 28.99942], [-95.37748, 29.00011]]], [[[-95.37787, 29.00587], [-95.37534, 29.00592], [-95.37506, 29.00546], [-95.37494, 29.00468], [-95.37459, 29.00447], [-95.37406, 29.00446], [-95.37418, 29.00376], [-95.37468, 29.00365], [-95.37493, 29.00329], [-95.37483, 29.0028], [-95.37509, 29.00248], [-95.37512, 29.00205], [-95.37476, 29.00073], [-95.37502, 29.00034], [-95.37586, 29.00072], [-95.37586, 29.00107], [-95.37621, 29.00162], [-95.37684, 29.00222], [-95.37755, 29.0023], [-95.37803, 29.002], [-95.37819, 29.00208], [-95.37794, 29.00234], [-95.37792, 29.00277], [-95.37851, 29.00328], [-95.37787, 29.00332], [-95.3775, 29.00359], [-95.37743, 29.00419], [-95.37766, 29.00456], [-95.37824, 29.00467], [-95.37983, 29.00444], [-95.3801, 29.00398], [-95.37984, 29.00329], [-95.38138, 29.00478], [-95.38031, 29.00498], [-95.37879, 29.00602], [-95.378, 29.00613], [-95.37787, 29.00587]]], [[[-95.3782, 29.00667], [-95.37922, 29.00644], [-95.38092, 29.00535], [-95.38164, 29.00537], [-95.38216, 29.00569], [-95.38576, 29.01024], [-95.38476, 29.01037], [-95.38433, 29.01071], [-95.38436, 29.01372], [-95.38077, 29.01377], [-95.38064, 29.01308], [-95.38023, 29.01286], [-95.37245, 29.01296], [-95.37234, 29.008], [-95.37274, 29.00815], [-95.37322, 29.00809], [-95.37351, 29.00782], [-95.37356, 29.00745], [-95.37328, 29.00699], [-95.37232, 29.00675], [-95.3782, 29.00667]], [[-95.38225, 29.00856], [-95.38112, 29.00724], [-95.37959, 29.00811], [-95.3777, 29.00834], [-95.37653, 29.00913], [-95.37544, 29.01034], [-95.37427, 29.01091], [-95.37428, 29.01127], [-95.38037, 29.0112], [-95.3813, 29.01145], [-95.38217, 29.01209], [-95.38243, 29.01209], [-95.38245, 29.01045], [-95.38295, 29.00951], [-95.38225, 29.00856]]], [[[-95.37706, 29.01964], [-95.37713, 29.01978], [-95.37508, 29.0216], [-95.37483, 29.0214], [-95.37515, 29.0204], [-95.37501, 29.02006], [-95.37469, 29.01976], [-95.37401, 29.01953], [-95.37523, 29.01852], [-95.37509, 29.01828], [-95.37527, 29.01796], [-95.37652, 29.01873], [-95.37706, 29.01964]]], [[[-95.37783, 29.02197], [-95.37791, 29.02297], [-95.37734, 29.02298], [-95.37736, 29.02295], [-95.37783, 29.02197]]], [[[-95.38382, 29.02484], [-95.38018, 29.02488], [-95.37864, 29.02441], [-95.37856, 29.0235], [-95.38293, 29.02335], [-95.38329, 29.02305], [-95.38332, 29.02248], [-95.38528, 29.02246], [-95.38531, 29.02327], [-95.38468, 29.0233], [-95.38439, 29.02356], [-95.38445, 29.02614], [-95.38431, 29.0252], [-95.38382, 29.02484]]], [[[-95.37722, 29.0235], [-95.37794, 29.02351], [-95.37813, 29.02476], [-95.37766, 29.02438], [-95.3741, 29.03019], [-95.37404, 29.02754], [-95.37593, 29.02531], [-95.37711, 29.02342], [-95.37722, 29.0235]]], [[[-95.38365, 29.02537], [-95.3839, 29.02866], [-95.38191, 29.02843], [-95.38184, 29.02539], [-95.38365, 29.02537]]], [[[-95.38456, 29.02855], [-95.38451, 29.02856], [-95.38444, 29.02668], [-95.38447, 29.02668], [-95.38456, 29.02855]]], [[[-95.37289, 28.98011], [-95.37277, 28.98028], [-95.37249, 28.98012], [-95.37289, 28.98011]]], [[[-95.36352, 28.98055], [-95.36374, 28.98027], [-95.36422, 28.98049], [-95.36398, 28.98081], [-95.36352, 28.98055]]], [[[-95.36952, 28.98017], [-95.36991, 28.9804], [-95.36965, 28.98076], [-95.36864, 28.98019], [-95.36952, 28.98017]]], [[[-95.37076, 28.98024], [-95.37139, 28.98014], [-95.37243, 28.98073], [-95.37219, 28.98106], [-95.37076, 28.98024]]], [[[-95.36907, 28.98152], [-95.36837, 28.9811], [-95.36684, 28.98022], [-95.36754, 28.98021], [-95.3693, 28.98121], [-95.36907, 28.98152]]], [[[-95.36679, 28.98133], [-95.36508, 28.98033], [-95.36514, 28.98025], [-95.36575, 28.98024], [-95.36872, 28.98196], [-95.36847, 28.98228], [-95.36679, 28.98133]]], [[[-95.36474, 28.98079], [-95.3662, 28.98164], [-95.36598, 28.98194], [-95.3645, 28.98111], [-95.36474, 28.98079]]], [[[-95.37185, 28.98151], [-95.37159, 28.98186], [-95.37016, 28.98105], [-95.37043, 28.98069], [-95.37185, 28.98151]]], [[[-95.37126, 28.98231], [-95.37102, 28.98264], [-95.36958, 28.98182], [-95.36982, 28.9815], [-95.37126, 28.98231]]], [[[-95.36695, 28.98249], [-95.3665, 28.98224], [-95.36672, 28.98193], [-95.36717, 28.98219], [-95.36695, 28.98249]]], [[[-95.36814, 28.98274], [-95.36793, 28.98305], [-95.36747, 28.98279], [-95.36769, 28.98249], [-95.36814, 28.98274]]], [[[-95.37068, 28.98309], [-95.37043, 28.98341], [-95.36899, 28.98258], [-95.36923, 28.98227], [-95.37068, 28.98309]]], [[[-95.36912, 28.98371], [-95.36845, 28.98334], [-95.36866, 28.98304], [-95.37009, 28.98387], [-95.36989, 28.98414], [-95.36912, 28.98371]]], [[[-95.37136, 28.98317], [-95.37178, 28.98343], [-95.3712, 28.98422], [-95.37074, 28.98396], [-95.37136, 28.98317]]], [[[-95.36286, 28.9806], [-95.36307, 28.98094], [-95.36761, 28.98351], [-95.36734, 28.98387], [-95.36667, 28.9835], [-95.36633, 28.98367], [-95.36637, 28.98394], [-95.367, 28.98432], [-95.36659, 28.98492], [-95.36682, 28.98533], [-95.36884, 28.98637], [-95.36915, 28.9862], [-95.37004, 28.98491], [-95.37118, 28.9862], [-95.36811, 28.98751], [-95.3676, 28.98759], [-95.36273, 28.98179], [-95.3627, 28.98029], [-95.36299, 28.98029], [-95.36286, 28.9806]]], [[[-95.36854, 28.98455], [-95.36786, 28.98417], [-95.36813, 28.9838], [-95.36954, 28.98459], [-95.36927, 28.98498], [-95.36854, 28.98455]]], [[[-95.37056, 28.9846], [-95.37042, 28.98442], [-95.37085, 28.98467], [-95.37074, 28.9848], [-95.37056, 28.9846]]], [[[-95.36657, 28.98729], [-95.36279, 28.98305], [-95.36275, 28.9828], [-95.36665, 28.98738], [-95.36657, 28.98729]]], [[[-95.36726, 28.98495], [-95.36752, 28.98462], [-95.36896, 28.98544], [-95.36872, 28.98579], [-95.36726, 28.98495]]], [[[-95.3686, 28.98865], [-95.36819, 28.98829], [-95.3717, 28.9868], [-95.37161, 28.98716], [-95.37131, 28.9873], [-95.37178, 28.98804], [-95.37159, 28.98813], [-95.3709, 28.98789], [-95.37005, 28.9884], [-95.37016, 28.98897], [-95.37064, 28.98923], [-95.36949, 28.98908], [-95.3686, 28.98865]]], [[[-95.36334, 28.98789], [-95.36627, 28.9908], [-95.36828, 28.99184], [-95.37045, 28.99183], [-95.37172, 28.99333], [-95.36916, 28.99272], [-95.3654, 28.99062], [-95.36287, 28.98814], [-95.36286, 28.98732], [-95.36334, 28.98789]]], [[[-95.36724, 28.98907], [-95.36702, 28.98896], [-95.36602, 28.98793], [-95.36653, 28.98827], [-95.36753, 28.98843], [-95.36875, 28.98986], [-95.36724, 28.98907]]], [[[-95.36662, 28.99015], [-95.36661, 28.99015], [-95.36648, 28.99004], [-95.36666, 28.99016], [-95.36662, 28.99015]]], [[[-95.36737, 28.99054], [-95.3673, 28.99051], [-95.36725, 28.99048], [-95.36733, 28.99052], [-95.36737, 28.99054]]], [[[-95.36822, 28.99097], [-95.36894, 28.9912], [-95.36928, 28.99125], [-95.3685, 28.99116], [-95.36822, 28.99097]]], [[[-95.37154, 28.99156], [-95.37159, 28.99157], [-95.37158, 28.99157], [-95.37154, 28.99156]]], [[[-95.36327, 28.99139], [-95.36364, 28.9905], [-95.36481, 28.99152], [-95.36913, 28.9938], [-95.36879, 28.99424], [-95.36885, 28.9947], [-95.36808, 28.99594], [-95.3682, 28.99646], [-95.36301, 28.99391], [-95.36295, 28.99162], [-95.36327, 28.99139]]], [[[-95.36594, 28.99785], [-95.36569, 28.99772], [-95.36563, 28.99582], [-95.3666, 28.99629], [-95.36637, 28.99677], [-95.36639, 28.99754], [-95.36672, 28.99796], [-95.36804, 28.99845], [-95.36952, 28.99838], [-95.36995, 28.99795], [-95.37077, 28.99836], [-95.37032, 28.99921], [-95.37027, 29.00016], [-95.37127, 29.00329], [-95.37164, 29.00547], [-95.365, 29.0057], [-95.36323, 29.00371], [-95.36315, 29.00032], [-95.36584, 29.00019], [-95.36615, 28.99964], [-95.36613, 28.99818], [-95.36594, 28.99785]], [[-95.36838, 29.00207], [-95.36713, 29.00282], [-95.36516, 29.00318], [-95.36565, 29.00374], [-95.36817, 29.00368], [-95.36838, 29.00207]]], [[[-95.37138, 29.00168], [-95.37084, 28.99975], [-95.37131, 28.99862], [-95.37143, 28.99867], [-95.37113, 28.99935], [-95.37151, 28.9999], [-95.37335, 29.00043], [-95.37337, 29.00124], [-95.37246, 29.00107], [-95.37198, 29.00145], [-95.372, 29.00203], [-95.37228, 29.00231], [-95.37265, 29.00237], [-95.37264, 29.00269], [-95.37175, 29.00282], [-95.37138, 29.00168]]], [[[-95.37218, 29.00387], [-95.37243, 29.0043], [-95.37282, 29.00449], [-95.37272, 29.00485], [-95.37223, 29.00492], [-95.37204, 29.00386], [-95.37218, 29.00387]]], [[[-95.36413, 29.00561], [-95.36327, 29.00563], [-95.36325, 29.00462], [-95.36331, 29.00469], [-95.36413, 29.00561]]], [[[-95.36637, 29.0063], [-95.36621, 29.00629], [-95.37166, 29.00622], [-95.36654, 29.00631], [-95.36637, 29.0063]]], [[[-95.36329, 29.00637], [-95.36329, 29.00634], [-95.36487, 29.00634], [-95.36363, 29.00636], [-95.36329, 29.00637]]], [[[-95.3633, 29.00691], [-95.36331, 29.00691], [-95.3633, 29.00692], [-95.3633, 29.00691]]], [[[-95.36963, 29.01291], [-95.37023, 29.01286], [-95.37054, 29.0125], [-95.3718, 29.01249], [-95.372, 29.01341], [-95.37374, 29.01349], [-95.37379, 29.01575], [-95.37287, 29.01586], [-95.37255, 29.01671], [-95.36883, 29.01737], [-95.36624, 29.01759], [-95.36448, 29.01789], [-95.36356, 29.01823], [-95.36352, 29.01643], [-95.36662, 29.01586], [-95.36516, 29.01556], [-95.36386, 29.01479], [-95.36347, 29.01439], [-95.36344, 29.01281], [-95.36599, 29.01281], [-95.36601, 29.01327], [-95.36824, 29.01323], [-95.36939, 29.01278], [-95.36963, 29.01291]]], [[[-95.37413, 29.01638], [-95.37447, 29.01676], [-95.37316, 29.0168], [-95.37327, 29.0163], [-95.37413, 29.01638]]]]}, "properties": {"kind": "pv", "area_km2": 11.2, "mw": 560.0}}, {"type": "Feature", "geometry": {"type": "Point", "coordinates": [-95.37886, 29.0103]}, "properties": {"kind": "turbine", "i": 0, "mw": 6.0, "hub_m": 120.0, "rotor_m": 150.0}}, {"type": "Feature", "geometry": {"type": "Point", "coordinates": [-95.40065, 28.98026]}, "properties": {"kind": "turbine", "i": 1, "mw": 6.0, "hub_m": 120.0, "rotor_m": 150.0}}, {"type": "Feature", "geometry": {"type": "Point", "coordinates": [-95.42373, 29.0062]}, "properties": {"kind": "turbine", "i": 2, "mw": 6.0, "hub_m": 120.0, "rotor_m": 150.0}}, {"type": "Feature", "geometry": {"type": "Point", "coordinates": [-95.37167, 29.0236]}, "properties": {"kind": "turbine", "i": 3, "mw": 6.0, "hub_m": 120.0, "rotor_m": 150.0}}, {"type": "Feature", "geometry": {"type": "Point", "coordinates": [-95.3602, 29.01392]}, "properties": {"kind": "turbine", "i": 4, "mw": 6.0, "hub_m": 120.0, "rotor_m": 150.0}}, {"type": "Feature", "geometry": {"type": "Point", "coordinates": [-95.43076, 28.98631]}, "properties": {"kind": "turbine", "i": 5, "mw": 6.0, "hub_m": 120.0, "rotor_m": 150.0}}, {"type": "Feature", "geometry": {"type": "Point", "coordinates": [-95.37788, 28.96749]}, "properties": {"kind": "turbine", "i": 6, "mw": 6.0, "hub_m": 120.0, "rotor_m": 150.0}}, {"type": "Feature", "geometry": {"type": "Point", "coordinates": [-95.42297, 28.97327]}, "properties": {"kind": "turbine", "i": 7, "mw": 6.0, "hub_m": 120.0, "rotor_m": 150.0}}, {"type": "Feature", "geometry": {"type": "Point", "coordinates": [-95.38904, 28.964]}, "properties": {"kind": "turbine", "i": 8, "mw": 6.0, "hub_m": 120.0, "rotor_m": 150.0}}, {"type": "Feature", "geometry": {"type": "Point", "coordinates": [-95.34874, 29.00424]}, "properties": {"kind": "turbine", "i": 9, "mw": 6.0, "hub_m": 120.0, "rotor_m": 150.0}}, {"type": "Feature", "geometry": {"type": "Point", "coordinates": [-95.3644, 29.03361]}, "properties": {"kind": "turbine", "i": 10, "mw": 6.0, "hub_m": 120.0, "rotor_m": 150.0}}, {"type": "Feature", "geometry": {"type": "Point", "coordinates": [-95.39468, 29.04625]}, "properties": {"kind": "turbine", "i": 11, "mw": 6.0, "hub_m": 120.0, "rotor_m": 150.0}}, {"type": "Feature", "geometry": {"type": "Point", "coordinates": [-95.44192, 28.98281]}, "properties": {"kind": "turbine", "i": 12, "mw": 6.0, "hub_m": 120.0, "rotor_m": 150.0}}, {"type": "Feature", "geometry": {"type": "Point", "coordinates": [-95.34103, 28.99449]}, "properties": {"kind": "turbine", "i": 13, "mw": 6.0, "hub_m": 120.0, "rotor_m": 150.0}}, {"type": "Feature", "geometry": {"type": "Point", "coordinates": [-95.34544, 29.02406]}, "properties": {"kind": "turbine", "i": 14, "mw": 6.0, "hub_m": 120.0, "rotor_m": 150.0}}, {"type": "Feature", "geometry": {"type": "Point", "coordinates": [-95.35541, 28.96789]}, "properties": {"kind": "turbine", "i": 15, "mw": 6.0, "hub_m": 120.0, "rotor_m": 150.0}}, {"type": "Feature", "geometry": {"type": "Point", "coordinates": [-95.43795, 28.973]}, "properties": {"kind": "turbine", "i": 16, "mw": 6.0, "hub_m": 120.0, "rotor_m": 150.0}}, {"type": "Feature", "geometry": {"type": "Point", "coordinates": [-95.37602, 29.04988]}, "properties": {"kind": "turbine", "i": 17, "mw": 6.0, "hub_m": 120.0, "rotor_m": 150.0}}, {"type": "Feature", "geometry": {"type": "Point", "coordinates": [-95.44972, 28.99585]}, "properties": {"kind": "turbine", "i": 18, "mw": 6.0, "hub_m": 120.0, "rotor_m": 150.0}}, {"type": "Feature", "geometry": {"type": "Point", "coordinates": [-95.33758, 29.00773]}, "properties": {"kind": "turbine", "i": 19, "mw": 6.0, "hub_m": 120.0, "rotor_m": 150.0}}, {"type": "Feature", "geometry": {"type": "Point", "coordinates": [-95.34941, 29.03388]}, "properties": {"kind": "turbine", "i": 20, "mw": 6.0, "hub_m": 120.0, "rotor_m": 150.0}}, {"type": "Feature", "geometry": {"type": "Point", "coordinates": [-95.3647, 29.04679]}, "properties": {"kind": "turbine", "i": 21, "mw": 6.0, "hub_m": 120.0, "rotor_m": 150.0}}, {"type": "Feature", "geometry": {"type": "Point", "coordinates": [-95.39866, 29.05607]}, "properties": {"kind": "turbine", "i": 22, "mw": 6.0, "hub_m": 120.0, "rotor_m": 150.0}}, {"type": "Feature", "geometry": {"type": "Point", "coordinates": [-95.33405, 29.01767]}, "properties": {"kind": "turbine", "i": 23, "mw": 6.0, "hub_m": 120.0, "rotor_m": 150.0}}, {"type": "Feature", "geometry": {"type": "Point", "coordinates": [-95.34589, 29.04382]}, "properties": {"kind": "turbine", "i": 24, "mw": 6.0, "hub_m": 120.0, "rotor_m": 150.0}}, {"type": "Feature", "geometry": {"type": "Point", "coordinates": [-95.46088, 28.99235]}, "properties": {"kind": "turbine", "i": 25, "mw": 6.0, "hub_m": 120.0, "rotor_m": 150.0}}, {"type": "Feature", "geometry": {"type": "Point", "coordinates": [-95.3725, 29.05983]}, "properties": {"kind": "turbine", "i": 26, "mw": 6.0, "hub_m": 120.0, "rotor_m": 150.0}}, {"type": "Feature", "geometry": {"type": "Point", "coordinates": [-95.46135, 29.01211]}, "properties": {"kind": "turbine", "i": 27, "mw": 6.0, "hub_m": 120.0, "rotor_m": 150.0}}, {"type": "Feature", "geometry": {"type": "Point", "coordinates": [-95.45682, 28.97925]}, "properties": {"kind": "turbine", "i": 28, "mw": 6.0, "hub_m": 120.0, "rotor_m": 150.0}}, {"type": "Feature", "geometry": {"type": "Point", "coordinates": [-95.33442, 29.03414]}, "properties": {"kind": "turbine", "i": 29, "mw": 6.0, "hub_m": 120.0, "rotor_m": 150.0}}, {"type": "Feature", "geometry": {"type": "Point", "coordinates": [-95.36118, 29.05673]}, "properties": {"kind": "turbine", "i": 30, "mw": 6.0, "hub_m": 120.0, "rotor_m": 150.0}}, {"type": "Feature", "geometry": {"type": "Point", "coordinates": [-95.46486, 29.00216]}, "properties": {"kind": "turbine", "i": 31, "mw": 6.0, "hub_m": 120.0, "rotor_m": 150.0}}, {"type": "Feature", "geometry": {"type": "Point", "coordinates": [-95.39514, 29.06601]}, "properties": {"kind": "turbine", "i": 32, "mw": 6.0, "hub_m": 120.0, "rotor_m": 150.0}}, {"type": "Feature", "geometry": {"type": "Point", "coordinates": [-95.37728, 28.94115]}, "properties": {"kind": "turbine", "i": 33, "mw": 6.0, "hub_m": 120.0, "rotor_m": 150.0}}, {"type": "Feature", "geometry": {"type": "Point", "coordinates": [-95.45236, 28.9606]}, "properties": {"kind": "turbine", "i": 34, "mw": 6.0, "hub_m": 120.0, "rotor_m": 150.0}}, {"type": "Feature", "geometry": {"type": "Point", "coordinates": [-95.44497, 28.95311]}, "properties": {"kind": "turbine", "i": 35, "mw": 6.0, "hub_m": 120.0, "rotor_m": 150.0}}, {"type": "Feature", "geometry": {"type": "Point", "coordinates": [-95.38397, 29.06951]}, "properties": {"kind": "turbine", "i": 36, "mw": 6.0, "hub_m": 120.0, "rotor_m": 150.0}}, {"type": "Feature", "geometry": {"type": "Point", "coordinates": [-95.32304, 29.02775]}, "properties": {"kind": "turbine", "i": 37, "mw": 6.0, "hub_m": 120.0, "rotor_m": 150.0}}, {"type": "Feature", "geometry": {"type": "Point", "coordinates": [-95.31907, 29.01793]}, "properties": {"kind": "turbine", "i": 38, "mw": 6.0, "hub_m": 120.0, "rotor_m": 150.0}}, {"type": "Feature", "geometry": {"type": "Point", "coordinates": [-95.47204, 28.98885]}, "properties": {"kind": "turbine", "i": 39, "mw": 6.0, "hub_m": 120.0, "rotor_m": 150.0}}, {"type": "Feature", "geometry": {"type": "Point", "coordinates": [-95.40653, 29.0724]}, "properties": {"kind": "turbine", "i": 40, "mw": 6.0, "hub_m": 120.0, "rotor_m": 150.0}}, {"type": "Feature", "geometry": {"type": "Point", "coordinates": [-95.33862, 29.05383]}, "properties": {"kind": "turbine", "i": 41, "mw": 6.0, "hub_m": 120.0, "rotor_m": 150.0}}, {"type": "Feature", "geometry": {"type": "Point", "coordinates": [-95.4679, 28.97246]}, "properties": {"kind": "turbine", "i": 42, "mw": 6.0, "hub_m": 120.0, "rotor_m": 150.0}}, {"type": "Feature", "geometry": {"type": "Point", "coordinates": [-95.47602, 28.99866]}, "properties": {"kind": "turbine", "i": 43, "mw": 6.0, "hub_m": 120.0, "rotor_m": 150.0}}, {"type": "Feature", "geometry": {"type": "Point", "coordinates": [-95.32531, 28.96182]}, "properties": {"kind": "turbine", "i": 44, "mw": 6.0, "hub_m": 120.0, "rotor_m": 150.0}}, {"type": "Feature", "geometry": {"type": "Point", "coordinates": [-95.31092, 28.98842]}, "properties": {"kind": "turbine", "i": 45, "mw": 6.0, "hub_m": 120.0, "rotor_m": 150.0}}, {"type": "Feature", "geometry": {"type": "Point", "coordinates": [-95.3653, 29.07313]}, "properties": {"kind": "turbine", "i": 46, "mw": 6.0, "hub_m": 120.0, "rotor_m": 150.0}}, {"type": "Feature", "geometry": {"type": "Point", "coordinates": [-95.47657, 29.02171]}, "properties": {"kind": "turbine", "i": 47, "mw": 6.0, "hub_m": 120.0, "rotor_m": 150.0}}, {"type": "Feature", "geometry": {"type": "Point", "coordinates": [-95.31958, 29.04098]}, "properties": {"kind": "turbine", "i": 48, "mw": 6.0, "hub_m": 120.0, "rotor_m": 150.0}}, {"type": "Feature", "geometry": {"type": "Point", "coordinates": [-95.48008, 29.01176]}, "properties": {"kind": "turbine", "i": 49, "mw": 6.0, "hub_m": 120.0, "rotor_m": 150.0}}, {"type": "Feature", "geometry": {"type": "Point", "coordinates": [-95.38704, 29.08201]}, "properties": {"kind": "turbine", "i": 50, "mw": 6.0, "hub_m": 120.0, "rotor_m": 150.0}}, {"type": "Feature", "geometry": {"type": "Point", "coordinates": [-95.39927, 29.08241]}, "properties": {"kind": "turbine", "i": 51, "mw": 6.0, "hub_m": 120.0, "rotor_m": 150.0}}, {"type": "Feature", "geometry": {"type": "Point", "coordinates": [-95.48319, 28.98535]}, "properties": {"kind": "turbine", "i": 52, "mw": 6.0, "hub_m": 120.0, "rotor_m": 150.0}}, {"type": "Feature", "geometry": {"type": "Point", "coordinates": [-95.47696, 29.03817]}, "properties": {"kind": "turbine", "i": 53, "mw": 6.0, "hub_m": 120.0, "rotor_m": 150.0}}, {"type": "Feature", "geometry": {"type": "Point", "coordinates": [-95.30415, 29.02148]}, "properties": {"kind": "turbine", "i": 54, "mw": 6.0, "hub_m": 120.0, "rotor_m": 150.0}}, {"type": "Feature", "geometry": {"type": "Point", "coordinates": [-95.48718, 28.99516]}, "properties": {"kind": "turbine", "i": 55, "mw": 6.0, "hub_m": 120.0, "rotor_m": 150.0}}, {"type": "Feature", "geometry": {"type": "Point", "coordinates": [-95.35452, 28.92837]}, "properties": {"kind": "turbine", "i": 56, "mw": 6.0, "hub_m": 120.0, "rotor_m": 150.0}}, {"type": "Feature", "geometry": {"type": "Point", "coordinates": [-95.42176, 29.08201]}, "properties": {"kind": "turbine", "i": 57, "mw": 6.0, "hub_m": 120.0, "rotor_m": 150.0}}, {"type": "Feature", "geometry": {"type": "Point", "coordinates": [-95.31988, 29.05416]}, "properties": {"kind": "turbine", "i": 58, "mw": 6.0, "hub_m": 120.0, "rotor_m": 150.0}}, {"type": "Feature", "geometry": {"type": "Point", "coordinates": [-95.44409, 29.07501]}, "properties": {"kind": "turbine", "i": 59, "mw": 6.0, "hub_m": 120.0, "rotor_m": 150.0}}, {"type": "Feature", "geometry": {"type": "Point", "coordinates": [-95.33524, 29.07036]}, "properties": {"kind": "turbine", "i": 60, "mw": 6.0, "hub_m": 120.0, "rotor_m": 150.0}}, {"type": "Feature", "geometry": {"type": "Point", "coordinates": [-95.3731, 29.08617]}, "properties": {"kind": "turbine", "i": 61, "mw": 6.0, "hub_m": 120.0, "rotor_m": 150.0}}, {"type": "Feature", "geometry": {"type": "Point", "coordinates": [-95.30452, 29.03795]}, "properties": {"kind": "turbine", "i": 62, "mw": 6.0, "hub_m": 120.0, "rotor_m": 150.0}}, {"type": "Feature", "geometry": {"type": "Point", "coordinates": [-95.49139, 29.01485]}, "properties": {"kind": "turbine", "i": 63, "mw": 6.0, "hub_m": 120.0, "rotor_m": 150.0}}, {"type": "Feature", "geometry": {"type": "Point", "coordinates": [-95.48662, 28.97211]}, "properties": {"kind": "turbine", "i": 64, "mw": 6.0, "hub_m": 120.0, "rotor_m": 150.0}}, {"type": "Feature", "geometry": {"type": "Point", "coordinates": [-95.30849, 29.04776]}, "properties": {"kind": "turbine", "i": 65, "mw": 6.0, "hub_m": 120.0, "rotor_m": 150.0}}, {"type": "Feature", "geometry": {"type": "Point", "coordinates": [-95.48812, 29.03467]}, "properties": {"kind": "turbine", "i": 66, "mw": 6.0, "hub_m": 120.0, "rotor_m": 150.0}}, {"type": "Feature", "geometry": {"type": "Point", "coordinates": [-95.4949, 29.0049]}, "properties": {"kind": "turbine", "i": 67, "mw": 6.0, "hub_m": 120.0, "rotor_m": 150.0}}, {"type": "Feature", "geometry": {"type": "Point", "coordinates": [-95.46268, 29.06808]}, "properties": {"kind": "turbine", "i": 68, "mw": 6.0, "hub_m": 120.0, "rotor_m": 150.0}}, {"type": "Feature", "geometry": {"type": "Point", "coordinates": [-95.35053, 29.08327]}, "properties": {"kind": "turbine", "i": 69, "mw": 6.0, "hub_m": 120.0, "rotor_m": 150.0}}, {"type": "Feature", "geometry": {"type": "Point", "coordinates": [-95.3845, 29.09256]}, "properties": {"kind": "turbine", "i": 70, "mw": 6.0, "hub_m": 120.0, "rotor_m": 150.0}}, {"type": "Feature", "geometry": {"type": "Point", "coordinates": [-95.32017, 29.06733]}, "properties": {"kind": "turbine", "i": 71, "mw": 6.0, "hub_m": 120.0, "rotor_m": 150.0}}, {"type": "Feature", "geometry": {"type": "Point", "coordinates": [-95.43316, 29.08839]}, "properties": {"kind": "turbine", "i": 72, "mw": 6.0, "hub_m": 120.0, "rotor_m": 150.0}}, {"type": "Feature", "geometry": {"type": "Point", "coordinates": [-95.49833, 28.99166]}, "properties": {"kind": "turbine", "i": 73, "mw": 6.0, "hub_m": 120.0, "rotor_m": 150.0}}, {"type": "Feature", "geometry": {"type": "Point", "coordinates": [-95.28917, 29.02174]}, "properties": {"kind": "turbine", "i": 74, "mw": 6.0, "hub_m": 120.0, "rotor_m": 150.0}}, {"type": "Feature", "geometry": {"type": "Point", "coordinates": [-95.36201, 29.09295]}, "properties": {"kind": "turbine", "i": 75, "mw": 6.0, "hub_m": 120.0, "rotor_m": 150.0}}, {"type": "Feature", "geometry": {"type": "Point", "coordinates": [-95.45916, 29.07803]}, "properties": {"kind": "turbine", "i": 76, "mw": 6.0, "hub_m": 120.0, "rotor_m": 150.0}}, {"type": "Feature", "geometry": {"type": "Point", "coordinates": [-95.30878, 29.06094]}, "properties": {"kind": "turbine", "i": 77, "mw": 6.0, "hub_m": 120.0, "rotor_m": 150.0}}, {"type": "Feature", "geometry": {"type": "Point", "coordinates": [-95.33171, 29.08031]}, "properties": {"kind": "turbine", "i": 78, "mw": 6.0, "hub_m": 120.0, "rotor_m": 150.0}}, {"type": "Feature", "geometry": {"type": "Point", "coordinates": [-95.49005, 28.95887]}, "properties": {"kind": "turbine", "i": 79, "mw": 6.0, "hub_m": 120.0, "rotor_m": 150.0}}, {"type": "Feature", "geometry": {"type": "Point", "coordinates": [-95.42207, 29.09518]}, "properties": {"kind": "turbine", "i": 80, "mw": 6.0, "hub_m": 120.0, "rotor_m": 150.0}}, {"type": "Feature", "geometry": {"type": "Point", "coordinates": [-95.50184, 28.98171]}, "properties": {"kind": "turbine", "i": 81, "mw": 6.0, "hub_m": 120.0, "rotor_m": 150.0}}]}