{"type": "FeatureCollection", "features": [{"type": "Feature", "geometry": {"type": "MultiPolygon", "coordinates": [[[[-95.42029, 29.08568], [-95.41916, 29.08348], [-95.41945, 29.08182], [-95.41918, 29.0802], [-95.41974, 29.0801], [-95.42241, 29.0815], [-95.4244, 29.08179], [-95.42443, 29.08478], [-95.42029, 29.08568]]], [[[-95.40649, 29.07053], [-95.40734, 29.0735], [-95.40611, 29.07463], [-95.40555, 29.07631], [-95.40326, 29.07546], [-95.40061, 29.07533], [-95.40057, 29.07408], [-95.39924, 29.07279], [-95.39903, 29.07113], [-95.4002, 29.06934], [-95.40192, 29.06869], [-95.40439, 29.06666], [-95.4053, 29.06922], [-95.40649, 29.07053]]], [[[-95.38277, 29.00975], [-95.38243, 29.01209], [-95.38037, 29.0112], [-95.37428, 29.01127], [-95.37427, 29.01091], [-95.37544, 29.01034], [-95.3777, 29.00834], [-95.37959, 29.00811], [-95.38112, 29.00724], [-95.38283, 29.00932], [-95.38277, 29.00975]]], [[[-95.35716, 29.00917], [-95.35752, 29.01098], [-95.35818, 29.01183], [-95.35945, 29.01235], [-95.36231, 29.01259], [-95.36415, 29.01502], [-95.36662, 29.01586], [-95.36075, 29.01713], [-95.3588, 29.01805], [-95.35526, 29.02106], [-95.35314, 29.02371], [-95.35137, 29.02467], [-95.3528, 29.02012], [-95.35448, 29.01963], [-95.3561, 29.01834], [-95.3577, 29.01532], [-95.35769, 29.01278], [-95.35697, 29.01169], [-95.35543, 29.01114], [-95.35339, 29.01174], [-95.34945, 29.00737], [-95.34813, 29.00667], [-95.346, 29.00619], [-95.34328, 29.00672], [-95.34125, 29.00661], [-95.33995, 29.0074], [-95.33945, 29.00864], [-95.33968, 29.01355], [-95.33589, 29.01175], [-95.33292, 29.01108], [-95.33172, 29.00948], [-95.33265, 29.00882], [-95.33413, 29.0087], [-95.33518, 29.00805], [-95.33563, 29.00675], [-95.33668, 29.00574], [-95.33686, 29.00452], [-95.33775, 29.00313], [-95.33725, 29.00029], [-95.338, 28.99765], [-95.33728, 28.9936], [-95.3391, 28.99127], [-95.34155, 28.99299], [-95.34342, 28.99343], [-95.34359, 28.99978], [-95.3442, 29.00097], [-95.34584, 29.0017], [-95.35053, 29.00165], [-95.35119, 29.00232], [-95.35133, 29.00574], [-95.35221, 29.00745], [-95.35409, 29.00871], [-95.35716, 29.00917]]], [[[-95.34238, 28.96227], [-95.34299, 28.96296], [-95.34451, 28.96434], [-95.34197, 28.96246], [-95.34238, 28.96227]]], [[[-95.35114, 28.93399], [-95.34853, 28.92965], [-95.36109, 28.92507], [-95.3603, 28.92617], [-95.35679, 28.9292], [-95.35625, 28.93045], [-95.35399, 28.93298], [-95.35248, 28.93316], [-95.35114, 28.93399]]], [[[-95.37608, 28.94053], [-95.37746, 28.94051], [-95.377, 28.94237], [-95.37566, 28.94267], [-95.37381, 28.94141], [-95.37468, 28.94019], [-95.37608, 28.94053]]], [[[-95.42547, 29.00484], [-95.42556, 29.00893], [-95.42346, 29.00808], [-95.4234, 29.00509], [-95.42444, 29.0044], [-95.42547, 29.00484]]], [[[-95.41899, 29.00499], [-95.41903, 29.00685], [-95.41721, 29.00675], [-95.41739, 29.00569], [-95.41895, 29.00472], [-95.41899, 29.00499]]], [[[-95.38076, 28.99806], [-95.3802, 28.99834], [-95.37877, 28.99641], [-95.37929, 28.99644], [-95.38076, 28.99806]]], [[[-95.43406, 29.06745], [-95.4331, 29.06682], [-95.43101, 29.06629], [-95.43415, 29.06632], [-95.43406, 29.06745]]], [[[-95.4444, 29.07558], [-95.43754, 29.06749], [-95.43753, 29.06699], [-95.44458, 29.0753], [-95.4458, 29.0759], [-95.44543, 29.0761], [-95.4444, 29.07558]]], [[[-95.4546, 29.07036], [-95.45451, 29.0672], [-95.45639, 29.06743], [-95.45918, 29.06711], [-95.4546, 29.07036]]], [[[-95.36523, 29.00318], [-95.36713, 29.00282], [-95.36838, 29.00207], [-95.36817, 29.00368], [-95.36565, 29.00374], [-95.36523, 29.00318]]], [[[-95.43452, 29.08117], [-95.43452, 29.08117], [-95.43436, 29.07526], [-95.43452, 29.08117]]], [[[-95.49153, 28.9976], [-95.48424, 29.00838], [-95.46834, 29.00427], [-95.4656, 29.00396], [-95.46453, 29.00322], [-95.4628, 29.00306], [-95.46194, 29.00243], [-95.46306, 29.00037], [-95.46436, 28.99975], [-95.4657, 29.00031], [-95.467, 29.00029], [-95.47014, 28.99824], [-95.47306, 28.99818], [-95.4746, 28.99698], [-95.47452, 28.99518], [-95.47289, 28.99408], [-95.46863, 28.99407], [-95.46642, 28.9955], [-95.46572, 28.99536], [-95.4721, 28.98348], [-95.47481, 28.98412], [-95.47565, 28.98526], [-95.47672, 28.98574], [-95.47907, 28.98562], [-95.48042, 28.98432], [-95.48543, 28.98607], [-95.49008, 28.98709], [-95.49118, 28.9928], [-95.49153, 28.9976]]], [[[-95.48657, 29.02128], [-95.48208, 29.02158], [-95.48637, 29.01352], [-95.49087, 29.01465], [-95.48959, 29.02107], [-95.48657, 29.02128]]], [[[-95.45154, 28.95591], [-95.45178, 28.95564], [-95.45244, 28.95645], [-95.45513, 28.95811], [-95.45602, 28.96016], [-95.45834, 28.96137], [-95.45834, 28.96232], [-95.45899, 28.96353], [-95.46085, 28.96438], [-95.45973, 28.96541], [-95.45907, 28.96428], [-95.4577, 28.96368], [-95.45674, 28.96156], [-95.45578, 28.96062], [-95.45417, 28.96027], [-95.45183, 28.96096], [-95.45154, 28.95591]]], [[[-95.44597, 28.96289], [-95.44431, 28.96346], [-95.44008, 28.95362], [-95.4409, 28.95308], [-95.44147, 28.9521], [-95.44326, 28.95145], [-95.4468, 28.95236], [-95.44756, 28.95334], [-95.44614, 28.95401], [-95.44534, 28.95531], [-95.44659, 28.95865], [-95.44542, 28.95945], [-95.445, 28.96048], [-95.44532, 28.96182], [-95.44638, 28.96276], [-95.44597, 28.96289]]], [[[-95.45776, 28.98037], [-95.4593, 28.98142], [-95.46116, 28.98184], [-95.46144, 28.98356], [-95.4627, 28.98479], [-95.46421, 28.98509], [-95.46635, 28.98435], [-95.46668, 28.9845], [-95.46045, 28.99615], [-95.45714, 28.99709], [-95.45586, 28.99665], [-95.45618, 28.9952], [-95.45597, 28.99416], [-95.45453, 28.99235], [-95.4537, 28.99039], [-95.45627, 28.98851], [-95.45667, 28.98653], [-95.45596, 28.98513], [-95.45373, 28.98429], [-95.45256, 28.98274], [-95.45273, 28.98061], [-95.45227, 28.97851], [-95.45702, 28.97748], [-95.45707, 28.97913], [-95.45776, 28.98037]]], [[[-95.48507, 28.97216], [-95.4841, 28.97055], [-95.48211, 28.9703], [-95.48209, 28.96944], [-95.48462, 28.97074], [-95.48507, 28.97216]]], [[[-95.47662, 28.97654], [-95.47706, 28.9762], [-95.4776, 28.97794], [-95.4769, 28.9784], [-95.47517, 28.97774], [-95.47565, 28.97687], [-95.47662, 28.97654]]], [[[-95.47118, 28.97465], [-95.47188, 28.97484], [-95.47031, 28.97482], [-95.46927, 28.97543], [-95.46717, 28.9746], [-95.46708, 28.97372], [-95.46646, 28.97289], [-95.46718, 28.9715], [-95.46878, 28.97256], [-95.46973, 28.97414], [-95.47118, 28.97465]]], [[[-95.44528, 28.97544], [-95.44709, 28.97542], [-95.44746, 28.97699], [-95.44605, 28.97661], [-95.44528, 28.97544]]], [[[-95.49135, 29.01038], [-95.48844, 29.00965], [-95.49174, 29.00479], [-95.49159, 29.00966], [-95.49135, 29.01038]]], [[[-95.47595, 29.01055], [-95.4822, 29.01222], [-95.47704, 29.02192], [-95.46619, 29.01969], [-95.46503, 29.01862], [-95.45823, 29.00934], [-95.45968, 29.00664], [-95.4608, 29.00723], [-95.46283, 29.00741], [-95.46408, 29.008], [-95.46715, 29.00836], [-95.47595, 29.01055]]], [[[-95.45343, 29.0007], [-95.45392, 29.00094], [-95.4529, 29.00183], [-95.45005, 28.99791], [-95.44827, 28.99642], [-95.44819, 28.99443], [-95.44762, 28.99272], [-95.44676, 28.99161], [-95.44769, 28.99064], [-95.44778, 28.98952], [-95.44715, 28.98854], [-95.44565, 28.98788], [-95.44755, 28.98441], [-95.45029, 28.98738], [-95.44885, 28.9888], [-95.44859, 28.99063], [-95.45013, 28.99447], [-95.45103, 28.99537], [-95.45086, 28.99664], [-95.4515, 28.99908], [-95.45218, 28.99996], [-95.45343, 29.0007]]], [[[-95.44425, 28.98082], [-95.44463, 28.98083], [-95.44261, 28.9845], [-95.44125, 28.98285], [-95.43931, 28.97923], [-95.43394, 28.97496], [-95.43396, 28.97348], [-95.43493, 28.97245], [-95.43819, 28.97301], [-95.43898, 28.9741], [-95.44026, 28.97473], [-95.44045, 28.97666], [-95.44187, 28.97927], [-95.44298, 28.98041], [-95.44425, 28.98082]]], [[[-95.43037, 28.97779], [-95.4309, 28.97777], [-95.43211, 28.9786], [-95.43004, 28.97862], [-95.42825, 28.97917], [-95.42785, 28.97731], [-95.42849, 28.97695], [-95.43037, 28.97779]]], [[[-95.43906, 28.98778], [-95.43875, 28.98646], [-95.44164, 28.98985], [-95.43927, 28.98988], [-95.43906, 28.98778]]], [[[-95.46366, 29.0229], [-95.4635, 29.02281], [-95.46347, 29.02273], [-95.46372, 29.02289], [-95.46366, 29.0229]]], [[[-95.48026, 29.02717], [-95.48, 29.02653], [-95.48053, 29.02556], [-95.48857, 29.02503], [-95.48846, 29.02543], [-95.4861, 29.02534], [-95.48397, 29.02588], [-95.48032, 29.02762], [-95.48026, 29.02717]]], [[[-95.38751, 29.07557], [-95.38751, 29.07557], [-95.38751, 29.07557], [-95.38751, 29.07557]]], [[[-95.38129, 29.07987], [-95.38191, 29.07958], [-95.39349, 29.0793], [-95.3934, 29.08292], [-95.3929, 29.08327], [-95.39166, 29.08335], [-95.39022, 29.08308], [-95.38832, 29.08402], [-95.38717, 29.08406], [-95.38669, 29.08278], [-95.38599, 29.08232], [-95.38477, 29.08224], [-95.38391, 29.08267], [-95.38405, 29.08487], [-95.37955, 29.08501], [-95.38055, 29.0837], [-95.3805, 29.08028], [-95.38129, 29.07987]]], [[[-95.37721, 29.08501], [-95.37341, 29.08521], [-95.37463, 29.08727], [-95.37217, 29.08678], [-95.37322, 29.08546], [-95.37321, 29.08326], [-95.37617, 29.08312], [-95.37637, 29.08416], [-95.37721, 29.08501]]], [[[-95.39453, 29.08451], [-95.39619, 29.0848], [-95.3977, 29.08382], [-95.3979, 29.07924], [-95.40208, 29.0792], [-95.40308, 29.07952], [-95.39861, 29.0855], [-95.39651, 29.089], [-95.39463, 29.089], [-95.39453, 29.08451]]], [[[-95.39774, 29.03937], [-95.39774, 29.03937], [-95.39774, 29.03937], [-95.39774, 29.03937]]], [[[-95.39756, 29.04594], [-95.39831, 29.04571], [-95.39892, 29.04746], [-95.4003, 29.04869], [-95.39982, 29.05129], [-95.40048, 29.05352], [-95.40158, 29.05496], [-95.4017, 29.05567], [-95.3995, 29.05812], [-95.39868, 29.05863], [-95.39727, 29.05885], [-95.39343, 29.05716], [-95.39199, 29.05694], [-95.39199, 29.05638], [-95.39341, 29.0556], [-95.39423, 29.05463], [-95.39474, 29.05287], [-95.39444, 29.05169], [-95.39197, 29.04772], [-95.39137, 29.04604], [-95.39161, 29.04506], [-95.3926, 29.04375], [-95.39366, 29.04304], [-95.3938, 29.04447], [-95.39453, 29.04552], [-95.39581, 29.04603], [-95.39756, 29.04594]]], [[[-95.38036, 29.05192], [-95.38704, 29.05649], [-95.38976, 29.05777], [-95.38803, 29.05937], [-95.38655, 29.05812], [-95.38485, 29.05749], [-95.38233, 29.0578], [-95.38107, 29.05699], [-95.37942, 29.05706], [-95.37631, 29.05969], [-95.37458, 29.06046], [-95.37381, 29.06175], [-95.37385, 29.063], [-95.37196, 29.0641], [-95.37092, 29.06574], [-95.36952, 29.06634], [-95.36446, 29.06535], [-95.36087, 29.06525], [-95.35974, 29.06388], [-95.36325, 29.06294], [-95.3643, 29.06389], [-95.36568, 29.06411], [-95.36742, 29.06316], [-95.37369, 29.04478], [-95.37584, 29.04536], [-95.37533, 29.04847], [-95.3783, 29.04907], [-95.37784, 29.05152], [-95.38036, 29.05192]]], [[[-95.3795, 29.04734], [-95.37918, 29.04899], [-95.379, 29.04898], [-95.37947, 29.04716], [-95.3795, 29.04734]]], [[[-95.38306, 29.04491], [-95.38207, 29.0454], [-95.38133, 29.0439], [-95.3822, 29.04462], [-95.38306, 29.04491]]], [[[-95.39197, 28.9766], [-95.39285, 28.97689], [-95.39226, 28.97829], [-95.38693, 28.97439], [-95.38337, 28.97239], [-95.37875, 28.9705], [-95.37802, 28.96981], [-95.37753, 28.9686], [-95.3777, 28.96738], [-95.37986, 28.96148], [-95.38142, 28.96226], [-95.38284, 28.96228], [-95.39196, 28.9645], [-95.39049, 28.96535], [-95.39001, 28.96706], [-95.39078, 28.96949], [-95.39024, 28.97086], [-95.3908, 28.97515], [-95.39197, 28.9766]]], [[[-95.34748, 29.0213], [-95.34804, 29.02116], [-95.34679, 29.02439], [-95.34544, 29.02408], [-95.3458, 29.02128], [-95.34748, 29.0213]]], [[[-95.38032, 29.02066], [-95.38016, 29.01897], [-95.37957, 29.01772], [-95.37815, 29.01614], [-95.37628, 29.01513], [-95.37873, 29.01509], [-95.38017, 29.01592], [-95.38251, 29.01596], [-95.38253, 29.01696], [-95.38135, 29.01762], [-95.38087, 29.01866], [-95.38113, 29.01976], [-95.38205, 29.02055], [-95.38125, 29.02118], [-95.38029, 29.02121], [-95.38032, 29.02066]]], [[[-95.43088, 29.01028], [-95.43062, 29.01084], [-95.43, 29.01052], [-95.42994, 29.00788], [-95.43109, 29.00758], [-95.43181, 29.00861], [-95.43088, 29.01028]]], [[[-95.40218, 28.97931], [-95.40365, 28.98153], [-95.40187, 28.9818], [-95.39876, 28.98137], [-95.3991, 28.97852], [-95.39943, 28.97829], [-95.40223, 28.97753], [-95.40218, 28.97931]]], [[[-95.34467, 28.96447], [-95.34457, 28.96438], [-95.34475, 28.96452], [-95.34467, 28.96447]]], [[[-95.34478, 28.96454], [-95.34564, 28.96503], [-95.34565, 28.96517], [-95.34545, 28.96503], [-95.34478, 28.96454]]], [[[-95.35538, 28.96843], [-95.35515, 28.96817], [-95.35743, 28.96518], [-95.35763, 28.96542], [-95.35538, 28.96843]]], [[[-95.48238, 29.03966], [-95.48013, 29.03886], [-95.47788, 29.03919], [-95.47675, 29.03985], [-95.47591, 29.04173], [-95.47554, 29.0417], [-95.47499, 29.0402], [-95.47484, 29.03678], [-95.47644, 29.03497], [-95.47751, 29.03447], [-95.47989, 29.03462], [-95.4864, 29.03112], [-95.4852, 29.03428], [-95.48238, 29.03966]]], [[[-95.40808, 28.97597], [-95.40784, 28.97528], [-95.4089, 28.97558], [-95.40986, 28.97708], [-95.40825, 28.97722], [-95.40808, 28.97597]]], [[[-95.40605, 28.9685], [-95.40555, 28.96891], [-95.40514, 28.96758], [-95.40668, 28.96793], [-95.40605, 28.9685]]], [[[-95.42399, 28.98125], [-95.42154, 28.97912], [-95.42146, 28.97858], [-95.42274, 28.97839], [-95.42337, 28.97894], [-95.42417, 28.98148], [-95.42399, 28.98125]]], [[[-95.43392, 28.99041], [-95.42921, 28.98701], [-95.4247, 28.98212], [-95.42582, 28.98291], [-95.42822, 28.98343], [-95.43102, 28.98276], [-95.43295, 28.983], [-95.43438, 28.98871], [-95.43451, 28.99091], [-95.43392, 28.99041]]], [[[-95.43676, 28.99363], [-95.43759, 28.99394], [-95.43664, 28.99547], [-95.4361, 28.99326], [-95.43676, 28.99363]]], [[[-95.41129, 28.96909], [-95.411, 28.96892], [-95.41165, 28.96908], [-95.4115, 28.96908], [-95.41129, 28.96909]]], [[[-95.44405, 29.01295], [-95.44364, 29.01327], [-95.44325, 29.0128], [-95.44443, 29.01274], [-95.44405, 29.01295]]], [[[-95.46722, 29.03511], [-95.46797, 29.03663], [-95.46586, 29.03514], [-95.46541, 29.03356], [-95.46572, 29.03219], [-95.46722, 29.03511]]], [[[-95.4228, 28.9728], [-95.42306, 28.97264], [-95.4241, 28.97431], [-95.42152, 28.97428], [-95.42132, 28.97337], [-95.4228, 28.9728]]], [[[-95.36689, 29.03953], [-95.36697, 29.03986], [-95.36127, 29.04237], [-95.35962, 29.04112], [-95.35702, 29.04082], [-95.35482, 29.03981], [-95.35019, 29.04045], [-95.34872, 29.04139], [-95.34785, 29.04279], [-95.3479, 29.04489], [-95.34888, 29.0464], [-95.34801, 29.04743], [-95.34455, 29.04416], [-95.34296, 29.04408], [-95.34154, 29.04486], [-95.33807, 29.04102], [-95.3333, 29.03359], [-95.33463, 29.03345], [-95.33763, 29.03213], [-95.33885, 29.03094], [-95.33945, 29.02843], [-95.33844, 29.02537], [-95.33772, 29.02435], [-95.33677, 29.02376], [-95.33431, 29.02394], [-95.33272, 29.02547], [-95.33305, 29.02792], [-95.33172, 29.02777], [-95.33146, 29.02629], [-95.33049, 29.02541], [-95.3309, 29.02314], [-95.33067, 29.01567], [-95.33412, 29.01641], [-95.34007, 29.01932], [-95.34037, 29.02189], [-95.33967, 29.0237], [-95.33975, 29.02505], [-95.34088, 29.02698], [-95.3409, 29.02768], [-95.34159, 29.02792], [-95.3416, 29.02762], [-95.34374, 29.02908], [-95.3421, 29.02948], [-95.34172, 29.03007], [-95.34207, 29.03027], [-95.34369, 29.02976], [-95.34384, 29.03035], [-95.34473, 29.03101], [-95.34481, 29.03213], [-95.34378, 29.03208], [-95.34383, 29.03109], [-95.34319, 29.03052], [-95.34218, 29.03058], [-95.34091, 29.03187], [-95.34114, 29.03215], [-95.35557, 29.0329], [-95.35609, 29.03243], [-95.35473, 29.03083], [-95.35428, 29.03131], [-95.35352, 29.03047], [-95.35399, 29.02999], [-95.3556, 29.03102], [-95.3577, 29.03084], [-95.35888, 29.03207], [-95.37401, 29.01953], [-95.37469, 29.01976], [-95.37515, 29.0204], [-95.37483, 29.0214], [-95.36621, 29.02828], [-95.36848, 29.03034], [-95.36728, 29.03256], [-95.36668, 29.03497], [-95.36689, 29.03953]], [[-95.33807, 29.03307], [-95.33802, 29.03279], [-95.33886, 29.03275], [-95.33883, 29.03208], [-95.33655, 29.03272], [-95.33652, 29.03377], [-95.33708, 29.03377], [-95.33711, 29.03343], [-95.33807, 29.03307]]], [[[-95.3478, 29.05017], [-95.34828, 29.05101], [-95.34927, 29.05189], [-95.34831, 29.05225], [-95.34695, 29.05079], [-95.3478, 29.05017]]], [[[-95.32561, 29.02483], [-95.32606, 29.0249], [-95.32532, 29.02764], [-95.32586, 29.0303], [-95.33502, 29.04389], [-95.33395, 29.04469], [-95.33355, 29.04559], [-95.33358, 29.04374], [-95.33292, 29.04252], [-95.32535, 29.03801], [-95.32464, 29.03549], [-95.32108, 29.0298], [-95.3197, 29.02903], [-95.31764, 29.02883], [-95.31658, 29.02813], [-95.31481, 29.02783], [-95.31468, 29.0264], [-95.31567, 29.02414], [-95.31526, 29.02073], [-95.31411, 29.01899], [-95.31325, 29.01823], [-95.31191, 29.0178], [-95.30831, 29.01809], [-95.31074, 29.01637], [-95.31266, 29.01636], [-95.31517, 29.01502], [-95.31641, 29.01513], [-95.32378, 29.0218], [-95.32389, 29.02356], [-95.32561, 29.02483]]], [[[-95.36526, 29.05488], [-95.36413, 29.05828], [-95.35622, 29.06041], [-95.35437, 29.05862], [-95.35536, 29.05775], [-95.35607, 29.05631], [-95.35609, 29.05494], [-95.35567, 29.05389], [-95.35678, 29.05194], [-95.3584, 29.05127], [-95.35952, 29.05032], [-95.36028, 29.04882], [-95.36028, 29.04736], [-95.36921, 29.0432], [-95.36526, 29.05488]]], [[[-95.30037, 29.02667], [-95.30006, 29.02688], [-95.29993, 29.02647], [-95.30037, 29.02667]]], [[[-95.30438, 29.02445], [-95.30443, 29.02477], [-95.30394, 29.02487], [-95.30079, 29.02341], [-95.30616, 29.01961], [-95.30455, 29.0231], [-95.30438, 29.02445]]], [[[-95.33155, 29.06897], [-95.33142, 29.06791], [-95.33256, 29.06693], [-95.33305, 29.06592], [-95.33489, 29.06727], [-95.33677, 29.06755], [-95.3355, 29.0694], [-95.33543, 29.07186], [-95.33155, 29.06897]]], [[[-95.33982, 29.0715], [-95.33981, 29.07068], [-95.34112, 29.06885], [-95.34289, 29.07196], [-95.34577, 29.07399], [-95.3445, 29.07514], [-95.3443, 29.07703], [-95.33992, 29.07467], [-95.33982, 29.0715]]], [[[-95.31755, 29.05644], [-95.31775, 29.055], [-95.31701, 29.05185], [-95.31793, 29.0526], [-95.32027, 29.05362], [-95.32313, 29.05447], [-95.32525, 29.05459], [-95.32232, 29.0572], [-95.31966, 29.05899], [-95.31755, 29.05644]]], [[[-95.34696, 29.01548], [-95.34499, 29.01685], [-95.34447, 29.01627], [-95.34615, 29.01337], [-95.34771, 29.01526], [-95.34696, 29.01548]]], [[[-95.37182, 29.03506], [-95.37209, 29.03429], [-95.37236, 29.03622], [-95.37178, 29.03697], [-95.37182, 29.03506]]], [[[-95.32572, 28.96447], [-95.32271, 28.96455], [-95.32334, 28.96267], [-95.32267, 28.9606], [-95.32302, 28.9603], [-95.3262, 28.96028], [-95.32629, 28.96375], [-95.32572, 28.96447]]], [[[-95.38348, 29.07235], [-95.38012, 29.07377], [-95.37922, 29.07456], [-95.37924, 29.07286], [-95.3785, 29.07182], [-95.38073, 29.07071], [-95.38317, 29.06839], [-95.3853, 29.06571], [-95.38584, 29.06362], [-95.38721, 29.0642], [-95.38926, 29.06414], [-95.39041, 29.06346], [-95.39232, 29.0614], [-95.39523, 29.06275], [-95.39712, 29.06311], [-95.40022, 29.06266], [-95.40202, 29.06172], [-95.40076, 29.06389], [-95.39924, 29.06517], [-95.39752, 29.06508], [-95.39615, 29.06561], [-95.3952, 29.06632], [-95.39432, 29.06765], [-95.39289, 29.06866], [-95.3915, 29.06897], [-95.39024, 29.068], [-95.38856, 29.0681], [-95.38645, 29.0692], [-95.3858, 29.07023], [-95.38422, 29.07083], [-95.38348, 29.07235]]], [[[-95.36544, 29.07236], [-95.36709, 29.07485], [-95.36489, 29.07595], [-95.36247, 29.07232], [-95.36237, 29.07065], [-95.36345, 29.07188], [-95.36544, 29.07236]]], [[[-95.37185, 29.07047], [-95.37185, 29.07062], [-95.37151, 29.07062], [-95.37171, 29.07054], [-95.37185, 29.07047]]], [[[-95.36098, 29.0787], [-95.36128, 29.0782], [-95.36217, 29.07954], [-95.36139, 29.08077], [-95.36104, 29.08394], [-95.36017, 29.08368], [-95.35934, 29.08111], [-95.35846, 29.08034], [-95.3567, 29.07942], [-95.35643, 29.07915], [-95.35754, 29.07962], [-95.35931, 29.07959], [-95.36098, 29.0787]]], [[[-95.35622, 29.07473], [-95.35591, 29.07509], [-95.35564, 29.07378], [-95.35641, 29.07366], [-95.35622, 29.07473]]], [[[-95.35176, 29.07678], [-95.35169, 29.07672], [-95.35175, 29.07668], [-95.35176, 29.07678]]], [[[-95.33903, 29.05398], [-95.33867, 29.0542], [-95.33847, 29.0539], [-95.33895, 29.0533], [-95.33903, 29.05398]]], [[[-95.33644, 29.04984], [-95.33674, 29.04976], [-95.33687, 29.04971], [-95.33657, 29.05], [-95.33644, 29.04984]]], [[[-95.3313, 29.05177], [-95.33195, 29.05228], [-95.33078, 29.05325], [-95.32973, 29.05118], [-95.32847, 29.05015], [-95.32681, 29.04965], [-95.32451, 29.04987], [-95.32185, 29.04909], [-95.31692, 29.04565], [-95.31452, 29.04452], [-95.31107, 29.0446], [-95.30918, 29.04589], [-95.30439, 29.03764], [-95.30521, 29.03716], [-95.30755, 29.03775], [-95.30805, 29.03956], [-95.30997, 29.04047], [-95.31189, 29.03989], [-95.31587, 29.04009], [-95.32002, 29.03885], [-95.32145, 29.04121], [-95.32842, 29.04522], [-95.32908, 29.05001], [-95.32986, 29.05105], [-95.3313, 29.05177]]], [[[-95.32794, 29.06165], [-95.3273, 29.0614], [-95.33368, 29.05617], [-95.33344, 29.05789], [-95.33388, 29.0591], [-95.33547, 29.06047], [-95.33739, 29.06081], [-95.33679, 29.06267], [-95.33444, 29.06061], [-95.33196, 29.05958], [-95.32973, 29.06003], [-95.32794, 29.06165]]], [[[-95.34684, 29.06875], [-95.34675, 29.06865], [-95.34655, 29.06831], [-95.34694, 29.06829], [-95.34684, 29.06875]]], [[[-95.3084, 28.98968], [-95.31038, 28.98837], [-95.31146, 28.98835], [-95.31148, 28.98874], [-95.31206, 28.98874], [-95.31201, 28.98963], [-95.31118, 28.99022], [-95.31068, 28.99117], [-95.30856, 28.9906], [-95.3084, 28.98968]]], [[[-95.30164, 28.98549], [-95.30171, 28.9846], [-95.30194, 28.98395], [-95.30202, 28.98633], [-95.30155, 28.98599], [-95.30164, 28.98549]]], [[[-95.32995, 28.9832], [-95.3303, 28.98344], [-95.33, 28.98411], [-95.32899, 28.98295], [-95.32995, 28.9832]]], [[[-95.32271, 29.0105], [-95.32191, 29.01066], [-95.32183, 29.00932], [-95.32315, 29.00932], [-95.32271, 29.0105]]], [[[-95.30915, 29.01224], [-95.30851, 29.01224], [-95.30786, 29.01152], [-95.31016, 29.0099], [-95.31169, 29.01116], [-95.31047, 29.01204], [-95.30915, 29.01224]]], [[[-95.30267, 28.99609], [-95.302, 28.99449], [-95.30176, 28.99406], [-95.30222, 28.99408], [-95.30254, 28.99547], [-95.30381, 28.99678], [-95.30281, 28.99664], [-95.30267, 28.99609]]], [[[-95.31762, 28.98832], [-95.31749, 28.98988], [-95.31712, 28.98984], [-95.31716, 28.98937], [-95.31762, 28.98832]]], [[[-95.48283, 28.97573], [-95.48304, 28.97635], [-95.48384, 28.97749], [-95.48289, 28.97767], [-95.48283, 28.97573]]], [[[-95.45199, 28.97399], [-95.45257, 28.97317], [-95.45442, 28.97385], [-95.4542, 28.97423], [-95.45141, 28.97471], [-95.45133, 28.97436], [-95.45199, 28.97399]]], [[[-95.45354, 28.96628], [-95.45384, 28.96568], [-95.45437, 28.96658], [-95.45366, 28.96662], [-95.45354, 28.96628]]], [[[-95.4053, 29.08767], [-95.40539, 29.0874], [-95.40569, 29.08674], [-95.40501, 29.08848], [-95.4053, 29.08767]]], [[[-95.41873, 28.98529], [-95.41722, 28.986], [-95.4167, 28.98557], [-95.41676, 28.98462], [-95.41615, 28.98347], [-95.41757, 28.98391], [-95.41873, 28.98529]]], [[[-95.40121, 28.96666], [-95.40122, 28.96666], [-95.40245, 28.96694], [-95.40097, 28.96737], [-95.40095, 28.9666], [-95.40121, 28.96666]]], [[[-95.3869, 29.01527], [-95.38694, 29.01526], [-95.3869, 29.01532], [-95.3869, 29.01527]]], [[[-95.39428, 29.07542], [-95.3942, 29.07391], [-95.39427, 29.07388], [-95.39428, 29.07542]]]]}, "properties": {"kind": "windland", "area_km2": 33.63}}, {"type": "Feature", "geometry": {"type": "MultiPolygon", "coordinates": [[[[-95.41353, 29.00624], [-95.41395, 29.00594], [-95.41399, 29.00538], [-95.41366, 29.00501], [-95.41315, 29.00497], [-95.41313, 29.00444], [-95.41368, 29.00451], [-95.41414, 29.00413], [-95.41455, 29.00413], [-95.41466, 29.00864], [-95.41325, 29.00866], [-95.41318, 29.00625], [-95.41353, 29.00624]]], [[[-95.40914, 29.00872], [-95.40648, 29.00873], [-95.4031, 29.00744], [-95.40342, 29.00685], [-95.40673, 29.00812], [-95.41262, 29.00806], [-95.41263, 29.00868], [-95.40914, 29.00872]]], [[[-95.40511, 29.00918], [-95.40552, 29.00933], [-95.40571, 29.00939], [-95.40495, 29.00932], [-95.40511, 29.00918]]], [[[-95.41325, 29.01185], [-95.41324, 29.01149], [-95.41472, 29.01146], [-95.41473, 29.01182], [-95.41325, 29.01185]]], [[[-95.41474, 29.01236], [-95.41475, 29.01274], [-95.41326, 29.01275], [-95.41326, 29.01239], [-95.41474, 29.01236]]], [[[-95.40989, 29.01437], [-95.40907, 29.01405], [-95.40789, 29.01391], [-95.40576, 29.01444], [-95.40561, 29.01389], [-95.40486, 29.01361], [-95.40483, 29.01142], [-95.40722, 29.01124], [-95.40834, 29.01136], [-95.40887, 29.01193], [-95.40995, 29.01224], [-95.41047, 29.01217], [-95.41078, 29.01179], [-95.41263, 29.01168], [-95.41272, 29.01562], [-95.40989, 29.01437]]], [[[-95.41327, 29.01329], [-95.41476, 29.01328], [-95.41479, 29.0142], [-95.41332, 29.01422], [-95.41327, 29.01329]]], [[[-95.40399, 29.01488], [-95.40404, 29.01476], [-95.40407, 29.01461], [-95.40422, 29.01484], [-95.40399, 29.01488]]], [[[-95.41332, 29.01498], [-95.41333, 29.01476], [-95.4148, 29.01474], [-95.41481, 29.01507], [-95.41332, 29.01498]]], [[[-95.40869, 29.01454], [-95.41056, 29.01528], [-95.41057, 29.01607], [-95.40857, 29.01615], [-95.40855, 29.01452], [-95.40869, 29.01454]]], [[[-95.40557, 29.01506], [-95.40701, 29.01469], [-95.40724, 29.01717], [-95.40868, 29.01715], [-95.40866, 29.01662], [-95.4093, 29.01663], [-95.40934, 29.01831], [-95.4049, 29.01841], [-95.40489, 29.01804], [-95.40879, 29.01796], [-95.40906, 29.01774], [-95.40881, 29.01742], [-95.40707, 29.01745], [-95.40692, 29.01573], [-95.40483, 29.01566], [-95.40483, 29.01526], [-95.40557, 29.01506]]], [[[-95.40765, 29.01592], [-95.40766, 29.01516], [-95.40793, 29.01513], [-95.40796, 29.01608], [-95.40765, 29.01592]]], [[[-95.41118, 29.01556], [-95.41216, 29.01598], [-95.41216, 29.01605], [-95.41118, 29.01606], [-95.41118, 29.01556]]], [[[-95.41392, 29.01606], [-95.41334, 29.01589], [-95.41334, 29.01563], [-95.41482, 29.01561], [-95.41483, 29.01593], [-95.41392, 29.01606]]], [[[-95.40546, 29.01641], [-95.40527, 29.0162], [-95.40645, 29.01619], [-95.40645, 29.01655], [-95.4055, 29.01656], [-95.40546, 29.01641]]], [[[-95.41462, 29.01647], [-95.41484, 29.01647], [-95.41484, 29.01658], [-95.41462, 29.01647]]], [[[-95.40496, 29.0173], [-95.40536, 29.0171], [-95.40645, 29.01709], [-95.40645, 29.01746], [-95.40488, 29.0175], [-95.40496, 29.0173]]], [[[-95.41273, 29.01659], [-95.41276, 29.01825], [-95.41246, 29.01825], [-95.41242, 29.01656], [-95.41272, 29.01632], [-95.41273, 29.01659]]], [[[-95.41058, 29.01661], [-95.41039, 29.01717], [-95.4106, 29.01717], [-95.41063, 29.01828], [-95.40995, 29.01829], [-95.40992, 29.01662], [-95.41058, 29.01661]]], [[[-95.41125, 29.01827], [-95.4112, 29.0166], [-95.4118, 29.01659], [-95.41184, 29.01826], [-95.41125, 29.01827]]], [[[-95.41451, 29.01803], [-95.41417, 29.01842], [-95.41338, 29.01845], [-95.41337, 29.01811], [-95.41402, 29.01809], [-95.4142, 29.01783], [-95.41401, 29.01759], [-95.41336, 29.01757], [-95.41335, 29.0165], [-95.41486, 29.01719], [-95.41487, 29.0179], [-95.41451, 29.01803]]], [[[-95.41462, 29.01904], [-95.41442, 29.01892], [-95.41488, 29.01847], [-95.4149, 29.01907], [-95.41462, 29.01904]]], [[[-95.41277, 29.01892], [-95.41262, 29.01883], [-95.41254, 29.01879], [-95.41277, 29.01879], [-95.41277, 29.01892]]], [[[-95.40842, 29.02016], [-95.4081, 29.0199], [-95.40806, 29.0192], [-95.4074, 29.0189], [-95.41199, 29.0188], [-95.41129, 29.01908], [-95.41123, 29.01986], [-95.41166, 29.02021], [-95.41251, 29.02022], [-95.41245, 29.02058], [-95.40846, 29.02065], [-95.40842, 29.02016]]], [[[-95.40877, 29.0216], [-95.40838, 29.02164], [-95.40841, 29.0212], [-95.41226, 29.02112], [-95.41211, 29.02151], [-95.40877, 29.0216]]], [[[-95.40899, 29.02212], [-95.4119, 29.02206], [-95.41171, 29.02253], [-95.40843, 29.02263], [-95.40841, 29.02218], [-95.40899, 29.02212]]], [[[-95.4124, 29.02285], [-95.41273, 29.02346], [-95.41199, 29.02349], [-95.41272, 29.02163], [-95.4128, 29.02186], [-95.41251, 29.02224], [-95.4124, 29.02285]]], [[[-95.40858, 29.02327], [-95.4085, 29.02317], [-95.41033, 29.02312], [-95.41023, 29.02336], [-95.40858, 29.02327]]], [[[-95.41369, 29.02348], [-95.41353, 29.02326], [-95.41316, 29.02307], [-95.41424, 29.0231], [-95.41429, 29.02377], [-95.41361, 29.02379], [-95.41369, 29.02348]]], [[[-95.41141, 29.02331], [-95.41127, 29.02428], [-95.41119, 29.02427], [-95.4112, 29.0239], [-95.41065, 29.0238], [-95.41099, 29.0231], [-95.4115, 29.02308], [-95.41141, 29.02331]]], [[[-95.41299, 29.02415], [-95.41295, 29.02451], [-95.4119, 29.02452], [-95.41188, 29.02403], [-95.4131, 29.02398], [-95.41299, 29.02415]]], [[[-95.40425, 29.02441], [-95.40416, 29.02425], [-95.40466, 29.02423], [-95.40477, 29.02465], [-95.40434, 29.02466], [-95.40425, 29.02441]]], [[[-95.40541, 29.02428], [-95.40563, 29.02454], [-95.40651, 29.02453], [-95.40545, 29.02464], [-95.40527, 29.02422], [-95.40541, 29.02428]]], [[[-95.39987, 28.98338], [-95.39581, 28.98284], [-95.39609, 28.98216], [-95.39685, 28.98119], [-95.39712, 28.97968], [-95.39905, 28.97965], [-95.39876, 28.98137], [-95.40187, 28.9818], [-95.40365, 28.98153], [-95.40278, 28.9806], [-95.40226, 28.97959], [-95.40372, 28.97956], [-95.40381, 28.98338], [-95.40185, 28.98367], [-95.39987, 28.98338]]], [[[-95.40383, 28.98418], [-95.40384, 28.98464], [-95.40222, 28.98441], [-95.40324, 28.98425], [-95.40383, 28.98418]]], [[[-95.39482, 29.00491], [-95.39726, 29.00583], [-95.40374, 29.0086], [-95.40091, 29.00794], [-95.39714, 29.00632], [-95.39468, 29.00484], [-95.39482, 29.00491]]], [[[-95.39801, 29.00873], [-95.39847, 29.00862], [-95.39874, 29.00826], [-95.39967, 29.00865], [-95.39968, 29.00962], [-95.39854, 29.00958], [-95.39699, 29.00875], [-95.39653, 29.00885], [-95.39618, 29.00925], [-95.39581, 29.00897], [-95.39603, 29.00842], [-95.39591, 29.0079], [-95.39632, 29.00725], [-95.39741, 29.00771], [-95.39733, 29.00835], [-95.39801, 29.00873]]], [[[-95.40379, 29.00929], [-95.4033, 29.00914], [-95.40307, 29.00905], [-95.40433, 29.00925], [-95.40427, 29.00939], [-95.40379, 29.00929]]], [[[-95.40366, 29.01298], [-95.40338, 29.01346], [-95.40287, 29.01324], [-95.40312, 29.01266], [-95.40298, 29.01226], [-95.40152, 29.01173], [-95.40155, 29.01093], [-95.40132, 29.01056], [-95.40032, 29.01045], [-95.40029, 29.00891], [-95.40253, 29.00987], [-95.4042, 29.01034], [-95.40401, 29.01077], [-95.40421, 29.01127], [-95.40423, 29.01289], [-95.40366, 29.01298]]], [[[-95.40091, 29.01206], [-95.40089, 29.01209], [-95.40085, 29.01206], [-95.40091, 29.01206]]], [[[-95.39991, 29.0122], [-95.39953, 29.01214], [-95.39959, 29.01199], [-95.39992, 29.01218], [-95.39991, 29.0122]]], [[[-95.39872, 29.01264], [-95.39992, 29.01278], [-95.39993, 29.01299], [-95.39631, 29.01305], [-95.3963, 29.01221], [-95.39658, 29.01216], [-95.39659, 29.01281], [-95.39872, 29.01264]]], [[[-95.40092, 29.01275], [-95.40054, 29.01282], [-95.40053, 29.01253], [-95.40092, 29.01275]]], [[[-95.39678, 29.01392], [-95.39634, 29.01389], [-95.39633, 29.01359], [-95.39994, 29.01353], [-95.39995, 29.0139], [-95.39678, 29.01392]]], [[[-95.40136, 29.01353], [-95.40134, 29.01404], [-95.40057, 29.01404], [-95.40055, 29.01336], [-95.40143, 29.01336], [-95.40136, 29.01353]]], [[[-95.39739, 29.01515], [-95.39636, 29.01516], [-95.39636, 29.01443], [-95.39996, 29.01444], [-95.39998, 29.01513], [-95.39739, 29.01515]]], [[[-95.40058, 29.01481], [-95.40058, 29.01458], [-95.40208, 29.01456], [-95.40267, 29.01509], [-95.40059, 29.01512], [-95.40058, 29.01481]]], [[[-95.40297, 29.0156], [-95.40421, 29.0154], [-95.40421, 29.01567], [-95.40061, 29.01574], [-95.40297, 29.0156]]], [[[-95.39637, 29.0157], [-95.39723, 29.01569], [-95.39723, 29.01575], [-95.39638, 29.01577], [-95.39637, 29.0157]]], [[[-95.39785, 29.01574], [-95.39999, 29.01567], [-95.39999, 29.01575], [-95.39891, 29.01572], [-95.39785, 29.01574]]], [[[-95.39937, 29.0163], [-95.4, 29.01629], [-95.40002, 29.01662], [-95.39923, 29.01663], [-95.39922, 29.01629], [-95.39937, 29.0163]]], [[[-95.40422, 29.01621], [-95.40403, 29.01656], [-95.40063, 29.01662], [-95.40062, 29.01628], [-95.40422, 29.01621]]], [[[-95.40256, 29.01712], [-95.40257, 29.01753], [-95.40066, 29.0175], [-95.40065, 29.01716], [-95.40256, 29.01712]]], [[[-95.39639, 29.01633], [-95.39861, 29.01627], [-95.39866, 29.01892], [-95.3979, 29.01881], [-95.39646, 29.019], [-95.39639, 29.01633]]], [[[-95.40393, 29.01849], [-95.40367, 29.01866], [-95.40322, 29.0185], [-95.40317, 29.01711], [-95.40339, 29.01711], [-95.40342, 29.01783], [-95.40368, 29.01802], [-95.40401, 29.01782], [-95.404, 29.0171], [-95.40425, 29.01717], [-95.40428, 29.01846], [-95.40393, 29.01849]]], [[[-95.39974, 29.01891], [-95.39927, 29.01891], [-95.39924, 29.01717], [-95.40003, 29.01717], [-95.40007, 29.01891], [-95.39974, 29.01891]]], [[[-95.40245, 29.01838], [-95.40068, 29.0184], [-95.40067, 29.01804], [-95.40259, 29.018], [-95.4026, 29.01843], [-95.40245, 29.01838]]], [[[-95.40124, 29.01894], [-95.40123, 29.01893], [-95.40125, 29.01893], [-95.40124, 29.01894]]], [[[-95.40242, 29.01898], [-95.4024, 29.01896], [-95.40233, 29.01892], [-95.40248, 29.01891], [-95.40242, 29.01898]]], [[[-95.40269, 29.0196], [-95.40261, 29.01958], [-95.40262, 29.01953], [-95.4027, 29.01956], [-95.40269, 29.0196]]], [[[-95.40262, 29.02115], [-95.40235, 29.02136], [-95.40191, 29.02164], [-95.40202, 29.02103], [-95.40262, 29.02115]]], [[[-95.39623, 29.02212], [-95.39617, 29.02212], [-95.39614, 29.02213], [-95.3962, 29.0221], [-95.39623, 29.02212]]], [[[-95.39789, 29.02279], [-95.39785, 29.02288], [-95.39734, 29.02228], [-95.39818, 29.02228], [-95.39835, 29.02243], [-95.39789, 29.02279]]], [[[-95.39908, 29.02261], [-95.39894, 29.02249], [-95.39917, 29.02236], [-95.39947, 29.02279], [-95.39923, 29.02286], [-95.39908, 29.02261]]], [[[-95.40377, 29.02345], [-95.4044, 29.02342], [-95.40452, 29.02369], [-95.40376, 29.02372], [-95.40377, 29.02345]]], [[[-95.3985, 29.02366], [-95.39856, 29.02366], [-95.39863, 29.02365], [-95.39857, 29.02373], [-95.3985, 29.02366]]], [[[-95.40271, 29.02436], [-95.40337, 29.02419], [-95.40371, 29.02467], [-95.40251, 29.02469], [-95.40271, 29.02436]]], [[[-95.4014, 29.0245], [-95.40149, 29.02463], [-95.40156, 29.02471], [-95.40145, 29.02471], [-95.4014, 29.0245]]], [[[-95.38651, 28.97992], [-95.38638, 28.97996], [-95.38635, 28.97995], [-95.38658, 28.97987], [-95.38651, 28.97992]]], [[[-95.39348, 28.98029], [-95.39269, 28.98056], [-95.39103, 28.97979], [-95.3939, 28.97974], [-95.39348, 28.98029]]], [[[-95.38566, 28.98087], [-95.38609, 28.98044], [-95.38676, 28.98042], [-95.38711, 28.98017], [-95.39017, 28.98218], [-95.39002, 28.98231], [-95.38667, 28.98059], [-95.38487, 28.98134], [-95.38566, 28.98087]]], [[[-95.39409, 28.98239], [-95.39416, 28.9821], [-95.3954, 28.981], [-95.39619, 28.9797], [-95.3965, 28.97969], [-95.39622, 28.98111], [-95.39554, 28.9819], [-95.39521, 28.98273], [-95.39452, 28.98277], [-95.39445, 28.98328], [-95.39231, 28.98288], [-95.39159, 28.98244], [-95.39318, 28.98265], [-95.39409, 28.98239]]], [[[-95.39157, 28.98311], [-95.39136, 28.98299], [-95.39137, 28.98297], [-95.39157, 28.9831], [-95.39157, 28.98311]]], [[[-95.38514, 28.99658], [-95.38537, 28.99673], [-95.38578, 28.99695], [-95.38528, 28.99683], [-95.38514, 28.99658]]], [[[-95.38663, 28.99818], [-95.38719, 28.99932], [-95.39067, 29.00232], [-95.39429, 29.00461], [-95.39119, 29.00329], [-95.38833, 29.0013], [-95.38716, 29.00011], [-95.38578, 28.99776], [-95.38663, 28.99818]]], [[[-95.3863, 29.00076], [-95.38594, 29.00032], [-95.38568, 28.99978], [-95.38645, 29.00089], [-95.3863, 29.00076]]], [[[-95.3844, 28.99799], [-95.38461, 28.99822], [-95.38483, 28.99984], [-95.38527, 29.00088], [-95.38579, 29.00151], [-95.38726, 29.00263], [-95.38709, 29.00314], [-95.38618, 29.00391], [-95.38557, 29.00413], [-95.38503, 29.00413], [-95.38389, 29.00367], [-95.38362, 29.00374], [-95.37987, 29.00203], [-95.37712, 28.99808], [-95.37578, 28.99651], [-95.37347, 28.99434], [-95.38045, 28.9948], [-95.38303, 28.99761], [-95.38359, 28.99793], [-95.3844, 28.99799]], [[-95.38379, 29.00144], [-95.38404, 29.00115], [-95.38405, 29.00078], [-95.38356, 29.00034], [-95.38305, 29.0004], [-95.38274, 29.00073], [-95.38213, 29.00077], [-95.38182, 29.00116], [-95.38192, 29.00163], [-95.38233, 29.00185], [-95.3828, 29.00181], [-95.38314, 29.00151], [-95.38379, 29.00144]], [[-95.37892, 28.99651], [-95.3797, 28.99729], [-95.3802, 28.99834], [-95.38076, 28.99806], [-95.37929, 28.99644], [-95.37877, 28.99641], [-95.37892, 28.99651]]], [[[-95.38683, 29.00413], [-95.38771, 29.00332], [-95.38827, 29.0046], [-95.38602, 29.0046], [-95.38683, 29.00413]]], [[[-95.3913, 29.00548], [-95.39021, 29.00652], [-95.38958, 29.00534], [-95.39006, 29.00526], [-95.39015, 29.00493], [-95.38972, 29.00447], [-95.38913, 29.00451], [-95.38831, 29.00274], [-95.39236, 29.00521], [-95.3913, 29.00548]]], [[[-95.39358, 29.00483], [-95.39405, 29.00511], [-95.39496, 29.00566], [-95.39239, 29.00436], [-95.39358, 29.00483]]], [[[-95.38866, 29.00536], [-95.38868, 29.00536], [-95.38869, 29.00537], [-95.38866, 29.00536]]], [[[-95.38529, 29.00555], [-95.38863, 29.00595], [-95.38896, 29.00622], [-95.38834, 29.00652], [-95.38836, 29.00723], [-95.38906, 29.00751], [-95.38955, 29.00801], [-95.38999, 29.00808], [-95.39024, 29.00855], [-95.38968, 29.00869], [-95.38946, 29.00909], [-95.38658, 29.00914], [-95.38631, 29.00943], [-95.38082, 29.0031], [-95.38302, 29.00427], [-95.38313, 29.00458], [-95.38529, 29.00555]]], [[[-95.39217, 29.00576], [-95.39206, 29.00597], [-95.39189, 29.00582], [-95.39202, 29.00579], [-95.39217, 29.00576]]], [[[-95.39553, 29.00949], [-95.39553, 29.00948], [-95.39554, 29.00948], [-95.39553, 29.00949], [-95.39553, 29.00949]]], [[[-95.38681, 29.01254], [-95.3862, 29.01314], [-95.38497, 29.01339], [-95.38492, 29.01089], [-95.38566, 29.01078], [-95.38636, 29.01097], [-95.38752, 29.01228], [-95.38681, 29.01254]]], [[[-95.39298, 29.01201], [-95.39297, 29.01178], [-95.39254, 29.01178], [-95.39224, 29.01078], [-95.39289, 29.01065], [-95.39337, 29.00987], [-95.39414, 29.01014], [-95.39511, 29.00992], [-95.39484, 29.01027], [-95.39483, 29.01069], [-95.39506, 29.01101], [-95.3955, 29.01112], [-95.39569, 29.01253], [-95.3949, 29.01254], [-95.39483, 29.01192], [-95.39436, 29.01191], [-95.39433, 29.01384], [-95.39449, 29.01405], [-95.39481, 29.01403], [-95.39492, 29.01308], [-95.3957, 29.01307], [-95.39575, 29.01517], [-95.39351, 29.01519], [-95.39309, 29.01373], [-95.39387, 29.01372], [-95.39384, 29.01201], [-95.39298, 29.01201]]], [[[-95.39029, 29.01411], [-95.38736, 29.01066], [-95.3865, 29.00966], [-95.39078, 29.00969], [-95.39092, 29.01003], [-95.38955, 29.00992], [-95.38913, 29.01012], [-95.38759, 29.0102], [-95.38734, 29.01054], [-95.3876, 29.01074], [-95.38887, 29.01068], [-95.38898, 29.01127], [-95.38963, 29.01165], [-95.39018, 29.01162], [-95.39054, 29.01138], [-95.39065, 29.01058], [-95.3913, 29.01055], [-95.39253, 29.01472], [-95.39132, 29.01481], [-95.39129, 29.01539], [-95.39214, 29.01575], [-95.3923, 29.016], [-95.3926, 29.01598], [-95.39284, 29.01645], [-95.39309, 29.01643], [-95.39352, 29.01802], [-95.391, 29.01508], [-95.39029, 29.01411]]], [[[-95.38528, 29.01391], [-95.38652, 29.01361], [-95.38774, 29.01253], [-95.39077, 29.01578], [-95.3889, 29.0158], [-95.38865, 29.01597], [-95.38871, 29.02001], [-95.38711, 29.02003], [-95.38709, 29.0186], [-95.3869, 29.0183], [-95.38505, 29.01825], [-95.38498, 29.01393], [-95.38528, 29.01391]], [[-95.38693, 29.01527], [-95.3869, 29.01527], [-95.3869, 29.01532], [-95.38693, 29.01527]]], [[[-95.39528, 29.01571], [-95.39576, 29.01571], [-95.39578, 29.01668], [-95.39419, 29.01671], [-95.39404, 29.01625], [-95.39363, 29.01609], [-95.39354, 29.01573], [-95.39528, 29.01571]]], [[[-95.39568, 29.01816], [-95.39461, 29.01819], [-95.39434, 29.01724], [-95.39579, 29.01722], [-95.39583, 29.01828], [-95.39568, 29.01816]]], [[[-95.39302, 29.0191], [-95.39221, 29.01927], [-95.39203, 29.01996], [-95.39174, 29.01996], [-95.39158, 29.01925], [-95.39117, 29.01894], [-95.38931, 29.01934], [-95.38925, 29.01633], [-95.39097, 29.01632], [-95.392, 29.01754], [-95.39166, 29.01863], [-95.39208, 29.0187], [-95.39249, 29.01811], [-95.39324, 29.01899], [-95.39302, 29.0191]]], [[[-95.38716, 29.02057], [-95.38761, 29.02056], [-95.38758, 29.02138], [-95.38719, 29.02139], [-95.38716, 29.02057]]], [[[-95.38867, 29.02094], [-95.38868, 29.02137], [-95.3882, 29.02138], [-95.38822, 29.02055], [-95.38867, 29.02055], [-95.38867, 29.02094]]], [[[-95.38689, 29.0224], [-95.38721, 29.02193], [-95.38919, 29.02191], [-95.38932, 29.02223], [-95.38794, 29.02227], [-95.3877, 29.02251], [-95.38792, 29.02279], [-95.38888, 29.02278], [-95.38899, 29.02493], [-95.38599, 29.02499], [-95.38589, 29.02245], [-95.38689, 29.0224]]], [[[-95.38971, 29.02336], [-95.39053, 29.02337], [-95.39056, 29.02382], [-95.38953, 29.02375], [-95.38951, 29.02326], [-95.38971, 29.02336]]], [[[-95.38465, 28.9799], [-95.3846, 28.98006], [-95.38321, 28.98012], [-95.38321, 28.97993], [-95.38465, 28.9799]]], [[[-95.38323, 28.98094], [-95.38322, 28.98066], [-95.38381, 28.98065], [-95.38382, 28.98067], [-95.38323, 28.98094]]], [[[-95.37999, 28.98918], [-95.37994, 28.98918], [-95.37922, 28.9892], [-95.3794, 28.98902], [-95.3799, 28.98901], [-95.37999, 28.98918]]], [[[-95.37687, 28.98963], [-95.37614, 28.98977], [-95.37472, 28.98964], [-95.37588, 28.98917], [-95.3763, 28.98929], [-95.37688, 28.98906], [-95.37793, 28.98904], [-95.37687, 28.98963]]], [[[-95.37446, 28.98951], [-95.37457, 28.98963], [-95.37427, 28.9896], [-95.37441, 28.98954], [-95.37446, 28.98951]]], [[[-95.38153, 28.99031], [-95.3812, 28.98974], [-95.38081, 28.98899], [-95.38138, 28.98898], [-95.38208, 28.99033], [-95.38153, 28.99031]]], [[[-95.38028, 28.99011], [-95.38044, 28.99], [-95.38057, 28.99022], [-95.37983, 28.99014], [-95.38028, 28.99011]]], [[[-95.38016, 28.99121], [-95.37961, 28.99104], [-95.37905, 28.99061], [-95.38097, 28.99095], [-95.38107, 28.99115], [-95.38016, 28.99121]]], [[[-95.37573, 28.9905], [-95.37813, 28.99078], [-95.37986, 28.99171], [-95.38138, 28.99171], [-95.38185, 28.99258], [-95.38091, 28.99227], [-95.3732, 28.99078], [-95.37319, 28.99031], [-95.37573, 28.9905]]], [[[-95.37433, 28.99215], [-95.37422, 28.9921], [-95.37447, 28.99215], [-95.37433, 28.99215]]], [[[-95.38259, 28.99184], [-95.38317, 28.99249], [-95.38359, 28.99332], [-95.38304, 28.99309], [-95.38229, 28.99171], [-95.38259, 28.99184]]], [[[-95.37652, 28.99324], [-95.37325, 28.99326], [-95.37324, 28.9926], [-95.37345, 28.99263], [-95.37652, 28.99324]]], [[[-95.37651, 28.99401], [-95.37596, 28.99397], [-95.37752, 28.99406], [-95.37696, 28.99403], [-95.37651, 28.99401]]], [[[-95.3733, 28.99519], [-95.37354, 28.99548], [-95.3733, 28.99535], [-95.3733, 28.99519]]], [[[-95.37363, 28.99639], [-95.37366, 28.99562], [-95.37541, 28.99768], [-95.37499, 28.99766], [-95.37462, 28.99791], [-95.37392, 28.99782], [-95.37335, 28.99744], [-95.37333, 28.99661], [-95.37363, 28.99639]]], [[[-95.37585, 28.99819], [-95.37605, 28.99843], [-95.37582, 28.99839], [-95.37585, 28.99819]]], [[[-95.37748, 29.00011], [-95.37787, 29.00056], [-95.37656, 28.99993], [-95.37689, 28.99942], [-95.37748, 29.00011]]], [[[-95.37791, 29.0059], [-95.3774, 29.00578], [-95.37534, 29.00592], [-95.37506, 29.00546], [-95.37494, 29.00468], [-95.37459, 29.00447], [-95.37406, 29.00446], [-95.37418, 29.00376], [-95.37468, 29.00365], [-95.37493, 29.00329], [-95.37483, 29.0028], [-95.37509, 29.00248], [-95.37512, 29.00205], [-95.37476, 29.00073], [-95.37502, 29.00034], [-95.37586, 29.00072], [-95.37586, 29.00107], [-95.37621, 29.00162], [-95.37684, 29.00222], [-95.37755, 29.0023], [-95.37803, 29.002], [-95.37819, 29.00208], [-95.37794, 29.00234], [-95.37792, 29.00277], [-95.37851, 29.00328], [-95.37787, 29.00332], [-95.3775, 29.00359], [-95.37743, 29.00419], [-95.37766, 29.00456], [-95.37824, 29.00467], [-95.37983, 29.00444], [-95.3801, 29.00398], [-95.37984, 29.00329], [-95.38138, 29.00478], [-95.38031, 29.00498], [-95.37879, 29.00602], [-95.378, 29.00613], [-95.37791, 29.0059]]], [[[-95.3782, 29.00667], [-95.37922, 29.00644], [-95.38092, 29.00535], [-95.38164, 29.00537], [-95.38216, 29.00569], [-95.38576, 29.01024], [-95.38476, 29.01037], [-95.38433, 29.01071], [-95.38436, 29.01372], [-95.38077, 29.01377], [-95.38064, 29.01308], [-95.38023, 29.01286], [-95.3737, 29.01295], [-95.37356, 29.00674], [-95.3782, 29.00667]], [[-95.38246, 29.00882], [-95.38112, 29.00724], [-95.37959, 29.00811], [-95.3777, 29.00834], [-95.37653, 29.00913], [-95.37544, 29.01034], [-95.37427, 29.01091], [-95.37428, 29.01127], [-95.38037, 29.0112], [-95.3813, 29.01145], [-95.38217, 29.01209], [-95.38243, 29.01209], [-95.38245, 29.01045], [-95.38295, 29.00951], [-95.38246, 29.00882]]], [[[-95.37378, 29.01555], [-95.37377, 29.01575], [-95.37371, 29.01349], [-95.37374, 29.01349], [-95.37378, 29.01555]]], [[[-95.37436, 29.01348], [-95.38011, 29.01341], [-95.38018, 29.014], [-95.38064, 29.01431], [-95.38437, 29.01427], [-95.38444, 29.01829], [-95.38294, 29.01858], [-95.38276, 29.01889], [-95.38307, 29.0191], [-95.38478, 29.01878], [-95.38648, 29.01876], [-95.38649, 29.01947], [-95.38493, 29.01955], [-95.38469, 29.01982], [-95.38496, 29.02008], [-95.38649, 29.02001], [-95.38659, 29.0219], [-95.38313, 29.02195], [-95.38273, 29.02228], [-95.38272, 29.02281], [-95.37852, 29.02296], [-95.37843, 29.02011], [-95.3782, 29.01902], [-95.37689, 29.01738], [-95.37635, 29.01709], [-95.37522, 29.01696], [-95.3744, 29.01584], [-95.37436, 29.01348]], [[-95.38056, 29.01598], [-95.3794, 29.01564], [-95.37873, 29.01509], [-95.37628, 29.01513], [-95.37648, 29.01543], [-95.37728, 29.01563], [-95.37815, 29.01614], [-95.37947, 29.01759], [-95.38016, 29.01897], [-95.38029, 29.02121], [-95.38125, 29.02118], [-95.38205, 29.02055], [-95.38113, 29.01976], [-95.38088, 29.01904], [-95.3809, 29.01847], [-95.3815, 29.01748], [-95.38253, 29.01696], [-95.38251, 29.01596], [-95.38056, 29.01598]]], [[[-95.37403, 29.0163], [-95.37425, 29.01649], [-95.37447, 29.01676], [-95.37379, 29.01678], [-95.37378, 29.01629], [-95.37403, 29.0163]]], [[[-95.37706, 29.01964], [-95.37713, 29.01978], [-95.37508, 29.0216], [-95.37483, 29.0214], [-95.37515, 29.0204], [-95.37501, 29.02006], [-95.37469, 29.01976], [-95.37401, 29.01953], [-95.37523, 29.01852], [-95.37509, 29.01828], [-95.37527, 29.01796], [-95.37652, 29.01873], [-95.37706, 29.01964]]], [[[-95.37735, 29.02296], [-95.37736, 29.02295], [-95.37783, 29.02197], [-95.37791, 29.02297], [-95.37735, 29.02296]]], [[[-95.38387, 29.02486], [-95.38018, 29.02488], [-95.37864, 29.02441], [-95.37856, 29.0235], [-95.38293, 29.02335], [-95.38329, 29.02305], [-95.38332, 29.02248], [-95.38528, 29.02246], [-95.38531, 29.02327], [-95.38468, 29.0233], [-95.3844, 29.02354], [-95.38441, 29.02502], [-95.38387, 29.02486]]], [[[-95.37722, 29.0235], [-95.37794, 29.02351], [-95.37813, 29.02476], [-95.37766, 29.02438], [-95.37719, 29.02514], [-95.37603, 29.02516], [-95.37711, 29.02342], [-95.37722, 29.0235]]], [[[-95.38516, 29.02382], [-95.38533, 29.02381], [-95.38538, 29.025], [-95.38503, 29.025], [-95.38499, 29.02382], [-95.38516, 29.02382]]]]}, "properties": {"kind": "pv", "area_km2": 4.72, "mw": 235.8}}, {"type": "Feature", "geometry": {"type": "Point", "coordinates": [-95.37886, 29.0103]}, "properties": {"kind": "turbine", "i": 0, "mw": 6.0, "hub_m": 120.0, "rotor_m": 150.0}}, {"type": "Feature", "geometry": {"type": "Point", "coordinates": [-95.40065, 28.98026]}, "properties": {"kind": "turbine", "i": 1, "mw": 6.0, "hub_m": 120.0, "rotor_m": 150.0}}, {"type": "Feature", "geometry": {"type": "Point", "coordinates": [-95.42373, 29.0062]}, "properties": {"kind": "turbine", "i": 2, "mw": 6.0, "hub_m": 120.0, "rotor_m": 150.0}}, {"type": "Feature", "geometry": {"type": "Point", "coordinates": [-95.37167, 29.0236]}, "properties": {"kind": "turbine", "i": 3, "mw": 6.0, "hub_m": 120.0, "rotor_m": 150.0}}, {"type": "Feature", "geometry": {"type": "Point", "coordinates": [-95.3602, 29.01392]}, "properties": {"kind": "turbine", "i": 4, "mw": 6.0, "hub_m": 120.0, "rotor_m": 150.0}}, {"type": "Feature", "geometry": {"type": "Point", "coordinates": [-95.43076, 28.98631]}, "properties": {"kind": "turbine", "i": 5, "mw": 6.0, "hub_m": 120.0, "rotor_m": 150.0}}, {"type": "Feature", "geometry": {"type": "Point", "coordinates": [-95.37788, 28.96749]}, "properties": {"kind": "turbine", "i": 6, "mw": 6.0, "hub_m": 120.0, "rotor_m": 150.0}}, {"type": "Feature", "geometry": {"type": "Point", "coordinates": [-95.42297, 28.97327]}, "properties": {"kind": "turbine", "i": 7, "mw": 6.0, "hub_m": 120.0, "rotor_m": 150.0}}, {"type": "Feature", "geometry": {"type": "Point", "coordinates": [-95.38904, 28.964]}, "properties": {"kind": "turbine", "i": 8, "mw": 6.0, "hub_m": 120.0, "rotor_m": 150.0}}, {"type": "Feature", "geometry": {"type": "Point", "coordinates": [-95.34874, 29.00424]}, "properties": {"kind": "turbine", "i": 9, "mw": 6.0, "hub_m": 120.0, "rotor_m": 150.0}}, {"type": "Feature", "geometry": {"type": "Point", "coordinates": [-95.3644, 29.03361]}, "properties": {"kind": "turbine", "i": 10, "mw": 6.0, "hub_m": 120.0, "rotor_m": 150.0}}, {"type": "Feature", "geometry": {"type": "Point", "coordinates": [-95.39468, 29.04625]}, "properties": {"kind": "turbine", "i": 11, "mw": 6.0, "hub_m": 120.0, "rotor_m": 150.0}}, {"type": "Feature", "geometry": {"type": "Point", "coordinates": [-95.44192, 28.98281]}, "properties": {"kind": "turbine", "i": 12, "mw": 6.0, "hub_m": 120.0, "rotor_m": 150.0}}, {"type": "Feature", "geometry": {"type": "Point", "coordinates": [-95.34103, 28.99449]}, "properties": {"kind": "turbine", "i": 13, "mw": 6.0, "hub_m": 120.0, "rotor_m": 150.0}}, {"type": "Feature", "geometry": {"type": "Point", "coordinates": [-95.34544, 29.02406]}, "properties": {"kind": "turbine", "i": 14, "mw": 6.0, "hub_m": 120.0, "rotor_m": 150.0}}, {"type": "Feature", "geometry": {"type": "Point", "coordinates": [-95.35541, 28.96789]}, "properties": {"kind": "turbine", "i": 15, "mw": 6.0, "hub_m": 120.0, "rotor_m": 150.0}}, {"type": "Feature", "geometry": {"type": "Point", "coordinates": [-95.43795, 28.973]}, "properties": {"kind": "turbine", "i": 16, "mw": 6.0, "hub_m": 120.0, "rotor_m": 150.0}}, {"type": "Feature", "geometry": {"type": "Point", "coordinates": [-95.37602, 29.04988]}, "properties": {"kind": "turbine", "i": 17, "mw": 6.0, "hub_m": 120.0, "rotor_m": 150.0}}, {"type": "Feature", "geometry": {"type": "Point", "coordinates": [-95.44972, 28.99585]}, "properties": {"kind": "turbine", "i": 18, "mw": 6.0, "hub_m": 120.0, "rotor_m": 150.0}}, {"type": "Feature", "geometry": {"type": "Point", "coordinates": [-95.33758, 29.00773]}, "properties": {"kind": "turbine", "i": 19, "mw": 6.0, "hub_m": 120.0, "rotor_m": 150.0}}, {"type": "Feature", "geometry": {"type": "Point", "coordinates": [-95.34941, 29.03388]}, "properties": {"kind": "turbine", "i": 20, "mw": 6.0, "hub_m": 120.0, "rotor_m": 150.0}}, {"type": "Feature", "geometry": {"type": "Point", "coordinates": [-95.3647, 29.04679]}, "properties": {"kind": "turbine", "i": 21, "mw": 6.0, "hub_m": 120.0, "rotor_m": 150.0}}, {"type": "Feature", "geometry": {"type": "Point", "coordinates": [-95.39866, 29.05607]}, "properties": {"kind": "turbine", "i": 22, "mw": 6.0, "hub_m": 120.0, "rotor_m": 150.0}}, {"type": "Feature", "geometry": {"type": "Point", "coordinates": [-95.33405, 29.01767]}, "properties": {"kind": "turbine", "i": 23, "mw": 6.0, "hub_m": 120.0, "rotor_m": 150.0}}, {"type": "Feature", "geometry": {"type": "Point", "coordinates": [-95.34589, 29.04382]}, "properties": {"kind": "turbine", "i": 24, "mw": 6.0, "hub_m": 120.0, "rotor_m": 150.0}}, {"type": "Feature", "geometry": {"type": "Point", "coordinates": [-95.46088, 28.99235]}, "properties": {"kind": "turbine", "i": 25, "mw": 6.0, "hub_m": 120.0, "rotor_m": 150.0}}, {"type": "Feature", "geometry": {"type": "Point", "coordinates": [-95.3725, 29.05983]}, "properties": {"kind": "turbine", "i": 26, "mw": 6.0, "hub_m": 120.0, "rotor_m": 150.0}}, {"type": "Feature", "geometry": {"type": "Point", "coordinates": [-95.46135, 29.01211]}, "properties": {"kind": "turbine", "i": 27, "mw": 6.0, "hub_m": 120.0, "rotor_m": 150.0}}, {"type": "Feature", "geometry": {"type": "Point", "coordinates": [-95.45682, 28.97925]}, "properties": {"kind": "turbine", "i": 28, "mw": 6.0, "hub_m": 120.0, "rotor_m": 150.0}}, {"type": "Feature", "geometry": {"type": "Point", "coordinates": [-95.33442, 29.03414]}, "properties": {"kind": "turbine", "i": 29, "mw": 6.0, "hub_m": 120.0, "rotor_m": 150.0}}, {"type": "Feature", "geometry": {"type": "Point", "coordinates": [-95.36118, 29.05673]}, "properties": {"kind": "turbine", "i": 30, "mw": 6.0, "hub_m": 120.0, "rotor_m": 150.0}}, {"type": "Feature", "geometry": {"type": "Point", "coordinates": [-95.46486, 29.00216]}, "properties": {"kind": "turbine", "i": 31, "mw": 6.0, "hub_m": 120.0, "rotor_m": 150.0}}, {"type": "Feature", "geometry": {"type": "Point", "coordinates": [-95.39514, 29.06601]}, "properties": {"kind": "turbine", "i": 32, "mw": 6.0, "hub_m": 120.0, "rotor_m": 150.0}}, {"type": "Feature", "geometry": {"type": "Point", "coordinates": [-95.37728, 28.94115]}, "properties": {"kind": "turbine", "i": 33, "mw": 6.0, "hub_m": 120.0, "rotor_m": 150.0}}, {"type": "Feature", "geometry": {"type": "Point", "coordinates": [-95.45236, 28.9606]}, "properties": {"kind": "turbine", "i": 34, "mw": 6.0, "hub_m": 120.0, "rotor_m": 150.0}}, {"type": "Feature", "geometry": {"type": "Point", "coordinates": [-95.44497, 28.95311]}, "properties": {"kind": "turbine", "i": 35, "mw": 6.0, "hub_m": 120.0, "rotor_m": 150.0}}, {"type": "Feature", "geometry": {"type": "Point", "coordinates": [-95.38397, 29.06951]}, "properties": {"kind": "turbine", "i": 36, "mw": 6.0, "hub_m": 120.0, "rotor_m": 150.0}}, {"type": "Feature", "geometry": {"type": "Point", "coordinates": [-95.32304, 29.02775]}, "properties": {"kind": "turbine", "i": 37, "mw": 6.0, "hub_m": 120.0, "rotor_m": 150.0}}, {"type": "Feature", "geometry": {"type": "Point", "coordinates": [-95.31907, 29.01793]}, "properties": {"kind": "turbine", "i": 38, "mw": 6.0, "hub_m": 120.0, "rotor_m": 150.0}}, {"type": "Feature", "geometry": {"type": "Point", "coordinates": [-95.47204, 28.98885]}, "properties": {"kind": "turbine", "i": 39, "mw": 6.0, "hub_m": 120.0, "rotor_m": 150.0}}, {"type": "Feature", "geometry": {"type": "Point", "coordinates": [-95.40653, 29.0724]}, "properties": {"kind": "turbine", "i": 40, "mw": 6.0, "hub_m": 120.0, "rotor_m": 150.0}}, {"type": "Feature", "geometry": {"type": "Point", "coordinates": [-95.33862, 29.05383]}, "properties": {"kind": "turbine", "i": 41, "mw": 6.0, "hub_m": 120.0, "rotor_m": 150.0}}, {"type": "Feature", "geometry": {"type": "Point", "coordinates": [-95.4679, 28.97246]}, "properties": {"kind": "turbine", "i": 42, "mw": 6.0, "hub_m": 120.0, "rotor_m": 150.0}}, {"type": "Feature", "geometry": {"type": "Point", "coordinates": [-95.47602, 28.99866]}, "properties": {"kind": "turbine", "i": 43, "mw": 6.0, "hub_m": 120.0, "rotor_m": 150.0}}, {"type": "Feature", "geometry": {"type": "Point", "coordinates": [-95.32531, 28.96182]}, "properties": {"kind": "turbine", "i": 44, "mw": 6.0, "hub_m": 120.0, "rotor_m": 150.0}}, {"type": "Feature", "geometry": {"type": "Point", "coordinates": [-95.31092, 28.98842]}, "properties": {"kind": "turbine", "i": 45, "mw": 6.0, "hub_m": 120.0, "rotor_m": 150.0}}, {"type": "Feature", "geometry": {"type": "Point", "coordinates": [-95.3653, 29.07313]}, "properties": {"kind": "turbine", "i": 46, "mw": 6.0, "hub_m": 120.0, "rotor_m": 150.0}}, {"type": "Feature", "geometry": {"type": "Point", "coordinates": [-95.47657, 29.02171]}, "properties": {"kind": "turbine", "i": 47, "mw": 6.0, "hub_m": 120.0, "rotor_m": 150.0}}, {"type": "Feature", "geometry": {"type": "Point", "coordinates": [-95.31958, 29.04098]}, "properties": {"kind": "turbine", "i": 48, "mw": 6.0, "hub_m": 120.0, "rotor_m": 150.0}}, {"type": "Feature", "geometry": {"type": "Point", "coordinates": [-95.48008, 29.01176]}, "properties": {"kind": "turbine", "i": 49, "mw": 6.0, "hub_m": 120.0, "rotor_m": 150.0}}, {"type": "Feature", "geometry": {"type": "Point", "coordinates": [-95.38704, 29.08201]}, "properties": {"kind": "turbine", "i": 50, "mw": 6.0, "hub_m": 120.0, "rotor_m": 150.0}}, {"type": "Feature", "geometry": {"type": "Point", "coordinates": [-95.39927, 29.08241]}, "properties": {"kind": "turbine", "i": 51, "mw": 6.0, "hub_m": 120.0, "rotor_m": 150.0}}, {"type": "Feature", "geometry": {"type": "Point", "coordinates": [-95.48319, 28.98535]}, "properties": {"kind": "turbine", "i": 52, "mw": 6.0, "hub_m": 120.0, "rotor_m": 150.0}}, {"type": "Feature", "geometry": {"type": "Point", "coordinates": [-95.47696, 29.03817]}, "properties": {"kind": "turbine", "i": 53, "mw": 6.0, "hub_m": 120.0, "rotor_m": 150.0}}, {"type": "Feature", "geometry": {"type": "Point", "coordinates": [-95.30415, 29.02148]}, "properties": {"kind": "turbine", "i": 54, "mw": 6.0, "hub_m": 120.0, "rotor_m": 150.0}}]}