{"type": "FeatureCollection", "features": [{"type": "Feature", "geometry": {"type": "MultiPolygon", "coordinates": [[[[-94.02776, 42.48428], [-94.02776, 42.4847], [-94.02326, 42.48469], [-94.02325, 42.48182], [-94.02776, 42.48309], [-94.02776, 42.48428]]], [[[-94.02327, 42.49019], [-94.02327, 42.48855], [-94.03647, 42.48857], [-94.03758, 42.48983], [-94.03762, 42.49916], [-94.02731, 42.49916], [-94.02596, 42.4984], [-94.02402, 42.49803], [-94.0232, 42.49682], [-94.02297, 42.49141], [-94.02327, 42.49019]]], [[[-94.02806, 42.50327], [-94.02821, 42.50302], [-94.0376, 42.50302], [-94.03756, 42.50821], [-94.03422, 42.51143], [-94.03067, 42.51365], [-94.02315, 42.51363], [-94.0232, 42.50518], [-94.02615, 42.50475], [-94.02806, 42.50327]]], [[[-94.01784, 42.50415], [-94.01792, 42.51365], [-94.00336, 42.51364], [-94.00019, 42.51174], [-93.99716, 42.50907], [-93.99488, 42.50601], [-93.99375, 42.50291], [-94.00784, 42.50298], [-94.01036, 42.50402], [-94.01318, 42.50383], [-94.01501, 42.50427], [-94.01784, 42.50415]]], [[[-94.00662, 42.49911], [-93.9952, 42.49904], [-93.99405, 42.49851], [-93.9939, 42.49403], [-93.99565, 42.4908], [-93.99754, 42.48857], [-93.99934, 42.48951], [-94.00116, 42.48976], [-94.00321, 42.48948], [-94.005, 42.48848], [-94.00819, 42.48851], [-94.00818, 42.49712], [-94.00662, 42.49911]]], [[[-94.01757, 42.49148], [-94.01485, 42.49153], [-94.0134, 42.49212], [-94.01341, 42.48854], [-94.01805, 42.48855], [-94.01757, 42.49148]]], [[[-94.01804, 42.48468], [-94.00575, 42.48463], [-94.00493, 42.48362], [-94.00753, 42.48264], [-94.01203, 42.48158], [-94.01803, 42.48124], [-94.01804, 42.48468]]]]}, "properties": {"kind": "windland", "area_km2": 6.22}}, {"type": "Feature", "geometry": {"type": "Point", "coordinates": [-94.01672, 42.50569]}, "properties": {"kind": "turbine", "i": 0, "mw": 6.0, "hub_m": 120.0, "rotor_m": 150.0}}, {"type": "Feature", "geometry": {"type": "Point", "coordinates": [-94.01646, 42.48925]}, "properties": {"kind": "turbine", "i": 1, "mw": 6.0, "hub_m": 120.0, "rotor_m": 150.0}}, {"type": "Feature", "geometry": {"type": "Point", "coordinates": [-94.03439, 42.49896]}, "properties": {"kind": "turbine", "i": 2, "mw": 6.0, "hub_m": 120.0, "rotor_m": 150.0}}]}