{"type": "FeatureCollection", "features": [{"type": "Feature", "geometry": {"type": "MultiPolygon", "coordinates": [[[[-94.10508, 42.52851], [-94.09247, 42.52825], [-94.09248, 42.51757], [-94.11252, 42.51779], [-94.10886, 42.52616], [-94.1074, 42.52853], [-94.10508, 42.52851]]], [[[-94.1137, 42.51392], [-94.09248, 42.51371], [-94.09246, 42.50477], [-94.09366, 42.50556], [-94.0954, 42.50603], [-94.1004, 42.50583], [-94.10045, 42.50714], [-94.10131, 42.5083], [-94.1025, 42.50883], [-94.10428, 42.50897], [-94.10826, 42.50764], [-94.10921, 42.50695], [-94.10976, 42.50532], [-94.10899, 42.50333], [-94.11564, 42.50329], [-94.1137, 42.51392]]], [[[-94.11404, 42.49944], [-94.11186, 42.49945], [-94.11183, 42.47847], [-94.11374, 42.48382], [-94.115, 42.48956], [-94.11421, 42.49062], [-94.114, 42.49186], [-94.11439, 42.49319], [-94.11526, 42.49406], [-94.11468, 42.49655], [-94.1159, 42.49808], [-94.11583, 42.49943], [-94.11404, 42.49944]]], [[[-94.0995, 42.46125], [-94.09948, 42.46024], [-94.09947, 42.45872], [-94.10159, 42.46127], [-94.0995, 42.46125]]], [[[-94.02739, 42.44329], [-94.02739, 42.44705], [-94.01298, 42.44707], [-94.01308, 42.44019], [-94.01479, 42.44123], [-94.01703, 42.44109], [-94.01882, 42.43977], [-94.01958, 42.43762], [-94.01879, 42.43608], [-94.01679, 42.43524], [-94.01451, 42.43549], [-94.01313, 42.43676], [-94.01316, 42.43091], [-94.01364, 42.43089], [-94.01403, 42.43214], [-94.01528, 42.43303], [-94.01529, 42.43454], [-94.02013, 42.43452], [-94.02012, 42.44167], [-94.02739, 42.44157], [-94.02739, 42.44329]]], [[[-94.01317, 42.42999], [-94.01317, 42.42785], [-94.01524, 42.42799], [-94.01523, 42.42914], [-94.01424, 42.42975], [-94.01368, 42.43067], [-94.01317, 42.43069], [-94.01317, 42.42999]]], [[[-94.08926, 42.45348], [-94.08934, 42.45396], [-94.07026, 42.454], [-94.07026, 42.45132], [-94.08771, 42.45153], [-94.08926, 42.45348]]], [[[-94.04482, 42.47428], [-94.04728, 42.47409], [-94.04733, 42.4847], [-94.03298, 42.4847], [-94.03296, 42.47387], [-94.0432, 42.47389], [-94.04482, 42.47428]]], [[[-94.02324, 42.47389], [-94.02774, 42.4739], [-94.02776, 42.4847], [-94.02326, 42.48469], [-94.02324, 42.47389]]], [[[-94.02327, 42.49019], [-94.02327, 42.48855], [-94.03758, 42.48857], [-94.03762, 42.49916], [-94.02731, 42.49916], [-94.02596, 42.4984], [-94.02402, 42.49803], [-94.0232, 42.49682], [-94.02297, 42.49141], [-94.02327, 42.49019]]], [[[-94.02806, 42.50327], [-94.02821, 42.50302], [-94.0376, 42.50302], [-94.03751, 42.51365], [-94.02315, 42.51363], [-94.0232, 42.50518], [-94.02615, 42.50475], [-94.02806, 42.50327]]], [[[-94.01784, 42.50415], [-94.01792, 42.51365], [-93.99371, 42.51353], [-93.99375, 42.50291], [-94.00784, 42.50298], [-94.01036, 42.50402], [-94.01318, 42.50383], [-94.01501, 42.50427], [-94.01784, 42.50415]]], [[[-94.00662, 42.49911], [-93.9952, 42.49904], [-93.99422, 42.49867], [-93.99379, 42.49801], [-93.99375, 42.48838], [-93.99737, 42.48841], [-93.99891, 42.48937], [-94.00116, 42.48976], [-94.00321, 42.48948], [-94.005, 42.48848], [-94.00819, 42.48851], [-94.00818, 42.49712], [-94.00662, 42.49911]]], [[[-94.01757, 42.49148], [-94.01485, 42.49153], [-94.0134, 42.49212], [-94.01341, 42.48854], [-94.01805, 42.48855], [-94.01757, 42.49148]]], [[[-94.01803, 42.47924], [-94.01804, 42.48468], [-94.00575, 42.48463], [-94.00393, 42.48297], [-94.00128, 42.4824], [-93.99841, 42.48302], [-93.99673, 42.48454], [-93.99376, 42.48451], [-93.99377, 42.4806], [-93.99472, 42.47953], [-93.99483, 42.47773], [-93.9957, 42.47739], [-93.99734, 42.47865], [-93.99974, 42.4786], [-94.00456, 42.47571], [-94.00539, 42.47407], [-94.01802, 42.47388], [-94.01803, 42.47924]]], [[[-93.98835, 42.47667], [-93.98854, 42.48448], [-93.97414, 42.4844], [-93.97417, 42.47401], [-93.9795, 42.47402], [-93.98096, 42.47559], [-93.98304, 42.47632], [-93.98534, 42.47633], [-93.98754, 42.47553], [-93.98835, 42.47667]]], [[[-94.05246, 42.56706], [-94.05238, 42.56007], [-94.06675, 42.56007], [-94.06677, 42.56218], [-94.05599, 42.56627], [-94.05246, 42.56706]]], [[[-94.07416, 42.55619], [-94.07196, 42.55621], [-94.07207, 42.5466], [-94.08726, 42.54653], [-94.08728, 42.55048], [-94.07857, 42.55621], [-94.07416, 42.55619]]], [[[-94.09618, 42.54275], [-94.09247, 42.54267], [-94.09248, 42.53695], [-94.09912, 42.53841], [-94.09965, 42.53798], [-94.09472, 42.53457], [-94.09248, 42.5346], [-94.09248, 42.53211], [-94.10502, 42.53237], [-94.09994, 42.5389], [-94.09618, 42.54275]]], [[[-94.10349, 42.474], [-94.10664, 42.474], [-94.10656, 42.48503], [-94.09234, 42.48478], [-94.09232, 42.47399], [-94.10349, 42.474]]], [[[-94.07079, 42.47397], [-94.0871, 42.47398], [-94.08709, 42.48116], [-94.08186, 42.48116], [-94.08147, 42.4787], [-94.08065, 42.47798], [-94.07926, 42.47754], [-94.0525, 42.47752], [-94.05249, 42.47394], [-94.07079, 42.47397]]], [[[-94.0413, 42.46891], [-94.04081, 42.46983], [-94.03253, 42.46982], [-94.0326, 42.45803], [-94.04568, 42.45801], [-94.04564, 42.46713], [-94.04331, 42.46751], [-94.0413, 42.46891]]], [[[-94.07079, 42.4701], [-94.05087, 42.47007], [-94.0509, 42.45801], [-94.09424, 42.45791], [-94.09428, 42.46123], [-94.08706, 42.46123], [-94.0859, 42.46155], [-94.08487, 42.46234], [-94.08445, 42.46361], [-94.08453, 42.47012], [-94.07079, 42.4701]]], [[[-94.10349, 42.47014], [-94.08974, 42.46992], [-94.08968, 42.46507], [-94.10376, 42.46516], [-94.10434, 42.46568], [-94.10425, 42.47014], [-94.10349, 42.47014]]], [[[-94.08427, 42.44679], [-94.06055, 42.44684], [-94.06054, 42.43627], [-94.06758, 42.43622], [-94.07091, 42.43765], [-94.07877, 42.44185], [-94.08625, 42.44678], [-94.08427, 42.44679]]], [[[-93.92911, 42.46553], [-93.92908, 42.46981], [-93.92643, 42.46981], [-93.92911, 42.46549], [-93.92911, 42.46553]]], [[[-93.9438, 42.46986], [-93.9343, 42.46983], [-93.93439, 42.4588], [-93.93479, 42.4584], [-93.94874, 42.45839], [-93.94866, 42.46987], [-93.9438, 42.46986]]], [[[-93.96598, 42.4699], [-93.95388, 42.46988], [-93.95395, 42.45838], [-93.9684, 42.45837], [-93.96822, 42.46991], [-93.96598, 42.4699]]], [[[-93.97922, 42.46993], [-93.97344, 42.46991], [-93.97345, 42.46914], [-93.98524, 42.46917], [-93.98307, 42.46925], [-93.98107, 42.46993], [-93.97922, 42.46993]]], [[[-94.09548, 42.49873], [-94.093, 42.49928], [-94.09244, 42.49843], [-94.09236, 42.48865], [-94.10656, 42.48889], [-94.10664, 42.49945], [-94.10194, 42.4994], [-94.09945, 42.49863], [-94.09548, 42.49873]]], [[[-94.08694, 42.50406], [-94.08724, 42.50412], [-94.08726, 42.5137], [-94.07214, 42.51373], [-94.07221, 42.50314], [-94.08486, 42.50312], [-94.08694, 42.50406]]], [[[-94.08389, 42.49909], [-94.0722, 42.49914], [-94.07204, 42.48138], [-94.07664, 42.48139], [-94.07691, 42.48369], [-94.07855, 42.48486], [-94.08712, 42.48503], [-94.08722, 42.49699], [-94.08525, 42.49771], [-94.08389, 42.49909]]], [[[-94.04042, 42.52797], [-94.023, 42.52816], [-94.0231, 42.51749], [-94.06691, 42.51761], [-94.06686, 42.52823], [-94.04704, 42.52817], [-94.04557, 42.52701], [-94.04391, 42.52661], [-94.04184, 42.52694], [-94.04042, 42.52797]]], [[[-94.07333, 42.52297], [-94.07211, 42.52298], [-94.07213, 42.5176], [-94.08726, 42.51756], [-94.08725, 42.52295], [-94.07333, 42.52297]]], [[[-94.07936, 42.54265], [-94.08718, 42.54266], [-94.0721, 42.54274], [-94.07208, 42.53747], [-94.07934, 42.53742], [-94.07936, 42.54265]]], [[[-94.01684, 42.57066], [-93.99756, 42.57072], [-93.99356, 42.57002], [-93.99362, 42.5601], [-94.01778, 42.56006], [-94.01782, 42.57032], [-94.01684, 42.57066]]], [[[-94.01315, 42.43806], [-94.01311, 42.4381], [-94.01311, 42.43799], [-94.01312, 42.43799], [-94.01315, 42.43806]]], [[[-93.98593, 42.4531], [-93.98816, 42.45311], [-93.98814, 42.45444], [-93.97369, 42.45449], [-93.97375, 42.45122], [-93.98268, 42.4512], [-93.98394, 42.45265], [-93.98593, 42.4531]]], [[[-93.98016, 42.45838], [-93.98812, 42.4583], [-93.98807, 42.46531], [-93.9735, 42.46528], [-93.97358, 42.46081], [-93.97545, 42.46115], [-93.97817, 42.46065], [-93.97925, 42.45996], [-93.98016, 42.45838]]], [[[-94.02301, 42.56006], [-94.04715, 42.56008], [-94.04726, 42.56867], [-94.03673, 42.57069], [-94.02305, 42.57067], [-94.02301, 42.56006]]], [[[-94.04712, 42.54653], [-94.04712, 42.55622], [-94.02299, 42.5562], [-94.02297, 42.54653], [-94.04712, 42.54653]]], [[[-94.04719, 42.53203], [-94.04711, 42.54267], [-94.02297, 42.54267], [-94.02298, 42.53202], [-94.04719, 42.53203]]], [[[-94.06497, 42.50313], [-94.06699, 42.50314], [-94.06692, 42.51374], [-94.04273, 42.51367], [-94.04282, 42.50303], [-94.06497, 42.50313]]], [[[-94.06694, 42.49251], [-94.06698, 42.49927], [-94.04284, 42.49917], [-94.0428, 42.48857], [-94.04978, 42.48857], [-94.05166, 42.48801], [-94.05255, 42.48667], [-94.05253, 42.48138], [-94.06682, 42.48137], [-94.06694, 42.49251]]], [[[-94.02033, 42.46663], [-94.01267, 42.46644], [-94.01285, 42.45816], [-94.02738, 42.45805], [-94.02731, 42.46981], [-94.02223, 42.4698], [-94.02206, 42.46789], [-94.02033, 42.46663]]], [[[-94.01292, 42.4543], [-94.01294, 42.45118], [-94.02739, 42.45117], [-94.02739, 42.45419], [-94.01292, 42.4543]]], [[[-94.05283, 42.45415], [-94.03261, 42.45416], [-94.0326, 42.45119], [-94.06505, 42.45135], [-94.06505, 42.45404], [-94.05283, 42.45415]]], [[[-94.05246, 42.43626], [-94.05533, 42.43626], [-94.05533, 42.44726], [-94.0326, 42.44707], [-94.03262, 42.43383], [-94.04314, 42.4362], [-94.05246, 42.43626]]], [[[-94.05531, 42.4324], [-94.04408, 42.4324], [-94.04242, 42.43205], [-94.04246, 42.42834], [-94.05371, 42.43104], [-94.05533, 42.43159], [-94.05531, 42.4324]]], [[[-94.0609, 42.54738], [-94.06139, 42.54662], [-94.06685, 42.5466], [-94.06673, 42.5562], [-94.05234, 42.5562], [-94.05234, 42.54656], [-94.0563, 42.54659], [-94.05723, 42.54769], [-94.05864, 42.54811], [-94.05989, 42.54795], [-94.0609, 42.54738]]], [[[-94.06564, 42.54274], [-94.05234, 42.5427], [-94.05241, 42.53205], [-94.06685, 42.5321], [-94.06688, 42.54274], [-94.06564, 42.54274]]], [[[-94.0178, 42.52288], [-94.01778, 42.5282], [-93.99363, 42.52805], [-93.99367, 42.51739], [-94.01787, 42.51751], [-94.0178, 42.52288]]], [[[-93.97516, 42.56007], [-93.9884, 42.5601], [-93.98834, 42.56901], [-93.98021, 42.56694], [-93.97138, 42.56395], [-93.96236, 42.55999], [-93.97516, 42.56007]]], [[[-93.96569, 42.55615], [-93.95505, 42.55607], [-93.95383, 42.55526], [-93.95404, 42.54625], [-93.98841, 42.54638], [-93.98842, 42.55624], [-93.96569, 42.55615]]], [[[-93.95408, 42.54239], [-93.95409, 42.53175], [-93.98841, 42.53184], [-93.98841, 42.54251], [-93.95408, 42.54239]]], [[[-93.98842, 42.52445], [-93.9884, 42.52798], [-93.97404, 42.52782], [-93.97406, 42.51721], [-93.98845, 42.51735], [-93.98842, 42.52445]]], [[[-93.97407, 42.51335], [-93.97411, 42.50274], [-93.98853, 42.50287], [-93.98849, 42.51349], [-93.97407, 42.51335]]], [[[-93.97569, 42.48827], [-93.98853, 42.48834], [-93.98854, 42.49901], [-93.97412, 42.49888], [-93.97413, 42.48827], [-93.97569, 42.48827]]], [[[-93.97389, 42.44382], [-93.98825, 42.44377], [-93.98822, 42.44709], [-93.97383, 42.44711], [-93.97389, 42.44382]]], [[[-93.98837, 42.42927], [-93.9883, 42.43991], [-93.97392, 42.43995], [-93.97391, 42.43323], [-93.9781, 42.43171], [-93.98695, 42.42928], [-93.98837, 42.42927]]], [[[-93.9687, 42.4375], [-93.9687, 42.43997], [-93.95868, 42.44], [-93.9687, 42.43517], [-93.9687, 42.4375]]], [[[-93.96709, 42.44384], [-93.96867, 42.44383], [-93.96861, 42.44712], [-93.95403, 42.4477], [-93.95411, 42.44386], [-93.96709, 42.44384]]], [[[-93.94882, 42.44793], [-93.94603, 42.44806], [-93.94883, 42.4461], [-93.94882, 42.44793]]], [[[-93.99379, 42.46558], [-93.99329, 42.46554], [-93.99333, 42.45828], [-94.00763, 42.45821], [-94.00745, 42.46641], [-93.99651, 42.46638], [-93.9954, 42.46571], [-93.99379, 42.46558]]], [[[-94.00666, 42.45435], [-93.99336, 42.45442], [-93.99341, 42.45119], [-94.00772, 42.45117], [-94.0077, 42.45434], [-94.00666, 42.45435]]], [[[-94.0057, 42.44085], [-94.00785, 42.44103], [-94.00777, 42.44707], [-93.99344, 42.44708], [-93.99358, 42.42924], [-94.00369, 42.42926], [-94.00297, 42.43044], [-94.00302, 42.43256], [-94.00346, 42.43344], [-94.00514, 42.43424], [-94.00713, 42.43391], [-94.00793, 42.43408], [-94.00791, 42.43648], [-94.0067, 42.43625], [-94.00547, 42.43648], [-94.00414, 42.43781], [-94.00429, 42.4398], [-94.0057, 42.44085]]], [[[-94.03726, 42.42759], [-94.03721, 42.43095], [-94.02963, 42.42888], [-94.02271, 42.42869], [-94.02021, 42.42594], [-94.0255, 42.42608], [-94.03511, 42.42705], [-94.03726, 42.42759]]], [[[-94.00756, 42.42934], [-94.0078, 42.4294], [-94.00762, 42.4294], [-94.00756, 42.42934]]], [[[-94.01776, 42.55278], [-94.01777, 42.5562], [-93.99365, 42.55624], [-93.99363, 42.54644], [-94.01775, 42.54655], [-94.01776, 42.55278]]], [[[-93.99947, 42.53201], [-94.01776, 42.53206], [-94.01774, 42.54268], [-94.01609, 42.54269], [-94.01628, 42.54112], [-94.01501, 42.53978], [-94.01122, 42.53934], [-94.00997, 42.5395], [-94.00878, 42.54019], [-94.00766, 42.54151], [-94.00764, 42.5427], [-93.99363, 42.54258], [-93.99363, 42.53191], [-93.99947, 42.53201]]], [[[-93.94205, 42.54627], [-93.94881, 42.54627], [-93.94868, 42.55189], [-93.94148, 42.54627], [-93.94205, 42.54627]]], [[[-93.93189, 42.53177], [-93.94887, 42.53176], [-93.94886, 42.5424], [-93.93747, 42.5424], [-93.93029, 42.53424], [-93.92866, 42.53176], [-93.93189, 42.53177]]], [[[-93.92611, 42.52789], [-93.92267, 42.52105], [-93.9213, 42.51719], [-93.92927, 42.51722], [-93.92928, 42.5279], [-93.92611, 42.52789]]], [[[-93.9292, 42.48819], [-93.92927, 42.51335], [-93.92004, 42.51332], [-93.91868, 42.507], [-93.9181, 42.49984], [-93.91847, 42.49266], [-93.9193, 42.4882], [-93.9292, 42.48819]]], [[[-93.92916, 42.48433], [-93.92018, 42.48434], [-93.92205, 42.47856], [-93.92422, 42.47389], [-93.92908, 42.47391], [-93.92916, 42.48433]]], [[[-93.96802, 42.45124], [-93.96854, 42.45123], [-93.96847, 42.4545], [-93.95398, 42.45452], [-93.954, 42.45183], [-93.96802, 42.45124]]], [[[-93.94879, 42.45207], [-93.94876, 42.45453], [-93.93857, 42.45453], [-93.94079, 42.45244], [-93.94879, 42.45207]]], [[[-93.96259, 42.52783], [-93.95408, 42.52789], [-93.95414, 42.51724], [-93.96884, 42.51717], [-93.96882, 42.5278], [-93.96259, 42.52783]], [[-93.96716, 42.52091], [-93.96609, 42.52004], [-93.96415, 42.51947], [-93.96083, 42.51949], [-93.95914, 42.52066], [-93.95905, 42.52297], [-93.95988, 42.52391], [-93.96096, 42.52439], [-93.96449, 42.52436], [-93.96623, 42.52372], [-93.96708, 42.52299], [-93.96747, 42.52189], [-93.96716, 42.52091]]], [[[-93.93449, 42.51723], [-93.94892, 42.51726], [-93.94886, 42.5279], [-93.9345, 42.5279], [-93.93449, 42.51723]]], [[[-93.95405, 42.49888], [-93.95396, 42.48824], [-93.96891, 42.48825], [-93.9689, 42.49886], [-93.95405, 42.49888]]], [[[-93.96892, 42.48439], [-93.95395, 42.48437], [-93.95392, 42.47397], [-93.96895, 42.474], [-93.96892, 42.48439]]], [[[-93.93443, 42.48866], [-93.93442, 42.4882], [-93.94874, 42.48823], [-93.94883, 42.49888], [-93.93452, 42.49885], [-93.93443, 42.48866]]], [[[-93.9343, 42.47392], [-93.9487, 42.47396], [-93.94873, 42.48437], [-93.93438, 42.48433], [-93.9343, 42.47392]]], [[[-93.94891, 42.50504], [-93.94892, 42.5134], [-93.93449, 42.51337], [-93.93452, 42.50272], [-93.94888, 42.50274], [-93.94891, 42.50504]]], [[[-93.95414, 42.51338], [-93.9541, 42.50274], [-93.96889, 42.50272], [-93.96885, 42.51331], [-93.95414, 42.51338]]]]}, "properties": {"kind": "windland", "area_km2": 107.7}}, {"type": "Feature", "geometry": {"type": "MultiPolygon", "coordinates": [[[[-94.02028, 42.48635], [-94.00463, 42.48628], [-94.00458, 42.48335], [-94.00575, 42.48463], [-94.01804, 42.48468], [-94.01803, 42.48109], [-94.02028, 42.48107], [-94.02028, 42.48635]]], [[[-94.0247, 42.48635], [-94.02101, 42.48635], [-94.02101, 42.48107], [-94.02325, 42.48105], [-94.02326, 42.48469], [-94.02776, 42.4847], [-94.02776, 42.48101], [-94.02887, 42.481], [-94.02896, 42.48637], [-94.0247, 42.48635]]], [[[-94.0203, 42.49008], [-94.0187, 42.49511], [-94.01861, 42.49618], [-94.01732, 42.49619], [-94.01724, 42.49346], [-94.01692, 42.49331], [-94.01529, 42.49334], [-94.015, 42.49363], [-94.01501, 42.49595], [-94.01356, 42.49595], [-94.01316, 42.49619], [-94.01281, 42.49797], [-94.01348, 42.49847], [-94.01116, 42.49849], [-94.01117, 42.48688], [-94.02029, 42.48689], [-94.0203, 42.49008]], [[-94.01804, 42.49006], [-94.01805, 42.48855], [-94.01341, 42.48854], [-94.0134, 42.49212], [-94.01485, 42.49153], [-94.01755, 42.49153], [-94.01804, 42.49006]]], [[[-94.02584, 42.4869], [-94.02897, 42.48691], [-94.029, 42.48857], [-94.02327, 42.48855], [-94.02325, 42.49047], [-94.02297, 42.49141], [-94.02329, 42.49244], [-94.0232, 42.49682], [-94.02402, 42.49803], [-94.02596, 42.4984], [-94.02731, 42.49916], [-94.02917, 42.49916], [-94.0292, 42.50082], [-94.02303, 42.50081], [-94.02306, 42.49745], [-94.02059, 42.49748], [-94.02081, 42.49258], [-94.02076, 42.49225], [-94.02045, 42.49208], [-94.02102, 42.49024], [-94.02102, 42.48689], [-94.02584, 42.4869]]], [[[-94.04059, 42.49614], [-94.04056, 42.4899], [-94.04119, 42.48989], [-94.04134, 42.4989], [-94.04059, 42.4989], [-94.04059, 42.49614]]], [[[-94.03758, 42.48992], [-94.03983, 42.4899], [-94.03986, 42.49891], [-94.03761, 42.49893], [-94.03758, 42.48992]]], [[[-94.0229, 42.50144], [-94.02303, 42.502], [-94.02365, 42.50224], [-94.02441, 42.50202], [-94.02452, 42.50135], [-94.02921, 42.50136], [-94.02924, 42.50302], [-94.02821, 42.50302], [-94.02725, 42.50411], [-94.02573, 42.5049], [-94.02439, 42.50517], [-94.0232, 42.50518], [-94.02318, 42.50807], [-94.02094, 42.50809], [-94.02097, 42.50136], [-94.0229, 42.50144]]], [[[-94.005, 42.48848], [-94.00467, 42.48875], [-94.00463, 42.48682], [-94.01044, 42.48687], [-94.01044, 42.50079], [-94.00486, 42.50076], [-94.00483, 42.4991], [-94.00662, 42.49911], [-94.00708, 42.49813], [-94.00818, 42.49712], [-94.00819, 42.48851], [-94.005, 42.48848]]], [[[-94.01802, 42.50135], [-94.02024, 42.50136], [-94.02021, 42.50809], [-94.01796, 42.50811], [-94.01798, 42.50412], [-94.01693, 42.50428], [-94.01501, 42.50427], [-94.01318, 42.50383], [-94.01082, 42.50407], [-94.00905, 42.50367], [-94.00784, 42.50298], [-94.00489, 42.50297], [-94.00487, 42.5013], [-94.01802, 42.50135]]]]}, "properties": {"kind": "pv", "area_km2": 2.95, "mw": 147.5}}, {"type": "Feature", "geometry": {"type": "Point", "coordinates": [-94.01672, 42.50569]}, "properties": {"kind": "turbine", "i": 0, "mw": 6.0, "hub_m": 120.0, "rotor_m": 150.0}}, {"type": "Feature", "geometry": {"type": "Point", "coordinates": [-94.01646, 42.48925]}, "properties": {"kind": "turbine", "i": 1, "mw": 6.0, "hub_m": 120.0, "rotor_m": 150.0}}, {"type": "Feature", "geometry": {"type": "Point", "coordinates": [-94.03439, 42.49896]}, "properties": {"kind": "turbine", "i": 2, "mw": 6.0, "hub_m": 120.0, "rotor_m": 150.0}}, {"type": "Feature", "geometry": {"type": "Point", "coordinates": [-93.99895, 42.50585]}, "properties": {"kind": "turbine", "i": 3, "mw": 6.0, "hub_m": 120.0, "rotor_m": 150.0}}, {"type": "Feature", "geometry": {"type": "Point", "coordinates": [-94.03423, 42.48909]}, "properties": {"kind": "turbine", "i": 4, "mw": 6.0, "hub_m": 120.0, "rotor_m": 150.0}}, {"type": "Feature", "geometry": {"type": "Point", "coordinates": [-94.03455, 42.50882]}, "properties": {"kind": "turbine", "i": 5, "mw": 6.0, "hub_m": 120.0, "rotor_m": 150.0}}, {"type": "Feature", "geometry": {"type": "Point", "coordinates": [-93.99869, 42.48941]}, "properties": {"kind": "turbine", "i": 6, "mw": 6.0, "hub_m": 120.0, "rotor_m": 150.0}}, {"type": "Feature", "geometry": {"type": "Point", "coordinates": [-94.01249, 42.51888]}, "properties": {"kind": "turbine", "i": 7, "mw": 6.0, "hub_m": 120.0, "rotor_m": 150.0}}, {"type": "Feature", "geometry": {"type": "Point", "coordinates": [-94.03027, 42.51873]}, "properties": {"kind": "turbine", "i": 8, "mw": 6.0, "hub_m": 120.0, "rotor_m": 150.0}}, {"type": "Feature", "geometry": {"type": "Point", "coordinates": [-94.00297, 42.47951]}, "properties": {"kind": "turbine", "i": 9, "mw": 6.0, "hub_m": 120.0, "rotor_m": 150.0}}, {"type": "Feature", "geometry": {"type": "Point", "coordinates": [-94.01625, 42.4761]}, "properties": {"kind": "turbine", "i": 10, "mw": 6.0, "hub_m": 120.0, "rotor_m": 150.0}}, {"type": "Feature", "geometry": {"type": "Point", "coordinates": [-93.99471, 42.51904]}, "properties": {"kind": "turbine", "i": 11, "mw": 6.0, "hub_m": 120.0, "rotor_m": 150.0}}, {"type": "Feature", "geometry": {"type": "Point", "coordinates": [-94.05216, 42.4988]}, "properties": {"kind": "turbine", "i": 12, "mw": 6.0, "hub_m": 120.0, "rotor_m": 150.0}}, {"type": "Feature", "geometry": {"type": "Point", "coordinates": [-93.98117, 42.506]}, "properties": {"kind": "turbine", "i": 13, "mw": 6.0, "hub_m": 120.0, "rotor_m": 150.0}}, {"type": "Feature", "geometry": {"type": "Point", "coordinates": [-94.04295, 42.47915]}, "properties": {"kind": "turbine", "i": 14, "mw": 6.0, "hub_m": 120.0, "rotor_m": 150.0}}, {"type": "Feature", "geometry": {"type": "Point", "coordinates": [-94.052, 42.48893]}, "properties": {"kind": "turbine", "i": 15, "mw": 6.0, "hub_m": 120.0, "rotor_m": 150.0}}, {"type": "Feature", "geometry": {"type": "Point", "coordinates": [-94.05233, 42.50866]}, "properties": {"kind": "turbine", "i": 16, "mw": 6.0, "hub_m": 120.0, "rotor_m": 150.0}}, {"type": "Feature", "geometry": {"type": "Point", "coordinates": [-93.98092, 42.48956]}, "properties": {"kind": "turbine", "i": 17, "mw": 6.0, "hub_m": 120.0, "rotor_m": 150.0}}, {"type": "Feature", "geometry": {"type": "Point", "coordinates": [-94.04805, 42.51856]}, "properties": {"kind": "turbine", "i": 18, "mw": 6.0, "hub_m": 120.0, "rotor_m": 150.0}}, {"type": "Feature", "geometry": {"type": "Point", "coordinates": [-94.0339, 42.46937]}, "properties": {"kind": "turbine", "i": 19, "mw": 6.0, "hub_m": 120.0, "rotor_m": 150.0}}, {"type": "Feature", "geometry": {"type": "Point", "coordinates": [-93.98515, 42.47637]}, "properties": {"kind": "turbine", "i": 20, "mw": 6.0, "hub_m": 120.0, "rotor_m": 150.0}}, {"type": "Feature", "geometry": {"type": "Point", "coordinates": [-94.0072, 42.46632]}, "properties": {"kind": "turbine", "i": 21, "mw": 6.0, "hub_m": 120.0, "rotor_m": 150.0}}, {"type": "Feature", "geometry": {"type": "Point", "coordinates": [-94.00381, 42.53211]}, "properties": {"kind": "turbine", "i": 22, "mw": 6.0, "hub_m": 120.0, "rotor_m": 150.0}}, {"type": "Feature", "geometry": {"type": "Point", "coordinates": [-93.98143, 42.52244]}, "properties": {"kind": "turbine", "i": 23, "mw": 6.0, "hub_m": 120.0, "rotor_m": 150.0}}, {"type": "Feature", "geometry": {"type": "Point", "coordinates": [-94.06544, 42.49539]}, "properties": {"kind": "turbine", "i": 24, "mw": 6.0, "hub_m": 120.0, "rotor_m": 150.0}}, {"type": "Feature", "geometry": {"type": "Point", "coordinates": [-94.02047, 42.46291]}, "properties": {"kind": "turbine", "i": 25, "mw": 6.0, "hub_m": 120.0, "rotor_m": 150.0}}, {"type": "Feature", "geometry": {"type": "Point", "coordinates": [-94.06561, 42.50525]}, "properties": {"kind": "turbine", "i": 26, "mw": 6.0, "hub_m": 120.0, "rotor_m": 150.0}}, {"type": "Feature", "geometry": {"type": "Point", "coordinates": [-93.96779, 42.50283]}, "properties": {"kind": "turbine", "i": 27, "mw": 6.0, "hub_m": 120.0, "rotor_m": 150.0}}, {"type": "Feature", "geometry": {"type": "Point", "coordinates": [-94.0261, 42.53521]}, "properties": {"kind": "turbine", "i": 28, "mw": 6.0, "hub_m": 120.0, "rotor_m": 150.0}}, {"type": "Feature", "geometry": {"type": "Point", "coordinates": [-94.06527, 42.48552]}, "properties": {"kind": "turbine", "i": 29, "mw": 6.0, "hub_m": 120.0, "rotor_m": 150.0}}, {"type": "Feature", "geometry": {"type": "Point", "coordinates": [-93.96794, 42.51269]}, "properties": {"kind": "turbine", "i": 30, "mw": 6.0, "hub_m": 120.0, "rotor_m": 150.0}}, {"type": "Feature", "geometry": {"type": "Point", "coordinates": [-94.05167, 42.46921]}, "properties": {"kind": "turbine", "i": 31, "mw": 6.0, "hub_m": 120.0, "rotor_m": 150.0}}, {"type": "Feature", "geometry": {"type": "Point", "coordinates": [-93.98603, 42.53227]}, "properties": {"kind": "turbine", "i": 32, "mw": 6.0, "hub_m": 120.0, "rotor_m": 150.0}}, {"type": "Feature", "geometry": {"type": "Point", "coordinates": [-93.96315, 42.48971]}, "properties": {"kind": "turbine", "i": 33, "mw": 6.0, "hub_m": 120.0, "rotor_m": 150.0}}, {"type": "Feature", "geometry": {"type": "Point", "coordinates": [-94.06583, 42.5184]}, "properties": {"kind": "turbine", "i": 34, "mw": 6.0, "hub_m": 120.0, "rotor_m": 150.0}}, {"type": "Feature", "geometry": {"type": "Point", "coordinates": [-94.04388, 42.53505]}, "properties": {"kind": "turbine", "i": 35, "mw": 6.0, "hub_m": 120.0, "rotor_m": 150.0}}, {"type": "Feature", "geometry": {"type": "Point", "coordinates": [-94.03374, 42.4595]}, "properties": {"kind": "turbine", "i": 36, "mw": 6.0, "hub_m": 120.0, "rotor_m": 150.0}}, {"type": "Feature", "geometry": {"type": "Point", "coordinates": [-94.0651, 42.47566]}, "properties": {"kind": "turbine", "i": 37, "mw": 6.0, "hub_m": 120.0, "rotor_m": 150.0}}, {"type": "Feature", "geometry": {"type": "Point", "coordinates": [-93.99378, 42.45986]}, "properties": {"kind": "turbine", "i": 38, "mw": 6.0, "hub_m": 120.0, "rotor_m": 150.0}}, {"type": "Feature", "geometry": {"type": "Point", "coordinates": [-93.96739, 42.47652]}, "properties": {"kind": "turbine", "i": 39, "mw": 6.0, "hub_m": 120.0, "rotor_m": 150.0}}, {"type": "Feature", "geometry": {"type": "Point", "coordinates": [-94.00397, 42.54198]}, "properties": {"kind": "turbine", "i": 40, "mw": 6.0, "hub_m": 120.0, "rotor_m": 150.0}}, {"type": "Feature", "geometry": {"type": "Point", "coordinates": [-93.98051, 42.46326]}, "properties": {"kind": "turbine", "i": 41, "mw": 6.0, "hub_m": 120.0, "rotor_m": 150.0}}, {"type": "Feature", "geometry": {"type": "Point", "coordinates": [-93.96815, 42.52584]}, "properties": {"kind": "turbine", "i": 42, "mw": 6.0, "hub_m": 120.0, "rotor_m": 150.0}}, {"type": "Feature", "geometry": {"type": "Point", "coordinates": [-94.00699, 42.45316]}, "properties": {"kind": "turbine", "i": 43, "mw": 6.0, "hub_m": 120.0, "rotor_m": 150.0}}, {"type": "Feature", "geometry": {"type": "Point", "coordinates": [-94.0515, 42.45934]}, "properties": {"kind": "turbine", "i": 44, "mw": 6.0, "hub_m": 120.0, "rotor_m": 150.0}}, {"type": "Feature", "geometry": {"type": "Point", "coordinates": [-93.98619, 42.54213]}, "properties": {"kind": "turbine", "i": 45, "mw": 6.0, "hub_m": 120.0, "rotor_m": 150.0}}, {"type": "Feature", "geometry": {"type": "Point", "coordinates": [-94.08321, 42.49522]}, "properties": {"kind": "turbine", "i": 46, "mw": 6.0, "hub_m": 120.0, "rotor_m": 150.0}}, {"type": "Feature", "geometry": {"type": "Point", "coordinates": [-93.97275, 42.53567]}, "properties": {"kind": "turbine", "i": 47, "mw": 6.0, "hub_m": 120.0, "rotor_m": 150.0}}, {"type": "Feature", "geometry": {"type": "Point", "coordinates": [-94.08338, 42.50508]}, "properties": {"kind": "turbine", "i": 48, "mw": 6.0, "hub_m": 120.0, "rotor_m": 150.0}}, {"type": "Feature", "geometry": {"type": "Point", "coordinates": [-94.02631, 42.54836]}, "properties": {"kind": "turbine", "i": 49, "mw": 6.0, "hub_m": 120.0, "rotor_m": 150.0}}, {"type": "Feature", "geometry": {"type": "Point", "coordinates": [-94.08304, 42.48536]}, "properties": {"kind": "turbine", "i": 50, "mw": 6.0, "hub_m": 120.0, "rotor_m": 150.0}}, {"type": "Feature", "geometry": {"type": "Point", "coordinates": [-94.06488, 42.46251]}, "properties": {"kind": "turbine", "i": 51, "mw": 6.0, "hub_m": 120.0, "rotor_m": 150.0}}, {"type": "Feature", "geometry": {"type": "Point", "coordinates": [-94.06611, 42.53484]}, "properties": {"kind": "turbine", "i": 52, "mw": 6.0, "hub_m": 120.0, "rotor_m": 150.0}}, {"type": "Feature", "geometry": {"type": "Point", "coordinates": [-93.95476, 42.52267]}, "properties": {"kind": "turbine", "i": 53, "mw": 6.0, "hub_m": 120.0, "rotor_m": 150.0}}, {"type": "Feature", "geometry": {"type": "Point", "coordinates": [-94.02021, 42.44647]}, "properties": {"kind": "turbine", "i": 54, "mw": 6.0, "hub_m": 120.0, "rotor_m": 150.0}}, {"type": "Feature", "geometry": {"type": "Point", "coordinates": [-94.01302, 42.55176]}, "properties": {"kind": "turbine", "i": 55, "mw": 6.0, "hub_m": 120.0, "rotor_m": 150.0}}, {"type": "Feature", "geometry": {"type": "Point", "coordinates": [-94.08361, 42.51823]}, "properties": {"kind": "turbine", "i": 56, "mw": 6.0, "hub_m": 120.0, "rotor_m": 150.0}}, {"type": "Feature", "geometry": {"type": "Point", "coordinates": [-93.94557, 42.50301]}, "properties": {"kind": "turbine", "i": 57, "mw": 6.0, "hub_m": 120.0, "rotor_m": 150.0}}, {"type": "Feature", "geometry": {"type": "Point", "coordinates": [-94.0441, 42.5482]}, "properties": {"kind": "turbine", "i": 58, "mw": 6.0, "hub_m": 120.0, "rotor_m": 150.0}}, {"type": "Feature", "geometry": {"type": "Point", "coordinates": [-93.96713, 42.46008]}, "properties": {"kind": "turbine", "i": 59, "mw": 6.0, "hub_m": 120.0, "rotor_m": 150.0}}, {"type": "Feature", "geometry": {"type": "Point", "coordinates": [-93.94538, 42.48986]}, "properties": {"kind": "turbine", "i": 60, "mw": 6.0, "hub_m": 120.0, "rotor_m": 150.0}}, {"type": "Feature", "geometry": {"type": "Point", "coordinates": [-94.08287, 42.47549]}, "properties": {"kind": "turbine", "i": 61, "mw": 6.0, "hub_m": 120.0, "rotor_m": 150.0}}, {"type": "Feature", "geometry": {"type": "Point", "coordinates": [-93.94572, 42.51288]}, "properties": {"kind": "turbine", "i": 62, "mw": 6.0, "hub_m": 120.0, "rotor_m": 150.0}}, {"type": "Feature", "geometry": {"type": "Point", "coordinates": [-94.03796, 42.44631]}, "properties": {"kind": "turbine", "i": 63, "mw": 6.0, "hub_m": 120.0, "rotor_m": 150.0}}, {"type": "Feature", "geometry": {"type": "Point", "coordinates": [-93.99524, 42.55192]}, "properties": {"kind": "turbine", "i": 64, "mw": 6.0, "hub_m": 120.0, "rotor_m": 150.0}}, {"type": "Feature", "geometry": {"type": "Point", "coordinates": [-93.95491, 42.53253]}, "properties": {"kind": "turbine", "i": 65, "mw": 6.0, "hub_m": 120.0, "rotor_m": 150.0}}, {"type": "Feature", "geometry": {"type": "Point", "coordinates": [-93.98469, 42.44678]}, "properties": {"kind": "turbine", "i": 66, "mw": 6.0, "hub_m": 120.0, "rotor_m": 150.0}}, {"type": "Feature", "geometry": {"type": "Point", "coordinates": [-93.94518, 42.47671]}, "properties": {"kind": "turbine", "i": 67, "mw": 6.0, "hub_m": 120.0, "rotor_m": 150.0}}, {"type": "Feature", "geometry": {"type": "Point", "coordinates": [-94.06471, 42.45264]}, "properties": {"kind": "turbine", "i": 68, "mw": 6.0, "hub_m": 120.0, "rotor_m": 150.0}}, {"type": "Feature", "geometry": {"type": "Point", "coordinates": [-93.97295, 42.54882]}, "properties": {"kind": "turbine", "i": 69, "mw": 6.0, "hub_m": 120.0, "rotor_m": 150.0}}, {"type": "Feature", "geometry": {"type": "Point", "coordinates": [-94.00234, 42.44005]}, "properties": {"kind": "turbine", "i": 70, "mw": 6.0, "hub_m": 120.0, "rotor_m": 150.0}}, {"type": "Feature", "geometry": {"type": "Point", "coordinates": [-94.09683, 42.51153]}, "properties": {"kind": "turbine", "i": 71, "mw": 6.0, "hub_m": 120.0, "rotor_m": 150.0}}, {"type": "Feature", "geometry": {"type": "Point", "coordinates": [-94.08264, 42.46234]}, "properties": {"kind": "turbine", "i": 72, "mw": 6.0, "hub_m": 120.0, "rotor_m": 150.0}}, {"type": "Feature", "geometry": {"type": "Point", "coordinates": [-94.06633, 42.54799]}, "properties": {"kind": "turbine", "i": 73, "mw": 6.0, "hub_m": 120.0, "rotor_m": 150.0}}, {"type": "Feature", "geometry": {"type": "Point", "coordinates": [-93.94148, 42.52607]}, "properties": {"kind": "turbine", "i": 74, "mw": 6.0, "hub_m": 120.0, "rotor_m": 150.0}}, {"type": "Feature", "geometry": {"type": "Point", "coordinates": [-94.02005, 42.43661]}, "properties": {"kind": "turbine", "i": 75, "mw": 6.0, "hub_m": 120.0, "rotor_m": 150.0}}, {"type": "Feature", "geometry": {"type": "Point", "coordinates": [-94.01763, 42.56159]}, "properties": {"kind": "turbine", "i": 76, "mw": 6.0, "hub_m": 120.0, "rotor_m": 150.0}}, {"type": "Feature", "geometry": {"type": "Point", "coordinates": [-94.09267, 42.52801]}, "properties": {"kind": "turbine", "i": 77, "mw": 6.0, "hub_m": 120.0, "rotor_m": 150.0}}, {"type": "Feature", "geometry": {"type": "Point", "coordinates": [-93.96693, 42.44693]}, "properties": {"kind": "turbine", "i": 78, "mw": 6.0, "hub_m": 120.0, "rotor_m": 150.0}}, {"type": "Feature", "geometry": {"type": "Point", "coordinates": [-93.94498, 42.46356]}, "properties": {"kind": "turbine", "i": 79, "mw": 6.0, "hub_m": 120.0, "rotor_m": 150.0}}, {"type": "Feature", "geometry": {"type": "Point", "coordinates": [-93.99984, 42.56175]}, "properties": {"kind": "turbine", "i": 80, "mw": 6.0, "hub_m": 120.0, "rotor_m": 150.0}}, {"type": "Feature", "geometry": {"type": "Point", "coordinates": [-94.0378, 42.43645]}, "properties": {"kind": "turbine", "i": 81, "mw": 6.0, "hub_m": 120.0, "rotor_m": 150.0}}, {"type": "Feature", "geometry": {"type": "Point", "coordinates": [-94.05117, 42.43961]}, "properties": {"kind": "turbine", "i": 82, "mw": 6.0, "hub_m": 120.0, "rotor_m": 150.0}}, {"type": "Feature", "geometry": {"type": "Point", "coordinates": [-94.03987, 42.56139]}, "properties": {"kind": "turbine", "i": 83, "mw": 6.0, "hub_m": 120.0, "rotor_m": 150.0}}, {"type": "Feature", "geometry": {"type": "Point", "coordinates": [-94.10537, 42.49172]}, "properties": {"kind": "turbine", "i": 84, "mw": 6.0, "hub_m": 120.0, "rotor_m": 150.0}}, {"type": "Feature", "geometry": {"type": "Point", "coordinates": [-93.92775, 42.49987]}, "properties": {"kind": "turbine", "i": 85, "mw": 6.0, "hub_m": 120.0, "rotor_m": 150.0}}, {"type": "Feature", "geometry": {"type": "Point", "coordinates": [-94.06455, 42.44278]}, "properties": {"kind": "turbine", "i": 86, "mw": 6.0, "hub_m": 120.0, "rotor_m": 150.0}}, {"type": "Feature", "geometry": {"type": "Point", "coordinates": [-93.92761, 42.49001]}, "properties": {"kind": "turbine", "i": 87, "mw": 6.0, "hub_m": 120.0, "rotor_m": 150.0}}, {"type": "Feature", "geometry": {"type": "Point", "coordinates": [-93.9279, 42.50974]}, "properties": {"kind": "turbine", "i": 88, "mw": 6.0, "hub_m": 120.0, "rotor_m": 150.0}}, {"type": "Feature", "geometry": {"type": "Point", "coordinates": [-93.94162, 42.53593]}, "properties": {"kind": "turbine", "i": 89, "mw": 6.0, "hub_m": 120.0, "rotor_m": 150.0}}, {"type": "Feature", "geometry": {"type": "Point", "coordinates": [-94.08247, 42.45248]}, "properties": {"kind": "turbine", "i": 90, "mw": 6.0, "hub_m": 120.0, "rotor_m": 150.0}}, {"type": "Feature", "geometry": {"type": "Point", "coordinates": [-93.95516, 42.54897]}, "properties": {"kind": "turbine", "i": 91, "mw": 6.0, "hub_m": 120.0, "rotor_m": 150.0}}, {"type": "Feature", "geometry": {"type": "Point", "coordinates": [-93.98205, 42.5619]}, "properties": {"kind": "turbine", "i": 92, "mw": 6.0, "hub_m": 120.0, "rotor_m": 150.0}}, {"type": "Feature", "geometry": {"type": "Point", "coordinates": [-94.09284, 42.53788]}, "properties": {"kind": "turbine", "i": 93, "mw": 6.0, "hub_m": 120.0, "rotor_m": 150.0}}]}