{"type": "FeatureCollection", "features": [{"type": "Feature", "geometry": {"type": "MultiPolygon", "coordinates": [[[[6.80098, 51.61256], [6.80148, 51.61261], [6.80124, 51.61239], [6.80098, 51.61256]]], [[[6.8174, 51.62644], [6.81699, 51.62696], [6.81872, 51.62731], [6.81971, 51.62814], [6.82537, 51.62626], [6.82317, 51.62516], [6.82315, 51.62448], [6.8174, 51.62644]]], [[[6.82829, 51.62967], [6.82594, 51.63053], [6.8258, 51.63119], [6.82789, 51.63117], [6.82803, 51.63152], [6.83016, 51.6308], [6.83002, 51.62904], [6.82829, 51.62967]]], [[[6.82155, 51.63279], [6.8231, 51.63376], [6.82404, 51.63533], [6.82558, 51.63484], [6.82494, 51.63453], [6.82509, 51.63382], [6.82408, 51.63417], [6.82353, 51.63308], [6.82233, 51.63239], [6.82155, 51.63279]]], [[[6.82285, 51.65547], [6.82114, 51.65514], [6.82056, 51.65593], [6.82386, 51.65725], [6.82497, 51.65643], [6.82285, 51.65547]]], [[[6.87571, 51.63417], [6.87594, 51.63239], [6.87722, 51.63106], [6.88033, 51.62979], [6.88358, 51.62987], [6.88429, 51.62836], [6.87732, 51.62718], [6.87721, 51.62882], [6.87831, 51.62904], [6.877, 51.62893], [6.87681, 51.62928], [6.87847, 51.62956], [6.87823, 51.63004], [6.87619, 51.62978], [6.87479, 51.63192], [6.87339, 51.63174], [6.87339, 51.63174], [6.87579, 51.63207], [6.87474, 51.6339], [6.87571, 51.63417]]], [[[6.88807, 51.62207], [6.88683, 51.62116], [6.88637, 51.62158], [6.88532, 51.62146], [6.88333, 51.62028], [6.8822, 51.62051], [6.88596, 51.62269], [6.88807, 51.62207]]], [[[6.87286, 51.61406], [6.87315, 51.61369], [6.87133, 51.61338], [6.87108, 51.61392], [6.87267, 51.6143], [6.87286, 51.61406]]], [[[6.84337, 51.60552], [6.84614, 51.60599], [6.8463, 51.60477], [6.84203, 51.60392], [6.84137, 51.60508], [6.84399, 51.60544], [6.84337, 51.60552]]], [[[6.84632, 51.60601], [6.84834, 51.60516], [6.84655, 51.60467], [6.84847, 51.60506], [6.85129, 51.60432], [6.8486, 51.60302], [6.85158, 51.60433], [6.8532, 51.60456], [6.85484, 51.60364], [6.85048, 51.60162], [6.85501, 51.60355], [6.85591, 51.60304], [6.85277, 51.60234], [6.85092, 51.60126], [6.84657, 51.60453], [6.84632, 51.60601]]], [[[6.85546, 51.60623], [6.85879, 51.6064], [6.85886, 51.60584], [6.85801, 51.60579], [6.85548, 51.60457], [6.85546, 51.60623]]], [[[6.85916, 51.60645], [6.86314, 51.6072], [6.86369, 51.60624], [6.85925, 51.60439], [6.85916, 51.60645]]], [[[6.8637, 51.60611], [6.86402, 51.60488], [6.86492, 51.60413], [6.86628, 51.60372], [6.86796, 51.60381], [6.86706, 51.60266], [6.86418, 51.60147], [6.86221, 51.60367], [6.85925, 51.60251], [6.85927, 51.60435], [6.8637, 51.60611]], [[6.86313, 51.60413], [6.86319, 51.60408], [6.86378, 51.60439], [6.86313, 51.60413]]], [[[6.88153, 51.60649], [6.88269, 51.60722], [6.88359, 51.60842], [6.88363, 51.60802], [6.88411, 51.60772], [6.88309, 51.60641], [6.88149, 51.60583], [6.88113, 51.60632], [6.88153, 51.60649]]], [[[6.93142, 51.57963], [6.93268, 51.5803], [6.93359, 51.5812], [6.93264, 51.57928], [6.93142, 51.57963]]], [[[6.82602, 51.58611], [6.82671, 51.58767], [6.82901, 51.58878], [6.83159, 51.58916], [6.82949, 51.58707], [6.82895, 51.58728], [6.82838, 51.58587], [6.82602, 51.58611]]], [[[6.80775, 51.59897], [6.80656, 51.59809], [6.80602, 51.59805], [6.80569, 51.59867], [6.80802, 51.59913], [6.80775, 51.59897]]], [[[6.86838, 51.61573], [6.8679, 51.61655], [6.87074, 51.61668], [6.87145, 51.6158], [6.86838, 51.61573]]], [[[6.90431, 51.63633], [6.90445, 51.63658], [6.90456, 51.63643], [6.90431, 51.63633]]], [[[6.84577, 51.66017], [6.8454, 51.65989], [6.84489, 51.66019], [6.84576, 51.66084], [6.84615, 51.6604], [6.84577, 51.66017]]], [[[6.856, 51.60299], [6.85634, 51.6028], [6.85563, 51.60282], [6.856, 51.60299]]], [[[6.85509, 51.60421], [6.85393, 51.60485], [6.85499, 51.60585], [6.85537, 51.60411], [6.85509, 51.60421]]], [[[6.87084, 51.59007], [6.87118, 51.58933], [6.86973, 51.58818], [6.86901, 51.58865], [6.87084, 51.59007]]], [[[6.85799, 51.64147], [6.85995, 51.64116], [6.85994, 51.64109], [6.85786, 51.6414], [6.85799, 51.64147]]], [[[6.86232, 51.60354], [6.86229, 51.60353], [6.86228, 51.60354], [6.86232, 51.60354]]], [[[6.87127, 51.58862], [6.87184, 51.58902], [6.87378, 51.58811], [6.87637, 51.58758], [6.87374, 51.58692], [6.87127, 51.58862]]], [[[6.84188, 51.60332], [6.84219, 51.60346], [6.84678, 51.59883], [6.84382, 51.60138], [6.84227, 51.60086], [6.84207, 51.60106], [6.8435, 51.60173], [6.84188, 51.60332]]], [[[6.80649, 51.59965], [6.80714, 51.60165], [6.81071, 51.60138], [6.80915, 51.59992], [6.80649, 51.59965]], [[6.80824, 51.60102], [6.80808, 51.60094], [6.80838, 51.60072], [6.80842, 51.60077], [6.80824, 51.60102]]], [[[6.83102, 51.58667], [6.83238, 51.58617], [6.83192, 51.58559], [6.83068, 51.58582], [6.83102, 51.58667]]], [[[6.83307, 51.58421], [6.83251, 51.58431], [6.83276, 51.58458], [6.83322, 51.58417], [6.83307, 51.58421]]], [[[6.84107, 51.5914], [6.84078, 51.59109], [6.84029, 51.5919], [6.84042, 51.59196], [6.84107, 51.5914]]], [[[6.83124, 51.58762], [6.832, 51.58803], [6.83268, 51.58749], [6.83138, 51.58663], [6.83033, 51.58725], [6.83124, 51.58762]]], [[[6.8592, 51.60254], [6.85917, 51.60255], [6.85917, 51.60255], [6.8592, 51.60254]]], [[[6.83531, 51.63595], [6.83653, 51.63624], [6.83724, 51.63608], [6.83655, 51.63554], [6.83531, 51.63595]]], [[[6.85294, 51.62286], [6.85469, 51.62317], [6.85601, 51.62036], [6.85369, 51.62103], [6.85294, 51.62286]]], [[[6.82646, 51.62565], [6.82592, 51.62557], [6.8254, 51.62546], [6.82614, 51.62585], [6.82646, 51.62565]]], [[[6.84094, 51.62685], [6.8408, 51.62703], [6.84139, 51.62731], [6.84152, 51.62711], [6.84094, 51.62685]]], [[[6.83921, 51.66225], [6.83886, 51.66306], [6.8384, 51.66364], [6.83952, 51.66337], [6.83994, 51.66208], [6.83926, 51.66199], [6.83921, 51.66225]]], [[[6.86219, 51.62154], [6.86201, 51.61952], [6.86136, 51.61941], [6.86017, 51.62202], [6.86219, 51.62154]]], [[[6.85976, 51.6222], [6.85527, 51.62227], [6.85487, 51.62319], [6.85896, 51.62393], [6.85976, 51.6222]]], [[[6.87894, 51.54999], [6.87952, 51.54959], [6.87579, 51.54745], [6.87561, 51.5487], [6.87421, 51.54901], [6.87475, 51.54982], [6.87676, 51.54949], [6.87894, 51.54999]]], [[[6.87392, 51.55345], [6.87428, 51.55457], [6.87558, 51.55502], [6.87585, 51.5557], [6.87735, 51.5559], [6.87997, 51.55503], [6.87851, 51.55401], [6.87609, 51.55426], [6.87392, 51.55345]]], [[[6.88085, 51.56099], [6.88281, 51.56259], [6.8841, 51.56296], [6.88662, 51.56283], [6.89204, 51.56517], [6.89495, 51.56496], [6.89469, 51.5636], [6.8959, 51.56226], [6.89155, 51.56056], [6.89025, 51.55998], [6.88946, 51.55938], [6.88725, 51.5587], [6.88468, 51.55728], [6.88256, 51.55659], [6.88154, 51.55712], [6.88241, 51.55823], [6.88232, 51.55969], [6.88085, 51.56099]]], [[[6.89618, 51.56207], [6.89637, 51.56196], [6.89102, 51.55964], [6.89089, 51.56021], [6.89618, 51.56207]]], [[[6.91104, 51.63698], [6.91057, 51.63603], [6.9088, 51.63763], [6.91061, 51.63828], [6.91115, 51.6376], [6.9123, 51.63807], [6.91254, 51.6379], [6.91104, 51.63698]]], [[[6.91314, 51.63805], [6.91335, 51.63814], [6.91339, 51.6381], [6.91334, 51.63809], [6.91314, 51.63805]]], [[[6.91901, 51.63709], [6.91868, 51.6372], [6.92095, 51.63777], [6.92088, 51.63756], [6.91901, 51.63709]]], [[[6.80203, 51.63954], [6.80223, 51.63937], [6.80175, 51.63974], [6.80203, 51.63954]]], [[[6.79884, 51.63079], [6.79921, 51.63052], [6.79846, 51.63037], [6.79874, 51.63089], [6.79884, 51.63079]]], [[[6.81265, 51.63013], [6.81248, 51.63095], [6.81823, 51.62887], [6.8158, 51.62813], [6.81269, 51.62866], [6.81259, 51.62961], [6.81346, 51.62981], [6.81263, 51.62982], [6.81265, 51.63013]]], [[[6.82128, 51.63907], [6.82565, 51.64037], [6.8271, 51.63973], [6.82673, 51.63884], [6.82498, 51.63929], [6.82298, 51.63915], [6.8226, 51.63944], [6.82128, 51.63907]], [[6.82706, 51.63966], [6.82517, 51.64019], [6.82444, 51.63998], [6.82564, 51.63948], [6.82706, 51.63966]]], [[[6.88371, 51.6088], [6.88384, 51.60931], [6.88517, 51.60961], [6.88518, 51.60838], [6.88415, 51.60775], [6.88371, 51.6088]]], [[[6.88561, 51.61167], [6.88643, 51.61128], [6.88595, 51.61088], [6.8851, 51.61169], [6.88561, 51.61167]]], [[[6.90922, 51.67745], [6.91082, 51.67723], [6.9109, 51.67745], [6.90938, 51.67755], [6.91018, 51.67832], [6.91153, 51.67809], [6.91167, 51.67814], [6.91235, 51.67803], [6.91249, 51.67811], [6.91257, 51.67835], [6.91237, 51.67808], [6.91024, 51.67843], [6.91057, 51.67911], [6.91344, 51.67975], [6.91537, 51.67959], [6.91502, 51.67825], [6.91327, 51.67793], [6.91259, 51.67804], [6.91274, 51.6785], [6.91247, 51.67802], [6.91334, 51.67788], [6.91501, 51.67819], [6.91485, 51.67728], [6.91308, 51.67702], [6.91102, 51.6774], [6.91173, 51.67806], [6.91318, 51.67784], [6.9132, 51.67786], [6.91169, 51.6781], [6.91096, 51.67744], [6.91088, 51.67722], [6.91277, 51.67694], [6.91087, 51.67714], [6.91254, 51.67686], [6.91207, 51.67669], [6.90922, 51.67745]], [[6.91263, 51.67847], [6.91277, 51.67875], [6.91155, 51.67895], [6.9114, 51.67865], [6.91263, 51.67847]]], [[[6.89731, 51.68651], [6.89731, 51.68633], [6.8969, 51.68661], [6.89732, 51.68661], [6.89731, 51.68651]]], [[[6.94945, 51.73474], [6.9487, 51.73588], [6.94933, 51.73575], [6.94915, 51.73625], [6.9498, 51.73678], [6.95049, 51.73566], [6.94945, 51.73474]]], [[[6.9439, 51.73604], [6.94636, 51.73528], [6.94864, 51.73584], [6.94939, 51.7347], [6.94764, 51.73328], [6.94651, 51.7342], [6.94506, 51.7346], [6.94036, 51.73393], [6.9439, 51.73604]]], [[[6.93829, 51.69311], [6.9379, 51.69229], [6.93672, 51.69218], [6.93613, 51.69356], [6.93829, 51.69311]]], [[[6.93489, 51.69165], [6.93437, 51.69139], [6.93259, 51.69143], [6.9334, 51.69243], [6.93448, 51.69269], [6.93489, 51.69165]]], [[[6.92745, 51.73487], [6.92837, 51.73457], [6.92777, 51.73402], [6.92858, 51.73453], [6.93617, 51.73349], [6.93714, 51.73265], [6.93573, 51.73112], [6.93532, 51.72992], [6.93486, 51.73158], [6.93099, 51.73014], [6.92703, 51.73329], [6.92527, 51.73278], [6.9242, 51.7339], [6.92745, 51.73487]], [[6.92817, 51.73402], [6.92693, 51.73341], [6.92706, 51.73331], [6.92774, 51.73376], [6.92817, 51.73402]]], [[[6.94235, 51.56433], [6.94145, 51.56443], [6.9419, 51.56488], [6.94254, 51.56462], [6.94235, 51.56433]]], [[[6.94201, 51.565], [6.94253, 51.56517], [6.94259, 51.56468], [6.94196, 51.56495], [6.94201, 51.565]]], [[[6.94265, 51.56444], [6.94268, 51.56437], [6.9426, 51.56436], [6.94265, 51.56445], [6.94265, 51.56444]]], [[[6.93635, 51.73347], [6.93721, 51.73271], [6.93718, 51.73269], [6.93628, 51.73347], [6.93635, 51.73347]]], [[[6.93705, 51.72542], [6.93699, 51.72537], [6.93663, 51.72506], [6.93654, 51.72555], [6.93705, 51.72542]]], [[[6.95349, 51.72298], [6.95348, 51.723], [6.95348, 51.72301], [6.95349, 51.72298]]], [[[6.93786, 51.73341], [6.93841, 51.73346], [6.93866, 51.7335], [6.93772, 51.73305], [6.93735, 51.7334], [6.93786, 51.73341]]], [[[6.97822, 51.69047], [6.97727, 51.68916], [6.97711, 51.68945], [6.97469, 51.68844], [6.97339, 51.68884], [6.97585, 51.68948], [6.97805, 51.69097], [6.97822, 51.69047]]], [[[6.99127, 51.50607], [6.99134, 51.50697], [6.99141, 51.50697], [6.99193, 51.50627], [6.99127, 51.50607]]], [[[6.99094, 51.54362], [6.98923, 51.54336], [6.98801, 51.54406], [6.98978, 51.54463], [6.99094, 51.54362]]], [[[6.97683, 51.63061], [6.97722, 51.62975], [6.97693, 51.62927], [6.97636, 51.63083], [6.97683, 51.63061]]], [[[7.02174, 51.65182], [7.0216, 51.65222], [7.02452, 51.65288], [7.02547, 51.65113], [7.02785, 51.65038], [7.02784, 51.64799], [7.02605, 51.64769], [7.02528, 51.64961], [7.02391, 51.65069], [7.02175, 51.65145], [7.02174, 51.65182]]], [[[7.01378, 51.69675], [7.01594, 51.6974], [7.01568, 51.69793], [7.01657, 51.69992], [7.01829, 51.69896], [7.02078, 51.69896], [7.01921, 51.69832], [7.01941, 51.69755], [7.02217, 51.69882], [7.02197, 51.69943], [7.0231, 51.70081], [7.02286, 51.70181], [7.02437, 51.70238], [7.02554, 51.70135], [7.02596, 51.70162], [7.02557, 51.70197], [7.02675, 51.70159], [7.02784, 51.69999], [7.02628, 51.69826], [7.02604, 51.6969], [7.02699, 51.69519], [7.02863, 51.69417], [7.0285, 51.69345], [7.02742, 51.69308], [7.02536, 51.69304], [7.02421, 51.69414], [7.02371, 51.69416], [7.02217, 51.6988], [7.01945, 51.69754], [7.02051, 51.69436], [7.01856, 51.69364], [7.01626, 51.69335], [7.01415, 51.69211], [7.01265, 51.6964], [7.01378, 51.69675]], [[7.0159, 51.6942], [7.0164, 51.69424], [7.01587, 51.69424], [7.0159, 51.6942]], [[7.016, 51.69475], [7.01611, 51.69497], [7.01416, 51.69467], [7.01434, 51.69439], [7.016, 51.69475]]], [[[7.12569, 51.55412], [7.12496, 51.55255], [7.12344, 51.55239], [7.1228, 51.55433], [7.12525, 51.555], [7.12725, 51.55707], [7.12908, 51.5577], [7.13056, 51.55885], [7.13166, 51.55783], [7.1313, 51.55627], [7.13078, 51.55588], [7.12757, 51.55534], [7.12569, 51.55412]]], [[[7.12169, 51.55256], [7.12143, 51.55284], [7.12291, 51.55348], [7.12328, 51.55263], [7.12194, 51.55222], [7.12169, 51.55256]]], [[[6.82834, 51.64392], [6.82849, 51.64396], [6.82852, 51.64397], [6.8284, 51.64389], [6.82834, 51.64392]]], [[[7.01898, 51.51338], [7.01839, 51.5131], [7.01821, 51.51356], [7.01876, 51.51369], [7.01898, 51.51338]]], [[[7.19801, 51.67492], [7.19691, 51.67485], [7.1959, 51.67465], [7.19704, 51.67514], [7.19836, 51.67491], [7.19801, 51.67492]]], [[[7.19188, 51.67439], [7.19112, 51.67447], [7.19324, 51.67483], [7.19414, 51.6741], [7.19188, 51.67439]]], [[[7.17423, 51.7132], [7.17421, 51.71365], [7.1742, 51.7139], [7.17461, 51.71327], [7.17423, 51.7132]]], [[[7.04406, 51.66462], [7.0431, 51.66393], [7.04271, 51.66438], [7.04398, 51.66532], [7.04406, 51.66462]]], [[[7.04285, 51.6646], [7.04169, 51.66551], [7.04133, 51.66649], [7.04285, 51.6646]]], [[[7.042, 51.66842], [7.04132, 51.66874], [7.04157, 51.66897], [7.04255, 51.6688], [7.042, 51.66842]]], [[[7.04449, 51.66922], [7.04396, 51.66879], [7.04336, 51.66906], [7.04435, 51.66927], [7.04449, 51.66922]]], [[[7.19899, 51.70156], [7.19512, 51.70045], [7.1936, 51.70182], [7.19389, 51.70226], [7.19879, 51.70328], [7.19991, 51.70241], [7.19969, 51.70138], [7.19899, 51.70156]]], [[[7.19876, 51.69271], [7.1989, 51.69239], [7.19731, 51.6922], [7.19727, 51.69261], [7.19876, 51.69271]]], [[[7.20016, 51.69166], [7.20025, 51.69125], [7.19922, 51.69112], [7.19912, 51.69163], [7.20016, 51.69166]]], [[[7.22232, 51.68855], [7.22232, 51.6886], [7.22237, 51.68855], [7.22232, 51.68855]]], [[[7.18667, 51.6848], [7.18686, 51.68456], [7.18659, 51.68451], [7.18667, 51.6848]]], [[[7.22463, 51.66989], [7.22479, 51.67022], [7.22493, 51.66985], [7.22463, 51.66989]]], [[[7.23102, 51.67087], [7.23091, 51.67108], [7.23213, 51.6713], [7.23224, 51.67112], [7.23102, 51.67087]]], [[[7.18838, 51.70842], [7.18867, 51.70816], [7.18937, 51.70835], [7.18945, 51.70774], [7.188, 51.7074], [7.18785, 51.70842], [7.18838, 51.70842]]], [[[7.19082, 51.70805], [7.19081, 51.70805], [7.19067, 51.70822], [7.19082, 51.70805]]], [[[7.2124, 51.67402], [7.21711, 51.67769], [7.2176, 51.67745], [7.21274, 51.67367], [7.2124, 51.67402]]], [[[7.21395, 51.67899], [7.21412, 51.6789], [7.21336, 51.6786], [7.2134, 51.67863], [7.21395, 51.67899]]], [[[6.96226, 51.73929], [6.96196, 51.73834], [6.96143, 51.73944], [6.96225, 51.74047], [6.96282, 51.74001], [6.96226, 51.73929]]], [[[7.00752, 51.74747], [7.00769, 51.74742], [7.00778, 51.74712], [7.0072, 51.74759], [7.00752, 51.74747]]], [[[7.00853, 51.74047], [7.00882, 51.74079], [7.01463, 51.74092], [7.01355, 51.73875], [7.01104, 51.73864], [7.01076, 51.73988], [7.00764, 51.7395], [7.00853, 51.74047]]], [[[7.00957, 51.7339], [7.00961, 51.73422], [7.01367, 51.7348], [7.01351, 51.73421], [7.00967, 51.7336], [7.00957, 51.7339]]], [[[7.00582, 51.74834], [7.00601, 51.7482], [7.00583, 51.74827], [7.00582, 51.74834]]], [[[7.0157, 51.70321], [7.0168, 51.70256], [7.01607, 51.70141], [7.01423, 51.70291], [7.0157, 51.70321]]], [[[7.04562, 51.69738], [7.04547, 51.69743], [7.04566, 51.69747], [7.04562, 51.69738]]], [[[6.98778, 51.62225], [6.98775, 51.62247], [6.98806, 51.62225], [6.98778, 51.62225]]], [[[6.98539, 51.61857], [6.98614, 51.61916], [6.98644, 51.618], [6.98483, 51.61793], [6.98539, 51.61857]]], [[[7.07489, 51.63462], [7.07357, 51.63388], [7.07216, 51.63486], [7.07236, 51.63547], [7.0745, 51.63528], [7.07674, 51.63566], [7.07689, 51.63542], [7.07489, 51.63462]]], [[[7.21288, 51.63527], [7.20911, 51.63615], [7.20891, 51.63661], [7.21132, 51.6373], [7.21355, 51.6363], [7.21662, 51.63611], [7.21696, 51.63469], [7.21649, 51.63432], [7.21288, 51.63527]]], [[[7.14606, 51.67217], [7.14372, 51.67219], [7.14319, 51.67354], [7.14401, 51.67395], [7.14517, 51.67332], [7.14493, 51.67292], [7.14375, 51.67272], [7.14381, 51.67228], [7.14606, 51.67217]]], [[[7.14994, 51.67634], [7.14988, 51.67629], [7.14987, 51.6763], [7.15057, 51.6768], [7.14994, 51.67634]]], [[[7.15188, 51.68127], [7.15033, 51.68325], [7.14886, 51.68365], [7.14747, 51.68349], [7.14652, 51.68208], [7.14839, 51.67879], [7.14818, 51.67852], [7.14639, 51.67869], [7.14685, 51.67924], [7.14593, 51.6824], [7.14778, 51.68556], [7.14784, 51.68648], [7.15188, 51.68127]]], [[[7.14707, 51.68785], [7.14715, 51.68771], [7.14469, 51.68448], [7.14465, 51.68466], [7.14707, 51.68785]]], [[[7.09103, 51.59299], [7.09111, 51.59301], [7.09102, 51.59297], [7.09103, 51.59299]]], [[[7.07769, 51.59242], [7.07721, 51.59256], [7.07785, 51.5928], [7.07775, 51.59261], [7.07769, 51.59242]]], [[[7.05129, 51.74804], [7.05058, 51.74832], [7.05081, 51.74913], [7.0512, 51.7491], [7.05129, 51.74804]]], [[[7.05192, 51.7477], [7.05159, 51.74789], [7.05331, 51.74849], [7.05332, 51.74835], [7.05192, 51.7477]]], [[[7.0626, 51.74807], [7.06111, 51.74725], [7.06, 51.74843], [7.06274, 51.74823], [7.0626, 51.74807]]], [[[7.09717, 51.73548], [7.09559, 51.73724], [7.09752, 51.73803], [7.09842, 51.73706], [7.0991, 51.7373], [7.09842, 51.73816], [7.09878, 51.73827], [7.09934, 51.73756], [7.10257, 51.7385], [7.1023, 51.73934], [7.10477, 51.73991], [7.10494, 51.73795], [7.10441, 51.73603], [7.10071, 51.73547], [7.09826, 51.73405], [7.09717, 51.73548]]], [[[7.09339, 51.7282], [7.09206, 51.72847], [7.09216, 51.72886], [7.09479, 51.72814], [7.09512, 51.7286], [7.09306, 51.72923], [7.09395, 51.72948], [7.09535, 51.72906], [7.09572, 51.72949], [7.0949, 51.72981], [7.09588, 51.73032], [7.09632, 51.72948], [7.09696, 51.72956], [7.09759, 51.72909], [7.09806, 51.72934], [7.09647, 51.73063], [7.09759, 51.73148], [7.09758, 51.73039], [7.09839, 51.72906], [7.09788, 51.72821], [7.09693, 51.72768], [7.09628, 51.72782], [7.0975, 51.72846], [7.09644, 51.7292], [7.09569, 51.72871], [7.09569, 51.72793], [7.09339, 51.7282]]], [[[7.04186, 51.74648], [7.04185, 51.74658], [7.04191, 51.74671], [7.04201, 51.74666], [7.04186, 51.74648]]], [[[7.03899, 51.70051], [7.03744, 51.70045], [7.03925, 51.70258], [7.04014, 51.70212], [7.03994, 51.70168], [7.04036, 51.70214], [7.0432, 51.70563], [7.04168, 51.70648], [7.04327, 51.70567], [7.04352, 51.70608], [7.04284, 51.70701], [7.04433, 51.7084], [7.04403, 51.70719], [7.04487, 51.706], [7.0436, 51.70363], [7.04392, 51.70318], [7.04343, 51.70206], [7.04242, 51.70151], [7.04217, 51.70084], [7.03899, 51.70051]], [[7.04347, 51.70433], [7.044, 51.70494], [7.0436, 51.70503], [7.04325, 51.70448], [7.04347, 51.70433]]], [[[7.04481, 51.70146], [7.04541, 51.70144], [7.04483, 51.70134], [7.04481, 51.70146]]], [[[7.05441, 51.70516], [7.05393, 51.7051], [7.05348, 51.705], [7.05378, 51.70549], [7.05441, 51.70516]]], [[[7.04938, 51.64072], [7.04901, 51.63992], [7.04847, 51.64186], [7.04858, 51.64221], [7.04923, 51.64146], [7.0488, 51.64094], [7.04938, 51.64072]]], [[[7.04834, 51.64232], [7.04833, 51.64236], [7.0484, 51.64232], [7.04834, 51.64232]]], [[[6.89271, 51.71859], [6.8927, 51.71863], [6.89277, 51.71862], [6.89271, 51.71859]]], [[[6.89287, 51.70616], [6.89288, 51.70658], [6.89499, 51.70471], [6.89336, 51.70354], [6.89409, 51.7032], [6.8931, 51.70272], [6.89144, 51.70334], [6.89287, 51.70616]]], [[[6.89422, 51.70189], [6.89369, 51.70234], [6.8953, 51.70245], [6.89609, 51.70168], [6.89515, 51.70119], [6.89422, 51.70189]]], [[[6.97454, 51.7417], [6.9736, 51.74184], [6.97355, 51.74234], [6.97144, 51.74248], [6.97572, 51.7426], [6.97575, 51.74423], [6.97806, 51.74465], [6.97568, 51.74137], [6.97454, 51.7417]]], [[[6.9806, 51.73516], [6.98055, 51.73512], [6.9804, 51.7352], [6.9806, 51.73516]]], [[[6.99763, 51.7353], [6.99714, 51.73487], [6.99787, 51.73707], [6.99703, 51.73788], [6.99892, 51.73817], [6.99891, 51.7367], [6.99763, 51.7353]]], [[[6.92287, 51.7333], [6.92259, 51.73328], [6.9222, 51.73327], [6.9227, 51.73343], [6.92287, 51.7333]]], [[[6.95315, 51.7121], [6.95237, 51.71161], [6.95174, 51.71211], [6.95316, 51.71211], [6.95315, 51.7121]]], [[[6.94374, 51.63028], [6.94314, 51.6303], [6.94271, 51.63053], [6.94347, 51.6308], [6.94374, 51.63028]]], [[[6.92199, 51.67875], [6.92151, 51.67837], [6.92179, 51.67931], [6.92338, 51.67944], [6.92199, 51.67875]]], [[[6.93458, 51.61672], [6.9345, 51.61675], [6.93456, 51.61679], [6.93458, 51.61672]]], [[[6.92628, 51.68975], [6.92633, 51.68991], [6.92639, 51.68977], [6.92628, 51.68975]]], [[[6.96077, 51.70205], [6.96032, 51.70219], [6.96251, 51.70259], [6.96259, 51.70227], [6.96077, 51.70205]]], [[[6.96395, 51.70228], [6.96329, 51.7023], [6.96295, 51.70275], [6.96346, 51.70297], [6.96395, 51.70228]]], [[[6.95859, 51.62403], [6.95906, 51.6259], [6.96004, 51.62626], [6.9607, 51.62528], [6.95995, 51.62437], [6.95859, 51.62403]]], [[[7.00601, 51.69561], [7.00507, 51.69551], [7.00613, 51.69726], [7.00635, 51.69643], [7.00601, 51.69561]]], [[[7.03758, 51.6494], [7.03747, 51.64928], [7.03659, 51.64889], [7.0364, 51.64925], [7.03758, 51.6494]]], [[[7.12749, 51.73156], [7.12711, 51.73211], [7.13207, 51.73211], [7.13242, 51.73186], [7.12824, 51.73091], [7.12749, 51.73156]]], [[[7.07917, 51.74072], [7.07877, 51.74017], [7.0772, 51.74078], [7.07796, 51.74071], [7.07917, 51.74072]]], [[[7.07955, 51.73512], [7.07995, 51.73484], [7.07901, 51.73476], [7.07942, 51.73524], [7.07955, 51.73512]]], [[[7.07358, 51.73764], [7.07383, 51.73754], [7.0734, 51.73735], [7.07356, 51.7376], [7.07358, 51.73764]]], [[[7.06858, 51.73523], [7.06959, 51.73533], [7.07031, 51.73481], [7.0658, 51.73471], [7.06556, 51.73508], [7.06858, 51.73523]]], [[[7.07114, 51.72657], [7.07155, 51.72641], [7.07192, 51.7263], [7.07079, 51.72624], [7.07114, 51.72657]]], [[[7.08423, 51.7286], [7.08413, 51.72859], [7.08422, 51.72867], [7.08423, 51.7286]]], [[[7.09538, 51.58555], [7.09577, 51.58606], [7.09651, 51.586], [7.09735, 51.58524], [7.09629, 51.58495], [7.09554, 51.58509], [7.09538, 51.58555]]], [[[7.07016, 51.63036], [7.07008, 51.63051], [7.07022, 51.63041], [7.07016, 51.63036]]], [[[7.05923, 51.71214], [7.05812, 51.71208], [7.05812, 51.71353], [7.05965, 51.71349], [7.0596, 51.71213], [7.05923, 51.71214]]], [[[7.13121, 51.57851], [7.13211, 51.57874], [7.13199, 51.57814], [7.13119, 51.57818], [7.13121, 51.57851]]], [[[7.17004, 51.6558], [7.16923, 51.65654], [7.16813, 51.65744], [7.1701, 51.65765], [7.17124, 51.65654], [7.17004, 51.6558]]], [[[7.18028, 51.63286], [7.18029, 51.63263], [7.17943, 51.63325], [7.18037, 51.63333], [7.18028, 51.63286]]], [[[7.1687, 51.64666], [7.16875, 51.6464], [7.16754, 51.64723], [7.16852, 51.64751], [7.1687, 51.64666]]], [[[7.17154, 51.56969], [7.17251, 51.56898], [7.1706, 51.5672], [7.17007, 51.5659], [7.16914, 51.56569], [7.16861, 51.56651], [7.16865, 51.56623], [7.16863, 51.56598], [7.16878, 51.56583], [7.16882, 51.5656], [7.16881, 51.56559], [7.16862, 51.56599], [7.1686, 51.56653], [7.16825, 51.56723], [7.16788, 51.56709], [7.16711, 51.56756], [7.16717, 51.56745], [7.16713, 51.56741], [7.16681, 51.56745], [7.1669, 51.56722], [7.16716, 51.56707], [7.16723, 51.56702], [7.16726, 51.56691], [7.16725, 51.56654], [7.1671, 51.56655], [7.16688, 51.56681], [7.16712, 51.56538], [7.16671, 51.56664], [7.16636, 51.56671], [7.16654, 51.56657], [7.16673, 51.56544], [7.16622, 51.56664], [7.16353, 51.56666], [7.16496, 51.56682], [7.16487, 51.5672], [7.16273, 51.56693], [7.16474, 51.56769], [7.16389, 51.56776], [7.16241, 51.56703], [7.16125, 51.56724], [7.1605, 51.56866], [7.15917, 51.5696], [7.15804, 51.57203], [7.16021, 51.57048], [7.16366, 51.56912], [7.16587, 51.56897], [7.17154, 51.56969]], [[7.16883, 51.56657], [7.16904, 51.56605], [7.16927, 51.56601], [7.16887, 51.56669], [7.16883, 51.56657]], [[7.16866, 51.56696], [7.16876, 51.56711], [7.16874, 51.56713], [7.16854, 51.56684], [7.16866, 51.56696]], [[7.16545, 51.56713], [7.1653, 51.56685], [7.16625, 51.56692], [7.16585, 51.56704], [7.16545, 51.56713]], [[7.16898, 51.5672], [7.16878, 51.56717], [7.16905, 51.56703], [7.16913, 51.56712], [7.16898, 51.5672]], [[7.16722, 51.56671], [7.16722, 51.567], [7.1669, 51.56718], [7.16678, 51.56746], [7.16707, 51.56758], [7.16502, 51.56786], [7.16554, 51.56757], [7.16521, 51.5672], [7.16581, 51.56708], [7.16647, 51.56685], [7.16673, 51.56663], [7.16683, 51.56631], [7.16686, 51.56682], [7.16722, 51.56671]], [[7.16909, 51.56715], [7.1696, 51.56742], [7.1697, 51.56764], [7.16885, 51.56725], [7.16909, 51.56715]], [[7.1648, 51.56746], [7.16458, 51.56741], [7.16428, 51.56731], [7.16486, 51.56724], [7.1648, 51.56746]], [[7.17006, 51.56791], [7.17005, 51.56776], [7.16949, 51.56704], [7.1704, 51.56762], [7.17006, 51.56791]], [[7.1692, 51.56751], [7.16982, 51.56786], [7.16986, 51.56793], [7.16961, 51.56791], [7.1692, 51.56751]], [[7.16446, 51.56784], [7.164, 51.56782], [7.16394, 51.5678], [7.16473, 51.56771], [7.16446, 51.56784]], [[7.17012, 51.56829], [7.17025, 51.56844], [7.17041, 51.56857], [7.16969, 51.56818], [7.17012, 51.56829]], [[7.16984, 51.56833], [7.17026, 51.56868], [7.1703, 51.56895], [7.16971, 51.5684], [7.16984, 51.56833]], [[7.16998, 51.56903], [7.16978, 51.56907], [7.16972, 51.56874], [7.16996, 51.56891], [7.16998, 51.56903]]], [[[7.15822, 51.57238], [7.15823, 51.57236], [7.15793, 51.57226], [7.15792, 51.57229], [7.15822, 51.57238]]], [[[7.16448, 51.56619], [7.16419, 51.56636], [7.16585, 51.56629], [7.16617, 51.5655], [7.16563, 51.56618], [7.16448, 51.56619]]], [[[7.13889, 51.72779], [7.13847, 51.72783], [7.14019, 51.72799], [7.14019, 51.72793], [7.13889, 51.72779]]], [[[7.14421, 51.72715], [7.14344, 51.72755], [7.14376, 51.72833], [7.14464, 51.72752], [7.14421, 51.72715]]], [[[7.14562, 51.72609], [7.14533, 51.72638], [7.14519, 51.7265], [7.14606, 51.72584], [7.14562, 51.72609]]], [[[7.24069, 51.61403], [7.23835, 51.61341], [7.23739, 51.61502], [7.24034, 51.61425], [7.24069, 51.61403]]], [[[6.88111, 51.70549], [6.88137, 51.70511], [6.88164, 51.70443], [6.88008, 51.70546], [6.8801, 51.70585], [6.88088, 51.70603], [6.88111, 51.70549]]], [[[6.8654, 51.70473], [6.86383, 51.70375], [6.86308, 51.70273], [6.86165, 51.70424], [6.86165, 51.70488], [6.86566, 51.70505], [6.8654, 51.70473]]], [[[6.89809, 51.65149], [6.89887, 51.6508], [6.89787, 51.65015], [6.89722, 51.65075], [6.89809, 51.65149]]], [[[6.94464, 51.57872], [6.94533, 51.57828], [6.94521, 51.57775], [6.94244, 51.57857], [6.94415, 51.57917], [6.94464, 51.57872]]], [[[6.99928, 51.63884], [6.99936, 51.63966], [7.00105, 51.6387], [7.00008, 51.63863], [6.99928, 51.63884]]], [[[7.13257, 51.63876], [7.1313, 51.63933], [7.1302, 51.63912], [7.13089, 51.64054], [7.13207, 51.64077], [7.13269, 51.6401], [7.13468, 51.64092], [7.13565, 51.64054], [7.13607, 51.63883], [7.13459, 51.63827], [7.13257, 51.63876]]], [[[7.09266, 51.61584], [7.09244, 51.61636], [7.0954, 51.6162], [7.0955, 51.61476], [7.09266, 51.61584]]], [[[7.09878, 51.61315], [7.09827, 51.61301], [7.09803, 51.61293], [7.09902, 51.61347], [7.09878, 51.61315]]], [[[7.0898, 51.6213], [7.09035, 51.62109], [7.08898, 51.6203], [7.08859, 51.6206], [7.0898, 51.6213]]], [[[7.11594, 51.73977], [7.11588, 51.73948], [7.11524, 51.73984], [7.11551, 51.73993], [7.11594, 51.73977]]], [[[7.11977, 51.73252], [7.11994, 51.73245], [7.11974, 51.73239], [7.11966, 51.73258], [7.11977, 51.73252]]], [[[7.11775, 51.60044], [7.11837, 51.59971], [7.11874, 51.59934], [7.11663, 51.59949], [7.11775, 51.60044]]], [[[7.26494, 51.61955], [7.26335, 51.6186], [7.2624, 51.6174], [7.26108, 51.61821], [7.26126, 51.6191], [7.2632, 51.61943], [7.26512, 51.62037], [7.26494, 51.61955]]], [[[7.01978, 51.69697], [7.0209, 51.69678], [7.02067, 51.6965], [7.01987, 51.69672], [7.01978, 51.69697]]], [[[6.95507, 51.72209], [6.95586, 51.72182], [6.95586, 51.72181], [6.9551, 51.72207], [6.95507, 51.72209]]], [[[6.90075, 51.71186], [6.90095, 51.71171], [6.9008, 51.71181], [6.90075, 51.71186]]], [[[6.89835, 51.71157], [6.89704, 51.7126], [6.8971, 51.71263], [6.89843, 51.71161], [6.89835, 51.71157]]], [[[6.93043, 51.72915], [6.9318, 51.72954], [6.93248, 51.72844], [6.9325, 51.72781], [6.93157, 51.72699], [6.93043, 51.72915]]], [[[6.92924, 51.73098], [6.92877, 51.73091], [6.92654, 51.73253], [6.92695, 51.73272], [6.92924, 51.73098]]], [[[6.94502, 51.71501], [6.94437, 51.71561], [6.94621, 51.71619], [6.94693, 51.71559], [6.94502, 51.71501]]], [[[6.9404, 51.70745], [6.94071, 51.7068], [6.93961, 51.7066], [6.9393, 51.70726], [6.9404, 51.70745]]], [[[6.94187, 51.7147], [6.94271, 51.71477], [6.94313, 51.71448], [6.94215, 51.71433], [6.94187, 51.7147]]], [[[7.13497, 51.73458], [7.13542, 51.73446], [7.13409, 51.73347], [7.13508, 51.73453], [7.13497, 51.73458]]], [[[7.12253, 51.55403], [7.12202, 51.55409], [7.12089, 51.55395], [7.12256, 51.5543], [7.12253, 51.55403]]], [[[7.16533, 51.56603], [7.16541, 51.56604], [7.16543, 51.56599], [7.16533, 51.56598], [7.16533, 51.56603]]], [[[7.14693, 51.6749], [7.14615, 51.67568], [7.14639, 51.67546], [7.14693, 51.6749]]], [[[7.14578, 51.6757], [7.1451, 51.67637], [7.14442, 51.67688], [7.14512, 51.67638], [7.14574, 51.67646], [7.14615, 51.67568], [7.14578, 51.6757]]], [[[7.14658, 51.67781], [7.1466, 51.6778], [7.14577, 51.67746], [7.14658, 51.67781]]]]}, "properties": {"kind": "windland", "area_km2": 4.75}}, {"type": "Feature", "geometry": {"type": "MultiPolygon", "coordinates": [[[[6.98838, 51.58029], [6.98821, 51.58023], [6.98817, 51.58102], [6.98859, 51.58037], [6.98838, 51.58029]]], [[[6.9956, 51.5838], [6.99611, 51.58326], [6.99567, 51.58295], [6.99563, 51.5825], [6.9965, 51.58202], [6.9938, 51.582], [6.99125, 51.58122], [6.99077, 51.58172], [6.99198, 51.5818], [6.9925, 51.5822], [6.99232, 51.58267], [6.99252, 51.58316], [6.99191, 51.58378], [6.9956, 51.58449], [6.9956, 51.5838]]], [[[6.98928, 51.58259], [6.98959, 51.58232], [6.9888, 51.58236], [6.9884, 51.58311], [6.98901, 51.58322], [6.98928, 51.58259]]], [[[6.98799, 51.58656], [6.98791, 51.587], [6.98838, 51.5872], [6.98852, 51.58616], [6.98986, 51.58629], [6.99007, 51.58712], [6.99127, 51.58742], [6.99097, 51.58692], [6.99074, 51.58608], [6.99084, 51.58485], [6.98893, 51.58471], [6.9893, 51.58388], [6.98815, 51.58366], [6.98799, 51.58656]]], [[[6.99614, 51.58688], [6.99705, 51.58696], [6.99797, 51.58735], [6.99806, 51.58668], [6.99865, 51.5858], [6.99125, 51.58426], [6.99085, 51.58608], [6.99173, 51.58609], [6.99546, 51.58701], [6.99614, 51.58688]]], [[[6.99293, 51.58895], [6.99347, 51.58941], [6.99737, 51.5911], [6.99859, 51.5904], [6.99818, 51.58961], [6.99831, 51.58893], [6.9975, 51.58903], [6.99694, 51.58882], [6.99674, 51.58846], [6.99599, 51.58854], [6.99545, 51.58839], [6.99499, 51.58759], [6.99528, 51.58711], [6.99238, 51.58649], [6.99108, 51.58638], [6.99093, 51.5866], [6.99147, 51.58738], [6.99192, 51.58767], [6.99306, 51.58793], [6.99308, 51.58838], [6.99539, 51.58873], [6.99198, 51.58836], [6.99223, 51.58887], [6.99293, 51.58895]]], [[[6.99437, 51.59072], [6.9944, 51.59087], [6.99475, 51.5912], [6.99449, 51.59076], [6.99406, 51.59037], [6.99437, 51.59072]]], [[[6.99592, 51.59132], [6.99623, 51.5913], [6.99492, 51.59073], [6.9952, 51.59123], [6.99592, 51.59132]]], [[[6.98702, 51.59305], [6.98737, 51.59306], [6.98779, 51.59317], [6.98765, 51.59288], [6.98703, 51.59287], [6.98702, 51.59305]]], [[[6.98951, 51.59863], [6.99034, 51.59867], [6.99134, 51.59849], [6.99065, 51.59802], [6.99013, 51.59804], [6.98951, 51.59863]]], [[[6.98765, 51.59867], [6.98741, 51.5987], [6.98762, 51.59901], [6.9876, 51.59883], [6.98765, 51.59867]]], [[[6.99304, 51.59956], [6.99215, 51.60004], [6.99162, 51.60011], [6.9917, 51.60036], [6.99217, 51.60016], [6.99278, 51.60017], [6.99351, 51.5994], [6.99401, 51.59806], [6.99344, 51.59802], [6.99358, 51.59843], [6.99309, 51.5989], [6.99304, 51.59956]]], [[[6.97493, 51.59954], [6.97467, 51.59954], [6.97473, 51.59969], [6.97576, 51.59952], [6.97565, 51.59926], [6.97493, 51.59954]]], [[[6.99005, 51.59996], [6.98988, 51.60002], [6.98966, 51.60006], [6.99036, 51.60005], [6.99005, 51.59996]]], [[[6.98925, 51.60005], [6.98905, 51.60004], [6.98905, 51.60011], [6.98946, 51.60007], [6.98925, 51.60005]]], [[[6.98894, 51.60009], [6.98889, 51.60013], [6.98885, 51.60015], [6.98895, 51.60013], [6.98894, 51.60009]]], [[[6.98317, 51.60155], [6.98224, 51.60176], [6.98169, 51.60017], [6.98204, 51.59985], [6.98176, 51.59868], [6.98125, 51.59836], [6.98049, 51.60004], [6.98131, 51.60018], [6.98146, 51.60058], [6.9809, 51.60095], [6.97996, 51.60119], [6.97897, 51.60338], [6.98024, 51.60639], [6.98046, 51.60638], [6.98061, 51.60585], [6.98113, 51.60524], [6.98171, 51.60479], [6.98251, 51.60466], [6.9833, 51.60388], [6.98444, 51.60366], [6.98355, 51.60028], [6.9827, 51.60039], [6.98317, 51.60155]]], [[[6.97783, 51.60109], [6.97805, 51.60139], [6.97903, 51.60113], [6.97976, 51.59953], [6.97937, 51.59948], [6.97876, 51.60078], [6.97783, 51.60109]]], [[[6.9869, 51.60115], [6.98578, 51.60117], [6.9852, 51.60093], [6.98498, 51.60059], [6.98451, 51.60054], [6.98527, 51.60311], [6.98587, 51.6032], [6.98679, 51.60289], [6.98666, 51.60274], [6.98721, 51.60238], [6.9881, 51.60213], [6.98795, 51.60149], [6.98841, 51.60107], [6.98837, 51.60069], [6.98734, 51.60076], [6.9869, 51.60115]]], [[[6.99257, 51.60192], [6.99194, 51.6018], [6.99013, 51.60205], [6.98971, 51.60243], [6.98886, 51.60265], [6.98847, 51.60446], [6.98805, 51.60486], [6.98725, 51.60496], [6.98646, 51.60465], [6.98603, 51.60484], [6.98542, 51.60483], [6.98513, 51.60516], [6.98474, 51.60637], [6.98534, 51.60666], [6.98546, 51.6072], [6.98512, 51.60757], [6.98445, 51.60768], [6.98428, 51.60856], [6.98555, 51.60962], [6.98655, 51.61011], [6.98798, 51.61019], [6.98782, 51.60998], [6.98798, 51.6097], [6.98919, 51.60839], [6.98797, 51.61006], [6.98921, 51.6102], [6.99026, 51.60829], [6.99083, 51.60773], [6.99069, 51.60764], [6.99148, 51.6069], [6.99219, 51.60714], [6.99192, 51.60792], [6.99214, 51.60804], [6.99321, 51.60729], [6.99344, 51.60682], [6.99362, 51.60659], [6.99329, 51.60731], [6.99204, 51.60822], [6.99205, 51.60879], [6.99159, 51.60908], [6.99102, 51.60912], [6.98994, 51.61027], [6.99074, 51.61024], [6.99089, 51.60979], [6.99191, 51.60939], [6.99219, 51.60879], [6.9931, 51.60803], [6.99365, 51.60803], [6.99344, 51.60872], [6.99477, 51.60866], [6.99515, 51.60774], [6.99408, 51.60756], [6.99377, 51.60703], [6.99484, 51.60614], [6.99565, 51.60627], [6.99595, 51.60494], [6.99478, 51.60475], [6.99428, 51.60571], [6.99404, 51.60568], [6.99451, 51.6046], [6.99328, 51.60433], [6.99413, 51.60366], [6.9948, 51.60112], [6.99257, 51.60192]]], [[[6.99089, 51.60144], [6.99019, 51.60165], [6.99016, 51.60191], [6.99186, 51.60164], [6.99224, 51.60131], [6.99171, 51.6011], [6.99089, 51.60144]]], [[[6.98948, 51.60229], [6.98903, 51.60241], [6.98861, 51.60239], [6.98882, 51.60258], [6.98976, 51.60222], [6.98948, 51.60229]]], [[[6.98682, 51.60288], [6.98693, 51.60285], [6.98692, 51.60281], [6.98682, 51.60288]]], [[[6.97791, 51.60571], [6.97753, 51.60655], [6.97947, 51.60697], [6.9796, 51.60642], [6.97939, 51.60602], [6.97816, 51.60516], [6.97791, 51.60571]]], [[[6.99534, 51.60631], [6.99493, 51.60624], [6.99475, 51.60648], [6.99526, 51.60652], [6.99534, 51.60631]]], [[[6.99607, 51.60618], [6.99597, 51.60595], [6.99572, 51.60665], [6.99594, 51.60685], [6.99622, 51.60657], [6.99607, 51.60618]]], [[[6.98349, 51.6071], [6.98415, 51.60541], [6.98325, 51.60534], [6.98248, 51.60473], [6.98184, 51.60483], [6.98066, 51.60589], [6.9805, 51.6071], [6.98136, 51.60653], [6.9828, 51.60664], [6.98326, 51.60706], [6.98299, 51.6077], [6.98351, 51.60804], [6.98349, 51.6071]]], [[[6.98033, 51.60676], [6.98031, 51.60664], [6.98028, 51.60664], [6.98023, 51.60692], [6.98033, 51.60676]]], [[[6.97295, 51.60906], [6.97351, 51.60865], [6.97422, 51.60643], [6.97262, 51.60622], [6.9725, 51.60897], [6.97295, 51.60906]]], [[[6.97483, 51.60889], [6.97534, 51.60924], [6.9756, 51.60865], [6.97493, 51.6085], [6.97479, 51.60818], [6.97519, 51.60791], [6.97591, 51.60798], [6.97641, 51.60687], [6.97506, 51.60658], [6.97439, 51.60864], [6.97483, 51.60889]]], [[[6.97906, 51.60966], [6.97849, 51.60962], [6.97822, 51.60929], [6.97865, 51.60898], [6.9793, 51.60911], [6.97953, 51.60755], [6.97729, 51.60707], [6.97576, 51.61067], [6.9796, 51.61073], [6.97966, 51.61005], [6.97911, 51.60989], [6.97906, 51.60966]]], [[[6.99034, 51.60883], [6.99007, 51.60924], [6.99046, 51.60939], [6.99079, 51.60907], [6.99034, 51.60883]]], [[[6.98211, 51.60797], [6.9812, 51.60774], [6.98107, 51.60785], [6.98095, 51.61033], [6.98395, 51.61001], [6.98385, 51.61053], [6.98436, 51.61052], [6.98453, 51.60957], [6.98211, 51.60797]]], [[[6.99002, 51.60933], [6.98938, 51.61035], [6.98909, 51.61037], [6.98968, 51.61041], [6.99036, 51.60955], [6.99002, 51.60933]]], [[[6.9967, 51.60978], [6.99585, 51.60985], [6.99379, 51.61064], [6.99272, 51.61138], [6.99048, 51.61153], [6.98998, 51.61133], [6.9898, 51.61096], [6.98927, 51.61092], [6.9887, 51.61157], [6.98779, 51.61174], [6.9875, 51.61238], [6.98782, 51.61282], [6.98842, 51.61265], [6.98917, 51.61275], [6.98976, 51.61324], [6.98984, 51.61371], [6.98942, 51.6141], [6.98861, 51.6142], [6.98791, 51.6141], [6.98755, 51.61374], [6.98725, 51.61385], [6.98719, 51.61448], [6.98667, 51.61496], [6.98655, 51.61779], [6.98668, 51.61625], [6.99046, 51.61631], [6.99043, 51.6158], [6.99372, 51.6157], [6.99383, 51.61535], [6.99591, 51.61504], [6.99542, 51.6141], [6.99464, 51.61437], [6.99445, 51.6138], [6.99019, 51.61317], [6.99038, 51.61176], [6.99047, 51.61157], [6.99186, 51.6119], [6.99438, 51.61307], [6.99524, 51.61272], [6.99544, 51.61242], [6.99482, 51.61245], [6.99426, 51.61218], [6.99413, 51.61177], [6.99446, 51.61143], [6.995, 51.61127], [6.99729, 51.61127], [6.99712, 51.60979], [6.9967, 51.60978]]], [[[7.01351, 51.57565], [7.01349, 51.57584], [7.01366, 51.57548], [7.01334, 51.57534], [7.01351, 51.57565]]], [[[7.01405, 51.57667], [7.01382, 51.57728], [7.01459, 51.57766], [7.01446, 51.57824], [7.0138, 51.57856], [7.01288, 51.57838], [7.01218, 51.57932], [7.01289, 51.57945], [7.01813, 51.57832], [7.01882, 51.57639], [7.01821, 51.57635], [7.01804, 51.57607], [7.01832, 51.57588], [7.01898, 51.57585], [7.01918, 51.57512], [7.01731, 51.57483], [7.01729, 51.5754], [7.01546, 51.57537], [7.01512, 51.57661], [7.01405, 51.57667]]], [[[7.01325, 51.58417], [7.01278, 51.58368], [7.01345, 51.583], [7.01511, 51.5827], [7.01654, 51.58289], [7.01647, 51.58239], [7.01704, 51.58055], [7.01617, 51.58052], [7.01434, 51.58084], [7.01297, 51.58058], [7.01251, 51.58023], [7.01145, 51.58057], [7.00881, 51.58096], [7.00874, 51.58161], [7.00838, 51.58194], [7.00846, 51.58259], [7.00774, 51.58295], [7.00805, 51.58409], [7.00741, 51.58489], [7.00728, 51.58572], [7.00597, 51.58648], [7.00932, 51.58662], [7.00948, 51.58603], [7.01183, 51.58628], [7.01177, 51.58642], [7.01315, 51.5861], [7.01393, 51.58436], [7.01325, 51.58417]], [[7.01223, 51.58517], [7.01037, 51.58496], [7.01239, 51.58388], [7.01276, 51.58392], [7.01223, 51.58517]], [[7.01023, 51.58239], [7.01135, 51.58244], [7.01122, 51.58285], [7.01129, 51.58247], [7.00999, 51.5824], [7.01023, 51.58239]], [[7.00851, 51.5835], [7.00885, 51.5835], [7.00882, 51.58368], [7.00858, 51.58368], [7.00851, 51.5835]]], [[[7.00229, 51.58554], [7.00188, 51.58551], [7.0018, 51.58571], [7.0023, 51.58581], [7.00229, 51.58554]]], [[[7.00964, 51.58904], [7.00943, 51.58886], [7.01102, 51.58794], [7.01112, 51.58845], [7.01175, 51.58846], [7.01189, 51.58812], [7.01369, 51.58815], [7.01367, 51.58796], [7.01257, 51.5877], [7.01232, 51.58693], [7.00871, 51.58721], [7.00859, 51.58901], [7.00903, 51.5894], [7.00964, 51.58904]]], [[[7.01629, 51.58861], [7.01446, 51.58867], [7.01383, 51.58839], [7.01387, 51.58936], [7.0152, 51.58971], [7.01552, 51.58916], [7.01626, 51.58888], [7.01731, 51.58887], [7.0174, 51.5886], [7.01629, 51.58861]]], [[[7.01211, 51.59492], [7.01151, 51.59503], [7.01002, 51.59457], [7.0095, 51.59488], [7.01174, 51.59598], [7.01476, 51.59807], [7.01515, 51.59815], [7.01491, 51.59736], [7.01409, 51.59649], [7.01211, 51.59492]]], [[[6.99611, 51.60496], [6.99603, 51.6056], [6.99642, 51.6049], [6.99611, 51.60496]]], [[[7.00239, 51.60709], [7.00264, 51.60804], [7.00465, 51.60792], [7.00442, 51.60734], [7.00389, 51.60696], [7.00336, 51.60712], [7.00239, 51.60709]]], [[[6.99632, 51.6068], [6.99605, 51.60695], [6.99544, 51.60827], [6.99642, 51.60707], [6.99632, 51.6068]]], [[[7.00991, 51.60953], [7.01098, 51.609], [7.01104, 51.60874], [7.00814, 51.60845], [7.00991, 51.60953]]], [[[7.00844, 51.61001], [7.00864, 51.61017], [7.00925, 51.60989], [7.00813, 51.60921], [7.00775, 51.60981], [7.00844, 51.61001]]], [[[7.01081, 51.60929], [7.01002, 51.6096], [7.01504, 51.61264], [7.01565, 51.61372], [7.01628, 51.61388], [7.01635, 51.61347], [7.01686, 51.6132], [7.01832, 51.61321], [7.01876, 51.61359], [7.01875, 51.6148], [7.01944, 51.61498], [7.02019, 51.61489], [7.02207, 51.61303], [7.02384, 51.61194], [7.02307, 51.61141], [7.01855, 51.61059], [7.01375, 51.60938], [7.0111, 51.60916], [7.01081, 51.60929]], [[7.01379, 51.61102], [7.01313, 51.61073], [7.01378, 51.61033], [7.01391, 51.61093], [7.01379, 51.61102]], [[7.02143, 51.61239], [7.01832, 51.61204], [7.01828, 51.61092], [7.0185, 51.61201], [7.02143, 51.61239]], [[7.01679, 51.61269], [7.01662, 51.6127], [7.01679, 51.61157], [7.016, 51.61156], [7.01612, 51.61146], [7.01689, 51.61149], [7.01679, 51.61269]], [[7.02133, 51.61287], [7.02132, 51.6131], [7.02105, 51.61307], [7.021, 51.61274], [7.02133, 51.61287]]], [[[7.00494, 51.6091], [7.00152, 51.60941], [7.00166, 51.61126], [7.00148, 51.61004], [7.00086, 51.61006], [7.00084, 51.60951], [6.99989, 51.60979], [7.00066, 51.61023], [7.00038, 51.61082], [7.00052, 51.61165], [7.0043, 51.61241], [7.00522, 51.60911], [7.00494, 51.6091]]], [[[7.00732, 51.61071], [7.00718, 51.6106], [7.00635, 51.61103], [7.00558, 51.61093], [7.00535, 51.6118], [7.0065, 51.6118], [7.00678, 51.6121], [7.00705, 51.61298], [7.00647, 51.61398], [7.00636, 51.61379], [7.00511, 51.61357], [7.00514, 51.61396], [7.00605, 51.61387], [7.00687, 51.61444], [7.00753, 51.61428], [7.00788, 51.61362], [7.00856, 51.61382], [7.00934, 51.61227], [7.00732, 51.61071]]], [[[7.00786, 51.61084], [7.00909, 51.6119], [7.00933, 51.61185], [7.0093, 51.61131], [7.0083, 51.61064], [7.00786, 51.61084]]], [[[7.00662, 51.61232], [7.00643, 51.61184], [7.00534, 51.61184], [7.00517, 51.61246], [7.00609, 51.61236], [7.00671, 51.61248], [7.00662, 51.61232]]], [[[7.01159, 51.61351], [7.01136, 51.61443], [7.01168, 51.61531], [7.01288, 51.61483], [7.01289, 51.61402], [7.01338, 51.61424], [7.01364, 51.61464], [7.01515, 51.61421], [7.01332, 51.61393], [7.01347, 51.61354], [7.01455, 51.61347], [7.01445, 51.61309], [7.01211, 51.61161], [7.01159, 51.61351]], [[7.01371, 51.61342], [7.01325, 51.61335], [7.01341, 51.61312], [7.01384, 51.61321], [7.01371, 51.61342]]], [[[7.01084, 51.61529], [7.01138, 51.61532], [7.01111, 51.61491], [7.01065, 51.61507], [7.01084, 51.61529]]], [[[7.00787, 51.61568], [7.00848, 51.616], [7.00986, 51.61571], [7.01068, 51.61532], [7.01053, 51.61513], [7.00954, 51.61525], [7.00878, 51.61481], [7.00696, 51.61455], [7.00678, 51.61501], [7.00717, 51.61559], [7.00787, 51.61568]]], [[[7.00009, 51.61236], [7.00022, 51.61272], [6.99996, 51.61312], [6.99936, 51.61331], [6.99859, 51.61316], [6.9977, 51.61404], [6.9993, 51.61418], [6.9998, 51.61438], [6.99998, 51.61474], [6.99965, 51.61564], [6.99899, 51.61595], [6.99723, 51.61584], [6.99722, 51.61629], [6.99745, 51.61678], [6.99814, 51.61693], [6.99816, 51.61628], [6.99961, 51.61656], [6.99945, 51.61733], [7.00013, 51.61746], [7.00013, 51.61769], [7.00054, 51.61784], [7.00049, 51.61811], [7.0015, 51.61802], [7.00206, 51.61748], [7.0029, 51.61749], [7.00295, 51.61702], [7.00335, 51.61675], [7.00433, 51.61669], [7.00434, 51.61498], [7.0042, 51.61297], [7.00154, 51.61236], [7.00021, 51.6122], [7.00009, 51.61236]]], [[[7.00656, 51.61525], [7.00634, 51.61554], [7.00698, 51.61558], [7.00664, 51.61511], [7.00656, 51.61525]]], [[[6.99601, 51.61571], [6.99579, 51.61658], [6.99644, 51.61678], [6.99602, 51.61749], [6.99611, 51.61821], [6.99652, 51.61681], [6.99633, 51.61442], [6.99834, 51.61248], [6.99722, 51.61261], [6.99662, 51.61367], [6.99578, 51.6139], [6.99618, 51.61484], [6.99601, 51.61571]]], [[[7.01183, 51.61589], [7.01102, 51.61582], [7.01035, 51.61616], [7.00983, 51.61646], [7.00971, 51.61709], [7.00979, 51.61749], [7.0104, 51.61745], [7.00996, 51.61881], [7.01139, 51.61883], [7.00934, 51.61891], [7.00929, 51.61935], [7.01001, 51.61987], [7.01095, 51.62019], [7.01062, 51.62017], [7.01037, 51.62083], [7.01161, 51.62056], [7.01286, 51.62076], [7.01311, 51.62109], [7.01303, 51.62188], [7.01229, 51.62234], [7.01062, 51.62241], [7.01002, 51.62222], [7.0099, 51.62371], [7.00956, 51.62494], [7.01002, 51.62456], [7.01057, 51.62444], [7.01067, 51.62337], [7.01069, 51.62445], [7.0112, 51.6246], [7.01183, 51.62357], [7.01243, 51.62329], [7.01408, 51.62154], [7.01346, 51.62114], [7.0137, 51.62055], [7.01445, 51.61999], [7.01544, 51.62007], [7.01932, 51.61583], [7.01906, 51.61546], [7.01796, 51.6152], [7.01724, 51.61525], [7.01552, 51.61618], [7.0159, 51.61679], [7.0156, 51.61722], [7.0139, 51.61767], [7.01303, 51.6177], [7.01247, 51.6176], [7.01212, 51.61724], [7.01255, 51.61607], [7.01366, 51.61556], [7.01457, 51.6155], [7.01511, 51.6157], [7.01538, 51.61559], [7.01649, 51.61491], [7.01639, 51.6147], [7.01492, 51.61509], [7.01487, 51.61528], [7.01452, 51.61525], [7.01469, 51.61497], [7.0163, 51.61451], [7.01628, 51.61447], [7.01312, 51.61536], [7.01183, 51.61589]]], [[[7.00848, 51.61681], [7.00847, 51.61882], [7.00981, 51.61882], [7.01013, 51.61759], [7.00963, 51.61761], [7.00958, 51.6164], [7.00999, 51.61625], [7.00852, 51.61654], [7.00848, 51.61681]]], [[[7.00813, 51.61803], [7.0082, 51.61785], [7.00778, 51.61736], [7.00777, 51.61736], [7.00813, 51.61803]]], [[[7.00792, 51.61932], [7.00694, 51.61752], [7.00621, 51.61711], [7.00628, 51.61608], [7.00573, 51.61597], [7.00524, 51.61543], [7.00513, 51.61729], [7.00566, 51.61785], [7.00501, 51.6189], [7.00427, 51.6192], [7.00348, 51.61918], [7.00303, 51.61894], [7.00293, 51.61852], [7.00207, 51.61856], [7.00152, 51.61811], [7.00026, 51.61823], [7.0001, 51.61871], [6.99872, 51.61862], [6.99838, 51.62005], [6.99873, 51.62005], [6.99933, 51.6194], [7.00024, 51.61936], [7.00101, 51.61977], [7.00207, 51.62083], [7.00177, 51.62167], [7.00079, 51.62238], [7.00073, 51.62374], [7.00131, 51.62387], [7.00252, 51.6238], [7.00409, 51.62409], [7.00421, 51.62333], [7.00469, 51.62311], [7.00533, 51.62314], [7.006, 51.62195], [7.00827, 51.61993], [7.00826, 51.61948], [7.00792, 51.61932]], [[7.00443, 51.61984], [7.00502, 51.61941], [7.00681, 51.61942], [7.00733, 51.61982], [7.00718, 51.62058], [7.00652, 51.62089], [7.00507, 51.62082], [7.00458, 51.62054], [7.00443, 51.61984]], [[7.00427, 51.62289], [7.00343, 51.62284], [7.003, 51.62251], [7.00298, 51.62188], [7.0035, 51.62154], [7.00434, 51.62154], [7.00488, 51.62186], [7.00491, 51.62256], [7.00427, 51.62289]]], [[[7.00909, 51.62013], [7.00824, 51.62089], [7.00827, 51.62301], [7.00777, 51.62325], [7.00776, 51.62264], [7.00719, 51.62288], [7.00654, 51.62282], [7.00559, 51.62437], [7.00827, 51.62501], [7.00936, 51.62608], [7.00996, 51.62562], [7.00949, 51.62512], [7.00986, 51.62323], [7.00973, 51.62146], [7.01027, 51.62088], [7.01053, 51.62014], [7.00913, 51.61946], [7.00909, 51.62013]]], [[[7.00773, 51.62124], [7.00743, 51.62159], [7.00774, 51.6217], [7.00774, 51.62159], [7.00773, 51.62124]]], [[[7.01291, 51.62556], [7.01226, 51.62596], [7.0115, 51.62607], [7.01088, 51.62588], [7.01058, 51.6261], [7.01146, 51.62651], [7.01236, 51.62639], [7.01439, 51.62649], [7.01489, 51.62738], [7.01567, 51.62754], [7.01591, 51.62824], [7.01684, 51.6283], [7.01717, 51.62936], [7.02082, 51.62942], [7.02496, 51.62871], [7.02427, 51.62824], [7.02468, 51.62798], [7.02617, 51.62854], [7.02719, 51.62825], [7.02564, 51.62522], [7.02472, 51.62534], [7.02433, 51.62571], [7.0236, 51.62582], [7.02296, 51.62557], [7.02263, 51.62495], [7.02282, 51.6245], [7.0235, 51.62428], [7.02422, 51.6244], [7.02461, 51.62491], [7.02528, 51.62473], [7.02538, 51.62343], [7.02319, 51.62422], [7.02238, 51.62266], [7.01847, 51.62172], [7.01816, 51.6231], [7.01886, 51.62329], [7.0191, 51.62377], [7.02099, 51.62383], [7.02148, 51.62444], [7.02101, 51.62498], [7.02025, 51.62505], [7.01907, 51.62563], [7.01801, 51.62546], [7.01759, 51.62582], [7.01833, 51.62578], [7.01886, 51.62595], [7.01915, 51.62638], [7.01894, 51.62678], [7.01806, 51.62708], [7.01734, 51.62696], [7.01694, 51.62634], [7.01729, 51.62592], [7.01673, 51.6259], [7.0169, 51.62653], [7.01627, 51.6264], [7.01651, 51.62636], [7.01656, 51.62584], [7.01611, 51.62557], [7.01606, 51.62519], [7.01523, 51.62521], [7.01519, 51.62498], [7.01572, 51.62473], [7.01426, 51.62464], [7.01345, 51.62436], [7.01238, 51.62469], [7.01298, 51.62535], [7.01516, 51.62515], [7.01517, 51.62521], [7.01298, 51.62537], [7.01291, 51.62556]], [[7.02153, 51.62628], [7.01951, 51.62669], [7.01946, 51.62661], [7.02074, 51.62641], [7.02153, 51.62628]], [[7.0262, 51.62652], [7.02645, 51.6271], [7.02606, 51.62755], [7.02513, 51.62778], [7.02442, 51.62762], [7.024, 51.62694], [7.02425, 51.6265], [7.02529, 51.62626], [7.0262, 51.62652]]], [[[7.00418, 51.62896], [7.00474, 51.62857], [7.00533, 51.62846], [7.00583, 51.62793], [7.0068, 51.62782], [7.00545, 51.62749], [7.00565, 51.62703], [7.00716, 51.62749], [7.00797, 51.62713], [7.00873, 51.62647], [7.0084, 51.62617], [7.00778, 51.62624], [7.0071, 51.62603], [7.00689, 51.62569], [7.00708, 51.62528], [7.00237, 51.62433], [7.00163, 51.62439], [7.00125, 51.62481], [7.00322, 51.62499], [7.00119, 51.62485], [7.00067, 51.62509], [7.00063, 51.62603], [7.00129, 51.62599], [7.0013, 51.62638], [7.00112, 51.62605], [7.00063, 51.62608], [7.00068, 51.62859], [7.00113, 51.6288], [7.00116, 51.62909], [7.00355, 51.62913], [7.00418, 51.62896]], [[7.00541, 51.62533], [7.00453, 51.62527], [7.00441, 51.62626], [7.00439, 51.62519], [7.00361, 51.62503], [7.00541, 51.62533]], [[7.00304, 51.62499], [7.00328, 51.62504], [7.00334, 51.62636], [7.00426, 51.62629], [7.00336, 51.62642], [7.00344, 51.62692], [7.00316, 51.62724], [7.00223, 51.62736], [7.00165, 51.62707], [7.0016, 51.62654], [7.00216, 51.62616], [7.00309, 51.62623], [7.00304, 51.62499]]], [[[7.01382, 51.62791], [7.01345, 51.62741], [7.01103, 51.62752], [7.01055, 51.62784], [7.00961, 51.62789], [7.00958, 51.62805], [7.01192, 51.62812], [7.01053, 51.62822], [7.00958, 51.62807], [7.00936, 51.62849], [7.00876, 51.62869], [7.00864, 51.62921], [7.00972, 51.62923], [7.00983, 51.62874], [7.01018, 51.62868], [7.00981, 51.62923], [7.01364, 51.6293], [7.01458, 51.62908], [7.01471, 51.62932], [7.01577, 51.62934], [7.01498, 51.62921], [7.01382, 51.62791]]], [[[7.00825, 51.62883], [7.00734, 51.62864], [7.00663, 51.62918], [7.00848, 51.62921], [7.00862, 51.62875], [7.00825, 51.62883]]], [[[7.02663, 51.56657], [7.02661, 51.56657], [7.02662, 51.56658], [7.02663, 51.56657]]], [[[7.02091, 51.56685], [7.02088, 51.56683], [7.02089, 51.56686], [7.02091, 51.56685]]], [[[7.02676, 51.56687], [7.0266, 51.56733], [7.02599, 51.56761], [7.02648, 51.56816], [7.02709, 51.56815], [7.02737, 51.5667], [7.02668, 51.56665], [7.02676, 51.56687]]], [[[7.02397, 51.56681], [7.02381, 51.56722], [7.02295, 51.56776], [7.02361, 51.56816], [7.02415, 51.5682], [7.0248, 51.56757], [7.02449, 51.56693], [7.02503, 51.56654], [7.02409, 51.56653], [7.02397, 51.56681]]], [[[7.01941, 51.5725], [7.01951, 51.57201], [7.01988, 51.57175], [7.02056, 51.56786], [7.02037, 51.5674], [7.02067, 51.56668], [7.02039, 51.56646], [7.01973, 51.56645], [7.01929, 51.56735], [7.01959, 51.56645], [7.01768, 51.56642], [7.01758, 51.56859], [7.01829, 51.56877], [7.01853, 51.56916], [7.01829, 51.56985], [7.01752, 51.57013], [7.0174, 51.57277], [7.01943, 51.57284], [7.01941, 51.5725]]], [[[7.02796, 51.5695], [7.02736, 51.56916], [7.02716, 51.56869], [7.02603, 51.56872], [7.02502, 51.56898], [7.02396, 51.56873], [7.02368, 51.56894], [7.02335, 51.56868], [7.02124, 51.5684], [7.02076, 51.57171], [7.02128, 51.57201], [7.02133, 51.57246], [7.02222, 51.57268], [7.02239, 51.57314], [7.02206, 51.57351], [7.02143, 51.57363], [7.02086, 51.57354], [7.02046, 51.57322], [7.02036, 51.57411], [7.02449, 51.57451], [7.02501, 51.57329], [7.02564, 51.57295], [7.02647, 51.57293], [7.02657, 51.57224], [7.0274, 51.57196], [7.0271, 51.57095], [7.02765, 51.5705], [7.02942, 51.57051], [7.02994, 51.57081], [7.0302, 51.57138], [7.03078, 51.57129], [7.02949, 51.57026], [7.02796, 51.5695]], [[7.02303, 51.57058], [7.02313, 51.57008], [7.02392, 51.56968], [7.02478, 51.5697], [7.02525, 51.57], [7.02516, 51.57087], [7.02423, 51.5714], [7.02366, 51.57144], [7.02315, 51.57126], [7.02303, 51.57058]]], [[[7.0192, 51.57433], [7.01957, 51.57339], [7.01738, 51.57331], [7.01734, 51.57417], [7.01922, 51.57446], [7.0192, 51.57433]]], [[[7.02442, 51.57505], [7.02395, 51.57503], [7.02036, 51.57469], [7.02427, 51.57592], [7.02429, 51.57614], [7.02485, 51.57645], [7.02505, 51.5762], [7.0249, 51.57516], [7.02442, 51.57505]]], [[[7.02525, 51.57523], [7.02508, 51.57521], [7.02507, 51.57615], [7.0254, 51.57587], [7.02525, 51.57523]]], [[[7.01967, 51.57749], [7.01988, 51.57746], [7.01959, 51.57679], [7.01935, 51.57759], [7.01967, 51.57749]]], [[[7.02581, 51.57868], [7.02612, 51.5789], [7.02599, 51.57832], [7.02518, 51.57762], [7.0221, 51.57595], [7.0221, 51.57683], [7.02161, 51.57749], [7.02206, 51.57778], [7.02209, 51.57824], [7.02275, 51.5783], [7.02355, 51.57884], [7.02581, 51.57868]]], [[[7.02733, 51.5784], [7.02734, 51.5784], [7.02712, 51.57823], [7.02728, 51.57841], [7.02733, 51.5784]]], [[[7.01919, 51.5784], [7.01916, 51.57837], [7.01915, 51.57842], [7.01919, 51.5784]]], [[[7.02662, 51.57945], [7.02671, 51.57953], [7.02691, 51.57954], [7.02675, 51.57928], [7.02662, 51.57945]]], [[[7.02494, 51.5801], [7.02582, 51.5792], [7.02345, 51.57939], [7.02314, 51.57957], [7.02475, 51.58027], [7.02494, 51.5801]]], [[[7.02263, 51.58023], [7.0228, 51.58024], [7.02246, 51.58008], [7.0225, 51.58016], [7.02263, 51.58023]]], [[[7.02455, 51.58101], [7.02341, 51.58053], [7.02409, 51.58124], [7.02417, 51.58201], [7.02448, 51.58169], [7.02507, 51.58157], [7.02512, 51.58126], [7.02544, 51.58129], [7.02455, 51.58101]]], [[[7.02629, 51.58148], [7.02573, 51.58136], [7.02564, 51.58165], [7.02606, 51.58198], [7.02611, 51.58256], [7.02845, 51.58251], [7.02818, 51.58176], [7.02629, 51.58148]]], [[[7.02422, 51.58258], [7.02422, 51.58271], [7.02419, 51.5828], [7.02442, 51.58276], [7.02422, 51.58258]]], [[[7.02665, 51.5888], [7.02704, 51.58864], [7.02699, 51.58846], [7.02645, 51.5887], [7.02665, 51.5888]]], [[[7.02165, 51.60073], [7.02171, 51.60039], [7.02136, 51.60036], [7.02152, 51.60076], [7.02134, 51.601], [7.02165, 51.60073]]], [[[7.01997, 51.60281], [7.02016, 51.60249], [7.01808, 51.60514], [7.01814, 51.60515], [7.01997, 51.60281]]], [[[7.01679, 51.60682], [7.01681, 51.6068], [7.0168, 51.60677], [7.01676, 51.60682], [7.01679, 51.60682]]], [[[7.02344, 51.61291], [7.02323, 51.61305], [7.02448, 51.61242], [7.02415, 51.61255], [7.02344, 51.61291]]], [[[7.02407, 51.61352], [7.02411, 51.61385], [7.02448, 51.6145], [7.02473, 51.6137], [7.0241, 51.6133], [7.02407, 51.61352]]], [[[7.0232, 51.61876], [7.02262, 51.61881], [7.02314, 51.61852], [7.02294, 51.61818], [7.02348, 51.61805], [7.02348, 51.61732], [7.02282, 51.61736], [7.02272, 51.61773], [7.02243, 51.61597], [7.0218, 51.61575], [7.02178, 51.6163], [7.02111, 51.61736], [7.02044, 51.61705], [7.02, 51.6174], [7.02071, 51.61769], [7.01963, 51.61884], [7.01987, 51.62019], [7.01954, 51.62045], [7.01976, 51.62059], [7.02023, 51.62025], [7.0209, 51.62029], [7.02278, 51.61993], [7.02324, 51.62024], [7.02464, 51.6201], [7.02459, 51.62062], [7.02542, 51.62088], [7.02521, 51.62133], [7.02698, 51.62129], [7.02688, 51.62079], [7.02648, 51.62083], [7.0257, 51.62046], [7.02541, 51.62003], [7.024, 51.6194], [7.02351, 51.61869], [7.0232, 51.61876]], [[7.0217, 51.61803], [7.02195, 51.61805], [7.02133, 51.61847], [7.02128, 51.61834], [7.0217, 51.61803]], [[7.02046, 51.61851], [7.02122, 51.61841], [7.02147, 51.61885], [7.02111, 51.6186], [7.02065, 51.61865], [7.02046, 51.61851]]], [[[7.01574, 51.62113], [7.01531, 51.62154], [7.01619, 51.62203], [7.01748, 51.62151], [7.01574, 51.62113]]], [[[7.02387, 51.62209], [7.02447, 51.62191], [7.0253, 51.62202], [7.02458, 51.6217], [7.02453, 51.62148], [7.02276, 51.6213], [7.02268, 51.6215], [7.02343, 51.62182], [7.02349, 51.62221], [7.02387, 51.62209]]], [[[7.01447, 51.62278], [7.01418, 51.6225], [7.01375, 51.62296], [7.01449, 51.62283], [7.01447, 51.62278]]], [[[7.01693, 51.62348], [7.01723, 51.62324], [7.01759, 51.62212], [7.01533, 51.62301], [7.01579, 51.62418], [7.01695, 51.62414], [7.01693, 51.62348]]], [[[7.01612, 51.62477], [7.01613, 51.62475], [7.0158, 51.62473], [7.0161, 51.62481], [7.01612, 51.62477]]], [[[7.02848, 51.5666], [7.02847, 51.5666], [7.02847, 51.5666], [7.02848, 51.5666]]], [[[7.02816, 51.56892], [7.02827, 51.56898], [7.02867, 51.56915], [7.02807, 51.56883], [7.02816, 51.56892]]], [[[7.02939, 51.56944], [7.0289, 51.56924], [7.02951, 51.56956], [7.02939, 51.56944]]], [[[7.02963, 51.56959], [7.03125, 51.57076], [7.03171, 51.56998], [7.03171, 51.57061], [7.03193, 51.57059], [7.03196, 51.56985], [7.02984, 51.56951], [7.0295, 51.56931], [7.02963, 51.56959]]], [[[7.03152, 51.57246], [7.03004, 51.57282], [7.02948, 51.57259], [7.0292, 51.57204], [7.02882, 51.57221], [7.02896, 51.57298], [7.03183, 51.57275], [7.03186, 51.57227], [7.03152, 51.57246]]], [[[7.03104, 51.57528], [7.03118, 51.5751], [7.03052, 51.57529], [7.03047, 51.57563], [7.03101, 51.57563], [7.03104, 51.57528]]], [[[7.02941, 51.57543], [7.02927, 51.57528], [7.02864, 51.57537], [7.0286, 51.5757], [7.02965, 51.57575], [7.02941, 51.57543]]], [[[7.02986, 51.57584], [7.02989, 51.57581], [7.02978, 51.5758], [7.02983, 51.57582], [7.02986, 51.57584]]], [[[7.03303, 51.57837], [7.03323, 51.57822], [7.03323, 51.57778], [7.03284, 51.57833], [7.03303, 51.57837]]], [[[7.02773, 51.57892], [7.02785, 51.57903], [7.0278, 51.57894], [7.02773, 51.57892]]], [[[7.02834, 51.57956], [7.02822, 51.57963], [7.02862, 51.58037], [7.02849, 51.57942], [7.02834, 51.57956]]], [[[7.02745, 51.58029], [7.02756, 51.58043], [7.02734, 51.58001], [7.02721, 51.58005], [7.02745, 51.58029]]], [[[7.03095, 51.58534], [7.03053, 51.58541], [7.03121, 51.587], [7.03185, 51.587], [7.03156, 51.58647], [7.03163, 51.58567], [7.03128, 51.58522], [7.03095, 51.58534]]], [[[7.02933, 51.58716], [7.03014, 51.58708], [7.02981, 51.58638], [7.02867, 51.58675], [7.02772, 51.5875], [7.02933, 51.58716]]], [[[7.02927, 51.58784], [7.02833, 51.58803], [7.02878, 51.58841], [7.02925, 51.58846], [7.03014, 51.58823], [7.03096, 51.58845], [7.03049, 51.58771], [7.02927, 51.58784]]], [[[7.03238, 51.58887], [7.03261, 51.58915], [7.03297, 51.58893], [7.03337, 51.58898], [7.03338, 51.58776], [7.03158, 51.58769], [7.03238, 51.58887]]], [[[7.03517, 51.59065], [7.0353, 51.59053], [7.0347, 51.59028], [7.035, 51.59073], [7.03517, 51.59065]]], [[[7.03284, 51.59093], [7.03286, 51.59093], [7.03284, 51.5909], [7.03284, 51.59093]]], [[[7.03369, 51.59884], [7.03388, 51.59877], [7.03304, 51.59852], [7.03334, 51.59888], [7.03369, 51.59884]]], [[[7.03288, 51.59968], [7.03288, 51.59971], [7.03289, 51.59967], [7.03288, 51.59968]]], [[[7.03271, 51.60012], [7.03263, 51.60013], [7.03285, 51.59984], [7.03274, 51.60002], [7.03271, 51.60012]]], [[[7.03017, 51.60086], [7.02732, 51.60049], [7.02724, 51.60063], [7.02744, 51.60085], [7.02832, 51.60095], [7.02923, 51.60082], [7.03002, 51.60113], [7.03319, 51.60146], [7.03359, 51.60227], [7.03333, 51.60291], [7.03364, 51.60341], [7.03436, 51.60143], [7.03488, 51.60146], [7.03488, 51.60145], [7.03379, 51.60134], [7.03334, 51.60101], [7.03059, 51.60075], [7.03017, 51.60086]]], [[[7.03404, 51.60733], [7.03449, 51.60683], [7.03537, 51.60672], [7.0343, 51.60596], [7.03404, 51.60733]]], [[[7.03444, 51.60881], [7.03404, 51.60863], [7.03396, 51.60871], [7.0344, 51.6089], [7.03444, 51.60881]]], [[[7.03434, 51.60915], [7.03435, 51.60908], [7.03363, 51.60876], [7.03366, 51.60922], [7.03434, 51.60915]]], [[[7.03505, 51.61123], [7.03496, 51.61048], [7.03398, 51.61069], [7.03465, 51.61276], [7.03585, 51.6127], [7.03505, 51.61123]]], [[[7.03079, 51.6112], [7.02754, 51.61157], [7.02547, 51.61205], [7.02532, 51.61223], [7.02552, 51.61236], [7.02684, 51.61184], [7.02973, 51.61152], [7.03071, 51.61278], [7.03034, 51.61327], [7.03015, 51.61651], [7.02942, 51.61708], [7.03038, 51.61731], [7.03035, 51.61763], [7.0309, 51.61814], [7.03172, 51.61845], [7.0328, 51.61926], [7.03361, 51.61933], [7.03417, 51.61982], [7.035, 51.61972], [7.03473, 51.61738], [7.03351, 51.61759], [7.03095, 51.61765], [7.03095, 51.6175], [7.03358, 51.61743], [7.03477, 51.61723], [7.03426, 51.61492], [7.03321, 51.61489], [7.03425, 51.61489], [7.03362, 51.61287], [7.03202, 51.61181], [7.03354, 51.61261], [7.0332, 51.61163], [7.03268, 51.61179], [7.03215, 51.61125], [7.03174, 51.61132], [7.03155, 51.61111], [7.03079, 51.6112]], [[7.03381, 51.61944], [7.03435, 51.61938], [7.03385, 51.61948], [7.03381, 51.61944]]], [[[7.02726, 51.61667], [7.02891, 51.61702], [7.02907, 51.61702], [7.02726, 51.61667]]], [[[7.02893, 51.61756], [7.02718, 51.61739], [7.02606, 51.61709], [7.0253, 51.61654], [7.02465, 51.61635], [7.02404, 51.61533], [7.0239, 51.61552], [7.02458, 51.61716], [7.02561, 51.61832], [7.02644, 51.61821], [7.02799, 51.61845], [7.03003, 51.61832], [7.02893, 51.61756]]], [[[7.03353, 51.61979], [7.03399, 51.61986], [7.03366, 51.61945], [7.03308, 51.61952], [7.03353, 51.61979]]], [[[7.03185, 51.62038], [7.03236, 51.61982], [7.03088, 51.61883], [7.02996, 51.61887], [7.03166, 51.62059], [7.03185, 51.62038]]], [[[7.0328, 51.62931], [7.03329, 51.62916], [7.03431, 51.62921], [7.03515, 51.62388], [7.03147, 51.62416], [7.02978, 51.62406], [7.0313, 51.62792], [7.03063, 51.62959], [7.03263, 51.62962], [7.0328, 51.62931]]], [[[7.04617, 51.5837], [7.04628, 51.58358], [7.04605, 51.58357], [7.04599, 51.58361], [7.04617, 51.5837]]], [[[7.05124, 51.58806], [7.05128, 51.58816], [7.05135, 51.58816], [7.05134, 51.588], [7.05124, 51.58806]]], [[[7.03927, 51.59262], [7.03897, 51.59232], [7.03878, 51.59221], [7.03852, 51.59252], [7.03946, 51.59269], [7.03927, 51.59262]]], [[[7.03983, 51.59276], [7.03965, 51.59273], [7.03999, 51.59288], [7.04011, 51.59277], [7.03983, 51.59276]]], [[[7.04114, 51.59339], [7.04102, 51.59345], [7.0411, 51.59392], [7.04118, 51.59372], [7.04114, 51.59339]]], [[[7.03679, 51.59556], [7.03646, 51.59593], [7.03632, 51.59681], [7.03664, 51.59622], [7.03679, 51.59556]]], [[[7.03922, 51.59622], [7.03916, 51.59629], [7.03909, 51.59634], [7.03935, 51.59628], [7.03922, 51.59622]]], [[[7.04521, 51.59856], [7.04611, 51.59706], [7.04632, 51.59593], [7.04611, 51.59587], [7.04562, 51.59606], [7.04504, 51.59604], [7.04393, 51.59879], [7.04421, 51.59898], [7.04534, 51.59875], [7.04521, 51.59856]]], [[[7.0386, 51.5964], [7.03763, 51.59584], [7.03756, 51.59612], [7.038, 51.59658], [7.03738, 51.5973], [7.03679, 51.59757], [7.03651, 51.59841], [7.03729, 51.59844], [7.03778, 51.59873], [7.03806, 51.59839], [7.03907, 51.59798], [7.03854, 51.59773], [7.03889, 51.59741], [7.03904, 51.59656], [7.0386, 51.5964]]], [[[7.039, 51.59946], [7.0382, 51.59929], [7.03784, 51.59904], [7.0377, 51.59938], [7.039, 51.59946]]], [[[7.03641, 51.59967], [7.03634, 51.59964], [7.03634, 51.59966], [7.03641, 51.59967]]], [[[7.04076, 51.60187], [7.04012, 51.60184], [7.04002, 51.60256], [7.04015, 51.60187], [7.04076, 51.60187]]], [[[7.04483, 51.60592], [7.04469, 51.60605], [7.04447, 51.60616], [7.04497, 51.60621], [7.04505, 51.60585], [7.04483, 51.60592]]], [[[7.03958, 51.60661], [7.04031, 51.60695], [7.04038, 51.60777], [7.04012, 51.60816], [7.03957, 51.60832], [7.04053, 51.60836], [7.04134, 51.60787], [7.04144, 51.60735], [7.04053, 51.6067], [7.04045, 51.60621], [7.0409, 51.60583], [7.04178, 51.60577], [7.04204, 51.60437], [7.04115, 51.60434], [7.04067, 51.60414], [7.04001, 51.60424], [7.03995, 51.60548], [7.03958, 51.60545], [7.03958, 51.60661]]], [[[7.03859, 51.60695], [7.03886, 51.60672], [7.03878, 51.60586], [7.03721, 51.60682], [7.03643, 51.60651], [7.03624, 51.60691], [7.03689, 51.607], [7.03737, 51.60764], [7.03828, 51.60793], [7.03852, 51.60777], [7.03859, 51.60695]]], [[[7.04835, 51.61154], [7.04855, 51.60902], [7.04565, 51.60891], [7.04238, 51.60908], [7.04293, 51.61101], [7.04445, 51.6121], [7.04825, 51.61202], [7.04835, 51.61154]]], [[[7.04052, 51.61122], [7.04116, 51.61169], [7.04228, 51.61138], [7.04153, 51.60918], [7.03577, 51.61029], [7.03592, 51.61124], [7.03634, 51.61114], [7.03703, 51.61198], [7.0365, 51.61211], [7.03672, 51.61266], [7.03727, 51.61259], [7.03719, 51.61221], [7.03806, 51.61203], [7.0381, 51.61179], [7.04052, 51.61122]], [[7.04044, 51.61092], [7.03958, 51.61111], [7.03895, 51.61096], [7.03863, 51.61037], [7.03887, 51.60998], [7.03969, 51.60979], [7.04032, 51.60994], [7.04067, 51.61053], [7.04044, 51.61092]]], [[[7.0504, 51.61286], [7.04919, 51.61279], [7.04918, 51.61296], [7.05037, 51.61296], [7.0504, 51.61286]]], [[[7.05141, 51.61345], [7.05143, 51.6133], [7.05168, 51.61284], [7.05131, 51.61318], [7.05141, 51.61345]]], [[[7.04198, 51.61326], [7.04194, 51.61325], [7.0419, 51.61324], [7.04193, 51.61327], [7.04198, 51.61326]]], [[[7.04406, 51.61262], [7.04344, 51.6133], [7.04242, 51.61341], [7.04254, 51.61417], [7.04338, 51.61364], [7.04416, 51.61354], [7.04482, 51.61377], [7.04498, 51.61425], [7.04408, 51.6149], [7.04338, 51.61489], [7.04289, 51.6146], [7.04307, 51.61564], [7.04458, 51.61554], [7.04484, 51.61698], [7.04527, 51.61781], [7.048, 51.61816], [7.04833, 51.61256], [7.04406, 51.61262]]], [[[7.03552, 51.61579], [7.03589, 51.61765], [7.03607, 51.61898], [7.03707, 51.61864], [7.03668, 51.61533], [7.03535, 51.61511], [7.03552, 51.61579]]], [[[7.05152, 51.61833], [7.05183, 51.61833], [7.05256, 51.61836], [7.05249, 51.61824], [7.05152, 51.61833]]], [[[7.03838, 51.61849], [7.03838, 51.61849], [7.03821, 51.61848], [7.03838, 51.61849], [7.03838, 51.61849]]], [[[7.03758, 51.61856], [7.03811, 51.61863], [7.03836, 51.61855], [7.03762, 51.61852], [7.03758, 51.61856]]], [[[7.05006, 51.62008], [7.05091, 51.6202], [7.05118, 51.61949], [7.05334, 51.61853], [7.05285, 51.61848], [7.05283, 51.61868], [7.05096, 51.61909], [7.05127, 51.61859], [7.05038, 51.61874], [7.05017, 51.61859], [7.0488, 51.61854], [7.04856, 51.62038], [7.05006, 51.62008]]], [[[7.04781, 51.61927], [7.04794, 51.61845], [7.04648, 51.61822], [7.04637, 51.61872], [7.04727, 51.61891], [7.04744, 51.61953], [7.04689, 51.61986], [7.04613, 51.61984], [7.04584, 51.62012], [7.04613, 51.62069], [7.04586, 51.62141], [7.04486, 51.62137], [7.04413, 51.62184], [7.0433, 51.62181], [7.04282, 51.62139], [7.03761, 51.6215], [7.0364, 51.62173], [7.03648, 51.62333], [7.04046, 51.62348], [7.04194, 51.62385], [7.0427, 51.62385], [7.04322, 51.6241], [7.04455, 51.6242], [7.04511, 51.62231], [7.04546, 51.62201], [7.04632, 51.62193], [7.04699, 51.62228], [7.0484, 51.62258], [7.04773, 51.62105], [7.04781, 51.61927]]], [[[7.04078, 51.61961], [7.04066, 51.61972], [7.04206, 51.62022], [7.04224, 51.62], [7.04078, 51.61961]]], [[[7.05112, 51.62129], [7.05108, 51.62165], [7.05054, 51.62218], [7.04972, 51.62233], [7.04905, 51.62215], [7.04994, 51.62339], [7.05335, 51.62309], [7.05366, 51.62265], [7.05268, 51.62063], [7.05199, 51.62089], [7.05133, 51.6208], [7.05112, 51.62129]]], [[[7.04892, 51.62333], [7.04895, 51.62333], [7.04893, 51.62331], [7.04892, 51.62333]]], [[[7.04129, 51.62684], [7.04042, 51.62643], [7.04005, 51.62534], [7.03967, 51.62536], [7.03961, 51.62489], [7.039, 51.62468], [7.03891, 51.62526], [7.03853, 51.62555], [7.0373, 51.62565], [7.03676, 51.62551], [7.03624, 51.62481], [7.03642, 51.62415], [7.03685, 51.62388], [7.03619, 51.62387], [7.03536, 51.62926], [7.03679, 51.62929], [7.03759, 51.62909], [7.03961, 51.62806], [7.03953, 51.62769], [7.03983, 51.62737], [7.04044, 51.62723], [7.04098, 51.62735], [7.04162, 51.62702], [7.04129, 51.62684]]], [[[7.04881, 51.62771], [7.0489, 51.62754], [7.0476, 51.62733], [7.0472, 51.62789], [7.04808, 51.62819], [7.04806, 51.62899], [7.04834, 51.62913], [7.04881, 51.62771]]], [[[7.04402, 51.6294], [7.04456, 51.62866], [7.04443, 51.62795], [7.04479, 51.6273], [7.04452, 51.62703], [7.04346, 51.62753], [7.04233, 51.62736], [7.04136, 51.62786], [7.041, 51.62826], [7.04034, 51.62838], [7.03757, 51.6297], [7.0439, 51.62981], [7.04402, 51.6294]]], [[[7.04631, 51.6297], [7.04635, 51.62985], [7.04672, 51.62985], [7.04659, 51.62965], [7.04631, 51.6297]]], [[[7.0587, 51.57862], [7.05782, 51.57842], [7.0578, 51.57844], [7.05888, 51.57871], [7.0587, 51.57862]]], [[[7.0597, 51.58726], [7.06027, 51.58766], [7.06009, 51.58831], [7.05962, 51.58861], [7.05855, 51.58873], [7.0581, 51.58975], [7.06003, 51.59037], [7.06222, 51.58699], [7.0598, 51.58689], [7.0597, 51.58726]]], [[[7.06215, 51.59021], [7.06142, 51.59035], [7.0613, 51.59055], [7.06174, 51.59091], [7.06215, 51.59021]]], [[[7.06555, 51.59064], [7.06467, 51.59123], [7.06306, 51.59143], [7.06307, 51.59163], [7.06491, 51.59271], [7.06555, 51.59064]]], [[[7.06454, 51.59596], [7.06444, 51.59611], [7.06434, 51.59619], [7.06477, 51.59616], [7.06454, 51.59596]]], [[[7.0693, 51.59845], [7.06946, 51.59806], [7.06988, 51.59781], [7.06786, 51.59659], [7.06858, 51.5988], [7.06948, 51.59875], [7.0693, 51.59845]]], [[[7.05994, 51.60108], [7.06131, 51.60103], [7.06149, 51.6006], [7.06122, 51.6003], [7.05871, 51.60039], [7.05854, 51.60077], [7.05917, 51.60158], [7.05994, 51.60108]]], [[[7.05924, 51.60207], [7.05914, 51.60223], [7.05913, 51.60229], [7.05929, 51.60228], [7.05924, 51.60207]]], [[[7.06369, 51.60286], [7.06265, 51.60281], [7.06296, 51.60344], [7.06225, 51.6041], [7.06151, 51.60401], [7.0599, 51.60469], [7.05912, 51.60416], [7.05829, 51.60467], [7.05755, 51.60474], [7.05841, 51.60553], [7.05922, 51.60571], [7.05969, 51.60547], [7.06026, 51.60546], [7.06074, 51.6051], [7.06048, 51.60541], [7.06122, 51.6058], [7.06249, 51.60501], [7.0632, 51.60535], [7.06272, 51.60575], [7.06448, 51.60659], [7.06405, 51.60693], [7.06415, 51.60764], [7.06366, 51.60824], [7.0647, 51.60835], [7.06583, 51.6089], [7.06621, 51.60949], [7.06596, 51.61046], [7.06624, 51.61023], [7.06745, 51.60288], [7.06612, 51.60287], [7.06586, 51.60335], [7.06518, 51.60356], [7.06404, 51.60318], [7.06369, 51.60286]]], [[[7.06056, 51.60369], [7.0596, 51.60372], [7.05932, 51.60419], [7.0609, 51.60397], [7.06078, 51.6036], [7.06056, 51.60369]]], [[[7.07072, 51.60445], [7.07177, 51.60533], [7.07073, 51.60445], [7.07072, 51.60445]]], [[[7.07192, 51.60629], [7.07219, 51.60596], [7.07277, 51.60581], [7.07228, 51.60518], [7.07177, 51.60533], [7.07147, 51.6061], [7.07175, 51.6067], [7.07202, 51.60673], [7.07192, 51.60629]]], [[[7.05699, 51.6063], [7.05705, 51.6062], [7.05677, 51.6062], [7.05681, 51.60626], [7.05699, 51.6063]]], [[[7.06773, 51.60653], [7.06721, 51.6095], [7.06847, 51.60953], [7.06931, 51.60994], [7.06987, 51.6092], [7.07067, 51.60962], [7.07243, 51.60887], [7.07204, 51.60852], [7.07214, 51.60787], [7.07177, 51.60736], [7.07073, 51.60824], [7.07011, 51.60743], [7.06881, 51.6068], [7.06923, 51.60509], [7.06988, 51.60429], [7.06876, 51.60343], [7.06825, 51.60338], [7.06773, 51.60653]]], [[[7.0661, 51.61091], [7.0661, 51.61122], [7.06619, 51.61057], [7.0661, 51.61047], [7.0661, 51.61091]]], [[[7.06999, 51.61095], [7.06964, 51.61125], [7.06925, 51.61148], [7.06984, 51.61152], [7.07066, 51.61071], [7.06999, 51.61095]]], [[[7.06574, 51.61107], [7.06569, 51.61111], [7.06564, 51.61115], [7.06571, 51.61116], [7.06574, 51.61107]]], [[[7.06804, 51.61115], [7.0675, 51.6113], [7.06696, 51.61132], [7.06825, 51.61142], [7.06804, 51.61115]]], [[[7.06541, 51.61517], [7.06538, 51.61507], [7.06522, 51.61508], [7.0654, 51.61514], [7.06541, 51.61517]]], [[[7.06462, 51.61512], [7.06464, 51.61512], [7.06463, 51.61512], [7.06462, 51.61512]]], [[[7.06397, 51.61525], [7.064, 51.61532], [7.06438, 51.61518], [7.06397, 51.61525]]], [[[7.06605, 51.61549], [7.06605, 51.61544], [7.06596, 51.61546], [7.06599, 51.6155], [7.06605, 51.61549]]], [[[7.0506, 51.61387], [7.05035, 51.6135], [7.04917, 51.6135], [7.04886, 51.61826], [7.05061, 51.61833], [7.05152, 51.61687], [7.0508, 51.61833], [7.0525, 51.61815], [7.05278, 51.61794], [7.05481, 51.61752], [7.05537, 51.61759], [7.05667, 51.61718], [7.05628, 51.61681], [7.05629, 51.61643], [7.05729, 51.6158], [7.05702, 51.61551], [7.05708, 51.61516], [7.05639, 51.61479], [7.0558, 51.61416], [7.05605, 51.6129], [7.05451, 51.61277], [7.05338, 51.61247], [7.05411, 51.6129], [7.05391, 51.61371], [7.0547, 51.6145], [7.05456, 51.61493], [7.05401, 51.61518], [7.05248, 51.61533], [7.05046, 51.61509], [7.05004, 51.61437], [7.0506, 51.61387]], [[7.0512, 51.6166], [7.05133, 51.61625], [7.05033, 51.61608], [7.05152, 51.61627], [7.0512, 51.6166]]], [[[7.06025, 51.61599], [7.06014, 51.6157], [7.05841, 51.6161], [7.05868, 51.61645], [7.06025, 51.61599]]], [[[7.05938, 51.61794], [7.05959, 51.61802], [7.05995, 51.61771], [7.06058, 51.6176], [7.06163, 51.61788], [7.06358, 51.6172], [7.06386, 51.61702], [7.06244, 51.61623], [7.06218, 51.61577], [7.06198, 51.61567], [7.06153, 51.61586], [7.06156, 51.61566], [7.06327, 51.61513], [7.06408, 51.61516], [7.06413, 51.61495], [7.06602, 51.61474], [7.0656, 51.61473], [7.06602, 51.61462], [7.06589, 51.61461], [7.0638, 51.61501], [7.06138, 51.61506], [7.06065, 51.61542], [7.06121, 51.61556], [7.06117, 51.61589], [7.05949, 51.61646], [7.06019, 51.61688], [7.06, 51.61743], [7.05893, 51.61762], [7.05832, 51.61708], [7.05721, 51.61733], [7.05441, 51.61842], [7.05491, 51.61896], [7.05437, 51.61952], [7.05753, 51.61888], [7.05793, 51.61812], [7.05938, 51.61794]]], [[[7.05872, 51.61656], [7.05884, 51.61652], [7.05893, 51.61649], [7.0587, 51.61651], [7.05872, 51.61656]]], [[[7.07179, 51.61495], [7.07138, 51.61471], [7.07003, 51.61506], [7.06886, 51.6151], [7.06783, 51.6157], [7.06695, 51.61574], [7.06789, 51.61593], [7.06783, 51.61622], [7.06698, 51.61611], [7.06699, 51.61628], [7.06754, 51.61886], [7.0685, 51.62122], [7.07307, 51.6213], [7.07325, 51.61722], [7.07146, 51.61614], [7.07179, 51.61495]]], [[[7.06669, 51.61895], [7.06615, 51.61649], [7.06549, 51.61699], [7.06176, 51.61846], [7.05895, 51.6199], [7.05939, 51.62107], [7.06759, 51.62121], [7.06669, 51.61895]]], [[[7.05792, 51.62364], [7.05769, 51.62367], [7.05793, 51.62489], [7.05843, 51.62603], [7.05854, 51.62346], [7.05792, 51.62364]]], [[[7.05707, 51.62675], [7.0577, 51.62709], [7.05838, 51.62701], [7.0584, 51.62657], [7.05709, 51.62657], [7.0569, 51.62662], [7.05707, 51.62675]]]]}, "properties": {"kind": "pv", "area_km2": 7.31, "mw": 365.3}}, {"type": "Feature", "geometry": {"type": "Point", "coordinates": [7.09557, 51.58567]}, "properties": {"kind": "turbine", "i": 0, "mw": 6.0, "hub_m": 120.0, "rotor_m": 150.0}}, {"type": "Feature", "geometry": {"type": "Point", "coordinates": [6.93244, 51.57962]}, "properties": {"kind": "turbine", "i": 1, "mw": 6.0, "hub_m": 120.0, "rotor_m": 150.0}}, {"type": "Feature", "geometry": {"type": "Point", "coordinates": [7.13556, 51.63885]}, "properties": {"kind": "turbine", "i": 2, "mw": 6.0, "hub_m": 120.0, "rotor_m": 150.0}}, {"type": "Feature", "geometry": {"type": "Point", "coordinates": [7.12326, 51.55328]}, "properties": {"kind": "turbine", "i": 3, "mw": 6.0, "hub_m": 120.0, "rotor_m": 150.0}}, {"type": "Feature", "geometry": {"type": "Point", "coordinates": [6.97502, 51.68873]}, "properties": {"kind": "turbine", "i": 4, "mw": 6.0, "hub_m": 120.0, "rotor_m": 150.0}}, {"type": "Feature", "geometry": {"type": "Point", "coordinates": [7.01697, 51.69601]}, "properties": {"kind": "turbine", "i": 5, "mw": 6.0, "hub_m": 120.0, "rotor_m": 150.0}}, {"type": "Feature", "geometry": {"type": "Point", "coordinates": [7.17011, 51.56715]}, "properties": {"kind": "turbine", "i": 6, "mw": 6.0, "hub_m": 120.0, "rotor_m": 150.0}}, {"type": "Feature", "geometry": {"type": "Point", "coordinates": [6.87748, 51.6279]}, "properties": {"kind": "turbine", "i": 7, "mw": 6.0, "hub_m": 120.0, "rotor_m": 150.0}}, {"type": "Feature", "geometry": {"type": "Point", "coordinates": [6.88596, 51.55909]}, "properties": {"kind": "turbine", "i": 8, "mw": 6.0, "hub_m": 120.0, "rotor_m": 150.0}}, {"type": "Feature", "geometry": {"type": "Point", "coordinates": [7.04308, 51.70302]}, "properties": {"kind": "turbine", "i": 9, "mw": 6.0, "hub_m": 120.0, "rotor_m": 150.0}}, {"type": "Feature", "geometry": {"type": "Point", "coordinates": [6.91212, 51.67778]}, "properties": {"kind": "turbine", "i": 10, "mw": 6.0, "hub_m": 120.0, "rotor_m": 150.0}}, {"type": "Feature", "geometry": {"type": "Point", "coordinates": [6.86198, 51.62105]}, "properties": {"kind": "turbine", "i": 11, "mw": 6.0, "hub_m": 120.0, "rotor_m": 150.0}}, {"type": "Feature", "geometry": {"type": "Point", "coordinates": [6.87589, 51.54906]}, "properties": {"kind": "turbine", "i": 12, "mw": 6.0, "hub_m": 120.0, "rotor_m": 150.0}}, {"type": "Feature", "geometry": {"type": "Point", "coordinates": [7.0585, 51.71312]}, "properties": {"kind": "turbine", "i": 13, "mw": 6.0, "hub_m": 120.0, "rotor_m": 150.0}}, {"type": "Feature", "geometry": {"type": "Point", "coordinates": [6.84694, 51.60436]}, "properties": {"kind": "turbine", "i": 14, "mw": 6.0, "hub_m": 120.0, "rotor_m": 150.0}}, {"type": "Feature", "geometry": {"type": "Point", "coordinates": [6.83192, 51.58766]}, "properties": {"kind": "turbine", "i": 15, "mw": 6.0, "hub_m": 120.0, "rotor_m": 150.0}}, {"type": "Feature", "geometry": {"type": "Point", "coordinates": [6.94215, 51.71443]}, "properties": {"kind": "turbine", "i": 16, "mw": 6.0, "hub_m": 120.0, "rotor_m": 150.0}}, {"type": "Feature", "geometry": {"type": "Point", "coordinates": [6.8195, 51.62684]}, "properties": {"kind": "turbine", "i": 17, "mw": 6.0, "hub_m": 120.0, "rotor_m": 150.0}}, {"type": "Feature", "geometry": {"type": "Point", "coordinates": [6.83887, 51.66332]}, "properties": {"kind": "turbine", "i": 18, "mw": 6.0, "hub_m": 120.0, "rotor_m": 150.0}}, {"type": "Feature", "geometry": {"type": "Point", "coordinates": [6.82335, 51.65646]}, "properties": {"kind": "turbine", "i": 19, "mw": 6.0, "hub_m": 120.0, "rotor_m": 150.0}}, {"type": "Feature", "geometry": {"type": "Point", "coordinates": [7.0998, 51.73679]}, "properties": {"kind": "turbine", "i": 20, "mw": 6.0, "hub_m": 120.0, "rotor_m": 150.0}}, {"type": "Feature", "geometry": {"type": "Point", "coordinates": [6.94654, 51.73421]}, "properties": {"kind": "turbine", "i": 21, "mw": 6.0, "hub_m": 120.0, "rotor_m": 150.0}}, {"type": "Feature", "geometry": {"type": "Point", "coordinates": [6.93084, 51.73065]}, "properties": {"kind": "turbine", "i": 22, "mw": 6.0, "hub_m": 120.0, "rotor_m": 150.0}}]}