{"type": "FeatureCollection", "features": [{"type": "Feature", "geometry": {"type": "MultiPolygon", "coordinates": [[[[6.87571, 51.63417], [6.87594, 51.63239], [6.87722, 51.63106], [6.88033, 51.62979], [6.88358, 51.62987], [6.88429, 51.62836], [6.87732, 51.62718], [6.87721, 51.62882], [6.87831, 51.62904], [6.877, 51.62893], [6.87681, 51.62928], [6.87847, 51.62956], [6.87823, 51.63004], [6.87619, 51.62978], [6.87479, 51.63192], [6.87339, 51.63174], [6.87339, 51.63174], [6.87579, 51.63207], [6.87474, 51.6339], [6.87571, 51.63417]]], [[[6.88807, 51.62207], [6.88683, 51.62116], [6.88637, 51.62158], [6.88532, 51.62146], [6.88333, 51.62028], [6.8822, 51.62051], [6.88596, 51.62269], [6.88807, 51.62207]]], [[[6.87286, 51.61406], [6.87315, 51.61369], [6.87133, 51.61338], [6.87108, 51.61392], [6.87267, 51.6143], [6.87286, 51.61406]]], [[[6.86116, 51.60676], [6.86314, 51.6072], [6.86369, 51.60624], [6.86098, 51.6051], [6.86116, 51.60676]]], [[[6.8637, 51.60611], [6.86402, 51.60488], [6.86492, 51.60413], [6.86628, 51.60372], [6.86796, 51.60381], [6.86706, 51.60266], [6.86418, 51.60147], [6.86231, 51.60363], [6.86092, 51.60319], [6.86097, 51.60503], [6.8637, 51.60611]], [[6.86313, 51.60413], [6.86319, 51.60408], [6.86378, 51.60439], [6.86313, 51.60413]]], [[[6.88153, 51.60649], [6.88269, 51.60722], [6.88359, 51.60842], [6.88363, 51.60802], [6.88411, 51.60772], [6.88309, 51.60641], [6.88149, 51.60583], [6.88113, 51.60632], [6.88153, 51.60649]]], [[[6.93142, 51.57963], [6.93268, 51.5803], [6.93359, 51.5812], [6.93264, 51.57928], [6.93142, 51.57963]]], [[[6.86838, 51.61573], [6.8679, 51.61655], [6.87074, 51.61668], [6.87145, 51.6158], [6.86838, 51.61573]]], [[[6.90431, 51.63633], [6.90445, 51.63658], [6.90456, 51.63643], [6.90431, 51.63633]]], [[[6.87084, 51.59007], [6.87118, 51.58933], [6.86973, 51.58818], [6.86901, 51.58865], [6.87084, 51.59007]]], [[[6.86232, 51.60354], [6.86229, 51.60353], [6.86228, 51.60354], [6.86232, 51.60354]]], [[[6.87127, 51.58862], [6.87184, 51.58902], [6.87378, 51.58811], [6.87637, 51.58758], [6.87374, 51.58692], [6.87127, 51.58862]]], [[[6.87952, 51.55518], [6.87997, 51.55503], [6.87938, 51.55476], [6.8789, 51.55535], [6.87952, 51.55518]]], [[[6.88085, 51.56099], [6.88281, 51.56259], [6.8841, 51.56296], [6.88662, 51.56283], [6.89204, 51.56517], [6.89495, 51.56496], [6.89469, 51.5636], [6.8959, 51.56226], [6.89155, 51.56056], [6.89025, 51.55998], [6.88946, 51.55938], [6.88725, 51.5587], [6.88468, 51.55728], [6.88256, 51.55659], [6.88154, 51.55712], [6.88241, 51.55823], [6.88232, 51.55969], [6.88085, 51.56099]]], [[[6.89618, 51.56207], [6.89637, 51.56196], [6.89102, 51.55964], [6.89089, 51.56021], [6.89618, 51.56207]]], [[[6.91104, 51.63698], [6.91057, 51.63603], [6.9088, 51.63763], [6.91061, 51.63828], [6.91115, 51.6376], [6.9123, 51.63807], [6.91254, 51.6379], [6.91104, 51.63698]]], [[[6.91314, 51.63805], [6.91335, 51.63814], [6.91339, 51.6381], [6.91334, 51.63809], [6.91314, 51.63805]]], [[[6.91901, 51.63709], [6.91868, 51.6372], [6.92095, 51.63777], [6.92088, 51.63756], [6.91901, 51.63709]]], [[[6.88371, 51.6088], [6.88384, 51.60931], [6.88517, 51.60961], [6.88518, 51.60838], [6.88415, 51.60775], [6.88371, 51.6088]]], [[[6.88561, 51.61167], [6.88643, 51.61128], [6.88595, 51.61088], [6.8851, 51.61169], [6.88561, 51.61167]]], [[[6.91082, 51.67723], [6.91086, 51.67746], [6.91115, 51.67763], [6.91096, 51.67744], [6.91088, 51.67722], [6.91277, 51.67694], [6.91088, 51.6772], [6.91254, 51.67686], [6.91207, 51.67669], [6.91052, 51.67726], [6.91082, 51.67723]]], [[[6.91197, 51.67808], [6.91246, 51.67807], [6.9126, 51.67834], [6.912, 51.67814], [6.91455, 51.67966], [6.91537, 51.67959], [6.91502, 51.67825], [6.91327, 51.67793], [6.91259, 51.67804], [6.91274, 51.6785], [6.91247, 51.67802], [6.91334, 51.67788], [6.91501, 51.67819], [6.91485, 51.67728], [6.91308, 51.67702], [6.91102, 51.6774], [6.91183, 51.67804], [6.91318, 51.67784], [6.9132, 51.67786], [6.91197, 51.67808]]], [[[6.94235, 51.56433], [6.94145, 51.56443], [6.9419, 51.56488], [6.94254, 51.56462], [6.94235, 51.56433]]], [[[6.94201, 51.565], [6.94253, 51.56517], [6.94259, 51.56468], [6.94196, 51.56495], [6.94201, 51.565]]], [[[6.94265, 51.56444], [6.94268, 51.56437], [6.9426, 51.56436], [6.94265, 51.56445], [6.94265, 51.56444]]], [[[6.97822, 51.69047], [6.97727, 51.68916], [6.97711, 51.68945], [6.97469, 51.68844], [6.97339, 51.68884], [6.97585, 51.68948], [6.97805, 51.69097], [6.97822, 51.69047]]], [[[6.99127, 51.50607], [6.99134, 51.50697], [6.99141, 51.50697], [6.99193, 51.50627], [6.99127, 51.50607]]], [[[6.99094, 51.54362], [6.98923, 51.54336], [6.98801, 51.54406], [6.98978, 51.54463], [6.99094, 51.54362]]], [[[6.97683, 51.63061], [6.97722, 51.62975], [6.97693, 51.62927], [6.97636, 51.63083], [6.97683, 51.63061]]], [[[7.02174, 51.65182], [7.0216, 51.65222], [7.02452, 51.65288], [7.02547, 51.65113], [7.02785, 51.65038], [7.02784, 51.64799], [7.02605, 51.64769], [7.02528, 51.64961], [7.02391, 51.65069], [7.02175, 51.65145], [7.02174, 51.65182]]], [[[7.01378, 51.69675], [7.01594, 51.6974], [7.01568, 51.69793], [7.01657, 51.69992], [7.01829, 51.69896], [7.02078, 51.69896], [7.01921, 51.69832], [7.01941, 51.69755], [7.02217, 51.69882], [7.02197, 51.69943], [7.0231, 51.70081], [7.02286, 51.70181], [7.02437, 51.70238], [7.02554, 51.70135], [7.02596, 51.70162], [7.02557, 51.70197], [7.02675, 51.70159], [7.02784, 51.69999], [7.02628, 51.69826], [7.02604, 51.6969], [7.02699, 51.69519], [7.02863, 51.69417], [7.0285, 51.69345], [7.02742, 51.69308], [7.02536, 51.69304], [7.02421, 51.69414], [7.02371, 51.69416], [7.02217, 51.6988], [7.01945, 51.69754], [7.02051, 51.69436], [7.01856, 51.69364], [7.01626, 51.69335], [7.01415, 51.69211], [7.01265, 51.6964], [7.01378, 51.69675]], [[7.0159, 51.6942], [7.0164, 51.69424], [7.01587, 51.69424], [7.0159, 51.6942]], [[7.016, 51.69475], [7.01611, 51.69497], [7.01416, 51.69467], [7.01434, 51.69439], [7.016, 51.69475]]], [[[7.12569, 51.55412], [7.12496, 51.55255], [7.12344, 51.55239], [7.1228, 51.55433], [7.12525, 51.555], [7.12725, 51.55707], [7.12908, 51.5577], [7.13056, 51.55885], [7.13166, 51.55783], [7.1313, 51.55627], [7.13078, 51.55588], [7.12757, 51.55534], [7.12569, 51.55412]]], [[[7.12169, 51.55256], [7.12143, 51.55284], [7.12291, 51.55348], [7.12328, 51.55263], [7.12194, 51.55222], [7.12169, 51.55256]]], [[[7.01898, 51.51338], [7.01839, 51.5131], [7.01821, 51.51356], [7.01876, 51.51369], [7.01898, 51.51338]]], [[[7.04406, 51.66462], [7.0431, 51.66393], [7.04271, 51.66438], [7.04398, 51.66532], [7.04406, 51.66462]]], [[[7.04285, 51.6646], [7.04169, 51.66551], [7.04133, 51.66649], [7.04285, 51.6646]]], [[[7.042, 51.66842], [7.04132, 51.66874], [7.04157, 51.66897], [7.04255, 51.6688], [7.042, 51.66842]]], [[[7.04449, 51.66922], [7.04396, 51.66879], [7.04336, 51.66906], [7.04435, 51.66927], [7.04449, 51.66922]]], [[[7.0157, 51.70321], [7.0168, 51.70256], [7.01607, 51.70141], [7.01423, 51.70291], [7.0157, 51.70321]]], [[[7.04562, 51.69738], [7.04547, 51.69743], [7.04566, 51.69747], [7.04562, 51.69738]]], [[[6.98778, 51.62225], [6.98775, 51.62247], [6.98806, 51.62225], [6.98778, 51.62225]]], [[[6.98539, 51.61857], [6.98614, 51.61916], [6.98644, 51.618], [6.98483, 51.61793], [6.98539, 51.61857]]], [[[7.07489, 51.63462], [7.07357, 51.63388], [7.07216, 51.63486], [7.07236, 51.63547], [7.0745, 51.63528], [7.07674, 51.63566], [7.07689, 51.63542], [7.07489, 51.63462]]], [[[7.14606, 51.67217], [7.14372, 51.67219], [7.14319, 51.67354], [7.14401, 51.67395], [7.14517, 51.67332], [7.14493, 51.67292], [7.14375, 51.67272], [7.14381, 51.67228], [7.14606, 51.67217]]], [[[7.14994, 51.67634], [7.14988, 51.67629], [7.14987, 51.6763], [7.15057, 51.6768], [7.14994, 51.67634]]], [[[7.14818, 51.67852], [7.14639, 51.67869], [7.14664, 51.67962], [7.14827, 51.67864], [7.14818, 51.67852]]], [[[7.09103, 51.59299], [7.09111, 51.59301], [7.09102, 51.59297], [7.09103, 51.59299]]], [[[7.07769, 51.59242], [7.07721, 51.59256], [7.07785, 51.5928], [7.07775, 51.59261], [7.07769, 51.59242]]], [[[7.03899, 51.70051], [7.03744, 51.70045], [7.03925, 51.70258], [7.04014, 51.70212], [7.03994, 51.70168], [7.04036, 51.70214], [7.0432, 51.70563], [7.04168, 51.70648], [7.04327, 51.70567], [7.04352, 51.70608], [7.04284, 51.70701], [7.04408, 51.70787], [7.04412, 51.7069], [7.04487, 51.706], [7.0436, 51.70363], [7.04392, 51.70318], [7.04343, 51.70206], [7.04242, 51.70151], [7.04217, 51.70084], [7.03899, 51.70051]], [[7.04347, 51.70433], [7.044, 51.70494], [7.0436, 51.70503], [7.04325, 51.70448], [7.04347, 51.70433]]], [[[7.04481, 51.70146], [7.04541, 51.70144], [7.04483, 51.70134], [7.04481, 51.70146]]], [[[7.05441, 51.70516], [7.05393, 51.7051], [7.05348, 51.705], [7.05378, 51.70549], [7.05441, 51.70516]]], [[[7.04938, 51.64072], [7.04901, 51.63992], [7.04847, 51.64186], [7.04858, 51.64221], [7.04923, 51.64146], [7.0488, 51.64094], [7.04938, 51.64072]]], [[[7.04834, 51.64232], [7.04833, 51.64236], [7.0484, 51.64232], [7.04834, 51.64232]]], [[[6.94374, 51.63028], [6.94314, 51.6303], [6.94271, 51.63053], [6.94347, 51.6308], [6.94374, 51.63028]]], [[[6.92199, 51.67875], [6.92151, 51.67837], [6.92179, 51.67931], [6.92338, 51.67944], [6.92199, 51.67875]]], [[[6.93458, 51.61672], [6.9345, 51.61675], [6.93456, 51.61679], [6.93458, 51.61672]]], [[[6.95859, 51.62403], [6.95906, 51.6259], [6.96004, 51.62626], [6.9607, 51.62528], [6.95995, 51.62437], [6.95859, 51.62403]]], [[[7.00601, 51.69561], [7.00507, 51.69551], [7.00613, 51.69726], [7.00635, 51.69643], [7.00601, 51.69561]]], [[[7.03758, 51.6494], [7.03747, 51.64928], [7.03659, 51.64889], [7.0364, 51.64925], [7.03758, 51.6494]]], [[[7.09538, 51.58555], [7.09577, 51.58606], [7.09651, 51.586], [7.09735, 51.58524], [7.09629, 51.58495], [7.09554, 51.58509], [7.09538, 51.58555]]], [[[7.07016, 51.63036], [7.07008, 51.63051], [7.07022, 51.63041], [7.07016, 51.63036]]], [[[7.13121, 51.57851], [7.13211, 51.57874], [7.13199, 51.57814], [7.13119, 51.57818], [7.13121, 51.57851]]], [[[7.17004, 51.6558], [7.16923, 51.65654], [7.16813, 51.65744], [7.1701, 51.65765], [7.17124, 51.65654], [7.17004, 51.6558]]], [[[7.18028, 51.63286], [7.18029, 51.63263], [7.17943, 51.63325], [7.18037, 51.63333], [7.18028, 51.63286]]], [[[7.1687, 51.64666], [7.16875, 51.6464], [7.16754, 51.64723], [7.16852, 51.64751], [7.1687, 51.64666]]], [[[7.17154, 51.56969], [7.17251, 51.56898], [7.1706, 51.5672], [7.17007, 51.5659], [7.16914, 51.56569], [7.16861, 51.56651], [7.16865, 51.56623], [7.16863, 51.56598], [7.16878, 51.56583], [7.16882, 51.5656], [7.16881, 51.56559], [7.16862, 51.56599], [7.1686, 51.56653], [7.16825, 51.56723], [7.16788, 51.56709], [7.16711, 51.56756], [7.16717, 51.56745], [7.16713, 51.56741], [7.16681, 51.56745], [7.1669, 51.56722], [7.16716, 51.56707], [7.16723, 51.56702], [7.16726, 51.56691], [7.16725, 51.56654], [7.1671, 51.56655], [7.16688, 51.56681], [7.16712, 51.56538], [7.16671, 51.56664], [7.16636, 51.56671], [7.16654, 51.56657], [7.16673, 51.56544], [7.16622, 51.56664], [7.16353, 51.56666], [7.16496, 51.56682], [7.16487, 51.5672], [7.16273, 51.56693], [7.16474, 51.56769], [7.16389, 51.56776], [7.16241, 51.56703], [7.16125, 51.56724], [7.1605, 51.56866], [7.15917, 51.5696], [7.15804, 51.57203], [7.16021, 51.57048], [7.16366, 51.56912], [7.16587, 51.56897], [7.17154, 51.56969]], [[7.16883, 51.56657], [7.16904, 51.56605], [7.16927, 51.56601], [7.16887, 51.56669], [7.16883, 51.56657]], [[7.16866, 51.56696], [7.16876, 51.56711], [7.16874, 51.56713], [7.16854, 51.56684], [7.16866, 51.56696]], [[7.16545, 51.56713], [7.1653, 51.56685], [7.16625, 51.56692], [7.16585, 51.56704], [7.16545, 51.56713]], [[7.16898, 51.5672], [7.16878, 51.56717], [7.16905, 51.56703], [7.16913, 51.56712], [7.16898, 51.5672]], [[7.16722, 51.56671], [7.16722, 51.567], [7.1669, 51.56718], [7.16678, 51.56746], [7.16707, 51.56758], [7.16502, 51.56786], [7.16554, 51.56757], [7.16521, 51.5672], [7.16581, 51.56708], [7.16647, 51.56685], [7.16673, 51.56663], [7.16683, 51.56631], [7.16686, 51.56682], [7.16722, 51.56671]], [[7.16909, 51.56715], [7.1696, 51.56742], [7.1697, 51.56764], [7.16885, 51.56725], [7.16909, 51.56715]], [[7.1648, 51.56746], [7.16458, 51.56741], [7.16428, 51.56731], [7.16486, 51.56724], [7.1648, 51.56746]], [[7.17006, 51.56791], [7.17005, 51.56776], [7.16949, 51.56704], [7.1704, 51.56762], [7.17006, 51.56791]], [[7.1692, 51.56751], [7.16982, 51.56786], [7.16986, 51.56793], [7.16961, 51.56791], [7.1692, 51.56751]], [[7.16446, 51.56784], [7.164, 51.56782], [7.16394, 51.5678], [7.16473, 51.56771], [7.16446, 51.56784]], [[7.17012, 51.56829], [7.17025, 51.56844], [7.17041, 51.56857], [7.16969, 51.56818], [7.17012, 51.56829]], [[7.16984, 51.56833], [7.17026, 51.56868], [7.1703, 51.56895], [7.16971, 51.5684], [7.16984, 51.56833]], [[7.16998, 51.56903], [7.16978, 51.56907], [7.16972, 51.56874], [7.16996, 51.56891], [7.16998, 51.56903]]], [[[7.15822, 51.57238], [7.15823, 51.57236], [7.15793, 51.57226], [7.15792, 51.57229], [7.15822, 51.57238]]], [[[7.16448, 51.56619], [7.16419, 51.56636], [7.16585, 51.56629], [7.16617, 51.5655], [7.16563, 51.56618], [7.16448, 51.56619]]], [[[6.89809, 51.65149], [6.89887, 51.6508], [6.89787, 51.65015], [6.89722, 51.65075], [6.89809, 51.65149]]], [[[6.94464, 51.57872], [6.94533, 51.57828], [6.94521, 51.57775], [6.94244, 51.57857], [6.94415, 51.57917], [6.94464, 51.57872]]], [[[6.99928, 51.63884], [6.99936, 51.63966], [7.00105, 51.6387], [7.00008, 51.63863], [6.99928, 51.63884]]], [[[7.13257, 51.63876], [7.1313, 51.63933], [7.1302, 51.63912], [7.13089, 51.64054], [7.13207, 51.64077], [7.13269, 51.6401], [7.13468, 51.64092], [7.13565, 51.64054], [7.13607, 51.63883], [7.13459, 51.63827], [7.13257, 51.63876]]], [[[7.09266, 51.61584], [7.09244, 51.61636], [7.0954, 51.6162], [7.0955, 51.61476], [7.09266, 51.61584]]], [[[7.09878, 51.61315], [7.09827, 51.61301], [7.09803, 51.61293], [7.09902, 51.61347], [7.09878, 51.61315]]], [[[7.0898, 51.6213], [7.09035, 51.62109], [7.08898, 51.6203], [7.08859, 51.6206], [7.0898, 51.6213]]], [[[7.11775, 51.60044], [7.11837, 51.59971], [7.11874, 51.59934], [7.11663, 51.59949], [7.11775, 51.60044]]], [[[7.01978, 51.69697], [7.0209, 51.69678], [7.02067, 51.6965], [7.01987, 51.69672], [7.01978, 51.69697]]], [[[7.12253, 51.55403], [7.12202, 51.55409], [7.12089, 51.55395], [7.12256, 51.5543], [7.12253, 51.55403]]], [[[7.16533, 51.56603], [7.16541, 51.56604], [7.16543, 51.56599], [7.16533, 51.56598], [7.16533, 51.56603]]], [[[7.14693, 51.6749], [7.14615, 51.67568], [7.14639, 51.67546], [7.14693, 51.6749]]], [[[7.14578, 51.6757], [7.1451, 51.67637], [7.14442, 51.67688], [7.14512, 51.67638], [7.14574, 51.67646], [7.14615, 51.67568], [7.14578, 51.6757]]], [[[7.14658, 51.67781], [7.1466, 51.6778], [7.14577, 51.67746], [7.14658, 51.67781]]]]}, "properties": {"kind": "windland", "area_km2": 2.47}}, {"type": "Feature", "geometry": {"type": "MultiPolygon", "coordinates": [[[[7.00787, 51.5845], [7.00741, 51.58489], [7.00721, 51.58582], [7.00597, 51.58648], [7.00932, 51.58662], [7.00948, 51.58603], [7.01183, 51.58628], [7.01177, 51.58642], [7.01248, 51.58631], [7.01315, 51.5861], [7.01393, 51.58436], [7.01259, 51.58432], [7.01223, 51.58517], [7.01037, 51.58496], [7.01161, 51.5843], [7.008, 51.58424], [7.00787, 51.5845]]], [[[7.00244, 51.58557], [7.00241, 51.58555], [7.00241, 51.5856], [7.00244, 51.58557]]], [[[6.98778, 51.59308], [6.9878, 51.59296], [6.98765, 51.59289], [6.98764, 51.59313], [6.98778, 51.59308]]], [[[6.98948, 51.59858], [6.99034, 51.59867], [6.99134, 51.59849], [6.99065, 51.59802], [6.99013, 51.59804], [6.98948, 51.59858]]], [[[6.98762, 51.59872], [6.98741, 51.5987], [6.98762, 51.59901], [6.9876, 51.59887], [6.98762, 51.59872]]], [[[6.99308, 51.59952], [6.99215, 51.60004], [6.99162, 51.60011], [6.9917, 51.60036], [6.99217, 51.60016], [6.99278, 51.60017], [6.99351, 51.5994], [6.99401, 51.59806], [6.99344, 51.59802], [6.99358, 51.59843], [6.99309, 51.5989], [6.99308, 51.59952]]], [[[6.99013, 51.59996], [6.9898, 51.60004], [6.98966, 51.60006], [6.99036, 51.60005], [6.99013, 51.59996]]], [[[6.98925, 51.60005], [6.98905, 51.60004], [6.98905, 51.60011], [6.98946, 51.60007], [6.98925, 51.60005]]], [[[6.98894, 51.60009], [6.98889, 51.60013], [6.98885, 51.60015], [6.98895, 51.60013], [6.98894, 51.60009]]], [[[6.98796, 51.60162], [6.98841, 51.60107], [6.98837, 51.60069], [6.98734, 51.60076], [6.98723, 51.60237], [6.9881, 51.60213], [6.98796, 51.60162]]], [[[6.99408, 51.60139], [6.99245, 51.60195], [6.99194, 51.6018], [6.99004, 51.60206], [6.98971, 51.60243], [6.98886, 51.60265], [6.98838, 51.60463], [6.98783, 51.60493], [6.98712, 51.60493], [6.98689, 51.61003], [6.98798, 51.61019], [6.98782, 51.60998], [6.98798, 51.6097], [6.98919, 51.60839], [6.98797, 51.61006], [6.98921, 51.6102], [6.99026, 51.60829], [6.99083, 51.60773], [6.99069, 51.60764], [6.99148, 51.6069], [6.99219, 51.60714], [6.99192, 51.60792], [6.99214, 51.60804], [6.99321, 51.60729], [6.99344, 51.60682], [6.99362, 51.60659], [6.99329, 51.60731], [6.99204, 51.60822], [6.99205, 51.60879], [6.99159, 51.60908], [6.99102, 51.60912], [6.98994, 51.61027], [6.99074, 51.61024], [6.99089, 51.60979], [6.99191, 51.60939], [6.99219, 51.60879], [6.9931, 51.60803], [6.99365, 51.60803], [6.99344, 51.60872], [6.99477, 51.60866], [6.99515, 51.60774], [6.99408, 51.60756], [6.99377, 51.60703], [6.99484, 51.60614], [6.99565, 51.60627], [6.99595, 51.60494], [6.99478, 51.60475], [6.99428, 51.60571], [6.99404, 51.60568], [6.99451, 51.6046], [6.99328, 51.60433], [6.99413, 51.60366], [6.9948, 51.60112], [6.99408, 51.60139]]], [[[6.99094, 51.60139], [6.99019, 51.60165], [6.99016, 51.60191], [6.99186, 51.60164], [6.99224, 51.60131], [6.99171, 51.6011], [6.99094, 51.60139]]], [[[6.98948, 51.60229], [6.98903, 51.60241], [6.98861, 51.60239], [6.98882, 51.60258], [6.98976, 51.60222], [6.98948, 51.60229]]], [[[6.99628, 51.60499], [6.99611, 51.60496], [6.99603, 51.6056], [6.99642, 51.6049], [6.99628, 51.60499]]], [[[6.99526, 51.60652], [6.99534, 51.60631], [6.99493, 51.60624], [6.99475, 51.60648], [6.99526, 51.60652]]], [[[6.99607, 51.60618], [6.99597, 51.60595], [6.99572, 51.60665], [6.99594, 51.60685], [6.99622, 51.60657], [6.99607, 51.60618]]], [[[7.00239, 51.60709], [7.00264, 51.60804], [7.00465, 51.60792], [7.00442, 51.60734], [7.00389, 51.60696], [7.00336, 51.60712], [7.00239, 51.60709]]], [[[6.99642, 51.60707], [6.99632, 51.6068], [6.99605, 51.60695], [6.99544, 51.60827], [6.99642, 51.60707]]], [[[7.00989, 51.60952], [7.01098, 51.609], [7.01104, 51.60874], [7.00814, 51.60845], [7.00989, 51.60952]]], [[[6.99036, 51.60885], [6.99007, 51.60924], [6.99046, 51.60939], [6.99079, 51.60907], [6.99036, 51.60885]]], [[[7.00844, 51.61001], [7.00864, 51.61017], [7.00925, 51.60989], [7.00813, 51.60921], [7.00775, 51.60981], [7.00844, 51.61001]]], [[[6.99002, 51.60933], [6.98938, 51.61035], [6.98909, 51.61037], [6.98968, 51.61041], [6.99036, 51.60955], [6.99002, 51.60933]]], [[[7.00501, 51.60909], [7.00152, 51.60941], [7.00166, 51.61126], [7.00148, 51.61004], [7.00086, 51.61006], [7.00084, 51.60951], [6.99989, 51.60979], [7.00066, 51.61023], [7.00049, 51.61109], [7.00129, 51.6111], [7.00126, 51.61178], [7.0043, 51.61241], [7.00522, 51.60911], [7.00501, 51.60909]]], [[[6.99672, 51.60978], [6.99585, 51.60985], [6.99345, 51.61078], [6.99339, 51.61097], [6.99719, 51.61103], [6.99712, 51.60979], [6.99672, 51.60978]]], [[[7.00732, 51.61071], [7.00718, 51.6106], [7.00635, 51.61103], [7.00558, 51.61093], [7.00535, 51.6118], [7.0065, 51.6118], [7.00678, 51.6121], [7.00705, 51.61298], [7.00647, 51.61398], [7.00636, 51.61379], [7.00511, 51.61357], [7.00514, 51.61396], [7.00605, 51.61387], [7.00687, 51.61444], [7.00753, 51.61428], [7.00788, 51.61362], [7.00856, 51.61382], [7.00934, 51.61227], [7.00732, 51.61071]]], [[[7.00796, 51.61082], [7.00771, 51.61085], [7.00909, 51.6119], [7.00933, 51.61185], [7.0093, 51.61131], [7.0083, 51.61064], [7.00796, 51.61082]]], [[[7.00662, 51.61232], [7.00643, 51.61184], [7.00534, 51.61184], [7.00517, 51.61246], [7.00609, 51.61236], [7.00671, 51.61248], [7.00662, 51.61232]]], [[[7.00775, 51.61565], [7.00848, 51.616], [7.00986, 51.61571], [7.01068, 51.61532], [7.01053, 51.61513], [7.00954, 51.61525], [7.00878, 51.61481], [7.00696, 51.61455], [7.00678, 51.61501], [7.00717, 51.61559], [7.00775, 51.61565]]], [[[7.00161, 51.61773], [7.00214, 51.61747], [7.0029, 51.61749], [7.00292, 51.61707], [7.00327, 51.61677], [7.00433, 51.61669], [7.00434, 51.61498], [7.0042, 51.61297], [7.00123, 51.61232], [7.00098, 51.61806], [7.0015, 51.61802], [7.00161, 51.61773]]], [[[7.0066, 51.6152], [7.00634, 51.61554], [7.00698, 51.61558], [7.00685, 51.61528], [7.0066, 51.6152]]], [[[7.00848, 51.61681], [7.00847, 51.61882], [7.00981, 51.61882], [7.01013, 51.61759], [7.00963, 51.61761], [7.00958, 51.6164], [7.00999, 51.61625], [7.00852, 51.61654], [7.00848, 51.61681]]], [[[7.00813, 51.61803], [7.0082, 51.61785], [7.00778, 51.61736], [7.00777, 51.61736], [7.00813, 51.61803]]], [[[7.00795, 51.61934], [7.00694, 51.61752], [7.00621, 51.61711], [7.00628, 51.61608], [7.00573, 51.61597], [7.00524, 51.61543], [7.00513, 51.61729], [7.00566, 51.61785], [7.00508, 51.61886], [7.00427, 51.6192], [7.00356, 51.61919], [7.00303, 51.61894], [7.00293, 51.61852], [7.00215, 51.61858], [7.00152, 51.61811], [7.00098, 51.61816], [7.00091, 51.61971], [7.00122, 51.6201], [7.00446, 51.62015], [7.00472, 51.61952], [7.0059, 51.61934], [7.00696, 51.61947], [7.00731, 51.61977], [7.0073, 51.6202], [7.00799, 51.62021], [7.00829, 51.61986], [7.00826, 51.61948], [7.00795, 51.61934]]], [[[7.02526, 51.57595], [7.0254, 51.57587], [7.02508, 51.57554], [7.02507, 51.57615], [7.02526, 51.57595]]], [[[7.02435, 51.57617], [7.02503, 51.57641], [7.02498, 51.57553], [7.02296, 51.5755], [7.02427, 51.57592], [7.02435, 51.57617]]], [[[7.01808, 51.57834], [7.01882, 51.57639], [7.01821, 51.57635], [7.01804, 51.57607], [7.01832, 51.57588], [7.01898, 51.57585], [7.01909, 51.57543], [7.01729, 51.5754], [7.01715, 51.57851], [7.01808, 51.57834]]], [[[7.01967, 51.57749], [7.01988, 51.57746], [7.01959, 51.57679], [7.01935, 51.57759], [7.01967, 51.57749]]], [[[7.02577, 51.57867], [7.02616, 51.57888], [7.02599, 51.57832], [7.02518, 51.57762], [7.0221, 51.57595], [7.0221, 51.57683], [7.02161, 51.57749], [7.02206, 51.57778], [7.02209, 51.57824], [7.02275, 51.5783], [7.02355, 51.57884], [7.02577, 51.57867]]], [[[7.02728, 51.57841], [7.02734, 51.5784], [7.02712, 51.57823], [7.02728, 51.57841]]], [[[7.01922, 51.57842], [7.01919, 51.5784], [7.01916, 51.57837], [7.01915, 51.57842], [7.01922, 51.57842]]], [[[7.02773, 51.57892], [7.02785, 51.57903], [7.0278, 51.57894], [7.02773, 51.57892]]], [[[7.02662, 51.57945], [7.02671, 51.57953], [7.02691, 51.57954], [7.02675, 51.57928], [7.02662, 51.57945]]], [[[7.02494, 51.58011], [7.02582, 51.5792], [7.02345, 51.57939], [7.02314, 51.57957], [7.02475, 51.58027], [7.02494, 51.58011]]], [[[7.02844, 51.57947], [7.02822, 51.57963], [7.02862, 51.58037], [7.02849, 51.57942], [7.02844, 51.57947]]], [[[7.02721, 51.58005], [7.02731, 51.58013], [7.02756, 51.58043], [7.02734, 51.58001], [7.02721, 51.58005]]], [[[7.02263, 51.58023], [7.0228, 51.58024], [7.02246, 51.58008], [7.0225, 51.58016], [7.02263, 51.58023]]], [[[7.02455, 51.58101], [7.02341, 51.58053], [7.02409, 51.58124], [7.02417, 51.58201], [7.02448, 51.58169], [7.02507, 51.58157], [7.02512, 51.58126], [7.02544, 51.58129], [7.02455, 51.58101]]], [[[7.02662, 51.58153], [7.02573, 51.58136], [7.02564, 51.58165], [7.02606, 51.58198], [7.02611, 51.58256], [7.02845, 51.58251], [7.02818, 51.58176], [7.02662, 51.58153]]], [[[7.02425, 51.58262], [7.02422, 51.58258], [7.02419, 51.5828], [7.02442, 51.58276], [7.02425, 51.58262]]], [[[7.0096, 51.58908], [7.00943, 51.58886], [7.01102, 51.58794], [7.01112, 51.58845], [7.01175, 51.58846], [7.01189, 51.58812], [7.01369, 51.58815], [7.01367, 51.58796], [7.01257, 51.5877], [7.01232, 51.58693], [7.00871, 51.58721], [7.00859, 51.58901], [7.00903, 51.5894], [7.0096, 51.58908]]], [[[7.02665, 51.5888], [7.02704, 51.58864], [7.02699, 51.58846], [7.02645, 51.5887], [7.02665, 51.5888]]], [[[7.01731, 51.58887], [7.0174, 51.5886], [7.01454, 51.58868], [7.01383, 51.58839], [7.01387, 51.58936], [7.0152, 51.58971], [7.01534, 51.58928], [7.01602, 51.58895], [7.01731, 51.58887]]], [[[7.01228, 51.59503], [7.01092, 51.59493], [7.01002, 51.59457], [7.0095, 51.59488], [7.01174, 51.59598], [7.01476, 51.59807], [7.01515, 51.59815], [7.01491, 51.59736], [7.01228, 51.59503]]], [[[7.02152, 51.60093], [7.02171, 51.60039], [7.02136, 51.60036], [7.02152, 51.60076], [7.02134, 51.601], [7.02152, 51.60093]]], [[[7.01997, 51.60281], [7.02016, 51.60249], [7.01808, 51.60514], [7.01814, 51.60515], [7.01997, 51.60281]]], [[[7.01679, 51.60682], [7.01681, 51.6068], [7.0168, 51.60677], [7.01676, 51.60682], [7.01679, 51.60682]]], [[[7.01081, 51.60929], [7.01002, 51.6096], [7.01504, 51.61264], [7.01565, 51.61372], [7.01628, 51.61388], [7.01635, 51.61347], [7.01686, 51.6132], [7.01832, 51.61321], [7.01876, 51.61359], [7.01875, 51.6148], [7.01944, 51.61498], [7.02019, 51.61489], [7.02207, 51.61303], [7.02384, 51.61194], [7.02307, 51.61141], [7.01855, 51.61059], [7.01375, 51.60938], [7.0111, 51.60916], [7.01081, 51.60929]], [[7.0185, 51.61201], [7.02143, 51.61235], [7.02143, 51.61239], [7.01832, 51.61204], [7.01844, 51.61089], [7.0185, 51.61201]], [[7.01391, 51.61093], [7.01379, 51.61102], [7.01313, 51.61073], [7.01371, 51.61033], [7.01391, 51.61093]], [[7.01691, 51.61252], [7.01662, 51.6127], [7.01679, 51.61157], [7.016, 51.61156], [7.01612, 51.61146], [7.01689, 51.61149], [7.01691, 51.61252]], [[7.02132, 51.61277], [7.02132, 51.6131], [7.02105, 51.61307], [7.021, 51.61274], [7.02132, 51.61277]]], [[[7.02534, 51.61218], [7.02552, 51.61236], [7.02684, 51.61184], [7.02973, 51.61152], [7.03071, 51.61278], [7.03034, 51.61327], [7.03015, 51.61651], [7.02942, 51.61708], [7.03038, 51.61731], [7.03035, 51.61763], [7.0309, 51.61814], [7.03172, 51.61845], [7.0328, 51.61926], [7.03361, 51.61933], [7.03417, 51.61982], [7.035, 51.61972], [7.03473, 51.61738], [7.03351, 51.61759], [7.03095, 51.61765], [7.03095, 51.6175], [7.03358, 51.61743], [7.03477, 51.61723], [7.03426, 51.61492], [7.03321, 51.61489], [7.03425, 51.61489], [7.03362, 51.61287], [7.03202, 51.61181], [7.03354, 51.61261], [7.0332, 51.61163], [7.03268, 51.61179], [7.03215, 51.61125], [7.03174, 51.61132], [7.03155, 51.61111], [7.02754, 51.61157], [7.02534, 51.61218]], [[7.03381, 51.61944], [7.03435, 51.61938], [7.03385, 51.61948], [7.03381, 51.61944]]], [[[7.02344, 51.61291], [7.02323, 51.61305], [7.02448, 51.61242], [7.02415, 51.61255], [7.02344, 51.61291]]], [[[7.0121, 51.61161], [7.01136, 51.61443], [7.01168, 51.61531], [7.01288, 51.61483], [7.01289, 51.61402], [7.01338, 51.61424], [7.01364, 51.61464], [7.01515, 51.61421], [7.01332, 51.61393], [7.01347, 51.61354], [7.01455, 51.61347], [7.01445, 51.61309], [7.0121, 51.61161]], [[7.01369, 51.61351], [7.01367, 51.61337], [7.01325, 51.61335], [7.01341, 51.61312], [7.01384, 51.61321], [7.01369, 51.61351]]], [[[7.02406, 51.6135], [7.02411, 51.61385], [7.02448, 51.6145], [7.02473, 51.6137], [7.0241, 51.6133], [7.02406, 51.6135]]], [[[7.0152, 51.61482], [7.01312, 51.61536], [7.01183, 51.61589], [7.01102, 51.61582], [7.00983, 51.61646], [7.00979, 51.61749], [7.0104, 51.61745], [7.00996, 51.61881], [7.01139, 51.61883], [7.00934, 51.61891], [7.00929, 51.61935], [7.01001, 51.61987], [7.01095, 51.62019], [7.01059, 51.62025], [7.01397, 51.62031], [7.01462, 51.61995], [7.01544, 51.62007], [7.01932, 51.61583], [7.01906, 51.61546], [7.01796, 51.6152], [7.01724, 51.61525], [7.01552, 51.61618], [7.0159, 51.61679], [7.0156, 51.61722], [7.0139, 51.61767], [7.01254, 51.61763], [7.0121, 51.61702], [7.01266, 51.61598], [7.01366, 51.61556], [7.01457, 51.6155], [7.01511, 51.6157], [7.01649, 51.61491], [7.01639, 51.6147], [7.01492, 51.61509], [7.01487, 51.61528], [7.01452, 51.61525], [7.01469, 51.61497], [7.0163, 51.61451], [7.01628, 51.61447], [7.0152, 51.61482]]], [[[7.01081, 51.61529], [7.01138, 51.61532], [7.01111, 51.61491], [7.01065, 51.61507], [7.01081, 51.61529]]], [[[7.02899, 51.61756], [7.02718, 51.61739], [7.02606, 51.61709], [7.0253, 51.61654], [7.02465, 51.61635], [7.02404, 51.61533], [7.0239, 51.61552], [7.02458, 51.61716], [7.02561, 51.61832], [7.02644, 51.61821], [7.02799, 51.61845], [7.03003, 51.61832], [7.02899, 51.61756]]], [[[7.0232, 51.61876], [7.02262, 51.61881], [7.02314, 51.61852], [7.02294, 51.61818], [7.02348, 51.61805], [7.02348, 51.61732], [7.02282, 51.61736], [7.02272, 51.61773], [7.02243, 51.61597], [7.0218, 51.61575], [7.02178, 51.6163], [7.02111, 51.61736], [7.02044, 51.61705], [7.02, 51.6174], [7.02071, 51.61769], [7.01963, 51.61884], [7.01987, 51.62019], [7.0196, 51.62041], [7.02278, 51.61993], [7.02324, 51.62024], [7.02464, 51.6201], [7.02465, 51.62049], [7.0258, 51.62051], [7.02541, 51.62003], [7.024, 51.6194], [7.02351, 51.61869], [7.0232, 51.61876]], [[7.0217, 51.61803], [7.02195, 51.61805], [7.02133, 51.61847], [7.02128, 51.61834], [7.0217, 51.61803]], [[7.02046, 51.61851], [7.02122, 51.61841], [7.02147, 51.61885], [7.02111, 51.6186], [7.02065, 51.61865], [7.02046, 51.61851]]], [[[7.00911, 51.62008], [7.00899, 51.62023], [7.01049, 51.62025], [7.01053, 51.62014], [7.00913, 51.61946], [7.00911, 51.62008]]], [[[7.03047, 51.57563], [7.03055, 51.57563], [7.03048, 51.57563], [7.03047, 51.57563]]], [[[7.02904, 51.5757], [7.02935, 51.5757], [7.02965, 51.57575], [7.0295, 51.57561], [7.0286, 51.5757], [7.02904, 51.5757]]], [[[7.02986, 51.57584], [7.02989, 51.57581], [7.02978, 51.5758], [7.02983, 51.57582], [7.02986, 51.57584]]], [[[7.03095, 51.58534], [7.03053, 51.58541], [7.03121, 51.587], [7.03185, 51.587], [7.03156, 51.58647], [7.03163, 51.58567], [7.03128, 51.58522], [7.03095, 51.58534]]], [[[7.02874, 51.58726], [7.03014, 51.58708], [7.02981, 51.58638], [7.02867, 51.58675], [7.02772, 51.5875], [7.02874, 51.58726]]], [[[7.02965, 51.58778], [7.02833, 51.58803], [7.02878, 51.58841], [7.02925, 51.58846], [7.03014, 51.58823], [7.03096, 51.58845], [7.03049, 51.58771], [7.02965, 51.58778]]], [[[7.03238, 51.58887], [7.03261, 51.58915], [7.03297, 51.58893], [7.03337, 51.58898], [7.03338, 51.58776], [7.03158, 51.58769], [7.03238, 51.58887]]], [[[7.03517, 51.59065], [7.0353, 51.59053], [7.0347, 51.59028], [7.035, 51.59073], [7.03517, 51.59065]]], [[[7.03284, 51.5909], [7.03284, 51.59093], [7.03286, 51.59093], [7.03284, 51.5909]]], [[[7.03934, 51.59265], [7.03915, 51.59254], [7.03878, 51.59221], [7.03852, 51.59252], [7.03934, 51.59265]]], [[[7.03679, 51.59563], [7.03646, 51.59593], [7.03632, 51.59681], [7.03664, 51.59622], [7.03679, 51.59563]]], [[[7.0386, 51.5964], [7.03763, 51.59584], [7.03756, 51.59612], [7.038, 51.59658], [7.03738, 51.5973], [7.03679, 51.59757], [7.03651, 51.59841], [7.03729, 51.59844], [7.03778, 51.59873], [7.03806, 51.59839], [7.03907, 51.59798], [7.03854, 51.59773], [7.03889, 51.59741], [7.03904, 51.59656], [7.0386, 51.5964]]], [[[7.03369, 51.59884], [7.03388, 51.59877], [7.03304, 51.59852], [7.03334, 51.59888], [7.03369, 51.59884]]], [[[7.03905, 51.59948], [7.0382, 51.59929], [7.03784, 51.59904], [7.0377, 51.59938], [7.03905, 51.59948]]], [[[7.03634, 51.59966], [7.03641, 51.59967], [7.03634, 51.59964], [7.03634, 51.59966]]], [[[7.03288, 51.59967], [7.03288, 51.59968], [7.03288, 51.59971], [7.03289, 51.59967], [7.03288, 51.59967]]], [[[7.03271, 51.60012], [7.03263, 51.60013], [7.03285, 51.59984], [7.03274, 51.60002], [7.03271, 51.60012]]], [[[7.03017, 51.60086], [7.02732, 51.60049], [7.02724, 51.60063], [7.02744, 51.60085], [7.02832, 51.60095], [7.02923, 51.60082], [7.03002, 51.60113], [7.03319, 51.60146], [7.03359, 51.60227], [7.03333, 51.60291], [7.03364, 51.60341], [7.03436, 51.60143], [7.03488, 51.60146], [7.03488, 51.60145], [7.03379, 51.60134], [7.03334, 51.60101], [7.03059, 51.60075], [7.03017, 51.60086]]], [[[7.03401, 51.60731], [7.03449, 51.60683], [7.03537, 51.60672], [7.0343, 51.60596], [7.03401, 51.60731]]], [[[7.03856, 51.607], [7.03886, 51.60672], [7.03878, 51.60586], [7.03721, 51.60682], [7.03643, 51.60651], [7.03624, 51.60691], [7.03689, 51.607], [7.03737, 51.60764], [7.03828, 51.60793], [7.03852, 51.60777], [7.03856, 51.607]]], [[[7.03444, 51.60881], [7.03404, 51.60863], [7.03396, 51.60871], [7.0344, 51.6089], [7.03444, 51.60881]]], [[[7.03434, 51.60916], [7.03435, 51.60908], [7.03363, 51.60876], [7.03366, 51.60922], [7.03434, 51.60916]]], [[[7.03504, 51.61133], [7.03496, 51.61048], [7.03398, 51.61069], [7.03465, 51.61276], [7.03585, 51.6127], [7.03504, 51.61133]]], [[[7.03727, 51.61259], [7.03724, 51.61217], [7.03806, 51.61203], [7.0381, 51.61179], [7.03975, 51.61134], [7.04052, 51.61122], [7.04116, 51.61169], [7.04228, 51.61138], [7.04153, 51.60918], [7.03577, 51.61029], [7.03592, 51.61124], [7.03634, 51.61114], [7.03703, 51.61198], [7.0365, 51.61211], [7.03672, 51.61266], [7.03727, 51.61259]], [[7.04049, 51.61088], [7.03967, 51.61111], [7.03895, 51.61096], [7.03863, 51.61037], [7.03887, 51.60998], [7.03969, 51.60979], [7.04032, 51.60994], [7.04067, 51.61047], [7.04049, 51.61088]]], [[[7.02726, 51.61667], [7.02891, 51.61702], [7.02907, 51.61702], [7.02726, 51.61667]]], [[[7.03535, 51.61511], [7.03572, 51.61673], [7.03607, 51.61898], [7.03707, 51.61864], [7.03668, 51.61533], [7.03535, 51.61511]]], [[[7.03758, 51.61856], [7.03811, 51.61863], [7.03836, 51.61855], [7.03762, 51.61852], [7.03758, 51.61856]]], [[[7.03353, 51.61979], [7.03399, 51.61986], [7.03366, 51.61945], [7.03308, 51.61952], [7.03353, 51.61979]]], [[[7.03183, 51.6204], [7.03236, 51.61982], [7.03088, 51.61883], [7.02996, 51.61887], [7.03166, 51.62059], [7.03183, 51.6204]]], [[[7.05973, 51.58722], [7.06007, 51.58742], [7.06009, 51.5869], [7.0598, 51.58689], [7.05973, 51.58722]]], [[[7.0512, 51.58801], [7.05128, 51.58816], [7.05135, 51.58816], [7.05134, 51.588], [7.0512, 51.58801]]], [[[7.05954, 51.58863], [7.05855, 51.58873], [7.0581, 51.58975], [7.05995, 51.59035], [7.06003, 51.58838], [7.05954, 51.58863]]], [[[7.03983, 51.59276], [7.03965, 51.59273], [7.03999, 51.59288], [7.04011, 51.59277], [7.03983, 51.59276]]], [[[7.04113, 51.59342], [7.04116, 51.59333], [7.04102, 51.59345], [7.0411, 51.59392], [7.04113, 51.59342]]], [[[7.03923, 51.5962], [7.03918, 51.59627], [7.03909, 51.59634], [7.03935, 51.59628], [7.03923, 51.5962]]], [[[7.04521, 51.59856], [7.04611, 51.59706], [7.04632, 51.59593], [7.04611, 51.59587], [7.04562, 51.59606], [7.04504, 51.59604], [7.04393, 51.59879], [7.04421, 51.59898], [7.04534, 51.59875], [7.04521, 51.59856]]], [[[7.05861, 51.60071], [7.05863, 51.60092], [7.05917, 51.60158], [7.05948, 51.60123], [7.05952, 51.60036], [7.05871, 51.60039], [7.05861, 51.60071]]], [[[7.05924, 51.60206], [7.05914, 51.60223], [7.05913, 51.60229], [7.05929, 51.60228], [7.05924, 51.60206]]], [[[7.04078, 51.60191], [7.04012, 51.60184], [7.04002, 51.60256], [7.04015, 51.60187], [7.04078, 51.60191]]], [[[7.05929, 51.60403], [7.05932, 51.60419], [7.05936, 51.60418], [7.05937, 51.60397], [7.05929, 51.60403]]], [[[7.05877, 51.60437], [7.05821, 51.60469], [7.05755, 51.60474], [7.05841, 51.60553], [7.05922, 51.60571], [7.05935, 51.60432], [7.05912, 51.60416], [7.05877, 51.60437]]], [[[7.04484, 51.6059], [7.04469, 51.60605], [7.04447, 51.60616], [7.04497, 51.60621], [7.04505, 51.60585], [7.04484, 51.6059]]], [[[7.05697, 51.60629], [7.05705, 51.6062], [7.05677, 51.6062], [7.05681, 51.60626], [7.05697, 51.60629]]], [[[7.03958, 51.60661], [7.04031, 51.60695], [7.04038, 51.60777], [7.04012, 51.60816], [7.03957, 51.60832], [7.04053, 51.60836], [7.04134, 51.60787], [7.04144, 51.60735], [7.04053, 51.6067], [7.04045, 51.60621], [7.0409, 51.60583], [7.04178, 51.60577], [7.04204, 51.60437], [7.04115, 51.60434], [7.04067, 51.60414], [7.04001, 51.60424], [7.03995, 51.60548], [7.03958, 51.60545], [7.03958, 51.60661]]], [[[7.04832, 51.61158], [7.04855, 51.60902], [7.04565, 51.60891], [7.04238, 51.60908], [7.04293, 51.61101], [7.04445, 51.6121], [7.04825, 51.61202], [7.04832, 51.61158]]], [[[7.0504, 51.61286], [7.04919, 51.61279], [7.04918, 51.61296], [7.05037, 51.61296], [7.0504, 51.61286]]], [[[7.0514, 51.61346], [7.05143, 51.6133], [7.05168, 51.61284], [7.05131, 51.61318], [7.0514, 51.61346]]], [[[7.04193, 51.61327], [7.04198, 51.61326], [7.0419, 51.61324], [7.04193, 51.61327]]], [[[7.04407, 51.61262], [7.04344, 51.6133], [7.04242, 51.61341], [7.04254, 51.61417], [7.04338, 51.61364], [7.04416, 51.61354], [7.04482, 51.61377], [7.04498, 51.61425], [7.04408, 51.6149], [7.04338, 51.61489], [7.04289, 51.6146], [7.04307, 51.61564], [7.04458, 51.61554], [7.04484, 51.61698], [7.04527, 51.61781], [7.048, 51.61816], [7.04833, 51.61256], [7.04407, 51.61262]]], [[[7.0506, 51.61387], [7.05035, 51.6135], [7.04917, 51.6135], [7.04886, 51.61826], [7.05061, 51.61833], [7.05152, 51.61687], [7.0508, 51.61833], [7.0525, 51.61815], [7.05278, 51.61794], [7.05481, 51.61752], [7.05537, 51.61759], [7.05667, 51.61718], [7.05628, 51.61681], [7.05629, 51.61643], [7.05729, 51.6158], [7.05702, 51.61551], [7.05708, 51.61516], [7.05639, 51.61479], [7.0558, 51.61416], [7.05605, 51.6129], [7.05451, 51.61277], [7.05338, 51.61247], [7.05411, 51.6129], [7.05391, 51.61371], [7.0547, 51.6145], [7.05456, 51.61493], [7.05401, 51.61518], [7.05248, 51.61533], [7.05046, 51.61509], [7.05004, 51.61437], [7.0506, 51.61387]], [[7.0512, 51.6166], [7.05133, 51.61625], [7.05033, 51.61608], [7.05152, 51.61627], [7.0512, 51.6166]]], [[[7.05842, 51.61611], [7.05868, 51.61645], [7.05884, 51.6164], [7.05885, 51.61599], [7.05842, 51.61611]]], [[[7.05883, 51.61652], [7.0587, 51.61651], [7.05872, 51.61656], [7.05877, 51.61654], [7.05883, 51.61652]]], [[[7.0584, 51.6173], [7.05832, 51.61708], [7.05721, 51.61733], [7.05441, 51.61842], [7.05491, 51.61896], [7.05437, 51.61952], [7.05753, 51.61888], [7.05781, 51.61819], [7.05877, 51.61792], [7.05879, 51.61758], [7.0584, 51.6173]]], [[[7.05152, 51.61833], [7.05183, 51.61833], [7.05256, 51.61836], [7.05249, 51.61824], [7.05152, 51.61833]]], [[[7.03838, 51.61849], [7.03838, 51.61849], [7.03821, 51.61848], [7.03838, 51.61849]]], [[[7.04923, 51.62024], [7.05031, 51.62006], [7.05091, 51.6202], [7.05118, 51.61949], [7.05334, 51.61853], [7.05285, 51.61848], [7.05283, 51.61868], [7.05096, 51.61909], [7.05127, 51.61859], [7.05038, 51.61874], [7.05017, 51.61859], [7.0488, 51.61854], [7.04856, 51.62038], [7.04923, 51.62024]]], [[[7.04781, 51.61928], [7.04794, 51.61845], [7.04648, 51.61822], [7.04637, 51.61872], [7.04715, 51.61883], [7.04751, 51.61937], [7.04716, 51.61977], [7.04613, 51.61984], [7.04584, 51.62012], [7.0461, 51.62085], [7.04772, 51.62088], [7.04781, 51.61928]]], [[[7.04078, 51.61961], [7.04066, 51.61972], [7.04206, 51.62022], [7.04224, 51.62], [7.04078, 51.61961]]], [[[7.05277, 51.62074], [7.05268, 51.62063], [7.05199, 51.62089], [7.05133, 51.6208], [7.05135, 51.62094], [7.0529, 51.62096], [7.05277, 51.62074]]]]}, "properties": {"kind": "pv", "area_km2": 3.06, "mw": 152.9}}, {"type": "Feature", "geometry": {"type": "Point", "coordinates": [7.09557, 51.58567]}, "properties": {"kind": "turbine", "i": 0, "mw": 6.0, "hub_m": 120.0, "rotor_m": 150.0}}, {"type": "Feature", "geometry": {"type": "Point", "coordinates": [6.93244, 51.57962]}, "properties": {"kind": "turbine", "i": 1, "mw": 6.0, "hub_m": 120.0, "rotor_m": 150.0}}, {"type": "Feature", "geometry": {"type": "Point", "coordinates": [7.13556, 51.63885]}, "properties": {"kind": "turbine", "i": 2, "mw": 6.0, "hub_m": 120.0, "rotor_m": 150.0}}, {"type": "Feature", "geometry": {"type": "Point", "coordinates": [7.12326, 51.55328]}, "properties": {"kind": "turbine", "i": 3, "mw": 6.0, "hub_m": 120.0, "rotor_m": 150.0}}, {"type": "Feature", "geometry": {"type": "Point", "coordinates": [6.97502, 51.68873]}, "properties": {"kind": "turbine", "i": 4, "mw": 6.0, "hub_m": 120.0, "rotor_m": 150.0}}, {"type": "Feature", "geometry": {"type": "Point", "coordinates": [7.01697, 51.69601]}, "properties": {"kind": "turbine", "i": 5, "mw": 6.0, "hub_m": 120.0, "rotor_m": 150.0}}, {"type": "Feature", "geometry": {"type": "Point", "coordinates": [7.17011, 51.56715]}, "properties": {"kind": "turbine", "i": 6, "mw": 6.0, "hub_m": 120.0, "rotor_m": 150.0}}, {"type": "Feature", "geometry": {"type": "Point", "coordinates": [6.87748, 51.6279]}, "properties": {"kind": "turbine", "i": 7, "mw": 6.0, "hub_m": 120.0, "rotor_m": 150.0}}, {"type": "Feature", "geometry": {"type": "Point", "coordinates": [6.88596, 51.55909]}, "properties": {"kind": "turbine", "i": 8, "mw": 6.0, "hub_m": 120.0, "rotor_m": 150.0}}, {"type": "Feature", "geometry": {"type": "Point", "coordinates": [7.04308, 51.70302]}, "properties": {"kind": "turbine", "i": 9, "mw": 6.0, "hub_m": 120.0, "rotor_m": 150.0}}]}