{"type": "FeatureCollection", "features": [{"type": "Feature", "geometry": {"type": "MultiPolygon", "coordinates": [[[[24.53042, 40.95884], [24.53854, 40.95788], [24.53834, 40.95693], [24.53642, 40.95719], [24.53594, 40.95695], [24.52733, 40.95787], [24.52741, 40.9592], [24.53042, 40.95884]]], [[[24.52139, 40.95834], [24.52128, 40.96121], [24.52179, 40.96116], [24.52226, 40.96068], [24.52283, 40.96061], [24.52288, 40.95964], [24.52384, 40.95899], [24.52457, 40.95903], [24.52473, 40.9588], [24.5251, 40.95879], [24.52537, 40.95965], [24.52649, 40.95931], [24.52642, 40.95778], [24.52139, 40.95834]]], [[[24.52602, 40.96048], [24.52638, 40.96064], [24.5266, 40.96079], [24.52621, 40.9604], [24.52568, 40.9604], [24.52602, 40.96048]]], [[[24.52589, 40.96104], [24.52598, 40.9612], [24.52611, 40.96119], [24.52603, 40.96112], [24.52589, 40.96104]]], [[[24.52999, 40.95945], [24.53004, 40.96021], [24.52926, 40.96054], [24.52858, 40.96031], [24.52834, 40.95964], [24.52763, 40.95972], [24.52852, 40.96179], [24.53225, 40.96383], [24.53263, 40.96331], [24.53308, 40.96331], [24.5332, 40.96359], [24.53281, 40.96419], [24.53656, 40.96692], [24.53659, 40.96487], [24.53692, 40.96463], [24.5373, 40.96488], [24.53725, 40.96677], [24.53783, 40.96738], [24.53835, 40.96732], [24.53839, 40.96646], [24.53869, 40.96627], [24.53907, 40.96645], [24.53906, 40.96722], [24.54758, 40.9662], [24.54713, 40.9649], [24.54726, 40.96139], [24.54495, 40.96138], [24.54474, 40.96118], [24.54476, 40.96047], [24.54078, 40.96038], [24.54036, 40.96014], [24.54021, 40.95976], [24.53895, 40.95979], [24.53866, 40.95841], [24.52999, 40.95945]], [[24.54388, 40.96486], [24.5413, 40.96518], [24.54043, 40.9651], [24.53947, 40.96469], [24.53896, 40.96372], [24.53798, 40.96314], [24.53676, 40.96297], [24.5354, 40.96337], [24.53479, 40.96226], [24.53346, 40.96164], [24.53393, 40.96066], [24.53769, 40.96022], [24.53873, 40.9616], [24.54019, 40.9624], [24.54195, 40.96271], [24.54343, 40.96259], [24.54409, 40.9629], [24.54503, 40.96306], [24.54495, 40.96473], [24.54388, 40.96486]]], [[[24.52242, 40.96408], [24.5221, 40.96168], [24.52126, 40.96176], [24.52114, 40.965], [24.52249, 40.965], [24.52242, 40.96408]]], [[[24.5231, 40.96554], [24.52276, 40.96573], [24.52242, 40.96554], [24.52152, 40.96554], [24.52177, 40.96655], [24.52464, 40.96656], [24.53045, 40.9674], [24.53095, 40.96696], [24.53247, 40.96695], [24.5304, 40.96482], [24.52788, 40.96324], [24.52668, 40.96188], [24.52663, 40.96259], [24.52623, 40.96261], [24.52605, 40.96232], [24.52566, 40.96249], [24.52543, 40.96299], [24.52496, 40.96297], [24.52514, 40.9611], [24.52281, 40.96161], [24.52321, 40.96499], [24.52432, 40.96503], [24.52431, 40.96522], [24.5231, 40.96554]], [[24.5254, 40.96481], [24.52641, 40.96448], [24.52778, 40.96533], [24.5254, 40.96498], [24.5254, 40.96481]]], [[[24.53156, 40.96495], [24.53147, 40.96486], [24.53118, 40.96468], [24.53171, 40.96519], [24.53156, 40.96495]]], [[[24.53258, 40.96543], [24.53202, 40.96548], [24.53326, 40.96658], [24.5344, 40.9671], [24.53623, 40.96753], [24.53456, 40.96632], [24.53418, 40.96654], [24.53352, 40.96625], [24.53258, 40.96543]]], [[[24.53269, 40.96749], [24.53115, 40.9675], [24.53605, 40.96848], [24.53492, 40.9678], [24.53314, 40.96717], [24.53269, 40.96749]]], [[[24.52104, 40.97185], [24.52132, 40.97274], [24.52252, 40.97261], [24.52158, 40.97082], [24.52159, 40.96765], [24.52105, 40.96743], [24.52089, 40.97152], [24.52104, 40.97185]]], [[[24.53085, 40.96845], [24.52994, 40.96986], [24.52944, 40.97005], [24.52902, 40.96981], [24.52869, 40.96896], [24.52918, 40.96881], [24.52949, 40.96923], [24.53019, 40.96822], [24.52412, 40.96744], [24.52224, 40.96735], [24.52231, 40.97081], [24.52382, 40.97341], [24.52447, 40.97392], [24.52452, 40.97426], [24.5243, 40.97484], [24.5239, 40.97496], [24.52364, 40.97473], [24.52381, 40.97413], [24.52324, 40.97372], [24.52285, 40.97312], [24.5212, 40.97342], [24.52082, 40.97335], [24.52071, 40.97626], [24.5253, 40.97636], [24.52637, 40.9754], [24.52672, 40.97432], [24.52662, 40.97356], [24.5256, 40.97236], [24.52446, 40.97042], [24.52443, 40.96915], [24.52653, 40.96942], [24.52739, 40.97094], [24.52822, 40.97147], [24.52911, 40.9717], [24.53012, 40.97166], [24.53094, 40.9714], [24.53171, 40.97083], [24.53212, 40.97019], [24.53447, 40.97059], [24.53476, 40.97266], [24.53532, 40.97328], [24.53639, 40.97375], [24.53713, 40.97383], [24.5381, 40.97367], [24.53909, 40.9731], [24.53956, 40.97237], [24.54067, 40.97238], [24.54105, 40.97339], [24.54179, 40.97425], [24.54284, 40.97492], [24.54457, 40.97545], [24.54492, 40.97551], [24.54459, 40.97505], [24.54533, 40.9748], [24.5448, 40.97359], [24.54651, 40.97361], [24.5465, 40.97278], [24.54678, 40.97278], [24.54644, 40.9722], [24.54585, 40.97276], [24.54293, 40.97276], [24.5429, 40.97144], [24.54453, 40.97147], [24.53725, 40.9698], [24.53745, 40.97192], [24.5373, 40.97212], [24.53697, 40.97215], [24.53674, 40.97192], [24.53661, 40.96934], [24.53301, 40.96863], [24.53093, 40.96832], [24.53085, 40.96845]]], [[[24.54549, 40.96061], [24.54546, 40.96086], [24.54676, 40.96088], [24.54676, 40.96066], [24.54549, 40.96061]]], [[[24.54297, 40.96738], [24.5384, 40.96794], [24.5393, 40.96812], [24.54564, 40.96809], [24.54798, 40.96825], [24.54772, 40.9668], [24.54297, 40.96738]]], [[[24.53872, 40.96862], [24.53825, 40.96856], [24.53679, 40.96823], [24.53957, 40.96926], [24.53926, 40.96866], [24.53872, 40.96862]]], [[[24.54102, 40.96867], [24.54089, 40.96923], [24.54021, 40.96944], [24.54543, 40.97051], [24.54644, 40.97038], [24.5473, 40.9687], [24.54102, 40.96867]]], [[[24.54469, 40.97628], [24.54452, 40.97677], [24.54565, 40.97679], [24.54511, 40.97577], [24.54469, 40.97628]]], [[[24.54657, 40.95685], [24.54692, 40.95682], [24.54655, 40.95539], [24.54601, 40.95555], [24.54657, 40.95685]]], [[[24.5471, 40.95806], [24.54703, 40.9578], [24.54699, 40.95733], [24.54679, 40.95737], [24.5471, 40.95806]]], [[[24.54908, 40.97087], [24.54932, 40.97094], [24.5498, 40.96924], [24.548, 40.96881], [24.54716, 40.9704], [24.54822, 40.97082], [24.54908, 40.97087]]], [[[24.55224, 40.97082], [24.55533, 40.97138], [24.55635, 40.97126], [24.55651, 40.97097], [24.55638, 40.97047], [24.55386, 40.97028], [24.55048, 40.96942], [24.5502, 40.97039], [24.55224, 40.97082]]], [[[24.5464, 40.97092], [24.54638, 40.97092], [24.5464, 40.97092], [24.5464, 40.97092]]], [[[24.54726, 40.97103], [24.54711, 40.97097], [24.54711, 40.97102], [24.54726, 40.97103]]], [[[24.55206, 40.97134], [24.55006, 40.97092], [24.54994, 40.97129], [24.55255, 40.97144], [24.55206, 40.97134]]], [[[24.55653, 40.97181], [24.55653, 40.97179], [24.55644, 40.9718], [24.55653, 40.97181]]], [[[24.55182, 40.9755], [24.55146, 40.97415], [24.55365, 40.97427], [24.55352, 40.97393], [24.55283, 40.97368], [24.5525, 40.97263], [24.54991, 40.97212], [24.54774, 40.97197], [24.54811, 40.97288], [24.54942, 40.97475], [24.54978, 40.97688], [24.55201, 40.97693], [24.55182, 40.9755]]], [[[24.54893, 40.97576], [24.5485, 40.97446], [24.54773, 40.97351], [24.54829, 40.97685], [24.54906, 40.97687], [24.54893, 40.97576]]]]}, "properties": {"kind": "pv", "area_km2": 2.61, "mw": 130.7}}]}