{"type": "FeatureCollection", "features": [{"type": "Feature", "geometry": {"type": "MultiPolygon", "coordinates": [[[[24.50518, 40.95767], [24.50568, 40.9575], [24.50613, 40.95659], [24.50589, 40.95592], [24.50523, 40.95515], [24.50388, 40.95395], [24.50363, 40.95393], [24.50237, 40.95517], [24.50189, 40.95533], [24.50154, 40.95582], [24.49771, 40.95598], [24.49764, 40.95784], [24.50175, 40.95766], [24.50266, 40.95745], [24.50284, 40.95772], [24.50274, 40.9589], [24.50196, 40.96108], [24.50083, 40.96143], [24.49928, 40.96102], [24.49752, 40.96108], [24.49741, 40.96384], [24.49758, 40.96408], [24.49737, 40.96495], [24.49761, 40.9649], [24.49765, 40.96423], [24.4984, 40.96396], [24.49907, 40.96409], [24.49934, 40.9646], [24.50466, 40.96364], [24.50448, 40.96314], [24.50239, 40.96329], [24.50198, 40.96298], [24.50221, 40.96273], [24.50379, 40.96263], [24.5042, 40.96239], [24.50419, 40.96089], [24.50486, 40.95935], [24.50518, 40.95767]]], [[[24.51675, 40.95901], [24.51679, 40.95902], [24.51682, 40.95903], [24.51681, 40.95902], [24.51675, 40.95901]]], [[[24.51571, 40.95931], [24.51605, 40.96037], [24.51709, 40.9602], [24.51678, 40.95962], [24.51628, 40.95932], [24.51637, 40.95908], [24.51667, 40.95899], [24.51562, 40.95905], [24.51571, 40.95931]]], [[[24.51761, 40.95866], [24.51857, 40.96067], [24.51922, 40.96051], [24.51963, 40.96058], [24.52004, 40.96132], [24.52179, 40.96116], [24.52221, 40.96071], [24.52283, 40.96061], [24.52288, 40.95964], [24.5239, 40.95897], [24.52457, 40.95903], [24.52473, 40.9588], [24.5251, 40.95879], [24.52537, 40.95965], [24.52649, 40.95931], [24.52642, 40.95778], [24.52304, 40.9582], [24.5186, 40.95857], [24.51765, 40.9585], [24.51761, 40.95866]]], [[[24.52041, 40.96674], [24.52103, 40.96663], [24.52103, 40.96607], [24.51957, 40.96437], [24.51941, 40.96262], [24.51887, 40.96192], [24.51833, 40.96195], [24.51803, 40.96368], [24.51864, 40.9655], [24.51841, 40.96571], [24.51749, 40.96583], [24.51681, 40.9657], [24.51719, 40.9677], [24.52041, 40.96674]]], [[[24.5178, 40.96519], [24.51767, 40.96482], [24.51752, 40.96485], [24.5176, 40.96526], [24.5178, 40.96519]]], [[[24.51682, 40.96498], [24.51659, 40.96502], [24.51665, 40.96517], [24.51687, 40.96516], [24.51682, 40.96498]]], [[[24.51513, 40.96529], [24.51592, 40.96522], [24.51304, 40.9648], [24.51315, 40.96546], [24.51513, 40.96529]]], [[[24.51244, 40.96553], [24.51232, 40.96464], [24.51118, 40.96472], [24.51132, 40.96567], [24.51244, 40.96553]]], [[[24.50673, 40.96538], [24.50691, 40.96641], [24.50656, 40.96666], [24.50622, 40.96648], [24.50598, 40.96519], [24.50518, 40.96516], [24.50484, 40.96416], [24.49837, 40.96541], [24.49921, 40.96999], [24.50109, 40.96992], [24.50136, 40.96973], [24.50575, 40.96933], [24.50536, 40.96666], [24.50566, 40.96634], [24.50606, 40.96654], [24.50646, 40.96928], [24.50827, 40.96911], [24.50859, 40.96927], [24.51312, 40.96881], [24.51651, 40.96794], [24.5161, 40.96575], [24.51053, 40.96624], [24.51013, 40.96604], [24.50986, 40.96505], [24.50673, 40.96538]], [[24.5028, 40.96624], [24.50324, 40.96616], [24.50333, 40.96792], [24.50106, 40.96809], [24.50101, 40.96782], [24.50197, 40.96722], [24.5028, 40.96624]], [[24.50885, 40.9675], [24.50866, 40.96747], [24.50874, 40.96737], [24.509, 40.96753], [24.50885, 40.9675]]], [[[24.4985, 40.97001], [24.49809, 40.96792], [24.4977, 40.96569], [24.49734, 40.96579], [24.49718, 40.97006], [24.4985, 40.97001]]], [[[24.49841, 40.97286], [24.49897, 40.97317], [24.4986, 40.97068], [24.49715, 40.97073], [24.4971, 40.97211], [24.49841, 40.97286]]], [[[24.51708, 40.9716], [24.51662, 40.96863], [24.51353, 40.96943], [24.5066, 40.97015], [24.50707, 40.97246], [24.50741, 40.97226], [24.50777, 40.97247], [24.50841, 40.97627], [24.50907, 40.97831], [24.50909, 40.97941], [24.50845, 40.98014], [24.50477, 40.97786], [24.50424, 40.9777], [24.50387, 40.97788], [24.50347, 40.97777], [24.50225, 40.97603], [24.49987, 40.97427], [24.49708, 40.97277], [24.497, 40.97482], [24.49849, 40.97557], [24.50066, 40.97721], [24.50178, 40.97885], [24.50282, 40.9794], [24.50409, 40.97953], [24.50726, 40.9816], [24.50871, 40.98179], [24.50965, 40.98156], [24.5104, 40.98108], [24.5111, 40.9801], [24.51129, 40.97936], [24.51124, 40.97811], [24.51058, 40.976], [24.5099, 40.97208], [24.50959, 40.97152], [24.51478, 40.97092], [24.51657, 40.98308], [24.51643, 40.98421], [24.51521, 40.98409], [24.51405, 40.98443], [24.51324, 40.98514], [24.51296, 40.98605], [24.51406, 40.98826], [24.5156, 40.99007], [24.51552, 40.99051], [24.5149, 40.99312], [24.51437, 40.99412], [24.51212, 40.99372], [24.51027, 40.99405], [24.51666, 40.99419], [24.51703, 40.99353], [24.51719, 40.99245], [24.51686, 40.99228], [24.51731, 40.99192], [24.5179, 40.98941], [24.51731, 40.98882], [24.51689, 40.98871], [24.51646, 40.98783], [24.51601, 40.98749], [24.51609, 40.98693], [24.51516, 40.98602], [24.51534, 40.98578], [24.51573, 40.9858], [24.51754, 40.9875], [24.51811, 40.98785], [24.51834, 40.98781], [24.5188, 40.98252], [24.51708, 40.9716]]], [[[24.50737, 40.97424], [24.50709, 40.97267], [24.50673, 40.97287], [24.5064, 40.97267], [24.50589, 40.97022], [24.49932, 40.97066], [24.49974, 40.97356], [24.50303, 40.97588], [24.50381, 40.97726], [24.50436, 40.97716], [24.50514, 40.97739], [24.50835, 40.97939], [24.50836, 40.97841], [24.50771, 40.97637], [24.50737, 40.97424]], [[24.50462, 40.97473], [24.50181, 40.97263], [24.50175, 40.97223], [24.50404, 40.97208], [24.50437, 40.9733], [24.50514, 40.9741], [24.50539, 40.97566], [24.50462, 40.97473]]], [[[24.51931, 40.97299], [24.51916, 40.97168], [24.51784, 40.9718], [24.51946, 40.98196], [24.52078, 40.98185], [24.52036, 40.97915], [24.51998, 40.97873], [24.5202, 40.97823], [24.51931, 40.97299]]], [[[24.53744, 40.95802], [24.53854, 40.95788], [24.53834, 40.95693], [24.53642, 40.95719], [24.53594, 40.95695], [24.52733, 40.95787], [24.52734, 40.9589], [24.52741, 40.9592], [24.53744, 40.95802]]], [[[24.53852, 40.95842], [24.52998, 40.95944], [24.53004, 40.96021], [24.52933, 40.96053], [24.52862, 40.96035], [24.52834, 40.95964], [24.52763, 40.95972], [24.52765, 40.95986], [24.52855, 40.96182], [24.53225, 40.96383], [24.53263, 40.96331], [24.53308, 40.96331], [24.5332, 40.96359], [24.53281, 40.96419], [24.53656, 40.96692], [24.5366, 40.96484], [24.53685, 40.96464], [24.5372, 40.96472], [24.53725, 40.96677], [24.53783, 40.96738], [24.53835, 40.96732], [24.53839, 40.96646], [24.53869, 40.96627], [24.53907, 40.96645], [24.53906, 40.96722], [24.54758, 40.9662], [24.54713, 40.9649], [24.54726, 40.96139], [24.54495, 40.96138], [24.54474, 40.96118], [24.54476, 40.96047], [24.54078, 40.96038], [24.54036, 40.96014], [24.54021, 40.95976], [24.53895, 40.95979], [24.53852, 40.95842]], [[24.54247, 40.96503], [24.5413, 40.96518], [24.54043, 40.9651], [24.53947, 40.96469], [24.53896, 40.96372], [24.53775, 40.96307], [24.53651, 40.963], [24.5354, 40.96337], [24.53479, 40.96226], [24.53346, 40.96164], [24.53393, 40.96066], [24.53769, 40.96022], [24.53873, 40.9616], [24.54019, 40.9624], [24.54195, 40.96271], [24.54343, 40.96259], [24.54409, 40.9629], [24.54503, 40.96306], [24.54495, 40.96473], [24.54247, 40.96503]]], [[[24.52605, 40.96049], [24.52638, 40.96064], [24.5266, 40.96079], [24.52621, 40.9604], [24.52568, 40.9604], [24.52605, 40.96049]]], [[[24.52598, 40.9612], [24.52611, 40.96119], [24.52589, 40.96104], [24.52594, 40.96113], [24.52598, 40.9612]]], [[[24.52242, 40.96408], [24.5221, 40.96168], [24.51967, 40.96188], [24.52014, 40.96255], [24.52024, 40.96418], [24.52101, 40.965], [24.52249, 40.965], [24.52242, 40.96408]]], [[[24.52307, 40.96559], [24.52276, 40.96573], [24.52242, 40.96554], [24.52152, 40.96554], [24.52177, 40.96655], [24.52464, 40.96656], [24.53045, 40.9674], [24.53095, 40.96696], [24.53247, 40.96695], [24.5304, 40.96482], [24.52788, 40.96324], [24.52668, 40.96188], [24.52663, 40.96259], [24.52623, 40.96261], [24.52605, 40.96232], [24.52566, 40.96249], [24.52543, 40.96299], [24.52496, 40.96297], [24.52514, 40.9611], [24.52281, 40.96161], [24.52321, 40.96499], [24.52432, 40.96503], [24.52431, 40.96522], [24.52307, 40.96559]], [[24.52543, 40.9647], [24.52641, 40.96448], [24.52778, 40.96533], [24.5254, 40.96498], [24.52543, 40.9647]]], [[[24.53147, 40.96486], [24.53118, 40.96468], [24.53171, 40.96519], [24.53156, 40.96495], [24.53147, 40.96486]]], [[[24.53241, 40.96535], [24.53202, 40.96548], [24.53326, 40.96658], [24.5344, 40.9671], [24.53623, 40.96753], [24.53456, 40.96632], [24.53418, 40.96654], [24.53352, 40.96625], [24.53241, 40.96535]]], [[[24.53349, 40.96735], [24.53314, 40.96717], [24.53238, 40.96757], [24.53115, 40.9675], [24.53605, 40.96848], [24.53492, 40.9678], [24.53349, 40.96735]]], [[[24.51848, 40.96799], [24.5173, 40.96839], [24.51775, 40.97127], [24.52046, 40.97109], [24.52082, 40.97138], [24.52132, 40.97274], [24.52252, 40.97261], [24.52158, 40.97082], [24.52159, 40.96765], [24.52101, 40.96743], [24.51848, 40.96799]]], [[[24.53082, 40.96848], [24.52994, 40.96986], [24.52944, 40.97005], [24.52902, 40.96981], [24.52869, 40.96896], [24.52918, 40.96881], [24.52949, 40.96923], [24.53019, 40.96822], [24.52412, 40.96744], [24.52224, 40.96735], [24.52229, 40.97074], [24.52382, 40.97341], [24.52449, 40.97396], [24.52434, 40.97477], [24.52411, 40.97496], [24.52368, 40.97483], [24.52381, 40.97413], [24.52324, 40.97372], [24.52285, 40.97312], [24.52116, 40.97343], [24.52079, 40.97332], [24.52017, 40.9716], [24.51986, 40.9716], [24.52089, 40.97808], [24.52128, 40.97822], [24.5215, 40.97855], [24.52143, 40.97891], [24.52108, 40.97917], [24.5215, 40.98204], [24.52117, 40.98236], [24.51952, 40.98249], [24.51902, 40.98808], [24.51922, 40.98811], [24.51919, 40.98846], [24.51898, 40.98845], [24.51891, 40.98915], [24.51915, 40.98939], [24.51821, 40.99139], [24.51807, 40.99182], [24.51825, 40.99191], [24.51801, 40.99201], [24.51777, 40.99351], [24.51744, 40.9942], [24.51978, 40.99425], [24.52106, 40.9895], [24.52137, 40.98645], [24.52288, 40.98633], [24.5245, 40.98571], [24.52543, 40.98497], [24.52617, 40.98372], [24.52611, 40.98197], [24.52556, 40.98102], [24.52484, 40.98036], [24.52525, 40.97959], [24.52541, 40.97852], [24.52518, 40.97751], [24.52456, 40.97658], [24.52545, 40.97628], [24.52614, 40.97574], [24.52665, 40.97467], [24.52671, 40.97394], [24.52644, 40.97319], [24.5256, 40.97236], [24.52446, 40.97042], [24.52443, 40.96915], [24.52653, 40.96942], [24.52739, 40.97094], [24.52822, 40.97147], [24.52911, 40.9717], [24.53012, 40.97166], [24.53094, 40.9714], [24.53171, 40.97083], [24.53212, 40.97019], [24.53447, 40.97059], [24.53476, 40.97266], [24.53532, 40.97328], [24.53639, 40.97375], [24.53713, 40.97383], [24.5381, 40.97367], [24.53909, 40.9731], [24.53956, 40.97237], [24.54067, 40.97238], [24.54105, 40.97339], [24.54179, 40.97425], [24.54284, 40.97492], [24.54457, 40.97545], [24.54492, 40.97551], [24.54459, 40.97505], [24.54533, 40.9748], [24.5448, 40.97359], [24.54651, 40.97361], [24.5465, 40.97278], [24.54678, 40.97278], [24.54644, 40.9722], [24.54585, 40.97276], [24.54293, 40.97276], [24.5429, 40.97144], [24.54453, 40.97147], [24.53725, 40.9698], [24.53745, 40.97192], [24.5373, 40.97212], [24.53697, 40.97215], [24.53674, 40.97192], [24.53661, 40.96934], [24.53169, 40.96843], [24.53093, 40.96832], [24.53082, 40.96848]], [[24.52143, 40.98348], [24.52094, 40.98319], [24.5209, 40.98273], [24.52126, 40.98241], [24.52188, 40.98238], [24.5223, 40.98265], [24.52233, 40.98312], [24.52197, 40.98344], [24.52143, 40.98348]]], [[[24.54676, 40.95682], [24.54692, 40.95682], [24.54655, 40.95539], [24.54601, 40.95555], [24.54657, 40.95685], [24.54676, 40.95682]]], [[[24.54703, 40.9578], [24.54699, 40.95733], [24.54679, 40.95737], [24.5471, 40.95806], [24.54703, 40.9578]]], [[[24.54549, 40.96061], [24.54546, 40.96086], [24.54676, 40.96088], [24.54676, 40.96066], [24.54549, 40.96061]]], [[[24.54482, 40.96715], [24.54303, 40.96737], [24.5384, 40.96794], [24.5393, 40.96812], [24.54564, 40.96809], [24.54798, 40.96825], [24.54772, 40.9668], [24.54482, 40.96715]]], [[[24.53871, 40.96862], [24.53825, 40.96856], [24.53679, 40.96823], [24.53957, 40.96926], [24.53926, 40.96866], [24.53871, 40.96862]]], [[[24.54104, 40.96872], [24.54084, 40.96927], [24.54021, 40.96944], [24.54543, 40.97051], [24.54644, 40.97038], [24.5473, 40.9687], [24.54104, 40.96872]]], [[[24.54911, 40.97088], [24.54932, 40.97094], [24.5498, 40.96924], [24.548, 40.96881], [24.54716, 40.9704], [24.54822, 40.97082], [24.54911, 40.97088]]], [[[24.5643, 40.96902], [24.56237, 40.96914], [24.5598, 40.96964], [24.56035, 40.97112], [24.56158, 40.97117], [24.5633, 40.97157], [24.56412, 40.9722], [24.56556, 40.97224], [24.56663, 40.9692], [24.5643, 40.96902]]], [[[24.55295, 40.97096], [24.5555, 40.97138], [24.55635, 40.97126], [24.55648, 40.97052], [24.55386, 40.97028], [24.55048, 40.96942], [24.5502, 40.97039], [24.55295, 40.97096]]], [[[24.55956, 40.97093], [24.5591, 40.9698], [24.55746, 40.97022], [24.55848, 40.97087], [24.55849, 40.97118], [24.55968, 40.97138], [24.55956, 40.97093]]], [[[24.55719, 40.97073], [24.55717, 40.9712], [24.55784, 40.97115], [24.55728, 40.97078], [24.55719, 40.97073]]], [[[24.5464, 40.97092], [24.5464, 40.97092], [24.54638, 40.97092], [24.5464, 40.97092]]], [[[24.54711, 40.97097], [24.54711, 40.97102], [24.54727, 40.97104], [24.54726, 40.97103], [24.54711, 40.97097]]], [[[24.55159, 40.97124], [24.55006, 40.97092], [24.54994, 40.97129], [24.55255, 40.97144], [24.55159, 40.97124]]], [[[24.55973, 40.97196], [24.55811, 40.97169], [24.55644, 40.9718], [24.55992, 40.97208], [24.55973, 40.97196]]], [[[24.56154, 40.97172], [24.56037, 40.97166], [24.56083, 40.97198], [24.56325, 40.97225], [24.5631, 40.97209], [24.56154, 40.97172]]], [[[24.55178, 40.97524], [24.55146, 40.97415], [24.55365, 40.97427], [24.55352, 40.97393], [24.55283, 40.97368], [24.5525, 40.97263], [24.54991, 40.97212], [24.54774, 40.97197], [24.54793, 40.97258], [24.54894, 40.97387], [24.54954, 40.97509], [24.55013, 40.97877], [24.54977, 40.97894], [24.54946, 40.97875], [24.54885, 40.97521], [24.5483, 40.97411], [24.54773, 40.97351], [24.54825, 40.977], [24.54791, 40.97725], [24.54704, 40.97729], [24.54669, 40.97697], [24.54574, 40.97704], [24.54511, 40.97577], [24.54451, 40.97683], [24.54479, 40.97793], [24.54583, 40.97872], [24.54728, 40.97894], [24.54768, 40.97974], [24.5486, 40.98037], [24.5498, 40.9806], [24.551, 40.98037], [24.55192, 40.97974], [24.55234, 40.97886], [24.55178, 40.97524]]], [[[24.56305, 40.97553], [24.56158, 40.97337], [24.56167, 40.97292], [24.55721, 40.97254], [24.5573, 40.9729], [24.55653, 40.97415], [24.55986, 40.97442], [24.56104, 40.97625], [24.56188, 40.97704], [24.56116, 40.97873], [24.56126, 40.97974], [24.561, 40.98087], [24.56161, 40.98189], [24.56302, 40.98259], [24.56398, 40.98279], [24.56472, 40.98274], [24.56563, 40.98242], [24.56627, 40.98196], [24.56694, 40.98087], [24.56862, 40.97981], [24.56919, 40.9792], [24.56941, 40.97846], [24.56924, 40.977], [24.56948, 40.97688], [24.57748, 40.97991], [24.57657, 40.98138], [24.57673, 40.98231], [24.57749, 40.9831], [24.57709, 40.98481], [24.5766, 40.98558], [24.57664, 40.98657], [24.57622, 40.98729], [24.5762, 40.98814], [24.57673, 40.98899], [24.5775, 40.98947], [24.57845, 40.98969], [24.57965, 40.98955], [24.57972, 40.98768], [24.57941, 40.98753], [24.5787, 40.98803], [24.57835, 40.98772], [24.57935, 40.98671], [24.58039, 40.98619], [24.5792, 40.98644], [24.57886, 40.98631], [24.57873, 40.98602], [24.57893, 40.98576], [24.57933, 40.9858], [24.57923, 40.98483], [24.57991, 40.98166], [24.57906, 40.98187], [24.57875, 40.98157], [24.57921, 40.98096], [24.58005, 40.98098], [24.58017, 40.98011], [24.57988, 40.9791], [24.57747, 40.978], [24.57031, 40.97532], [24.56893, 40.97511], [24.56714, 40.97596], [24.56725, 40.97617], [24.56697, 40.97639], [24.5667, 40.97724], [24.56708, 40.97739], [24.56717, 40.97767], [24.56639, 40.97797], [24.56709, 40.97821], [24.56719, 40.97852], [24.56584, 40.97976], [24.56484, 40.98026], [24.56451, 40.98097], [24.56405, 40.98112], [24.56326, 40.98079], [24.56328, 40.98042], [24.56298, 40.9802], [24.56351, 40.97935], [24.56334, 40.979], [24.56396, 40.97863], [24.56405, 40.97825], [24.56378, 40.97787], [24.5642, 40.97759], [24.5645, 40.97759], [24.56475, 40.97723], [24.56305, 40.97553]]], [[[24.56729, 40.96942], [24.56626, 40.97235], [24.56953, 40.97309], [24.57079, 40.96965], [24.56735, 40.96926], [24.56729, 40.96942]]], [[[24.57348, 40.97142], [24.57346, 40.97048], [24.57146, 40.96984], [24.57044, 40.97283], [24.57068, 40.97311], [24.57059, 40.97355], [24.57346, 40.97474], [24.57348, 40.97142]]], [[[24.57414, 40.97299], [24.57418, 40.97479], [24.57562, 40.97397], [24.57605, 40.97304], [24.57545, 40.973], [24.57531, 40.97269], [24.57554, 40.97252], [24.5763, 40.9725], [24.57641, 40.97227], [24.57611, 40.97161], [24.57551, 40.9716], [24.57531, 40.97131], [24.57555, 40.9711], [24.57638, 40.971], [24.57528, 40.97099], [24.57419, 40.97072], [24.57414, 40.97299]]], [[[24.58449, 40.97328], [24.58466, 40.97313], [24.58464, 40.97292], [24.58449, 40.97328]]], [[[24.56708, 40.9731], [24.5691, 40.97376], [24.56922, 40.97358], [24.56743, 40.97315], [24.56708, 40.9731]]], [[[24.58892, 40.97192], [24.58949, 40.97158], [24.58765, 40.97108], [24.58514, 40.97087], [24.58538, 40.97306], [24.58493, 40.97507], [24.58459, 40.9754], [24.58379, 40.97543], [24.5838, 40.97631], [24.58306, 40.97787], [24.58333, 40.97832], [24.58393, 40.97796], [24.58434, 40.97808], [24.58446, 40.97834], [24.58377, 40.97885], [24.58267, 40.97872], [24.58257, 40.97896], [24.58604, 40.98051], [24.58774, 40.98099], [24.58839, 40.98153], [24.59163, 40.97952], [24.59055, 40.97941], [24.5903, 40.9796], [24.58996, 40.97958], [24.58993, 40.97913], [24.58665, 40.97743], [24.58511, 40.9764], [24.58892, 40.97192]], [[24.58721, 40.97892], [24.58763, 40.97919], [24.58656, 40.9788], [24.58663, 40.97856], [24.58721, 40.97892]]], [[[24.5704, 40.97411], [24.57021, 40.974], [24.5701, 40.97411], [24.57108, 40.97439], [24.5704, 40.97411]]], [[[24.58414, 40.97444], [24.58355, 40.97434], [24.58366, 40.97488], [24.58424, 40.9749], [24.5843, 40.97445], [24.58414, 40.97444]]], [[[24.57831, 40.97474], [24.57816, 40.97708], [24.58, 40.97781], [24.58022, 40.97481], [24.57831, 40.97474]]], [[[24.5776, 40.97466], [24.57583, 40.97457], [24.57498, 40.97505], [24.57744, 40.9761], [24.5776, 40.97466]]], [[[24.56772, 40.97456], [24.5671, 40.9742], [24.56576, 40.97384], [24.56228, 40.97321], [24.56362, 40.97521], [24.56532, 40.97691], [24.56601, 40.97711], [24.56658, 40.97562], [24.56822, 40.97485], [24.56772, 40.97456]]], [[[24.58316, 40.97586], [24.58284, 40.97438], [24.5822, 40.97435], [24.58199, 40.97465], [24.58094, 40.97482], [24.58072, 40.97785], [24.58188, 40.9779], [24.58238, 40.97771], [24.58316, 40.97586]]], [[[24.57574, 40.9762], [24.57726, 40.9768], [24.5758, 40.97591], [24.57374, 40.97535], [24.57574, 40.9762]]], [[[24.58169, 40.97842], [24.58153, 40.9784], [24.58131, 40.9784], [24.58166, 40.97856], [24.58169, 40.97842]]], [[[24.59151, 40.98032], [24.59106, 40.98045], [24.58883, 40.98197], [24.59177, 40.98329], [24.59188, 40.98013], [24.59151, 40.98032]]], [[[24.59162, 40.98423], [24.59173, 40.98436], [24.59174, 40.98406], [24.59131, 40.98387], [24.59162, 40.98423]]], [[[24.59141, 40.98617], [24.59155, 40.98542], [24.59079, 40.98424], [24.58723, 40.98227], [24.58676, 40.98228], [24.58518, 40.9825], [24.58184, 40.9857], [24.58149, 40.98582], [24.58093, 40.98655], [24.58358, 40.9866], [24.5859, 40.98425], [24.58662, 40.98396], [24.58909, 40.98532], [24.58934, 40.98563], [24.58902, 40.98672], [24.59121, 40.98676], [24.59141, 40.98617]]]]}, "properties": {"kind": "pv", "area_km2": 8.63, "mw": 431.4}}]}