{"type": "FeatureCollection", "features": [{"type": "Feature", "geometry": {"type": "MultiPolygon", "coordinates": [[[[-0.36769, 42.51673], [-0.36502, 42.51581], [-0.36345, 42.51506], [-0.36262, 42.51402], [-0.36086, 42.51364], [-0.36104, 42.51271], [-0.36786, 42.51286], [-0.36769, 42.51673]]], [[[-0.36764, 42.51761], [-0.36574, 42.51711], [-0.36462, 42.51653], [-0.36382, 42.51581], [-0.3647, 42.51629], [-0.36767, 42.51732], [-0.36764, 42.51761]]]]}, "properties": {"kind": "pv", "area_km2": 0.16, "mw": 8.2}}]}