{"type": "FeatureCollection", "features": [{"type": "Feature", "geometry": {"type": "MultiPolygon", "coordinates": [[[[7.51637, 47.78548], [7.51687, 47.78616], [7.51773, 47.78541], [7.51871, 47.78572], [7.51937, 47.78496], [7.51613, 47.78492], [7.51637, 47.78548]]], [[[7.52746, 47.78562], [7.52706, 47.78542], [7.52722, 47.78622], [7.52776, 47.78603], [7.52786, 47.7857], [7.52746, 47.78562]]], [[[7.51581, 47.78675], [7.51548, 47.78733], [7.5146, 47.78763], [7.51505, 47.78786], [7.51578, 47.78883], [7.51637, 47.78867], [7.5162, 47.78719], [7.51581, 47.78675]]], [[[7.51781, 47.79233], [7.51633, 47.78973], [7.51582, 47.78929], [7.51547, 47.7895], [7.51512, 47.78943], [7.51437, 47.7905], [7.51248, 47.79206], [7.51179, 47.79211], [7.51132, 47.79192], [7.51124, 47.79109], [7.51099, 47.79129], [7.51096, 47.79191], [7.51052, 47.79219], [7.50795, 47.7923], [7.50791, 47.79381], [7.50446, 47.79377], [7.50583, 47.80278], [7.50765, 47.80281], [7.5075, 47.8081], [7.50791, 47.80806], [7.50848, 47.80853], [7.50893, 47.80994], [7.50872, 47.81067], [7.50747, 47.81098], [7.5078, 47.81144], [7.50758, 47.81193], [7.5095, 47.81211], [7.52091, 47.81145], [7.52125, 47.81138], [7.52081, 47.80982], [7.5224, 47.81097], [7.52272, 47.81077], [7.52071, 47.80933], [7.52018, 47.80757], [7.52091, 47.80755], [7.52106, 47.8061], [7.52145, 47.80598], [7.52173, 47.80557], [7.52205, 47.80556], [7.52275, 47.80648], [7.52214, 47.80657], [7.52166, 47.80639], [7.52148, 47.80709], [7.52112, 47.8071], [7.52107, 47.80755], [7.52157, 47.80777], [7.52224, 47.80935], [7.52296, 47.80911], [7.52332, 47.80973], [7.52361, 47.80968], [7.52495, 47.80491], [7.52456, 47.80466], [7.52509, 47.80417], [7.525, 47.80361], [7.51781, 47.79233]], [[7.50816, 47.80183], [7.50752, 47.79697], [7.50953, 47.79756], [7.5121, 47.79749], [7.51393, 47.79684], [7.51538, 47.79557], [7.51814, 47.79705], [7.51919, 47.79864], [7.51938, 47.79978], [7.52001, 47.80113], [7.52072, 47.80186], [7.52172, 47.80249], [7.52249, 47.80371], [7.52151, 47.80434], [7.52075, 47.80523], [7.52022, 47.80748], [7.51971, 47.80831], [7.51954, 47.80908], [7.51886, 47.80992], [7.51335, 47.81023], [7.51299, 47.80826], [7.51218, 47.80692], [7.5108, 47.80576], [7.51026, 47.80683], [7.51057, 47.80555], [7.50851, 47.80445], [7.50816, 47.80183]], [[7.50819, 47.79331], [7.50873, 47.79282], [7.51075, 47.79277], [7.51119, 47.79314], [7.51136, 47.79438], [7.51052, 47.79467], [7.51003, 47.79451], [7.50981, 47.79422], [7.50866, 47.7941], [7.50824, 47.79379], [7.50819, 47.79331]]], [[[7.53106, 47.79411], [7.53535, 47.80047], [7.53587, 47.80029], [7.53645, 47.80037], [7.53185, 47.79314], [7.53067, 47.79353], [7.53106, 47.79411]]], [[[7.50457, 47.79901], [7.50365, 47.79376], [7.49943, 47.7937], [7.50117, 47.7998], [7.50132, 47.80272], [7.50502, 47.80277], [7.50457, 47.79901]]], [[[7.50015, 47.79937], [7.49848, 47.79369], [7.4957, 47.79365], [7.4967, 47.79713], [7.49712, 47.79713], [7.49752, 47.79806], [7.49788, 47.7981], [7.49823, 47.79859], [7.49773, 47.80031], [7.498, 47.80048], [7.49869, 47.80045], [7.49867, 47.80205], [7.49894, 47.80269], [7.50041, 47.80271], [7.50015, 47.79937]]], [[[7.52506, 47.80164], [7.52518, 47.80217], [7.52551, 47.80265], [7.52563, 47.80237], [7.52506, 47.80164]]], [[[7.52737, 47.8059], [7.53187, 47.80456], [7.53191, 47.80439], [7.52701, 47.80585], [7.52737, 47.8059]]], [[[7.525, 47.80806], [7.52498, 47.80804], [7.52497, 47.80807], [7.525, 47.80806]]], [[[7.51996, 47.81215], [7.51837, 47.81238], [7.51077, 47.81281], [7.52388, 47.81406], [7.52258, 47.81313], [7.52184, 47.81224], [7.51996, 47.81215]]], [[[7.50789, 47.81328], [7.50813, 47.8138], [7.50779, 47.81419], [7.50841, 47.8145], [7.50832, 47.81383], [7.50863, 47.81378], [7.50795, 47.81312], [7.50789, 47.81328]]], [[[7.52858, 47.81446], [7.52852, 47.81445], [7.52911, 47.81455], [7.52858, 47.81446], [7.52858, 47.81446]]], [[[7.51342, 47.81363], [7.50886, 47.81301], [7.50956, 47.81387], [7.50995, 47.81491], [7.52761, 47.81735], [7.53022, 47.81742], [7.53221, 47.81724], [7.5344, 47.81678], [7.53614, 47.81614], [7.53597, 47.81575], [7.51342, 47.81363]], [[7.52723, 47.81558], [7.52725, 47.81542], [7.52767, 47.81549], [7.52882, 47.81593], [7.52837, 47.81612], [7.52723, 47.81558]]], [[[7.50848, 47.81512], [7.5082, 47.81503], [7.50868, 47.81654], [7.5082, 47.81753], [7.5086, 47.81856], [7.50918, 47.81531], [7.50848, 47.81512]]], [[[7.53116, 47.81797], [7.53177, 47.81881], [7.53287, 47.81817], [7.533, 47.81766], [7.531, 47.81791], [7.53116, 47.81797]]], [[[7.51079, 47.81561], [7.50995, 47.81574], [7.50982, 47.81642], [7.51018, 47.81738], [7.50963, 47.81742], [7.5092, 47.81968], [7.50923, 47.82044], [7.50996, 47.82054], [7.51032, 47.82084], [7.51415, 47.82089], [7.51453, 47.82064], [7.51522, 47.82056], [7.51508, 47.82023], [7.5159, 47.82014], [7.51597, 47.82091], [7.51676, 47.82092], [7.51742, 47.82029], [7.51864, 47.82006], [7.52024, 47.82025], [7.52058, 47.82054], [7.52061, 47.82097], [7.52636, 47.82104], [7.5286, 47.82016], [7.52877, 47.81962], [7.52961, 47.81941], [7.52901, 47.81851], [7.52916, 47.81796], [7.52676, 47.8178], [7.51079, 47.81561]], [[7.51376, 47.81771], [7.51289, 47.8179], [7.51282, 47.81759], [7.51376, 47.81771]]], [[[7.50849, 47.81898], [7.50852, 47.819], [7.50856, 47.8188], [7.50844, 47.81894], [7.50849, 47.81898]]], [[[7.53, 47.81953], [7.53, 47.81953], [7.53001, 47.81954], [7.53, 47.81953]]], [[[7.53045, 47.82006], [7.52982, 47.8205], [7.52918, 47.82055], [7.52787, 47.82106], [7.53105, 47.8211], [7.53085, 47.82025], [7.53045, 47.82006]]], [[[7.53378, 47.78515], [7.53352, 47.78515], [7.53352, 47.78521], [7.53378, 47.78522], [7.53378, 47.78515]]], [[[7.53688, 47.7876], [7.53684, 47.78747], [7.53682, 47.78756], [7.53688, 47.7876]]], [[[7.537, 47.78817], [7.53702, 47.78861], [7.53735, 47.78895], [7.5371, 47.78891], [7.53761, 47.78951], [7.537, 47.78793], [7.537, 47.78817]]], [[[7.5382, 47.78834], [7.5397, 47.7892], [7.53989, 47.78904], [7.53949, 47.789], [7.5382, 47.78834]]], [[[7.53853, 47.78912], [7.53847, 47.78908], [7.53851, 47.78919], [7.53855, 47.78917], [7.53853, 47.78912]]], [[[7.54083, 47.78929], [7.54005, 47.78908], [7.53985, 47.78934], [7.54124, 47.78963], [7.54113, 47.78931], [7.54083, 47.78929]]], [[[7.53862, 47.78942], [7.53861, 47.78942], [7.53914, 47.79072], [7.53922, 47.78994], [7.53908, 47.78969], [7.53877, 47.78978], [7.5387, 47.78961], [7.53896, 47.78954], [7.53862, 47.78942]]], [[[7.53663, 47.79003], [7.53622, 47.79034], [7.53765, 47.79015], [7.53771, 47.78997], [7.53663, 47.79003]]], [[[7.5401, 47.79273], [7.54062, 47.79274], [7.54059, 47.79256], [7.54173, 47.79217], [7.54004, 47.79263], [7.54032, 47.79262], [7.5401, 47.79273]]], [[[7.53927, 47.79481], [7.53982, 47.79607], [7.54019, 47.79602], [7.5391, 47.79315], [7.53858, 47.79323], [7.53927, 47.79481]]], [[[7.53834, 47.79383], [7.53829, 47.79365], [7.53776, 47.79382], [7.538, 47.79391], [7.53834, 47.79383]]], [[[7.53684, 47.80105], [7.53603, 47.80148], [7.53739, 47.80352], [7.538, 47.80332], [7.5382, 47.80298], [7.53684, 47.80105]]], [[[7.53494, 47.80628], [7.53653, 47.80749], [7.53795, 47.80945], [7.53829, 47.80934], [7.53543, 47.80503], [7.53433, 47.80537], [7.53494, 47.80628]]], [[[7.53537, 47.80739], [7.53517, 47.80728], [7.53515, 47.80727], [7.53554, 47.8075], [7.53537, 47.80739]]], [[[7.53636, 47.80855], [7.53638, 47.80858], [7.53595, 47.8079], [7.53603, 47.80835], [7.53636, 47.80855]]], [[[7.53686, 47.80934], [7.53689, 47.80937], [7.53648, 47.80875], [7.53641, 47.80913], [7.53686, 47.80934]]], [[[7.53757, 47.81038], [7.53748, 47.81022], [7.53727, 47.80992], [7.53731, 47.81068], [7.53774, 47.81077], [7.53757, 47.81038]]], [[[7.53947, 47.81114], [7.5395, 47.81114], [7.5389, 47.81025], [7.53878, 47.81032], [7.53947, 47.81114]]], [[[7.53998, 47.81189], [7.53941, 47.81218], [7.53966, 47.81241], [7.54015, 47.81232], [7.53998, 47.81189]]], [[[7.53899, 47.81459], [7.53906, 47.81463], [7.53871, 47.81418], [7.53898, 47.81458], [7.53899, 47.81459]]], [[[7.53486, 47.81778], [7.53506, 47.81781], [7.53561, 47.817], [7.53397, 47.81747], [7.53378, 47.8178], [7.53486, 47.81778]]], [[[7.53723, 47.82074], [7.53767, 47.81963], [7.53769, 47.8189], [7.53578, 47.81892], [7.53534, 47.8187], [7.5352, 47.81837], [7.53441, 47.8183], [7.53356, 47.81849], [7.53166, 47.81956], [7.5315, 47.81981], [7.53182, 47.82053], [7.53118, 47.82058], [7.53122, 47.82106], [7.53157, 47.82111], [7.53559, 47.82116], [7.53568, 47.82088], [7.53723, 47.82074]]], [[[7.53744, 47.82108], [7.53742, 47.82107], [7.53672, 47.82118], [7.53748, 47.82119], [7.53744, 47.82108]]], [[[7.5376, 47.82118], [7.53751, 47.82119], [7.53762, 47.82119], [7.5376, 47.82118]]], [[[7.54773, 47.78551], [7.54819, 47.78743], [7.54897, 47.78747], [7.54936, 47.78785], [7.54928, 47.78853], [7.54854, 47.78881], [7.54915, 47.7913], [7.55107, 47.79124], [7.55268, 47.79147], [7.55423, 47.79224], [7.5546, 47.79275], [7.5542, 47.79197], [7.55444, 47.79175], [7.55488, 47.79291], [7.55468, 47.79155], [7.55392, 47.78997], [7.55442, 47.79158], [7.55426, 47.79149], [7.55326, 47.78882], [7.55361, 47.78873], [7.55439, 47.7874], [7.55438, 47.787], [7.55411, 47.78701], [7.55381, 47.78657], [7.55426, 47.78608], [7.5539, 47.7854], [7.54947, 47.78535], [7.54942, 47.78624], [7.54912, 47.78623], [7.5483, 47.78698], [7.54926, 47.78595], [7.54937, 47.78535], [7.54773, 47.78551]], [[7.55068, 47.78849], [7.55076, 47.78791], [7.55111, 47.78794], [7.55134, 47.78821], [7.55068, 47.78849]], [[7.55048, 47.78853], [7.5503, 47.78886], [7.55026, 47.78875], [7.55064, 47.78803], [7.55048, 47.78853]], [[7.55058, 47.78891], [7.55043, 47.78896], [7.55045, 47.78881], [7.55057, 47.78888], [7.55058, 47.78891]]], [[[7.54744, 47.78907], [7.54652, 47.7887], [7.54634, 47.78812], [7.54588, 47.78826], [7.54347, 47.78789], [7.54236, 47.78791], [7.54059, 47.78864], [7.54036, 47.78856], [7.54216, 47.78779], [7.54248, 47.78719], [7.54241, 47.78683], [7.54269, 47.78681], [7.54266, 47.78749], [7.54289, 47.78769], [7.54612, 47.78799], [7.54742, 47.78757], [7.54694, 47.7856], [7.5452, 47.78529], [7.54342, 47.78527], [7.54309, 47.78564], [7.54199, 47.78594], [7.54129, 47.78563], [7.54033, 47.7856], [7.53989, 47.78523], [7.53718, 47.78519], [7.53777, 47.7872], [7.53916, 47.78807], [7.54102, 47.7889], [7.54201, 47.7889], [7.54211, 47.78921], [7.54401, 47.79011], [7.54558, 47.79136], [7.54834, 47.79134], [7.54778, 47.78904], [7.54744, 47.78907]], [[7.5455, 47.79098], [7.54553, 47.79125], [7.54524, 47.79101], [7.5455, 47.79098]]], [[[7.54335, 47.79024], [7.54448, 47.79094], [7.54466, 47.79087], [7.54404, 47.79025], [7.54232, 47.7897], [7.54335, 47.79024]]], [[[7.54607, 47.79184], [7.54608, 47.79184], [7.54599, 47.79183], [7.54599, 47.79185], [7.54607, 47.79184]]], [[[7.54297, 47.79318], [7.54197, 47.79273], [7.54289, 47.79328], [7.54336, 47.79325], [7.54276, 47.79207], [7.54252, 47.79212], [7.54313, 47.79317], [7.54297, 47.79318]]], [[[7.55455, 47.79359], [7.55362, 47.7926], [7.5524, 47.79198], [7.552, 47.79214], [7.55194, 47.7919], [7.55099, 47.79178], [7.54646, 47.7919], [7.54697, 47.79246], [7.54671, 47.79308], [7.54721, 47.79304], [7.54729, 47.79347], [7.54692, 47.79376], [7.54703, 47.79426], [7.54788, 47.79415], [7.54836, 47.79445], [7.54846, 47.79483], [7.55117, 47.79522], [7.55204, 47.79545], [7.55323, 47.79583], [7.55409, 47.79649], [7.55431, 47.7968], [7.55445, 47.79714], [7.55439, 47.79761], [7.5543, 47.79683], [7.55312, 47.79589], [7.55121, 47.7953], [7.54845, 47.79486], [7.54818, 47.79515], [7.54929, 47.79511], [7.54972, 47.7954], [7.5498, 47.79576], [7.55149, 47.79628], [7.55172, 47.79698], [7.55134, 47.7974], [7.55179, 47.79782], [7.55197, 47.79776], [7.55165, 47.79725], [7.55197, 47.79686], [7.55263, 47.79671], [7.55324, 47.79696], [7.55338, 47.79747], [7.55282, 47.79787], [7.55311, 47.79846], [7.55279, 47.79879], [7.5523, 47.79892], [7.55263, 47.79933], [7.55311, 47.79903], [7.55425, 47.79875], [7.55494, 47.79879], [7.55605, 47.79986], [7.55681, 47.80113], [7.55761, 47.80098], [7.55822, 47.80131], [7.55828, 47.80176], [7.55746, 47.8022], [7.55744, 47.8028], [7.55818, 47.80261], [7.55885, 47.80345], [7.56106, 47.80299], [7.56094, 47.80243], [7.55872, 47.80021], [7.55779, 47.79882], [7.55683, 47.79864], [7.55673, 47.79803], [7.55511, 47.79663], [7.55451, 47.79709], [7.55504, 47.79658], [7.55465, 47.79599], [7.55455, 47.79359]], [[7.5569, 47.79889], [7.5569, 47.79905], [7.55619, 47.79864], [7.55634, 47.79863], [7.5569, 47.79889]]], [[[7.54485, 47.79445], [7.54492, 47.79438], [7.54477, 47.79427], [7.54474, 47.79445], [7.54485, 47.79445]]], [[[7.5427, 47.79471], [7.54417, 47.79453], [7.54311, 47.79657], [7.54299, 47.79733], [7.54299, 47.79757], [7.54332, 47.79757], [7.54349, 47.79804], [7.54381, 47.79819], [7.54357, 47.79644], [7.54429, 47.79446], [7.5427, 47.79471]]], [[[7.54912, 47.79671], [7.54911, 47.79665], [7.54911, 47.79662], [7.54904, 47.79667], [7.54912, 47.79671]]], [[[7.54533, 47.79684], [7.54596, 47.79661], [7.54592, 47.79653], [7.54528, 47.79667], [7.54511, 47.7971], [7.54533, 47.79684]]], [[[7.54684, 47.79694], [7.54681, 47.79692], [7.54683, 47.79695], [7.54684, 47.79694]]], [[[7.54921, 47.79708], [7.54905, 47.7973], [7.54885, 47.79744], [7.54961, 47.79721], [7.54922, 47.79694], [7.54921, 47.79708]]], [[[7.54497, 47.79729], [7.54499, 47.79737], [7.54504, 47.79741], [7.54507, 47.79723], [7.54497, 47.79729]]], [[[7.54129, 47.7978], [7.54093, 47.79788], [7.54076, 47.79795], [7.5412, 47.798], [7.54129, 47.7978]]], [[[7.5435, 47.79907], [7.54353, 47.79917], [7.54366, 47.79903], [7.5435, 47.79907]]], [[[7.54543, 47.80105], [7.54543, 47.80105], [7.54543, 47.80105], [7.54543, 47.80105]]], [[[7.54121, 47.79943], [7.54026, 47.79975], [7.54099, 47.80098], [7.54122, 47.80093], [7.54187, 47.80175], [7.5425, 47.80289], [7.54222, 47.80309], [7.5433, 47.80496], [7.54399, 47.80595], [7.54442, 47.80587], [7.54493, 47.80574], [7.54221, 47.80085], [7.54274, 47.79966], [7.54241, 47.79911], [7.54121, 47.79943]]], [[[7.54646, 47.80247], [7.5459, 47.802], [7.54542, 47.80115], [7.54458, 47.80097], [7.5457, 47.80281], [7.54666, 47.80253], [7.54646, 47.80247]]], [[[7.54477, 47.80489], [7.54454, 47.80433], [7.54471, 47.80328], [7.54428, 47.80434], [7.54477, 47.80489]]], [[[7.55008, 47.80611], [7.54915, 47.80646], [7.54895, 47.80663], [7.54907, 47.80679], [7.55079, 47.80654], [7.5509, 47.80615], [7.55136, 47.80591], [7.55008, 47.80611]]], [[[7.54861, 47.80699], [7.54777, 47.80569], [7.54772, 47.8057], [7.54857, 47.80702], [7.54861, 47.80699]]], [[[7.54453, 47.80596], [7.54656, 47.80974], [7.54695, 47.80977], [7.54814, 47.80919], [7.5481, 47.80887], [7.54853, 47.80874], [7.54627, 47.80553], [7.54453, 47.80596]]], [[[7.54964, 47.81489], [7.55028, 47.81476], [7.5505, 47.81461], [7.55002, 47.8144], [7.54955, 47.81442], [7.54946, 47.81502], [7.54964, 47.81489]]], [[[7.54461, 47.81501], [7.54419, 47.81505], [7.54429, 47.81539], [7.54436, 47.81513], [7.54489, 47.81503], [7.54461, 47.81501]]], [[[7.54869, 47.81984], [7.54868, 47.81979], [7.54858, 47.81964], [7.54866, 47.81983], [7.54869, 47.81984]]], [[[7.55477, 47.78625], [7.55533, 47.78625], [7.55502, 47.78542], [7.55428, 47.78541], [7.55477, 47.78625]]], [[[7.56039, 47.78672], [7.56149, 47.78756], [7.56155, 47.7855], [7.55958, 47.78548], [7.56039, 47.78672]]], [[[7.55406, 47.78939], [7.55519, 47.79129], [7.55542, 47.78679], [7.55475, 47.78742], [7.55406, 47.78939]]], [[[7.55839, 47.79219], [7.5587, 47.78715], [7.55843, 47.78547], [7.55586, 47.78543], [7.55624, 47.78713], [7.55603, 47.79381], [7.5566, 47.79536], [7.55787, 47.79726], [7.56125, 47.79616], [7.5613, 47.79431], [7.55925, 47.79496], [7.55898, 47.7949], [7.55848, 47.7936], [7.55839, 47.79219]]], [[[7.55542, 47.79525], [7.55569, 47.79523], [7.55542, 47.79457], [7.55541, 47.79501], [7.55542, 47.79525]]], [[[7.55669, 47.79758], [7.55705, 47.79779], [7.55733, 47.79772], [7.55716, 47.7975], [7.55683, 47.79749], [7.55701, 47.7973], [7.55597, 47.79575], [7.55503, 47.79572], [7.55505, 47.79622], [7.55669, 47.79758]]], [[[7.55935, 47.79906], [7.56111, 47.80121], [7.56124, 47.79676], [7.55825, 47.79773], [7.55935, 47.79906]]], [[[7.55916, 47.79994], [7.55919, 47.79997], [7.55914, 47.79992], [7.55916, 47.79994]]], [[[7.55625, 47.80313], [7.55581, 47.80288], [7.55558, 47.8024], [7.55522, 47.80227], [7.55472, 47.80243], [7.5548, 47.8032], [7.55567, 47.80391], [7.55618, 47.80358], [7.55625, 47.80313]]], [[[7.55739, 47.80291], [7.55792, 47.80325], [7.55795, 47.80376], [7.55856, 47.80377], [7.55881, 47.80348], [7.55814, 47.80268], [7.55739, 47.80291]]], [[[7.55256, 47.80631], [7.55259, 47.80636], [7.55314, 47.80641], [7.55228, 47.80598], [7.55256, 47.80631]]], [[[7.55375, 47.80648], [7.55438, 47.80651], [7.55457, 47.80617], [7.55362, 47.80644], [7.55375, 47.80648]]], [[[7.55271, 47.81293], [7.55276, 47.813], [7.5528, 47.81299], [7.55275, 47.81294], [7.55271, 47.81293]]], [[[7.55428, 47.81429], [7.55426, 47.81428], [7.55425, 47.81428], [7.55428, 47.81429]]], [[[7.55144, 47.81429], [7.5515, 47.81428], [7.55132, 47.81432], [7.55117, 47.81449], [7.55144, 47.81429]]], [[[7.55307, 47.81519], [7.55327, 47.8152], [7.55311, 47.81498], [7.55293, 47.81513], [7.55307, 47.81519]]], [[[7.55455, 47.8145], [7.55434, 47.81475], [7.55399, 47.8147], [7.55481, 47.81582], [7.5551, 47.81575], [7.55487, 47.8159], [7.55523, 47.81614], [7.55512, 47.81458], [7.55455, 47.8145]]], [[[7.55536, 47.81656], [7.55525, 47.81624], [7.5551, 47.81622], [7.55538, 47.81662], [7.55536, 47.81656]]], [[[7.55413, 47.8186], [7.55528, 47.81927], [7.55609, 47.81908], [7.55394, 47.81614], [7.55412, 47.81677], [7.55396, 47.81713], [7.55423, 47.81714], [7.55426, 47.81696], [7.55459, 47.8173], [7.55408, 47.81732], [7.55397, 47.81766], [7.55487, 47.81764], [7.55399, 47.8179], [7.55413, 47.8186]]], [[[7.55368, 47.81908], [7.55361, 47.81903], [7.5537, 47.81917], [7.55373, 47.81911], [7.55368, 47.81908]]], [[[7.55366, 47.81931], [7.55358, 47.81938], [7.55367, 47.81936], [7.55366, 47.81931]]], [[[7.55587, 47.81996], [7.55602, 47.82021], [7.55692, 47.82023], [7.55644, 47.81956], [7.55557, 47.81979], [7.55587, 47.81996]]], [[[7.55364, 47.82005], [7.55355, 47.81995], [7.55342, 47.82002], [7.55364, 47.82007], [7.55364, 47.82005]]], [[[7.55248, 47.82118], [7.55259, 47.82138], [7.55275, 47.82138], [7.55252, 47.82111], [7.55248, 47.82118]]], [[[7.55423, 47.8214], [7.55424, 47.82139], [7.55429, 47.82134], [7.55413, 47.8214], [7.55423, 47.8214]]]]}, "properties": {"kind": "pv", "area_km2": 4.96, "mw": 248.2}}]}