{"type": "FeatureCollection", "features": [{"type": "Feature", "geometry": {"type": "MultiPolygon", "coordinates": [[[[7.51607, 47.76662], [7.51573, 47.76633], [7.51567, 47.76584], [7.5163, 47.76534], [7.5163, 47.76501], [7.51573, 47.76462], [7.51566, 47.76346], [7.51572, 47.76272], [7.51614, 47.76237], [7.51572, 47.76193], [7.51554, 47.76077], [7.51433, 47.76103], [7.51314, 47.76104], [7.51212, 47.76127], [7.51155, 47.76165], [7.50882, 47.76191], [7.50878, 47.76324], [7.50918, 47.76349], [7.50935, 47.76404], [7.50916, 47.76438], [7.50874, 47.76456], [7.50868, 47.76683], [7.49959, 47.76671], [7.49952, 47.76802], [7.50076, 47.77467], [7.51501, 47.7733], [7.51596, 47.77125], [7.5165, 47.77082], [7.51724, 47.77073], [7.51724, 47.77015], [7.51604, 47.77016], [7.5155, 47.76973], [7.51586, 47.76913], [7.51684, 47.76908], [7.5163, 47.76805], [7.51627, 47.76733], [7.51667, 47.7667], [7.51607, 47.76662]], [[7.51036, 47.76275], [7.51096, 47.76274], [7.51207, 47.76309], [7.51229, 47.7636], [7.51198, 47.76404], [7.5104, 47.76416], [7.50977, 47.76394], [7.50957, 47.7633], [7.51036, 47.76275]], [[7.51109, 47.76964], [7.51136, 47.77074], [7.50923, 47.77147], [7.51011, 47.77054], [7.5105, 47.76955], [7.51045, 47.76852], [7.50996, 47.7674], [7.51151, 47.76713], [7.51188, 47.76775], [7.51131, 47.7686], [7.51109, 47.76964]], [[7.50644, 47.76823], [7.50632, 47.76858], [7.50596, 47.76863], [7.50615, 47.76916], [7.5059, 47.76955], [7.50485, 47.76977], [7.5042, 47.7696], [7.50391, 47.76898], [7.50417, 47.76815], [7.50595, 47.76799], [7.50644, 47.76823]], [[7.5085, 47.77193], [7.5083, 47.7721], [7.50811, 47.77212], [7.50816, 47.7721], [7.5085, 47.77193]], [[7.5032, 47.77256], [7.50289, 47.77261], [7.50286, 47.77248], [7.5032, 47.77256]]], [[[7.49868, 47.76746], [7.49878, 47.7667], [7.49682, 47.76669], [7.4963, 47.7684], [7.4983, 47.76836], [7.49868, 47.76746]]], [[[7.49741, 47.77548], [7.49807, 47.77498], [7.49996, 47.77475], [7.49903, 47.76992], [7.49688, 47.76967], [7.4968, 47.77114], [7.49719, 47.77302], [7.49797, 47.77308], [7.49764, 47.77484], [7.49577, 47.77493], [7.49559, 47.77659], [7.49524, 47.77656], [7.49486, 47.77692], [7.49404, 47.77695], [7.49329, 47.77641], [7.49218, 47.77765], [7.49154, 47.77749], [7.49131, 47.77774], [7.49046, 47.77753], [7.49017, 47.77975], [7.49285, 47.78053], [7.50061, 47.77884], [7.50004, 47.77529], [7.49839, 47.77548], [7.49784, 47.77576], [7.49741, 47.77548]]], [[[7.51455, 47.77555], [7.51205, 47.77569], [7.5116, 47.7742], [7.50084, 47.77521], [7.50129, 47.77836], [7.50139, 47.77797], [7.50151, 47.77864], [7.50567, 47.77773], [7.50567, 47.77729], [7.50668, 47.77702], [7.50691, 47.77702], [7.50672, 47.77721], [7.50723, 47.77706], [7.50763, 47.77729], [7.51001, 47.77679], [7.50953, 47.77621], [7.51012, 47.77571], [7.5108, 47.77568], [7.5113, 47.776], [7.51219, 47.77595], [7.5127, 47.77633], [7.51448, 47.77607], [7.51437, 47.7757], [7.51595, 47.77559], [7.5161, 47.77582], [7.51627, 47.77538], [7.51455, 47.77555]]], [[[7.50599, 47.77766], [7.5065, 47.77755], [7.50657, 47.77736], [7.50655, 47.77738], [7.50599, 47.77766]]], [[[7.50875, 47.78391], [7.51028, 47.78373], [7.51016, 47.78316], [7.51074, 47.78276], [7.51144, 47.78278], [7.51185, 47.78312], [7.51353, 47.78271], [7.5132, 47.78203], [7.51331, 47.78111], [7.51378, 47.78083], [7.51473, 47.78092], [7.51521, 47.78073], [7.51531, 47.78007], [7.51459, 47.78004], [7.51372, 47.77965], [7.51328, 47.77773], [7.51371, 47.77735], [7.51574, 47.77691], [7.51581, 47.77657], [7.51003, 47.77749], [7.50997, 47.77794], [7.50931, 47.77837], [7.50852, 47.77829], [7.50808, 47.77809], [7.50808, 47.7779], [7.50765, 47.77799], [7.50759, 47.77816], [7.50723, 47.77808], [7.50159, 47.77932], [7.50203, 47.78032], [7.50365, 47.7803], [7.50202, 47.78059], [7.50269, 47.78278], [7.50875, 47.78391]], [[7.50629, 47.78076], [7.5063, 47.78083], [7.50675, 47.78077], [7.50668, 47.78108], [7.50573, 47.781], [7.50489, 47.78055], [7.50504, 47.77961], [7.50586, 47.77929], [7.50742, 47.77952], [7.50711, 47.78068], [7.50629, 47.78076]]], [[[7.49665, 47.7814], [7.49682, 47.78144], [7.49691, 47.78034], [7.49441, 47.78089], [7.49665, 47.7814]]], [[[7.50125, 47.78075], [7.50083, 47.77948], [7.49779, 47.78015], [7.4977, 47.78163], [7.49906, 47.78194], [7.49866, 47.78124], [7.49891, 47.7808], [7.49944, 47.78064], [7.50017, 47.78083], [7.50086, 47.78076], [7.50114, 47.78093], [7.50128, 47.78153], [7.50079, 47.78233], [7.50181, 47.78256], [7.50125, 47.78075]]], [[[7.48822, 47.78289], [7.48148, 47.78419], [7.48148, 47.78434], [7.48267, 47.78425], [7.48274, 47.78412], [7.48761, 47.78321], [7.488, 47.78327], [7.49165, 47.78254], [7.49317, 47.78211], [7.4934, 47.78185], [7.49378, 47.78186], [7.49419, 47.78305], [7.49261, 47.78343], [7.49273, 47.78363], [7.49247, 47.78365], [7.49218, 47.78501], [7.49118, 47.78501], [7.49311, 47.78525], [7.49327, 47.78653], [7.49411, 47.78803], [7.49157, 47.78813], [7.48985, 47.78895], [7.49057, 47.78934], [7.49197, 47.78925], [7.49202, 47.78947], [7.49283, 47.78964], [7.49396, 47.78969], [7.4975, 47.79035], [7.49672, 47.78607], [7.49677, 47.78199], [7.49314, 47.78116], [7.49122, 47.78158], [7.49163, 47.78237], [7.48822, 47.78289]]], [[[7.49764, 47.784], [7.49812, 47.78374], [7.49874, 47.78377], [7.49887, 47.78246], [7.49766, 47.78219], [7.49755, 47.78413], [7.49764, 47.784]]], [[[7.49756, 47.78454], [7.49755, 47.78452], [7.49755, 47.78456], [7.49756, 47.78454], [7.49756, 47.78454]]], [[[7.47553, 47.785], [7.47592, 47.78495], [7.47821, 47.78442], [7.47817, 47.78442], [7.47553, 47.785]]], [[[7.47454, 47.78561], [7.48081, 47.78446], [7.48007, 47.78445], [7.47138, 47.78603], [7.47254, 47.78564], [7.46806, 47.78656], [7.46805, 47.78688], [7.47351, 47.78581], [7.4737, 47.7859], [7.47454, 47.78561]]], [[[7.51573, 47.78673], [7.51553, 47.78729], [7.5146, 47.78763], [7.51505, 47.78786], [7.51578, 47.78883], [7.51637, 47.78867], [7.5162, 47.78719], [7.51573, 47.78673]]], [[[7.49998, 47.78791], [7.50005, 47.78705], [7.4991, 47.78675], [7.49819, 47.78675], [7.49762, 47.786], [7.49849, 47.79053], [7.50179, 47.79113], [7.50166, 47.7888], [7.50009, 47.78854], [7.50027, 47.78815], [7.49998, 47.78791]]], [[[7.49258, 47.79022], [7.49201, 47.79046], [7.4928, 47.79057], [7.49216, 47.79212], [7.49342, 47.79188], [7.49527, 47.79222], [7.4967, 47.79713], [7.49712, 47.79713], [7.49752, 47.79806], [7.49788, 47.7981], [7.49823, 47.79859], [7.49773, 47.80031], [7.498, 47.80048], [7.49869, 47.80045], [7.49867, 47.80205], [7.49916, 47.80324], [7.49911, 47.80404], [7.50016, 47.804], [7.50045, 47.80225], [7.50028, 47.79994], [7.49767, 47.79094], [7.4938, 47.79022], [7.49258, 47.79022]]], [[[7.51761, 47.79183], [7.51633, 47.78973], [7.51582, 47.78929], [7.51547, 47.7895], [7.51512, 47.78943], [7.51437, 47.7905], [7.5124, 47.79209], [7.51179, 47.79211], [7.51132, 47.79192], [7.51124, 47.79109], [7.51099, 47.79129], [7.51096, 47.79191], [7.51052, 47.79219], [7.50645, 47.79238], [7.50638, 47.79289], [7.5059, 47.79316], [7.50506, 47.7931], [7.50436, 47.7925], [7.50548, 47.79983], [7.5062, 47.8071], [7.50677, 47.80716], [7.50719, 47.80744], [7.50732, 47.80778], [7.50713, 47.80813], [7.50791, 47.80806], [7.50845, 47.80848], [7.50893, 47.80994], [7.50872, 47.81067], [7.50747, 47.81098], [7.5078, 47.81144], [7.50758, 47.81193], [7.5095, 47.81211], [7.52091, 47.81145], [7.52125, 47.81138], [7.52081, 47.80982], [7.5224, 47.81097], [7.52272, 47.81077], [7.52071, 47.80933], [7.52018, 47.80757], [7.52091, 47.80755], [7.52106, 47.8061], [7.52145, 47.80598], [7.52173, 47.80557], [7.52205, 47.80556], [7.52275, 47.80648], [7.52214, 47.80657], [7.52166, 47.80639], [7.52148, 47.80709], [7.52112, 47.8071], [7.52107, 47.80755], [7.52157, 47.80777], [7.52224, 47.80935], [7.52296, 47.80911], [7.52332, 47.80973], [7.52361, 47.80968], [7.52495, 47.80491], [7.52456, 47.80466], [7.52509, 47.80417], [7.525, 47.80361], [7.51761, 47.79183]], [[7.52047, 47.80589], [7.52022, 47.80748], [7.51971, 47.80831], [7.51954, 47.80908], [7.51886, 47.80992], [7.51335, 47.81023], [7.51299, 47.80826], [7.51218, 47.80692], [7.5108, 47.80576], [7.51026, 47.80683], [7.51057, 47.80555], [7.50851, 47.80445], [7.50752, 47.79697], [7.50953, 47.79756], [7.5121, 47.79749], [7.51393, 47.79684], [7.51538, 47.79557], [7.51814, 47.79705], [7.51919, 47.79864], [7.51938, 47.79978], [7.52001, 47.80113], [7.52072, 47.80186], [7.52172, 47.80249], [7.52249, 47.80371], [7.52122, 47.80462], [7.52047, 47.80589]], [[7.50819, 47.79325], [7.50881, 47.79281], [7.51075, 47.79277], [7.51119, 47.79314], [7.51136, 47.79438], [7.51052, 47.79467], [7.51003, 47.79451], [7.50981, 47.79422], [7.50866, 47.7941], [7.50824, 47.79379], [7.50819, 47.79325]]], [[[7.50352, 47.79292], [7.50375, 47.79211], [7.50241, 47.79202], [7.50191, 47.79171], [7.49867, 47.79112], [7.50111, 47.79948], [7.50136, 47.80225], [7.50103, 47.8045], [7.50164, 47.80459], [7.50157, 47.80492], [7.50091, 47.80463], [7.50017, 47.80649], [7.49955, 47.8074], [7.50138, 47.8078], [7.50159, 47.80738], [7.50002, 47.80701], [7.50108, 47.80719], [7.50137, 47.80694], [7.50182, 47.80583], [7.50218, 47.80584], [7.50249, 47.80515], [7.50175, 47.80489], [7.50425, 47.80463], [7.50524, 47.80473], [7.50528, 47.80511], [7.50518, 47.80395], [7.50449, 47.79838], [7.50352, 47.79292]]], [[[7.50396, 47.81002], [7.50502, 47.81041], [7.50551, 47.81024], [7.50543, 47.80775], [7.50514, 47.80779], [7.50524, 47.8087], [7.50464, 47.8088], [7.50442, 47.80785], [7.50323, 47.80814], [7.50351, 47.81012], [7.50396, 47.81002]]], [[[7.50799, 47.81337], [7.50813, 47.8138], [7.50779, 47.81419], [7.50841, 47.8145], [7.50832, 47.81383], [7.50863, 47.81378], [7.50795, 47.81312], [7.50781, 47.81323], [7.50799, 47.81337]]], [[[7.49812, 47.81686], [7.4972, 47.81509], [7.49636, 47.81529], [7.49703, 47.81607], [7.49812, 47.81686]]], [[[7.50823, 47.81504], [7.50838, 47.81605], [7.50867, 47.81643], [7.5082, 47.81753], [7.5086, 47.81856], [7.50918, 47.81531], [7.50823, 47.81504]]], [[[7.50524, 47.82028], [7.50504, 47.81972], [7.50528, 47.81933], [7.50484, 47.81879], [7.50507, 47.81822], [7.50459, 47.81661], [7.50494, 47.81594], [7.50433, 47.8147], [7.50415, 47.81396], [7.50431, 47.8136], [7.50369, 47.81367], [7.50345, 47.81326], [7.50335, 47.81344], [7.5012, 47.81305], [7.50112, 47.81335], [7.50218, 47.81364], [7.50238, 47.81428], [7.50169, 47.81472], [7.50077, 47.81447], [7.49997, 47.81753], [7.50037, 47.8176], [7.5005, 47.8179], [7.50065, 47.81988], [7.50145, 47.81985], [7.5015, 47.82012], [7.5007, 47.82037], [7.50084, 47.82089], [7.49919, 47.82124], [7.49795, 47.82184], [7.49702, 47.82266], [7.49647, 47.82367], [7.49432, 47.82363], [7.49436, 47.82394], [7.4947, 47.82399], [7.49455, 47.8253], [7.49783, 47.82536], [7.50081, 47.82505], [7.50014, 47.82444], [7.49991, 47.82275], [7.50136, 47.82259], [7.50267, 47.82493], [7.50632, 47.82468], [7.50687, 47.82403], [7.50759, 47.82391], [7.50781, 47.82269], [7.50759, 47.82223], [7.5071, 47.82225], [7.5068, 47.82115], [7.50564, 47.82112], [7.50525, 47.82072], [7.50524, 47.82028]]], [[[7.50852, 47.81897], [7.50856, 47.8188], [7.50844, 47.81894], [7.50852, 47.81897]]], [[[7.51031, 47.8213], [7.51015, 47.82145], [7.51099, 47.8222], [7.51157, 47.82202], [7.51256, 47.82211], [7.51299, 47.82162], [7.5142, 47.82151], [7.51413, 47.82091], [7.51453, 47.82064], [7.51522, 47.82056], [7.51508, 47.82023], [7.5159, 47.82014], [7.51602, 47.8213], [7.51683, 47.82167], [7.51721, 47.82163], [7.51678, 47.82122], [7.51688, 47.82072], [7.51749, 47.82026], [7.51871, 47.82006], [7.52031, 47.82028], [7.5206, 47.8206], [7.52054, 47.82109], [7.52079, 47.82121], [7.5236, 47.82113], [7.52436, 47.82245], [7.52578, 47.82134], [7.5286, 47.82016], [7.52877, 47.81962], [7.52961, 47.81941], [7.52901, 47.81851], [7.52916, 47.81796], [7.52676, 47.8178], [7.51079, 47.81561], [7.50995, 47.81574], [7.50982, 47.81642], [7.51018, 47.81738], [7.50963, 47.81742], [7.5092, 47.81968], [7.50923, 47.82044], [7.51015, 47.82064], [7.51031, 47.8213]], [[7.51368, 47.81772], [7.51289, 47.8179], [7.51282, 47.81759], [7.51376, 47.81771], [7.51368, 47.81772]]], [[[7.50868, 47.82373], [7.50938, 47.82351], [7.50919, 47.82314], [7.50854, 47.82311], [7.50842, 47.82377], [7.50868, 47.82373]]], [[[7.50174, 47.82357], [7.50152, 47.82353], [7.50109, 47.82361], [7.50107, 47.82378], [7.50144, 47.82378], [7.5016, 47.82357], [7.50148, 47.82382], [7.50186, 47.82383], [7.50174, 47.82357]]], [[[7.50636, 47.82555], [7.50614, 47.82523], [7.49815, 47.82587], [7.49885, 47.82671], [7.49977, 47.8272], [7.50092, 47.82749], [7.50096, 47.82841], [7.50332, 47.82828], [7.5042, 47.82938], [7.5025, 47.82958], [7.50104, 47.83019], [7.50119, 47.83138], [7.50193, 47.83179], [7.50381, 47.83104], [7.50847, 47.83114], [7.50759, 47.82748], [7.5072, 47.82683], [7.50735, 47.82568], [7.50636, 47.82555]]], [[[7.51217, 47.82957], [7.51153, 47.82913], [7.51145, 47.82866], [7.50962, 47.8285], [7.50844, 47.82778], [7.50929, 47.83116], [7.51228, 47.83131], [7.512, 47.83048], [7.51246, 47.83001], [7.51217, 47.82957]]], [[[7.50557, 47.8316], [7.5038, 47.83159], [7.5022, 47.83232], [7.50141, 47.83401], [7.50156, 47.83464], [7.50456, 47.83324], [7.50654, 47.83329], [7.51001, 47.84632], [7.50796, 47.84631], [7.50639, 47.84669], [7.50636, 47.84778], [7.51293, 47.84786], [7.50862, 47.83169], [7.50557, 47.8316]]], [[[7.5125, 47.83679], [7.51349, 47.83365], [7.51301, 47.83384], [7.51249, 47.83379], [7.51205, 47.83349], [7.51197, 47.83311], [7.51225, 47.83278], [7.51282, 47.83262], [7.51334, 47.83272], [7.5137, 47.83303], [7.51387, 47.83214], [7.51257, 47.83187], [7.50944, 47.8317], [7.51314, 47.84561], [7.51467, 47.84537], [7.51462, 47.84484], [7.51529, 47.8445], [7.51415, 47.84108], [7.51262, 47.83892], [7.5125, 47.83679]]], [[[7.51668, 47.7583], [7.5169, 47.75913], [7.51783, 47.75913], [7.51802, 47.75795], [7.51679, 47.75794], [7.51668, 47.7583]]], [[[7.52026, 47.75855], [7.52109, 47.75922], [7.52168, 47.75917], [7.52279, 47.75952], [7.52337, 47.75875], [7.52334, 47.75837], [7.52245, 47.75801], [7.51912, 47.75797], [7.51908, 47.75826], [7.52, 47.75837], [7.52026, 47.75855]]], [[[7.52475, 47.7616], [7.52545, 47.75999], [7.52653, 47.75806], [7.52619, 47.75806], [7.52537, 47.75947], [7.52463, 47.76107], [7.52475, 47.7616]]], [[[7.51746, 47.75975], [7.51704, 47.75968], [7.51704, 47.75988], [7.51738, 47.75994], [7.51746, 47.75975]]], [[[7.52461, 47.76191], [7.52461, 47.76193], [7.52471, 47.7617], [7.52461, 47.76182], [7.52461, 47.76191]]], [[[7.52452, 47.76215], [7.52443, 47.76224], [7.52443, 47.76236], [7.52452, 47.76215]]], [[[7.53082, 47.76511], [7.52942, 47.76469], [7.52913, 47.76364], [7.5298, 47.76127], [7.53138, 47.75812], [7.53098, 47.75812], [7.53025, 47.75939], [7.52915, 47.76212], [7.52868, 47.76397], [7.52892, 47.76483], [7.52867, 47.76581], [7.52925, 47.76574], [7.52977, 47.76595], [7.53, 47.76712], [7.53045, 47.76728], [7.531, 47.76786], [7.53199, 47.76547], [7.53082, 47.76511]]], [[[7.52425, 47.76281], [7.52436, 47.76254], [7.52353, 47.76288], [7.52255, 47.76551], [7.52002, 47.76515], [7.51956, 47.76577], [7.5194, 47.76665], [7.51983, 47.76646], [7.52038, 47.76647], [7.52081, 47.76672], [7.52091, 47.76706], [7.52037, 47.76753], [7.51944, 47.76739], [7.51929, 47.77017], [7.51954, 47.77062], [7.51909, 47.77109], [7.51846, 47.77283], [7.51864, 47.7729], [7.52148, 47.77273], [7.52269, 47.7673], [7.52425, 47.76281]]], [[[7.52594, 47.76425], [7.52459, 47.76858], [7.52373, 47.77249], [7.52425, 47.77254], [7.52485, 47.76986], [7.5247, 47.7692], [7.52528, 47.76836], [7.52509, 47.76803], [7.52521, 47.76748], [7.52563, 47.76713], [7.52646, 47.76302], [7.52594, 47.76425]]], [[[7.53038, 47.76859], [7.52909, 47.76945], [7.52885, 47.77007], [7.52835, 47.77052], [7.52755, 47.7706], [7.5276, 47.77033], [7.52724, 47.77017], [7.52692, 47.77138], [7.52785, 47.77138], [7.52825, 47.77165], [7.52836, 47.77201], [7.52773, 47.77253], [7.5267, 47.77234], [7.52638, 47.77529], [7.52869, 47.77519], [7.52926, 47.77266], [7.53078, 47.76842], [7.53038, 47.76859]]], [[[7.51835, 47.77426], [7.51828, 47.77406], [7.51796, 47.77407], [7.51785, 47.77433], [7.51835, 47.77426]]], [[[7.51946, 47.77445], [7.51968, 47.77438], [7.51989, 47.77436], [7.51922, 47.7744], [7.51946, 47.77445]]], [[[7.51887, 47.7744], [7.51892, 47.7744], [7.51885, 47.77439], [7.51887, 47.7744]]], [[[7.52395, 47.77423], [7.5237, 47.77451], [7.52397, 47.77534], [7.52405, 47.77383], [7.52395, 47.77423]]], [[[7.52127, 47.77512], [7.52127, 47.77508], [7.52127, 47.77508], [7.52127, 47.77512]]], [[[7.51785, 47.77531], [7.5177, 47.77523], [7.51767, 47.77523], [7.5179, 47.77533], [7.51785, 47.77531]]], [[[7.52132, 47.77548], [7.52132, 47.77549], [7.52133, 47.77549], [7.52132, 47.77548]]], [[[7.52746, 47.7759], [7.52659, 47.77592], [7.52676, 47.77631], [7.52718, 47.77607], [7.52746, 47.7759]]], [[[7.53127, 47.77612], [7.53123, 47.77649], [7.53233, 47.77676], [7.53234, 47.77918], [7.53253, 47.77944], [7.53237, 47.7799], [7.53295, 47.78042], [7.53282, 47.78103], [7.53303, 47.78094], [7.53322, 47.78142], [7.53346, 47.78121], [7.53355, 47.78143], [7.53359, 47.78114], [7.53516, 47.78114], [7.53551, 47.78164], [7.53534, 47.77713], [7.53526, 47.77736], [7.53399, 47.77634], [7.53536, 47.77666], [7.53537, 47.77638], [7.53364, 47.77594], [7.53445, 47.7758], [7.53535, 47.77538], [7.53543, 47.77569], [7.53555, 47.77463], [7.53488, 47.77531], [7.53374, 47.77557], [7.53243, 47.77528], [7.53239, 47.77481], [7.53151, 47.77479], [7.53142, 47.77537], [7.53213, 47.77528], [7.53207, 47.77546], [7.53237, 47.77534], [7.53256, 47.77561], [7.53338, 47.77569], [7.53468, 47.7755], [7.53371, 47.77576], [7.53262, 47.7757], [7.53247, 47.77601], [7.53382, 47.77646], [7.53431, 47.77675], [7.53478, 47.77718], [7.5339, 47.77657], [7.53266, 47.77612], [7.53235, 47.77611], [7.53169, 47.77649], [7.53145, 47.77644], [7.53136, 47.77627], [7.53177, 47.77643], [7.53205, 47.77613], [7.53169, 47.77632], [7.5315, 47.77605], [7.53127, 47.77612]], [[7.53182, 47.77489], [7.53228, 47.77494], [7.53238, 47.77508], [7.53173, 47.77494], [7.53182, 47.77489]], [[7.53176, 47.7753], [7.53178, 47.77507], [7.53206, 47.77508], [7.53206, 47.77525], [7.53176, 47.7753]], [[7.53476, 47.77996], [7.53481, 47.7803], [7.53503, 47.78], [7.53481, 47.77983], [7.53484, 47.77913], [7.53524, 47.7806], [7.53474, 47.78094], [7.53446, 47.78059], [7.53476, 47.77996]], [[7.53481, 47.77886], [7.53489, 47.77882], [7.53501, 47.7784], [7.5351, 47.77907], [7.53504, 47.77883], [7.53496, 47.77907], [7.53481, 47.77886]], [[7.53326, 47.77982], [7.53302, 47.77966], [7.53294, 47.77805], [7.5325, 47.77744], [7.5329, 47.77751], [7.53294, 47.77694], [7.53376, 47.77722], [7.53447, 47.7782], [7.53514, 47.77809], [7.5346, 47.7786], [7.53458, 47.7798], [7.53326, 47.77982]], [[7.53302, 47.77634], [7.5332, 47.77638], [7.53315, 47.77644], [7.53307, 47.77646], [7.53302, 47.77634]], [[7.53247, 47.77633], [7.53224, 47.7766], [7.532, 47.77653], [7.53232, 47.77619], [7.53268, 47.77631], [7.53247, 47.77633]], [[7.533, 47.77658], [7.533, 47.77663], [7.53269, 47.77664], [7.53285, 47.77652], [7.533, 47.77658]], [[7.53316, 47.77675], [7.53317, 47.7768], [7.53296, 47.77691], [7.53294, 47.77674], [7.53334, 47.77663], [7.53316, 47.77675]], [[7.53324, 47.77689], [7.53356, 47.7768], [7.53343, 47.77687], [7.53373, 47.77704], [7.53324, 47.77689]], [[7.53445, 47.77709], [7.53465, 47.77733], [7.53429, 47.77724], [7.53369, 47.77662], [7.53445, 47.77709]], [[7.53281, 47.77691], [7.53288, 47.77692], [7.53277, 47.77725], [7.53272, 47.77695], [7.53251, 47.77707], [7.5325, 47.77695], [7.53281, 47.77691]], [[7.53384, 47.77713], [7.53407, 47.77716], [7.5345, 47.77752], [7.53425, 47.77751], [7.53384, 47.77713]], [[7.53493, 47.77758], [7.53499, 47.77772], [7.53475, 47.77771], [7.53457, 47.77739], [7.53493, 47.77758]], [[7.53253, 47.77863], [7.53258, 47.77855], [7.53272, 47.77863], [7.53264, 47.77868], [7.53253, 47.77863]], [[7.53248, 47.77883], [7.53266, 47.77884], [7.53257, 47.77916], [7.53249, 47.77894], [7.53248, 47.77883]], [[7.53275, 47.77933], [7.53274, 47.77961], [7.53412, 47.78091], [7.53333, 47.78076], [7.5326, 47.77976], [7.53275, 47.77933]], [[7.53525, 47.77871], [7.53525, 47.77874], [7.53518, 47.77883], [7.53514, 47.77873], [7.53525, 47.77871]]], [[[7.52151, 47.77621], [7.52149, 47.77613], [7.52116, 47.77614], [7.5213, 47.77615], [7.52151, 47.77621]]], [[[7.52693, 47.77668], [7.52694, 47.77669], [7.52693, 47.77667], [7.52693, 47.77668]]], [[[7.52239, 47.77793], [7.52212, 47.7772], [7.5217, 47.77714], [7.52125, 47.77672], [7.5189, 47.7768], [7.51917, 47.77744], [7.5189, 47.77783], [7.51758, 47.7784], [7.51668, 47.77822], [7.51625, 47.78136], [7.51769, 47.78109], [7.51889, 47.78167], [7.5198, 47.7817], [7.51992, 47.78111], [7.52039, 47.78148], [7.52077, 47.78042], [7.52087, 47.77911], [7.5212, 47.77873], [7.52175, 47.77872], [7.52177, 47.77849], [7.52267, 47.77869], [7.52239, 47.77793]]], [[[7.52734, 47.77722], [7.52784, 47.77789], [7.52668, 47.77922], [7.52653, 47.78074], [7.52676, 47.78057], [7.52666, 47.78002], [7.52686, 47.78002], [7.52752, 47.77879], [7.52837, 47.77826], [7.52827, 47.77773], [7.52806, 47.77778], [7.52734, 47.77722]]], [[[7.53033, 47.78127], [7.5307, 47.78264], [7.53118, 47.78274], [7.53164, 47.78362], [7.5311, 47.78074], [7.53024, 47.7806], [7.53033, 47.78127]]], [[[7.52678, 47.78392], [7.52682, 47.78372], [7.52671, 47.78338], [7.52678, 47.78392]]], [[[7.51997, 47.78306], [7.519, 47.78224], [7.51884, 47.78328], [7.51849, 47.78363], [7.51613, 47.78357], [7.51617, 47.78509], [7.51687, 47.78616], [7.51773, 47.78541], [7.51871, 47.78572], [7.52075, 47.78339], [7.51997, 47.78306]]], [[[7.52722, 47.78622], [7.52776, 47.78603], [7.52786, 47.7857], [7.52706, 47.78542], [7.52722, 47.78622]]], [[[7.52507, 47.80183], [7.52518, 47.80217], [7.52551, 47.80265], [7.52563, 47.80237], [7.52507, 47.80158], [7.52507, 47.80183]]], [[[7.53187, 47.80456], [7.53191, 47.80439], [7.52701, 47.80585], [7.52737, 47.8059], [7.53187, 47.80456]]], [[[7.52497, 47.80807], [7.525, 47.80806], [7.52498, 47.80804], [7.52497, 47.80807]]], [[[7.51968, 47.81219], [7.51837, 47.81238], [7.51077, 47.81281], [7.52388, 47.81406], [7.52258, 47.81313], [7.52184, 47.81224], [7.51968, 47.81219]]], [[[7.52855, 47.8145], [7.52899, 47.81454], [7.52911, 47.81455], [7.52852, 47.81445], [7.52855, 47.8145]]], [[[7.51235, 47.81353], [7.50886, 47.81301], [7.50956, 47.81387], [7.50995, 47.81491], [7.52761, 47.81735], [7.53022, 47.81742], [7.53221, 47.81724], [7.5344, 47.81678], [7.53614, 47.81614], [7.53597, 47.81575], [7.51235, 47.81353]], [[7.52767, 47.81549], [7.52825, 47.81568], [7.52882, 47.81593], [7.52837, 47.81612], [7.52723, 47.81558], [7.52725, 47.81542], [7.52767, 47.81549]]], [[[7.53001, 47.81954], [7.53, 47.81953], [7.53, 47.81953], [7.53001, 47.81954]]], [[[7.53029, 47.82012], [7.52991, 47.82046], [7.52918, 47.82055], [7.52609, 47.82188], [7.52451, 47.82321], [7.52418, 47.82404], [7.52349, 47.82445], [7.52289, 47.82453], [7.52251, 47.82524], [7.52198, 47.82534], [7.52141, 47.82522], [7.52111, 47.82491], [7.52113, 47.82454], [7.51985, 47.82478], [7.52042, 47.82541], [7.52023, 47.82734], [7.51985, 47.82768], [7.51917, 47.82774], [7.51909, 47.82851], [7.51849, 47.82907], [7.51762, 47.82932], [7.51757, 47.83057], [7.51849, 47.83086], [7.51869, 47.83137], [7.51946, 47.83198], [7.5211, 47.83208], [7.52165, 47.83232], [7.52189, 47.83299], [7.52118, 47.83336], [7.52044, 47.83315], [7.51869, 47.83306], [7.51818, 47.83335], [7.51723, 47.83332], [7.51664, 47.83297], [7.5165, 47.83211], [7.51467, 47.83216], [7.51334, 47.83652], [7.51333, 47.8386], [7.51501, 47.84112], [7.51638, 47.84539], [7.51734, 47.84529], [7.51826, 47.84544], [7.51851, 47.84608], [7.51793, 47.84652], [7.51825, 47.84662], [7.52025, 47.8467], [7.52077, 47.84635], [7.52222, 47.84626], [7.52275, 47.8467], [7.52246, 47.84735], [7.52416, 47.84732], [7.52548, 47.84764], [7.52598, 47.84803], [7.53234, 47.84811], [7.53124, 47.84741], [7.53011, 47.84702], [7.52953, 47.84628], [7.52821, 47.84532], [7.52609, 47.84465], [7.52462, 47.84377], [7.5232, 47.84338], [7.52128, 47.84329], [7.52038, 47.84283], [7.51918, 47.84303], [7.5189, 47.84242], [7.51782, 47.84192], [7.51717, 47.84024], [7.51578, 47.83833], [7.51596, 47.83615], [7.51788, 47.83633], [7.51954, 47.83616], [7.52094, 47.83632], [7.5225, 47.8362], [7.5243, 47.83559], [7.52559, 47.83461], [7.52625, 47.8353], [7.52741, 47.83599], [7.53018, 47.83665], [7.53289, 47.83662], [7.53517, 47.83581], [7.53726, 47.83683], [7.53963, 47.83709], [7.53946, 47.83625], [7.53986, 47.83708], [7.54095, 47.83695], [7.54224, 47.83823], [7.54411, 47.83949], [7.54556, 47.84013], [7.54594, 47.83969], [7.5461, 47.83846], [7.54661, 47.83791], [7.54693, 47.838], [7.54779, 47.83753], [7.54688, 47.83731], [7.54689, 47.83637], [7.54567, 47.83633], [7.54505, 47.83589], [7.54504, 47.83543], [7.54337, 47.83511], [7.54324, 47.8348], [7.54418, 47.83468], [7.54426, 47.83517], [7.54513, 47.83532], [7.54567, 47.83473], [7.54726, 47.83431], [7.54757, 47.83335], [7.54753, 47.83289], [7.54681, 47.83247], [7.54682, 47.83167], [7.54615, 47.83126], [7.54602, 47.8308], [7.54406, 47.83063], [7.54325, 47.82991], [7.54281, 47.82914], [7.54254, 47.82915], [7.54242, 47.8289], [7.544, 47.82813], [7.54373, 47.82781], [7.54385, 47.82739], [7.54336, 47.8256], [7.54247, 47.82565], [7.54166, 47.82542], [7.54124, 47.82508], [7.54125, 47.82468], [7.53933, 47.82408], [7.53866, 47.82366], [7.53749, 47.82242], [7.53782, 47.82184], [7.53771, 47.82122], [7.53742, 47.82107], [7.5357, 47.82134], [7.53552, 47.82109], [7.53568, 47.82088], [7.53725, 47.82084], [7.53769, 47.8189], [7.53578, 47.81892], [7.53534, 47.8187], [7.5352, 47.81837], [7.5342, 47.8183], [7.53166, 47.81956], [7.5315, 47.81981], [7.53182, 47.82053], [7.53118, 47.82058], [7.53122, 47.82106], [7.53173, 47.82125], [7.53176, 47.82154], [7.53312, 47.82215], [7.53269, 47.82215], [7.53242, 47.82185], [7.53116, 47.82137], [7.53085, 47.82025], [7.53048, 47.82005], [7.53029, 47.82012]], [[7.53361, 47.82927], [7.53492, 47.82822], [7.53553, 47.82694], [7.53668, 47.82644], [7.53767, 47.82683], [7.53799, 47.82713], [7.53657, 47.82754], [7.5354, 47.8282], [7.53417, 47.82978], [7.53321, 47.82947], [7.53361, 47.82927]], [[7.53372, 47.82561], [7.53383, 47.82565], [7.53382, 47.82573], [7.53369, 47.82573], [7.53372, 47.82561]], [[7.53361, 47.82428], [7.53281, 47.82424], [7.53236, 47.82395], [7.53228, 47.82328], [7.53283, 47.8229], [7.53388, 47.82289], [7.53441, 47.82323], [7.53438, 47.82375], [7.53361, 47.82428]], [[7.52026, 47.82966], [7.52036, 47.8291], [7.52079, 47.82878], [7.52169, 47.8288], [7.52213, 47.82908], [7.5221, 47.8298], [7.52167, 47.83011], [7.5207, 47.83007], [7.52026, 47.82966]], [[7.52714, 47.82934], [7.52827, 47.82977], [7.52625, 47.83077], [7.52658, 47.82901], [7.52714, 47.82934]], [[7.52631, 47.8228], [7.52608, 47.82282], [7.52602, 47.82264], [7.52623, 47.8226], [7.52631, 47.8228]], [[7.52639, 47.82406], [7.5274, 47.82411], [7.52769, 47.82443], [7.52765, 47.82478], [7.52696, 47.8253], [7.5256, 47.82532], [7.52513, 47.82497], [7.52515, 47.82441], [7.52558, 47.82411], [7.52639, 47.82406]], [[7.52501, 47.82696], [7.52335, 47.82678], [7.52337, 47.82666], [7.52563, 47.82687], [7.52501, 47.82696]], [[7.52633, 47.82692], [7.52631, 47.827], [7.52589, 47.82697], [7.5259, 47.82689], [7.52633, 47.82692]], [[7.5318, 47.82415], [7.53158, 47.82414], [7.5316, 47.824], [7.53183, 47.82396], [7.5318, 47.82415]], [[7.53203, 47.82451], [7.532, 47.82463], [7.53188, 47.82461], [7.53191, 47.82449], [7.53203, 47.82451]], [[7.53254, 47.82483], [7.53221, 47.82497], [7.53213, 47.82493], [7.53239, 47.82471], [7.53254, 47.82483]], [[7.5331, 47.82548], [7.53308, 47.82557], [7.53279, 47.82565], [7.53284, 47.82552], [7.5331, 47.82548]], [[7.53107, 47.82679], [7.53056, 47.82707], [7.52989, 47.82702], [7.52947, 47.82669], [7.52953, 47.82624], [7.53001, 47.82596], [7.53073, 47.82601], [7.53113, 47.82633], [7.53107, 47.82679]], [[7.53055, 47.8325], [7.53139, 47.83222], [7.53215, 47.83243], [7.5325, 47.83313], [7.53228, 47.83358], [7.53179, 47.83375], [7.53093, 47.83373], [7.52967, 47.83344], [7.52943, 47.8331], [7.52957, 47.83271], [7.53002, 47.83249], [7.53055, 47.8325]], [[7.53909, 47.82999], [7.53982, 47.83009], [7.5402, 47.83042], [7.54011, 47.83084], [7.53956, 47.83116], [7.53883, 47.83106], [7.53846, 47.83073], [7.53854, 47.83031], [7.53909, 47.82999]], [[7.53556, 47.8216], [7.53533, 47.82169], [7.5357, 47.82134], [7.53669, 47.82194], [7.53556, 47.8216]], [[7.53667, 47.82361], [7.53676, 47.82331], [7.53701, 47.82435], [7.53685, 47.82428], [7.53667, 47.82361]], [[7.5349, 47.82619], [7.53496, 47.82595], [7.53522, 47.82598], [7.53516, 47.82622], [7.5349, 47.82619]], [[7.53882, 47.82622], [7.53924, 47.82598], [7.53956, 47.82627], [7.53752, 47.82661], [7.53712, 47.82648], [7.53882, 47.82622]], [[7.53678, 47.82645], [7.53657, 47.82628], [7.53669, 47.82622], [7.53686, 47.82639], [7.53678, 47.82645]], [[7.53599, 47.82658], [7.53585, 47.82654], [7.53591, 47.82641], [7.53616, 47.82646], [7.53599, 47.82658]], [[7.54166, 47.82719], [7.54128, 47.82701], [7.5412, 47.82736], [7.54086, 47.8275], [7.54022, 47.82668], [7.54122, 47.82626], [7.5418, 47.82711], [7.54166, 47.82719]], [[7.54067, 47.83323], [7.53972, 47.83411], [7.53888, 47.83408], [7.5384, 47.83374], [7.53859, 47.83281], [7.53932, 47.8326], [7.53973, 47.83223], [7.54024, 47.83217], [7.54094, 47.83246], [7.54107, 47.83318], [7.54279, 47.83344], [7.54308, 47.83384], [7.54273, 47.83359], [7.54067, 47.83323]], [[7.54341, 47.83392], [7.54355, 47.8346], [7.54313, 47.8342], [7.54341, 47.83392]], [[7.54245, 47.83618], [7.54187, 47.83633], [7.542, 47.83568], [7.54251, 47.83564], [7.54245, 47.83618]]], [[[7.51706, 47.84651], [7.51708, 47.84651], [7.517, 47.84651], [7.51706, 47.84651]]], [[[7.51676, 47.84652], [7.51683, 47.84651], [7.51687, 47.84651], [7.51673, 47.84651], [7.51676, 47.84652]]], [[[7.51468, 47.84755], [7.51526, 47.84687], [7.51596, 47.84667], [7.5158, 47.84614], [7.5152, 47.84609], [7.51522, 47.84643], [7.51342, 47.84666], [7.51375, 47.84788], [7.51485, 47.84789], [7.51468, 47.84755]]], [[[7.52018, 47.84773], [7.5206, 47.84775], [7.52092, 47.84749], [7.5203, 47.84718], [7.52018, 47.84773]]], [[[7.54334, 47.76413], [7.54343, 47.76403], [7.54335, 47.76399], [7.54334, 47.76413]]], [[[7.53431, 47.76839], [7.5344, 47.76797], [7.53411, 47.76762], [7.53375, 47.76797], [7.5338, 47.76822], [7.53397, 47.76847], [7.53431, 47.76839]]], [[[7.5345, 47.76917], [7.53464, 47.76918], [7.53476, 47.7689], [7.53423, 47.76898], [7.53409, 47.76926], [7.5345, 47.76917]]], [[[7.53918, 47.77045], [7.53936, 47.7704], [7.53761, 47.76991], [7.53756, 47.77006], [7.53918, 47.77045]]], [[[7.54407, 47.77043], [7.54358, 47.77047], [7.54391, 47.77029], [7.54367, 47.77009], [7.54347, 47.77037], [7.54364, 47.77076], [7.54417, 47.77052], [7.54407, 47.77043]]], [[[7.53481, 47.77163], [7.53427, 47.77152], [7.53431, 47.77117], [7.53372, 47.77105], [7.53333, 47.7721], [7.53469, 47.77236], [7.53481, 47.77163]]], [[[7.54564, 47.77607], [7.54518, 47.7752], [7.5439, 47.77446], [7.54282, 47.77333], [7.54236, 47.77445], [7.54208, 47.7766], [7.54046, 47.77796], [7.54147, 47.77917], [7.54079, 47.78109], [7.53928, 47.7815], [7.53929, 47.78239], [7.53891, 47.78311], [7.53704, 47.78462], [7.53711, 47.78493], [7.53985, 47.78481], [7.54025, 47.7844], [7.54138, 47.78431], [7.54208, 47.78393], [7.54229, 47.7835], [7.54212, 47.78313], [7.54013, 47.78258], [7.54227, 47.78304], [7.54246, 47.78344], [7.54232, 47.78392], [7.54308, 47.78406], [7.54357, 47.78468], [7.54326, 47.78552], [7.54191, 47.78593], [7.54129, 47.78563], [7.54019, 47.78554], [7.53985, 47.78492], [7.53714, 47.78506], [7.53777, 47.7872], [7.53916, 47.78807], [7.54102, 47.7889], [7.54201, 47.7889], [7.54211, 47.78921], [7.54401, 47.79011], [7.54558, 47.79136], [7.54834, 47.79134], [7.54778, 47.78904], [7.54721, 47.78903], [7.54657, 47.78875], [7.54634, 47.78812], [7.54588, 47.78826], [7.54382, 47.78792], [7.54236, 47.78791], [7.54059, 47.78864], [7.54036, 47.78856], [7.54216, 47.78779], [7.54248, 47.78719], [7.54241, 47.78683], [7.54269, 47.78681], [7.54266, 47.78749], [7.54289, 47.78769], [7.54612, 47.78799], [7.54742, 47.78757], [7.54694, 47.7856], [7.54547, 47.78543], [7.54501, 47.78501], [7.54511, 47.7845], [7.54571, 47.78421], [7.54546, 47.78392], [7.54544, 47.78323], [7.54585, 47.7828], [7.5452, 47.78251], [7.54507, 47.78173], [7.54556, 47.78134], [7.54678, 47.78127], [7.54573, 47.781], [7.54553, 47.78037], [7.546, 47.77989], [7.54698, 47.77971], [7.54735, 47.77722], [7.54632, 47.77702], [7.54604, 47.77757], [7.54486, 47.77729], [7.5446, 47.77696], [7.54469, 47.77651], [7.54564, 47.77607]], [[7.54268, 47.77517], [7.54239, 47.77516], [7.54243, 47.7749], [7.54271, 47.7751], [7.54268, 47.77517]], [[7.54021, 47.782], [7.54021, 47.78254], [7.54005, 47.782], [7.54046, 47.7815], [7.5412, 47.78107], [7.54021, 47.782]], [[7.54553, 47.79125], [7.54524, 47.79101], [7.5455, 47.79098], [7.54553, 47.79125]]], [[[7.54186, 47.77579], [7.5422, 47.77461], [7.5421, 47.77454], [7.54154, 47.77593], [7.54186, 47.77579]]], [[[7.53834, 47.77815], [7.53774, 47.7775], [7.53634, 47.77664], [7.53632, 47.77702], [7.53735, 47.7776], [7.53797, 47.77823], [7.53849, 47.77953], [7.53831, 47.78041], [7.5377, 47.78102], [7.53701, 47.78115], [7.5364, 47.78086], [7.53644, 47.78121], [7.53711, 47.78137], [7.53755, 47.78127], [7.53767, 47.78146], [7.53671, 47.78271], [7.53682, 47.78364], [7.53709, 47.78268], [7.53864, 47.78067], [7.5388, 47.7792], [7.53834, 47.77815]]], [[[7.53885, 47.78045], [7.53885, 47.7804], [7.53883, 47.78008], [7.53876, 47.78043], [7.53885, 47.78045]]], [[[7.53352, 47.78515], [7.53378, 47.78522], [7.53378, 47.78482], [7.53595, 47.78439], [7.53595, 47.78418], [7.53386, 47.78465], [7.53357, 47.78428], [7.53352, 47.78515]]], [[[7.53682, 47.78756], [7.53688, 47.7876], [7.53684, 47.78747], [7.53682, 47.78756]]], [[[7.53724, 47.78878], [7.53735, 47.78895], [7.5371, 47.78891], [7.53761, 47.78951], [7.537, 47.78793], [7.53702, 47.78861], [7.53724, 47.78878]]], [[[7.53817, 47.78835], [7.5397, 47.7892], [7.53989, 47.78904], [7.53949, 47.789], [7.53909, 47.78883], [7.53917, 47.78871], [7.53817, 47.78835]]], [[[7.53851, 47.78919], [7.53855, 47.78917], [7.53847, 47.78908], [7.53851, 47.78919]]], [[[7.53985, 47.78934], [7.54089, 47.78962], [7.54124, 47.78963], [7.5411, 47.78929], [7.54005, 47.78908], [7.53985, 47.78934]]], [[[7.53894, 47.79026], [7.53914, 47.79072], [7.53922, 47.78994], [7.53908, 47.78969], [7.53877, 47.78978], [7.5387, 47.78961], [7.53896, 47.78954], [7.53861, 47.78942], [7.53894, 47.79026]]], [[[7.53653, 47.79011], [7.53622, 47.79034], [7.53765, 47.79015], [7.53771, 47.78997], [7.5367, 47.78994], [7.53653, 47.79011]]], [[[7.5441, 47.79059], [7.54448, 47.79094], [7.54466, 47.79087], [7.54404, 47.79025], [7.54232, 47.7897], [7.5441, 47.79059]]], [[[7.54009, 47.79273], [7.54062, 47.79274], [7.54059, 47.79256], [7.54173, 47.79217], [7.54004, 47.79263], [7.54032, 47.79262], [7.54009, 47.79273]]], [[[7.54232, 47.7929], [7.54205, 47.79267], [7.54204, 47.79283], [7.54289, 47.79328], [7.54336, 47.79325], [7.54276, 47.79207], [7.54252, 47.79212], [7.54311, 47.79321], [7.54232, 47.7929]]], [[[7.53934, 47.79491], [7.53982, 47.79607], [7.54019, 47.79602], [7.5391, 47.79315], [7.53858, 47.79323], [7.53934, 47.79491]]], [[[7.53446, 47.79916], [7.53535, 47.80047], [7.53587, 47.80029], [7.53645, 47.80037], [7.53185, 47.79314], [7.53067, 47.79353], [7.53446, 47.79916]]], [[[7.53796, 47.79367], [7.53776, 47.79382], [7.53834, 47.79383], [7.53829, 47.79365], [7.53796, 47.79367]]], [[[7.54417, 47.79453], [7.54311, 47.79657], [7.54299, 47.79733], [7.54299, 47.79757], [7.54332, 47.79757], [7.54349, 47.79804], [7.54381, 47.79819], [7.54357, 47.79644], [7.54429, 47.79446], [7.5427, 47.79471], [7.54417, 47.79453]]], [[[7.54076, 47.79795], [7.54089, 47.79807], [7.54133, 47.7979], [7.54129, 47.7978], [7.54076, 47.79795]]], [[[7.54099, 47.80098], [7.54122, 47.80093], [7.54187, 47.80175], [7.5425, 47.80289], [7.54222, 47.80309], [7.54234, 47.80333], [7.54399, 47.80595], [7.54493, 47.80574], [7.54221, 47.80085], [7.54274, 47.79966], [7.54241, 47.79911], [7.54026, 47.79975], [7.54099, 47.80098]]], [[[7.53678, 47.80115], [7.53603, 47.80148], [7.53739, 47.80352], [7.538, 47.80332], [7.5382, 47.80298], [7.53685, 47.80104], [7.53678, 47.80115]]], [[[7.53536, 47.80667], [7.53653, 47.80749], [7.53795, 47.80945], [7.53829, 47.80934], [7.53543, 47.80503], [7.53433, 47.80537], [7.53536, 47.80667]]], [[[7.53517, 47.80728], [7.53526, 47.80744], [7.53554, 47.8075], [7.53537, 47.80739], [7.53517, 47.80728]]], [[[7.53623, 47.8083], [7.53599, 47.80795], [7.53595, 47.8079], [7.53603, 47.80835], [7.53638, 47.80858], [7.53623, 47.8083]]], [[[7.53655, 47.80887], [7.53648, 47.80875], [7.53641, 47.80913], [7.53689, 47.80937], [7.53655, 47.80887]]], [[[7.53728, 47.80994], [7.53731, 47.81068], [7.53774, 47.81077], [7.53757, 47.81038], [7.53728, 47.80994]]], [[[7.53896, 47.81035], [7.53878, 47.81032], [7.5395, 47.81114], [7.53896, 47.81035]]], [[[7.53995, 47.81193], [7.53941, 47.81218], [7.53966, 47.81241], [7.54015, 47.81232], [7.53995, 47.81193]]], [[[7.53902, 47.8146], [7.53879, 47.81419], [7.53871, 47.81418], [7.53898, 47.81458], [7.53902, 47.8146]]], [[[7.53506, 47.81777], [7.53561, 47.817], [7.53397, 47.81747], [7.53378, 47.8178], [7.53506, 47.81777]]], [[[7.53129, 47.81804], [7.53177, 47.81881], [7.53287, 47.81817], [7.533, 47.81766], [7.531, 47.81791], [7.53129, 47.81804]]], [[[7.54102, 47.84619], [7.54068, 47.84588], [7.54032, 47.84583], [7.54043, 47.8456], [7.53996, 47.84634], [7.53972, 47.84751], [7.53796, 47.84709], [7.53646, 47.84708], [7.53501, 47.84736], [7.53308, 47.84812], [7.54167, 47.84823], [7.54087, 47.84694], [7.54102, 47.84619]]], [[[7.54948, 47.7609], [7.55088, 47.7608], [7.55151, 47.76131], [7.55218, 47.7608], [7.55203, 47.7598], [7.55137, 47.75907], [7.55113, 47.75838], [7.54823, 47.75847], [7.54801, 47.75958], [7.54827, 47.75983], [7.54814, 47.76047], [7.54839, 47.7625], [7.5489, 47.76243], [7.54831, 47.76162], [7.54835, 47.76125], [7.5488, 47.76093], [7.54948, 47.7609]]], [[[7.54359, 47.76354], [7.54765, 47.76312], [7.54735, 47.76059], [7.54638, 47.76067], [7.54355, 47.76252], [7.54339, 47.76361], [7.54359, 47.76354]]], [[[7.55037, 47.76547], [7.55194, 47.76453], [7.55381, 47.76391], [7.55381, 47.76281], [7.55316, 47.76272], [7.5523, 47.76303], [7.54967, 47.76469], [7.54995, 47.76584], [7.55037, 47.76547]]], [[[7.55107, 47.76596], [7.55221, 47.76627], [7.55255, 47.7659], [7.55257, 47.7653], [7.55336, 47.76461], [7.55175, 47.7653], [7.55084, 47.76594], [7.55107, 47.76596]]], [[[7.54759, 47.76378], [7.54752, 47.76366], [7.54419, 47.76402], [7.54445, 47.76515], [7.54365, 47.7652], [7.54355, 47.76624], [7.54499, 47.76594], [7.54599, 47.76551], [7.54658, 47.76555], [7.54672, 47.76615], [7.54594, 47.76846], [7.54588, 47.76964], [7.54844, 47.76895], [7.54935, 47.76629], [7.54884, 47.76474], [7.54759, 47.76378]]], [[[7.55128, 47.76715], [7.55202, 47.76692], [7.55198, 47.76679], [7.55049, 47.76645], [7.54968, 47.76737], [7.54931, 47.76853], [7.55073, 47.76825], [7.55074, 47.76753], [7.55128, 47.76715]]], [[[7.55115, 47.76826], [7.55106, 47.76822], [7.551, 47.7683], [7.55104, 47.76831], [7.55115, 47.76826]]], [[[7.54843, 47.76904], [7.54585, 47.7697], [7.54567, 47.77061], [7.54568, 47.77102], [7.54611, 47.77124], [7.54791, 47.7715], [7.54835, 47.77215], [7.54894, 47.77336], [7.54822, 47.77387], [7.54829, 47.77473], [7.55043, 47.77416], [7.54884, 47.77172], [7.54846, 47.77028], [7.54843, 47.76904]]], [[[7.55093, 47.77365], [7.55115, 47.77389], [7.55157, 47.77384], [7.55126, 47.77131], [7.55045, 47.77124], [7.55006, 47.77085], [7.55034, 47.77016], [7.5511, 47.76994], [7.55073, 47.76961], [7.55062, 47.76885], [7.54923, 47.76916], [7.54922, 47.7696], [7.54997, 47.77074], [7.54923, 47.77002], [7.54977, 47.77193], [7.55093, 47.77365]]], [[[7.55225, 47.77365], [7.55253, 47.77349], [7.55245, 47.77204], [7.55229, 47.77151], [7.55161, 47.77139], [7.55196, 47.77373], [7.55225, 47.77365]]], [[[7.55164, 47.77453], [7.55169, 47.7746], [7.55182, 47.77435], [7.55155, 47.77443], [7.55164, 47.77453]]], [[[7.5508, 47.7747], [7.54911, 47.7751], [7.54871, 47.77659], [7.54827, 47.77698], [7.54932, 47.77711], [7.5482, 47.77703], [7.54775, 47.78001], [7.54787, 47.78067], [7.54756, 47.78153], [7.54842, 47.78216], [7.54851, 47.78269], [7.54821, 47.78306], [7.54753, 47.78318], [7.54775, 47.78362], [7.54751, 47.78412], [7.54853, 47.78422], [7.54897, 47.7845], [7.54932, 47.78391], [7.55049, 47.78378], [7.55102, 47.784], [7.55119, 47.78446], [7.55093, 47.78478], [7.55043, 47.78493], [7.54952, 47.78494], [7.54903, 47.78463], [7.5488, 47.78528], [7.54773, 47.78551], [7.54819, 47.78743], [7.54897, 47.78747], [7.54936, 47.78785], [7.54928, 47.78853], [7.54854, 47.78881], [7.54915, 47.7913], [7.55107, 47.79124], [7.55268, 47.79147], [7.55423, 47.79224], [7.5546, 47.79275], [7.5542, 47.79197], [7.55444, 47.79175], [7.55477, 47.79293], [7.55496, 47.79277], [7.55468, 47.79155], [7.55392, 47.78997], [7.55442, 47.79158], [7.55426, 47.79149], [7.55326, 47.78882], [7.55361, 47.78873], [7.55439, 47.7874], [7.55438, 47.787], [7.55411, 47.78701], [7.55381, 47.78657], [7.55426, 47.78608], [7.55387, 47.78534], [7.55196, 47.78364], [7.55176, 47.78322], [7.55194, 47.78232], [7.55175, 47.78211], [7.55129, 47.78213], [7.55124, 47.78166], [7.55131, 47.78113], [7.55229, 47.78124], [7.55245, 47.7807], [7.55299, 47.78015], [7.55327, 47.77869], [7.55243, 47.77732], [7.55171, 47.77703], [7.55166, 47.7757], [7.5508, 47.7747]], [[7.54947, 47.78535], [7.54942, 47.78624], [7.54912, 47.78623], [7.5483, 47.78698], [7.54926, 47.78595], [7.54921, 47.7849], [7.54947, 47.78535]], [[7.55076, 47.78791], [7.55111, 47.78794], [7.55134, 47.78821], [7.55068, 47.78849], [7.55076, 47.78791]], [[7.5503, 47.78886], [7.55026, 47.78875], [7.55064, 47.78803], [7.55059, 47.78835], [7.5503, 47.78886]], [[7.55048, 47.78898], [7.55041, 47.78892], [7.55045, 47.78881], [7.55058, 47.78891], [7.55048, 47.78898]]], [[[7.54641, 47.7759], [7.54691, 47.77574], [7.54626, 47.77572], [7.54586, 47.77625], [7.54609, 47.77635], [7.54641, 47.7759]]], [[[7.55204, 47.77658], [7.55213, 47.77668], [7.55242, 47.7768], [7.55219, 47.77643], [7.55204, 47.77658]]], [[[7.54608, 47.79184], [7.54599, 47.79183], [7.54599, 47.79183], [7.54599, 47.79185], [7.54608, 47.79184]]], [[[7.55435, 47.79343], [7.55362, 47.7926], [7.5524, 47.79198], [7.552, 47.79214], [7.55194, 47.7919], [7.55099, 47.79178], [7.54646, 47.7919], [7.54697, 47.79246], [7.54671, 47.79308], [7.54721, 47.79304], [7.54729, 47.79347], [7.54692, 47.79376], [7.54703, 47.79426], [7.54788, 47.79415], [7.54836, 47.79445], [7.54846, 47.79483], [7.55117, 47.79522], [7.55204, 47.79545], [7.55323, 47.79583], [7.55409, 47.79649], [7.55431, 47.7968], [7.55445, 47.79714], [7.55439, 47.79761], [7.5543, 47.79683], [7.55312, 47.79589], [7.55121, 47.7953], [7.54845, 47.79486], [7.54818, 47.79515], [7.54929, 47.79511], [7.54972, 47.7954], [7.5498, 47.79576], [7.55149, 47.79628], [7.55172, 47.79698], [7.55134, 47.7974], [7.55179, 47.79782], [7.55197, 47.79776], [7.55165, 47.79725], [7.55197, 47.79686], [7.55263, 47.79671], [7.55324, 47.79696], [7.55338, 47.79747], [7.55282, 47.79787], [7.55311, 47.79846], [7.55279, 47.79879], [7.5523, 47.79892], [7.55263, 47.79933], [7.55311, 47.79903], [7.55425, 47.79875], [7.55494, 47.79879], [7.55605, 47.79986], [7.55681, 47.80113], [7.55761, 47.80098], [7.55822, 47.80131], [7.55828, 47.80176], [7.55746, 47.8022], [7.55744, 47.8028], [7.55818, 47.80261], [7.55885, 47.80345], [7.56035, 47.80303], [7.56124, 47.80301], [7.55953, 47.80083], [7.55872, 47.80021], [7.55779, 47.79882], [7.55683, 47.79864], [7.55673, 47.79803], [7.55511, 47.79663], [7.55451, 47.79709], [7.55504, 47.79658], [7.55465, 47.79599], [7.55462, 47.79374], [7.55435, 47.79343]], [[7.557, 47.79903], [7.5569, 47.79905], [7.55619, 47.79864], [7.55655, 47.79872], [7.557, 47.79903]]], [[[7.54479, 47.79429], [7.54474, 47.79445], [7.54479, 47.79447], [7.54492, 47.79438], [7.54479, 47.79429]]], [[[7.54911, 47.79665], [7.54904, 47.79667], [7.54912, 47.79671], [7.54912, 47.7967], [7.54911, 47.79665]]], [[[7.54544, 47.79676], [7.54592, 47.79653], [7.54528, 47.79667], [7.54511, 47.7971], [7.54544, 47.79676]]], [[[7.54681, 47.79692], [7.54683, 47.79695], [7.54684, 47.79694], [7.54681, 47.79692]]], [[[7.54919, 47.79713], [7.54905, 47.7973], [7.54885, 47.79744], [7.54961, 47.79721], [7.54922, 47.79694], [7.54919, 47.79713]]], [[[7.54504, 47.79741], [7.54509, 47.79737], [7.54507, 47.79723], [7.54497, 47.79729], [7.54504, 47.79741]]], [[[7.54353, 47.79917], [7.54359, 47.79909], [7.54366, 47.79903], [7.54347, 47.79908], [7.54353, 47.79917]]], [[[7.54543, 47.80105], [7.54543, 47.80105], [7.54543, 47.80105], [7.54543, 47.80105]]], [[[7.54634, 47.8024], [7.54542, 47.80115], [7.54458, 47.80097], [7.5457, 47.80281], [7.54666, 47.80253], [7.54634, 47.8024]]], [[[7.54463, 47.80492], [7.54477, 47.80489], [7.54454, 47.80433], [7.54471, 47.80328], [7.54428, 47.80434], [7.54463, 47.80492]]], [[[7.54998, 47.80619], [7.54915, 47.80646], [7.54895, 47.80663], [7.54907, 47.80679], [7.55079, 47.80654], [7.5509, 47.80615], [7.55136, 47.80591], [7.55064, 47.80607], [7.55049, 47.80594], [7.54998, 47.80619]]], [[[7.54777, 47.80569], [7.54772, 47.8057], [7.54857, 47.80702], [7.54861, 47.80699], [7.54777, 47.80569]]], [[[7.54563, 47.80799], [7.54663, 47.8098], [7.54814, 47.80919], [7.5481, 47.80887], [7.54853, 47.80874], [7.54618, 47.8055], [7.54452, 47.80599], [7.54563, 47.80799]]], [[[7.55136, 47.8143], [7.55132, 47.81432], [7.55117, 47.81449], [7.5515, 47.81428], [7.55136, 47.8143]]], [[[7.54971, 47.81486], [7.55028, 47.81476], [7.5505, 47.81461], [7.55002, 47.8144], [7.54955, 47.81442], [7.54946, 47.81502], [7.54971, 47.81486]]], [[[7.54445, 47.81504], [7.54419, 47.81505], [7.54429, 47.81539], [7.54436, 47.81513], [7.54489, 47.81503], [7.54445, 47.81504]]], [[[7.54868, 47.8198], [7.54868, 47.81979], [7.54858, 47.81964], [7.54869, 47.81984], [7.54868, 47.8198]]], [[[7.54919, 47.83871], [7.54875, 47.83947], [7.54886, 47.84043], [7.54996, 47.84021], [7.55047, 47.84158], [7.55215, 47.84155], [7.55252, 47.8403], [7.55162, 47.83763], [7.55059, 47.83741], [7.54974, 47.83791], [7.54919, 47.83871]]], [[[7.54757, 47.84048], [7.54853, 47.84046], [7.54838, 47.83965], [7.54818, 47.83946], [7.54637, 47.83931], [7.5462, 47.84012], [7.54594, 47.84024], [7.54757, 47.84048]]], [[[7.55087, 47.84664], [7.54922, 47.84678], [7.54824, 47.8456], [7.54885, 47.84539], [7.54887, 47.84493], [7.54751, 47.84423], [7.54606, 47.84389], [7.5444, 47.84384], [7.54292, 47.8441], [7.54184, 47.84452], [7.54216, 47.84483], [7.54165, 47.84509], [7.54135, 47.8448], [7.5407, 47.84531], [7.54164, 47.84629], [7.54108, 47.84692], [7.54194, 47.84734], [7.54204, 47.84824], [7.54515, 47.84828], [7.54413, 47.84763], [7.54458, 47.84663], [7.54527, 47.84658], [7.54668, 47.84783], [7.54904, 47.84686], [7.54932, 47.84713], [7.55082, 47.84692], [7.55087, 47.84664]]], [[[7.54663, 47.84812], [7.54641, 47.84829], [7.54694, 47.8483], [7.5468, 47.84796], [7.54663, 47.84812]]], [[[7.56155, 47.75888], [7.56112, 47.75912], [7.56058, 47.75912], [7.56007, 47.75889], [7.55992, 47.75849], [7.55132, 47.75838], [7.55224, 47.76001], [7.55236, 47.76047], [7.55218, 47.76088], [7.55149, 47.7617], [7.55123, 47.7629], [7.55292, 47.76221], [7.55398, 47.76228], [7.55446, 47.76125], [7.55347, 47.76116], [7.55319, 47.7605], [7.55361, 47.75988], [7.5543, 47.75965], [7.55505, 47.75974], [7.55539, 47.76011], [7.55744, 47.76013], [7.55778, 47.75968], [7.55852, 47.75959], [7.5593, 47.75983], [7.55965, 47.76014], [7.56029, 47.76019], [7.56048, 47.76041], [7.56001, 47.76069], [7.55982, 47.76119], [7.55867, 47.7619], [7.5585, 47.76241], [7.55757, 47.76271], [7.55681, 47.76238], [7.55626, 47.76249], [7.55606, 47.76217], [7.55664, 47.76213], [7.55666, 47.76067], [7.55542, 47.76065], [7.55463, 47.76278], [7.55459, 47.76377], [7.55797, 47.7633], [7.56041, 47.76264], [7.5622, 47.76169], [7.56229, 47.75852], [7.5617, 47.75851], [7.56155, 47.75888]]], [[[7.56105, 47.76308], [7.56217, 47.76288], [7.56218, 47.76244], [7.56114, 47.76297], [7.56105, 47.76308]]], [[[7.55871, 47.76428], [7.55884, 47.76468], [7.56213, 47.76416], [7.56215, 47.76344], [7.55865, 47.76414], [7.55871, 47.76428]]], [[[7.55996, 47.76479], [7.56107, 47.76584], [7.56088, 47.76625], [7.56, 47.76665], [7.56031, 47.7676], [7.55989, 47.76786], [7.55811, 47.76802], [7.55805, 47.76851], [7.55731, 47.7689], [7.55956, 47.77236], [7.56386, 47.77165], [7.5658, 47.77093], [7.56477, 47.76931], [7.56582, 47.77091], [7.56729, 47.76968], [7.5679, 47.76803], [7.56786, 47.76758], [7.56373, 47.76753], [7.56479, 47.76923], [7.56363, 47.76753], [7.56327, 47.76753], [7.56351, 47.76802], [7.56333, 47.76837], [7.56265, 47.76878], [7.56196, 47.76872], [7.56153, 47.76802], [7.56073, 47.76771], [7.56055, 47.76696], [7.56112, 47.7664], [7.56119, 47.76601], [7.56209, 47.76574], [7.56213, 47.76435], [7.56001, 47.76467], [7.55996, 47.76479]]], [[[7.56116, 47.76645], [7.56207, 47.76645], [7.56209, 47.76582], [7.56126, 47.76605], [7.56116, 47.76645]]], [[[7.55877, 47.76633], [7.55842, 47.76635], [7.55812, 47.76673], [7.55747, 47.76695], [7.55768, 47.76752], [7.5595, 47.76736], [7.55877, 47.76633]]], [[[7.55948, 47.77278], [7.56022, 47.77399], [7.56136, 47.77408], [7.56174, 47.77487], [7.56602, 47.77409], [7.5652, 47.77259], [7.56394, 47.77169], [7.55957, 47.77239], [7.55948, 47.77278]]], [[[7.55977, 47.77498], [7.55971, 47.77481], [7.55603, 47.77541], [7.55971, 47.77477], [7.55878, 47.77307], [7.55844, 47.77303], [7.55319, 47.77381], [7.55291, 47.77407], [7.55205, 47.7743], [7.55201, 47.775], [7.55289, 47.77591], [7.55409, 47.77855], [7.55615, 47.77831], [7.5541, 47.77859], [7.55428, 47.78128], [7.55444, 47.78037], [7.55601, 47.78021], [7.55754, 47.78415], [7.5559, 47.78451], [7.55594, 47.78423], [7.55586, 47.7845], [7.55624, 47.78714], [7.55592, 47.79273], [7.55639, 47.79493], [7.55787, 47.79726], [7.56619, 47.79462], [7.57099, 47.79367], [7.56583, 47.78547], [7.56553, 47.78528], [7.56441, 47.78535], [7.56382, 47.7847], [7.56378, 47.78428], [7.56455, 47.78364], [7.56448, 47.78334], [7.56384, 47.78334], [7.56286, 47.7829], [7.56245, 47.78235], [7.55992, 47.78269], [7.55935, 47.78148], [7.5585, 47.77876], [7.55889, 47.77956], [7.56088, 47.7793], [7.56125, 47.77843], [7.56184, 47.77814], [7.56156, 47.77759], [7.55852, 47.778], [7.56153, 47.77754], [7.55977, 47.77498]], [[7.55945, 47.79489], [7.55892, 47.7948], [7.5584, 47.79308], [7.5587, 47.78707], [7.55805, 47.78458], [7.5586, 47.7839], [7.55937, 47.78472], [7.56015, 47.78642], [7.56101, 47.78726], [7.56266, 47.78806], [7.56499, 47.78839], [7.56761, 47.79255], [7.56516, 47.79311], [7.55945, 47.79489]], [[7.553, 47.77586], [7.55595, 47.77538], [7.55597, 47.77542], [7.55297, 47.77591], [7.553, 47.77586]], [[7.55643, 47.77799], [7.55577, 47.77655], [7.55598, 47.77651], [7.55704, 47.7775], [7.55663, 47.77821], [7.55845, 47.77801], [7.55661, 47.77825], [7.55656, 47.77842], [7.55652, 47.77826], [7.55622, 47.7783], [7.55651, 47.77823], [7.55643, 47.77799]], [[7.55748, 47.78391], [7.55738, 47.78369], [7.56012, 47.7831], [7.56024, 47.78331], [7.55748, 47.78391]]], [[[7.56155, 47.77525], [7.56111, 47.77544], [7.56232, 47.7774], [7.56928, 47.77649], [7.56236, 47.77747], [7.56312, 47.77883], [7.56548, 47.77874], [7.56612, 47.7791], [7.56605, 47.77974], [7.56461, 47.78032], [7.56572, 47.78042], [7.5662, 47.78076], [7.56605, 47.78158], [7.56561, 47.78195], [7.56576, 47.78253], [7.56638, 47.78283], [7.56685, 47.7834], [7.56662, 47.78394], [7.5672, 47.78442], [7.56727, 47.78496], [7.56668, 47.78545], [7.56804, 47.78761], [7.57507, 47.78558], [7.58254, 47.7841], [7.57787, 47.77671], [7.57517, 47.77667], [7.57919, 47.78303], [7.57446, 47.78397], [7.57171, 47.78475], [7.5726, 47.78421], [7.57343, 47.78335], [7.57391, 47.7816], [7.57339, 47.78028], [7.57244, 47.77938], [7.57232, 47.77803], [7.57145, 47.77679], [7.57037, 47.77607], [7.56902, 47.77558], [7.5688, 47.77553], [7.56938, 47.7765], [7.56874, 47.77552], [7.56753, 47.77538], [7.56606, 47.77547], [7.56604, 47.77414], [7.56174, 47.77492], [7.56155, 47.77525]], [[7.568, 47.77865], [7.56807, 47.77908], [7.5677, 47.77942], [7.56694, 47.7795], [7.56644, 47.77925], [7.56634, 47.77876], [7.56671, 47.77843], [7.56747, 47.77835], [7.568, 47.77865]], [[7.56953, 47.78185], [7.5693, 47.78226], [7.56874, 47.78245], [7.56805, 47.78229], [7.56777, 47.78191], [7.56801, 47.78144], [7.56856, 47.78126], [7.56926, 47.78142], [7.56953, 47.78185]]], [[[7.56108, 47.77955], [7.56091, 47.77935], [7.55893, 47.77964], [7.5594, 47.78137], [7.56117, 47.78105], [7.56096, 47.78063], [7.56115, 47.78029], [7.56263, 47.77982], [7.56248, 47.77962], [7.56164, 47.77973], [7.56108, 47.77955]]], [[[7.55965, 47.782], [7.56277, 47.78159], [7.56318, 47.78137], [7.56225, 47.78152], [7.56123, 47.78109], [7.55941, 47.78143], [7.55965, 47.782]]], [[[7.5606, 47.78251], [7.56241, 47.78228], [7.56263, 47.78165], [7.56041, 47.78196], [7.5606, 47.78251]]], [[[7.5533, 47.78308], [7.55255, 47.78293], [7.55226, 47.78248], [7.55206, 47.78303], [7.55221, 47.78353], [7.55417, 47.78522], [7.55477, 47.78625], [7.55533, 47.78625], [7.554, 47.78309], [7.5533, 47.78308]]], [[[7.55413, 47.78964], [7.55519, 47.79129], [7.55542, 47.78679], [7.55475, 47.78742], [7.55406, 47.78894], [7.55413, 47.78964]]], [[[7.55542, 47.79525], [7.55569, 47.79523], [7.55542, 47.79457], [7.55541, 47.79501], [7.55542, 47.79525]]], [[[7.55687, 47.79768], [7.55733, 47.79772], [7.55716, 47.7975], [7.55683, 47.79749], [7.55701, 47.7973], [7.55597, 47.79575], [7.55503, 47.79572], [7.55505, 47.79622], [7.55687, 47.79768]]], [[[7.56038, 47.80031], [7.56181, 47.80222], [7.56292, 47.80438], [7.56371, 47.80436], [7.56418, 47.80474], [7.56412, 47.80521], [7.56346, 47.80552], [7.56375, 47.80681], [7.56794, 47.80544], [7.56924, 47.80539], [7.56965, 47.80563], [7.57058, 47.80713], [7.57056, 47.8075], [7.57016, 47.80779], [7.57068, 47.80892], [7.57199, 47.80854], [7.57248, 47.80796], [7.57271, 47.80834], [7.58227, 47.80556], [7.58233, 47.80515], [7.58273, 47.8049], [7.58345, 47.80479], [7.584, 47.80506], [7.5865, 47.80434], [7.58555, 47.80268], [7.58954, 47.80141], [7.5887, 47.8013], [7.58828, 47.80087], [7.58873, 47.80047], [7.58947, 47.8008], [7.58972, 47.80073], [7.58932, 47.80008], [7.58844, 47.80027], [7.58937, 47.80003], [7.58981, 47.80073], [7.59018, 47.8009], [7.5902, 47.80122], [7.59054, 47.80112], [7.5883, 47.79758], [7.58757, 47.79768], [7.58702, 47.7974], [7.58681, 47.79675], [7.5875, 47.79635], [7.58682, 47.79561], [7.58663, 47.79495], [7.58416, 47.79135], [7.58363, 47.79134], [7.58321, 47.79112], [7.57555, 47.79344], [7.5665, 47.79511], [7.55825, 47.79773], [7.56038, 47.80031]], [[7.5809, 47.79369], [7.58234, 47.79417], [7.5824, 47.79677], [7.58055, 47.79742], [7.57902, 47.79878], [7.57863, 47.79977], [7.57869, 47.8008], [7.57923, 47.80184], [7.57999, 47.80257], [7.57872, 47.80346], [7.57848, 47.80352], [7.57661, 47.80242], [7.57468, 47.80201], [7.57266, 47.80213], [7.57101, 47.80268], [7.56939, 47.8024], [7.56723, 47.80251], [7.56323, 47.80036], [7.56246, 47.79941], [7.56273, 47.79812], [7.56743, 47.79665], [7.57079, 47.79597], [7.57057, 47.79562], [7.57156, 47.79534], [7.57184, 47.79579], [7.5748, 47.79532], [7.5809, 47.79369]], [[7.58424, 47.79349], [7.58414, 47.79359], [7.58377, 47.79285], [7.58384, 47.79283], [7.58424, 47.79349]], [[7.58372, 47.79414], [7.58312, 47.79304], [7.58366, 47.79289], [7.58407, 47.79373], [7.58372, 47.79414]], [[7.58454, 47.79978], [7.58476, 47.8002], [7.58451, 47.80059], [7.58384, 47.80077], [7.58327, 47.8006], [7.58299, 47.80015], [7.58324, 47.79976], [7.58391, 47.79958], [7.58454, 47.79978]], [[7.57496, 47.8053], [7.57502, 47.80571], [7.57452, 47.80615], [7.57389, 47.80619], [7.57328, 47.80586], [7.57323, 47.80544], [7.57373, 47.80501], [7.57435, 47.80497], [7.57496, 47.8053]], [[7.57347, 47.8062], [7.57368, 47.80664], [7.57338, 47.80701], [7.57268, 47.80716], [7.57213, 47.80696], [7.57193, 47.80652], [7.57222, 47.80615], [7.57292, 47.806], [7.57347, 47.8062]], [[7.57294, 47.80764], [7.57283, 47.80756], [7.57294, 47.80742], [7.57303, 47.80753], [7.57294, 47.80764]]], [[[7.55914, 47.79992], [7.55916, 47.79994], [7.55919, 47.79997], [7.55914, 47.79992]]], [[[7.55615, 47.8031], [7.55558, 47.8024], [7.55522, 47.80227], [7.55472, 47.80243], [7.5548, 47.8032], [7.55567, 47.80391], [7.55618, 47.80358], [7.55615, 47.8031]]], [[[7.55746, 47.80294], [7.55792, 47.80325], [7.55795, 47.80376], [7.55856, 47.80377], [7.55881, 47.80348], [7.55814, 47.80268], [7.55746, 47.80294]]], [[[7.55263, 47.80636], [7.55314, 47.80641], [7.55228, 47.80598], [7.55259, 47.80636], [7.55263, 47.80636]]], [[[7.55383, 47.80651], [7.55454, 47.80645], [7.55457, 47.80617], [7.55362, 47.80644], [7.55383, 47.80651]]], [[[7.5528, 47.81299], [7.55275, 47.81294], [7.55271, 47.81293], [7.55276, 47.813], [7.5528, 47.81299]]], [[[7.55425, 47.81428], [7.55428, 47.81429], [7.55426, 47.81428], [7.55425, 47.81428]]], [[[7.55312, 47.81523], [7.55327, 47.8152], [7.55311, 47.81498], [7.55293, 47.81513], [7.55312, 47.81523]]], [[[7.55448, 47.81445], [7.55445, 47.81469], [7.55399, 47.8147], [7.55481, 47.81582], [7.5551, 47.81575], [7.55487, 47.8159], [7.55523, 47.81614], [7.55512, 47.81458], [7.55448, 47.81445]]], [[[7.55535, 47.81654], [7.55525, 47.81624], [7.5551, 47.81622], [7.55538, 47.81662], [7.55535, 47.81654]]], [[[7.55419, 47.81863], [7.55528, 47.81927], [7.55609, 47.81908], [7.55394, 47.81614], [7.55412, 47.81677], [7.55396, 47.81713], [7.55423, 47.81714], [7.55426, 47.81696], [7.55459, 47.8173], [7.55408, 47.81732], [7.55397, 47.81766], [7.55487, 47.81764], [7.55399, 47.8179], [7.55419, 47.81863]]], [[[7.55363, 47.81905], [7.55361, 47.81903], [7.5537, 47.81917], [7.55373, 47.81911], [7.55363, 47.81905]]], [[[7.55365, 47.81937], [7.55367, 47.81936], [7.55366, 47.81931], [7.55358, 47.81938], [7.55365, 47.81937]]], [[[7.55595, 47.82006], [7.55602, 47.82021], [7.55692, 47.82023], [7.55644, 47.81956], [7.55557, 47.81979], [7.55595, 47.82006]]], [[[7.55364, 47.82005], [7.55355, 47.81995], [7.55342, 47.82002], [7.55364, 47.82007], [7.55364, 47.82005]]], [[[7.55258, 47.82134], [7.55265, 47.82207], [7.55329, 47.822], [7.55246, 47.82112], [7.55258, 47.82134]]], [[[7.55392, 47.82144], [7.55367, 47.82144], [7.55334, 47.8218], [7.55389, 47.82254], [7.5545, 47.8225], [7.55494, 47.82269], [7.55514, 47.82317], [7.5545, 47.82364], [7.55352, 47.82348], [7.55423, 47.8243], [7.55415, 47.82461], [7.5547, 47.82537], [7.55567, 47.82539], [7.55507, 47.82551], [7.55466, 47.82538], [7.55402, 47.82459], [7.55461, 47.82542], [7.55506, 47.82555], [7.55527, 47.82555], [7.55583, 47.82538], [7.55582, 47.82528], [7.55694, 47.82512], [7.55738, 47.82471], [7.55713, 47.82443], [7.55603, 47.82455], [7.5554, 47.82416], [7.55522, 47.82424], [7.55553, 47.82359], [7.55634, 47.82336], [7.55535, 47.82257], [7.55454, 47.82237], [7.55414, 47.82175], [7.55429, 47.82134], [7.55392, 47.82144]]], [[[7.55248, 47.82237], [7.55213, 47.82263], [7.55273, 47.82276], [7.55264, 47.82256], [7.55248, 47.82237]]], [[[7.55761, 47.82343], [7.55887, 47.82319], [7.55867, 47.82285], [7.55767, 47.82299], [7.558, 47.82298], [7.55801, 47.82312], [7.5571, 47.82317], [7.55761, 47.82343]]], [[[7.56, 47.82302], [7.56025, 47.82358], [7.56082, 47.82345], [7.56044, 47.82329], [7.56, 47.82302]]], [[[7.55191, 47.82255], [7.55151, 47.82309], [7.55193, 47.82281], [7.55212, 47.82315], [7.55163, 47.82328], [7.55278, 47.82502], [7.5533, 47.82487], [7.55191, 47.82255]]], [[[7.55905, 47.82466], [7.5586, 47.82482], [7.56011, 47.82524], [7.55967, 47.82451], [7.55905, 47.82466]]], [[[7.55966, 47.82521], [7.55444, 47.82645], [7.55455, 47.82655], [7.55966, 47.82521]]], [[[7.55723, 47.82762], [7.5574, 47.82754], [7.55696, 47.82701], [7.5564, 47.82676], [7.5563, 47.82692], [7.55723, 47.82762]]], [[[7.55765, 47.82971], [7.55768, 47.8295], [7.56052, 47.83258], [7.56108, 47.83249], [7.56155, 47.83202], [7.563, 47.83305], [7.56344, 47.83295], [7.56251, 47.83166], [7.56318, 47.83156], [7.56261, 47.83023], [7.5622, 47.83036], [7.5627, 47.8311], [7.56231, 47.83137], [7.56122, 47.83003], [7.56078, 47.82924], [7.56098, 47.82899], [7.55988, 47.82759], [7.55621, 47.82854], [7.56125, 47.83422], [7.56062, 47.8344], [7.56335, 47.83951], [7.56571, 47.83954], [7.56477, 47.83596], [7.56325, 47.83366], [7.56315, 47.83317], [7.56213, 47.83394], [7.56141, 47.83418], [7.55765, 47.82971]], [[7.56018, 47.83137], [7.55945, 47.8312], [7.55916, 47.83068], [7.55959, 47.83026], [7.56046, 47.83016], [7.56099, 47.83037], [7.56117, 47.83081], [7.56091, 47.83114], [7.56018, 47.83137]]], [[[7.55529, 47.83783], [7.55488, 47.83676], [7.55425, 47.83579], [7.55529, 47.83783]]], [[[7.55966, 47.84003], [7.55986, 47.8398], [7.55939, 47.83982], [7.55944, 47.84002], [7.55924, 47.83994], [7.55909, 47.84009], [7.5593, 47.84037], [7.55909, 47.84082], [7.55849, 47.84071], [7.55859, 47.84031], [7.55839, 47.84014], [7.558, 47.84037], [7.55802, 47.84121], [7.5587, 47.84259], [7.5595, 47.84324], [7.55947, 47.84356], [7.55906, 47.84378], [7.55918, 47.84412], [7.55965, 47.84384], [7.55993, 47.84395], [7.55996, 47.84306], [7.55962, 47.84303], [7.55963, 47.84283], [7.55934, 47.84286], [7.55885, 47.84184], [7.56, 47.84128], [7.56003, 47.84033], [7.55966, 47.84003]], [[7.55867, 47.84153], [7.5585, 47.84099], [7.55868, 47.84088], [7.55923, 47.84123], [7.55908, 47.84161], [7.55867, 47.84153]]], [[[7.55695, 47.84385], [7.55686, 47.84306], [7.55672, 47.84235], [7.55695, 47.84385]]], [[[7.5519, 47.84311], [7.55209, 47.84193], [7.5504, 47.8417], [7.55084, 47.84451], [7.5515, 47.84436], [7.5519, 47.84311]]], [[[7.55706, 47.84453], [7.5571, 47.84451], [7.55698, 47.84399], [7.55706, 47.84453]]], [[[7.55432, 47.84359], [7.55443, 47.84529], [7.55444, 47.84665], [7.5545, 47.8452], [7.55435, 47.84352], [7.55403, 47.84182], [7.55432, 47.84359]]], [[[7.5576, 47.84843], [7.55981, 47.84846], [7.55983, 47.84744], [7.55937, 47.84669], [7.5595, 47.84641], [7.55987, 47.84628], [7.55991, 47.8446], [7.55894, 47.84486], [7.55849, 47.84598], [7.5582, 47.84611], [7.5576, 47.84843]]], [[[7.55711, 47.84496], [7.55702, 47.84843], [7.55705, 47.84843], [7.55724, 47.84606], [7.55711, 47.84496]]], [[[7.554, 47.84839], [7.55431, 47.84839], [7.55444, 47.84676], [7.55427, 47.8482], [7.554, 47.84839]]], [[[7.57463, 47.76979], [7.5753, 47.77084], [7.57538, 47.76768], [7.57328, 47.76765], [7.57463, 47.76979]]], [[[7.57141, 47.7707], [7.57269, 47.77274], [7.57514, 47.77662], [7.57525, 47.77256], [7.57346, 47.76971], [7.57215, 47.76764], [7.56945, 47.7676], [7.57141, 47.7707]]], [[[7.58433, 47.78375], [7.58463, 47.78374], [7.58503, 47.78336], [7.5857, 47.78326], [7.58638, 47.78372], [7.58631, 47.78409], [7.58593, 47.78434], [7.58603, 47.78449], [7.58774, 47.78406], [7.58369, 47.77678], [7.579, 47.77672], [7.58353, 47.78389], [7.58433, 47.78375]]], [[[7.58426, 47.78505], [7.58469, 47.78479], [7.58527, 47.78468], [7.58467, 47.78477], [7.58426, 47.78505]]], [[[7.5825, 47.78733], [7.58712, 47.79436], [7.58793, 47.79415], [7.58859, 47.7945], [7.58884, 47.79497], [7.58874, 47.79542], [7.58805, 47.79585], [7.58895, 47.79722], [7.59068, 47.79673], [7.58806, 47.7929], [7.58677, 47.79307], [7.5864, 47.79291], [7.58635, 47.79252], [7.58738, 47.79183], [7.58285, 47.7846], [7.58101, 47.78496], [7.5825, 47.78733]]], [[[7.58464, 47.78526], [7.5843, 47.78511], [7.58462, 47.78561], [7.58498, 47.78587], [7.58489, 47.78605], [7.58512, 47.78586], [7.58467, 47.78557], [7.58474, 47.78532], [7.58504, 47.78537], [7.58482, 47.78556], [7.58517, 47.78581], [7.58556, 47.78566], [7.58503, 47.78526], [7.58464, 47.78526]]], [[[7.5764, 47.78589], [7.56836, 47.78811], [7.57178, 47.79354], [7.57526, 47.79294], [7.58313, 47.79055], [7.58348, 47.79028], [7.58024, 47.78511], [7.5764, 47.78589]], [[7.57977, 47.78861], [7.57877, 47.7901], [7.57323, 47.7916], [7.5716, 47.78898], [7.57619, 47.78765], [7.57884, 47.78713], [7.57977, 47.78861]]], [[[7.58268, 47.80857], [7.58272, 47.80865], [7.58288, 47.80846], [7.58265, 47.80852], [7.58268, 47.80857]]], [[[7.57911, 47.81106], [7.5817, 47.81063], [7.58026, 47.80885], [7.5786, 47.8092], [7.5779, 47.80899], [7.57687, 47.80928], [7.57743, 47.81037], [7.57927, 47.80993], [7.57934, 47.81011], [7.57926, 47.80999], [7.57738, 47.81044], [7.57678, 47.80931], [7.57176, 47.81062], [7.57205, 47.81123], [7.57454, 47.81101], [7.57911, 47.81106]]], [[[7.58201, 47.8112], [7.57918, 47.8116], [7.57456, 47.81155], [7.57189, 47.81177], [7.57375, 47.8149], [7.57342, 47.81543], [7.57239, 47.8157], [7.57283, 47.81652], [7.57807, 47.81507], [7.57286, 47.81657], [7.57363, 47.8177], [7.57464, 47.81733], [7.57539, 47.81777], [7.57522, 47.81837], [7.57419, 47.8186], [7.57434, 47.81891], [7.58526, 47.81597], [7.58464, 47.81473], [7.58555, 47.81591], [7.58481, 47.81474], [7.5842, 47.81437], [7.58355, 47.81348], [7.58129, 47.81414], [7.58189, 47.81501], [7.57881, 47.81584], [7.57812, 47.81532], [7.57804, 47.81422], [7.57753, 47.8133], [7.58069, 47.81318], [7.58126, 47.81409], [7.58353, 47.81344], [7.58201, 47.8112]]], [[[7.5783, 47.82048], [7.5789, 47.82], [7.58683, 47.81795], [7.58585, 47.81642], [7.58649, 47.81765], [7.58565, 47.81646], [7.5708, 47.82047], [7.57093, 47.82028], [7.56915, 47.82058], [7.5704, 47.82095], [7.57315, 47.82249], [7.5742, 47.82338], [7.57478, 47.8242], [7.57521, 47.82621], [7.57453, 47.82894], [7.57453, 47.83065], [7.577, 47.83068], [7.57699, 47.82909], [7.57761, 47.82696], [7.57764, 47.8254], [7.57725, 47.82395], [7.57623, 47.82207], [7.57732, 47.82147], [7.5783, 47.82048]], [[7.5764, 47.82168], [7.57722, 47.82149], [7.57502, 47.82207], [7.5764, 47.82168]]], [[[7.56614, 47.81965], [7.56574, 47.81935], [7.56529, 47.81978], [7.56642, 47.81996], [7.56614, 47.81965]]], [[[7.56455, 47.82036], [7.56443, 47.82091], [7.56473, 47.82114], [7.56543, 47.82051], [7.56665, 47.82052], [7.56475, 47.82023], [7.56455, 47.82036]]], [[[7.5719, 47.82247], [7.57221, 47.82265], [7.57261, 47.82289], [7.5723, 47.82269], [7.57189, 47.82246], [7.5719, 47.82247]]], [[[7.56341, 47.82585], [7.56335, 47.82528], [7.56199, 47.82524], [7.56128, 47.82489], [7.56055, 47.82371], [7.56139, 47.82554], [7.56191, 47.82612], [7.56341, 47.82585]]], [[[7.57381, 47.82467], [7.57327, 47.82386], [7.57197, 47.82297], [7.57055, 47.82402], [7.57069, 47.8243], [7.57248, 47.82536], [7.57273, 47.82581], [7.57266, 47.82672], [7.57199, 47.82801], [7.56952, 47.8285], [7.56964, 47.82905], [7.56914, 47.82915], [7.56932, 47.82848], [7.56885, 47.82823], [7.56855, 47.8276], [7.5673, 47.82773], [7.56853, 47.82744], [7.56797, 47.82657], [7.56752, 47.82671], [7.56633, 47.82667], [7.56481, 47.82699], [7.56623, 47.82893], [7.56911, 47.83112], [7.5693, 47.83104], [7.56873, 47.82987], [7.56912, 47.82918], [7.5694, 47.82913], [7.56919, 47.83001], [7.56988, 47.83107], [7.56961, 47.8302], [7.56962, 47.82909], [7.56981, 47.82906], [7.56985, 47.83019], [7.57017, 47.83017], [7.57038, 47.83141], [7.5713, 47.83127], [7.57155, 47.83428], [7.57357, 47.83414], [7.57373, 47.83064], [7.5734, 47.82861], [7.57394, 47.82768], [7.5743, 47.82625], [7.57381, 47.82467]]], [[[7.56334, 47.82664], [7.5628, 47.82626], [7.56202, 47.82632], [7.56217, 47.82656], [7.56271, 47.82643], [7.56295, 47.82675], [7.56349, 47.82683], [7.56334, 47.82664]]], [[[7.56213, 47.82918], [7.56201, 47.82896], [7.56191, 47.82919], [7.56213, 47.82918]]], [[[7.5635, 47.82911], [7.56313, 47.82883], [7.56348, 47.82958], [7.56388, 47.82944], [7.5635, 47.82911]]], [[[7.56429, 47.83085], [7.5643, 47.8306], [7.56392, 47.83061], [7.56422, 47.83134], [7.56429, 47.83085]]], [[[7.5664, 47.83477], [7.56602, 47.83466], [7.56648, 47.83526], [7.56712, 47.83517], [7.56707, 47.83543], [7.56767, 47.83539], [7.56741, 47.83509], [7.5664, 47.83477]]], [[[7.58652, 47.77717], [7.58561, 47.77734], [7.58501, 47.77679], [7.58457, 47.77679], [7.5883, 47.78352], [7.58848, 47.77684], [7.58677, 47.77682], [7.58652, 47.77717]]], [[[7.58619, 47.78473], [7.58683, 47.78539], [7.58826, 47.78512], [7.58776, 47.78409], [7.58606, 47.78453], [7.58619, 47.78473]]], [[[7.58603, 47.78566], [7.58602, 47.78567], [7.58603, 47.78566], [7.58603, 47.78566]]], [[[7.58739, 47.78605], [7.58806, 47.78713], [7.58822, 47.7879], [7.58862, 47.78778], [7.5887, 47.78733], [7.58929, 47.78703], [7.58926, 47.78688], [7.58873, 47.78584], [7.58824, 47.78574], [7.58739, 47.78605]]], [[[7.60152, 47.78681], [7.60016, 47.78659], [7.59963, 47.78676], [7.59945, 47.78747], [7.5998, 47.78784], [7.60005, 47.78904], [7.60056, 47.78905], [7.60052, 47.78891], [7.60114, 47.78929], [7.60151, 47.7888], [7.60156, 47.78686], [7.60093, 47.78685], [7.60087, 47.78702], [7.60087, 47.78682], [7.60152, 47.78681]]], [[[7.59851, 47.78771], [7.59869, 47.7888], [7.59843, 47.7894], [7.60025, 47.79012], [7.59944, 47.78946], [7.59898, 47.78854], [7.59898, 47.78802], [7.59851, 47.78771]]], [[[7.60116, 47.78939], [7.60027, 47.78914], [7.60118, 47.78982], [7.60009, 47.78911], [7.60146, 47.79049], [7.60148, 47.78973], [7.60116, 47.78939]]], [[[7.59239, 47.79049], [7.59216, 47.79034], [7.59183, 47.78988], [7.5923, 47.79073], [7.59239, 47.79049]]], [[[7.59942, 47.79083], [7.59941, 47.79111], [7.60062, 47.79096], [7.59952, 47.79044], [7.59942, 47.79083]]], [[[7.60122, 47.79137], [7.60078, 47.79154], [7.60002, 47.79155], [7.60044, 47.79193], [7.60098, 47.79192], [7.60142, 47.79215], [7.60144, 47.7913], [7.60122, 47.79137]]], [[[7.60126, 47.79291], [7.60121, 47.79293], [7.60138, 47.79355], [7.6014, 47.79281], [7.60126, 47.79291]]], [[[7.60027, 47.79298], [7.59916, 47.79151], [7.59863, 47.79168], [7.59879, 47.79299], [7.60015, 47.79548], [7.60048, 47.79574], [7.60132, 47.79582], [7.60134, 47.79516], [7.60027, 47.79298]]], [[[7.59445, 47.79398], [7.59386, 47.79255], [7.59375, 47.79246], [7.59343, 47.79268], [7.59418, 47.79414], [7.59445, 47.79398]]], [[[7.59757, 47.79347], [7.59707, 47.79361], [7.59705, 47.79403], [7.59768, 47.79493], [7.59893, 47.79466], [7.59815, 47.79338], [7.59757, 47.79347]]], [[[7.59178, 47.79605], [7.59135, 47.79584], [7.59069, 47.79501], [7.59164, 47.79645], [7.59217, 47.79629], [7.59178, 47.79605]]], [[[7.6013, 47.79655], [7.60131, 47.79636], [7.60108, 47.79635], [7.60121, 47.79653], [7.6013, 47.79655]]], [[[7.59839, 47.79674], [7.59829, 47.79795], [7.59785, 47.79817], [7.59705, 47.79825], [7.59609, 47.79768], [7.59587, 47.7973], [7.59648, 47.79648], [7.59713, 47.79624], [7.59691, 47.79577], [7.59607, 47.79586], [7.5957, 47.79616], [7.59517, 47.79623], [7.5966, 47.79908], [7.59991, 47.7978], [7.59948, 47.79702], [7.6003, 47.79649], [7.59944, 47.79572], [7.59918, 47.79517], [7.59763, 47.79552], [7.59839, 47.79674]]], [[[7.59843, 47.80222], [7.59671, 47.80065], [7.59439, 47.79638], [7.59421, 47.79629], [7.59197, 47.79695], [7.59246, 47.79773], [7.59261, 47.7976], [7.59301, 47.79783], [7.59375, 47.79895], [7.59353, 47.79942], [7.59513, 47.80195], [7.59588, 47.80168], [7.59629, 47.80198], [7.59727, 47.80181], [7.597, 47.80198], [7.59726, 47.80247], [7.59615, 47.80291], [7.59643, 47.80322], [7.59605, 47.8034], [7.59721, 47.80523], [7.6011, 47.80418], [7.60111, 47.80374], [7.59843, 47.80222]]], [[[7.60053, 47.79816], [7.5969, 47.79959], [7.5972, 47.80008], [7.59806, 47.79942], [7.59726, 47.80016], [7.59752, 47.80054], [7.59889, 47.79987], [7.59874, 47.80016], [7.59907, 47.79999], [7.59822, 47.80044], [7.59885, 47.80117], [7.59936, 47.80139], [7.59902, 47.80175], [7.59874, 47.80168], [7.60113, 47.80305], [7.60123, 47.79922], [7.6005, 47.79953], [7.60032, 47.79989], [7.59982, 47.8001], [7.59924, 47.80018], [7.59938, 47.80008], [7.59881, 47.79959], [7.59894, 47.79923], [7.59941, 47.79899], [7.60003, 47.79903], [7.60046, 47.79938], [7.60123, 47.79915], [7.60126, 47.79798], [7.60083, 47.79795], [7.60053, 47.79816]]], [[[7.59477, 47.80368], [7.59497, 47.80347], [7.59489, 47.80335], [7.59472, 47.80361], [7.59421, 47.80313], [7.59471, 47.80307], [7.59438, 47.80254], [7.59397, 47.80275], [7.59322, 47.80231], [7.59272, 47.80245], [7.59286, 47.80285], [7.59391, 47.80296], [7.59458, 47.80361], [7.59449, 47.80375], [7.59399, 47.80331], [7.59351, 47.80324], [7.59345, 47.80294], [7.59298, 47.80331], [7.59236, 47.80324], [7.59153, 47.80218], [7.59131, 47.8017], [7.59181, 47.8018], [7.59212, 47.80167], [7.59237, 47.80188], [7.59335, 47.80183], [7.59315, 47.80161], [7.59226, 47.80171], [7.59219, 47.80143], [7.59333, 47.80154], [7.59348, 47.80122], [7.59242, 47.80095], [7.5927, 47.80084], [7.59292, 47.80022], [7.59102, 47.79722], [7.58926, 47.79772], [7.59145, 47.80119], [7.59239, 47.80104], [7.59157, 47.80131], [7.59133, 47.80158], [7.59073, 47.80165], [7.59121, 47.80184], [7.59195, 47.80326], [7.59337, 47.80347], [7.59549, 47.80434], [7.59496, 47.80386], [7.59514, 47.80375], [7.59477, 47.80368]]], [[[7.59012, 47.80338], [7.5914, 47.80331], [7.59046, 47.80173], [7.58646, 47.80289], [7.58724, 47.80414], [7.59012, 47.80338]]], [[[7.59084, 47.80386], [7.58755, 47.80463], [7.58842, 47.80602], [7.59163, 47.80509], [7.59084, 47.80386]]], [[[7.5952, 47.80529], [7.59518, 47.80525], [7.59495, 47.80533], [7.59508, 47.80536], [7.5952, 47.80529]]], [[[7.58677, 47.80556], [7.58721, 47.80548], [7.58681, 47.80484], [7.58587, 47.80511], [7.58637, 47.80584], [7.58677, 47.80556]]], [[[7.59461, 47.80549], [7.59408, 47.80565], [7.59439, 47.80596], [7.59485, 47.80582], [7.59461, 47.80549]]], [[[7.5905, 47.80726], [7.59283, 47.80656], [7.59218, 47.80552], [7.58977, 47.80622], [7.59008, 47.80746], [7.5905, 47.80726]]], [[[7.5951, 47.80691], [7.59612, 47.80676], [7.59612, 47.80627], [7.59483, 47.80656], [7.5951, 47.80691]]], [[[7.58946, 47.80765], [7.58988, 47.80753], [7.58972, 47.80729], [7.58934, 47.80746], [7.58946, 47.80765]]], [[[7.58841, 47.80747], [7.58778, 47.80679], [7.58469, 47.80767], [7.58428, 47.80803], [7.58479, 47.80845], [7.58482, 47.80926], [7.58299, 47.80985], [7.58243, 47.8104], [7.58256, 47.8105], [7.58433, 47.80992], [7.58879, 47.80796], [7.58841, 47.80747]]], [[[7.60078, 47.80827], [7.60034, 47.80835], [7.60066, 47.80883], [7.60098, 47.80867], [7.60078, 47.80827]]], [[[7.59461, 47.80872], [7.59463, 47.80858], [7.59467, 47.8085], [7.59453, 47.80853], [7.59461, 47.80872]]], [[[7.5946, 47.80889], [7.59431, 47.80921], [7.59437, 47.80933], [7.59486, 47.80923], [7.59462, 47.80876], [7.5946, 47.80889]]], [[[7.5908, 47.81006], [7.59083, 47.81002], [7.59059, 47.80966], [7.5908, 47.81006]]], [[[7.59057, 47.81243], [7.59041, 47.81181], [7.58964, 47.81172], [7.58924, 47.81114], [7.58941, 47.81063], [7.59013, 47.81041], [7.58904, 47.80849], [7.58473, 47.81038], [7.58287, 47.81099], [7.58478, 47.81398], [7.58564, 47.81444], [7.58597, 47.81435], [7.58715, 47.8156], [7.59101, 47.81502], [7.59121, 47.81453], [7.59188, 47.81435], [7.59144, 47.81416], [7.59057, 47.81312], [7.59057, 47.81243]]], [[[7.59616, 47.81084], [7.59631, 47.81083], [7.5962, 47.81069], [7.59601, 47.81074], [7.59616, 47.81084]]], [[[7.59128, 47.81134], [7.59131, 47.81126], [7.59117, 47.8112], [7.59119, 47.81128], [7.59128, 47.81134]]], [[[7.59316, 47.81302], [7.59344, 47.81339], [7.59424, 47.81335], [7.59374, 47.81322], [7.59342, 47.81289], [7.59316, 47.81302]]], [[[7.59498, 47.81352], [7.59494, 47.81353], [7.59504, 47.81361], [7.59498, 47.81352]]], [[[7.59543, 47.81426], [7.59546, 47.81425], [7.59512, 47.81374], [7.59517, 47.81391], [7.59543, 47.81426]]], [[[7.59257, 47.81458], [7.59272, 47.81484], [7.59494, 47.81469], [7.59475, 47.81454], [7.59339, 47.81469], [7.59274, 47.81429], [7.59212, 47.81437], [7.59257, 47.81458]]], [[[7.58737, 47.81784], [7.58844, 47.81765], [7.59051, 47.81838], [7.59273, 47.81844], [7.59121, 47.82035], [7.59507, 47.81911], [7.59116, 47.82041], [7.59056, 47.82185], [7.59498, 47.8219], [7.59578, 47.82136], [7.59576, 47.82082], [7.59607, 47.82036], [7.59681, 47.82008], [7.59801, 47.82019], [7.59854, 47.8207], [7.59845, 47.82128], [7.59746, 47.82194], [7.59867, 47.82195], [7.59933, 47.82149], [7.60064, 47.82113], [7.60074, 47.81731], [7.6005, 47.81696], [7.60061, 47.81662], [7.60006, 47.81643], [7.59981, 47.81601], [7.60004, 47.81562], [7.6008, 47.8153], [7.59985, 47.81524], [7.59766, 47.81517], [7.59413, 47.81528], [7.5908, 47.81559], [7.58602, 47.81638], [7.58688, 47.81794], [7.58737, 47.81784]], [[7.59964, 47.81548], [7.59982, 47.81531], [7.60005, 47.81529], [7.59979, 47.81552], [7.59964, 47.81548]]], [[[7.58479, 47.82215], [7.5833, 47.82261], [7.58184, 47.82356], [7.58103, 47.82482], [7.581, 47.82619], [7.58182, 47.82755], [7.58323, 47.82854], [7.5851, 47.82908], [7.58707, 47.82911], [7.58726, 47.82209], [7.58591, 47.82202], [7.58305, 47.82283], [7.58571, 47.82203], [7.58479, 47.82215]], [[7.58487, 47.82569], [7.58531, 47.82554], [7.58562, 47.82513], [7.58615, 47.82498], [7.58675, 47.8251], [7.5871, 47.82557], [7.58691, 47.82597], [7.58626, 47.8262], [7.58567, 47.82607], [7.58531, 47.82561], [7.58487, 47.82569]]]]}, "properties": {"kind": "pv", "area_km2": 25.25, "mw": 1262.7}}]}