{"type": "FeatureCollection", "features": [{"type": "Feature", "geometry": {"type": "MultiPolygon", "coordinates": [[[[24.48972, 46.49271], [24.48933, 46.49179], [24.48858, 46.49118], [24.48605, 46.49052], [24.48445, 46.48978], [24.48328, 46.48973], [24.48175, 46.4901], [24.48083, 46.49065], [24.48036, 46.49127], [24.47847, 46.48994], [24.47825, 46.48881], [24.4773, 46.4876], [24.47708, 46.49237], [24.47813, 46.49288], [24.47748, 46.49351], [24.4784, 46.49396], [24.47868, 46.49441], [24.47851, 46.49476], [24.47797, 46.49506], [24.47822, 46.49518], [24.47868, 46.49479], [24.47941, 46.4948], [24.48013, 46.49455], [24.48097, 46.4948], [24.4813, 46.49516], [24.48121, 46.49552], [24.48003, 46.49606], [24.4806, 46.49635], [24.48125, 46.49581], [24.48206, 46.49581], [24.48199, 46.49556], [24.48401, 46.49633], [24.48511, 46.49714], [24.48504, 46.49751], [24.48443, 46.49815], [24.48529, 46.49794], [24.4856, 46.49755], [24.48635, 46.4974], [24.48668, 46.49703], [24.48782, 46.49754], [24.48835, 46.49747], [24.48858, 46.49779], [24.49431, 46.49544], [24.49737, 46.49586], [24.49942, 46.49649], [24.49977, 46.49641], [24.5003, 46.49575], [24.49809, 46.49525], [24.49893, 46.49465], [24.49875, 46.49453], [24.5022, 46.49423], [24.49875, 46.49306], [24.4963, 46.49292], [24.49488, 46.49323], [24.48966, 46.49536], [24.48882, 46.49494], [24.48972, 46.49401], [24.48972, 46.49271]], [[24.48306, 46.49304], [24.48277, 46.4929], [24.48261, 46.49239], [24.48296, 46.49175], [24.48368, 46.49155], [24.48401, 46.4917], [24.48415, 46.49234], [24.48484, 46.49221], [24.48523, 46.49248], [24.48562, 46.49233], [24.48692, 46.49262], [24.48721, 46.49339], [24.48635, 46.4938], [24.48603, 46.49373], [24.48577, 46.49339], [24.48373, 46.49386], [24.48306, 46.49304]]], [[[24.47566, 46.49355], [24.47533, 46.49376], [24.47556, 46.49386], [24.47593, 46.49347], [24.47566, 46.49355]]], [[[24.46398, 46.49386], [24.4644, 46.49349], [24.464, 46.49333], [24.46398, 46.49386]]], [[[24.47559, 46.49454], [24.47449, 46.49402], [24.4738, 46.49466], [24.47307, 46.49475], [24.4723, 46.49429], [24.47247, 46.4937], [24.47171, 46.49366], [24.47096, 46.49443], [24.47921, 46.49806], [24.48003, 46.49717], [24.4805, 46.49697], [24.47559, 46.49454]]], [[[24.46941, 46.49444], [24.46879, 46.49487], [24.46838, 46.49463], [24.46776, 46.49469], [24.46623, 46.49419], [24.46574, 46.49454], [24.46521, 46.49458], [24.46397, 46.49409], [24.4638, 46.49773], [24.46728, 46.49547], [24.46892, 46.49558], [24.46857, 46.49736], [24.46943, 46.49752], [24.46958, 46.49781], [24.46942, 46.49809], [24.46895, 46.49824], [24.46522, 46.49814], [24.46524, 46.49894], [24.46564, 46.4989], [24.46609, 46.49911], [24.46612, 46.50022], [24.4664, 46.49991], [24.46713, 46.49978], [24.46677, 46.49905], [24.46724, 46.49859], [24.46978, 46.49873], [24.47029, 46.49896], [24.47055, 46.49992], [24.4703, 46.50058], [24.46977, 46.50078], [24.46869, 46.50069], [24.46796, 46.50097], [24.46886, 46.50106], [24.46946, 46.50139], [24.4692, 46.50279], [24.4698, 46.50298], [24.46996, 46.50255], [24.47056, 46.50231], [24.47144, 46.50259], [24.47167, 46.50237], [24.4765, 46.50076], [24.47732, 46.50115], [24.48153, 46.49972], [24.46941, 46.49444]]], [[[24.46603, 46.50193], [24.46442, 46.50076], [24.46417, 46.50016], [24.46421, 46.4993], [24.46373, 46.49929], [24.46371, 46.49969], [24.4643, 46.50065], [24.46489, 46.5014], [24.46576, 46.50197], [24.46694, 46.50228], [24.46603, 46.50193]]], [[[24.4636, 46.5021], [24.46349, 46.50429], [24.46605, 46.50559], [24.46345, 46.50696], [24.46338, 46.50674], [24.46322, 46.51023], [24.46361, 46.50985], [24.46471, 46.51038], [24.46615, 46.51052], [24.46758, 46.51023], [24.46839, 46.5098], [24.46843, 46.51059], [24.46642, 46.51122], [24.46544, 46.51226], [24.46533, 46.51309], [24.46587, 46.51533], [24.46624, 46.51594], [24.46703, 46.51654], [24.46613, 46.51692], [24.46536, 46.51762], [24.4651, 46.51651], [24.46527, 46.51355], [24.46443, 46.51258], [24.46313, 46.51213], [24.46267, 46.52193], [24.46423, 46.52349], [24.46537, 46.52418], [24.4668, 46.52469], [24.46731, 46.52543], [24.46792, 46.52591], [24.46812, 46.52521], [24.46889, 46.52527], [24.46872, 46.52596], [24.46798, 46.52595], [24.47066, 46.52766], [24.47101, 46.52699], [24.46952, 46.52676], [24.46935, 46.52639], [24.46998, 46.52599], [24.4713, 46.52643], [24.47269, 46.52358], [24.46962, 46.52285], [24.46943, 46.52262], [24.46959, 46.52219], [24.46712, 46.52072], [24.46755, 46.51873], [24.46793, 46.51827], [24.46861, 46.51824], [24.47051, 46.51853], [24.47228, 46.51859], [24.47371, 46.51898], [24.47413, 46.5193], [24.47454, 46.51521], [24.47338, 46.51481], [24.47251, 46.51414], [24.4718, 46.51281], [24.4719, 46.51198], [24.4712, 46.51097], [24.47102, 46.50938], [24.47169, 46.50774], [24.47146, 46.50738], [24.47177, 46.50627], [24.47165, 46.50543], [24.4705, 46.5044], [24.46904, 46.50371], [24.46624, 46.50351], [24.46361, 46.50183], [24.4636, 46.5021]], [[24.46571, 46.50868], [24.46541, 46.50838], [24.4655, 46.50814], [24.46696, 46.50731], [24.46762, 46.50734], [24.46777, 46.50768], [24.46744, 46.50799], [24.46634, 46.5086], [24.46571, 46.50868]], [[24.46801, 46.51274], [24.46889, 46.51239], [24.46969, 46.51252], [24.47021, 46.5146], [24.46999, 46.51492], [24.46902, 46.51515], [24.46851, 46.51499], [24.46801, 46.51274]], [[24.47166, 46.51635], [24.47198, 46.51637], [24.47194, 46.51675], [24.47086, 46.51667], [24.47166, 46.51635]]], [[[24.48895, 46.51217], [24.4889, 46.5118], [24.48741, 46.51155], [24.48524, 46.51051], [24.4839, 46.50963], [24.48301, 46.5098], [24.48301, 46.51238], [24.48403, 46.51322], [24.48338, 46.51472], [24.483, 46.51486], [24.48191, 46.51466], [24.48069, 46.51769], [24.47908, 46.51779], [24.47706, 46.51766], [24.47745, 46.51796], [24.47748, 46.51903], [24.47717, 46.51929], [24.47761, 46.52009], [24.47748, 46.52036], [24.47482, 46.52026], [24.47459, 46.52141], [24.4713, 46.52803], [24.47274, 46.52863], [24.47357, 46.52932], [24.47537, 46.52936], [24.47521, 46.53274], [24.47537, 46.53286], [24.47626, 46.53251], [24.47629, 46.53209], [24.48266, 46.53216], [24.4823, 46.53122], [24.48587, 46.53078], [24.48539, 46.52889], [24.48492, 46.52837], [24.48505, 46.52748], [24.48539, 46.52729], [24.48582, 46.52757], [24.48674, 46.52752], [24.48716, 46.52783], [24.48796, 46.53235], [24.49196, 46.53146], [24.49348, 46.53149], [24.49508, 46.53206], [24.49551, 46.52989], [24.49485, 46.52948], [24.49355, 46.52926], [24.49334, 46.52892], [24.4935, 46.5285], [24.49414, 46.52827], [24.49496, 46.52753], [24.4959, 46.52743], [24.49615, 46.52719], [24.49933, 46.52684], [24.49972, 46.52702], [24.50045, 46.52694], [24.50018, 46.5262], [24.50026, 46.52558], [24.50216, 46.52261], [24.50241, 46.52092], [24.50181, 46.51997], [24.49882, 46.51793], [24.49708, 46.51733], [24.49519, 46.51604], [24.49463, 46.51592], [24.49398, 46.51549], [24.49302, 46.51434], [24.49174, 46.51395], [24.49001, 46.5126], [24.48952, 46.51255], [24.48895, 46.51217]], [[24.48118, 46.52994], [24.47907, 46.53086], [24.47639, 46.53083], [24.4758, 46.5287], [24.47525, 46.52804], [24.47422, 46.52732], [24.47675, 46.52225], [24.47815, 46.52217], [24.47923, 46.52174], [24.48017, 46.52071], [24.48016, 46.51958], [24.48183, 46.51935], [24.48297, 46.51868], [24.48389, 46.51661], [24.48498, 46.51621], [24.48572, 46.51559], [24.48668, 46.51334], [24.48845, 46.51423], [24.49017, 46.51544], [24.49108, 46.5158], [24.49219, 46.51686], [24.49571, 46.5189], [24.49753, 46.52056], [24.49949, 46.52182], [24.49949, 46.52205], [24.4976, 46.52534], [24.49384, 46.52528], [24.49192, 46.52567], [24.49076, 46.52621], [24.48934, 46.52516], [24.48753, 46.5246], [24.48533, 46.5246], [24.48348, 46.52509], [24.48174, 46.52612], [24.48082, 46.52733], [24.48066, 46.5287], [24.48118, 46.52994]]], [[[24.47592, 46.51752], [24.47597, 46.51752], [24.47508, 46.51734], [24.47507, 46.51742], [24.47592, 46.51752]]], [[[24.47352, 46.52019], [24.47356, 46.52063], [24.474, 46.52062], [24.47403, 46.52026], [24.47352, 46.52019]]], [[[24.47346, 46.52152], [24.47242, 46.52141], [24.47211, 46.52109], [24.47217, 46.52067], [24.47043, 46.52027], [24.47002, 46.52056], [24.47061, 46.52078], [24.47068, 46.52115], [24.47353, 46.52187], [24.47369, 46.52155], [24.47346, 46.52152]]], [[[24.47129, 46.5287], [24.46807, 46.5268], [24.46684, 46.5259], [24.46637, 46.52526], [24.46611, 46.52553], [24.46719, 46.52619], [24.46712, 46.52655], [24.46666, 46.52657], [24.46539, 46.52586], [24.46527, 46.52548], [24.46575, 46.52493], [24.46394, 46.52406], [24.46263, 46.52295], [24.46251, 46.5254], [24.46284, 46.52559], [24.4631, 46.52645], [24.46375, 46.52707], [24.4656, 46.52806], [24.46681, 46.52827], [24.46839, 46.52921], [24.47262, 46.5293], [24.47129, 46.5287]]], [[[24.47908, 46.53534], [24.47832, 46.53556], [24.47711, 46.53512], [24.47595, 46.53506], [24.47622, 46.53309], [24.476, 46.53319], [24.47515, 46.53405], [24.47495, 46.53835], [24.47575, 46.53837], [24.47589, 46.53811], [24.47712, 46.5384], [24.47943, 46.53845], [24.48107, 46.53802], [24.48304, 46.5382], [24.4851, 46.53784], [24.48645, 46.53861], [24.49016, 46.53869], [24.49048, 46.53849], [24.49078, 46.5387], [24.49715, 46.53884], [24.49676, 46.53831], [24.49572, 46.53868], [24.49532, 46.53863], [24.49527, 46.53827], [24.49591, 46.53801], [24.4934, 46.53728], [24.49251, 46.53751], [24.49224, 46.53722], [24.49453, 46.53607], [24.49721, 46.53667], [24.49769, 46.53592], [24.49504, 46.53467], [24.49503, 46.53426], [24.49097, 46.53316], [24.48979, 46.53534], [24.48992, 46.53567], [24.4895, 46.53583], [24.48933, 46.53642], [24.48879, 46.53698], [24.48885, 46.53724], [24.48842, 46.53759], [24.48282, 46.5354], [24.47917, 46.53522], [24.47908, 46.53534]], [[24.49217, 46.5341], [24.49259, 46.53397], [24.49261, 46.53502], [24.4923, 46.53517], [24.49201, 46.53463], [24.49217, 46.5341]]], [[[24.50342, 46.48621], [24.50844, 46.48918], [24.50908, 46.48983], [24.50966, 46.49093], [24.50956, 46.49415], [24.50823, 46.50449], [24.50853, 46.50557], [24.50968, 46.5064], [24.51585, 46.50883], [24.51832, 46.51001], [24.51899, 46.51007], [24.51938, 46.5104], [24.51922, 46.51093], [24.51851, 46.51118], [24.51589, 46.51368], [24.51647, 46.51409], [24.51677, 46.5138], [24.51668, 46.51315], [24.51747, 46.51274], [24.51842, 46.51189], [24.51917, 46.51186], [24.52045, 46.51257], [24.52159, 46.51149], [24.522, 46.5117], [24.52276, 46.51111], [24.5233, 46.51108], [24.52375, 46.51127], [24.52492, 46.51081], [24.52277, 46.50874], [24.52279, 46.50832], [24.5234, 46.50788], [24.52422, 46.50787], [24.52465, 46.50818], [24.52471, 46.50856], [24.52616, 46.509], [24.5277, 46.50843], [24.52813, 46.5081], [24.5293, 46.50788], [24.52995, 46.5073], [24.5317, 46.50706], [24.53214, 46.50671], [24.53306, 46.50553], [24.53298, 46.50528], [24.53333, 46.50498], [24.53349, 46.50436], [24.53332, 46.50337], [24.53231, 46.50182], [24.53256, 46.5009], [24.5344, 46.50051], [24.53655, 46.50061], [24.53948, 46.49994], [24.54076, 46.49986], [24.54101, 46.49972], [24.54087, 46.49933], [24.54196, 46.49856], [24.5421, 46.49532], [24.5412, 46.49612], [24.54068, 46.49703], [24.53888, 46.4984], [24.53841, 46.4993], [24.53674, 46.49969], [24.53554, 46.499], [24.5342, 46.49885], [24.53157, 46.4995], [24.5307, 46.49996], [24.53016, 46.50062], [24.53003, 46.50136], [24.53031, 46.50209], [24.53104, 46.50272], [24.53116, 46.50406], [24.52868, 46.50446], [24.52649, 46.50536], [24.52543, 46.50502], [24.52397, 46.50484], [24.52156, 46.5052], [24.52034, 46.50579], [24.51937, 46.50651], [24.51848, 46.50806], [24.51241, 46.50488], [24.51066, 46.50432], [24.51217, 46.49202], [24.512, 46.49055], [24.51126, 46.48913], [24.50988, 46.48782], [24.50509, 46.48502], [24.50198, 46.48495], [24.50342, 46.48621]]], [[[24.50284, 46.48685], [24.50247, 46.48685], [24.50206, 46.48658], [24.50217, 46.48619], [24.50093, 46.48492], [24.49818, 46.48486], [24.49934, 46.48634], [24.49947, 46.48707], [24.50005, 46.48779], [24.50126, 46.48848], [24.50251, 46.48871], [24.50582, 46.4906], [24.50643, 46.49139], [24.50622, 46.49435], [24.5055, 46.49501], [24.5052, 46.4958], [24.50525, 46.49675], [24.50587, 46.4976], [24.50547, 46.50077], [24.502, 46.50037], [24.50299, 46.49938], [24.50397, 46.49783], [24.50412, 46.49681], [24.50374, 46.49565], [24.50357, 46.49579], [24.50315, 46.49563], [24.50277, 46.49586], [24.50176, 46.49594], [24.50218, 46.49627], [24.50244, 46.49689], [24.50193, 46.49723], [24.5006, 46.4976], [24.50033, 46.49796], [24.49893, 46.49863], [24.49769, 46.49846], [24.49641, 46.498], [24.49621, 46.49766], [24.4965, 46.49709], [24.49616, 46.49672], [24.4963, 46.49629], [24.49569, 46.49613], [24.49338, 46.49795], [24.49385, 46.49819], [24.49451, 46.49774], [24.49501, 46.49798], [24.49549, 46.49775], [24.49573, 46.49823], [24.4955, 46.49924], [24.49575, 46.49935], [24.49566, 46.49959], [24.49644, 46.49975], [24.49686, 46.50031], [24.49853, 46.50044], [24.49983, 46.50085], [24.49853, 46.50187], [24.49855, 46.5022], [24.49732, 46.503], [24.4977, 46.50321], [24.49793, 46.50303], [24.49815, 46.50316], [24.49869, 46.50298], [24.4991, 46.50323], [24.49935, 46.5027], [24.49986, 46.50266], [24.50035, 46.5023], [24.50303, 46.50366], [24.5035, 46.50349], [24.50402, 46.50356], [24.5045, 46.50388], [24.50486, 46.50466], [24.50447, 46.50525], [24.50378, 46.50537], [24.50407, 46.50569], [24.50403, 46.50618], [24.50456, 46.5067], [24.50488, 46.50684], [24.50635, 46.50546], [24.50757, 46.50597], [24.50792, 46.50667], [24.50916, 46.50722], [24.50991, 46.50728], [24.51447, 46.50962], [24.51468, 46.50996], [24.51453, 46.51031], [24.51364, 46.51114], [24.51294, 46.51127], [24.51219, 46.51201], [24.51496, 46.51324], [24.51743, 46.51113], [24.51781, 46.51058], [24.51423, 46.50889], [24.51383, 46.50912], [24.51321, 46.50892], [24.51318, 46.50848], [24.50917, 46.50691], [24.5077, 46.50582], [24.50734, 46.50489], [24.50746, 46.5035], [24.50695, 46.50344], [24.50677, 46.5032], [24.5069, 46.5027], [24.50759, 46.50264], [24.50839, 46.49654], [24.50788, 46.4964], [24.50785, 46.49591], [24.50805, 46.4957], [24.50849, 46.49567], [24.50879, 46.49104], [24.50829, 46.49014], [24.50749, 46.4894], [24.50284, 46.48685]]], [[[24.49468, 46.49623], [24.49491, 46.49598], [24.49421, 46.49601], [24.49333, 46.49638], [24.49402, 46.49668], [24.49468, 46.49623]]], [[[24.49276, 46.49762], [24.49348, 46.49708], [24.4926, 46.49669], [24.49103, 46.49736], [24.49224, 46.49793], [24.49276, 46.49762]]], [[[24.49216, 46.50934], [24.49264, 46.5096], [24.49365, 46.50937], [24.49496, 46.50942], [24.49641, 46.5099], [24.49779, 46.5097], [24.49814, 46.50985], [24.49861, 46.51053], [24.49984, 46.50959], [24.50015, 46.50877], [24.49997, 46.50837], [24.49934, 46.50789], [24.49758, 46.50723], [24.49597, 46.50711], [24.4913, 46.50468], [24.48855, 46.5056], [24.48786, 46.50633], [24.49241, 46.50883], [24.4919, 46.50921], [24.49216, 46.50934]]], [[[24.48196, 46.50851], [24.48242, 46.50878], [24.48262, 46.50837], [24.4833, 46.50834], [24.4869, 46.51025], [24.48756, 46.51049], [24.4886, 46.51054], [24.4895, 46.51094], [24.49097, 46.5095], [24.49011, 46.50938], [24.48608, 46.5072], [24.4839, 46.50744], [24.48196, 46.50851]]], [[[24.50113, 46.50925], [24.50106, 46.50948], [24.50109, 46.50949], [24.50113, 46.50931], [24.50113, 46.50922], [24.50113, 46.50925]]], [[[24.50158, 46.5256], [24.50164, 46.52628], [24.50216, 46.52678], [24.50377, 46.52772], [24.50551, 46.52816], [24.50623, 46.52875], [24.50713, 46.53052], [24.50733, 46.53323], [24.50818, 46.5344], [24.50922, 46.53463], [24.51045, 46.53461], [24.51238, 46.53373], [24.51408, 46.53328], [24.51769, 46.53356], [24.52309, 46.53598], [24.52461, 46.53725], [24.52579, 46.53947], [24.52707, 46.53949], [24.52719, 46.53674], [24.52686, 46.53627], [24.52494, 46.53466], [24.52211, 46.53333], [24.52344, 46.53283], [24.52438, 46.53218], [24.52734, 46.53352], [24.52749, 46.53011], [24.52665, 46.52958], [24.52669, 46.52905], [24.52374, 46.52758], [24.52234, 46.52756], [24.52245, 46.52782], [24.52324, 46.52829], [24.52317, 46.52883], [24.52248, 46.5291], [24.52173, 46.52889], [24.52182, 46.52922], [24.52095, 46.5304], [24.52014, 46.53084], [24.5196, 46.53057], [24.51732, 46.53269], [24.51427, 46.53113], [24.51671, 46.52883], [24.51659, 46.52827], [24.51603, 46.52849], [24.51539, 46.52838], [24.51512, 46.5286], [24.51377, 46.528], [24.51194, 46.52845], [24.51159, 46.52887], [24.51059, 46.52915], [24.51011, 46.52899], [24.50935, 46.5282], [24.5072, 46.52816], [24.50641, 46.52785], [24.50632, 46.52716], [24.50659, 46.5264], [24.50728, 46.52586], [24.50837, 46.52574], [24.50886, 46.52588], [24.50945, 46.52644], [24.50918, 46.52703], [24.50978, 46.52728], [24.51066, 46.52657], [24.51019, 46.52613], [24.50952, 46.52476], [24.51043, 46.52467], [24.51072, 46.52425], [24.51055, 46.52303], [24.51095, 46.52249], [24.51218, 46.52228], [24.51268, 46.52246], [24.51291, 46.52284], [24.51393, 46.52262], [24.51554, 46.52315], [24.51526, 46.52296], [24.51552, 46.52267], [24.51496, 46.52175], [24.51271, 46.52087], [24.51234, 46.52053], [24.51253, 46.52034], [24.51156, 46.52107], [24.51115, 46.52111], [24.51046, 46.52089], [24.51055, 46.52158], [24.50959, 46.52249], [24.50903, 46.52264], [24.50722, 46.52192], [24.50435, 46.52036], [24.50385, 46.52028], [24.50404, 46.52096], [24.50349, 46.52188], [24.50317, 46.52311], [24.50158, 46.5256]], [[24.51391, 46.53145], [24.51371, 46.53147], [24.51416, 46.53124], [24.51459, 46.53145], [24.51391, 46.53145]], [[24.50397, 46.52663], [24.50336, 46.52646], [24.50311, 46.52608], [24.50329, 46.5255], [24.50394, 46.52524], [24.50465, 46.52538], [24.50496, 46.52579], [24.50473, 46.52642], [24.50397, 46.52663]], [[24.51096, 46.53142], [24.51166, 46.53175], [24.51316, 46.53157], [24.51414, 46.53178], [24.51366, 46.53225], [24.51137, 46.53351], [24.51011, 46.53366], [24.50904, 46.53299], [24.5089, 46.53227], [24.50957, 46.53149], [24.51096, 46.53142]]], [[[24.4968, 46.53484], [24.49627, 46.53456], [24.49609, 46.53451], [24.4968, 46.53484]]], [[[24.49913, 46.53869], [24.49945, 46.53889], [24.5013, 46.53893], [24.50084, 46.53851], [24.50026, 46.53867], [24.49992, 46.53846], [24.50008, 46.53818], [24.50101, 46.53791], [24.5023, 46.53895], [24.5031, 46.53893], [24.50003, 46.53672], [24.49895, 46.53746], [24.49835, 46.53713], [24.49985, 46.53849], [24.49913, 46.53869]]], [[[24.50456, 46.51005], [24.50441, 46.51002], [24.5042, 46.50994], [24.5048, 46.5102], [24.50456, 46.51005]]], [[[24.51427, 46.51384], [24.51413, 46.51371], [24.51334, 46.51332], [24.51427, 46.51384]]], [[[24.51506, 46.51379], [24.51507, 46.5138], [24.51509, 46.51379], [24.51507, 46.51378], [24.51506, 46.51379]]], [[[24.51534, 46.51432], [24.51531, 46.51432], [24.51517, 46.51433], [24.51534, 46.51443], [24.51534, 46.51432]]], [[[24.51244, 46.51371], [24.51262, 46.51393], [24.51179, 46.51473], [24.51188, 46.51489], [24.51483, 46.516], [24.51529, 46.51652], [24.51205, 46.5199], [24.51244, 46.5198], [24.51315, 46.51995], [24.51383, 46.51928], [24.51441, 46.51957], [24.51549, 46.51843], [24.51609, 46.51808], [24.51823, 46.51898], [24.51967, 46.51752], [24.51684, 46.51616], [24.51637, 46.51569], [24.51232, 46.51346], [24.51244, 46.51371]]], [[[24.51489, 46.52057], [24.51626, 46.52127], [24.51673, 46.52166], [24.51656, 46.52186], [24.51794, 46.52253], [24.51776, 46.52271], [24.51804, 46.52287], [24.51873, 46.52256], [24.51754, 46.52151], [24.51767, 46.52105], [24.51866, 46.52037], [24.51784, 46.52007], [24.51785, 46.51945], [24.51762, 46.51935], [24.51626, 46.52058], [24.51572, 46.52062], [24.51493, 46.52031], [24.51473, 46.52049], [24.51489, 46.52057]]], [[[24.51159, 46.52635], [24.51163, 46.52634], [24.51106, 46.52639], [24.51123, 46.52649], [24.51159, 46.52635]]], [[[24.508, 46.52709], [24.50797, 46.5271], [24.50799, 46.52718], [24.50812, 46.52711], [24.508, 46.52709]]], [[[24.51311, 46.53461], [24.51104, 46.53552], [24.50891, 46.53559], [24.50751, 46.53519], [24.5073, 46.53548], [24.50845, 46.53625], [24.50739, 46.5379], [24.50793, 46.53849], [24.50901, 46.5391], [24.51174, 46.53916], [24.51103, 46.5382], [24.51, 46.53743], [24.5121, 46.53722], [24.51433, 46.53627], [24.51514, 46.53618], [24.51647, 46.5365], [24.51579, 46.53686], [24.51522, 46.5375], [24.51516, 46.53872], [24.51427, 46.53922], [24.51897, 46.53932], [24.51755, 46.53836], [24.51747, 46.53809], [24.51626, 46.53816], [24.51539, 46.53769], [24.51633, 46.5369], [24.5175, 46.53677], [24.51808, 46.53796], [24.51845, 46.53825], [24.51887, 46.53789], [24.51933, 46.53818], [24.51972, 46.53784], [24.52016, 46.53817], [24.51941, 46.53886], [24.52012, 46.53934], [24.52298, 46.5394], [24.52312, 46.53896], [24.52375, 46.53882], [24.52269, 46.53714], [24.51838, 46.53508], [24.51658, 46.53452], [24.51518, 46.53432], [24.51311, 46.53461]]], [[[24.53742, 46.50353], [24.53736, 46.50375], [24.53765, 46.50384], [24.5388, 46.50328], [24.54036, 46.50292], [24.54089, 46.50399], [24.54168, 46.50469], [24.54179, 46.50163], [24.54094, 46.50117], [24.53819, 46.502], [24.53777, 46.50336], [24.53742, 46.50353]]], [[[24.53923, 46.50724], [24.53936, 46.50712], [24.53953, 46.50684], [24.53908, 46.50684], [24.53923, 46.50724]]], [[[24.53868, 46.50771], [24.53733, 46.5079], [24.53666, 46.5082], [24.53852, 46.50794], [24.5384, 46.50786], [24.53868, 46.50771]]], [[[24.53313, 46.50819], [24.53315, 46.5082], [24.53312, 46.50818], [24.53313, 46.50819]]], [[[24.53349, 46.50848], [24.53407, 46.50954], [24.53458, 46.50977], [24.53398, 46.5086], [24.53349, 46.50848]]], [[[24.51863, 46.51057], [24.51862, 46.51055], [24.5186, 46.51056], [24.5186, 46.51057], [24.51863, 46.51057]]], [[[24.53286, 46.51115], [24.53408, 46.51179], [24.53544, 46.51216], [24.53784, 46.51223], [24.53792, 46.51082], [24.53566, 46.51031], [24.53524, 46.51099], [24.53404, 46.51096], [24.53362, 46.51073], [24.53355, 46.51023], [24.53322, 46.51001], [24.53253, 46.50995], [24.53183, 46.5095], [24.53109, 46.50938], [24.53003, 46.50955], [24.52794, 46.51018], [24.5267, 46.51106], [24.52675, 46.51195], [24.52706, 46.51246], [24.52697, 46.51396], [24.52742, 46.51461], [24.52731, 46.51511], [24.52763, 46.51561], [24.52824, 46.51506], [24.53016, 46.51464], [24.53174, 46.51456], [24.53272, 46.51473], [24.53334, 46.51522], [24.53442, 46.5154], [24.53526, 46.51586], [24.53767, 46.5163], [24.53844, 46.5168], [24.53884, 46.51747], [24.53875, 46.51823], [24.5383, 46.5188], [24.5376, 46.51916], [24.53855, 46.51905], [24.54101, 46.51948], [24.54115, 46.51634], [24.54028, 46.5181], [24.54006, 46.51804], [24.53995, 46.51676], [24.53882, 46.51554], [24.53749, 46.5149], [24.53733, 46.51432], [24.5356, 46.51418], [24.53319, 46.51337], [24.53142, 46.51187], [24.53205, 46.51134], [24.53124, 46.51078], [24.53108, 46.51043], [24.53206, 46.51037], [24.53286, 46.51115]]], [[[24.52064, 46.51325], [24.52095, 46.51303], [24.52069, 46.51291], [24.5207, 46.51299], [24.52064, 46.51325]]], [[[24.51887, 46.51476], [24.51945, 46.51422], [24.51839, 46.51504], [24.51874, 46.51522], [24.51887, 46.51476]]], [[[24.52096, 46.52102], [24.52138, 46.52065], [24.52222, 46.52055], [24.52232, 46.52005], [24.52306, 46.51975], [24.52367, 46.5198], [24.52454, 46.52041], [24.52473, 46.52033], [24.52291, 46.51935], [24.52229, 46.51958], [24.52154, 46.51933], [24.52062, 46.52033], [24.51933, 46.52064], [24.52031, 46.52192], [24.52085, 46.52186], [24.52107, 46.52167], [24.52096, 46.52102]]], [[[24.51763, 46.52752], [24.51841, 46.52757], [24.51911, 46.52788], [24.52039, 46.52788], [24.52068, 46.52733], [24.52002, 46.52672], [24.51778, 46.52683], [24.51603, 46.52631], [24.51608, 46.52675], [24.51559, 46.52714], [24.51655, 46.52751], [24.51682, 46.52802], [24.51763, 46.52752]]]]}, "properties": {"kind": "pv", "area_km2": 10.54, "mw": 527.1}}]}