{"type": "FeatureCollection", "features": [{"type": "Feature", "geometry": {"type": "MultiPolygon", "coordinates": [[[[24.45303, 46.4657], [24.45339, 46.46449], [24.45313, 46.46281], [24.45439, 46.46198], [24.45509, 46.46107], [24.45548, 46.45962], [24.45503, 46.45784], [24.45597, 46.45693], [24.45268, 46.45686], [24.45226, 46.46585], [24.45001, 46.4658], [24.4491, 46.46668], [24.44869, 46.46816], [24.46243, 46.47576], [24.46479, 46.47686], [24.46722, 46.47614], [24.47247, 46.47541], [24.48246, 46.47156], [24.4828, 46.47138], [24.48224, 46.47099], [24.48166, 46.47017], [24.48137, 46.46912], [24.48212, 46.46868], [24.48409, 46.46852], [24.48553, 46.46793], [24.48715, 46.46717], [24.4871, 46.46674], [24.48775, 46.46638], [24.48837, 46.46638], [24.48869, 46.46659], [24.48855, 46.46745], [24.49098, 46.46843], [24.49138, 46.46914], [24.49144, 46.46989], [24.49226, 46.46917], [24.49304, 46.46897], [24.49337, 46.46824], [24.49379, 46.46798], [24.49442, 46.46807], [24.49552, 46.46883], [24.49659, 46.46736], [24.4979, 46.46692], [24.49981, 46.46544], [24.50155, 46.46519], [24.5025, 46.46544], [24.5031, 46.46526], [24.50357, 46.46496], [24.50398, 46.46396], [24.5039, 46.46347], [24.50275, 46.46311], [24.50249, 46.46253], [24.50237, 46.46095], [24.50166, 46.45852], [24.49908, 46.45801], [24.49823, 46.45769], [24.49398, 46.45504], [24.49215, 46.45655], [24.49144, 46.45728], [24.49134, 46.4577], [24.49094, 46.45769], [24.49, 46.4571], [24.48875, 46.45764], [24.4883, 46.45731], [24.48647, 46.45813], [24.48601, 46.45808], [24.48598, 46.45772], [24.48536, 46.45744], [24.48531, 46.45714], [24.48828, 46.45526], [24.48932, 46.4541], [24.48929, 46.45362], [24.4878, 46.45141], [24.48662, 46.4511], [24.48733, 46.44974], [24.48559, 46.44932], [24.48415, 46.44856], [24.48123, 46.44849], [24.48316, 46.44934], [24.48354, 46.44997], [24.48429, 46.4505], [24.48423, 46.45129], [24.4825, 46.45117], [24.48051, 46.45157], [24.4793, 46.45219], [24.47824, 46.45324], [24.47974, 46.45345], [24.48067, 46.45437], [24.48211, 46.45452], [24.48267, 46.45414], [24.48339, 46.45423], [24.48369, 46.45453], [24.48362, 46.45495], [24.48442, 46.45514], [24.48499, 46.45573], [24.48461, 46.45587], [24.4833, 46.45553], [24.48342, 46.45517], [24.48338, 46.45515], [24.48328, 46.45554], [24.48479, 46.45595], [24.48489, 46.45686], [24.48243, 46.45606], [24.48081, 46.45602], [24.47863, 46.4538], [24.478, 46.45368], [24.47779, 46.45464], [24.478, 46.4557], [24.4793, 46.45719], [24.48103, 46.45797], [24.48322, 46.45821], [24.48432, 46.45926], [24.48576, 46.45978], [24.48711, 46.45973], [24.48871, 46.45914], [24.48959, 46.45906], [24.49091, 46.45938], [24.49226, 46.45923], [24.49261, 46.46095], [24.49337, 46.46184], [24.49446, 46.46254], [24.4958, 46.46299], [24.49824, 46.46333], [24.49988, 46.46334], [24.50106, 46.46313], [24.5012, 46.46337], [24.49852, 46.46383], [24.49622, 46.46542], [24.4946, 46.46615], [24.49316, 46.46619], [24.49191, 46.46662], [24.49138, 46.46648], [24.49079, 46.46546], [24.4898, 46.46482], [24.48823, 46.46451], [24.48669, 46.46469], [24.48536, 46.46533], [24.48419, 46.46634], [24.48314, 46.46677], [24.48183, 46.46683], [24.48086, 46.46707], [24.4793, 46.46797], [24.47886, 46.4685], [24.47863, 46.46933], [24.47923, 46.47091], [24.47537, 46.4724], [24.4735, 46.47238], [24.46747, 46.47319], [24.46426, 46.47461], [24.46027, 46.47245], [24.46195, 46.47287], [24.46393, 46.4729], [24.46534, 46.47259], [24.46691, 46.47175], [24.46789, 46.47056], [24.46818, 46.46947], [24.46785, 46.46811], [24.46679, 46.46695], [24.46518, 46.46616], [24.46286, 46.4658], [24.46091, 46.46603], [24.45923, 46.46675], [24.45808, 46.46787], [24.45762, 46.46925], [24.45796, 46.4706], [24.45898, 46.47174], [24.4513, 46.46748], [24.45303, 46.4657]], [[24.46329, 46.46998], [24.46249, 46.46991], [24.46203, 46.46965], [24.46193, 46.46923], [24.46229, 46.46884], [24.46328, 46.46883], [24.46378, 46.46907], [24.46383, 46.46962], [24.46329, 46.46998]], [[24.49381, 46.45688], [24.49374, 46.45675], [24.49409, 46.45686], [24.49386, 46.457], [24.49381, 46.45688]], [[24.49839, 46.46014], [24.49681, 46.46006], [24.49653, 46.45969], [24.4967, 46.45921], [24.49798, 46.45894], [24.49862, 46.45917], [24.49922, 46.45905], [24.49977, 46.45922], [24.50002, 46.45985], [24.49975, 46.46028], [24.49895, 46.46041], [24.49839, 46.46014]]], [[[24.44828, 46.46675], [24.44899, 46.46578], [24.44414, 46.46567], [24.44799, 46.46777], [24.44828, 46.46675]]], [[[24.44876, 46.4703], [24.45135, 46.47106], [24.45206, 46.47151], [24.45244, 46.47218], [24.45276, 46.47392], [24.45349, 46.47412], [24.45372, 46.47475], [24.45572, 46.47463], [24.4556, 46.47282], [24.44852, 46.46889], [24.44839, 46.46976], [24.44876, 46.4703]]], [[[24.44845, 46.47174], [24.45154, 46.47197], [24.45099, 46.47154], [24.44819, 46.47067], [24.44761, 46.46981], [24.44782, 46.4685], [24.44327, 46.46603], [24.44237, 46.46563], [24.43925, 46.46556], [24.43908, 46.46906], [24.4407, 46.46978], [24.44045, 46.46873], [24.4406, 46.46838], [24.44122, 46.46815], [24.44229, 46.46822], [24.44264, 46.46856], [24.4428, 46.46978], [24.44216, 46.47045], [24.44482, 46.47184], [24.44625, 46.47158], [24.44772, 46.47168], [24.44513, 46.47217], [24.44607, 46.47336], [24.44689, 46.47393], [24.44729, 46.47369], [24.44792, 46.47364], [24.44873, 46.47408], [24.45001, 46.47443], [24.45008, 46.47467], [24.45056, 46.47458], [24.4507, 46.47388], [24.45191, 46.47359], [24.45168, 46.47231], [24.44896, 46.47296], [24.44845, 46.47174]]], [[[24.44413, 46.47357], [24.4437, 46.4737], [24.44381, 46.47254], [24.44435, 46.47232], [24.44399, 46.47198], [24.43905, 46.46969], [24.43886, 46.47375], [24.4406, 46.47328], [24.44238, 46.47329], [24.44259, 46.47357], [24.44156, 46.47509], [24.4414, 46.47628], [24.44034, 46.47639], [24.43885, 46.47597], [24.43766, 46.47522], [24.4358, 46.47478], [24.43612, 46.47449], [24.43258, 46.47441], [24.43095, 46.47497], [24.42962, 46.47515], [24.42627, 46.47466], [24.43086, 46.4767], [24.4317, 46.47645], [24.43441, 46.47713], [24.43491, 46.47745], [24.43484, 46.47716], [24.43527, 46.47665], [24.43644, 46.47685], [24.43661, 46.47731], [24.43711, 46.47759], [24.43689, 46.47806], [24.43578, 46.47796], [24.43498, 46.47751], [24.43546, 46.4779], [24.43631, 46.47824], [24.437, 46.47827], [24.43825, 46.47777], [24.43891, 46.47794], [24.43965, 46.47846], [24.4414, 46.47811], [24.44225, 46.4782], [24.44392, 46.4791], [24.44431, 46.47948], [24.44446, 46.48016], [24.44487, 46.48044], [24.44615, 46.48053], [24.44837, 46.48022], [24.44909, 46.48029], [24.44967, 46.48064], [24.45049, 46.48188], [24.45081, 46.48202], [24.45118, 46.48178], [24.45084, 46.48136], [24.45065, 46.48016], [24.45003, 46.48001], [24.44829, 46.48014], [24.44778, 46.47933], [24.44811, 46.4791], [24.44854, 46.47929], [24.44911, 46.4792], [24.44931, 46.47952], [24.45142, 46.47831], [24.45138, 46.47816], [24.45052, 46.47767], [24.44976, 46.47789], [24.44885, 46.47768], [24.44831, 46.47709], [24.44731, 46.47791], [24.44672, 46.47787], [24.4459, 46.47732], [24.44586, 46.47702], [24.44543, 46.4767], [24.44588, 46.47638], [24.44567, 46.47607], [24.44579, 46.47571], [24.44713, 46.47478], [24.44543, 46.47367], [24.44429, 46.47385], [24.44413, 46.47357]]], [[[24.42727, 46.47429], [24.42931, 46.47461], [24.43098, 46.47437], [24.42727, 46.47429]]], [[[24.42651, 46.48058], [24.42682, 46.48021], [24.42791, 46.47963], [24.4291, 46.47773], [24.43039, 46.47713], [24.42577, 46.47508], [24.42568, 46.47701], [24.42636, 46.47731], [24.42561, 46.47853], [24.42551, 46.48067], [24.42633, 46.48091], [24.42651, 46.48058]]], [[[24.43766, 46.47866], [24.43679, 46.47882], [24.43604, 46.47875], [24.43497, 46.47832], [24.43403, 46.4776], [24.43154, 46.47699], [24.44732, 46.48398], [24.4465, 46.48349], [24.44689, 46.48255], [24.44768, 46.48201], [24.44932, 46.48209], [24.44998, 46.48258], [24.45066, 46.4826], [24.45133, 46.48303], [24.45164, 46.48299], [24.45141, 46.48237], [24.45069, 46.48257], [24.45, 46.48234], [24.44879, 46.48079], [24.4462, 46.48107], [24.44477, 46.481], [24.44381, 46.48046], [24.4433, 46.47943], [24.44197, 46.47871], [24.44148, 46.47865], [24.4403, 46.479], [24.43948, 46.47899], [24.43886, 46.47879], [24.43829, 46.47832], [24.43766, 46.47866]]], [[[24.4515, 46.4799], [24.45146, 46.47993], [24.45174, 46.48141], [24.45237, 46.48105], [24.45211, 46.48054], [24.45222, 46.47993], [24.4515, 46.4799]]], [[[24.43098, 46.4775], [24.42971, 46.47807], [24.42879, 46.47967], [24.4274, 46.48058], [24.42702, 46.48117], [24.43327, 46.48424], [24.43388, 46.4844], [24.43781, 46.48345], [24.43963, 46.48364], [24.44013, 46.48397], [24.44062, 46.48471], [24.44057, 46.48573], [24.44107, 46.48677], [24.44106, 46.48756], [24.44365, 46.48665], [24.44317, 46.48586], [24.44443, 46.48535], [24.44454, 46.4855], [24.447, 46.48448], [24.43098, 46.4775]], [[24.43389, 46.48199], [24.43267, 46.4809], [24.43129, 46.4803], [24.43158, 46.47963], [24.43648, 46.48181], [24.43418, 46.48244], [24.43389, 46.48199]]], [[[24.42758, 46.4831], [24.42805, 46.4831], [24.42827, 46.48289], [24.42722, 46.48257], [24.42697, 46.48337], [24.42419, 46.48412], [24.42465, 46.4851], [24.42684, 46.48479], [24.42849, 46.48386], [24.4275, 46.48348], [24.42758, 46.4831]]], [[[24.41237, 46.48295], [24.41231, 46.48421], [24.4148, 46.48301], [24.41237, 46.48295]]], [[[24.44788, 46.48422], [24.44788, 46.48422], [24.44896, 46.4847], [24.44794, 46.48419], [24.44788, 46.48422]]], [[[24.45209, 46.48712], [24.4522, 46.48704], [24.45034, 46.48614], [24.45032, 46.48616], [24.45209, 46.48712]]], [[[24.42812, 46.487], [24.42739, 46.48632], [24.42626, 46.48601], [24.42574, 46.48611], [24.42678, 46.48663], [24.42812, 46.487]]], [[[24.41403, 46.49039], [24.41495, 46.48961], [24.41539, 46.48872], [24.41395, 46.48894], [24.41393, 46.48804], [24.4126, 46.48577], [24.41252, 46.48522], [24.41226, 46.48534], [24.41217, 46.48727], [24.41268, 46.4877], [24.41281, 46.48827], [24.41258, 46.48877], [24.41208, 46.4891], [24.41199, 46.49102], [24.41313, 46.49079], [24.41403, 46.49039]]], [[[24.43145, 46.48531], [24.43107, 46.48568], [24.43, 46.48609], [24.42928, 46.48607], [24.42914, 46.48709], [24.43088, 46.48692], [24.43407, 46.48723], [24.43557, 46.48797], [24.43615, 46.48889], [24.43497, 46.48945], [24.43429, 46.49047], [24.43436, 46.49122], [24.43492, 46.49197], [24.4323, 46.49199], [24.43142, 46.49215], [24.42716, 46.49415], [24.42142, 46.49548], [24.4199, 46.49544], [24.41731, 46.49587], [24.41576, 46.49537], [24.41394, 46.49532], [24.41616, 46.49651], [24.41544, 46.49705], [24.41679, 46.49763], [24.42027, 46.49708], [24.42166, 46.49716], [24.42815, 46.49567], [24.43034, 46.49478], [24.43229, 46.49369], [24.4355, 46.49361], [24.43715, 46.49291], [24.43715, 46.49262], [24.4387, 46.49176], [24.43667, 46.49078], [24.43668, 46.49047], [24.4378, 46.48964], [24.43691, 46.48974], [24.43664, 46.48887], [24.43691, 46.4887], [24.43719, 46.489], [24.43774, 46.48892], [24.43823, 46.48933], [24.4385, 46.48913], [24.43792, 46.48762], [24.43145, 46.48531]]], [[[24.44584, 46.48747], [24.44564, 46.48781], [24.44527, 46.48779], [24.44504, 46.48756], [24.44321, 46.48824], [24.44371, 46.48864], [24.44444, 46.48851], [24.44578, 46.48891], [24.44794, 46.49191], [24.44948, 46.49066], [24.44892, 46.49051], [24.44902, 46.49015], [24.4482, 46.49034], [24.44668, 46.48953], [24.44661, 46.48925], [24.44694, 46.48907], [24.4461, 46.48833], [24.44592, 46.48766], [24.44919, 46.48735], [24.4499, 46.48749], [24.45162, 46.48841], [24.45179, 46.48879], [24.45121, 46.4896], [24.45221, 46.4904], [24.45224, 46.49068], [24.45061, 46.49189], [24.4507, 46.4923], [24.44916, 46.49347], [24.44864, 46.49344], [24.44829, 46.49288], [24.44894, 46.49413], [24.4509, 46.49489], [24.45173, 46.49559], [24.45454, 46.49672], [24.45648, 46.49673], [24.45784, 46.49697], [24.4582, 46.49719], [24.46099, 46.49749], [24.4612, 46.49696], [24.46207, 46.49672], [24.46283, 46.49717], [24.46351, 46.49733], [24.46376, 46.49776], [24.46728, 46.49547], [24.46886, 46.49554], [24.46899, 46.49576], [24.46857, 46.49736], [24.46943, 46.49752], [24.46958, 46.49781], [24.46942, 46.49809], [24.46895, 46.49824], [24.46522, 46.49814], [24.46524, 46.49894], [24.46564, 46.4989], [24.46609, 46.49911], [24.46612, 46.50022], [24.4664, 46.49991], [24.46713, 46.49978], [24.46677, 46.49905], [24.46724, 46.49859], [24.46978, 46.49873], [24.47029, 46.49896], [24.47055, 46.49992], [24.4703, 46.50058], [24.46977, 46.50078], [24.46869, 46.50069], [24.46796, 46.50097], [24.46886, 46.50106], [24.46946, 46.50139], [24.4692, 46.50279], [24.4698, 46.50298], [24.46996, 46.50255], [24.47056, 46.50231], [24.47144, 46.50259], [24.47167, 46.50237], [24.4765, 46.50076], [24.47732, 46.50115], [24.48153, 46.49972], [24.46943, 46.4944], [24.46879, 46.49487], [24.46838, 46.49463], [24.46776, 46.49469], [24.46623, 46.49419], [24.46567, 46.49456], [24.46499, 46.49452], [24.46378, 46.49403], [24.4644, 46.49349], [24.46372, 46.49295], [24.46291, 46.49286], [24.46234, 46.49237], [24.46165, 46.49222], [24.45963, 46.49115], [24.45838, 46.4907], [24.45821, 46.49067], [24.45763, 46.49134], [24.45785, 46.49164], [24.45741, 46.49215], [24.45648, 46.49213], [24.45565, 46.4913], [24.45695, 46.49002], [24.45654, 46.48961], [24.45671, 46.48891], [24.45298, 46.48724], [24.45238, 46.48774], [24.452, 46.48777], [24.44912, 46.48618], [24.44783, 46.48679], [24.44575, 46.48734], [24.44584, 46.48747]], [[24.45488, 46.49273], [24.45577, 46.49222], [24.45684, 46.49235], [24.4574, 46.49267], [24.45836, 46.49383], [24.45842, 46.49431], [24.45757, 46.4956], [24.45681, 46.49581], [24.45597, 46.49554], [24.45513, 46.4959], [24.45424, 46.49517], [24.4545, 46.49476], [24.45368, 46.49515], [24.45315, 46.49489], [24.45323, 46.49454], [24.45274, 46.4942], [24.45274, 46.49394], [24.45488, 46.49273]], [[24.46389, 46.49417], [24.46201, 46.49619], [24.45989, 46.49589], [24.45876, 46.49535], [24.46086, 46.49307], [24.46389, 46.49417]]], [[[24.43627, 46.49724], [24.43585, 46.49717], [24.43578, 46.49687], [24.43626, 46.49634], [24.43721, 46.49592], [24.43688, 46.4956], [24.4358, 46.49646], [24.43545, 46.49639], [24.43534, 46.49614], [24.43707, 46.49445], [24.43716, 46.49356], [24.4355, 46.49416], [24.43259, 46.49419], [24.43124, 46.495], [24.42891, 46.496], [24.42652, 46.4967], [24.42506, 46.49688], [24.42182, 46.49769], [24.42037, 46.49761], [24.41678, 46.49818], [24.41601, 46.49977], [24.41723, 46.49982], [24.4205, 46.49929], [24.42272, 46.49924], [24.42934, 46.49771], [24.43293, 46.4962], [24.4339, 46.49815], [24.43472, 46.49865], [24.43575, 46.4989], [24.4371, 46.4988], [24.44002, 46.4975], [24.44178, 46.49716], [24.44236, 46.49897], [24.4423, 46.49994], [24.44261, 46.50053], [24.44455, 46.50233], [24.44571, 46.5017], [24.44446, 46.50014], [24.44448, 46.49817], [24.44421, 46.49719], [24.44371, 46.49638], [24.44255, 46.49527], [24.43792, 46.49699], [24.43666, 46.4969], [24.43627, 46.49724]]], [[[24.41529, 46.49765], [24.41544, 46.49765], [24.41518, 46.49756], [24.41529, 46.49765]]], [[[24.45016, 46.50239], [24.45161, 46.50276], [24.45333, 46.50361], [24.45418, 46.50665], [24.45474, 46.50657], [24.45523, 46.50756], [24.4564, 46.50804], [24.45664, 46.50999], [24.4558, 46.51177], [24.45682, 46.5133], [24.45763, 46.51317], [24.45745, 46.51285], [24.45763, 46.51262], [24.45821, 46.51276], [24.45847, 46.51258], [24.45949, 46.51294], [24.46, 46.51279], [24.46025, 46.51321], [24.46162, 46.5137], [24.46289, 46.51388], [24.46253, 46.52177], [24.46423, 46.52349], [24.46537, 46.52418], [24.4668, 46.52469], [24.46731, 46.52543], [24.46792, 46.52591], [24.46812, 46.52521], [24.46889, 46.52527], [24.46872, 46.52596], [24.46798, 46.52595], [24.47066, 46.52766], [24.47101, 46.52699], [24.46952, 46.52676], [24.46935, 46.52639], [24.46998, 46.52599], [24.4713, 46.52643], [24.47269, 46.52358], [24.46962, 46.52285], [24.46943, 46.52262], [24.46959, 46.52219], [24.46705, 46.52055], [24.4674, 46.52008], [24.46756, 46.51871], [24.46806, 46.51823], [24.47224, 46.51858], [24.47371, 46.51898], [24.47413, 46.5193], [24.47454, 46.51521], [24.47338, 46.51481], [24.4725, 46.51412], [24.4718, 46.51281], [24.4719, 46.51198], [24.4713, 46.51116], [24.47107, 46.51042], [24.47105, 46.5091], [24.47169, 46.50774], [24.47146, 46.50738], [24.47177, 46.50627], [24.47165, 46.50543], [24.4705, 46.5044], [24.46904, 46.50371], [24.46781, 46.50353], [24.46684, 46.50366], [24.46589, 46.50333], [24.46353, 46.50175], [24.46252, 46.50019], [24.46144, 46.49908], [24.46022, 46.49906], [24.45743, 46.49854], [24.45615, 46.49871], [24.45586, 46.49852], [24.45585, 46.49819], [24.45154, 46.4967], [24.45148, 46.49761], [24.45233, 46.49868], [24.45235, 46.49907], [24.45535, 46.50046], [24.45656, 46.50057], [24.45759, 46.50043], [24.45999, 46.50089], [24.46117, 46.5026], [24.46192, 46.5033], [24.46431, 46.50481], [24.46605, 46.50559], [24.46345, 46.50696], [24.46296, 46.50557], [24.46194, 46.50468], [24.46118, 46.50438], [24.46005, 46.50423], [24.45887, 46.50438], [24.45789, 46.50473], [24.45591, 46.50387], [24.45549, 46.50286], [24.45473, 46.50224], [24.45274, 46.5013], [24.45119, 46.50089], [24.45057, 46.50041], [24.44905, 46.50097], [24.45019, 46.50191], [24.44973, 46.50225], [24.45016, 46.50239]], [[24.46206, 46.51079], [24.46285, 46.51048], [24.46361, 46.50985], [24.46471, 46.51038], [24.46586, 46.51053], [24.46731, 46.51032], [24.46839, 46.5098], [24.46843, 46.51059], [24.46642, 46.51122], [24.46544, 46.51226], [24.46533, 46.51309], [24.46587, 46.51533], [24.46624, 46.51594], [24.46703, 46.51654], [24.46613, 46.51692], [24.46536, 46.51762], [24.4651, 46.51651], [24.46535, 46.51411], [24.46519, 46.51336], [24.46422, 46.51246], [24.46323, 46.51214], [24.46227, 46.51207], [24.46051, 46.511], [24.46206, 46.51079]], [[24.46564, 46.50865], [24.4654, 46.50835], [24.46552, 46.50812], [24.46699, 46.5073], [24.46764, 46.50736], [24.46777, 46.50768], [24.46744, 46.50799], [24.46634, 46.5086], [24.46564, 46.50865]], [[24.46125, 46.50899], [24.46043, 46.50917], [24.46008, 46.50901], [24.45934, 46.50644], [24.45958, 46.50615], [24.46012, 46.50607], [24.46052, 46.50629], [24.46125, 46.50899]], [[24.46807, 46.51267], [24.46892, 46.51239], [24.46969, 46.51252], [24.47021, 46.5146], [24.46999, 46.51492], [24.46902, 46.51515], [24.46851, 46.51499], [24.46807, 46.51267]], [[24.47198, 46.51637], [24.47194, 46.51675], [24.47086, 46.51667], [24.47178, 46.51628], [24.47198, 46.51637]]], [[[24.44928, 46.5027], [24.4491, 46.50271], [24.44986, 46.50346], [24.45143, 46.50377], [24.45069, 46.50558], [24.45253, 46.5058], [24.45342, 46.50681], [24.45269, 46.50393], [24.45109, 46.50318], [24.44928, 46.5027]]], [[[24.44952, 46.50777], [24.4494, 46.50736], [24.44763, 46.50624], [24.44702, 46.50699], [24.44696, 46.50793], [24.44755, 46.50877], [24.44882, 46.50937], [24.44908, 46.50967], [24.44894, 46.5114], [24.44965, 46.51285], [24.4497, 46.51377], [24.44829, 46.51504], [24.44812, 46.51615], [24.44852, 46.51685], [24.44907, 46.51727], [24.45077, 46.51772], [24.44961, 46.51874], [24.44898, 46.52004], [24.449, 46.52107], [24.44971, 46.52235], [24.45114, 46.52343], [24.45292, 46.524], [24.45513, 46.52402], [24.45648, 46.52458], [24.4579, 46.52481], [24.46027, 46.52485], [24.46151, 46.52466], [24.46284, 46.52559], [24.4631, 46.52645], [24.46375, 46.52707], [24.4656, 46.52806], [24.46681, 46.52827], [24.46916, 46.52968], [24.47072, 46.53037], [24.47114, 46.53245], [24.4719, 46.53343], [24.47173, 46.5336], [24.46523, 46.53398], [24.45422, 46.53602], [24.45107, 46.53606], [24.44426, 46.53679], [24.44331, 46.53649], [24.44288, 46.53817], [24.44403, 46.53848], [24.45137, 46.5377], [24.45461, 46.53766], [24.46569, 46.53561], [24.47285, 46.53511], [24.47343, 46.53482], [24.47491, 46.53332], [24.47351, 46.53212], [24.47305, 46.52995], [24.47254, 46.52924], [24.4706, 46.52835], [24.46841, 46.52703], [24.46684, 46.5259], [24.46637, 46.52526], [24.46611, 46.52553], [24.46719, 46.52619], [24.46712, 46.52655], [24.46666, 46.52657], [24.46539, 46.52586], [24.46527, 46.52548], [24.46575, 46.52493], [24.4639, 46.52404], [24.46188, 46.52209], [24.46036, 46.52177], [24.45968, 46.52189], [24.45914, 46.52168], [24.45822, 46.52186], [24.45759, 46.5214], [24.45524, 46.52135], [24.45462, 46.52101], [24.45377, 46.52108], [24.45334, 46.52078], [24.45323, 46.52042], [24.45348, 46.52008], [24.45263, 46.51827], [24.45052, 46.51591], [24.45039, 46.51553], [24.45142, 46.51482], [24.45284, 46.51454], [24.453, 46.51358], [24.45276, 46.512], [24.45216, 46.51057], [24.44986, 46.5078], [24.44952, 46.50777]]], [[[24.42058, 46.53487], [24.42034, 46.53439], [24.41855, 46.53334], [24.4191, 46.53231], [24.41755, 46.53148], [24.41613, 46.53116], [24.41452, 46.53107], [24.41249, 46.53133], [24.41118, 46.53186], [24.41006, 46.53149], [24.40998, 46.53331], [24.41301, 46.53459], [24.41357, 46.53463], [24.41371, 46.53427], [24.4142, 46.53405], [24.41563, 46.53412], [24.41603, 46.53444], [24.41605, 46.53493], [24.41774, 46.5354], [24.42085, 46.53693], [24.42191, 46.53713], [24.42263, 46.53674], [24.4246, 46.53634], [24.42579, 46.53659], [24.42666, 46.53653], [24.42787, 46.53611], [24.42802, 46.53552], [24.42741, 46.53506], [24.42623, 46.53526], [24.42542, 46.53511], [24.42279, 46.53554], [24.42058, 46.53487]]], [[[24.41752, 46.53595], [24.41565, 46.53541], [24.41267, 46.53508], [24.40995, 46.53395], [24.40984, 46.53625], [24.41041, 46.53691], [24.41988, 46.53712], [24.41752, 46.53595]]], [[[24.4408, 46.5354], [24.43972, 46.53548], [24.43883, 46.53582], [24.43781, 46.53499], [24.43626, 46.53467], [24.43494, 46.5349], [24.43384, 46.53565], [24.43328, 46.53561], [24.43239, 46.5346], [24.43159, 46.53551], [24.43268, 46.53779], [24.43299, 46.5378], [24.43295, 46.53742], [24.43333, 46.53727], [24.43364, 46.5374], [24.4338, 46.53782], [24.43518, 46.53785], [24.43513, 46.5389], [24.43588, 46.53899], [24.43691, 46.53879], [24.4359, 46.53668], [24.43599, 46.53641], [24.4366, 46.53645], [24.43766, 46.53865], [24.43797, 46.53859], [24.43976, 46.53783], [24.4401, 46.53673], [24.44093, 46.53603], [24.442, 46.53567], [24.4408, 46.5354]]], [[[24.44382, 46.53901], [24.44277, 46.53873], [24.44265, 46.53939], [24.4402, 46.54012], [24.43898, 46.54073], [24.43738, 46.54106], [24.43553, 46.5412], [24.43405, 46.54171], [24.43214, 46.5421], [24.42946, 46.54362], [24.42752, 46.54443], [24.42761, 46.54581], [24.4306, 46.545], [24.4335, 46.54353], [24.43439, 46.5427], [24.43453, 46.54162], [24.43603, 46.5416], [24.43793, 46.5413], [24.44137, 46.54012], [24.44285, 46.54055], [24.4441, 46.54068], [24.45165, 46.5399], [24.45501, 46.53984], [24.46637, 46.53776], [24.47004, 46.53756], [24.4689, 46.53949], [24.46869, 46.54085], [24.46905, 46.54261], [24.46862, 46.54268], [24.46766, 46.54229], [24.46658, 46.54218], [24.46578, 46.5423], [24.46484, 46.54269], [24.4642, 46.54329], [24.46394, 46.54403], [24.46411, 46.54477], [24.46476, 46.54558], [24.46291, 46.54608], [24.46166, 46.54664], [24.4607, 46.54743], [24.46001, 46.54872], [24.46, 46.54975], [24.46046, 46.55082], [24.46128, 46.55168], [24.46244, 46.55235], [24.46135, 46.55287], [24.46072, 46.55349], [24.46049, 46.55441], [24.46078, 46.55514], [24.46161, 46.55587], [24.46255, 46.55626], [24.46377, 46.55641], [24.46531, 46.55636], [24.46495, 46.55765], [24.4641, 46.55863], [24.46376, 46.55984], [24.4627, 46.56032], [24.46209, 46.56095], [24.46189, 46.5615], [24.462, 46.56225], [24.46251, 46.56291], [24.46335, 46.56339], [24.4644, 46.56361], [24.46573, 46.56347], [24.46574, 46.56379], [24.46455, 46.56442], [24.46256, 46.56484], [24.46144, 46.56565], [24.46114, 46.56637], [24.46129, 46.56715], [24.46054, 46.56759], [24.46042, 46.57014], [24.46122, 46.5706], [24.46226, 46.57083], [24.46517, 46.57062], [24.46623, 46.57004], [24.46704, 46.56884], [24.46924, 46.56785], [24.47112, 46.56667], [24.47208, 46.56975], [24.47225, 46.57184], [24.47356, 46.57432], [24.47614, 46.57438], [24.47459, 46.57147], [24.47447, 46.56954], [24.47391, 46.56818], [24.4738, 46.5668], [24.47359, 46.56752], [24.47281, 46.56731], [24.47262, 46.56557], [24.47064, 46.56544], [24.46981, 46.56633], [24.46687, 46.567], [24.46643, 46.5679], [24.46546, 46.56888], [24.46383, 46.56967], [24.46319, 46.56929], [24.4632, 46.56892], [24.46257, 46.56918], [24.46219, 46.56894], [24.46324, 46.56821], [24.46376, 46.56676], [24.46362, 46.56635], [24.46739, 46.56436], [24.46761, 46.56227], [24.46659, 46.56262], [24.46677, 46.56311], [24.46644, 46.56324], [24.46574, 46.56225], [24.46442, 46.56189], [24.46396, 46.56127], [24.46544, 46.56058], [24.46585, 46.56059], [24.46627, 46.56025], [24.46703, 46.56061], [24.46692, 46.55732], [24.46738, 46.55597], [24.46729, 46.55505], [24.46332, 46.55505], [24.46334, 46.55469], [24.46288, 46.55429], [24.46303, 46.55406], [24.46609, 46.55247], [24.46602, 46.55101], [24.4664, 46.55029], [24.46589, 46.5501], [24.46571, 46.54974], [24.46511, 46.5499], [24.4646, 46.54979], [24.46425, 46.54918], [24.46451, 46.54885], [24.46511, 46.54869], [24.46562, 46.5488], [24.46592, 46.54911], [24.46661, 46.54829], [24.46722, 46.54808], [24.46725, 46.54747], [24.46677, 46.54628], [24.46523, 46.54524], [24.46633, 46.54426], [24.46666, 46.54454], [24.46634, 46.5441], [24.46668, 46.54384], [24.46705, 46.54395], [24.46851, 46.54564], [24.46905, 46.54569], [24.46965, 46.54552], [24.46913, 46.54455], [24.46937, 46.54426], [24.46984, 46.54436], [24.47038, 46.54531], [24.47338, 46.54436], [24.47156, 46.5426], [24.47109, 46.54085], [24.47141, 46.53941], [24.47297, 46.5372], [24.47294, 46.53567], [24.46584, 46.53614], [24.45475, 46.53819], [24.45145, 46.53824], [24.44382, 46.53901]]], [[[24.42271, 46.5399], [24.42267, 46.54068], [24.42419, 46.54045], [24.42302, 46.53997], [24.42271, 46.5399]]], [[[24.42245, 46.54543], [24.42266, 46.54529], [24.42247, 46.54496], [24.42245, 46.54543]]], [[[24.45658, 46.47511], [24.45628, 46.47546], [24.45726, 46.47558], [24.45781, 46.4763], [24.4579, 46.47729], [24.45985, 46.47715], [24.46223, 46.47758], [24.46379, 46.47723], [24.45629, 46.47321], [24.45658, 46.47511]]], [[[24.46638, 46.47724], [24.46667, 46.47727], [24.4669, 46.47695], [24.46757, 46.47665], [24.46554, 46.47719], [24.4661, 46.47741], [24.46638, 46.47724]]], [[[24.46529, 46.47904], [24.46564, 46.47911], [24.46584, 46.47939], [24.46554, 46.47972], [24.46676, 46.47993], [24.4667, 46.47948], [24.46715, 46.47913], [24.46775, 46.47911], [24.46823, 46.47938], [24.469, 46.4792], [24.46724, 46.47861], [24.46693, 46.47884], [24.46639, 46.47873], [24.46631, 46.47827], [24.46454, 46.47757], [24.46224, 46.47812], [24.4594, 46.47768], [24.4592, 46.4777], [24.45919, 46.47818], [24.45744, 46.47836], [24.45691, 46.47872], [24.45625, 46.4787], [24.45578, 46.47837], [24.45558, 46.47869], [24.45512, 46.47886], [24.45473, 46.47962], [24.4557, 46.47974], [24.45592, 46.48041], [24.4572, 46.48045], [24.45839, 46.48095], [24.46029, 46.47975], [24.46491, 46.47981], [24.4646, 46.47934], [24.46529, 46.47904]]], [[[24.45484, 46.48099], [24.45535, 46.481], [24.45552, 46.48092], [24.45466, 46.48095], [24.45484, 46.48099]]], [[[24.45885, 46.48142], [24.45813, 46.48148], [24.45669, 46.48096], [24.4578, 46.48183], [24.45869, 46.48189], [24.45966, 46.48131], [24.45972, 46.48092], [24.45885, 46.48142]]], [[[24.4527, 46.48157], [24.45274, 46.48158], [24.45279, 46.48151], [24.45268, 46.48156], [24.4527, 46.48157]]], [[[24.46204, 46.48028], [24.46148, 46.48021], [24.46055, 46.48027], [24.45985, 46.48079], [24.4611, 46.48026], [24.46236, 46.4812], [24.46253, 46.48157], [24.46307, 46.48182], [24.46318, 46.48238], [24.46175, 46.48333], [24.4607, 46.48362], [24.46028, 46.48421], [24.46307, 46.48375], [24.46308, 46.48275], [24.46339, 46.48246], [24.46588, 46.48261], [24.46675, 46.48407], [24.46647, 46.4851], [24.46522, 46.48519], [24.46562, 46.48549], [24.46571, 46.48613], [24.46679, 46.48711], [24.46673, 46.48748], [24.46629, 46.48778], [24.46651, 46.48815], [24.46634, 46.48849], [24.46747, 46.48917], [24.46905, 46.48792], [24.46997, 46.48746], [24.47144, 46.48814], [24.47157, 46.4884], [24.4711, 46.48861], [24.47003, 46.48811], [24.46863, 46.48958], [24.46902, 46.48984], [24.46986, 46.48978], [24.47138, 46.49059], [24.47288, 46.48936], [24.4734, 46.48927], [24.4739, 46.48942], [24.47418, 46.48974], [24.47414, 46.49008], [24.473, 46.49128], [24.47317, 46.49153], [24.47467, 46.4917], [24.47509, 46.49227], [24.47562, 46.49223], [24.4762, 46.49246], [24.47641, 46.49295], [24.477, 46.49233], [24.47813, 46.49288], [24.47748, 46.49351], [24.4784, 46.49396], [24.47868, 46.49446], [24.47797, 46.49506], [24.47822, 46.49518], [24.47868, 46.49479], [24.47941, 46.4948], [24.48005, 46.49456], [24.48065, 46.49465], [24.48123, 46.495], [24.48127, 46.49542], [24.48095, 46.49574], [24.48003, 46.49606], [24.4806, 46.49635], [24.48125, 46.49581], [24.48206, 46.49581], [24.48199, 46.49556], [24.48401, 46.49633], [24.48511, 46.49714], [24.48451, 46.49816], [24.48529, 46.49794], [24.48578, 46.49745], [24.48635, 46.4974], [24.48668, 46.49703], [24.48782, 46.49754], [24.48835, 46.49747], [24.48858, 46.49779], [24.49431, 46.49544], [24.49737, 46.49586], [24.49942, 46.49649], [24.49977, 46.49641], [24.5003, 46.49575], [24.49809, 46.49525], [24.49893, 46.49465], [24.49875, 46.49453], [24.5022, 46.49423], [24.49875, 46.49306], [24.4963, 46.49292], [24.49488, 46.49323], [24.48966, 46.49536], [24.48882, 46.49494], [24.48961, 46.49421], [24.48987, 46.49339], [24.48956, 46.49215], [24.48879, 46.49131], [24.48783, 46.49088], [24.48605, 46.49052], [24.48501, 46.48993], [24.48358, 46.48971], [24.48149, 46.49021], [24.48036, 46.49127], [24.47847, 46.48994], [24.47808, 46.48849], [24.4766, 46.48712], [24.47478, 46.48645], [24.4733, 46.4863], [24.47208, 46.48642], [24.47069, 46.48587], [24.47034, 46.4854], [24.47061, 46.48399], [24.47023, 46.48285], [24.4724, 46.48312], [24.47416, 46.4836], [24.47849, 46.48384], [24.47996, 46.48358], [24.48162, 46.48263], [24.48572, 46.48254], [24.4892, 46.48216], [24.49615, 46.48076], [24.4979, 46.48443], [24.49934, 46.48634], [24.49947, 46.48707], [24.49987, 46.48762], [24.501, 46.48838], [24.50251, 46.48871], [24.50563, 46.49049], [24.50643, 46.49139], [24.50622, 46.49435], [24.5055, 46.49501], [24.5052, 46.4958], [24.50525, 46.49675], [24.50587, 46.4976], [24.50547, 46.50077], [24.502, 46.50037], [24.50299, 46.49938], [24.50397, 46.49783], [24.50412, 46.49681], [24.50374, 46.49565], [24.50357, 46.49579], [24.50315, 46.49563], [24.50277, 46.49586], [24.50176, 46.49594], [24.50218, 46.49627], [24.50244, 46.49689], [24.50193, 46.49723], [24.5006, 46.4976], [24.50033, 46.49796], [24.49893, 46.49863], [24.49769, 46.49846], [24.49641, 46.498], [24.49621, 46.49766], [24.4965, 46.49709], [24.49616, 46.49672], [24.4963, 46.49629], [24.49569, 46.49613], [24.49338, 46.49795], [24.49385, 46.49819], [24.49451, 46.49774], [24.49501, 46.49798], [24.49549, 46.49775], [24.49573, 46.49823], [24.4955, 46.49924], [24.49575, 46.49935], [24.49566, 46.49959], [24.49644, 46.49975], [24.49686, 46.50031], [24.49853, 46.50044], [24.49983, 46.50085], [24.49853, 46.50187], [24.49855, 46.5022], [24.49732, 46.503], [24.4977, 46.50321], [24.49793, 46.50303], [24.49815, 46.50316], [24.49869, 46.50298], [24.4991, 46.50323], [24.49935, 46.5027], [24.49986, 46.50266], [24.50035, 46.5023], [24.50303, 46.50366], [24.5035, 46.50349], [24.50402, 46.50356], [24.5045, 46.50388], [24.50486, 46.50466], [24.50447, 46.50525], [24.50378, 46.50537], [24.50407, 46.50569], [24.50403, 46.50618], [24.50456, 46.5067], [24.50488, 46.50684], [24.50635, 46.50546], [24.50757, 46.50597], [24.50792, 46.50667], [24.50916, 46.50722], [24.50991, 46.50728], [24.51447, 46.50962], [24.51468, 46.50996], [24.51453, 46.51031], [24.51364, 46.51114], [24.51294, 46.51127], [24.51219, 46.51201], [24.51465, 46.51321], [24.51503, 46.51321], [24.51743, 46.51113], [24.51781, 46.51058], [24.51423, 46.50889], [24.51383, 46.50912], [24.51325, 46.50894], [24.51305, 46.50872], [24.51318, 46.50848], [24.50856, 46.5066], [24.50747, 46.50541], [24.50746, 46.5035], [24.50677, 46.50328], [24.5069, 46.5027], [24.50759, 46.50264], [24.50805, 46.49974], [24.50839, 46.49654], [24.50798, 46.49648], [24.50782, 46.49624], [24.50793, 46.49577], [24.50849, 46.49567], [24.50888, 46.49186], [24.50875, 46.49092], [24.50829, 46.49014], [24.50749, 46.4894], [24.50296, 46.48678], [24.50254, 46.48687], [24.50206, 46.48658], [24.50217, 46.48619], [24.50025, 46.48402], [24.49846, 46.48025], [24.49772, 46.47945], [24.49703, 46.47917], [24.49609, 46.47908], [24.48871, 46.48053], [24.48541, 46.48089], [24.48039, 46.48096], [24.47878, 46.48193], [24.47803, 46.48203], [24.47425, 46.48175], [24.47323, 46.48114], [24.47145, 46.48122], [24.46997, 46.4804], [24.46965, 46.48], [24.46899, 46.47975], [24.46735, 46.48046], [24.46563, 46.48026], [24.46204, 46.48028]], [[24.48302, 46.49304], [24.48261, 46.49239], [24.48296, 46.49175], [24.48372, 46.49155], [24.48402, 46.49173], [24.48415, 46.49234], [24.48484, 46.49221], [24.48523, 46.49248], [24.48562, 46.49233], [24.48692, 46.49262], [24.48721, 46.49339], [24.48635, 46.4938], [24.48603, 46.49373], [24.48577, 46.49339], [24.48373, 46.49386], [24.48343, 46.4937], [24.48323, 46.49304], [24.48302, 46.49304]]], [[[24.46233, 46.48566], [24.46209, 46.48593], [24.46256, 46.48626], [24.46341, 46.48598], [24.46354, 46.48532], [24.46276, 46.48539], [24.46233, 46.48566]]], [[[24.45694, 46.48705], [24.45704, 46.48651], [24.45675, 46.48644], [24.45549, 46.48633], [24.45445, 46.486], [24.45269, 46.48612], [24.45205, 46.48585], [24.45157, 46.48584], [24.45734, 46.48838], [24.45648, 46.48796], [24.457, 46.48753], [24.45694, 46.48705]]], [[[24.45863, 46.4878], [24.45891, 46.48732], [24.4588, 46.48692], [24.45768, 46.4867], [24.45776, 46.48737], [24.45863, 46.4878]]], [[[24.46453, 46.48764], [24.46452, 46.48764], [24.46453, 46.48764], [24.46453, 46.48764]]], [[[24.45876, 46.48805], [24.45876, 46.48806], [24.45879, 46.48808], [24.45876, 46.48805]]], [[[24.4628, 46.49839], [24.46288, 46.49833], [24.46252, 46.49828], [24.46274, 46.49848], [24.4628, 46.49839]]], [[[24.46371, 46.49969], [24.4643, 46.50065], [24.46489, 46.5014], [24.46576, 46.50197], [24.46694, 46.50228], [24.46587, 46.50187], [24.46442, 46.50076], [24.46417, 46.50016], [24.46421, 46.4993], [24.46342, 46.49926], [24.46371, 46.49969]]], [[[24.45979, 46.51671], [24.46051, 46.51674], [24.4609, 46.51712], [24.46188, 46.5171], [24.46201, 46.51486], [24.45966, 46.515], [24.45887, 46.51574], [24.45767, 46.51599], [24.45903, 46.51694], [24.45931, 46.51699], [24.45979, 46.51671]]], [[[24.46108, 46.51767], [24.46083, 46.51804], [24.46027, 46.5182], [24.46031, 46.52043], [24.46079, 46.52077], [24.46074, 46.52125], [24.46163, 46.52154], [24.46185, 46.51764], [24.46108, 46.51767]]], [[[24.49076, 46.47023], [24.49036, 46.46876], [24.48864, 46.46822], [24.48775, 46.46752], [24.48439, 46.46902], [24.48246, 46.46917], [24.4821, 46.46938], [24.48222, 46.46957], [24.48244, 46.46927], [24.48566, 46.46904], [24.48623, 46.46883], [24.48673, 46.46905], [24.48759, 46.46831], [24.48832, 46.46867], [24.48885, 46.46859], [24.48895, 46.46898], [24.4895, 46.46925], [24.4885, 46.47014], [24.48966, 46.47118], [24.4905, 46.47074], [24.49096, 46.47088], [24.49121, 46.47122], [24.49441, 46.47], [24.50602, 46.46673], [24.50682, 46.46632], [24.50514, 46.46549], [24.50445, 46.46473], [24.50405, 46.46543], [24.50301, 46.4659], [24.5024, 46.46598], [24.50168, 46.46572], [24.50011, 46.46595], [24.49845, 46.46731], [24.49716, 46.46773], [24.49634, 46.46899], [24.49584, 46.46933], [24.49509, 46.46931], [24.49404, 46.46856], [24.4936, 46.46935], [24.49274, 46.4696], [24.49181, 46.47039], [24.49126, 46.47049], [24.49076, 46.47023]]], [[[24.48506, 46.47351], [24.48471, 46.4737], [24.48387, 46.47358], [24.4837, 46.47485], [24.48511, 46.47558], [24.48527, 46.47452], [24.48652, 46.47449], [24.48646, 46.47337], [24.48506, 46.47351]]], [[[24.48327, 46.47537], [24.48292, 46.47496], [24.4831, 46.47405], [24.48274, 46.47436], [24.48216, 46.4743], [24.48163, 46.47454], [24.48137, 46.4742], [24.47992, 46.47393], [24.47945, 46.47335], [24.4744, 46.47529], [24.47512, 46.47548], [24.47543, 46.47606], [24.47532, 46.47678], [24.47578, 46.47855], [24.47549, 46.47898], [24.47437, 46.47919], [24.47362, 46.47881], [24.47207, 46.47901], [24.47149, 46.47878], [24.47125, 46.47823], [24.47003, 46.47839], [24.46957, 46.47865], [24.47535, 46.47988], [24.48051, 46.48031], [24.48185, 46.47925], [24.48326, 46.47869], [24.48342, 46.47803], [24.48408, 46.47737], [24.48413, 46.47669], [24.48461, 46.47616], [24.48455, 46.47597], [24.48327, 46.47537]], [[24.48146, 46.47673], [24.4809, 46.47745], [24.47999, 46.47795], [24.47965, 46.47555], [24.48076, 46.47609], [24.48146, 46.47673]]], [[[24.4849, 46.47725], [24.48412, 46.47829], [24.48392, 46.47901], [24.4824, 46.47964], [24.48168, 46.48032], [24.48529, 46.48021], [24.48886, 46.47981], [24.49617, 46.47834], [24.49782, 46.47859], [24.49889, 46.47939], [24.49938, 46.47916], [24.49974, 46.4792], [24.50001, 46.4798], [24.49927, 46.48002], [24.50093, 46.48352], [24.5019, 46.48485], [24.5032, 46.48605], [24.50811, 46.48894], [24.50906, 46.48981], [24.50966, 46.49091], [24.50976, 46.492], [24.50823, 46.50449], [24.50835, 46.50527], [24.50883, 46.50591], [24.50968, 46.5064], [24.51585, 46.50883], [24.51832, 46.51001], [24.51929, 46.51026], [24.51924, 46.51091], [24.51821, 46.51143], [24.51589, 46.51368], [24.51647, 46.51409], [24.51677, 46.5138], [24.51668, 46.51315], [24.51747, 46.51274], [24.51842, 46.51189], [24.51917, 46.51186], [24.52045, 46.51257], [24.52159, 46.51149], [24.522, 46.5117], [24.52276, 46.51111], [24.5233, 46.51108], [24.52375, 46.51127], [24.52492, 46.51081], [24.52277, 46.50874], [24.52279, 46.50832], [24.5234, 46.50788], [24.52422, 46.50787], [24.52465, 46.50818], [24.52471, 46.50856], [24.52616, 46.509], [24.5277, 46.50843], [24.52813, 46.5081], [24.5293, 46.50788], [24.53002, 46.50727], [24.5317, 46.50706], [24.53289, 46.50579], [24.53349, 46.50436], [24.53332, 46.50337], [24.53231, 46.50182], [24.53256, 46.5009], [24.5344, 46.50051], [24.53655, 46.50061], [24.53948, 46.49994], [24.54076, 46.49986], [24.54101, 46.49972], [24.54085, 46.49935], [24.54154, 46.49878], [24.54232, 46.49826], [24.543, 46.49824], [24.54319, 46.49622], [24.54385, 46.49457], [24.54288, 46.4949], [24.54177, 46.49557], [24.54068, 46.49703], [24.53888, 46.4984], [24.53841, 46.4993], [24.53674, 46.49969], [24.53554, 46.499], [24.5342, 46.49885], [24.53157, 46.4995], [24.5307, 46.49996], [24.53016, 46.50062], [24.53003, 46.50136], [24.53031, 46.50209], [24.53104, 46.50272], [24.53116, 46.50406], [24.52868, 46.50446], [24.52649, 46.50536], [24.52543, 46.50502], [24.52397, 46.50484], [24.52156, 46.5052], [24.52034, 46.50579], [24.51937, 46.50651], [24.51848, 46.50806], [24.51241, 46.50488], [24.51066, 46.50432], [24.51216, 46.49212], [24.51194, 46.49035], [24.51126, 46.48913], [24.51018, 46.48804], [24.50535, 46.48519], [24.50399, 46.48404], [24.5032, 46.48297], [24.50221, 46.48085], [24.50269, 46.47963], [24.50213, 46.47836], [24.50158, 46.47788], [24.50057, 46.47745], [24.49938, 46.47732], [24.49775, 46.4768], [24.49635, 46.47668], [24.48723, 46.47832], [24.48802, 46.4765], [24.4879, 46.47543], [24.48984, 46.47515], [24.49179, 46.47435], [24.49275, 46.47371], [24.49325, 46.47295], [24.49527, 46.47214], [24.50434, 46.46956], [24.50549, 46.47048], [24.50758, 46.471], [24.50867, 46.47106], [24.50994, 46.47073], [24.51059, 46.47029], [24.51185, 46.46983], [24.51266, 46.46886], [24.5127, 46.4681], [24.51232, 46.4674], [24.51157, 46.46685], [24.51073, 46.46657], [24.51147, 46.46595], [24.51239, 46.46453], [24.5212, 46.46515], [24.52284, 46.46571], [24.52374, 46.46665], [24.52535, 46.46755], [24.52663, 46.46785], [24.52822, 46.46762], [24.52905, 46.46714], [24.52952, 46.46654], [24.53128, 46.46636], [24.53251, 46.46551], [24.53507, 46.46556], [24.54483, 46.47193], [24.5469, 46.47294], [24.54771, 46.47444], [24.54919, 46.47545], [24.54797, 46.47655], [24.54738, 46.47779], [24.54781, 46.47887], [24.54856, 46.47942], [24.54929, 46.47968], [24.55091, 46.47971], [24.55238, 46.47903], [24.5518, 46.47815], [24.55052, 46.47797], [24.55009, 46.47811], [24.54979, 46.47779], [24.55051, 46.47695], [24.55025, 46.47674], [24.55124, 46.47612], [24.55333, 46.4762], [24.55375, 46.47549], [24.55325, 46.47498], [24.55276, 46.47387], [24.55268, 46.47285], [24.5517, 46.47303], [24.55104, 46.47266], [24.55105, 46.47228], [24.55064, 46.4725], [24.54957, 46.47232], [24.54931, 46.47195], [24.54824, 46.47174], [24.5483, 46.47158], [24.54654, 46.47076], [24.53597, 46.46401], [24.53492, 46.4638], [24.5333, 46.46384], [24.53332, 46.46437], [24.53042, 46.46431], [24.53038, 46.46475], [24.53005, 46.46491], [24.52963, 46.46462], [24.52814, 46.46461], [24.52809, 46.46483], [24.52722, 46.46474], [24.52713, 46.4656], [24.52769, 46.46591], [24.52688, 46.4662], [24.52363, 46.46457], [24.51975, 46.46386], [24.51693, 46.46387], [24.51414, 46.46336], [24.51175, 46.46338], [24.50998, 46.46386], [24.51007, 46.46816], [24.51033, 46.46845], [24.51001, 46.46868], [24.50859, 46.46866], [24.50862, 46.46961], [24.50673, 46.4693], [24.50629, 46.46886], [24.50692, 46.46733], [24.50621, 46.46726], [24.49419, 46.47066], [24.49209, 46.4715], [24.4926, 46.47198], [24.49191, 46.47321], [24.49114, 46.47301], [24.49056, 46.47402], [24.48946, 46.47382], [24.48914, 46.47432], [24.48878, 46.47417], [24.48832, 46.47475], [24.48743, 46.47521], [24.48745, 46.47657], [24.4863, 46.47654], [24.4861, 46.47601], [24.48643, 46.47516], [24.48586, 46.4765], [24.4849, 46.47725]]], [[[24.47273, 46.4801], [24.46974, 46.4794], [24.47147, 46.48062], [24.47205, 46.48075], [24.47342, 46.48062], [24.4745, 46.48123], [24.47799, 46.48149], [24.47838, 46.48145], [24.47926, 46.4809], [24.47607, 46.48064], [24.47273, 46.4801]]], [[[24.47561, 46.49361], [24.47533, 46.49376], [24.47556, 46.49386], [24.47593, 46.49347], [24.47561, 46.49361]]], [[[24.47453, 46.49404], [24.4738, 46.49466], [24.47314, 46.49476], [24.4723, 46.49429], [24.47247, 46.4937], [24.47171, 46.49366], [24.47096, 46.49443], [24.47921, 46.49806], [24.48003, 46.49717], [24.4805, 46.49697], [24.47453, 46.49404]]], [[[24.48241, 46.50868], [24.48266, 46.50835], [24.4833, 46.50834], [24.4869, 46.51025], [24.48756, 46.51049], [24.4886, 46.51054], [24.4895, 46.51094], [24.49097, 46.5095], [24.49011, 46.50938], [24.48608, 46.5072], [24.4839, 46.50744], [24.48196, 46.50851], [24.48241, 46.50868]]], [[[24.48658, 46.51115], [24.4839, 46.50963], [24.48301, 46.5098], [24.48301, 46.51238], [24.48403, 46.51322], [24.48338, 46.51472], [24.483, 46.51486], [24.48191, 46.51466], [24.48069, 46.51769], [24.47908, 46.51779], [24.47706, 46.51766], [24.47745, 46.51796], [24.47748, 46.51903], [24.47717, 46.51929], [24.47761, 46.52009], [24.47748, 46.52036], [24.47482, 46.52026], [24.47459, 46.52141], [24.4713, 46.52803], [24.47274, 46.52863], [24.47346, 46.52918], [24.47384, 46.52989], [24.47424, 46.53192], [24.47537, 46.53286], [24.47626, 46.53251], [24.47629, 46.53209], [24.48266, 46.53216], [24.4823, 46.53122], [24.48587, 46.53078], [24.48539, 46.52889], [24.48492, 46.52837], [24.48505, 46.52748], [24.48539, 46.52729], [24.48582, 46.52757], [24.48674, 46.52752], [24.48716, 46.52783], [24.48796, 46.53235], [24.49196, 46.53146], [24.49348, 46.53149], [24.49508, 46.53206], [24.49551, 46.52989], [24.49485, 46.52948], [24.49355, 46.52926], [24.49334, 46.52892], [24.4935, 46.5285], [24.49414, 46.52827], [24.49496, 46.52753], [24.4959, 46.52743], [24.49615, 46.52719], [24.49933, 46.52684], [24.49972, 46.52702], [24.50045, 46.52694], [24.50018, 46.5262], [24.50026, 46.52558], [24.50216, 46.52261], [24.50241, 46.52092], [24.50181, 46.51997], [24.49882, 46.51793], [24.49708, 46.51733], [24.49519, 46.51604], [24.49463, 46.51592], [24.49398, 46.51549], [24.49302, 46.51434], [24.49174, 46.51395], [24.49001, 46.5126], [24.4891, 46.51233], [24.4889, 46.5118], [24.48786, 46.51169], [24.48658, 46.51115]], [[24.48753, 46.5246], [24.48604, 46.52453], [24.48484, 46.52467], [24.48243, 46.52563], [24.48144, 46.5264], [24.48071, 46.52767], [24.48066, 46.5287], [24.48118, 46.52994], [24.47907, 46.53086], [24.47639, 46.53083], [24.4758, 46.5287], [24.47525, 46.52804], [24.47422, 46.52732], [24.47669, 46.52232], [24.47815, 46.52217], [24.47923, 46.52174], [24.48017, 46.52071], [24.48016, 46.51958], [24.48183, 46.51935], [24.48297, 46.51868], [24.48389, 46.51661], [24.48498, 46.51621], [24.48572, 46.51559], [24.48668, 46.51334], [24.48845, 46.51423], [24.49017, 46.51544], [24.49108, 46.5158], [24.49201, 46.51673], [24.49571, 46.5189], [24.49753, 46.52056], [24.49949, 46.52182], [24.4976, 46.52534], [24.49384, 46.52528], [24.49192, 46.52567], [24.49076, 46.52621], [24.48934, 46.52516], [24.48753, 46.5246]]], [[[24.47597, 46.51752], [24.47592, 46.51751], [24.47508, 46.51734], [24.47507, 46.51742], [24.47597, 46.51752]]], [[[24.4735, 46.52021], [24.47356, 46.52063], [24.474, 46.52062], [24.47403, 46.52026], [24.4735, 46.52021]]], [[[24.47312, 46.52148], [24.47254, 46.52146], [24.47222, 46.52128], [24.47217, 46.52067], [24.47043, 46.52027], [24.47002, 46.52056], [24.47061, 46.52078], [24.47068, 46.52115], [24.47353, 46.52187], [24.47369, 46.52155], [24.47312, 46.52148]]], [[[24.47891, 46.53546], [24.47825, 46.53555], [24.47711, 46.53512], [24.47595, 46.53506], [24.47622, 46.53309], [24.47369, 46.53538], [24.47375, 46.53726], [24.47215, 46.53958], [24.47187, 46.54084], [24.47227, 46.54238], [24.4741, 46.54413], [24.47428, 46.54407], [24.47434, 46.54562], [24.47375, 46.54646], [24.4744, 46.54597], [24.47476, 46.54603], [24.4749, 46.54624], [24.47364, 46.54735], [24.47308, 46.54755], [24.47316, 46.54833], [24.47256, 46.54987], [24.4731, 46.55062], [24.47502, 46.54825], [24.47524, 46.54914], [24.47593, 46.5492], [24.47741, 46.54913], [24.48058, 46.54856], [24.48156, 46.54818], [24.48275, 46.54736], [24.48364, 46.54591], [24.48365, 46.54472], [24.48322, 46.54369], [24.48241, 46.54283], [24.48123, 46.54214], [24.47888, 46.54162], [24.4774, 46.54171], [24.476, 46.54209], [24.47498, 46.54214], [24.47457, 46.54181], [24.47442, 46.54015], [24.47589, 46.53811], [24.47723, 46.53843], [24.47872, 46.53852], [24.48107, 46.53802], [24.48304, 46.5382], [24.4851, 46.53784], [24.48599, 46.53844], [24.48778, 46.53901], [24.48914, 46.53902], [24.49048, 46.53849], [24.4915, 46.53902], [24.49282, 46.53918], [24.49425, 46.54037], [24.49603, 46.54101], [24.49604, 46.54126], [24.4952, 46.54187], [24.49483, 46.54258], [24.49497, 46.54351], [24.49553, 46.54416], [24.4964, 46.54461], [24.49719, 46.54477], [24.49934, 46.54457], [24.49913, 46.54527], [24.4993, 46.54604], [24.50109, 46.54758], [24.5005, 46.54859], [24.49922, 46.54961], [24.49859, 46.55096], [24.49716, 46.55218], [24.49669, 46.55318], [24.49668, 46.55426], [24.49767, 46.55368], [24.49823, 46.55307], [24.49885, 46.5518], [24.49952, 46.55167], [24.503, 46.55196], [24.50288, 46.55165], [24.50218, 46.55164], [24.50258, 46.5507], [24.50328, 46.55032], [24.50432, 46.5501], [24.50483, 46.54974], [24.50467, 46.54927], [24.50507, 46.54888], [24.50601, 46.54885], [24.50623, 46.54867], [24.50671, 46.54805], [24.50652, 46.54789], [24.50571, 46.54804], [24.50511, 46.54737], [24.50665, 46.54638], [24.50497, 46.5452], [24.50409, 46.54573], [24.50363, 46.54567], [24.50312, 46.54594], [24.50299, 46.54625], [24.50258, 46.54628], [24.50141, 46.54527], [24.50239, 46.5446], [24.50043, 46.54283], [24.4999, 46.54265], [24.49769, 46.54313], [24.49734, 46.54306], [24.49721, 46.54282], [24.4974, 46.54263], [24.49918, 46.54225], [24.49855, 46.54183], [24.49902, 46.5413], [24.49856, 46.54127], [24.49839, 46.54087], [24.49912, 46.54027], [24.49971, 46.54041], [24.50002, 46.54077], [24.50003, 46.54053], [24.49881, 46.5392], [24.49755, 46.53925], [24.49676, 46.53831], [24.49546, 46.53868], [24.49523, 46.53831], [24.49591, 46.53801], [24.4934, 46.53728], [24.49266, 46.53753], [24.49225, 46.53733], [24.49239, 46.53704], [24.49453, 46.53607], [24.49721, 46.53667], [24.49769, 46.53592], [24.49504, 46.53467], [24.49503, 46.53426], [24.49097, 46.53316], [24.48979, 46.53534], [24.48992, 46.53567], [24.4895, 46.53583], [24.48933, 46.53642], [24.48879, 46.53698], [24.48885, 46.53724], [24.48842, 46.53759], [24.48282, 46.5354], [24.47917, 46.53522], [24.47891, 46.53546]], [[24.47876, 46.54459], [24.47928, 46.54487], [24.47942, 46.54539], [24.47907, 46.54577], [24.47846, 46.54588], [24.47785, 46.54561], [24.47771, 46.54508], [24.47809, 46.54468], [24.47876, 46.54459]], [[24.47706, 46.54591], [24.47649, 46.54624], [24.47554, 46.54616], [24.4751, 46.54587], [24.4751, 46.54539], [24.47567, 46.54506], [24.47662, 46.54514], [24.47706, 46.54543], [24.47706, 46.54591]], [[24.49251, 46.53398], [24.49261, 46.53502], [24.4923, 46.53517], [24.49201, 46.53463], [24.49219, 46.53405], [24.49251, 46.53398]]], [[[24.47487, 46.55072], [24.47476, 46.55147], [24.47518, 46.55192], [24.47514, 46.55141], [24.47487, 46.55072]]], [[[24.47293, 46.55488], [24.47354, 46.55576], [24.47286, 46.55617], [24.47228, 46.55625], [24.47221, 46.55744], [24.47259, 46.55901], [24.47419, 46.55941], [24.47402, 46.55903], [24.47565, 46.55844], [24.47675, 46.55761], [24.47571, 46.55674], [24.47759, 46.55575], [24.4775, 46.55497], [24.47742, 46.55472], [24.47645, 46.5548], [24.47588, 46.55546], [24.47511, 46.5556], [24.47353, 46.55451], [24.47275, 46.55463], [24.47293, 46.55488]]], [[[24.47956, 46.56438], [24.47896, 46.5638], [24.47783, 46.56323], [24.47515, 46.56132], [24.47491, 46.56083], [24.47497, 46.56253], [24.47544, 46.56294], [24.47498, 46.56349], [24.47741, 46.56464], [24.47795, 46.56473], [24.47956, 46.56438]]], [[[24.47442, 46.5664], [24.47467, 46.56808], [24.47525, 46.56946], [24.47535, 46.57134], [24.47696, 46.5744], [24.47943, 46.57445], [24.47773, 46.57097], [24.47762, 46.56921], [24.47712, 46.56795], [24.47747, 46.56794], [24.47805, 46.56654], [24.4763, 46.5662], [24.47555, 46.56518], [24.47471, 46.56485], [24.47424, 46.56497], [24.47403, 46.56577], [24.47442, 46.5664]]], [[[24.50453, 46.46215], [24.50676, 46.46225], [24.50694, 46.46165], [24.50645, 46.46061], [24.50673, 46.45991], [24.50638, 46.45984], [24.50627, 46.4596], [24.50704, 46.45906], [24.50794, 46.4589], [24.50808, 46.45813], [24.50548, 46.45807], [24.50427, 46.4583], [24.50326, 46.45825], [24.5035, 46.45906], [24.5055, 46.45871], [24.50558, 46.45973], [24.50395, 46.46003], [24.50453, 46.46215]]], [[[24.50645, 46.46543], [24.50646, 46.46544], [24.50716, 46.46582], [24.50634, 46.46538], [24.50645, 46.46543]]], [[[24.4949, 46.49603], [24.49421, 46.49601], [24.49333, 46.49638], [24.49402, 46.49668], [24.4949, 46.49603]]], [[[24.49103, 46.49736], [24.49224, 46.49793], [24.49348, 46.49708], [24.4926, 46.49669], [24.49103, 46.49736]]], [[[24.49239, 46.50947], [24.49264, 46.5096], [24.49365, 46.50937], [24.49493, 46.50942], [24.49655, 46.50991], [24.49779, 46.5097], [24.49814, 46.50985], [24.49861, 46.51053], [24.49984, 46.50959], [24.50015, 46.50877], [24.49997, 46.50837], [24.49934, 46.50789], [24.49758, 46.50723], [24.49597, 46.50711], [24.4913, 46.50468], [24.48855, 46.5056], [24.48786, 46.50633], [24.49241, 46.50883], [24.4919, 46.50921], [24.49239, 46.50947]]], [[[24.50112, 46.50926], [24.50106, 46.50948], [24.50109, 46.50949], [24.50113, 46.50931], [24.50113, 46.50922], [24.50112, 46.50926]]], [[[24.50434, 46.51], [24.5042, 46.50994], [24.5048, 46.5102], [24.5046, 46.51005], [24.50434, 46.51]]], [[[24.50515, 46.52074], [24.50385, 46.52028], [24.50398, 46.52115], [24.50349, 46.52188], [24.50315, 46.52313], [24.50166, 46.5254], [24.50157, 46.52612], [24.50192, 46.52659], [24.50323, 46.52746], [24.50532, 46.52808], [24.50623, 46.52875], [24.50713, 46.53052], [24.50733, 46.53323], [24.50818, 46.5344], [24.50922, 46.53463], [24.51045, 46.53461], [24.51302, 46.53349], [24.51412, 46.53328], [24.51679, 46.5334], [24.51804, 46.53368], [24.52351, 46.53627], [24.52464, 46.53729], [24.52497, 46.53817], [24.52631, 46.54021], [24.52827, 46.54175], [24.52912, 46.54172], [24.52901, 46.54131], [24.52754, 46.54049], [24.52796, 46.54013], [24.52831, 46.5403], [24.52916, 46.53959], [24.53026, 46.54], [24.53063, 46.53966], [24.53203, 46.54027], [24.53227, 46.54006], [24.53091, 46.53943], [24.53087, 46.53882], [24.53142, 46.53837], [24.53224, 46.53838], [24.53435, 46.53955], [24.53464, 46.53918], [24.53416, 46.53792], [24.53611, 46.53653], [24.53624, 46.53593], [24.5356, 46.53553], [24.53502, 46.53556], [24.53454, 46.53529], [24.53437, 46.53495], [24.53452, 46.53435], [24.53365, 46.5339], [24.53353, 46.53342], [24.53194, 46.53302], [24.53175, 46.53245], [24.53213, 46.53211], [24.53142, 46.5315], [24.52973, 46.53056], [24.52888, 46.53076], [24.52741, 46.53007], [24.52665, 46.52958], [24.52669, 46.52905], [24.52374, 46.52758], [24.52234, 46.52756], [24.52245, 46.52782], [24.52324, 46.52829], [24.52317, 46.52883], [24.52248, 46.5291], [24.52173, 46.52889], [24.52182, 46.52922], [24.52095, 46.5304], [24.52014, 46.53084], [24.5196, 46.53057], [24.51732, 46.53269], [24.51427, 46.53113], [24.51671, 46.52883], [24.51659, 46.52827], [24.51603, 46.52849], [24.51539, 46.52838], [24.51512, 46.5286], [24.51377, 46.528], [24.51194, 46.52845], [24.51165, 46.52884], [24.51067, 46.52915], [24.51011, 46.52899], [24.50935, 46.5282], [24.5072, 46.52816], [24.50655, 46.52798], [24.50634, 46.5271], [24.50662, 46.52635], [24.50728, 46.52586], [24.50837, 46.52574], [24.50886, 46.52588], [24.50945, 46.52644], [24.50918, 46.52703], [24.50978, 46.52728], [24.51066, 46.52657], [24.51019, 46.52613], [24.50952, 46.52476], [24.51043, 46.52467], [24.51072, 46.52425], [24.51055, 46.52303], [24.51089, 46.52252], [24.51218, 46.52228], [24.51268, 46.52246], [24.51291, 46.52284], [24.51393, 46.52262], [24.51554, 46.52315], [24.51526, 46.52296], [24.51552, 46.52267], [24.51496, 46.52175], [24.51271, 46.52087], [24.51234, 46.52053], [24.51253, 46.52034], [24.51156, 46.52107], [24.51115, 46.52111], [24.51046, 46.52089], [24.51055, 46.52158], [24.50959, 46.52249], [24.50911, 46.52264], [24.50722, 46.52192], [24.50515, 46.52074]], [[24.51371, 46.53147], [24.51416, 46.53124], [24.51459, 46.53145], [24.51417, 46.53144], [24.51371, 46.53147]], [[24.5037, 46.52659], [24.50315, 46.52624], [24.50323, 46.52559], [24.50371, 46.52527], [24.50445, 46.5253], [24.50494, 46.52569], [24.50485, 46.52628], [24.50436, 46.5266], [24.5037, 46.52659]], [[24.51316, 46.53157], [24.51414, 46.53178], [24.51366, 46.53225], [24.51137, 46.53351], [24.51011, 46.53366], [24.50904, 46.53299], [24.5089, 46.53227], [24.50957, 46.53149], [24.51096, 46.53142], [24.51166, 46.53175], [24.51316, 46.53157]], [[24.52928, 46.53536], [24.5298, 46.53563], [24.5285, 46.53619], [24.52736, 46.5371], [24.52667, 46.53606], [24.52534, 46.53493], [24.52211, 46.53333], [24.52344, 46.53283], [24.52438, 46.53218], [24.52638, 46.5332], [24.52766, 46.5336], [24.52829, 46.53459], [24.52928, 46.53536]]], [[[24.49609, 46.53451], [24.4968, 46.53484], [24.49627, 46.53456], [24.49609, 46.53451]]], [[[24.49933, 46.5388], [24.50046, 46.53999], [24.50184, 46.53944], [24.50084, 46.53851], [24.50038, 46.53867], [24.50002, 46.53859], [24.49992, 46.53835], [24.50011, 46.53816], [24.50108, 46.53792], [24.50252, 46.53916], [24.5031, 46.53893], [24.50003, 46.53672], [24.49895, 46.53746], [24.49835, 46.53713], [24.49985, 46.53849], [24.49913, 46.53869], [24.49933, 46.5388]]], [[[24.50366, 46.55517], [24.50375, 46.55511], [24.50367, 46.55504], [24.50354, 46.55519], [24.50366, 46.55517]]], [[[24.50266, 46.55657], [24.50308, 46.55628], [24.50278, 46.55593], [24.50283, 46.55559], [24.50167, 46.55577], [24.50002, 46.55687], [24.49837, 46.55754], [24.49675, 46.55782], [24.49637, 46.55759], [24.49556, 46.55788], [24.49456, 46.55843], [24.49365, 46.55926], [24.49313, 46.56024], [24.49304, 46.56104], [24.49458, 46.56225], [24.4957, 46.5616], [24.49676, 46.5623], [24.49604, 46.5637], [24.49549, 46.5643], [24.49577, 46.56443], [24.49766, 46.56487], [24.49987, 46.56493], [24.50139, 46.56476], [24.50162, 46.5647], [24.50149, 46.56431], [24.50083, 46.56342], [24.50144, 46.5621], [24.50378, 46.56327], [24.50645, 46.56169], [24.50759, 46.56261], [24.50889, 46.56314], [24.51047, 46.56343], [24.51179, 46.5634], [24.51581, 46.56144], [24.51553, 46.56061], [24.51622, 46.55965], [24.52034, 46.55981], [24.52236, 46.56138], [24.52014, 46.5624], [24.51822, 46.56163], [24.51744, 46.56217], [24.51656, 46.56183], [24.51474, 46.56266], [24.5174, 46.56484], [24.51619, 46.56512], [24.51551, 46.5657], [24.518, 46.56591], [24.51877, 46.5657], [24.51878, 46.56538], [24.51818, 46.56494], [24.51818, 46.56451], [24.51844, 46.56419], [24.51895, 46.56402], [24.51921, 46.56352], [24.51994, 46.56332], [24.52075, 46.56281], [24.52163, 46.56299], [24.52381, 46.56198], [24.52326, 46.56034], [24.52253, 46.5595], [24.52183, 46.55956], [24.5195, 46.55818], [24.51923, 46.55784], [24.51828, 46.55754], [24.51959, 46.5555], [24.51854, 46.55496], [24.51764, 46.55572], [24.51719, 46.55572], [24.51667, 46.55609], [24.51595, 46.55608], [24.51577, 46.55575], [24.51384, 46.55442], [24.51364, 46.5539], [24.51405, 46.55344], [24.51295, 46.55279], [24.51279, 46.55291], [24.51259, 46.55277], [24.51206, 46.55352], [24.51124, 46.55359], [24.51136, 46.55397], [24.51116, 46.55434], [24.51241, 46.55538], [24.51287, 46.55618], [24.51297, 46.55691], [24.51445, 46.55721], [24.51442, 46.55848], [24.51401, 46.55905], [24.51468, 46.55922], [24.51463, 46.5596], [24.512, 46.5594], [24.51141, 46.5604], [24.51075, 46.56047], [24.51011, 46.56015], [24.51007, 46.55941], [24.51058, 46.5591], [24.51125, 46.55917], [24.51214, 46.55715], [24.51172, 46.55687], [24.51123, 46.55695], [24.51067, 46.55679], [24.51025, 46.55633], [24.5102, 46.55587], [24.51073, 46.55551], [24.51135, 46.55549], [24.51183, 46.5558], [24.51089, 46.55495], [24.50562, 46.55825], [24.50728, 46.55962], [24.5072, 46.55998], [24.50668, 46.55996], [24.50504, 46.55861], [24.5013, 46.56104], [24.50081, 46.56118], [24.50074, 46.56151], [24.50027, 46.56187], [24.4989, 46.562], [24.49792, 46.56187], [24.49748, 46.56149], [24.49732, 46.56099], [24.49765, 46.56049], [24.49693, 46.56052], [24.49682, 46.56014], [24.49942, 46.55969], [24.49857, 46.5588], [24.50272, 46.55673], [24.50266, 46.55657]]], [[[24.51951, 46.45173], [24.52058, 46.45039], [24.52066, 46.44935], [24.51516, 46.44924], [24.51199, 46.45236], [24.51089, 46.45227], [24.50983, 46.45248], [24.50934, 46.4535], [24.50919, 46.45478], [24.51022, 46.45398], [24.51174, 46.45401], [24.51316, 46.45374], [24.51598, 46.45141], [24.51765, 46.44959], [24.5181, 46.44952], [24.51935, 46.45032], [24.51533, 46.45372], [24.5144, 46.4552], [24.51325, 46.45644], [24.5153, 46.45657], [24.51512, 46.45587], [24.51951, 46.45173]]], [[[24.51683, 46.45812], [24.51811, 46.4586], [24.51842, 46.45933], [24.51978, 46.45903], [24.52074, 46.45923], [24.5217, 46.45904], [24.5222, 46.45928], [24.52236, 46.45981], [24.52411, 46.45966], [24.52531, 46.46056], [24.52646, 46.46022], [24.52771, 46.46056], [24.52938, 46.46051], [24.53103, 46.46103], [24.53234, 46.46095], [24.53338, 46.46066], [24.53411, 46.4607], [24.53505, 46.46104], [24.53596, 46.46066], [24.53709, 46.4608], [24.53757, 46.46018], [24.5385, 46.45984], [24.53742, 46.45968], [24.53674, 46.46026], [24.53577, 46.46054], [24.53482, 46.46023], [24.5341, 46.46035], [24.53326, 46.46012], [24.53211, 46.46066], [24.53124, 46.46025], [24.53016, 46.46013], [24.52975, 46.4599], [24.53021, 46.45978], [24.53016, 46.45966], [24.5293, 46.45946], [24.52847, 46.45871], [24.52618, 46.45839], [24.52503, 46.45794], [24.52387, 46.4578], [24.52296, 46.45739], [24.52269, 46.45801], [24.5218, 46.45812], [24.52109, 46.45771], [24.52033, 46.45764], [24.51762, 46.4581], [24.51691, 46.4575], [24.51669, 46.4577], [24.51683, 46.45812]]], [[[24.51533, 46.45791], [24.51093, 46.45898], [24.51113, 46.4601], [24.51307, 46.46042], [24.51425, 46.46081], [24.51365, 46.46193], [24.52058, 46.46238], [24.5233, 46.46228], [24.52528, 46.46207], [24.5254, 46.46136], [24.52608, 46.46117], [24.52643, 46.46142], [24.52695, 46.46145], [24.52736, 46.46213], [24.53261, 46.46256], [24.53326, 46.46276], [24.53328, 46.4633], [24.54297, 46.46275], [24.54646, 46.46276], [24.54747, 46.46211], [24.54833, 46.46193], [24.54818, 46.46096], [24.5471, 46.46075], [24.54639, 46.4603], [24.54529, 46.46064], [24.54428, 46.46046], [24.54332, 46.46055], [24.5415, 46.45977], [24.54058, 46.4597], [24.53827, 46.46049], [24.5375, 46.46128], [24.5361, 46.46119], [24.53526, 46.46157], [24.53341, 46.4612], [24.53246, 46.46149], [24.53095, 46.46157], [24.52917, 46.46103], [24.52756, 46.46109], [24.52645, 46.46076], [24.52516, 46.4611], [24.52387, 46.46018], [24.522, 46.4603], [24.52156, 46.45998], [24.52149, 46.45964], [24.52052, 46.45977], [24.51982, 46.45958], [24.51862, 46.45987], [24.51797, 46.45979], [24.51758, 46.45941], [24.51751, 46.45897], [24.51636, 46.45858], [24.51596, 46.45792], [24.51533, 46.45791]], [[24.5158, 46.46088], [24.51498, 46.46084], [24.51476, 46.46004], [24.51521, 46.46025], [24.5158, 46.46088]]], [[[24.50963, 46.45954], [24.50989, 46.45996], [24.51033, 46.46008], [24.5101, 46.45927], [24.51027, 46.45864], [24.50968, 46.45842], [24.50917, 46.45918], [24.50963, 46.45954]]], [[[24.51034, 46.46063], [24.50943, 46.4604], [24.50895, 46.45981], [24.508, 46.45966], [24.50723, 46.46047], [24.50772, 46.46157], [24.50755, 46.46226], [24.50812, 46.46227], [24.50915, 46.46081], [24.5103, 46.46109], [24.51069, 46.46056], [24.51034, 46.46063]]], [[[24.51863, 46.51056], [24.51861, 46.51055], [24.51859, 46.51056], [24.51862, 46.51057], [24.51863, 46.51056]]], [[[24.51427, 46.51381], [24.51413, 46.51371], [24.51334, 46.51332], [24.51427, 46.51384], [24.51427, 46.51381]]], [[[24.51506, 46.5138], [24.51508, 46.51379], [24.51507, 46.51378], [24.51506, 46.51378], [24.51506, 46.5138]]], [[[24.51525, 46.51433], [24.51517, 46.51433], [24.51534, 46.51443], [24.51542, 46.51436], [24.51525, 46.51433]]], [[[24.51945, 46.51422], [24.51839, 46.51504], [24.51874, 46.51522], [24.51879, 46.51485], [24.51945, 46.51422]]], [[[24.51244, 46.51382], [24.51262, 46.51393], [24.51179, 46.51473], [24.51188, 46.51489], [24.51483, 46.516], [24.51529, 46.51652], [24.51205, 46.5199], [24.51244, 46.5198], [24.51315, 46.51995], [24.51383, 46.51928], [24.51441, 46.51957], [24.51549, 46.51843], [24.51609, 46.51808], [24.51823, 46.51898], [24.51967, 46.51752], [24.51684, 46.51616], [24.51637, 46.51569], [24.51232, 46.51346], [24.51244, 46.51382]]], [[[24.51789, 46.5209], [24.51866, 46.52037], [24.51784, 46.52007], [24.51785, 46.51945], [24.51762, 46.51935], [24.51633, 46.52055], [24.51572, 46.52062], [24.51493, 46.52031], [24.51473, 46.52049], [24.51626, 46.52127], [24.51673, 46.52166], [24.51656, 46.52186], [24.51794, 46.52253], [24.51776, 46.52271], [24.51826, 46.52286], [24.51873, 46.52256], [24.51756, 46.52156], [24.51757, 46.52119], [24.51789, 46.5209]]], [[[24.51106, 46.52639], [24.51123, 46.52649], [24.51163, 46.52634], [24.51106, 46.52639]]], [[[24.51778, 46.52751], [24.51848, 46.52758], [24.51911, 46.52788], [24.52039, 46.52788], [24.52068, 46.52733], [24.52002, 46.52672], [24.51778, 46.52683], [24.51603, 46.52631], [24.51608, 46.52675], [24.51559, 46.52714], [24.51655, 46.52751], [24.51682, 46.52802], [24.51728, 46.52762], [24.51778, 46.52751]]], [[[24.50798, 46.52714], [24.50799, 46.52718], [24.50812, 46.52711], [24.50802, 46.52707], [24.50798, 46.52714]]], [[[24.51259, 46.53487], [24.51124, 46.53548], [24.50976, 46.5356], [24.50856, 46.53554], [24.50751, 46.53519], [24.5073, 46.53548], [24.50845, 46.53625], [24.50739, 46.5379], [24.50939, 46.53953], [24.50963, 46.5403], [24.5089, 46.54114], [24.50941, 46.54151], [24.5121, 46.54038], [24.51307, 46.54171], [24.51458, 46.54294], [24.51547, 46.54298], [24.51616, 46.54401], [24.51701, 46.54286], [24.51701, 46.54166], [24.51742, 46.54123], [24.51728, 46.54116], [24.51794, 46.54065], [24.51839, 46.54091], [24.5192, 46.54009], [24.52003, 46.54001], [24.51791, 46.53864], [24.51747, 46.53809], [24.51626, 46.53816], [24.51539, 46.53769], [24.51633, 46.5369], [24.5175, 46.53677], [24.51808, 46.53796], [24.51845, 46.53825], [24.51887, 46.53789], [24.51933, 46.53818], [24.51972, 46.53784], [24.52016, 46.53817], [24.51941, 46.53886], [24.52108, 46.53995], [24.52122, 46.54056], [24.52162, 46.54044], [24.5224, 46.53959], [24.5229, 46.53989], [24.52307, 46.539], [24.52375, 46.53882], [24.52269, 46.53714], [24.51838, 46.53508], [24.51658, 46.53452], [24.51504, 46.53431], [24.5135, 46.5345], [24.51259, 46.53487]], [[24.51403, 46.53938], [24.5133, 46.54011], [24.51203, 46.54009], [24.51153, 46.53877], [24.51, 46.53743], [24.51232, 46.53716], [24.51433, 46.53627], [24.51514, 46.53618], [24.51647, 46.5365], [24.51579, 46.53686], [24.51522, 46.5375], [24.51516, 46.53872], [24.51403, 46.53938]]], [[[24.5174, 46.54336], [24.51744, 46.54337], [24.51785, 46.54351], [24.51748, 46.5433], [24.5174, 46.54336]]], [[[24.51664, 46.54701], [24.51702, 46.54638], [24.5169, 46.54579], [24.51574, 46.54673], [24.51633, 46.54715], [24.51664, 46.54701]]], [[[24.50651, 46.54719], [24.50599, 46.54744], [24.50602, 46.54747], [24.50632, 46.5473], [24.50651, 46.54719]]], [[[24.51554, 46.54793], [24.51591, 46.54795], [24.51583, 46.54758], [24.515, 46.54807], [24.51554, 46.54793]]], [[[24.51362, 46.5486], [24.51363, 46.54855], [24.51262, 46.54786], [24.51361, 46.54859], [24.51362, 46.5486]]], [[[24.5135, 46.54905], [24.51358, 46.54911], [24.51364, 46.54898], [24.51359, 46.54901], [24.5135, 46.54905]]], [[[24.51552, 46.55136], [24.51559, 46.55132], [24.51566, 46.55129], [24.51553, 46.55129], [24.51552, 46.55136]]], [[[24.50904, 46.55291], [24.50902, 46.55288], [24.50901, 46.55288], [24.50904, 46.55291]]], [[[24.50825, 46.55416], [24.5081, 46.55396], [24.50739, 46.55424], [24.5076, 46.55445], [24.50825, 46.55416]]], [[[24.51213, 46.55641], [24.51215, 46.55642], [24.51214, 46.55639], [24.51213, 46.55641]]], [[[24.51386, 46.56497], [24.51387, 46.56506], [24.51391, 46.56501], [24.51386, 46.56497]]], [[[24.51299, 46.57327], [24.51383, 46.57367], [24.51547, 46.57312], [24.51627, 46.57236], [24.51691, 46.5723], [24.51735, 46.57249], [24.51914, 46.57177], [24.5187, 46.57029], [24.51768, 46.57055], [24.51568, 46.57155], [24.51242, 46.57156], [24.51205, 46.57265], [24.5122, 46.57312], [24.51299, 46.57327]]], [[[24.51155, 46.57377], [24.51156, 46.57358], [24.51098, 46.57355], [24.51052, 46.57323], [24.51047, 46.57286], [24.51079, 46.57254], [24.50882, 46.57178], [24.5069, 46.57324], [24.50569, 46.57374], [24.50715, 46.57497], [24.50702, 46.57506], [24.51028, 46.57513], [24.51171, 46.57404], [24.51155, 46.57377]]], [[[24.54089, 46.47308], [24.53997, 46.47201], [24.53822, 46.47147], [24.53784, 46.47016], [24.53659, 46.46934], [24.53547, 46.46912], [24.53138, 46.46887], [24.52991, 46.46903], [24.52872, 46.46965], [24.52758, 46.47089], [24.52629, 46.47313], [24.52632, 46.47421], [24.52707, 46.47583], [24.52693, 46.47675], [24.52722, 46.47757], [24.52847, 46.47849], [24.5308, 46.47884], [24.53299, 46.47863], [24.53388, 46.47885], [24.53551, 46.47892], [24.53664, 46.47867], [24.53747, 46.47821], [24.53884, 46.47804], [24.53984, 46.47755], [24.54057, 46.47663], [24.54087, 46.47517], [24.54089, 46.47308]], [[24.52968, 46.47684], [24.5298, 46.47565], [24.52959, 46.4752], [24.52988, 46.4747], [24.529, 46.47404], [24.52888, 46.47356], [24.52903, 46.47314], [24.52981, 46.47245], [24.52989, 46.47179], [24.53073, 46.47124], [24.53078, 46.47082], [24.53114, 46.4707], [24.53541, 46.47099], [24.53559, 46.47123], [24.53522, 46.47304], [24.53801, 46.4733], [24.53829, 46.47348], [24.53795, 46.47625], [24.53758, 46.47638], [24.53567, 46.47612], [24.53556, 46.4769], [24.53523, 46.47709], [24.53417, 46.47698], [24.53418, 46.47612], [24.5333, 46.47595], [24.5327, 46.47679], [24.53114, 46.47701], [24.52968, 46.47684]]], [[[24.53765, 46.50384], [24.5388, 46.50328], [24.54036, 46.50292], [24.54109, 46.50423], [24.54271, 46.50538], [24.5443, 46.50563], [24.54584, 46.50521], [24.54545, 46.50455], [24.54458, 46.50462], [24.5433, 46.50422], [24.54321, 46.50369], [24.54228, 46.50262], [24.54179, 46.50163], [24.54094, 46.50117], [24.53819, 46.502], [24.53777, 46.50336], [24.53742, 46.50353], [24.53736, 46.50375], [24.53765, 46.50384]]], [[[24.53862, 46.5077], [24.53733, 46.5079], [24.53666, 46.5082], [24.53852, 46.50794], [24.53862, 46.5077]]], [[[24.53312, 46.50818], [24.53312, 46.50819], [24.53315, 46.5082], [24.53312, 46.50818]]], [[[24.53355, 46.50857], [24.53407, 46.50954], [24.53458, 46.50977], [24.53398, 46.5086], [24.53355, 46.50857]]], [[[24.53544, 46.51216], [24.53784, 46.51223], [24.53792, 46.51082], [24.53566, 46.51031], [24.53524, 46.51099], [24.53404, 46.51096], [24.53362, 46.51073], [24.53355, 46.51023], [24.53322, 46.51001], [24.5326, 46.50998], [24.53183, 46.5095], [24.53109, 46.50938], [24.52794, 46.51018], [24.5267, 46.51106], [24.52675, 46.51195], [24.52706, 46.51246], [24.52697, 46.51396], [24.52742, 46.51461], [24.52731, 46.51511], [24.52763, 46.51561], [24.52824, 46.51506], [24.53016, 46.51464], [24.53174, 46.51456], [24.53272, 46.51473], [24.53334, 46.51522], [24.53442, 46.5154], [24.53526, 46.51586], [24.53767, 46.5163], [24.53844, 46.5168], [24.53884, 46.51747], [24.53875, 46.51823], [24.5383, 46.5188], [24.5376, 46.51916], [24.53855, 46.51905], [24.54142, 46.51951], [24.54231, 46.51782], [24.54223, 46.51723], [24.54244, 46.51683], [24.54227, 46.51613], [24.54191, 46.51607], [24.54187, 46.51591], [24.54235, 46.51592], [24.54279, 46.51549], [24.54236, 46.5154], [24.54147, 46.51601], [24.54068, 46.51701], [24.54028, 46.5181], [24.54006, 46.51804], [24.53995, 46.51676], [24.53882, 46.51554], [24.53749, 46.5149], [24.53733, 46.51432], [24.5356, 46.51418], [24.53319, 46.51337], [24.53142, 46.51187], [24.53205, 46.51134], [24.53124, 46.51078], [24.53108, 46.51043], [24.53206, 46.51037], [24.53286, 46.51115], [24.53408, 46.51179], [24.53544, 46.51216]]], [[[24.52066, 46.51329], [24.52095, 46.51303], [24.52069, 46.51291], [24.52065, 46.51316], [24.52066, 46.51329]]], [[[24.52101, 46.52092], [24.52157, 46.52059], [24.52222, 46.52055], [24.52232, 46.52005], [24.52306, 46.51975], [24.52367, 46.5198], [24.52454, 46.52041], [24.52473, 46.52033], [24.52291, 46.51935], [24.52229, 46.51958], [24.52154, 46.51933], [24.52062, 46.52033], [24.51933, 46.52064], [24.52031, 46.52192], [24.52085, 46.52186], [24.52107, 46.52167], [24.52101, 46.52092]]], [[[24.53586, 46.5288], [24.53548, 46.52875], [24.53541, 46.5289], [24.53732, 46.52975], [24.5378, 46.52948], [24.53865, 46.52963], [24.53877, 46.52949], [24.53651, 46.52849], [24.53586, 46.5288]]], [[[24.5371, 46.53042], [24.5357, 46.52966], [24.53394, 46.53057], [24.53457, 46.53056], [24.5353, 46.53082], [24.53626, 46.53145], [24.53692, 46.53165], [24.53722, 46.53222], [24.53953, 46.53317], [24.54013, 46.53323], [24.54092, 46.53251], [24.5404, 46.53224], [24.54032, 46.53179], [24.53954, 46.53199], [24.53889, 46.53179], [24.53851, 46.53123], [24.5371, 46.53042]]], [[[24.53186, 46.53071], [24.53169, 46.53081], [24.53154, 46.53086], [24.53205, 46.53073], [24.53186, 46.53071]]], [[[24.53437, 46.54007], [24.53446, 46.5402], [24.53462, 46.54005], [24.53444, 46.53991], [24.53437, 46.54007]]], [[[24.52297, 46.54039], [24.52298, 46.54027], [24.52291, 46.54018], [24.52292, 46.54053], [24.52297, 46.54039]]], [[[24.52345, 46.54078], [24.52331, 46.54099], [24.5236, 46.54109], [24.52346, 46.54089], [24.52345, 46.54078]]], [[[24.52022, 46.54117], [24.52037, 46.54118], [24.52034, 46.54106], [24.52022, 46.54117]]], [[[24.52501, 46.54086], [24.52527, 46.54159], [24.52595, 46.54178], [24.52533, 46.54123], [24.52501, 46.54086]]], [[[24.52982, 46.54232], [24.52984, 46.54232], [24.52984, 46.54232], [24.52982, 46.54232]]], [[[24.52279, 46.54255], [24.52252, 46.54253], [24.52284, 46.54292], [24.52288, 46.54259], [24.52279, 46.54255]]], [[[24.52603, 46.54233], [24.52568, 46.54235], [24.52547, 46.54256], [24.52517, 46.54339], [24.52426, 46.54361], [24.52392, 46.54388], [24.52562, 46.54468], [24.52636, 46.54478], [24.52706, 46.54443], [24.52802, 46.54345], [24.52603, 46.54233]]], [[[24.52872, 46.54483], [24.5287, 46.54506], [24.52932, 46.54426], [24.52895, 46.54468], [24.52872, 46.54483]]], [[[24.52375, 46.5449], [24.5241, 46.54515], [24.52457, 46.54483], [24.52387, 46.54449], [24.52375, 46.5449]]], [[[24.5204, 46.54522], [24.51972, 46.54517], [24.51905, 46.54469], [24.5189, 46.54484], [24.51971, 46.5452], [24.51955, 46.54538], [24.52028, 46.54579], [24.52115, 46.54526], [24.52074, 46.54506], [24.5204, 46.54522]]], [[[24.52644, 46.54625], [24.52597, 46.54586], [24.52578, 46.54711], [24.52605, 46.54726], [24.52678, 46.54659], [24.52644, 46.54625]]], [[[24.53359, 46.54734], [24.53327, 46.54779], [24.53259, 46.54808], [24.53317, 46.54915], [24.53271, 46.54971], [24.53227, 46.54987], [24.53229, 46.55017], [24.53343, 46.55051], [24.5338, 46.55085], [24.53443, 46.55081], [24.53504, 46.55101], [24.53528, 46.55129], [24.53631, 46.55144], [24.53668, 46.55173], [24.53814, 46.55193], [24.53857, 46.55247], [24.54026, 46.55265], [24.54043, 46.55227], [24.54009, 46.55176], [24.54044, 46.55092], [24.54108, 46.55047], [24.54159, 46.55035], [24.53449, 46.54667], [24.53359, 46.54734]]], [[[24.51777, 46.55127], [24.51728, 46.55101], [24.51675, 46.55127], [24.51592, 46.55129], [24.51682, 46.55194], [24.51776, 46.55208], [24.51959, 46.55322], [24.52016, 46.55255], [24.52069, 46.55231], [24.52019, 46.55201], [24.51972, 46.55232], [24.51935, 46.55232], [24.5192, 46.55194], [24.51777, 46.55127]]], [[[24.53537, 46.55746], [24.5357, 46.55719], [24.53573, 46.55674], [24.53634, 46.55619], [24.53521, 46.5558], [24.53347, 46.55644], [24.53202, 46.55745], [24.53131, 46.55754], [24.52884, 46.5589], [24.52973, 46.55969], [24.52893, 46.56023], [24.53107, 46.5625], [24.53244, 46.56151], [24.53337, 46.56161], [24.53396, 46.56236], [24.5331, 46.56306], [24.53387, 46.56354], [24.53437, 46.56359], [24.53519, 46.56461], [24.53571, 46.56478], [24.53624, 46.56538], [24.5373, 46.56482], [24.5378, 46.56351], [24.53758, 46.56298], [24.53704, 46.56302], [24.5358, 46.56262], [24.53498, 46.56283], [24.53479, 46.56261], [24.53494, 46.56239], [24.53416, 46.56185], [24.53459, 46.5609], [24.53528, 46.56059], [24.53586, 46.56061], [24.53608, 46.56027], [24.53582, 46.55994], [24.53525, 46.56003], [24.53479, 46.55987], [24.53431, 46.56005], [24.53398, 46.55994], [24.53394, 46.55967], [24.53455, 46.55919], [24.53454, 46.55876], [24.53415, 46.55859], [24.53412, 46.55834], [24.53527, 46.55781], [24.53599, 46.55801], [24.53627, 46.5583], [24.53669, 46.55824], [24.53626, 46.55759], [24.5357, 46.55775], [24.53537, 46.55746]]], [[[24.52316, 46.55919], [24.52413, 46.56045], [24.52462, 46.5618], [24.52454, 46.56219], [24.52352, 46.56275], [24.52198, 46.56457], [24.51929, 46.56639], [24.51935, 46.56721], [24.52124, 46.56875], [24.52116, 46.56937], [24.52149, 46.5701], [24.52071, 46.57126], [24.52553, 46.56919], [24.52584, 46.56647], [24.52976, 46.56655], [24.52983, 46.56636], [24.52825, 46.56647], [24.52744, 46.56602], [24.52746, 46.56565], [24.52791, 46.56527], [24.5295, 46.56517], [24.52987, 46.56407], [24.52957, 46.56299], [24.52843, 46.56227], [24.52686, 46.55968], [24.52638, 46.55951], [24.52602, 46.55904], [24.52534, 46.55791], [24.52538, 46.55753], [24.52465, 46.55657], [24.52292, 46.55891], [24.52316, 46.55919]]], [[[24.52298, 46.5754], [24.52359, 46.57442], [24.52427, 46.57384], [24.52552, 46.57352], [24.52564, 46.57094], [24.52445, 46.57196], [24.52233, 46.57326], [24.52145, 46.57362], [24.51991, 46.57381], [24.51871, 46.57425], [24.51935, 46.57533], [24.52298, 46.5754]]], [[[24.54105, 46.45918], [24.54186, 46.45929], [24.54346, 46.46002], [24.54433, 46.45992], [24.54519, 46.46011], [24.54648, 46.45975], [24.54746, 46.46027], [24.54826, 46.46041], [24.54797, 46.45894], [24.54467, 46.45887], [24.54384, 46.45902], [24.54371, 46.45885], [24.54226, 46.45887], [24.54144, 46.45918], [24.54065, 46.45916], [24.54105, 46.45918]]], [[[24.55613, 46.45947], [24.55543, 46.46006], [24.55552, 46.4606], [24.55669, 46.46063], [24.55674, 46.45949], [24.55613, 46.45947]]], [[[24.55305, 46.46177], [24.55318, 46.46212], [24.55411, 46.4628], [24.55547, 46.46339], [24.55657, 46.46318], [24.55662, 46.46225], [24.55305, 46.46177]]], [[[24.55356, 46.46417], [24.55343, 46.4649], [24.5537, 46.46542], [24.55646, 46.46566], [24.55652, 46.46438], [24.55515, 46.46447], [24.55382, 46.46404], [24.55356, 46.46417]]], [[[24.55333, 46.46648], [24.55239, 46.46606], [24.55187, 46.46512], [24.55172, 46.46407], [24.55223, 46.46341], [24.5517, 46.46329], [24.55129, 46.4639], [24.54973, 46.46447], [24.55065, 46.46815], [24.55057, 46.46866], [24.55096, 46.46933], [24.55097, 46.47116], [24.55182, 46.47151], [24.55361, 46.47171], [24.55421, 46.47113], [24.55526, 46.47114], [24.55632, 46.47079], [24.55863, 46.47116], [24.55889, 46.46974], [24.55976, 46.46974], [24.55995, 46.46999], [24.55984, 46.47104], [24.56035, 46.47107], [24.56028, 46.47179], [24.56191, 46.47218], [24.56359, 46.47337], [24.56832, 46.47562], [24.56904, 46.47569], [24.56929, 46.47003], [24.56641, 46.46928], [24.56491, 46.46831], [24.55635, 46.46812], [24.55642, 46.46667], [24.55333, 46.46648]], [[24.5555, 46.46963], [24.55503, 46.46963], [24.55333, 46.46908], [24.55307, 46.46831], [24.55756, 46.46865], [24.5568, 46.46971], [24.5555, 46.46963]], [[24.56221, 46.4694], [24.562, 46.46907], [24.56249, 46.46917], [24.56361, 46.47007], [24.56503, 46.47084], [24.56744, 46.47153], [24.56765, 46.47218], [24.56523, 46.47232], [24.56232, 46.47099], [24.56221, 46.4694]]], [[[24.54893, 46.46445], [24.54714, 46.46438], [24.54622, 46.46362], [24.54625, 46.46329], [24.54556, 46.46324], [24.53672, 46.46367], [24.54705, 46.47035], [24.54853, 46.47105], [24.54859, 46.4709], [24.55019, 46.47097], [24.55019, 46.46941], [24.5498, 46.46876], [24.54988, 46.46823], [24.54893, 46.46445]], [[24.54585, 46.46598], [24.54698, 46.46624], [24.54743, 46.4683], [24.54247, 46.46506], [24.54431, 46.46491], [24.54585, 46.46598]]], [[[24.55712, 46.47354], [24.55938, 46.47427], [24.55953, 46.47462], [24.55909, 46.47477], [24.55772, 46.47423], [24.55581, 46.47391], [24.55605, 46.47452], [24.55564, 46.47577], [24.55817, 46.47678], [24.55864, 46.4761], [24.56294, 46.47727], [24.56291, 46.47753], [24.56456, 46.47785], [24.5654, 46.47828], [24.56631, 46.47789], [24.56752, 46.47699], [24.56679, 46.4771], [24.56618, 46.47679], [24.56625, 46.47619], [24.56595, 46.47577], [24.56616, 46.47538], [24.56081, 46.47293], [24.56063, 46.47321], [24.55589, 46.47242], [24.55541, 46.47288], [24.55559, 46.47334], [24.55712, 46.47354]], [[24.56169, 46.47545], [24.56168, 46.47562], [24.56149, 46.47559], [24.5617, 46.47533], [24.56169, 46.47545]]], [[[24.55586, 46.47924], [24.55825, 46.47948], [24.56041, 46.47938], [24.56308, 46.47982], [24.56589, 46.48173], [24.56678, 46.48208], [24.56786, 46.4822], [24.56892, 46.48203], [24.56998, 46.48145], [24.57056, 46.4804], [24.57016, 46.47928], [24.57118, 46.4785], [24.57201, 46.47864], [24.57454, 46.47957], [24.57615, 46.47995], [24.57594, 46.48068], [24.57444, 46.48105], [24.57347, 46.48195], [24.57334, 46.48289], [24.57403, 46.4839], [24.57491, 46.48435], [24.57665, 46.48469], [24.57878, 46.48467], [24.5798, 46.48567], [24.58079, 46.48599], [24.58161, 46.48604], [24.58169, 46.48434], [24.58088, 46.48418], [24.58078, 46.48363], [24.57878, 46.48327], [24.5779, 46.48347], [24.57635, 46.48332], [24.5764, 46.48293], [24.57573, 46.48269], [24.57594, 46.48236], [24.57678, 46.48244], [24.57764, 46.48212], [24.57836, 46.47924], [24.57208, 46.47758], [24.56897, 46.47739], [24.56897, 46.47723], [24.56757, 46.47926], [24.5675, 46.47979], [24.56854, 46.48035], [24.56779, 46.48119], [24.5668, 46.48085], [24.5671, 46.48045], [24.56398, 46.47861], [24.56249, 46.47837], [24.56213, 46.47886], [24.55948, 46.47882], [24.55865, 46.47823], [24.5573, 46.47816], [24.5542, 46.47759], [24.55351, 46.47819], [24.55374, 46.47891], [24.55586, 46.47924]]], [[[24.54735, 46.4935], [24.54632, 46.49375], [24.5458, 46.49395], [24.54731, 46.49364], [24.54735, 46.4935]]], [[[24.5501, 46.49853], [24.54963, 46.4988], [24.54817, 46.499], [24.54467, 46.50083], [24.54594, 46.50079], [24.54623, 46.50165], [24.54947, 46.50131], [24.55154, 46.50145], [24.5521, 46.50124], [24.55326, 46.50053], [24.55427, 46.49937], [24.55333, 46.49916], [24.55194, 46.49851], [24.55043, 46.49826], [24.5501, 46.49853]]], [[[24.53947, 46.50695], [24.53953, 46.50684], [24.53908, 46.50684], [24.53923, 46.50724], [24.53947, 46.50695]]], [[[24.54607, 46.51741], [24.54641, 46.51716], [24.54629, 46.51675], [24.54559, 46.51673], [24.54552, 46.5176], [24.54595, 46.51769], [24.54607, 46.51741]]], [[[24.55329, 46.51633], [24.55249, 46.51659], [24.55171, 46.51634], [24.55021, 46.51671], [24.54778, 46.51766], [24.54731, 46.51829], [24.54732, 46.51884], [24.54815, 46.5191], [24.54844, 46.51941], [24.54799, 46.52044], [24.54863, 46.52102], [24.54842, 46.52155], [24.54954, 46.52181], [24.55008, 46.5224], [24.55006, 46.52284], [24.5506, 46.52228], [24.5515, 46.52239], [24.55166, 46.52196], [24.54917, 46.52106], [24.54891, 46.52079], [24.54914, 46.52033], [24.55056, 46.51955], [24.55685, 46.51924], [24.55913, 46.51948], [24.56156, 46.52047], [24.56212, 46.51965], [24.5626, 46.51956], [24.5628, 46.5199], [24.5622, 46.52079], [24.56174, 46.52102], [24.56087, 46.52084], [24.55892, 46.52001], [24.55676, 46.51977], [24.55077, 46.52007], [24.54976, 46.52067], [24.55296, 46.52184], [24.55307, 46.52171], [24.55381, 46.52196], [24.55372, 46.5221], [24.55451, 46.52236], [24.55461, 46.52221], [24.555, 46.52232], [24.55488, 46.52248], [24.55626, 46.52304], [24.5567, 46.52402], [24.55785, 46.52447], [24.55843, 46.52379], [24.55728, 46.52345], [24.55714, 46.5231], [24.55735, 46.52274], [24.55796, 46.52253], [24.55873, 46.52281], [24.55923, 46.52278], [24.55994, 46.52211], [24.5604, 46.52208], [24.56059, 46.52235], [24.56025, 46.52272], [24.56244, 46.52317], [24.56265, 46.52348], [24.56221, 46.52368], [24.55987, 46.5232], [24.55961, 46.52379], [24.56184, 46.52413], [24.56204, 46.52449], [24.56164, 46.52465], [24.55896, 46.52425], [24.55857, 46.52471], [24.56104, 46.52511], [24.5613, 46.52528], [24.5626, 46.52483], [24.56369, 46.52368], [24.56455, 46.5235], [24.56687, 46.52095], [24.56753, 46.52097], [24.56715, 46.51999], [24.56733, 46.51974], [24.56782, 46.51978], [24.56841, 46.52074], [24.56915, 46.52118], [24.57277, 46.51959], [24.57348, 46.51963], [24.57444, 46.51926], [24.57483, 46.51932], [24.57478, 46.51974], [24.57372, 46.52014], [24.57308, 46.52009], [24.5692, 46.52175], [24.56748, 46.52448], [24.56772, 46.52527], [24.56728, 46.52607], [24.57067, 46.52362], [24.57783, 46.52137], [24.57827, 46.52145], [24.57992, 46.52027], [24.57888, 46.5198], [24.57733, 46.51974], [24.57722, 46.51893], [24.57669, 46.51827], [24.57584, 46.5178], [24.57479, 46.5176], [24.5718, 46.51807], [24.56989, 46.51892], [24.56866, 46.5182], [24.56705, 46.51807], [24.56581, 46.51845], [24.56504, 46.51911], [24.56414, 46.51828], [24.56558, 46.51778], [24.56643, 46.51705], [24.56669, 46.51613], [24.56615, 46.51509], [24.5693, 46.51383], [24.57099, 46.51428], [24.57256, 46.51399], [24.57336, 46.51347], [24.57373, 46.51297], [24.57379, 46.51185], [24.57583, 46.51103], [24.57717, 46.51027], [24.58013, 46.51034], [24.58046, 46.51062], [24.5798, 46.51097], [24.5799, 46.51145], [24.58112, 46.51152], [24.58358, 46.51105], [24.58311, 46.51039], [24.58344, 46.50984], [24.58096, 46.51012], [24.57951, 46.50988], [24.57966, 46.51014], [24.57931, 46.51014], [24.57849, 46.50996], [24.57858, 46.50972], [24.57716, 46.50948], [24.57489, 46.50971], [24.5726, 46.51103], [24.57165, 46.51082], [24.5706, 46.5113], [24.57145, 46.51225], [24.57126, 46.51259], [24.5708, 46.51253], [24.56994, 46.51159], [24.56558, 46.51335], [24.56304, 46.5146], [24.56242, 46.51474], [24.56143, 46.51468], [24.56032, 46.51503], [24.56153, 46.5166], [24.5638, 46.51597], [24.56428, 46.51617], [24.56407, 46.51648], [24.56107, 46.51727], [24.5568, 46.51804], [24.5552, 46.5181], [24.55489, 46.51796], [24.55511, 46.51757], [24.55719, 46.51745], [24.56078, 46.51675], [24.55956, 46.51523], [24.55666, 46.51585], [24.55329, 46.51633]], [[24.55768, 46.52228], [24.55647, 46.52284], [24.55586, 46.52262], [24.55565, 46.52222], [24.55635, 46.52152], [24.55692, 46.52137], [24.55811, 46.5219], [24.55768, 46.52228]]], [[[24.54783, 46.52192], [24.54783, 46.52192], [24.54783, 46.52192], [24.54783, 46.52192]]], [[[24.55231, 46.52241], [24.55223, 46.5226], [24.55312, 46.52292], [24.55335, 46.52371], [24.55479, 46.5241], [24.55483, 46.52471], [24.55636, 46.52522], [24.55733, 46.52531], [24.55854, 46.52602], [24.55916, 46.52614], [24.55991, 46.52668], [24.56067, 46.52576], [24.55965, 46.52557], [24.55971, 46.52543], [24.55867, 46.52534], [24.5566, 46.52465], [24.55596, 46.52424], [24.55556, 46.52331], [24.55237, 46.52223], [24.55231, 46.52241]]], [[[24.53934, 46.52906], [24.53933, 46.52903], [24.53923, 46.52906], [24.53936, 46.52912], [24.53934, 46.52906]]], [[[24.53818, 46.53445], [24.53637, 46.53366], [24.53623, 46.53378], [24.5375, 46.53452], [24.53812, 46.5346], [24.53836, 46.53501], [24.53869, 46.53467], [24.53848, 46.53445], [24.53818, 46.53445]]], [[[24.53788, 46.53689], [24.53784, 46.5369], [24.53772, 46.53691], [24.53788, 46.53692], [24.53788, 46.53689]]], [[[24.54023, 46.54555], [24.54053, 46.54576], [24.54168, 46.5459], [24.54206, 46.54623], [24.54193, 46.54729], [24.54124, 46.5478], [24.54229, 46.54839], [24.54282, 46.54821], [24.54358, 46.54836], [24.54384, 46.54873], [24.54366, 46.5492], [24.54502, 46.55011], [24.54562, 46.55017], [24.54628, 46.54997], [24.54731, 46.55015], [24.54751, 46.5494], [24.54691, 46.54966], [24.54524, 46.54952], [24.54476, 46.54925], [24.54471, 46.54877], [24.54527, 46.54832], [24.54704, 46.54832], [24.54758, 46.54861], [24.54765, 46.54914], [24.54832, 46.548], [24.54794, 46.54765], [24.54798, 46.54675], [24.54759, 46.54701], [24.54705, 46.54704], [24.54637, 46.54655], [24.54408, 46.54625], [24.54359, 46.54585], [24.5429, 46.54604], [24.54196, 46.54594], [24.54145, 46.5455], [24.54174, 46.54489], [24.54318, 46.54445], [24.54482, 46.54451], [24.54527, 46.54476], [24.54539, 46.54508], [24.54582, 46.54489], [24.5465, 46.54492], [24.54606, 46.54463], [24.54508, 46.54432], [24.54318, 46.54422], [24.5396, 46.54546], [24.54023, 46.54555]]], [[[24.53876, 46.54549], [24.53864, 46.54547], [24.53843, 46.5454], [24.53841, 46.54553], [24.53876, 46.54549]]], [[[24.53891, 46.54728], [24.5389, 46.54723], [24.53829, 46.54693], [24.53881, 46.54722], [24.53891, 46.54728]]], [[[24.54209, 46.54897], [24.54043, 46.54805], [24.5403, 46.54804], [24.54212, 46.54905], [24.54209, 46.54897]]], [[[24.54283, 46.5494], [24.54276, 46.5494], [24.54313, 46.5496], [24.54284, 46.5494], [24.54283, 46.5494]]], [[[24.54514, 46.55069], [24.54522, 46.55073], [24.54534, 46.5507], [24.5452, 46.55069], [24.54514, 46.55069]]], [[[24.54258, 46.55091], [24.54256, 46.55108], [24.54361, 46.55148], [24.54257, 46.55088], [24.54258, 46.55091]]], [[[24.5398, 46.55533], [24.54143, 46.55483], [24.54248, 46.55504], [24.54257, 46.55432], [24.53953, 46.55446], [24.53808, 46.55433], [24.53784, 46.55512], [24.53795, 46.55589], [24.53741, 46.5563], [24.53767, 46.55646], [24.53865, 46.55594], [24.53935, 46.55613], [24.53962, 46.55668], [24.5387, 46.55732], [24.53896, 46.55744], [24.54017, 46.55658], [24.53956, 46.5563], [24.5393, 46.55595], [24.53939, 46.55558], [24.5398, 46.55533]]], [[[24.54503, 46.55632], [24.54544, 46.55602], [24.54629, 46.55583], [24.54649, 46.55535], [24.5463, 46.55464], [24.54586, 46.55465], [24.54589, 46.5551], [24.54458, 46.55596], [24.54503, 46.55632]]], [[[24.54118, 46.55901], [24.54161, 46.55871], [24.54098, 46.55822], [24.54052, 46.55852], [24.54047, 46.55899], [24.54116, 46.55963], [24.54118, 46.55901]]], [[[24.55185, 46.55967], [24.55167, 46.55971], [24.55172, 46.56024], [24.55213, 46.56066], [24.55217, 46.56124], [24.55225, 46.55949], [24.55185, 46.55967]]], [[[24.54136, 46.56617], [24.54074, 46.56593], [24.53916, 46.56675], [24.54126, 46.5668], [24.54151, 46.56656], [24.54136, 46.56617]]], [[[24.56849, 46.46838], [24.56886, 46.46865], [24.56935, 46.46874], [24.56937, 46.4684], [24.56849, 46.46838]]], [[[24.58198, 46.47767], [24.58174, 46.47766], [24.58197, 46.47783], [24.58198, 46.47767]]], [[[24.57686, 46.47756], [24.57765, 46.47785], [24.57784, 46.47758], [24.57686, 46.47756]]], [[[24.58013, 46.48178], [24.57988, 46.48244], [24.58176, 46.48271], [24.5818, 46.48183], [24.58013, 46.48178]]], [[[24.58169, 46.49821], [24.58253, 46.4979], [24.58355, 46.49706], [24.58364, 46.49651], [24.58419, 46.49571], [24.58154, 46.49566], [24.58121, 46.4964], [24.57998, 46.49699], [24.58023, 46.49769], [24.58111, 46.49852], [24.58169, 46.49821]]], [[[24.58435, 46.49701], [24.58422, 46.49735], [24.58309, 46.49828], [24.5818, 46.4988], [24.5791, 46.50076], [24.57744, 46.50259], [24.5771, 46.50355], [24.57709, 46.50661], [24.57663, 46.50781], [24.57919, 46.50814], [24.57987, 46.50843], [24.57985, 46.50789], [24.58018, 46.50738], [24.58102, 46.5071], [24.58298, 46.50707], [24.58321, 46.50786], [24.58853, 46.50765], [24.5899, 46.50843], [24.59045, 46.50967], [24.59118, 46.50973], [24.59163, 46.50912], [24.59174, 46.50837], [24.59143, 46.50765], [24.59074, 46.50707], [24.58978, 46.50671], [24.58897, 46.50663], [24.58395, 46.50704], [24.58337, 46.50619], [24.58228, 46.50563], [24.58072, 46.50548], [24.57943, 46.5057], [24.57956, 46.50338], [24.58136, 46.5015], [24.58326, 46.50017], [24.58443, 46.49967], [24.58531, 46.50075], [24.58669, 46.50178], [24.58746, 46.50198], [24.58751, 46.50224], [24.58788, 46.5024], [24.58926, 46.50246], [24.58938, 46.50208], [24.59048, 46.50185], [24.59022, 46.50105], [24.59168, 46.50073], [24.59152, 46.50026], [24.59184, 46.49991], [24.59311, 46.49959], [24.59402, 46.50003], [24.5942, 46.49593], [24.58509, 46.49573], [24.58435, 46.49701]], [[24.58832, 46.4977], [24.58893, 46.49719], [24.59142, 46.49681], [24.59264, 46.4978], [24.59317, 46.49889], [24.59313, 46.49926], [24.59184, 46.49977], [24.59112, 46.49966], [24.58998, 46.49981], [24.58851, 46.49877], [24.58819, 46.49806], [24.58832, 46.4977]]], [[[24.57901, 46.49992], [24.57857, 46.50036], [24.58061, 46.49894], [24.57901, 46.49992]]], [[[24.57597, 46.50563], [24.57545, 46.50627], [24.57367, 46.50699], [24.57346, 46.50753], [24.57121, 46.5084], [24.57094, 46.50812], [24.56983, 46.50856], [24.56937, 46.50817], [24.56822, 46.50883], [24.56692, 46.5091], [24.56732, 46.50952], [24.56761, 46.5093], [24.56799, 46.50938], [24.56956, 46.51111], [24.5698, 46.51101], [24.56828, 46.50931], [24.56833, 46.50901], [24.56891, 46.50901], [24.57046, 46.51072], [24.5713, 46.51034], [24.57148, 46.50996], [24.57249, 46.50934], [24.57582, 46.50785], [24.57631, 46.50654], [24.57631, 46.50386], [24.57597, 46.50563]]], [[[24.56526, 46.50976], [24.56587, 46.5099], [24.56666, 46.5108], [24.56687, 46.5105], [24.56732, 46.51055], [24.5663, 46.50923], [24.56493, 46.50946], [24.56526, 46.50976]]], [[[24.56869, 46.51149], [24.5689, 46.5114], [24.56875, 46.51124], [24.56854, 46.51132], [24.56869, 46.51149]]], [[[24.56299, 46.51053], [24.56322, 46.51016], [24.56459, 46.51005], [24.5644, 46.50978], [24.5617, 46.51026], [24.56136, 46.51003], [24.5591, 46.50989], [24.5594, 46.5103], [24.55946, 46.51136], [24.55909, 46.51167], [24.55915, 46.51275], [24.55973, 46.51319], [24.5618, 46.51256], [24.56201, 46.51224], [24.56238, 46.51225], [24.56269, 46.51278], [24.56201, 46.51309], [24.56278, 46.51408], [24.56474, 46.51309], [24.56299, 46.51053]]], [[[24.56543, 46.51279], [24.56587, 46.51266], [24.56421, 46.51057], [24.56393, 46.51062], [24.56543, 46.51279]]], [[[24.56751, 46.51178], [24.56764, 46.51195], [24.56765, 46.51194], [24.56751, 46.51178]]], [[[24.56629, 46.51202], [24.56582, 46.51146], [24.5658, 46.51144], [24.56656, 46.5124], [24.56629, 46.51202]]], [[[24.55905, 46.51392], [24.55736, 46.51437], [24.55743, 46.51478], [24.55651, 46.51506], [24.55655, 46.51531], [24.55963, 46.51465], [24.55933, 46.51383], [24.55905, 46.51392]]], [[[24.59306, 46.52183], [24.59293, 46.5219], [24.59305, 46.52212], [24.59306, 46.52183]]], [[[24.57407, 46.52313], [24.57166, 46.52383], [24.56976, 46.52493], [24.57056, 46.52489], [24.57093, 46.52511], [24.57245, 46.52461], [24.57306, 46.52479], [24.57452, 46.52484], [24.57498, 46.52536], [24.57437, 46.52604], [24.57524, 46.52643], [24.57559, 46.5268], [24.57601, 46.52602], [24.57638, 46.52602], [24.57698, 46.52636], [24.57664, 46.5251], [24.57652, 46.52269], [24.5764, 46.52247], [24.57612, 46.52251], [24.57407, 46.52313]]], [[[24.56612, 46.525], [24.56604, 46.52515], [24.56628, 46.52492], [24.56673, 46.52519], [24.56681, 46.52509], [24.5662, 46.52474], [24.56612, 46.525]]], [[[24.56955, 46.52548], [24.56927, 46.52537], [24.56891, 46.5256], [24.56916, 46.52565], [24.56955, 46.52548]]], [[[24.56671, 46.52559], [24.56676, 46.52551], [24.56667, 46.52557], [24.56671, 46.52559]]], [[[24.58536, 46.5284], [24.58256, 46.52942], [24.58167, 46.52948], [24.58183, 46.52965], [24.58242, 46.52972], [24.58793, 46.52863], [24.59139, 46.52965], [24.59143, 46.52852], [24.59195, 46.52795], [24.59243, 46.52779], [24.59207, 46.52748], [24.59206, 46.52712], [24.59121, 46.52706], [24.59074, 46.52643], [24.59127, 46.5259], [24.59112, 46.52563], [24.5914, 46.52543], [24.59288, 46.52595], [24.59299, 46.52337], [24.59213, 46.52401], [24.58922, 46.52378], [24.58898, 46.52401], [24.58911, 46.52484], [24.58662, 46.52683], [24.58536, 46.5284]], [[24.58881, 46.52637], [24.59014, 46.5268], [24.59034, 46.52734], [24.59001, 46.52768], [24.58904, 46.52796], [24.58869, 46.5283], [24.58792, 46.52837], [24.58743, 46.52804], [24.58732, 46.52738], [24.58832, 46.52651], [24.58881, 46.52637]]], [[[24.57369, 46.52699], [24.5731, 46.52732], [24.57307, 46.5278], [24.57391, 46.52798], [24.57426, 46.52783], [24.5743, 46.52749], [24.57403, 46.52705], [24.57369, 46.52699]]], [[[24.57682, 46.52744], [24.57666, 46.52747], [24.57679, 46.52796], [24.57687, 46.52742], [24.57682, 46.52744]]], [[[24.57939, 46.52917], [24.57996, 46.52917], [24.58059, 46.52922], [24.58046, 46.52904], [24.57927, 46.52898], [24.57897, 46.52912], [24.57939, 46.52917]]], [[[24.56668, 46.52672], [24.56636, 46.52643], [24.56616, 46.52648], [24.56361, 46.52777], [24.56263, 46.52756], [24.56132, 46.52758], [24.56072, 46.52775], [24.56076, 46.5279], [24.56143, 46.52792], [24.56186, 46.52813], [24.56215, 46.52862], [24.5619, 46.52903], [24.56253, 46.52998], [24.56395, 46.53114], [24.56452, 46.5309], [24.56519, 46.53105], [24.56551, 46.53023], [24.566, 46.53006], [24.56618, 46.52814], [24.56675, 46.52818], [24.56714, 46.528], [24.56751, 46.52825], [24.56939, 46.52821], [24.56956, 46.52882], [24.56875, 46.5297], [24.56871, 46.53064], [24.5684, 46.53111], [24.56889, 46.53126], [24.5698, 46.53113], [24.57037, 46.53163], [24.57021, 46.53062], [24.57048, 46.52922], [24.57171, 46.52825], [24.57118, 46.52788], [24.56894, 46.5279], [24.56808, 46.5276], [24.56772, 46.5272], [24.56785, 46.52646], [24.56712, 46.52674], [24.56668, 46.52672]]], [[[24.58962, 46.52966], [24.58848, 46.52928], [24.58825, 46.52923], [24.5873, 46.52924], [24.58739, 46.52942], [24.58821, 46.52926], [24.58864, 46.52934], [24.58889, 46.52967], [24.58962, 46.52966]]], [[[24.56822, 46.52913], [24.5682, 46.5293], [24.56848, 46.52903], [24.56822, 46.52913]]], [[[24.57423, 46.52899], [24.57375, 46.52916], [24.57303, 46.52911], [24.57266, 46.52884], [24.57261, 46.52842], [24.57139, 46.52917], [24.57099, 46.53063], [24.5711, 46.5314], [24.57293, 46.53052], [24.57396, 46.53039], [24.5745, 46.52957], [24.5749, 46.52933], [24.57597, 46.5294], [24.5763, 46.53006], [24.57706, 46.53], [24.57708, 46.52925], [24.57589, 46.52777], [24.57509, 46.52747], [24.57499, 46.52804], [24.57534, 46.52817], [24.57537, 46.52842], [24.57498, 46.5286], [24.57442, 46.52843], [24.57423, 46.52899]]], [[[24.58786, 46.53002], [24.5877, 46.53001], [24.58774, 46.53008], [24.58786, 46.53002]]], [[[24.56558, 46.53151], [24.56557, 46.53162], [24.56552, 46.53173], [24.56564, 46.53173], [24.56558, 46.53151]]], [[[24.56401, 46.53249], [24.56395, 46.53265], [24.56388, 46.53275], [24.56423, 46.53256], [24.56414, 46.53231], [24.56401, 46.53249]]], [[[24.57104, 46.53977], [24.57092, 46.53977], [24.57118, 46.53983], [24.5711, 46.5398], [24.57104, 46.53977]]], [[[24.57317, 46.5399], [24.57352, 46.53981], [24.57238, 46.53969], [24.57194, 46.53989], [24.57135, 46.53987], [24.57257, 46.54009], [24.57317, 46.5399]]], [[[24.56847, 46.54017], [24.56805, 46.54014], [24.56804, 46.54069], [24.56865, 46.54068], [24.56876, 46.54023], [24.56847, 46.54017]]], [[[24.57851, 46.54128], [24.57813, 46.54101], [24.57657, 46.54068], [24.57646, 46.54118], [24.5778, 46.54156], [24.57899, 46.54238], [24.57915, 46.54134], [24.57851, 46.54128]]], [[[24.55592, 46.55639], [24.55592, 46.55639], [24.55658, 46.55665], [24.55593, 46.55634], [24.55592, 46.55639]]], [[[24.55662, 46.55775], [24.55664, 46.55729], [24.55647, 46.55722], [24.55638, 46.55784], [24.55675, 46.55813], [24.55662, 46.55775]]], [[[24.55861, 46.55763], [24.55865, 46.55775], [24.55865, 46.55786], [24.55885, 46.55776], [24.55861, 46.55763]]]]}, "properties": {"kind": "pv", "area_km2": 39.11, "mw": 1955.5}}]}