{"type": "FeatureCollection", "features": [{"type": "Feature", "geometry": {"type": "MultiPolygon", "coordinates": [[[[8.3986, 49.49811], [8.3985, 49.49781], [8.3982, 49.49781], [8.39821, 49.49806], [8.3986, 49.49811]]], [[[8.39744, 49.49877], [8.39775, 49.49891], [8.39791, 49.49856], [8.39779, 49.49853], [8.39744, 49.49877]]], [[[8.39982, 49.49921], [8.39988, 49.4993], [8.40002, 49.49917], [8.39986, 49.49912], [8.39982, 49.49921]]], [[[8.39278, 49.50089], [8.39278, 49.50089], [8.39293, 49.50086], [8.39285, 49.50086], [8.39278, 49.50089]]], [[[8.40316, 49.50401], [8.403, 49.50358], [8.40216, 49.50343], [8.40177, 49.50302], [8.39887, 49.50237], [8.39687, 49.50226], [8.39653, 49.50125], [8.39532, 49.50121], [8.39474, 49.50081], [8.39328, 49.50085], [8.39066, 49.50166], [8.39051, 49.5137], [8.39106, 49.51353], [8.39182, 49.51356], [8.39364, 49.51435], [8.3946, 49.51361], [8.39477, 49.51305], [8.39533, 49.51314], [8.39621, 49.51274], [8.39731, 49.51287], [8.398, 49.51265], [8.40232, 49.51336], [8.40288, 49.51379], [8.40377, 49.51393], [8.40413, 49.51372], [8.40405, 49.51353], [8.40453, 49.51341], [8.40465, 49.51291], [8.40548, 49.51265], [8.40559, 49.51234], [8.40545, 49.51183], [8.40487, 49.51173], [8.40454, 49.51139], [8.40379, 49.51148], [8.40376, 49.51135], [8.40451, 49.51126], [8.40556, 49.51006], [8.40515, 49.50797], [8.40256, 49.5082], [8.40131, 49.50888], [8.40035, 49.5099], [8.39976, 49.50985], [8.40048, 49.51143], [8.40104, 49.51182], [8.40001, 49.51189], [8.39904, 49.50977], [8.39743, 49.50975], [8.39545, 49.5103], [8.39467, 49.51069], [8.394, 49.51014], [8.39281, 49.51067], [8.39077, 49.51057], [8.39311, 49.50825], [8.39378, 49.50722], [8.39393, 49.50585], [8.39303, 49.50388], [8.39481, 49.50352], [8.39608, 49.50402], [8.39756, 49.50418], [8.39887, 49.50549], [8.40072, 49.50626], [8.40207, 49.50721], [8.40256, 49.50816], [8.40496, 49.50761], [8.40316, 49.50401]], [[8.39496, 49.511], [8.39442, 49.51147], [8.39384, 49.51128], [8.39388, 49.51092], [8.39431, 49.5108], [8.39496, 49.511]]], [[[8.39282, 49.51544], [8.39327, 49.51484], [8.39253, 49.51454], [8.39197, 49.51507], [8.3922, 49.51529], [8.39081, 49.51532], [8.39102, 49.51652], [8.39063, 49.51758], [8.39148, 49.51783], [8.39189, 49.51711], [8.39286, 49.51625], [8.39382, 49.51633], [8.39414, 49.51684], [8.39482, 49.51627], [8.39461, 49.51613], [8.39411, 49.51628], [8.39356, 49.5162], [8.39298, 49.51584], [8.39282, 49.51544]]], [[[8.37786, 49.51569], [8.37816, 49.51596], [8.3782, 49.51597], [8.37812, 49.51569], [8.37786, 49.51569]]], [[[8.37873, 49.51617], [8.37878, 49.51609], [8.37867, 49.51603], [8.37873, 49.51617]]], [[[8.37842, 49.51658], [8.37852, 49.51646], [8.37762, 49.51569], [8.37667, 49.51568], [8.37666, 49.51676], [8.37839, 49.51683], [8.37842, 49.51658]]], [[[8.38335, 49.51583], [8.38618, 49.51644], [8.38703, 49.51639], [8.38758, 49.51674], [8.3889, 49.51706], [8.38907, 49.51677], [8.38911, 49.51662], [8.38744, 49.51605], [8.3871, 49.51574], [8.38192, 49.51571], [8.38226, 49.51585], [8.38335, 49.51583]]], [[[8.3936, 49.5179], [8.39359, 49.51773], [8.39339, 49.51808], [8.39356, 49.51799], [8.3936, 49.5179]]], [[[8.38869, 49.5198], [8.38851, 49.51916], [8.38907, 49.51882], [8.38916, 49.51848], [8.38861, 49.51812], [8.38873, 49.5176], [8.38743, 49.51728], [8.38652, 49.51746], [8.386, 49.51726], [8.38581, 49.51693], [8.38325, 49.51636], [8.38181, 49.51631], [8.38166, 49.51648], [8.38228, 49.51677], [8.38277, 49.51728], [8.38854, 49.52052], [8.39065, 49.52061], [8.39061, 49.52097], [8.39115, 49.52123], [8.39187, 49.52049], [8.39229, 49.51957], [8.39172, 49.51943], [8.39151, 49.51981], [8.39081, 49.51992], [8.38869, 49.5198]]], [[[8.39153, 49.51855], [8.3915, 49.51852], [8.39151, 49.51858], [8.39153, 49.51855]]], [[[8.38442, 49.51906], [8.38437, 49.51956], [8.38396, 49.51985], [8.38482, 49.52069], [8.38504, 49.52155], [8.38615, 49.52163], [8.3868, 49.52206], [8.38796, 49.52181], [8.38775, 49.52137], [8.38807, 49.52097], [8.38434, 49.51889], [8.38442, 49.51906]]], [[[8.38407, 49.52427], [8.38419, 49.524], [8.38297, 49.52148], [8.3809, 49.51836], [8.37873, 49.51726], [8.37842, 49.51693], [8.37666, 49.51689], [8.37663, 49.51863], [8.3771, 49.51884], [8.37731, 49.51924], [8.37712, 49.51959], [8.37662, 49.5198], [8.37647, 49.53158], [8.3771, 49.53256], [8.37869, 49.53369], [8.37926, 49.53369], [8.37923, 49.53305], [8.37759, 49.53049], [8.37903, 49.53237], [8.37943, 49.53175], [8.37914, 49.53111], [8.37951, 49.53063], [8.3787, 49.5302], [8.37851, 49.52937], [8.37913, 49.52872], [8.37927, 49.52767], [8.37974, 49.52787], [8.38033, 49.52724], [8.38101, 49.52708], [8.3822, 49.52755], [8.38228, 49.52792], [8.38203, 49.52823], [8.38222, 49.52847], [8.3838, 49.52799], [8.38412, 49.52746], [8.38348, 49.52729], [8.38262, 49.52659], [8.38305, 49.52656], [8.38362, 49.52609], [8.38358, 49.52559], [8.38388, 49.52558], [8.38423, 49.52525], [8.38407, 49.52427]], [[8.37762, 49.52406], [8.37664, 49.52278], [8.3786, 49.52247], [8.37947, 49.52426], [8.37888, 49.52439], [8.3779, 49.52473], [8.37762, 49.52406]], [[8.37933, 49.52466], [8.37967, 49.52583], [8.37907, 49.52593], [8.37915, 49.52623], [8.37975, 49.52624], [8.37905, 49.52628], [8.37893, 49.52591], [8.3796, 49.52583], [8.37903, 49.52435], [8.3792, 49.52432], [8.37933, 49.52466]], [[8.38047, 49.52414], [8.38051, 49.52512], [8.38005, 49.52623], [8.38038, 49.52405], [8.38338, 49.5236], [8.38047, 49.52414]]], [[[8.3894, 49.52185], [8.38881, 49.52199], [8.3898, 49.52255], [8.39007, 49.52308], [8.39098, 49.52323], [8.39177, 49.52417], [8.39228, 49.52405], [8.39227, 49.52372], [8.39265, 49.52363], [8.39364, 49.52412], [8.3894, 49.52185]]], [[[8.39452, 49.52335], [8.39446, 49.52335], [8.3943, 49.52351], [8.39471, 49.52348], [8.39452, 49.52335]]], [[[8.39307, 49.52411], [8.3932, 49.52412], [8.39292, 49.52401], [8.39274, 49.52406], [8.39307, 49.52411]]], [[[8.38411, 49.52794], [8.3841, 49.52782], [8.38395, 49.52801], [8.38407, 49.52804], [8.38411, 49.52794]]], [[[8.37995, 49.52859], [8.38003, 49.52848], [8.37994, 49.52836], [8.37965, 49.52864], [8.37995, 49.52859]]], [[[8.39752, 49.52971], [8.39703, 49.5291], [8.39664, 49.52931], [8.39754, 49.52973], [8.39752, 49.52971]]], [[[8.39867, 49.53029], [8.39892, 49.53037], [8.39786, 49.52988], [8.39817, 49.53003], [8.39867, 49.53029]]], [[[8.39719, 49.5316], [8.39782, 49.5316], [8.39863, 49.53033], [8.39655, 49.52936], [8.39594, 49.52969], [8.39757, 49.5304], [8.39785, 49.53072], [8.3975, 49.53132], [8.39688, 49.53151], [8.39719, 49.5316]]], [[[8.39873, 49.53306], [8.39905, 49.53259], [8.39977, 49.53246], [8.39936, 49.53202], [8.39975, 49.53139], [8.39879, 49.53155], [8.39815, 49.53116], [8.39789, 49.53162], [8.3983, 49.53186], [8.39838, 49.53222], [8.39777, 49.5327], [8.39794, 49.53293], [8.39864, 49.53269], [8.39845, 49.53306], [8.39795, 49.53304], [8.39771, 49.53343], [8.39718, 49.53363], [8.39649, 49.53347], [8.3962, 49.53304], [8.39513, 49.53353], [8.3964, 49.53201], [8.39545, 49.53152], [8.39503, 49.53178], [8.39442, 49.5318], [8.3936, 49.53256], [8.39311, 49.53232], [8.39231, 49.53228], [8.39032, 49.53366], [8.39056, 49.53369], [8.39073, 49.5344], [8.39029, 49.53499], [8.39144, 49.53536], [8.39203, 49.53573], [8.3929, 49.53571], [8.39339, 49.53654], [8.39427, 49.53677], [8.39455, 49.5363], [8.39516, 49.5361], [8.39493, 49.53559], [8.39656, 49.53588], [8.39726, 49.53479], [8.39833, 49.53544], [8.39914, 49.53443], [8.39955, 49.53458], [8.39951, 49.53411], [8.39975, 49.53415], [8.39974, 49.53439], [8.40026, 49.53372], [8.39897, 49.53337], [8.39878, 49.53382], [8.39901, 49.53375], [8.39928, 49.53416], [8.3989, 49.53412], [8.39904, 49.53435], [8.39868, 49.53386], [8.39851, 49.53384], [8.39857, 49.53421], [8.39742, 49.53384], [8.39877, 49.5332], [8.39873, 49.53306]], [[8.39223, 49.53346], [8.39158, 49.53346], [8.39201, 49.53315], [8.39223, 49.53346]], [[8.39451, 49.53551], [8.39479, 49.53556], [8.39457, 49.53583], [8.39441, 49.53574], [8.39451, 49.53551]]], [[[8.39678, 49.53251], [8.39685, 49.53249], [8.39681, 49.53246], [8.39678, 49.53251]]], [[[8.37645, 49.5329], [8.37644, 49.53367], [8.37754, 49.53368], [8.37686, 49.53324], [8.37645, 49.5329]]], [[[8.39979, 49.53569], [8.39952, 49.53569], [8.39938, 49.53581], [8.40006, 49.53586], [8.39979, 49.53569]]], [[[8.39409, 49.53683], [8.3948, 49.53676], [8.39594, 49.5363], [8.3978, 49.53594], [8.39824, 49.53571], [8.39623, 49.53612], [8.39478, 49.53665], [8.39409, 49.53683]]], [[[8.40018, 49.53625], [8.39982, 49.53627], [8.39768, 49.53723], [8.39869, 49.53696], [8.40018, 49.53625]]], [[[8.39361, 49.5375], [8.394, 49.53765], [8.39348, 49.53741], [8.39317, 49.53738], [8.39361, 49.5375]]], [[[8.39481, 49.53772], [8.39494, 49.53755], [8.3947, 49.53761], [8.39468, 49.53795], [8.39419, 49.53748], [8.39386, 49.53745], [8.39475, 49.53808], [8.39527, 49.53824], [8.39539, 49.53814], [8.39495, 49.53805], [8.39481, 49.53772]]], [[[8.39962, 49.53835], [8.39953, 49.53825], [8.40036, 49.53835], [8.40058, 49.53824], [8.39829, 49.53802], [8.39916, 49.53822], [8.39872, 49.5384], [8.40043, 49.53866], [8.39962, 49.53835]]], [[[8.39633, 49.53839], [8.39697, 49.53852], [8.39731, 49.53882], [8.39718, 49.54007], [8.39765, 49.54029], [8.40018, 49.54069], [8.40077, 49.53874], [8.39753, 49.5383], [8.39715, 49.53806], [8.39633, 49.53839]]], [[[8.39467, 49.54054], [8.39535, 49.54085], [8.39543, 49.54069], [8.39483, 49.54049], [8.3946, 49.54], [8.39416, 49.54047], [8.39467, 49.54054]]], [[[8.39623, 49.54241], [8.39534, 49.54137], [8.395, 49.54161], [8.39435, 49.5417], [8.39331, 49.54152], [8.39254, 49.54316], [8.3925, 49.54456], [8.3952, 49.54424], [8.39596, 49.54438], [8.39693, 49.54548], [8.3975, 49.54552], [8.39782, 49.54587], [8.39916, 49.54551], [8.3976, 49.54423], [8.39792, 49.54418], [8.39961, 49.5457], [8.40346, 49.54533], [8.40804, 49.54558], [8.41011, 49.54597], [8.41268, 49.54677], [8.41357, 49.54671], [8.41423, 49.54695], [8.41443, 49.54739], [8.41524, 49.54764], [8.41502, 49.54728], [8.41449, 49.54725], [8.41533, 49.54618], [8.41784, 49.54334], [8.41951, 49.54223], [8.41894, 49.5424], [8.41764, 49.54338], [8.41684, 49.54371], [8.41617, 49.54432], [8.41538, 49.54429], [8.41499, 49.54401], [8.41495, 49.54361], [8.41432, 49.54354], [8.41424, 49.54392], [8.41369, 49.54426], [8.41297, 49.54426], [8.41216, 49.5439], [8.41177, 49.54437], [8.41104, 49.54451], [8.41034, 49.54437], [8.41003, 49.54397], [8.40776, 49.54397], [8.40458, 49.5435], [8.40398, 49.54358], [8.40257, 49.54322], [8.40014, 49.54293], [8.39936, 49.54324], [8.39717, 49.54295], [8.39652, 49.54279], [8.39623, 49.54241]], [[8.39768, 49.5447], [8.39788, 49.54483], [8.39752, 49.5452], [8.39733, 49.54488], [8.39768, 49.5447]], [[8.40954, 49.54545], [8.40941, 49.54544], [8.40945, 49.54528], [8.40959, 49.5453], [8.40954, 49.54545]], [[8.40974, 49.54577], [8.40958, 49.54575], [8.40959, 49.54572], [8.40974, 49.54574], [8.40974, 49.54577]]], [[[8.39652, 49.54596], [8.3966, 49.54618], [8.39624, 49.54655], [8.39769, 49.54611], [8.39629, 49.54565], [8.39549, 49.54566], [8.39341, 49.54653], [8.3936, 49.54674], [8.39562, 49.54575], [8.39624, 49.54576], [8.39652, 49.54596]]], [[[8.39913, 49.54668], [8.39971, 49.54656], [8.39978, 49.5464], [8.39895, 49.54661], [8.39913, 49.54668]]], [[[8.3906, 49.54734], [8.39079, 49.54775], [8.39158, 49.54751], [8.39077, 49.54788], [8.39072, 49.54804], [8.3928, 49.54713], [8.39153, 49.5457], [8.39087, 49.54552], [8.39064, 49.5451], [8.39012, 49.54529], [8.39009, 49.54715], [8.3906, 49.54734]]], [[[8.398, 49.54709], [8.3985, 49.54662], [8.39709, 49.54701], [8.39746, 49.54709], [8.39771, 49.54743], [8.39793, 49.54743], [8.398, 49.54709]]], [[[8.39571, 49.5486], [8.39551, 49.54856], [8.39575, 49.54881], [8.39582, 49.54873], [8.39571, 49.5486]]], [[[8.39056, 49.54829], [8.3906, 49.54818], [8.39009, 49.54838], [8.39007, 49.54925], [8.39127, 49.5487], [8.39068, 49.54857], [8.39056, 49.54829]]], [[[8.39114, 49.54996], [8.39277, 49.54985], [8.39346, 49.54954], [8.39293, 49.54984], [8.39535, 49.54968], [8.39486, 49.5491], [8.39392, 49.5492], [8.3923, 49.54981], [8.39185, 49.54963], [8.39182, 49.54924], [8.39028, 49.54994], [8.39114, 49.54996]]], [[[8.39933, 49.54971], [8.39936, 49.54969], [8.39925, 49.54979], [8.39928, 49.54976], [8.39933, 49.54971]]], [[[8.39834, 49.54999], [8.39835, 49.54981], [8.39777, 49.54974], [8.39798, 49.54985], [8.39834, 49.54999]]], [[[8.39805, 49.55086], [8.39846, 49.55089], [8.39832, 49.55073], [8.39693, 49.55067], [8.39698, 49.55086], [8.39805, 49.55086]]], [[[8.39387, 49.55032], [8.3905, 49.55064], [8.39005, 49.55105], [8.39004, 49.55174], [8.39613, 49.55177], [8.39569, 49.55021], [8.39387, 49.55032]]], [[[8.39806, 49.551], [8.39702, 49.55105], [8.39712, 49.55177], [8.39869, 49.55178], [8.39852, 49.55099], [8.39806, 49.551]]], [[[8.4118, 49.48951], [8.41195, 49.48924], [8.41148, 49.48898], [8.40839, 49.48949], [8.40642, 49.48955], [8.40618, 49.49], [8.40652, 49.48972], [8.40891, 49.49058], [8.40966, 49.49027], [8.41039, 49.4904], [8.4118, 49.48951]]], [[[8.40594, 49.49765], [8.40519, 49.49735], [8.40461, 49.49734], [8.40452, 49.49784], [8.40316, 49.4985], [8.40223, 49.49835], [8.40052, 49.4997], [8.40116, 49.49966], [8.40181, 49.49986], [8.40205, 49.50025], [8.40182, 49.50079], [8.40269, 49.50119], [8.40359, 49.5011], [8.40328, 49.50041], [8.40426, 49.49944], [8.40626, 49.49916], [8.40708, 49.49958], [8.40708, 49.49999], [8.40648, 49.50055], [8.40572, 49.50081], [8.40517, 49.50079], [8.4045, 49.50117], [8.40382, 49.50118], [8.40418, 49.50149], [8.40405, 49.50198], [8.40426, 49.50233], [8.40382, 49.50348], [8.40621, 49.50835], [8.40632, 49.50913], [8.40821, 49.50693], [8.40712, 49.50684], [8.40685, 49.50651], [8.40689, 49.50609], [8.40729, 49.50583], [8.4081, 49.50573], [8.40888, 49.50613], [8.40971, 49.50511], [8.40885, 49.50445], [8.40883, 49.50395], [8.40978, 49.5036], [8.41032, 49.50373], [8.411, 49.50422], [8.41139, 49.50398], [8.41116, 49.50351], [8.4116, 49.50304], [8.41164, 49.50222], [8.41191, 49.50191], [8.41044, 49.5021], [8.40985, 49.50193], [8.40959, 49.50154], [8.40992, 49.50106], [8.40956, 49.50067], [8.40964, 49.50002], [8.40856, 49.49987], [8.40669, 49.49794], [8.40594, 49.49765]], [[8.40462, 49.50368], [8.40532, 49.50352], [8.40597, 49.50372], [8.40638, 49.50429], [8.406, 49.5048], [8.40522, 49.50495], [8.40465, 49.50476], [8.40431, 49.50411], [8.40462, 49.50368]]], [[[8.40052, 49.49824], [8.39953, 49.49843], [8.4006, 49.49875], [8.40183, 49.49783], [8.40077, 49.49782], [8.40052, 49.49824]]], [[[8.40167, 49.50138], [8.40158, 49.50134], [8.40157, 49.50136], [8.40167, 49.50138]]], [[[8.4067, 49.50991], [8.40603, 49.51078], [8.40668, 49.51074], [8.40719, 49.51093], [8.4067, 49.50991]]], [[[8.40744, 49.51173], [8.4074, 49.51161], [8.4073, 49.51175], [8.40744, 49.51173]]], [[[8.40638, 49.51205], [8.40643, 49.51203], [8.40635, 49.51204], [8.40638, 49.51205]]], [[[8.4104, 49.51828], [8.41038, 49.51847], [8.41076, 49.51866], [8.41044, 49.51813], [8.4104, 49.51828]]], [[[8.41135, 49.52009], [8.41122, 49.51959], [8.41091, 49.51892], [8.4108, 49.51948], [8.41031, 49.51993], [8.41135, 49.52009]]], [[[8.40825, 49.52283], [8.4083, 49.52281], [8.4084, 49.52277], [8.40834, 49.52275], [8.40825, 49.52283]]], [[[8.40942, 49.52284], [8.40909, 49.52275], [8.40994, 49.52303], [8.40942, 49.52284]]], [[[8.40786, 49.52309], [8.40752, 49.52333], [8.40738, 49.5234], [8.40748, 49.52343], [8.40806, 49.52296], [8.40786, 49.52309]]], [[[8.40877, 49.52502], [8.4092, 49.52515], [8.40881, 49.52491], [8.40919, 49.52459], [8.40863, 49.52501], [8.40877, 49.52502]]], [[[8.40482, 49.52479], [8.40361, 49.52551], [8.40466, 49.52618], [8.40591, 49.52665], [8.40689, 49.52546], [8.40519, 49.52458], [8.40482, 49.52479]]], [[[8.39963, 49.52865], [8.40072, 49.5282], [8.39996, 49.52768], [8.39903, 49.52815], [8.39921, 49.52853], [8.39897, 49.52893], [8.39963, 49.52865]]], [[[8.40571, 49.52854], [8.40579, 49.52839], [8.4054, 49.52895], [8.40553, 49.52889], [8.40571, 49.52854]]], [[[8.40509, 49.52964], [8.40506, 49.52959], [8.40502, 49.52949], [8.40508, 49.52975], [8.40509, 49.52964]]], [[[8.40403, 49.53089], [8.40067, 49.53473], [8.40101, 49.5362], [8.40167, 49.53668], [8.40169, 49.53719], [8.40239, 49.53763], [8.40337, 49.53544], [8.40141, 49.5347], [8.40467, 49.53054], [8.4045, 49.53022], [8.40403, 49.53089]], [[8.40158, 49.53501], [8.40172, 49.53496], [8.40187, 49.53509], [8.4017, 49.5351], [8.40158, 49.53501]], [[8.40231, 49.53532], [8.40271, 49.53548], [8.40284, 49.53559], [8.40247, 49.53551], [8.40231, 49.53532]]], [[[8.40351, 49.53706], [8.40349, 49.53758], [8.40328, 49.53756], [8.40317, 49.53781], [8.40348, 49.53793], [8.40518, 49.53796], [8.40571, 49.53822], [8.40565, 49.53835], [8.40601, 49.5384], [8.40618, 49.53818], [8.40758, 49.53856], [8.40765, 49.53839], [8.4077, 49.53859], [8.4099, 49.53877], [8.40917, 49.53843], [8.40686, 49.53819], [8.40592, 49.53772], [8.40551, 49.53786], [8.40531, 49.53774], [8.40541, 49.5375], [8.40575, 49.53767], [8.40596, 49.53756], [8.4047, 49.53707], [8.40421, 49.53745], [8.40464, 49.5369], [8.40381, 49.5364], [8.40351, 49.53706]]], [[[8.4104, 49.53872], [8.41045, 49.5388], [8.41058, 49.53888], [8.41057, 49.53866], [8.4104, 49.53872]]], [[[8.41078, 49.53887], [8.41073, 49.53881], [8.41073, 49.53886], [8.41078, 49.53887]]], [[[8.40799, 49.53936], [8.40809, 49.53938], [8.40825, 49.53942], [8.40821, 49.53933], [8.40799, 49.53936]]], [[[8.41073, 49.53992], [8.41072, 49.54002], [8.4109, 49.53957], [8.41031, 49.53997], [8.41073, 49.53992]]], [[[8.4093, 49.54023], [8.41, 49.5403], [8.41023, 49.54018], [8.40999, 49.5401], [8.41012, 49.53991], [8.40977, 49.53994], [8.4092, 49.53952], [8.40844, 49.53942], [8.4093, 49.54023]]], [[[8.40992, 49.54092], [8.40995, 49.54099], [8.41021, 49.54086], [8.40993, 49.54088], [8.40992, 49.54092]]], [[[8.41084, 49.5407], [8.41057, 49.54079], [8.41031, 49.54134], [8.4108, 49.5418], [8.41084, 49.5407]]], [[[8.41076, 49.54274], [8.41074, 49.5428], [8.4107, 49.54285], [8.41088, 49.54276], [8.41076, 49.54274]]], [[[8.41028, 49.54339], [8.41029, 49.54323], [8.41038, 49.54307], [8.41013, 49.54313], [8.41008, 49.54357], [8.41028, 49.54339]]], [[[8.40282, 49.54613], [8.40368, 49.54613], [8.40417, 49.54632], [8.4049, 49.54713], [8.40472, 49.54777], [8.40415, 49.54797], [8.40232, 49.54788], [8.40231, 49.5487], [8.40183, 49.54905], [8.40015, 49.54908], [8.39952, 49.54872], [8.39942, 49.54901], [8.39942, 49.54965], [8.40076, 49.54925], [8.40156, 49.54934], [8.40198, 49.54959], [8.40208, 49.55115], [8.40174, 49.5518], [8.40325, 49.5518], [8.40352, 49.55152], [8.40291, 49.55088], [8.403, 49.54948], [8.40358, 49.5492], [8.40599, 49.54919], [8.40603, 49.54865], [8.40642, 49.54833], [8.40644, 49.54761], [8.4068, 49.54742], [8.40846, 49.54754], [8.40853, 49.54834], [8.40892, 49.54866], [8.40908, 49.54953], [8.40972, 49.54979], [8.40996, 49.55076], [8.4106, 49.55089], [8.41091, 49.55133], [8.41288, 49.54805], [8.41217, 49.54758], [8.41101, 49.54722], [8.41064, 49.5482], [8.40941, 49.5483], [8.40875, 49.54781], [8.40891, 49.54696], [8.40924, 49.54668], [8.40584, 49.54617], [8.40413, 49.54607], [8.40246, 49.54613], [8.40282, 49.54613]]], [[[8.4013, 49.54624], [8.40007, 49.54644], [8.39999, 49.54748], [8.40099, 49.54722], [8.40101, 49.54656], [8.4013, 49.54624]]], [[[8.40794, 49.55104], [8.40791, 49.55104], [8.40789, 49.55107], [8.40789, 49.55107], [8.40794, 49.55104]]], [[[8.40756, 49.55126], [8.40767, 49.5513], [8.40776, 49.55117], [8.40764, 49.55123], [8.40756, 49.55126]]], [[[8.39998, 49.55143], [8.3998, 49.55115], [8.39944, 49.55115], [8.39952, 49.55178], [8.40016, 49.55179], [8.39998, 49.55143]]], [[[8.40652, 49.55176], [8.40573, 49.55174], [8.40723, 49.55256], [8.40698, 49.55177], [8.40652, 49.55176]]], [[[8.40417, 49.55269], [8.40435, 49.55264], [8.4045, 49.55238], [8.40385, 49.55245], [8.40385, 49.55282], [8.40417, 49.55269]]], [[[8.4078, 49.5547], [8.40737, 49.55478], [8.40687, 49.55466], [8.40692, 49.55484], [8.40748, 49.55482], [8.4078, 49.5547]]], [[[8.41137, 49.55862], [8.4106, 49.55846], [8.41035, 49.55793], [8.41081, 49.5575], [8.41169, 49.5575], [8.4123, 49.55228], [8.41272, 49.55073], [8.41402, 49.54803], [8.41462, 49.54822], [8.41492, 49.54857], [8.41514, 49.54836], [8.41398, 49.54799], [8.41343, 49.54815], [8.41291, 49.54806], [8.41099, 49.55161], [8.41176, 49.55455], [8.41145, 49.55539], [8.41105, 49.55549], [8.41108, 49.55565], [8.41147, 49.55567], [8.41131, 49.55715], [8.40676, 49.55726], [8.40674, 49.55678], [8.40594, 49.55681], [8.40652, 49.55763], [8.40391, 49.55774], [8.40386, 49.55714], [8.40489, 49.5571], [8.40486, 49.55653], [8.40582, 49.55649], [8.40539, 49.55586], [8.40381, 49.55593], [8.40378, 49.55852], [8.40447, 49.55839], [8.406, 49.559], [8.40667, 49.55998], [8.40785, 49.56082], [8.41212, 49.56084], [8.41178, 49.55853], [8.41137, 49.55862]]], [[[8.43403, 49.48019], [8.43397, 49.48011], [8.43392, 49.4803], [8.43403, 49.48019]]], [[[8.43567, 49.48061], [8.43543, 49.48046], [8.43525, 49.48018], [8.43515, 49.48027], [8.43559, 49.4807], [8.43567, 49.48061]]], [[[8.43682, 49.48259], [8.43786, 49.48277], [8.43889, 49.48311], [8.43874, 49.48224], [8.43739, 49.48221], [8.43605, 49.48249], [8.43573, 49.48234], [8.43569, 49.48201], [8.43509, 49.4824], [8.43682, 49.48259]]], [[[8.43289, 49.4832], [8.43292, 49.48334], [8.43289, 49.4832], [8.43289, 49.4832]]], [[[8.44042, 49.48379], [8.44022, 49.48368], [8.43979, 49.48351], [8.44025, 49.48384], [8.44042, 49.48379]]], [[[8.44131, 49.48927], [8.44122, 49.48942], [8.44177, 49.48893], [8.44141, 49.48907], [8.44131, 49.48927]]], [[[8.44112, 49.48961], [8.44112, 49.48961], [8.44102, 49.48979], [8.44119, 49.48964], [8.44112, 49.48961]]], [[[8.43195, 49.49209], [8.43281, 49.49264], [8.43296, 49.49297], [8.43421, 49.49347], [8.43497, 49.49289], [8.43295, 49.49147], [8.43195, 49.49209]]], [[[8.41597, 49.50315], [8.41508, 49.50334], [8.41549, 49.50368], [8.41613, 49.50328], [8.41597, 49.50315]]], [[[8.41179, 49.5052], [8.41206, 49.50544], [8.41345, 49.50465], [8.41329, 49.50449], [8.41266, 49.5047], [8.41201, 49.50455], [8.41155, 49.50484], [8.41179, 49.5052]]], [[[8.44547, 49.50802], [8.44419, 49.50899], [8.44276, 49.51085], [8.44094, 49.51044], [8.4452, 49.50761], [8.44372, 49.50817], [8.44095, 49.51023], [8.43785, 49.5132], [8.43669, 49.5158], [8.43814, 49.51593], [8.43844, 49.51508], [8.43878, 49.51515], [8.43852, 49.51595], [8.43939, 49.51605], [8.43682, 49.51598], [8.43651, 49.51695], [8.43606, 49.51726], [8.43384, 49.52248], [8.43442, 49.52272], [8.43456, 49.52323], [8.4341, 49.52373], [8.43329, 49.52379], [8.43287, 49.52477], [8.433, 49.52531], [8.43273, 49.52587], [8.43228, 49.52616], [8.42802, 49.53618], [8.42828, 49.53632], [8.43022, 49.5363], [8.43109, 49.53598], [8.43133, 49.53612], [8.43257, 49.5352], [8.4334, 49.53325], [8.43328, 49.53274], [8.43802, 49.52163], [8.43841, 49.52122], [8.4392, 49.52099], [8.43912, 49.52029], [8.44005, 49.51809], [8.44048, 49.518], [8.44063, 49.5182], [8.44128, 49.51686], [8.44136, 49.51579], [8.44054, 49.51772], [8.44011, 49.51791], [8.4413, 49.51549], [8.44037, 49.51407], [8.44067, 49.5136], [8.44109, 49.51343], [8.44205, 49.51379], [8.44264, 49.51185], [8.44448, 49.5093], [8.44505, 49.50888], [8.44429, 49.50969], [8.44313, 49.51169], [8.44558, 49.51221], [8.44615, 49.51107], [8.44663, 49.51099], [8.44689, 49.51124], [8.44621, 49.51269], [8.44586, 49.51281], [8.4451, 49.51267], [8.44455, 49.51371], [8.45051, 49.5149], [8.45056, 49.51437], [8.45154, 49.51256], [8.45215, 49.51224], [8.45036, 49.51107], [8.45016, 49.51137], [8.44957, 49.5116], [8.44827, 49.51126], [8.44781, 49.51086], [8.44781, 49.51049], [8.44829, 49.51004], [8.44899, 49.50986], [8.44812, 49.50906], [8.44749, 49.50944], [8.44671, 49.50936], [8.44603, 49.50842], [8.44547, 49.50802]], [[8.44351, 49.51105], [8.44362, 49.51107], [8.44359, 49.51111], [8.44349, 49.51109], [8.44351, 49.51105]], [[8.44046, 49.51614], [8.44046, 49.51622], [8.43945, 49.51612], [8.43948, 49.51605], [8.44046, 49.51614]]], [[[8.44038, 49.51889], [8.44025, 49.51921], [8.44066, 49.51951], [8.44094, 49.51943], [8.44123, 49.51844], [8.44066, 49.5183], [8.44038, 49.51889]]], [[[8.41137, 49.52084], [8.41137, 49.52082], [8.41123, 49.52079], [8.41137, 49.52085], [8.41137, 49.52084]]], [[[8.41175, 49.52394], [8.41168, 49.52382], [8.41149, 49.52417], [8.41183, 49.52432], [8.41175, 49.52394]]], [[[8.43873, 49.53055], [8.43858, 49.52999], [8.43592, 49.52951], [8.43424, 49.53298], [8.43456, 49.53316], [8.43529, 49.53233], [8.43628, 49.53164], [8.43893, 49.53084], [8.43873, 49.53055]]], [[[8.44318, 49.53129], [8.44064, 49.53116], [8.43973, 49.53075], [8.43609, 49.5319], [8.43476, 49.53317], [8.43678, 49.53457], [8.43728, 49.53445], [8.43766, 49.53465], [8.44077, 49.53383], [8.44169, 49.53333], [8.44259, 49.53249], [8.44318, 49.53129]]], [[[8.43773, 49.54178], [8.43828, 49.54241], [8.43878, 49.54235], [8.44005, 49.54296], [8.4407, 49.54274], [8.44166, 49.54293], [8.44202, 49.54266], [8.44191, 49.54212], [8.44263, 49.54156], [8.44027, 49.54035], [8.44012, 49.53991], [8.43723, 49.54171], [8.43773, 49.54178]]], [[[8.41989, 49.54131], [8.41959, 49.54144], [8.419, 49.54176], [8.42053, 49.54176], [8.41989, 49.54131]]], [[[8.42025, 49.54238], [8.42027, 49.54248], [8.4204, 49.54229], [8.42026, 49.54228], [8.42025, 49.54238]]], [[[8.41184, 49.5425], [8.41133, 49.54211], [8.41119, 49.54216], [8.41214, 49.54268], [8.41184, 49.5425]]], [[[8.4354, 49.54276], [8.43574, 49.54243], [8.43578, 49.54225], [8.43459, 49.54258], [8.43486, 49.543], [8.4354, 49.54276]]], [[[8.43817, 49.54287], [8.4368, 49.5435], [8.43679, 49.54425], [8.43654, 49.54454], [8.43594, 49.5447], [8.43529, 49.54452], [8.43475, 49.54491], [8.43552, 49.54508], [8.43734, 49.54588], [8.4383, 49.54563], [8.44017, 49.54427], [8.43967, 49.54345], [8.43826, 49.54276], [8.43817, 49.54287]]], [[[8.43287, 49.54406], [8.43315, 49.54358], [8.43263, 49.54337], [8.43231, 49.54384], [8.43287, 49.54406]]], [[[8.41629, 49.54745], [8.41631, 49.54737], [8.41595, 49.54774], [8.41632, 49.54764], [8.41629, 49.54745]]], [[[8.44484, 49.55073], [8.44231, 49.55033], [8.44184, 49.55], [8.4403, 49.54986], [8.43981, 49.55023], [8.43897, 49.55019], [8.43846, 49.54993], [8.4384, 49.54951], [8.43682, 49.54918], [8.4361, 49.54846], [8.43614, 49.54764], [8.43545, 49.5473], [8.43543, 49.54679], [8.43397, 49.54594], [8.43396, 49.54521], [8.43218, 49.5444], [8.43105, 49.5498], [8.43124, 49.54899], [8.43342, 49.54934], [8.43361, 49.54957], [8.43295, 49.55013], [8.43319, 49.55056], [8.43283, 49.55099], [8.43459, 49.55144], [8.43502, 49.55106], [8.43566, 49.55101], [8.43656, 49.55149], [8.43716, 49.55148], [8.43788, 49.55179], [8.43799, 49.55221], [8.43756, 49.55262], [8.4368, 49.55267], [8.43604, 49.55226], [8.43561, 49.55271], [8.43687, 49.55276], [8.43614, 49.55259], [8.43692, 49.55276], [8.44184, 49.55286], [8.44393, 49.55204], [8.44712, 49.55198], [8.44717, 49.5521], [8.44392, 49.55211], [8.4422, 49.55291], [8.44407, 49.55296], [8.44378, 49.55257], [8.44399, 49.55235], [8.44444, 49.55225], [8.44602, 49.55231], [8.44427, 49.55235], [8.44396, 49.55272], [8.44445, 49.55294], [8.44547, 49.553], [8.44565, 49.55265], [8.44613, 49.55246], [8.44733, 49.55261], [8.44755, 49.55186], [8.44649, 49.55148], [8.44648, 49.55053], [8.44484, 49.55073]], [[8.44263, 49.55252], [8.43983, 49.55199], [8.43944, 49.55191], [8.4396, 49.55177], [8.44283, 49.5524], [8.44263, 49.55252]], [[8.43377, 49.5493], [8.43362, 49.54957], [8.43342, 49.54934], [8.43124, 49.54899], [8.43151, 49.54776], [8.4321, 49.54842], [8.43349, 49.54923], [8.4344, 49.5488], [8.43377, 49.5493]], [[8.44294, 49.55282], [8.44311, 49.55266], [8.44327, 49.55262], [8.44333, 49.55284], [8.44294, 49.55282]]], [[[8.43129, 49.54911], [8.43118, 49.54981], [8.43195, 49.5498], [8.43207, 49.54919], [8.43129, 49.54911]]], [[[8.43151, 49.55106], [8.43067, 49.55108], [8.42972, 49.55067], [8.42877, 49.55084], [8.42767, 49.55153], [8.42875, 49.55179], [8.42948, 49.55195], [8.43048, 49.55214], [8.43169, 49.55099], [8.43151, 49.55106]]], [[[8.43456, 49.55167], [8.43257, 49.55108], [8.43185, 49.55103], [8.43055, 49.55215], [8.43451, 49.55265], [8.43425, 49.55224], [8.43456, 49.55167]]], [[[8.41113, 49.55531], [8.41112, 49.55539], [8.41137, 49.55537], [8.41135, 49.55529], [8.41113, 49.55531]]], [[[8.44206, 49.55983], [8.44203, 49.5563], [8.44277, 49.5541], [8.44318, 49.55434], [8.44331, 49.55436], [8.44232, 49.55373], [8.44125, 49.55353], [8.43291, 49.55317], [8.42714, 49.55211], [8.42971, 49.55272], [8.42758, 49.55399], [8.42951, 49.55438], [8.43002, 49.55582], [8.42919, 49.55808], [8.42803, 49.55855], [8.42861, 49.55991], [8.42938, 49.55983], [8.42878, 49.56093], [8.42898, 49.56093], [8.42932, 49.56014], [8.42989, 49.5597], [8.42919, 49.55964], [8.42983, 49.55949], [8.43227, 49.55982], [8.43856, 49.56009], [8.44206, 49.55983]], [[8.43456, 49.55368], [8.43657, 49.55377], [8.43694, 49.55411], [8.43681, 49.55466], [8.4362, 49.55491], [8.43445, 49.55478], [8.43405, 49.55428], [8.43415, 49.55394], [8.43456, 49.55368]], [[8.43457, 49.55653], [8.4351, 49.5564], [8.43664, 49.55651], [8.43708, 49.55687], [8.437, 49.55738], [8.43635, 49.55768], [8.43473, 49.55759], [8.43427, 49.55717], [8.43457, 49.55653]], [[8.43567, 49.55854], [8.43569, 49.55907], [8.43522, 49.55942], [8.43424, 49.55943], [8.43369, 49.55912], [8.43367, 49.55859], [8.43414, 49.55824], [8.43512, 49.55823], [8.43567, 49.55854]]], [[[8.4311, 49.56014], [8.43063, 49.56009], [8.43028, 49.56094], [8.43141, 49.56094], [8.43136, 49.56531], [8.43251, 49.56557], [8.43258, 49.56641], [8.43218, 49.5664], [8.43192, 49.56586], [8.43134, 49.56695], [8.4313, 49.56994], [8.43315, 49.56984], [8.434, 49.56897], [8.43551, 49.56664], [8.43563, 49.56604], [8.43355, 49.56558], [8.43363, 49.56539], [8.43564, 49.56581], [8.43529, 49.56461], [8.43398, 49.56333], [8.43423, 49.56241], [8.43672, 49.56222], [8.43831, 49.56229], [8.4395, 49.56478], [8.44081, 49.56586], [8.44292, 49.56663], [8.44481, 49.56697], [8.44499, 49.56807], [8.44483, 49.57], [8.44513, 49.57], [8.4452, 49.56389], [8.44461, 49.56388], [8.44364, 49.56353], [8.44348, 49.56307], [8.44389, 49.56268], [8.44294, 49.56231], [8.44305, 49.56163], [8.44202, 49.56138], [8.44313, 49.56156], [8.44367, 49.56139], [8.44437, 49.5615], [8.44413, 49.5602], [8.43918, 49.56062], [8.4375, 49.56059], [8.4387, 49.56075], [8.43858, 49.56109], [8.43595, 49.56052], [8.43216, 49.56036], [8.4311, 49.56014]], [[8.43969, 49.56098], [8.43878, 49.56074], [8.44195, 49.56127], [8.44191, 49.56137], [8.43969, 49.56098]]], [[[8.44223, 49.48548], [8.44294, 49.4868], [8.44434, 49.48637], [8.44389, 49.48585], [8.44392, 49.48533], [8.44282, 49.48507], [8.44147, 49.48438], [8.44135, 49.48463], [8.44223, 49.48548]]], [[[8.44312, 49.48756], [8.44313, 49.48762], [8.44321, 49.48788], [8.44348, 49.48746], [8.44312, 49.48756]]], [[[8.44172, 49.48861], [8.44156, 49.4888], [8.44181, 49.48884], [8.44189, 49.48864], [8.44172, 49.48861]]], [[[8.44268, 49.4888], [8.44264, 49.4889], [8.44273, 49.48881], [8.44268, 49.4888]]], [[[8.45301, 49.49584], [8.45377, 49.49558], [8.45375, 49.49537], [8.4534, 49.49539], [8.45301, 49.49584]]], [[[8.4534, 49.50252], [8.45361, 49.50221], [8.44853, 49.50502], [8.44894, 49.50506], [8.44971, 49.5044], [8.45021, 49.50428], [8.4534, 49.50252]]], [[[8.44627, 49.50643], [8.44624, 49.50645], [8.44621, 49.50647], [8.44623, 49.50647], [8.44627, 49.50643]]], [[[8.44293, 49.51226], [8.44219, 49.51385], [8.44596, 49.51447], [8.44573, 49.51549], [8.44596, 49.51651], [8.44665, 49.51744], [8.44752, 49.5181], [8.44466, 49.51825], [8.44229, 49.51885], [8.44195, 49.5187], [8.44184, 49.5199], [8.44111, 49.52011], [8.44114, 49.52068], [8.44162, 49.52082], [8.44217, 49.52069], [8.44254, 49.52008], [8.44283, 49.52008], [8.44259, 49.52096], [8.44603, 49.52077], [8.44647, 49.52001], [8.44804, 49.52029], [8.44791, 49.52065], [8.4486, 49.52061], [8.4506, 49.51592], [8.45028, 49.51554], [8.45045, 49.51502], [8.44515, 49.51396], [8.44448, 49.51372], [8.44503, 49.51266], [8.44293, 49.51226]], [[8.44368, 49.51941], [8.44267, 49.51945], [8.44706, 49.51916], [8.44706, 49.51919], [8.44368, 49.51941]]], [[[8.44525, 49.51389], [8.44522, 49.51395], [8.44564, 49.51404], [8.44567, 49.51397], [8.44525, 49.51389]]], [[[8.44583, 49.51407], [8.44632, 49.51417], [8.44635, 49.51411], [8.44586, 49.51401], [8.44583, 49.51407]]], [[[8.44653, 49.51422], [8.44703, 49.51432], [8.44727, 49.51429], [8.44657, 49.51415], [8.44653, 49.51422]]], [[[8.44724, 49.51436], [8.44772, 49.51445], [8.44775, 49.51438], [8.44727, 49.51429], [8.44724, 49.51436]]], [[[8.44795, 49.51442], [8.44791, 49.51449], [8.44842, 49.51459], [8.44845, 49.51452], [8.44795, 49.51442]]], [[[8.44861, 49.51463], [8.4491, 49.51473], [8.44914, 49.51465], [8.44864, 49.51456], [8.44861, 49.51463]]], [[[8.44933, 49.51469], [8.4493, 49.51477], [8.44981, 49.51487], [8.44985, 49.51479], [8.44933, 49.51469]]], [[[8.45003, 49.51483], [8.45, 49.51491], [8.45046, 49.515], [8.4505, 49.51492], [8.45003, 49.51483]]], [[[8.45061, 49.52037], [8.45112, 49.51987], [8.45216, 49.51709], [8.45067, 49.51676], [8.45042, 49.51687], [8.44892, 49.52059], [8.45061, 49.52037]]], [[[8.45375, 49.52032], [8.45424, 49.52058], [8.45449, 49.52115], [8.45506, 49.52063], [8.45493, 49.5201], [8.4545, 49.5197], [8.45364, 49.52014], [8.45375, 49.52032]]], [[[8.45015, 49.52112], [8.44931, 49.52117], [8.44931, 49.52117], [8.45015, 49.52112]]], [[[8.44671, 49.52127], [8.44718, 49.52125], [8.44719, 49.52124], [8.44669, 49.52127], [8.44671, 49.52127]]], [[[8.45468, 49.52775], [8.45491, 49.5277], [8.45494, 49.52764], [8.45474, 49.52763], [8.45468, 49.52775]]], [[[8.45643, 49.5317], [8.45654, 49.53134], [8.45504, 49.5322], [8.45312, 49.53259], [8.45198, 49.53264], [8.45195, 49.53276], [8.45445, 49.53245], [8.45643, 49.5317]]], [[[8.44455, 49.53344], [8.44467, 49.53343], [8.44464, 49.5334], [8.44455, 49.53344]]], [[[8.45321, 49.53653], [8.45318, 49.53652], [8.45322, 49.53655], [8.45321, 49.53653]]], [[[8.44608, 49.53704], [8.44691, 49.53724], [8.4474, 49.53759], [8.44831, 49.53684], [8.44979, 49.53641], [8.44985, 49.53614], [8.44955, 49.53632], [8.44784, 49.53599], [8.44749, 49.53612], [8.44701, 49.53582], [8.44615, 49.53571], [8.44385, 49.53676], [8.44089, 49.53947], [8.44094, 49.54], [8.44325, 49.54119], [8.44432, 49.54048], [8.44359, 49.54], [8.44391, 49.53942], [8.44483, 49.53923], [8.44641, 49.53952], [8.44654, 49.5391], [8.44554, 49.53894], [8.44492, 49.53804], [8.44535, 49.53724], [8.44608, 49.53704]]], [[[8.44334, 49.53622], [8.43892, 49.53765], [8.43899, 49.53782], [8.44506, 49.53559], [8.44446, 49.53565], [8.44334, 49.53622]]], [[[8.45343, 49.53697], [8.45344, 49.53703], [8.45381, 49.53734], [8.45342, 49.53684], [8.45343, 49.53697]]], [[[8.44965, 49.55118], [8.44899, 49.55098], [8.44818, 49.55308], [8.45079, 49.55315], [8.44986, 49.55212], [8.44983, 49.55119], [8.44965, 49.55118]]], [[[8.4537, 49.55282], [8.45341, 49.55322], [8.45575, 49.55328], [8.45584, 49.55236], [8.45359, 49.55231], [8.4537, 49.55282]]], [[[8.44388, 49.55412], [8.44513, 49.55447], [8.44382, 49.55421], [8.4437, 49.55384], [8.44407, 49.55361], [8.44222, 49.55356], [8.44352, 49.55436], [8.44612, 49.55483], [8.44548, 49.5543], [8.44558, 49.55395], [8.44603, 49.5537], [8.44424, 49.5537], [8.44388, 49.55412]], [[8.4434, 49.55406], [8.44315, 49.55395], [8.44304, 49.55383], [8.44337, 49.5538], [8.4434, 49.55406]]], [[[8.44946, 49.55505], [8.4496, 49.5543], [8.45002, 49.55398], [8.45316, 49.55387], [8.44799, 49.55372], [8.44759, 49.5552], [8.44974, 49.55529], [8.44946, 49.55505]]], [[[8.44661, 49.55492], [8.4466, 49.55492], [8.44652, 49.55492], [8.4466, 49.55496], [8.44661, 49.55492]]], [[[8.45398, 49.55555], [8.454, 49.55552], [8.45266, 49.55555], [8.45272, 49.55561], [8.45398, 49.55555]]], [[[8.45084, 49.55591], [8.45058, 49.5559], [8.45085, 49.55599], [8.45084, 49.55591]]], [[[8.44796, 49.55627], [8.44799, 49.55653], [8.44846, 49.55655], [8.44853, 49.55616], [8.44904, 49.55583], [8.44767, 49.55582], [8.44796, 49.55627]]], [[[8.45139, 49.5575], [8.45167, 49.55765], [8.45059, 49.55702], [8.45119, 49.55741], [8.45139, 49.5575]]], [[[8.45295, 49.5585], [8.45301, 49.55851], [8.45295, 49.55848], [8.45295, 49.5585]]], [[[8.45289, 49.55998], [8.4516, 49.55967], [8.45072, 49.55978], [8.45102, 49.56053], [8.4509, 49.56103], [8.45307, 49.56105], [8.45346, 49.56009], [8.45289, 49.55998]]], [[[8.4458, 49.56064], [8.44597, 49.5605], [8.44562, 49.56016], [8.44519, 49.56014], [8.44524, 49.56101], [8.4458, 49.56064]]], [[[8.44466, 49.56248], [8.44445, 49.5626], [8.44492, 49.56264], [8.44476, 49.56238], [8.44466, 49.56248]]], [[[8.4747, 49.49183], [8.47472, 49.49185], [8.47475, 49.49179], [8.47473, 49.49181], [8.4747, 49.49183]]], [[[8.47332, 49.49277], [8.47335, 49.49293], [8.47374, 49.49284], [8.47353, 49.49282], [8.47332, 49.49277]]], [[[8.47392, 49.49425], [8.47396, 49.49425], [8.47412, 49.49414], [8.47378, 49.49424], [8.47392, 49.49425]]], [[[8.47184, 49.49506], [8.47191, 49.49486], [8.47104, 49.49515], [8.47173, 49.49531], [8.47184, 49.49506]]], [[[8.47011, 49.49547], [8.47012, 49.49546], [8.47, 49.49551], [8.47011, 49.49547]]], [[[8.47312, 49.49599], [8.47321, 49.496], [8.47334, 49.49601], [8.47328, 49.49591], [8.47312, 49.49599]]], [[[8.47278, 49.49602], [8.47257, 49.49601], [8.47236, 49.49608], [8.47245, 49.49614], [8.47278, 49.49602]]], [[[8.46536, 49.49745], [8.46578, 49.49713], [8.46651, 49.4971], [8.46945, 49.49613], [8.46978, 49.49558], [8.46532, 49.49722], [8.46536, 49.49745]]], [[[8.46388, 49.49796], [8.46327, 49.49799], [8.46221, 49.49839], [8.46103, 49.49885], [8.46115, 49.49901], [8.46388, 49.49796]]], [[[8.46036, 49.49937], [8.46024, 49.49916], [8.45735, 49.50041], [8.45753, 49.50068], [8.4604, 49.49953], [8.46036, 49.49937]]], [[[8.45941, 49.50055], [8.45903, 49.5007], [8.45947, 49.50085], [8.46002, 49.5003], [8.45941, 49.50055]]], [[[8.45545, 49.50134], [8.45436, 49.50183], [8.45559, 49.50176], [8.45641, 49.50146], [8.45679, 49.50101], [8.45661, 49.50075], [8.45545, 49.50134]]], [[[8.47283, 49.5048], [8.471, 49.50502], [8.47362, 49.50499], [8.4741, 49.50519], [8.47428, 49.50549], [8.47453, 49.50546], [8.47555, 49.50494], [8.47626, 49.50488], [8.47621, 49.50426], [8.47547, 49.50434], [8.47486, 49.50485], [8.47432, 49.50487], [8.47385, 49.50468], [8.47283, 49.5048]]], [[[8.46231, 49.50553], [8.46304, 49.50604], [8.46314, 49.50613], [8.46312, 49.50606], [8.46204, 49.50518], [8.46231, 49.50553]]], [[[8.46325, 49.50633], [8.46325, 49.50638], [8.46337, 49.50639], [8.46323, 49.50628], [8.46325, 49.50633]]], [[[8.4717, 49.51704], [8.47151, 49.51707], [8.47159, 49.51724], [8.47174, 49.51703], [8.4717, 49.51704]]], [[[8.45702, 49.51861], [8.45703, 49.51862], [8.45704, 49.51861], [8.45702, 49.51861]]], [[[8.46691, 49.52261], [8.46687, 49.52305], [8.46644, 49.52303], [8.46573, 49.52347], [8.46411, 49.5234], [8.46303, 49.5229], [8.46237, 49.52287], [8.46174, 49.52314], [8.46016, 49.52311], [8.45996, 49.5237], [8.45949, 49.52397], [8.45992, 49.52543], [8.45939, 49.52593], [8.45709, 49.52569], [8.45583, 49.52512], [8.45546, 49.5262], [8.4559, 49.52644], [8.4561, 49.52696], [8.45566, 49.52777], [8.45471, 49.52838], [8.45418, 49.52976], [8.4543, 49.53025], [8.45511, 49.53045], [8.45655, 49.52997], [8.45882, 49.5281], [8.46005, 49.52767], [8.46273, 49.52717], [8.46408, 49.52639], [8.46564, 49.52589], [8.4662, 49.52539], [8.46686, 49.52363], [8.46691, 49.52261]], [[8.45809, 49.52717], [8.45743, 49.52659], [8.45812, 49.52632], [8.45959, 49.52622], [8.46059, 49.52654], [8.46067, 49.52673], [8.46001, 49.52693], [8.45809, 49.52717]]], [[[8.46994, 49.53337], [8.46936, 49.53301], [8.46911, 49.53306], [8.46895, 49.53369], [8.4702, 49.53391], [8.47029, 49.53358], [8.46994, 49.53337]]], [[[8.46509, 49.53978], [8.46504, 49.53978], [8.46505, 49.5398], [8.46509, 49.53978]]], [[[8.45868, 49.54131], [8.45857, 49.54117], [8.45747, 49.54119], [8.45693, 49.54057], [8.45704, 49.5401], [8.45792, 49.53966], [8.45555, 49.54028], [8.4561, 49.54325], [8.45642, 49.54359], [8.4563, 49.544], [8.45709, 49.54472], [8.45788, 49.54422], [8.4584, 49.54329], [8.45928, 49.54335], [8.46376, 49.54056], [8.46266, 49.54044], [8.46222, 49.54141], [8.46089, 49.54177], [8.45915, 49.54153], [8.45868, 49.54131]]], [[[8.46327, 49.5417], [8.46305, 49.54184], [8.46359, 49.5419], [8.46327, 49.5417]]], [[[8.46444, 49.5427], [8.46404, 49.54256], [8.46359, 49.54294], [8.46287, 49.54297], [8.46234, 49.54273], [8.46222, 49.54235], [8.45865, 49.54462], [8.45927, 49.5447], [8.45948, 49.5441], [8.46045, 49.54398], [8.46097, 49.54444], [8.46057, 49.54499], [8.46225, 49.54514], [8.46277, 49.54546], [8.46372, 49.54537], [8.46414, 49.54562], [8.46423, 49.54607], [8.46464, 49.54612], [8.46492, 49.545], [8.46537, 49.54464], [8.4648, 49.54455], [8.46436, 49.54417], [8.46483, 49.54272], [8.46444, 49.5427]]], [[[8.45787, 49.54518], [8.4579, 49.54513], [8.4579, 49.54511], [8.4578, 49.54518], [8.45787, 49.54518]]], [[[8.45602, 49.54641], [8.4565, 49.54608], [8.45788, 49.54593], [8.45711, 49.54562], [8.45561, 49.54648], [8.45602, 49.54641]]], [[[8.45526, 49.54673], [8.45533, 49.54666], [8.45461, 49.54711], [8.45516, 49.54696], [8.45526, 49.54673]]], [[[8.45914, 49.54947], [8.45918, 49.54947], [8.45926, 49.54899], [8.4592, 49.54934], [8.45914, 49.54947]]], [[[8.46449, 49.54702], [8.46403, 49.54724], [8.46301, 49.54734], [8.4626, 49.54768], [8.46207, 49.54781], [8.46154, 49.54772], [8.4612, 49.54742], [8.46147, 49.54654], [8.46086, 49.54721], [8.45973, 49.54717], [8.45957, 49.54822], [8.46075, 49.54833], [8.46064, 49.54955], [8.46106, 49.54975], [8.4612, 49.55012], [8.46146, 49.55015], [8.4617, 49.54976], [8.46229, 49.5496], [8.46294, 49.54968], [8.46342, 49.55008], [8.46327, 49.55086], [8.46285, 49.55111], [8.46218, 49.55111], [8.46173, 49.55189], [8.46334, 49.55195], [8.46355, 49.55085], [8.46434, 49.55051], [8.46496, 49.55062], [8.46529, 49.55092], [8.46504, 49.55202], [8.46793, 49.55205], [8.46805, 49.55134], [8.4675, 49.55084], [8.4679, 49.54994], [8.46775, 49.54847], [8.4669, 49.54828], [8.46671, 49.54793], [8.46686, 49.54756], [8.46614, 49.54741], [8.46566, 49.5468], [8.46463, 49.54666], [8.46449, 49.54702]]], [[[8.45891, 49.55104], [8.45884, 49.55151], [8.45993, 49.55174], [8.46034, 49.55109], [8.46023, 49.55064], [8.45901, 49.55075], [8.45891, 49.55104]]], [[[8.45617, 49.55183], [8.45619, 49.55182], [8.45619, 49.55181], [8.45618, 49.55181], [8.45617, 49.55183]]], [[[8.45926, 49.55219], [8.45886, 49.55209], [8.45821, 49.55335], [8.4593, 49.55338], [8.45899, 49.55296], [8.45926, 49.55219]]], [[[8.46083, 49.5527], [8.46035, 49.55341], [8.46411, 49.55352], [8.46406, 49.55313], [8.46442, 49.55275], [8.46519, 49.55268], [8.46575, 49.553], [8.46591, 49.5526], [8.46094, 49.55239], [8.46083, 49.5527]]], [[[8.46581, 49.55329], [8.46567, 49.55356], [8.4662, 49.55357], [8.46594, 49.55343], [8.46581, 49.55329]]], [[[8.46709, 49.5536], [8.46743, 49.55361], [8.46734, 49.55349], [8.46709, 49.5536]]], [[[8.46969, 49.55433], [8.46897, 49.5543], [8.46898, 49.55446], [8.4693, 49.55436], [8.46969, 49.55433]]], [[[8.47296, 49.55443], [8.47415, 49.55448], [8.47419, 49.55445], [8.47193, 49.55438], [8.47296, 49.55443]]], [[[8.46932, 49.55465], [8.46941, 49.55463], [8.46899, 49.55461], [8.46899, 49.55465], [8.46932, 49.55465]]], [[[8.46069, 49.55441], [8.46012, 49.55532], [8.46141, 49.55532], [8.46175, 49.55497], [8.46229, 49.55486], [8.4631, 49.55521], [8.46512, 49.55519], [8.46568, 49.55504], [8.46605, 49.55422], [8.46086, 49.55408], [8.46069, 49.55441]]], [[[8.45566, 49.55541], [8.45753, 49.55539], [8.45884, 49.55403], [8.45581, 49.55394], [8.45528, 49.55515], [8.45566, 49.55541]]], [[[8.4859, 49.48948], [8.48286, 49.49034], [8.48184, 49.49048], [8.48203, 49.49075], [8.48723, 49.48924], [8.4859, 49.48948]]], [[[8.48271, 49.49173], [8.48298, 49.49214], [8.48347, 49.49163], [8.4852, 49.49105], [8.4865, 49.49099], [8.48746, 49.4905], [8.48746, 49.49032], [8.48271, 49.49173]]], [[[8.47817, 49.49176], [8.47798, 49.49184], [8.48108, 49.49101], [8.4809, 49.49077], [8.47881, 49.49138], [8.47817, 49.49176]]], [[[8.47902, 49.49273], [8.47887, 49.49284], [8.47921, 49.49292], [8.48109, 49.49251], [8.4818, 49.49207], [8.48173, 49.49197], [8.47902, 49.49273]]], [[[8.47511, 49.49251], [8.4749, 49.4924], [8.47454, 49.49265], [8.47477, 49.49259], [8.47511, 49.49251]]], [[[8.48234, 49.49335], [8.48234, 49.49336], [8.48246, 49.49332], [8.48239, 49.49334], [8.48234, 49.49335]]], [[[8.47498, 49.49393], [8.47621, 49.49366], [8.47651, 49.49346], [8.47483, 49.49394], [8.47498, 49.49393]]], [[[8.4811, 49.50247], [8.48009, 49.50287], [8.47866, 49.50305], [8.47874, 49.50336], [8.47946, 49.5037], [8.4803, 49.50352], [8.48118, 49.50384], [8.4822, 49.50365], [8.48163, 49.50235], [8.4811, 49.50247]]], [[[8.48237, 49.50445], [8.48237, 49.50447], [8.48239, 49.50444], [8.48237, 49.50445]]], [[[8.4769, 49.50518], [8.47688, 49.50512], [8.47678, 49.50511], [8.47684, 49.50519], [8.4769, 49.50518]]], [[[8.47823, 49.50523], [8.47773, 49.50516], [8.47775, 49.50547], [8.47838, 49.50541], [8.47823, 49.50523]]], [[[8.48136, 49.50493], [8.48116, 49.50499], [8.48177, 49.50513], [8.4821, 49.50543], [8.48181, 49.50613], [8.48129, 49.50628], [8.48075, 49.50621], [8.48014, 49.50561], [8.47986, 49.50582], [8.47921, 49.50587], [8.47934, 49.50634], [8.4802, 49.50646], [8.48072, 49.50676], [8.48249, 49.50686], [8.48269, 49.50673], [8.48232, 49.50588], [8.48253, 49.50539], [8.4823, 49.50483], [8.48167, 49.50472], [8.48136, 49.50493]]], [[[8.47511, 49.50709], [8.4753, 49.50712], [8.4758, 49.50714], [8.47578, 49.50705], [8.47511, 49.50709]]], [[[8.487, 49.50812], [8.487, 49.50816], [8.48698, 49.50808], [8.487, 49.50812]]], [[[8.47741, 49.50902], [8.47759, 49.50883], [8.47716, 49.50884], [8.47717, 49.50897], [8.47741, 49.50902]]], [[[8.4872, 49.50874], [8.48696, 49.5084], [8.4862, 49.50877], [8.48537, 49.50847], [8.48508, 49.50897], [8.48583, 49.50929], [8.48604, 49.51011], [8.48793, 49.51071], [8.48831, 49.51104], [8.4897, 49.51068], [8.48912, 49.50961], [8.48849, 49.5094], [8.48819, 49.50907], [8.48725, 49.50877], [8.487, 49.50897], [8.48656, 49.50872], [8.48687, 49.50887], [8.4872, 49.50874]]], [[[8.49386, 49.51066], [8.49395, 49.51069], [8.49423, 49.51046], [8.49386, 49.51066]]], [[[8.48267, 49.51014], [8.4819, 49.51043], [8.48126, 49.51094], [8.4811, 49.51118], [8.48137, 49.51155], [8.48193, 49.51147], [8.48228, 49.51091], [8.48308, 49.5104], [8.48318, 49.51027], [8.48267, 49.51014]]], [[[8.4923, 49.51146], [8.49234, 49.51146], [8.49234, 49.51144], [8.4923, 49.51146]]], [[[8.48388, 49.51165], [8.48369, 49.51173], [8.48422, 49.51181], [8.48421, 49.51181], [8.48388, 49.51165]]], [[[8.4866, 49.51188], [8.48667, 49.51187], [8.48666, 49.51183], [8.4866, 49.51188]]], [[[8.49216, 49.51204], [8.49226, 49.51205], [8.49208, 49.51199], [8.49216, 49.51204]]], [[[8.48327, 49.51225], [8.48358, 49.51262], [8.48454, 49.51235], [8.48363, 49.51175], [8.48263, 49.51175], [8.48282, 49.51213], [8.48327, 49.51225]]], [[[8.47821, 49.51219], [8.47836, 49.51222], [8.4783, 49.51218], [8.47821, 49.51219]]], [[[8.48499, 49.51231], [8.485, 49.51225], [8.48477, 49.51231], [8.48488, 49.5123], [8.48499, 49.51231]]], [[[8.49399, 49.51259], [8.49386, 49.51233], [8.49384, 49.51257], [8.49362, 49.51229], [8.49353, 49.51265], [8.49399, 49.51259]]], [[[8.49245, 49.51281], [8.49192, 49.51324], [8.49254, 49.5134], [8.49335, 49.51415], [8.49431, 49.51416], [8.49478, 49.5146], [8.49955, 49.51443], [8.49893, 49.51403], [8.49731, 49.51348], [8.49669, 49.51366], [8.49583, 49.51341], [8.49517, 49.51352], [8.49447, 49.51307], [8.49348, 49.51324], [8.49291, 49.51302], [8.49265, 49.51265], [8.49245, 49.51281]]], [[[8.47558, 49.51472], [8.47461, 49.51416], [8.47457, 49.51415], [8.47558, 49.51472], [8.47558, 49.51472]]], [[[8.4911, 49.51621], [8.48984, 49.51639], [8.48912, 49.51673], [8.48821, 49.51651], [8.48717, 49.51729], [8.48952, 49.51714], [8.4905, 49.5174], [8.49144, 49.517], [8.49255, 49.51723], [8.49294, 49.51713], [8.49218, 49.51688], [8.49154, 49.51612], [8.4911, 49.51621]]], [[[8.47826, 49.52175], [8.47823, 49.52183], [8.47823, 49.52183], [8.47826, 49.52175]]], [[[8.47994, 49.52153], [8.47932, 49.52147], [8.47857, 49.52176], [8.47968, 49.52234], [8.48013, 49.52213], [8.47994, 49.52153]]], [[[8.47588, 49.52628], [8.47609, 49.52635], [8.47661, 49.5258], [8.47744, 49.52581], [8.47768, 49.52557], [8.47673, 49.52519], [8.47579, 49.52584], [8.47561, 49.52624], [8.47588, 49.52628]]], [[[8.48692, 49.53218], [8.48659, 49.5323], [8.48664, 49.53252], [8.48708, 49.53212], [8.48692, 49.53218]]], [[[8.48048, 49.53279], [8.48075, 49.53316], [8.48068, 49.53242], [8.48037, 49.53256], [8.48048, 49.53279]]], [[[8.47976, 49.53287], [8.47956, 49.53296], [8.47964, 49.53301], [8.47973, 49.53292], [8.47976, 49.53287]]], [[[8.48834, 49.53285], [8.48784, 49.53315], [8.48789, 49.53321], [8.48861, 49.53291], [8.48834, 49.53285]]], [[[8.47991, 49.53337], [8.4803, 49.53344], [8.48055, 49.53353], [8.48028, 49.53313], [8.47985, 49.53296], [8.47969, 49.53304], [8.47991, 49.53337]]], [[[8.50049, 49.53308], [8.49996, 49.53402], [8.50072, 49.53416], [8.50083, 49.53342], [8.50049, 49.53308]]], [[[8.48401, 49.53708], [8.484, 49.53665], [8.48302, 49.5356], [8.48317, 49.5373], [8.48406, 49.53731], [8.48401, 49.53708]]], [[[8.49824, 49.5396], [8.49802, 49.53965], [8.49805, 49.5397], [8.49826, 49.53963], [8.49824, 49.5396]]], [[[8.47976, 49.55395], [8.47977, 49.55392], [8.47691, 49.55387], [8.47976, 49.55395]]], [[[8.47702, 49.55452], [8.47703, 49.55454], [8.47704, 49.55453], [8.47702, 49.55452]]], [[[8.4747, 49.55548], [8.47463, 49.55547], [8.47464, 49.55565], [8.4747, 49.55561], [8.4747, 49.55548]]], [[[8.47902, 49.55624], [8.47935, 49.55599], [8.4794, 49.55592], [8.47769, 49.55717], [8.47902, 49.55624]]], [[[8.47476, 49.55669], [8.4747, 49.55661], [8.47471, 49.55678], [8.47476, 49.55675], [8.47476, 49.55669]]], [[[8.47763, 49.55722], [8.47705, 49.55761], [8.47537, 49.55882], [8.47524, 49.55896], [8.47487, 49.55895], [8.47479, 49.55825], [8.47483, 49.55897], [8.47525, 49.55897], [8.47763, 49.55722]]], [[[8.4753, 49.56077], [8.47583, 49.56064], [8.47647, 49.56076], [8.47613, 49.56038], [8.47493, 49.55978], [8.47498, 49.56088], [8.4753, 49.56077]]], [[[8.4769, 49.561], [8.47671, 49.56093], [8.47683, 49.56115], [8.4774, 49.56116], [8.4769, 49.561]]]]}, "properties": {"kind": "pv", "area_km2": 8.42, "mw": 420.8}}]}