{"type": "FeatureCollection", "features": [{"type": "Feature", "geometry": {"type": "MultiPolygon", "coordinates": [[[[5.65534, 50.91371], [5.65425, 50.91407], [5.65522, 50.91467], [5.65647, 50.91392], [5.65534, 50.91371]]], [[[5.65546, 50.82227], [5.65434, 50.82336], [5.65709, 50.82466], [5.65939, 50.82363], [5.65861, 50.82275], [5.65737, 50.82333], [5.65734, 50.82396], [5.65696, 50.82365], [5.65742, 50.82323], [5.65906, 50.82243], [5.65947, 50.82047], [5.65638, 50.82137], [5.65703, 50.82247], [5.65546, 50.82227]]], [[[5.77493, 50.85093], [5.77522, 50.85127], [5.77712, 50.84933], [5.77652, 50.84936], [5.77493, 50.85093]]], [[[5.75646, 50.85119], [5.75648, 50.85132], [5.75683, 50.85117], [5.75645, 50.85114], [5.75646, 50.85119]]], [[[5.75807, 50.8516], [5.75647, 50.85202], [5.75636, 50.85246], [5.76076, 50.85494], [5.76134, 50.85513], [5.76284, 50.85475], [5.76353, 50.85333], [5.76328, 50.85297], [5.76151, 50.85222], [5.75807, 50.8516]]], [[[5.75325, 50.87217], [5.75428, 50.87092], [5.7534, 50.87055], [5.74842, 50.87136], [5.74912, 50.87269], [5.75199, 50.87392], [5.75244, 50.87389], [5.75325, 50.87217]]], [[[5.64528, 50.86911], [5.64454, 50.86882], [5.6465, 50.87332], [5.65012, 50.87138], [5.64949, 50.87076], [5.64668, 50.87042], [5.64528, 50.86911]]], [[[5.68349, 50.82586], [5.68407, 50.82592], [5.68426, 50.82564], [5.68357, 50.82567], [5.68349, 50.82586]]], [[[5.68605, 50.81214], [5.68601, 50.81223], [5.68692, 50.81231], [5.68692, 50.81229], [5.68605, 50.81214]]], [[[5.68587, 50.81248], [5.68593, 50.81249], [5.68598, 50.81229], [5.68586, 50.81248], [5.68587, 50.81248]]], [[[5.70756, 50.91417], [5.70583, 50.91427], [5.70734, 50.91563], [5.7081, 50.91571], [5.70821, 50.91411], [5.70756, 50.91417]]], [[[5.70895, 50.91403], [5.70873, 50.91404], [5.70906, 50.91455], [5.70912, 50.91447], [5.70895, 50.91403]]], [[[5.72235, 50.91434], [5.7218, 50.91337], [5.7201, 50.91485], [5.71814, 50.91549], [5.71599, 50.9156], [5.71537, 50.91636], [5.71682, 50.91759], [5.71892, 50.91786], [5.72101, 50.91879], [5.7223, 50.91845], [5.72277, 50.91607], [5.72235, 50.91434]]], [[[5.69798, 50.88834], [5.69802, 50.88847], [5.69812, 50.88832], [5.69798, 50.88834]]], [[[5.69084, 50.88631], [5.69178, 50.88716], [5.69203, 50.88649], [5.69111, 50.88409], [5.68907, 50.8855], [5.69084, 50.88631]]], [[[5.60975, 50.87094], [5.61087, 50.87068], [5.60843, 50.87056], [5.60846, 50.87082], [5.60975, 50.87094]]], [[[5.60814, 50.86667], [5.61515, 50.86704], [5.61601, 50.8659], [5.61506, 50.86544], [5.60783, 50.86592], [5.60814, 50.86667]]], [[[5.70966, 50.91496], [5.71015, 50.91433], [5.71073, 50.91364], [5.70997, 50.91382], [5.70942, 50.91466], [5.7084, 50.91493], [5.7083, 50.91574], [5.70899, 50.91589], [5.70966, 50.91496]]], [[[5.79316, 50.89294], [5.79274, 50.893], [5.79304, 50.89343], [5.79338, 50.89292], [5.79316, 50.89294]]], [[[5.7985, 50.88192], [5.79473, 50.88264], [5.79089, 50.88168], [5.78978, 50.88191], [5.78948, 50.8829], [5.79203, 50.88317], [5.79273, 50.88441], [5.79108, 50.88398], [5.78706, 50.88376], [5.78622, 50.88325], [5.78674, 50.88328], [5.78687, 50.88284], [5.78808, 50.88302], [5.78747, 50.88197], [5.78492, 50.88128], [5.78338, 50.88011], [5.77869, 50.88054], [5.77965, 50.88138], [5.77982, 50.88232], [5.78231, 50.88246], [5.78439, 50.88173], [5.78411, 50.88219], [5.78283, 50.88258], [5.78568, 50.88317], [5.78434, 50.88252], [5.78574, 50.88202], [5.78615, 50.88234], [5.78561, 50.88261], [5.78587, 50.88324], [5.78762, 50.8843], [5.78977, 50.88461], [5.79175, 50.88542], [5.79488, 50.88582], [5.79646, 50.88647], [5.79734, 50.88555], [5.7985, 50.88192]], [[5.78326, 50.8806], [5.78326, 50.88058], [5.78366, 50.88052], [5.78366, 50.88055], [5.78326, 50.8806]], [[5.78188, 50.88083], [5.7816, 50.88089], [5.78153, 50.88062], [5.78236, 50.88073], [5.78188, 50.88083]], [[5.78085, 50.88111], [5.7808, 50.88159], [5.78121, 50.882], [5.78071, 50.88162], [5.78085, 50.88111]]], [[[5.74815, 50.82461], [5.75004, 50.82505], [5.75174, 50.82409], [5.75345, 50.82368], [5.75829, 50.82368], [5.75217, 50.82055], [5.74986, 50.82004], [5.7486, 50.81829], [5.74714, 50.81825], [5.74626, 50.81859], [5.74751, 50.82125], [5.74741, 50.82314], [5.74815, 50.82461]]], [[[5.74527, 50.82439], [5.74397, 50.82129], [5.74352, 50.8213], [5.7439, 50.82124], [5.74358, 50.8187], [5.74189, 50.81871], [5.74115, 50.82024], [5.7393, 50.82145], [5.7373, 50.82193], [5.73473, 50.82183], [5.73999, 50.82338], [5.74313, 50.82351], [5.74527, 50.82439]], [[5.74376, 50.82196], [5.74347, 50.82204], [5.74321, 50.82139], [5.74351, 50.82135], [5.74376, 50.82196]], [[5.74298, 50.82215], [5.74226, 50.8223], [5.74222, 50.82221], [5.7434, 50.82206], [5.74298, 50.82215]]], [[[5.75887, 50.81991], [5.7601, 50.82041], [5.76014, 50.81998], [5.75913, 50.81954], [5.75887, 50.81991]]], [[[5.76006, 50.8206], [5.7593, 50.8209], [5.75982, 50.8212], [5.76, 50.82086], [5.76006, 50.8206]]], [[[5.7954, 50.85045], [5.79276, 50.84989], [5.79083, 50.84854], [5.79039, 50.84974], [5.79262, 50.84998], [5.79434, 50.85059], [5.79632, 50.85245], [5.7954, 50.85045]]]]}, "properties": {"kind": "windland", "area_km2": 1.41}}, {"type": "Feature", "geometry": {"type": "MultiPolygon", "coordinates": [[[[5.69258, 50.86023], [5.69175, 50.8602], [5.69093, 50.86015], [5.69231, 50.86072], [5.69278, 50.86024], [5.69258, 50.86023]]], [[[5.6777, 50.86632], [5.67838, 50.86584], [5.67611, 50.86615], [5.67653, 50.86646], [5.6775, 50.86647], [5.6777, 50.86632]]], [[[5.67868, 50.86644], [5.67834, 50.86668], [5.67823, 50.86676], [5.67884, 50.86639], [5.67904, 50.86618], [5.67868, 50.86644]]], [[[5.68016, 50.86739], [5.68047, 50.86706], [5.68027, 50.86673], [5.68004, 50.86674], [5.68016, 50.86739]]], [[[5.67756, 50.86734], [5.67751, 50.8674], [5.67732, 50.86764], [5.67771, 50.86718], [5.67756, 50.86734]]], [[[5.67534, 50.86839], [5.6762, 50.86782], [5.67705, 50.86683], [5.67461, 50.8667], [5.67468, 50.86868], [5.67534, 50.86839]]], [[[5.68571, 50.86853], [5.68588, 50.86865], [5.68606, 50.86856], [5.68579, 50.86849], [5.68571, 50.86853]]], [[[5.69449, 50.86975], [5.69515, 50.86921], [5.69542, 50.86842], [5.69648, 50.86724], [5.69514, 50.86861], [5.69423, 50.86911], [5.69293, 50.86928], [5.69218, 50.86966], [5.6919, 50.86982], [5.69255, 50.86954], [5.69317, 50.86974], [5.69334, 50.86999], [5.69306, 50.87042], [5.69253, 50.87066], [5.69175, 50.87068], [5.69154, 50.87043], [5.69178, 50.86989], [5.691, 50.87029], [5.69126, 50.87104], [5.69101, 50.87146], [5.6934, 50.87043], [5.69449, 50.86975]]], [[[5.6791, 50.86914], [5.67897, 50.86898], [5.67838, 50.86916], [5.67685, 50.86903], [5.67627, 50.86872], [5.6747, 50.86931], [5.67517, 50.87453], [5.67599, 50.87427], [5.6767, 50.87452], [5.67739, 50.87414], [5.67919, 50.87284], [5.6805, 50.87143], [5.68059, 50.87132], [5.68016, 50.87122], [5.67923, 50.87051], [5.6791, 50.86914]]], [[[5.68469, 50.86991], [5.68496, 50.86997], [5.68506, 50.8698], [5.6846, 50.86991], [5.68469, 50.86991]]], [[[5.68619, 50.87122], [5.68621, 50.87127], [5.68671, 50.87101], [5.68624, 50.87111], [5.68619, 50.87122]]], [[[5.68953, 50.87196], [5.69029, 50.87173], [5.68976, 50.87166], [5.68926, 50.87134], [5.68793, 50.87246], [5.68953, 50.87196]]], [[[5.68497, 50.87165], [5.68413, 50.8722], [5.68282, 50.8719], [5.681, 50.87452], [5.68198, 50.87479], [5.68305, 50.87401], [5.68443, 50.87365], [5.68548, 50.87241], [5.6852, 50.87129], [5.68497, 50.87165]]], [[[5.69295, 50.87361], [5.69219, 50.87336], [5.69201, 50.87345], [5.69221, 50.874], [5.69197, 50.8744], [5.69247, 50.87471], [5.69319, 50.87383], [5.69295, 50.87361]]], [[[5.67968, 50.87332], [5.67718, 50.87496], [5.67662, 50.87784], [5.67735, 50.87765], [5.68052, 50.87255], [5.67968, 50.87332]]], [[[5.6832, 50.8792], [5.68405, 50.87825], [5.68369, 50.87808], [5.6847, 50.877], [5.68548, 50.87654], [5.68528, 50.87624], [5.68564, 50.8765], [5.6847, 50.87761], [5.68557, 50.87694], [5.68562, 50.87655], [5.68654, 50.87559], [5.68607, 50.87525], [5.68619, 50.87478], [5.6855, 50.8752], [5.68466, 50.87675], [5.68228, 50.87936], [5.68306, 50.87934], [5.6832, 50.8792]]], [[[5.67966, 50.87745], [5.67965, 50.87762], [5.67973, 50.87746], [5.67966, 50.87745]]], [[[5.69717, 50.87898], [5.6944, 50.87822], [5.69329, 50.87856], [5.69228, 50.87913], [5.69762, 50.87901], [5.69717, 50.87898]]], [[[5.71476, 50.85815], [5.71457, 50.8581], [5.71468, 50.85821], [5.71476, 50.85815]]], [[[5.69498, 50.86258], [5.69484, 50.86242], [5.6938, 50.8625], [5.69323, 50.86199], [5.69303, 50.86202], [5.69389, 50.86284], [5.69467, 50.8628], [5.69537, 50.86302], [5.69556, 50.86278], [5.69498, 50.86258]]], [[[5.69667, 50.86377], [5.69671, 50.86381], [5.69721, 50.86434], [5.69696, 50.8634], [5.69667, 50.86377]]], [[[5.71213, 50.86719], [5.7121, 50.86709], [5.71211, 50.86696], [5.71207, 50.86731], [5.71213, 50.86719]]], [[[5.71342, 50.86708], [5.71335, 50.86724], [5.71361, 50.86728], [5.71344, 50.86705], [5.71342, 50.86708]]], [[[5.71325, 50.86772], [5.71331, 50.86757], [5.71318, 50.86735], [5.71299, 50.86745], [5.71325, 50.86772]]], [[[5.71519, 50.86884], [5.71473, 50.86842], [5.71338, 50.86819], [5.71394, 50.86908], [5.71279, 50.86981], [5.71326, 50.87026], [5.71376, 50.87009], [5.71363, 50.86973], [5.71389, 50.8694], [5.71495, 50.86926], [5.71541, 50.86956], [5.71544, 50.87], [5.71626, 50.87091], [5.7162, 50.87005], [5.71519, 50.86884]]], [[[5.71688, 50.86852], [5.71593, 50.86829], [5.71737, 50.86979], [5.71735, 50.86956], [5.71872, 50.86952], [5.71688, 50.86852]]], [[[5.70959, 50.86954], [5.7098, 50.86934], [5.70907, 50.86901], [5.70952, 50.86956], [5.70959, 50.86954]]], [[[5.70923, 50.86961], [5.70943, 50.86957], [5.70903, 50.86911], [5.70803, 50.86963], [5.70724, 50.86956], [5.70654, 50.87007], [5.70677, 50.87036], [5.70923, 50.86961]]], [[[5.69763, 50.87049], [5.69625, 50.87134], [5.69273, 50.87292], [5.69304, 50.87307], [5.69422, 50.87295], [5.69668, 50.8719], [5.69933, 50.87166], [5.69884, 50.87011], [5.69827, 50.86998], [5.69763, 50.87049]]], [[[5.71249, 50.87049], [5.71248, 50.87049], [5.71248, 50.8705], [5.71249, 50.87049]]], [[[5.7123, 50.87069], [5.71231, 50.87068], [5.71231, 50.87068], [5.7123, 50.87069]]], [[[5.71118, 50.87095], [5.7107, 50.8709], [5.71052, 50.87101], [5.71081, 50.87114], [5.71138, 50.87094], [5.71118, 50.87095]]], [[[5.69979, 50.87552], [5.69902, 50.87558], [5.7001, 50.87514], [5.69964, 50.87293], [5.69913, 50.87219], [5.69698, 50.8724], [5.69502, 50.87329], [5.69368, 50.87356], [5.69293, 50.87469], [5.6977, 50.87612], [5.69737, 50.87628], [5.69654, 50.87608], [5.69664, 50.87586], [5.69251, 50.87479], [5.69317, 50.87544], [5.69317, 50.87665], [5.69422, 50.87655], [5.69483, 50.87672], [5.69508, 50.87711], [5.69491, 50.87777], [5.69699, 50.87844], [5.69861, 50.87811], [5.70092, 50.87861], [5.70124, 50.87701], [5.70081, 50.87581], [5.69979, 50.87552]], [[5.69829, 50.87585], [5.69636, 50.87527], [5.69691, 50.87443], [5.69656, 50.87427], [5.69674, 50.87404], [5.69748, 50.8743], [5.69664, 50.87511], [5.69859, 50.87571], [5.69829, 50.87585]], [[5.6955, 50.87589], [5.69372, 50.87541], [5.6931, 50.8751], [5.69617, 50.87589], [5.69613, 50.87602], [5.6955, 50.87589]]], [[[5.70049, 50.87548], [5.7004, 50.87559], [5.70074, 50.8756], [5.70073, 50.87555], [5.70049, 50.87548]]], [[[5.70133, 50.87887], [5.70202, 50.87888], [5.70147, 50.87887], [5.70133, 50.87887]]], [[[5.70236, 50.87888], [5.70202, 50.87888], [5.70201, 50.87891], [5.70237, 50.8789], [5.70236, 50.87888]]], [[[5.7209, 50.86049], [5.72105, 50.86049], [5.72105, 50.86047], [5.7209, 50.86048], [5.7209, 50.86049]]], [[[5.71773, 50.86066], [5.7184, 50.86134], [5.71868, 50.86134], [5.71924, 50.86076], [5.719, 50.86052], [5.71773, 50.86066]]], [[[5.72153, 50.86096], [5.72155, 50.86097], [5.72156, 50.86096], [5.72153, 50.86096]]], [[[5.72209, 50.8607], [5.72311, 50.86077], [5.72345, 50.86107], [5.72351, 50.86163], [5.72415, 50.86159], [5.72386, 50.86123], [5.724, 50.86043], [5.72298, 50.86043], [5.72256, 50.86065], [5.72204, 50.86045], [5.72127, 50.86047], [5.72129, 50.86077], [5.72209, 50.8607]]], [[[5.72132, 50.86253], [5.72146, 50.86285], [5.72205, 50.86286], [5.72234, 50.86263], [5.72217, 50.86224], [5.72128, 50.86229], [5.72132, 50.86253]]], [[[5.72497, 50.86261], [5.72571, 50.86282], [5.72597, 50.86218], [5.72489, 50.86219], [5.72497, 50.86261]]], [[[5.71961, 50.86217], [5.7187, 50.86238], [5.72044, 50.86371], [5.72003, 50.86229], [5.71961, 50.86217]]], [[[5.72595, 50.86388], [5.72588, 50.86393], [5.72615, 50.86397], [5.72613, 50.86396], [5.72595, 50.86388]]], [[[5.7272, 50.86432], [5.72732, 50.86408], [5.72738, 50.86394], [5.72725, 50.86395], [5.7272, 50.86432]]], [[[5.72137, 50.86428], [5.72125, 50.86428], [5.7216, 50.86452], [5.7215, 50.86425], [5.72137, 50.86428]]], [[[5.72369, 50.86495], [5.72381, 50.86453], [5.72303, 50.86469], [5.72329, 50.86501], [5.72369, 50.86495]]], [[[5.72667, 50.86513], [5.7266, 50.86515], [5.7264, 50.8657], [5.72655, 50.86542], [5.72667, 50.86513]]], [[[5.72022, 50.86788], [5.72187, 50.86753], [5.72199, 50.86602], [5.71967, 50.86453], [5.72035, 50.86598], [5.72022, 50.86788]]], [[[5.72639, 50.86688], [5.72644, 50.86729], [5.7293, 50.86879], [5.72953, 50.86839], [5.72702, 50.86709], [5.72651, 50.86637], [5.72639, 50.86688]]], [[[5.72183, 50.86795], [5.72168, 50.86767], [5.72074, 50.86784], [5.72143, 50.86784], [5.72183, 50.86795]]], [[[5.72627, 50.86877], [5.72653, 50.86891], [5.72541, 50.86809], [5.7239, 50.86906], [5.72424, 50.86939], [5.72518, 50.86937], [5.72627, 50.86877]], [[5.72502, 50.86913], [5.72484, 50.86899], [5.72492, 50.86888], [5.72517, 50.86897], [5.72502, 50.86913]]], [[[5.72247, 50.86935], [5.72285, 50.86938], [5.72402, 50.86878], [5.72287, 50.86907], [5.72136, 50.86897], [5.72182, 50.86945], [5.72247, 50.86935]]], [[[5.73115, 50.86923], [5.73105, 50.86918], [5.73097, 50.86924], [5.73115, 50.86923]]], [[[5.71704, 50.87116], [5.71686, 50.87144], [5.71732, 50.87176], [5.71724, 50.87225], [5.71754, 50.8727], [5.71746, 50.87141], [5.71704, 50.87116]]]]}, "properties": {"kind": "pv", "area_km2": 0.84, "mw": 42.2}}, {"type": "Feature", "geometry": {"type": "Point", "coordinates": [5.74883, 50.87143]}, "properties": {"kind": "turbine", "i": 0, "mw": 6.0, "hub_m": 120.0, "rotor_m": 150.0}}, {"type": "Feature", "geometry": {"type": "Point", "coordinates": [5.72021, 50.9148]}, "properties": {"kind": "turbine", "i": 1, "mw": 6.0, "hub_m": 120.0, "rotor_m": 150.0}}, {"type": "Feature", "geometry": {"type": "Point", "coordinates": [5.78052, 50.88053]}, "properties": {"kind": "turbine", "i": 2, "mw": 6.0, "hub_m": 120.0, "rotor_m": 150.0}}, {"type": "Feature", "geometry": {"type": "Point", "coordinates": [5.74076, 50.82235]}, "properties": {"kind": "turbine", "i": 3, "mw": 6.0, "hub_m": 120.0, "rotor_m": 150.0}}, {"type": "Feature", "geometry": {"type": "Point", "coordinates": [5.65772, 50.82099]}, "properties": {"kind": "turbine", "i": 4, "mw": 6.0, "hub_m": 120.0, "rotor_m": 150.0}}]}