{"type": "FeatureCollection", "features": [{"type": "Feature", "geometry": {"type": "MultiPolygon", "coordinates": [[[[-83.00463, 36.18514], [-83.00424, 36.18528], [-83.00278, 36.1854], [-83.00277, 36.18499], [-83.00482, 36.18496], [-83.00463, 36.18514]]], [[[-83.00332, 36.1859], [-83.00307, 36.18725], [-83.00283, 36.18751], [-83.00279, 36.18594], [-83.00332, 36.1859]]], [[[-83.01404, 36.19132], [-83.01217, 36.19059], [-83.01133, 36.18978], [-83.00832, 36.18605], [-83.00768, 36.18491], [-83.01059, 36.18486], [-83.01016, 36.1853], [-83.01226, 36.1879], [-83.01217, 36.18483], [-83.01389, 36.1848], [-83.01404, 36.19132]]], [[[-83.00445, 36.19221], [-83.00485, 36.19227], [-83.00539, 36.19207], [-83.00458, 36.1911], [-83.00438, 36.1899], [-83.00511, 36.19052], [-83.00682, 36.19064], [-83.00785, 36.19099], [-83.00841, 36.1907], [-83.00877, 36.18941], [-83.00869, 36.18778], [-83.01171, 36.19099], [-83.01284, 36.19157], [-83.01407, 36.19188], [-83.01411, 36.19353], [-83.01273, 36.19335], [-83.01186, 36.19303], [-83.00992, 36.19185], [-83.00915, 36.19226], [-83.01209, 36.19338], [-83.01181, 36.19385], [-83.00485, 36.19397], [-83.00299, 36.19368], [-83.00295, 36.19198], [-83.00445, 36.19221]]]]}, "properties": {"kind": "pv", "area_km2": 0.56, "mw": 27.9}}]}