{"type": "FeatureCollection", "features": [{"type": "Feature", "geometry": {"type": "MultiPolygon", "coordinates": [[[[-83.04134, 36.20216], [-83.04052, 36.20017], [-83.03871, 36.19729], [-83.04023, 36.19784], [-83.04219, 36.19757], [-83.04264, 36.19779], [-83.04172, 36.20191], [-83.04134, 36.20216]]], [[[-83.02407, 36.17525], [-83.02255, 36.17433], [-83.02113, 36.17398], [-83.01998, 36.17406], [-83.01885, 36.17471], [-83.01835, 36.17595], [-83.01886, 36.17708], [-83.01761, 36.17814], [-83.01707, 36.17918], [-83.01777, 36.18175], [-83.01658, 36.1819], [-83.01312, 36.18048], [-83.01328, 36.17887], [-83.01242, 36.17777], [-83.0109, 36.17736], [-83.00933, 36.17787], [-83.00743, 36.17732], [-83.00579, 36.17566], [-83.00624, 36.17353], [-83.00587, 36.16938], [-83.00458, 36.16783], [-83.0049, 36.16477], [-83.00541, 36.16434], [-83.00704, 36.16548], [-83.00909, 36.16535], [-83.01103, 36.16403], [-83.01121, 36.16233], [-83.01965, 36.16459], [-83.02127, 36.16632], [-83.02303, 36.1666], [-83.02532, 36.16789], [-83.02751, 36.16849], [-83.0295, 36.17018], [-83.02874, 36.17201], [-83.02829, 36.1748], [-83.02727, 36.17553], [-83.02679, 36.1765], [-83.02663, 36.17804], [-83.02703, 36.1798], [-83.02522, 36.17954], [-83.02629, 36.17836], [-83.02645, 36.17694], [-83.02563, 36.17581], [-83.02407, 36.17525]], [[-83.00613, 36.16859], [-83.00734, 36.17005], [-83.00942, 36.17037], [-83.01138, 36.16943], [-83.01186, 36.1677], [-83.01059, 36.16619], [-83.00855, 36.1659], [-83.00653, 36.16696], [-83.00613, 36.16859]]], [[[-83.04166, 36.18594], [-83.04022, 36.18646], [-83.03944, 36.18739], [-83.03676, 36.18677], [-83.03408, 36.18786], [-83.03177, 36.18612], [-83.0319, 36.1825], [-83.04006, 36.18197], [-83.04166, 36.18594]]], [[[-83.01782, 36.19797], [-83.01771, 36.19861], [-83.01662, 36.19802], [-83.01743, 36.19403], [-83.01909, 36.19425], [-83.01782, 36.19797]]], [[[-83.02465, 36.19093], [-83.01933, 36.19036], [-83.02061, 36.19021], [-83.02173, 36.18959], [-83.02232, 36.18863], [-83.02232, 36.18739], [-83.0216, 36.1864], [-83.02039, 36.18574], [-83.01784, 36.18566], [-83.02003, 36.18531], [-83.02156, 36.18424], [-83.02519, 36.18341], [-83.0271, 36.18406], [-83.02694, 36.18605], [-83.02748, 36.18792], [-83.03187, 36.19147], [-83.02465, 36.19093]]], [[[-83.02185, 36.22239], [-83.0223, 36.22125], [-83.02357, 36.2214], [-83.02353, 36.22176], [-83.02185, 36.22239]]], [[[-83.00054, 36.163], [-82.99975, 36.16323], [-82.99889, 36.1618], [-83.00202, 36.16162], [-83.00054, 36.163]]], [[[-82.99415, 36.16248], [-82.99404, 36.16274], [-82.99313, 36.16264], [-82.99419, 36.16241], [-82.99415, 36.16248]]], [[[-82.99876, 36.16761], [-82.99978, 36.16784], [-83.0001, 36.16925], [-83.00106, 36.17044], [-83.00136, 36.17312], [-83.00008, 36.17183], [-82.99836, 36.17119], [-82.99748, 36.17002], [-82.99784, 36.16701], [-82.99876, 36.16761]]], [[[-83.00258, 36.18009], [-83.00282, 36.1823], [-83.00207, 36.18277], [-83.00045, 36.18235], [-82.99818, 36.18306], [-82.99439, 36.1833], [-82.9951, 36.18251], [-82.9953, 36.18157], [-82.99892, 36.18047], [-82.99955, 36.17887], [-83.00191, 36.17915], [-83.00258, 36.18009]]], [[[-83.01073, 36.18466], [-83.01116, 36.18405], [-83.01223, 36.1843], [-83.01226, 36.1879], [-83.01016, 36.1853], [-83.01073, 36.18466]]], [[[-83.00929, 36.19221], [-83.00992, 36.19185], [-83.01273, 36.19335], [-83.01209, 36.19338], [-83.00929, 36.19221]]], [[[-83.00468, 36.19131], [-83.00539, 36.19207], [-83.00485, 36.19227], [-83.00051, 36.19167], [-83.00028, 36.1913], [-83.00084, 36.19048], [-82.99878, 36.18978], [-82.99706, 36.1922], [-82.99556, 36.19278], [-82.99683, 36.1901], [-82.99666, 36.18895], [-82.99585, 36.18768], [-82.9988, 36.18679], [-83.00112, 36.18744], [-83.00188, 36.1885], [-83.00438, 36.1899], [-83.00468, 36.19131]]], [[[-83.01801, 36.19005], [-83.01876, 36.19029], [-83.01735, 36.1901], [-83.01733, 36.18965], [-83.01801, 36.19005]]], [[[-83.01376, 36.22502], [-83.01377, 36.22501], [-83.014, 36.22511], [-83.01378, 36.22515], [-83.01376, 36.22502]]], [[[-83.01743, 36.22178], [-83.01708, 36.22204], [-83.01643, 36.22176], [-83.01721, 36.22176], [-83.01743, 36.22178]]], [[[-83.00501, 36.20744], [-83.00519, 36.20723], [-83.00736, 36.20805], [-83.00636, 36.20945], [-83.00692, 36.21126], [-83.00796, 36.21189], [-83.00956, 36.21206], [-83.00952, 36.2131], [-83.01023, 36.21431], [-83.00803, 36.21576], [-83.0075, 36.21585], [-83.00647, 36.21436], [-83.00682, 36.21218], [-83.00465, 36.20776], [-83.00501, 36.20744]]], [[[-83.00192, 36.19961], [-83.01046, 36.2044], [-83.01203, 36.20482], [-83.01373, 36.20469], [-83.01633, 36.20556], [-83.01444, 36.20695], [-83.01136, 36.20508], [-83.00614, 36.20306], [-83.00501, 36.20167], [-83.00285, 36.20077], [-83.00192, 36.19961]]], [[[-83.03739, 36.17817], [-83.03726, 36.17818], [-83.03731, 36.17746], [-83.03784, 36.17814], [-83.03739, 36.17817]]], [[[-83.03244, 36.17858], [-83.03162, 36.17864], [-83.03141, 36.17777], [-83.03259, 36.17673], [-83.03244, 36.17858]]], [[[-83.026, 36.20827], [-83.03049, 36.21028], [-83.02883, 36.21254], [-83.02576, 36.21143], [-83.026, 36.20827]]], [[[-83.0347, 36.20763], [-83.03318, 36.20648], [-83.03107, 36.20576], [-83.03567, 36.20649], [-83.0347, 36.20763]]], [[[-83.01961, 36.21049], [-83.01861, 36.21064], [-83.01767, 36.2098], [-83.02013, 36.20799], [-83.02023, 36.20901], [-83.01961, 36.21049]]], [[[-83.03581, 36.20119], [-83.03515, 36.20104], [-83.03522, 36.20026], [-83.03581, 36.20119]]], [[[-82.98489, 36.21324], [-82.98625, 36.21493], [-82.98283, 36.21778], [-82.9788, 36.21671], [-82.97492, 36.21702], [-82.97407, 36.2163], [-82.98031, 36.21395], [-82.98349, 36.21136], [-82.98483, 36.21265], [-82.98489, 36.21324]]], [[[-82.98914, 36.20965], [-82.99036, 36.20885], [-82.9914, 36.20752], [-82.99385, 36.20652], [-82.99682, 36.20471], [-82.99698, 36.20528], [-82.9959, 36.20675], [-82.9962, 36.20815], [-82.99775, 36.20922], [-82.99995, 36.20914], [-83.00086, 36.21096], [-82.99877, 36.21173], [-82.99685, 36.20964], [-82.99483, 36.2094], [-82.99342, 36.21034], [-82.99316, 36.21223], [-82.99204, 36.21326], [-82.99075, 36.21362], [-82.98981, 36.21227], [-82.98997, 36.21109], [-82.98914, 36.20965]]], [[[-82.98576, 36.20536], [-82.9856, 36.20591], [-82.98501, 36.20588], [-82.98585, 36.20519], [-82.98576, 36.20536]]], [[[-82.98927, 36.19894], [-82.98843, 36.19969], [-82.98807, 36.2009], [-82.98762, 36.20092], [-82.98781, 36.19928], [-82.98712, 36.19802], [-82.9855, 36.19733], [-82.98394, 36.19766], [-82.98355, 36.19717], [-82.98423, 36.19627], [-82.98425, 36.19513], [-82.98594, 36.19492], [-82.98749, 36.1965], [-82.98877, 36.197], [-82.99012, 36.19689], [-82.99149, 36.19612], [-82.99123, 36.19818], [-82.98927, 36.19894]]], [[[-82.9824, 36.19353], [-82.98047, 36.19341], [-82.97897, 36.19411], [-82.97833, 36.19532], [-82.97869, 36.19671], [-82.97483, 36.19682], [-82.97171, 36.19781], [-82.97199, 36.19678], [-82.97158, 36.19539], [-82.9726, 36.19616], [-82.97373, 36.19635], [-82.97504, 36.19599], [-82.97579, 36.19527], [-82.97601, 36.19417], [-82.97514, 36.19277], [-82.97518, 36.1921], [-82.97614, 36.19187], [-82.97833, 36.19229], [-82.98023, 36.19116], [-82.98269, 36.19211], [-82.9824, 36.19353]]], [[[-82.98398, 36.18728], [-82.98065, 36.1868], [-82.98125, 36.18587], [-82.9815, 36.18354], [-82.98421, 36.18284], [-82.98577, 36.18429], [-82.98764, 36.18461], [-82.98679, 36.18841], [-82.98398, 36.18728]]], [[[-82.979, 36.17913], [-82.97257, 36.18062], [-82.9703, 36.1801], [-82.96861, 36.18021], [-82.96731, 36.17945], [-82.97019, 36.17557], [-82.97184, 36.17444], [-82.97284, 36.17526], [-82.9742, 36.1755], [-82.97537, 36.17523], [-82.97665, 36.17442], [-82.97726, 36.1761], [-82.97902, 36.17689], [-82.98059, 36.17666], [-82.98162, 36.17592], [-82.98359, 36.1758], [-82.98488, 36.17481], [-82.98587, 36.17475], [-82.98724, 36.17612], [-82.98045, 36.17919], [-82.979, 36.17913]]], [[[-82.98655, 36.16507], [-82.98227, 36.16696], [-82.98121, 36.16784], [-82.98013, 36.16744], [-82.98616, 36.16465], [-82.98655, 36.16507]]], [[[-82.99576, 36.22578], [-82.99471, 36.22552], [-82.99581, 36.22482], [-82.99617, 36.2233], [-82.998, 36.22162], [-83.00042, 36.22206], [-83.00204, 36.22329], [-83.00441, 36.22332], [-83.0056, 36.22286], [-83.00629, 36.22209], [-83.0065, 36.22098], [-83.0061, 36.22011], [-83.00836, 36.2197], [-83.00975, 36.22195], [-83.00763, 36.22225], [-83.00595, 36.22328], [-83.00506, 36.22483], [-83.00512, 36.22631], [-82.9999, 36.2263], [-82.99576, 36.22578]]], [[[-82.99646, 36.21721], [-82.9961, 36.21702], [-82.99658, 36.21646], [-82.99694, 36.21727], [-82.99646, 36.21721]]], [[[-83.00101, 36.21799], [-83.00121, 36.21817], [-83.00057, 36.21819], [-83.00078, 36.2181], [-83.00101, 36.21799]]], [[[-82.98711, 36.1691], [-82.98906, 36.16879], [-82.99106, 36.17072], [-82.99292, 36.17189], [-82.99154, 36.17314], [-82.99076, 36.17334], [-82.99015, 36.17171], [-82.98898, 36.17087], [-82.9845, 36.17067], [-82.98711, 36.1691]]], [[[-82.98716, 36.22202], [-82.98615, 36.22137], [-82.98597, 36.22069], [-82.98844, 36.21851], [-82.98973, 36.21789], [-82.99005, 36.21835], [-82.98863, 36.22202], [-82.98846, 36.22224], [-82.98716, 36.22202]]], [[[-82.97871, 36.20143], [-82.97659, 36.2014], [-82.97476, 36.20282], [-82.9746, 36.20411], [-82.97512, 36.20509], [-82.97627, 36.20579], [-82.9778, 36.20591], [-82.97484, 36.20958], [-82.97428, 36.20906], [-82.97362, 36.20674], [-82.97414, 36.20484], [-82.97302, 36.20268], [-82.97345, 36.20146], [-82.97564, 36.20063], [-82.97951, 36.20067], [-82.97871, 36.20143]], [[-82.97458, 36.20858], [-82.97491, 36.2087], [-82.97504, 36.20848], [-82.97471, 36.20835], [-82.97458, 36.20858]]], [[[-82.98016, 36.20441], [-82.98027, 36.20406], [-82.98045, 36.20413], [-82.98014, 36.20446], [-82.98016, 36.20441]]], [[[-82.96488, 36.20356], [-82.96579, 36.20343], [-82.96532, 36.20473], [-82.965, 36.20404], [-82.96488, 36.20356]]], [[[-82.96716, 36.20797], [-82.96924, 36.20861], [-82.96986, 36.21055], [-82.97119, 36.21208], [-82.97043, 36.21276], [-82.96688, 36.20779], [-82.96716, 36.20797]]], [[[-82.96507, 36.1953], [-82.96499, 36.19532], [-82.96511, 36.19514], [-82.96522, 36.19529], [-82.96507, 36.1953]]]]}, "properties": {"kind": "windland", "area_km2": 7.53}}, {"type": "Feature", "geometry": {"type": "MultiPolygon", "coordinates": [[[[-83.01185, 36.18191], [-83.01041, 36.1814], [-83.01108, 36.18097], [-83.01118, 36.17909], [-83.01088, 36.17902], [-83.01064, 36.17919], [-83.01043, 36.18082], [-83.00935, 36.18118], [-83.00814, 36.18093], [-83.00775, 36.18066], [-83.0081, 36.18048], [-83.00784, 36.18013], [-83.00743, 36.18033], [-83.00514, 36.17756], [-83.0038, 36.17651], [-83.00376, 36.17596], [-83.00609, 36.17592], [-83.00743, 36.17732], [-83.00933, 36.17787], [-83.00999, 36.17752], [-83.0109, 36.17736], [-83.01182, 36.17749], [-83.0126, 36.1779], [-83.01303, 36.17834], [-83.01332, 36.17906], [-83.01312, 36.18048], [-83.01378, 36.18063], [-83.01382, 36.1824], [-83.01185, 36.18191]]], [[[-83.00356, 36.17702], [-83.00461, 36.17789], [-83.00663, 36.18033], [-83.00604, 36.18091], [-83.0063, 36.18159], [-83.00651, 36.18146], [-83.00712, 36.18151], [-83.00756, 36.18125], [-83.00777, 36.18138], [-83.00756, 36.18183], [-83.00651, 36.18257], [-83.00515, 36.17897], [-83.00413, 36.17775], [-83.0023, 36.17691], [-82.99865, 36.17659], [-82.99947, 36.17642], [-83.00356, 36.17702]]], [[[-83.00454, 36.17918], [-83.00568, 36.18226], [-83.00536, 36.18296], [-83.00566, 36.18317], [-83.00602, 36.18308], [-83.00621, 36.18352], [-83.00575, 36.18407], [-83.00509, 36.18452], [-83.00463, 36.18514], [-83.00251, 36.18542], [-83.00081, 36.18515], [-83.00105, 36.18492], [-83.0011, 36.18438], [-83.00071, 36.18403], [-82.99977, 36.18416], [-82.99955, 36.18437], [-82.99979, 36.18468], [-83.00042, 36.18459], [-83.00007, 36.18505], [-83.00024, 36.1856], [-83.00246, 36.18596], [-83.00332, 36.1859], [-83.00307, 36.18725], [-83.00261, 36.18776], [-83.00258, 36.18884], [-83.00156, 36.18822], [-83.00112, 36.18744], [-82.99971, 36.18721], [-82.9988, 36.18679], [-82.99629, 36.18739], [-82.99585, 36.18768], [-82.99666, 36.18895], [-82.99683, 36.1901], [-82.99635, 36.19158], [-82.99536, 36.19264], [-82.99556, 36.19278], [-82.99706, 36.1922], [-82.99691, 36.19241], [-82.99748, 36.19387], [-82.99521, 36.19488], [-82.99332, 36.1935], [-82.9894, 36.19197], [-82.98902, 36.19127], [-82.98996, 36.186], [-82.99103, 36.18659], [-82.9922, 36.18646], [-82.99277, 36.18687], [-82.99334, 36.18688], [-82.99428, 36.1866], [-82.99532, 36.1859], [-82.99826, 36.18509], [-82.99809, 36.18473], [-82.99722, 36.18476], [-82.99677, 36.1846], [-82.99607, 36.18471], [-82.99554, 36.18519], [-82.99409, 36.18504], [-82.99236, 36.18423], [-82.9922, 36.18204], [-82.99282, 36.18196], [-82.99303, 36.18167], [-82.99295, 36.18114], [-82.99251, 36.18097], [-82.9925, 36.18072], [-82.99382, 36.18003], [-82.99423, 36.18008], [-82.99749, 36.17925], [-82.99661, 36.17707], [-83.00213, 36.17744], [-83.00367, 36.17814], [-83.00454, 36.17918]], [[-82.99183, 36.19048], [-82.99244, 36.19062], [-82.99299, 36.19037], [-82.99317, 36.18985], [-82.99285, 36.1894], [-82.99227, 36.18927], [-82.99167, 36.18953], [-82.99151, 36.19002], [-82.99183, 36.19048]], [[-83.00273, 36.18213], [-83.00247, 36.18112], [-83.00265, 36.17988], [-83.00241, 36.17951], [-83.00159, 36.17905], [-82.99955, 36.17887], [-82.99947, 36.17971], [-82.99892, 36.18047], [-82.99808, 36.18093], [-82.9953, 36.18157], [-82.9951, 36.18251], [-82.99439, 36.1833], [-82.99483, 36.18339], [-82.99562, 36.18308], [-82.99661, 36.18294], [-82.99818, 36.18306], [-82.99911, 36.18259], [-83.00045, 36.18235], [-83.00135, 36.18245], [-83.00207, 36.18277], [-83.00282, 36.1823], [-83.00273, 36.18213]], [[-83.00499, 36.18392], [-83.00475, 36.18372], [-83.00438, 36.18374], [-83.00375, 36.18401], [-83.00366, 36.18436], [-83.00397, 36.18457], [-83.00454, 36.18447], [-83.00496, 36.18421], [-83.00499, 36.18392]]], [[[-83.0071, 36.18283], [-83.00806, 36.18218], [-83.0084, 36.18158], [-83.01, 36.18186], [-83.01384, 36.18301], [-83.01389, 36.1848], [-83.01424, 36.1848], [-83.01432, 36.18814], [-83.01463, 36.18994], [-83.01408, 36.19133], [-83.01311, 36.19107], [-83.01217, 36.19059], [-83.01133, 36.18978], [-83.00832, 36.18605], [-83.00697, 36.18361], [-83.0071, 36.18283]], [[-83.01116, 36.18405], [-83.01016, 36.1853], [-83.01226, 36.1879], [-83.01223, 36.1843], [-83.01116, 36.18405]], [[-83.00818, 36.18245], [-83.00775, 36.18267], [-83.0071, 36.18343], [-83.00761, 36.18415], [-83.00834, 36.18412], [-83.0091, 36.18328], [-83.009, 36.18286], [-83.00818, 36.18245]]], [[[-83.00632, 36.18436], [-83.00649, 36.18408], [-83.00665, 36.18437], [-83.00585, 36.1847], [-83.00632, 36.18436]]], [[[-83.0153, 36.19001], [-83.01499, 36.18811], [-83.01491, 36.18479], [-83.02116, 36.18468], [-83.01982, 36.18537], [-83.01784, 36.18566], [-83.01927, 36.18555], [-83.02039, 36.18574], [-83.0216, 36.1864], [-83.02232, 36.18739], [-83.02232, 36.18863], [-83.02173, 36.18959], [-83.02061, 36.19021], [-83.01933, 36.19036], [-83.02516, 36.19099], [-83.02521, 36.19266], [-83.022, 36.1924], [-83.01483, 36.19145], [-83.01475, 36.19125], [-83.0153, 36.19001]], [[-83.01564, 36.18761], [-83.01598, 36.1875], [-83.01616, 36.18722], [-83.01607, 36.18682], [-83.01577, 36.18662], [-83.01527, 36.18666], [-83.01509, 36.18687], [-83.01513, 36.18743], [-83.01564, 36.18761]], [[-83.02009, 36.18827], [-83.0201, 36.18783], [-83.01951, 36.18744], [-83.01887, 36.18741], [-83.01857, 36.1876], [-83.01859, 36.18803], [-83.01912, 36.18845], [-83.01977, 36.1885], [-83.02009, 36.18827]], [[-83.01876, 36.19029], [-83.01801, 36.19005], [-83.01733, 36.18965], [-83.01735, 36.1901], [-83.01876, 36.19029]]], [[[-83.00529, 36.1921], [-83.00458, 36.1911], [-83.00438, 36.1899], [-83.00511, 36.19052], [-83.00682, 36.19064], [-83.00785, 36.19099], [-83.00841, 36.1907], [-83.00861, 36.19023], [-83.00869, 36.18778], [-83.01174, 36.191], [-83.01284, 36.19157], [-83.01534, 36.19224], [-83.015, 36.19275], [-83.01408, 36.19607], [-83.01385, 36.19848], [-83.01258, 36.19775], [-83.0117, 36.19689], [-83.01187, 36.19587], [-83.01348, 36.19603], [-83.01452, 36.19358], [-83.01273, 36.19335], [-83.01204, 36.1931], [-83.01047, 36.19231], [-83.00992, 36.19185], [-83.00915, 36.19226], [-83.01209, 36.19338], [-83.01051, 36.19599], [-83.00869, 36.19491], [-83.0074, 36.19445], [-83.00033, 36.19333], [-83.00051, 36.19167], [-83.00485, 36.19227], [-83.00529, 36.1921]]], [[[-83.01586, 36.19268], [-83.016, 36.19215], [-83.02241, 36.19299], [-83.02194, 36.19345], [-83.02146, 36.19438], [-83.02052, 36.19705], [-83.02084, 36.19744], [-83.02026, 36.1988], [-83.02051, 36.19925], [-83.02187, 36.19964], [-83.02119, 36.2013], [-83.01727, 36.20036], [-83.01445, 36.19883], [-83.01474, 36.19618], [-83.01564, 36.19291], [-83.01586, 36.19268]], [[-83.01872, 36.19559], [-83.01909, 36.19425], [-83.01743, 36.19403], [-83.01676, 36.19647], [-83.01662, 36.19802], [-83.01771, 36.19861], [-83.01872, 36.19559]]], [[[-83.00566, 36.19617], [-83.00552, 36.19651], [-83.00817, 36.19735], [-83.00872, 36.19729], [-83.00965, 36.19758], [-83.01011, 36.19729], [-83.01045, 36.19664], [-83.01168, 36.19773], [-83.01125, 36.19747], [-83.0109, 36.19785], [-83.01085, 36.19903], [-83.01309, 36.20038], [-83.01331, 36.20045], [-83.01415, 36.19932], [-83.01699, 36.20085], [-83.02062, 36.20167], [-83.02216, 36.20269], [-83.02156, 36.2027], [-83.01989, 36.202], [-83.01775, 36.20174], [-83.017, 36.20196], [-83.01659, 36.20279], [-83.01568, 36.2028], [-83.01413, 36.20214], [-83.01351, 36.20214], [-83.01269, 36.20238], [-83.01211, 36.20231], [-83.00362, 36.19751], [-82.99905, 36.19643], [-82.99714, 36.19618], [-82.99646, 36.19629], [-82.99561, 36.19531], [-82.99878, 36.194], [-83.00087, 36.1939], [-83.0054, 36.19461], [-83.00518, 36.19581], [-83.00566, 36.19617]], [[-83.01374, 36.2006], [-83.01332, 36.20049], [-83.01326, 36.20072], [-83.01367, 36.20086], [-83.01374, 36.2006]]], [[[-83.00337, 36.19812], [-83.01152, 36.20277], [-83.01264, 36.20302], [-83.01371, 36.20274], [-83.01433, 36.20284], [-83.0144, 36.2051], [-83.01373, 36.20469], [-83.01203, 36.20482], [-83.01046, 36.2044], [-83.00495, 36.20115], [-83.00182, 36.19958], [-83.00285, 36.20077], [-83.00396, 36.20109], [-83.00501, 36.20167], [-83.00614, 36.20306], [-83.00901, 36.20415], [-83.00708, 36.20369], [-83.00653, 36.20505], [-83.00429, 36.20416], [-83.00191, 36.20252], [-82.99696, 36.19686], [-82.99903, 36.19706], [-83.00016, 36.19745], [-83.00219, 36.19775], [-83.00337, 36.19812]]], [[[-83.01754, 36.2024], [-83.01949, 36.20257], [-83.02013, 36.20273], [-83.01742, 36.20277], [-83.01754, 36.2024]]], [[[-83.00954, 36.20618], [-83.00911, 36.20602], [-83.00793, 36.20557], [-83.01029, 36.20649], [-83.00954, 36.20618]]], [[[-83.01308, 36.2082], [-83.01059, 36.20664], [-83.01112, 36.20646], [-83.0111, 36.20627], [-83.01049, 36.20608], [-83.01097, 36.20546], [-83.01034, 36.20476], [-83.00969, 36.2044], [-83.01245, 36.20562], [-83.01445, 36.20694], [-83.01451, 36.20913], [-83.01432, 36.20927], [-83.01308, 36.2082]]], [[[-83.00392, 36.20489], [-83.0097, 36.20713], [-83.01157, 36.20814], [-83.01455, 36.21064], [-83.01458, 36.21183], [-83.00812, 36.21194], [-83.00773, 36.2118], [-83.00677, 36.2111], [-83.00635, 36.21018], [-83.00649, 36.20904], [-83.00736, 36.20805], [-83.00519, 36.20723], [-83.00465, 36.20776], [-83.00522, 36.20868], [-83.00532, 36.20934], [-83.0061, 36.21033], [-83.00676, 36.21196], [-83.00463, 36.212], [-83.00418, 36.21093], [-83.00317, 36.20974], [-83.00327, 36.2092], [-83.0029, 36.20863], [-83.00145, 36.20693], [-83.00045, 36.20628], [-82.9996, 36.20469], [-82.99932, 36.20322], [-83.0014, 36.20392], [-83.00118, 36.20431], [-83.00139, 36.20474], [-83.0013, 36.20506], [-83.00075, 36.20485], [-83.00039, 36.2051], [-83.00058, 36.20566], [-83.00117, 36.2056], [-83.00136, 36.20518], [-83.00199, 36.2052], [-83.00206, 36.20495], [-83.00244, 36.20481], [-83.00268, 36.20449], [-83.00317, 36.2045], [-83.00392, 36.20489]], [[-83.00972, 36.20987], [-83.00917, 36.20944], [-83.00878, 36.20949], [-83.0086, 36.20973], [-83.00864, 36.21006], [-83.00892, 36.21022], [-83.00948, 36.21019], [-83.00972, 36.20987]], [[-83.00238, 36.20627], [-83.00276, 36.20647], [-83.00323, 36.2063], [-83.00329, 36.20579], [-83.00307, 36.20544], [-83.00255, 36.20541], [-83.00217, 36.20562], [-83.00238, 36.20627]]], [[[-82.99568, 36.17616], [-82.99572, 36.17632], [-82.99564, 36.17609], [-82.99568, 36.17616]]], [[[-83.00106, 36.17603], [-83.0008, 36.17601], [-83.00309, 36.17597], [-83.00312, 36.17635], [-83.00106, 36.17603]]], [[[-82.99643, 36.17645], [-82.99634, 36.17608], [-82.99859, 36.17605], [-82.99703, 36.17635], [-82.99643, 36.17645]]], [[[-82.9963, 36.19747], [-82.9984, 36.1999], [-82.99766, 36.20032], [-82.9975, 36.20011], [-82.9968, 36.2005], [-82.9963, 36.19747]]], [[[-82.99677, 36.20082], [-82.99735, 36.20114], [-82.99715, 36.2017], [-82.99814, 36.20181], [-82.99854, 36.20204], [-82.99842, 36.2023], [-82.99702, 36.20202], [-82.99559, 36.20205], [-82.99677, 36.20082]]], [[[-82.99557, 36.20266], [-82.99694, 36.20256], [-82.9987, 36.20299], [-82.99895, 36.20483], [-82.99985, 36.20652], [-83.00019, 36.20694], [-83.00096, 36.2073], [-83.00235, 36.20894], [-83.0026, 36.20931], [-83.00249, 36.20979], [-83.00268, 36.21019], [-83.00354, 36.21111], [-83.00246, 36.21204], [-82.99624, 36.21214], [-82.99585, 36.21186], [-82.99584, 36.21117], [-82.99552, 36.21098], [-82.99519, 36.2112], [-82.99527, 36.21216], [-82.99315, 36.21219], [-82.99314, 36.21106], [-82.99342, 36.21034], [-82.99401, 36.20976], [-82.99506, 36.20935], [-82.99621, 36.2094], [-82.99703, 36.20976], [-82.99762, 36.21034], [-82.9979, 36.21111], [-82.99877, 36.21173], [-83.00086, 36.21096], [-83.00044, 36.20971], [-82.99995, 36.20914], [-82.99873, 36.20931], [-82.99775, 36.20922], [-82.99687, 36.20883], [-82.9962, 36.20815], [-82.9959, 36.20675], [-82.99624, 36.20594], [-82.99698, 36.20528], [-82.99682, 36.20471], [-82.99385, 36.20652], [-82.99221, 36.20721], [-82.99216, 36.20519], [-82.99507, 36.20355], [-82.99557, 36.20266]], [[-82.99834, 36.20675], [-82.99816, 36.20719], [-82.99838, 36.20745], [-82.99918, 36.20741], [-82.99944, 36.20721], [-82.99915, 36.20673], [-82.99834, 36.20675]]], [[[-83.00351, 36.21202], [-83.00369, 36.21184], [-83.00381, 36.21168], [-83.00394, 36.21201], [-83.00351, 36.21202]]], [[[-82.99483, 36.17682], [-82.99477, 36.17611], [-82.99495, 36.17611], [-82.99517, 36.17673], [-82.99483, 36.17682]]], [[[-82.99418, 36.17697], [-82.99214, 36.17758], [-82.99158, 36.17669], [-82.9932, 36.17614], [-82.9941, 36.17612], [-82.99418, 36.17697]]], [[[-82.99147, 36.17771], [-82.99152, 36.17779], [-82.99147, 36.17781], [-82.99147, 36.17771]]], [[[-82.99387, 36.178], [-82.99382, 36.17782], [-82.99546, 36.17732], [-82.99601, 36.17731], [-82.99677, 36.17895], [-82.99414, 36.17954], [-82.99347, 36.17852], [-82.99387, 36.178]]], [[[-82.99191, 36.18043], [-82.99182, 36.1812], [-82.99157, 36.18184], [-82.99153, 36.18007], [-82.99186, 36.18], [-82.99191, 36.18043]]], [[[-82.99164, 36.18346], [-82.99171, 36.18406], [-82.99163, 36.18423], [-82.99161, 36.1833], [-82.99164, 36.18346]]], [[[-82.9928, 36.18512], [-82.99393, 36.18557], [-82.99469, 36.18561], [-82.99379, 36.1862], [-82.99308, 36.18636], [-82.99229, 36.18592], [-82.9912, 36.18606], [-82.99024, 36.1855], [-82.99093, 36.18519], [-82.99166, 36.18518], [-82.99165, 36.18486], [-82.992, 36.18468], [-82.9928, 36.18512]]], [[[-82.981, 36.18641], [-82.98065, 36.1868], [-82.98137, 36.18707], [-82.9828, 36.18706], [-82.98398, 36.18728], [-82.98551, 36.1878], [-82.98661, 36.18845], [-82.98679, 36.18841], [-82.98737, 36.18525], [-82.98959, 36.18521], [-82.98908, 36.18704], [-82.98838, 36.19101], [-82.98846, 36.19161], [-82.98744, 36.19122], [-82.98769, 36.1913], [-82.98814, 36.18997], [-82.9869, 36.18964], [-82.98659, 36.19078], [-82.98682, 36.19098], [-82.9854, 36.19044], [-82.98563, 36.19027], [-82.98561, 36.19004], [-82.98449, 36.18924], [-82.98284, 36.18874], [-82.9817, 36.18871], [-82.98134, 36.18889], [-82.98062, 36.18862], [-82.98054, 36.18536], [-82.98133, 36.18535], [-82.981, 36.18641]]], [[[-82.98285, 36.18946], [-82.98227, 36.18925], [-82.98421, 36.18974], [-82.98499, 36.19028], [-82.98285, 36.18946]]], [[[-82.98492, 36.19201], [-82.98449, 36.19341], [-82.98477, 36.19352], [-82.98502, 36.19341], [-82.98595, 36.19151], [-82.98616, 36.19159], [-82.986, 36.19206], [-82.98653, 36.19278], [-82.98618, 36.19291], [-82.98641, 36.19333], [-82.98758, 36.19504], [-82.9885, 36.19575], [-82.98919, 36.19601], [-82.99001, 36.19579], [-82.99074, 36.19536], [-82.99073, 36.19469], [-82.9897, 36.19324], [-82.989, 36.19285], [-82.98837, 36.19276], [-82.98789, 36.19225], [-82.99255, 36.19404], [-82.99262, 36.19441], [-82.9933, 36.19494], [-82.99375, 36.19562], [-82.99339, 36.19681], [-82.99344, 36.19824], [-82.99304, 36.19898], [-82.99221, 36.19975], [-82.99056, 36.20024], [-82.99016, 36.20063], [-82.99031, 36.20135], [-82.9913, 36.20234], [-82.98602, 36.20268], [-82.98478, 36.20242], [-82.98411, 36.20204], [-82.98333, 36.20119], [-82.98298, 36.20077], [-82.98299, 36.20027], [-82.98405, 36.20101], [-82.98528, 36.2008], [-82.98566, 36.20042], [-82.98577, 36.19947], [-82.98554, 36.19909], [-82.98522, 36.19899], [-82.98498, 36.19916], [-82.985, 36.2003], [-82.98431, 36.2005], [-82.98282, 36.19945], [-82.98238, 36.19954], [-82.98223, 36.19984], [-82.98138, 36.19904], [-82.98207, 36.1986], [-82.98197, 36.19824], [-82.98163, 36.19822], [-82.98088, 36.19865], [-82.98081, 36.19591], [-82.98177, 36.19596], [-82.98207, 36.19566], [-82.98178, 36.1953], [-82.98079, 36.19524], [-82.98074, 36.19338], [-82.9824, 36.19353], [-82.98269, 36.19211], [-82.98069, 36.19134], [-82.98065, 36.18949], [-82.98534, 36.19128], [-82.98492, 36.19201]], [[-82.99123, 36.19818], [-82.99149, 36.19612], [-82.99012, 36.19689], [-82.98877, 36.197], [-82.98749, 36.1965], [-82.98594, 36.19492], [-82.98512, 36.19516], [-82.98425, 36.19513], [-82.98423, 36.19627], [-82.98355, 36.19717], [-82.98394, 36.19766], [-82.98458, 36.19741], [-82.9855, 36.19733], [-82.98639, 36.19755], [-82.98712, 36.19802], [-82.98781, 36.19928], [-82.98762, 36.20092], [-82.98807, 36.2009], [-82.9883, 36.19992], [-82.98899, 36.19912], [-82.99123, 36.19818]]], [[[-82.99284, 36.20004], [-82.99361, 36.19926], [-82.9941, 36.19835], [-82.99406, 36.19686], [-82.99442, 36.19557], [-82.99413, 36.19504], [-82.99572, 36.1968], [-82.9955, 36.19733], [-82.99559, 36.19894], [-82.99601, 36.20063], [-82.9949, 36.20155], [-82.99473, 36.20211], [-82.9921, 36.20229], [-82.99079, 36.20081], [-82.99284, 36.20004]]], [[[-82.98173, 36.20151], [-82.98096, 36.20186], [-82.9809, 36.19943], [-82.98257, 36.20124], [-82.98173, 36.20151]]], [[[-82.98124, 36.2026], [-82.98165, 36.20252], [-82.98161, 36.20216], [-82.98296, 36.20169], [-82.98366, 36.20244], [-82.98466, 36.20296], [-82.98418, 36.20333], [-82.981, 36.20338], [-82.98097, 36.20239], [-82.98124, 36.2026]]], [[[-82.9947, 36.20273], [-82.99384, 36.20345], [-82.99214, 36.20439], [-82.99211, 36.2032], [-82.98519, 36.20331], [-82.98543, 36.20315], [-82.9947, 36.20273]]]]}, "properties": {"kind": "pv", "area_km2": 7.11, "mw": 355.4}}, {"type": "Feature", "geometry": {"type": "Point", "coordinates": [-83.00448, 36.19124]}, "properties": {"kind": "turbine", "i": 0, "mw": 6.0, "hub_m": 120.0, "rotor_m": 150.0}}, {"type": "Feature", "geometry": {"type": "Point", "coordinates": [-82.98841, 36.19809]}, "properties": {"kind": "turbine", "i": 1, "mw": 6.0, "hub_m": 120.0, "rotor_m": 150.0}}, {"type": "Feature", "geometry": {"type": "Point", "coordinates": [-83.00017, 36.18144]}, "properties": {"kind": "turbine", "i": 2, "mw": 6.0, "hub_m": 120.0, "rotor_m": 150.0}}, {"type": "Feature", "geometry": {"type": "Point", "coordinates": [-83.0049, 36.20769]}, "properties": {"kind": "turbine", "i": 3, "mw": 6.0, "hub_m": 120.0, "rotor_m": 150.0}}, {"type": "Feature", "geometry": {"type": "Point", "coordinates": [-83.01641, 36.18117]}, "properties": {"kind": "turbine", "i": 4, "mw": 6.0, "hub_m": 120.0, "rotor_m": 150.0}}, {"type": "Feature", "geometry": {"type": "Point", "coordinates": [-82.98402, 36.185]}, "properties": {"kind": "turbine", "i": 5, "mw": 6.0, "hub_m": 120.0, "rotor_m": 150.0}}, {"type": "Feature", "geometry": {"type": "Point", "coordinates": [-83.02478, 36.1909]}, "properties": {"kind": "turbine", "i": 6, "mw": 6.0, "hub_m": 120.0, "rotor_m": 150.0}}, {"type": "Feature", "geometry": {"type": "Point", "coordinates": [-82.99281, 36.21119]}, "properties": {"kind": "turbine", "i": 7, "mw": 6.0, "hub_m": 120.0, "rotor_m": 150.0}}, {"type": "Feature", "geometry": {"type": "Point", "coordinates": [-82.97615, 36.19501]}, "properties": {"kind": "turbine", "i": 8, "mw": 6.0, "hub_m": 120.0, "rotor_m": 150.0}}, {"type": "Feature", "geometry": {"type": "Point", "coordinates": [-83.0121, 36.17137]}, "properties": {"kind": "turbine", "i": 9, "mw": 6.0, "hub_m": 120.0, "rotor_m": 150.0}}, {"type": "Feature", "geometry": {"type": "Point", "coordinates": [-82.99181, 36.17171]}, "properties": {"kind": "turbine", "i": 10, "mw": 6.0, "hub_m": 120.0, "rotor_m": 150.0}}, {"type": "Feature", "geometry": {"type": "Point", "coordinates": [-83.02935, 36.21057]}, "properties": {"kind": "turbine", "i": 11, "mw": 6.0, "hub_m": 120.0, "rotor_m": 150.0}}, {"type": "Feature", "geometry": {"type": "Point", "coordinates": [-82.98071, 36.21468]}, "properties": {"kind": "turbine", "i": 12, "mw": 6.0, "hub_m": 120.0, "rotor_m": 150.0}}]}