{"type": "FeatureCollection", "features": [{"type": "Feature", "geometry": {"type": "MultiPolygon", "coordinates": [[[[-83.01707, 36.17918], [-83.01783, 36.18168], [-83.01658, 36.1819], [-83.01312, 36.18048], [-83.01328, 36.17887], [-83.01242, 36.17777], [-83.0109, 36.17736], [-83.00933, 36.17787], [-83.00743, 36.17732], [-83.00577, 36.17544], [-83.01139, 36.17656], [-83.01707, 36.17918]]], [[[-83.01782, 36.19797], [-83.01771, 36.19861], [-83.01662, 36.19802], [-83.01743, 36.19403], [-83.01909, 36.19425], [-83.01782, 36.19797]]], [[[-83.02465, 36.19093], [-83.01933, 36.19036], [-83.02061, 36.19021], [-83.02173, 36.18959], [-83.02232, 36.18863], [-83.02232, 36.18739], [-83.0216, 36.1864], [-83.02039, 36.18574], [-83.01784, 36.18566], [-83.02003, 36.18531], [-83.02156, 36.18424], [-83.02253, 36.18405], [-83.02414, 36.18648], [-83.02555, 36.18997], [-83.02577, 36.19103], [-83.02465, 36.19093]]], [[[-83.00258, 36.18009], [-83.00282, 36.1823], [-83.00207, 36.18277], [-83.00045, 36.18235], [-82.99818, 36.18306], [-82.99439, 36.1833], [-82.9951, 36.18251], [-82.9953, 36.18157], [-82.99892, 36.18047], [-82.99955, 36.17887], [-83.00191, 36.17915], [-83.00258, 36.18009]]], [[[-83.01073, 36.18466], [-83.01116, 36.18405], [-83.01223, 36.1843], [-83.01226, 36.1879], [-83.01016, 36.1853], [-83.01073, 36.18466]]], [[[-83.00929, 36.19221], [-83.00992, 36.19185], [-83.01273, 36.19335], [-83.01209, 36.19338], [-83.00929, 36.19221]]], [[[-83.00468, 36.19131], [-83.00539, 36.19207], [-83.00485, 36.19227], [-83.00051, 36.19167], [-83.00028, 36.1913], [-83.00084, 36.19048], [-82.99878, 36.18978], [-82.99706, 36.1922], [-82.99556, 36.19278], [-82.99683, 36.1901], [-82.99666, 36.18895], [-82.99585, 36.18768], [-82.9988, 36.18679], [-83.00112, 36.18744], [-83.00188, 36.1885], [-83.00438, 36.1899], [-83.00468, 36.19131]]], [[[-83.01801, 36.19005], [-83.01876, 36.19029], [-83.01735, 36.1901], [-83.01733, 36.18965], [-83.01801, 36.19005]]], [[[-83.00501, 36.20744], [-83.00519, 36.20723], [-83.00736, 36.20805], [-83.0064, 36.20927], [-83.00645, 36.21057], [-83.00745, 36.21166], [-83.00891, 36.21207], [-83.00687, 36.21243], [-83.00465, 36.20776], [-83.00501, 36.20744]]], [[[-83.00192, 36.19961], [-83.01046, 36.2044], [-83.01203, 36.20482], [-83.01373, 36.20469], [-83.01633, 36.20556], [-83.01444, 36.20695], [-83.01136, 36.20508], [-83.00614, 36.20306], [-83.00501, 36.20167], [-83.00285, 36.20077], [-83.00192, 36.19961]]], [[[-82.98984, 36.20926], [-82.9914, 36.20752], [-82.99385, 36.20652], [-82.99682, 36.20471], [-82.99698, 36.20528], [-82.9959, 36.20675], [-82.9962, 36.20815], [-82.99775, 36.20922], [-82.99995, 36.20914], [-83.00086, 36.21096], [-82.99877, 36.21173], [-82.9979, 36.21111], [-82.99721, 36.20989], [-82.99552, 36.20932], [-82.99401, 36.20976], [-82.99317, 36.21091], [-82.98984, 36.20926]]], [[[-82.98576, 36.20536], [-82.9856, 36.20591], [-82.98523, 36.20593], [-82.98585, 36.20519], [-82.98576, 36.20536]]], [[[-82.98927, 36.19894], [-82.98843, 36.19969], [-82.98807, 36.2009], [-82.98762, 36.20092], [-82.98781, 36.19928], [-82.98712, 36.19802], [-82.9855, 36.19733], [-82.98394, 36.19766], [-82.98355, 36.19717], [-82.98423, 36.19627], [-82.98425, 36.19513], [-82.98594, 36.19492], [-82.98749, 36.1965], [-82.98877, 36.197], [-82.99012, 36.19689], [-82.99149, 36.19612], [-82.99123, 36.19818], [-82.98927, 36.19894]]], [[[-82.9824, 36.19353], [-82.97994, 36.19354], [-82.98023, 36.19116], [-82.98269, 36.19211], [-82.9824, 36.19353]]], [[[-82.98398, 36.18728], [-82.98157, 36.18705], [-82.98432, 36.18304], [-82.98577, 36.18429], [-82.98764, 36.18461], [-82.98679, 36.18841], [-82.98398, 36.18728]]]]}, "properties": {"kind": "windland", "area_km2": 1.8}}, {"type": "Feature", "geometry": {"type": "MultiPolygon", "coordinates": [[[[-83.01185, 36.18191], [-83.01041, 36.1814], [-83.01108, 36.18097], [-83.01118, 36.17909], [-83.01088, 36.17902], [-83.01064, 36.17919], [-83.01043, 36.18082], [-83.00935, 36.18118], [-83.00814, 36.18093], [-83.00775, 36.18066], [-83.0081, 36.18048], [-83.00784, 36.18013], [-83.00743, 36.18033], [-83.00514, 36.17756], [-83.0038, 36.17651], [-83.00376, 36.17596], [-83.00609, 36.17592], [-83.00743, 36.17732], [-83.00933, 36.17787], [-83.00999, 36.17752], [-83.0109, 36.17736], [-83.01182, 36.17749], [-83.0126, 36.1779], [-83.01303, 36.17834], [-83.01332, 36.17906], [-83.01312, 36.18048], [-83.01378, 36.18063], [-83.01382, 36.1824], [-83.01185, 36.18191]]], [[[-83.0071, 36.18283], [-83.00806, 36.18218], [-83.0084, 36.18158], [-83.01, 36.18186], [-83.01384, 36.18301], [-83.01389, 36.1848], [-83.01424, 36.1848], [-83.01432, 36.18814], [-83.01463, 36.18994], [-83.01408, 36.19133], [-83.01311, 36.19107], [-83.01217, 36.19059], [-83.01133, 36.18978], [-83.00832, 36.18605], [-83.00697, 36.18361], [-83.0071, 36.18283]], [[-83.01111, 36.18414], [-83.01016, 36.1853], [-83.01226, 36.1879], [-83.01223, 36.1843], [-83.01111, 36.18414]], [[-83.00818, 36.18245], [-83.00775, 36.18267], [-83.0071, 36.18343], [-83.00761, 36.18415], [-83.00834, 36.18412], [-83.0091, 36.18328], [-83.009, 36.18286], [-83.00818, 36.18245]]], [[[-83.00632, 36.18436], [-83.00649, 36.18408], [-83.00665, 36.18437], [-83.00585, 36.1847], [-83.00632, 36.18436]]], [[[-83.0153, 36.19003], [-83.01499, 36.18811], [-83.01491, 36.18479], [-83.02116, 36.18468], [-83.01982, 36.18537], [-83.01784, 36.18566], [-83.01927, 36.18555], [-83.02039, 36.18574], [-83.0216, 36.1864], [-83.02232, 36.18739], [-83.02232, 36.18863], [-83.02173, 36.18959], [-83.02061, 36.19021], [-83.01933, 36.19036], [-83.02516, 36.19099], [-83.02521, 36.19266], [-83.022, 36.1924], [-83.01483, 36.19145], [-83.01475, 36.19125], [-83.0153, 36.19003]], [[-83.01561, 36.18761], [-83.01598, 36.1875], [-83.01616, 36.18722], [-83.01607, 36.18682], [-83.01577, 36.18662], [-83.01527, 36.18666], [-83.01509, 36.18687], [-83.01511, 36.18741], [-83.01561, 36.18761]], [[-83.02008, 36.18829], [-83.02014, 36.1879], [-83.01984, 36.18759], [-83.01906, 36.18739], [-83.01857, 36.1876], [-83.01859, 36.18803], [-83.01912, 36.18845], [-83.01974, 36.18851], [-83.02008, 36.18829]], [[-83.01735, 36.1901], [-83.01876, 36.19029], [-83.01733, 36.18965], [-83.01735, 36.1901]]], [[[-83.00491, 36.19225], [-83.00539, 36.19207], [-83.00458, 36.1911], [-83.00438, 36.1899], [-83.00511, 36.19052], [-83.00682, 36.19064], [-83.00785, 36.19099], [-83.00841, 36.1907], [-83.00861, 36.19023], [-83.00869, 36.18778], [-83.01174, 36.191], [-83.01284, 36.19157], [-83.01534, 36.19224], [-83.015, 36.19275], [-83.01408, 36.19607], [-83.01385, 36.19848], [-83.01258, 36.19775], [-83.0117, 36.19689], [-83.01187, 36.19587], [-83.01348, 36.19603], [-83.01452, 36.19358], [-83.01273, 36.19335], [-83.01204, 36.1931], [-83.01047, 36.19231], [-83.00992, 36.19185], [-83.00915, 36.19226], [-83.01209, 36.19338], [-83.01051, 36.19599], [-83.00869, 36.19491], [-83.0074, 36.19445], [-83.00033, 36.19333], [-83.00051, 36.19167], [-83.00491, 36.19225]]], [[[-83.01586, 36.19268], [-83.016, 36.19215], [-83.02241, 36.19299], [-83.02194, 36.19345], [-83.02146, 36.19438], [-83.02052, 36.19705], [-83.02084, 36.19744], [-83.02026, 36.1988], [-83.02051, 36.19925], [-83.02187, 36.19964], [-83.02119, 36.2013], [-83.01727, 36.20036], [-83.01445, 36.19883], [-83.01474, 36.19618], [-83.01564, 36.19291], [-83.01586, 36.19268]], [[-83.01872, 36.19559], [-83.01909, 36.19425], [-83.01743, 36.19403], [-83.01676, 36.19647], [-83.01662, 36.19802], [-83.01771, 36.19861], [-83.01872, 36.19559]]], [[[-83.00566, 36.19617], [-83.00552, 36.19651], [-83.00817, 36.19735], [-83.00872, 36.19729], [-83.00965, 36.19758], [-83.01011, 36.19729], [-83.01045, 36.19664], [-83.01168, 36.19773], [-83.01125, 36.19747], [-83.0109, 36.19785], [-83.01085, 36.19903], [-83.01309, 36.20038], [-83.01331, 36.20045], [-83.01415, 36.19932], [-83.01699, 36.20085], [-83.02062, 36.20167], [-83.02216, 36.20269], [-83.02156, 36.2027], [-83.01989, 36.202], [-83.01775, 36.20174], [-83.017, 36.20196], [-83.01659, 36.20279], [-83.01568, 36.2028], [-83.01413, 36.20214], [-83.01351, 36.20214], [-83.01269, 36.20238], [-83.01211, 36.20231], [-83.00362, 36.19751], [-82.99905, 36.19643], [-82.99714, 36.19618], [-82.99646, 36.19629], [-82.99561, 36.19531], [-82.99878, 36.194], [-83.00087, 36.1939], [-83.0054, 36.19461], [-83.00518, 36.19581], [-83.00566, 36.19617]], [[-83.01374, 36.2006], [-83.01332, 36.20049], [-83.01326, 36.20072], [-83.01367, 36.20086], [-83.01374, 36.2006]]], [[[-83.00334, 36.19811], [-83.01152, 36.20277], [-83.01264, 36.20302], [-83.01371, 36.20274], [-83.01433, 36.20284], [-83.0144, 36.2051], [-83.01373, 36.20469], [-83.01203, 36.20482], [-83.01046, 36.2044], [-83.00495, 36.20115], [-83.00182, 36.19958], [-83.00285, 36.20077], [-83.00396, 36.20109], [-83.00501, 36.20167], [-83.00614, 36.20306], [-83.00901, 36.20415], [-83.00708, 36.20369], [-83.00653, 36.20505], [-83.00429, 36.20416], [-83.00191, 36.20252], [-82.99696, 36.19686], [-82.99903, 36.19706], [-83.00016, 36.19745], [-83.00219, 36.19775], [-83.00334, 36.19811]]], [[[-83.01754, 36.2024], [-83.01949, 36.20257], [-83.02013, 36.20273], [-83.01742, 36.20277], [-83.01754, 36.2024]]], [[[-83.00954, 36.20618], [-83.00911, 36.20602], [-83.00793, 36.20557], [-83.01029, 36.20649], [-83.00954, 36.20618]]], [[[-83.01308, 36.2082], [-83.01059, 36.20664], [-83.01112, 36.20646], [-83.0111, 36.20627], [-83.01049, 36.20608], [-83.01097, 36.20546], [-83.01034, 36.20476], [-83.00969, 36.2044], [-83.01245, 36.20562], [-83.01445, 36.20694], [-83.01451, 36.20913], [-83.01432, 36.20927], [-83.01308, 36.2082]]], [[[-83.00392, 36.20489], [-83.0097, 36.20713], [-83.01157, 36.20814], [-83.01455, 36.21064], [-83.01458, 36.21183], [-83.00812, 36.21194], [-83.00773, 36.2118], [-83.00677, 36.2111], [-83.00635, 36.21018], [-83.00649, 36.20904], [-83.00736, 36.20805], [-83.00519, 36.20723], [-83.00465, 36.20776], [-83.00522, 36.20868], [-83.00532, 36.20934], [-83.0061, 36.21033], [-83.00676, 36.21196], [-83.00463, 36.212], [-83.00418, 36.21093], [-83.00317, 36.20974], [-83.00327, 36.2092], [-83.0029, 36.20863], [-83.00145, 36.20693], [-83.00045, 36.20628], [-82.9996, 36.20469], [-82.99932, 36.20322], [-83.0014, 36.20392], [-83.00118, 36.20431], [-83.00139, 36.20474], [-83.0013, 36.20506], [-83.00075, 36.20485], [-83.00039, 36.2051], [-83.00058, 36.20566], [-83.00117, 36.2056], [-83.00136, 36.20518], [-83.00199, 36.2052], [-83.00206, 36.20495], [-83.00244, 36.20481], [-83.00268, 36.20449], [-83.00317, 36.2045], [-83.00392, 36.20489]], [[-83.00972, 36.20987], [-83.00917, 36.20944], [-83.00878, 36.20949], [-83.0086, 36.20973], [-83.00864, 36.21006], [-83.00892, 36.21022], [-83.00948, 36.21019], [-83.00972, 36.20987]], [[-83.00238, 36.20627], [-83.00276, 36.20647], [-83.00323, 36.2063], [-83.00329, 36.20579], [-83.00307, 36.20544], [-83.00255, 36.20541], [-83.00217, 36.20562], [-83.00238, 36.20627]]], [[[-83.00107, 36.17603], [-83.0008, 36.17601], [-83.00309, 36.17597], [-83.00312, 36.17635], [-83.00107, 36.17603]]], [[[-82.99643, 36.17645], [-82.99634, 36.17608], [-82.99859, 36.17605], [-82.99703, 36.17635], [-82.99643, 36.17645]]], [[[-83.00004, 36.17669], [-82.99865, 36.17659], [-82.99947, 36.17642], [-83.00098, 36.17657], [-83.00338, 36.17695], [-83.00378, 36.17715], [-83.00485, 36.17815], [-83.00663, 36.18033], [-83.00604, 36.18091], [-83.0063, 36.18159], [-83.00651, 36.18146], [-83.00712, 36.18151], [-83.00756, 36.18125], [-83.00777, 36.18138], [-83.00756, 36.18183], [-83.00651, 36.18257], [-83.00515, 36.17897], [-83.00466, 36.17824], [-83.00379, 36.1775], [-83.0023, 36.17691], [-83.00004, 36.17669]]], [[[-82.99312, 36.18464], [-82.99236, 36.18423], [-82.9922, 36.18204], [-82.99282, 36.18196], [-82.99303, 36.18167], [-82.99295, 36.18114], [-82.99251, 36.18097], [-82.9925, 36.18072], [-82.99382, 36.18003], [-82.99423, 36.18008], [-82.99743, 36.17932], [-82.99751, 36.17906], [-82.99661, 36.17707], [-83.00213, 36.17744], [-83.00337, 36.17793], [-83.00411, 36.17855], [-83.00454, 36.17918], [-83.00568, 36.18226], [-83.00536, 36.18296], [-83.00566, 36.18317], [-83.00602, 36.18308], [-83.00621, 36.18352], [-83.00463, 36.18514], [-83.00424, 36.18528], [-83.00251, 36.18542], [-83.00081, 36.18515], [-83.00107, 36.18487], [-83.00099, 36.18419], [-83.00055, 36.18401], [-82.99958, 36.1843], [-82.99976, 36.18467], [-83.00042, 36.18459], [-83.00007, 36.18505], [-83.00024, 36.1856], [-83.00246, 36.18596], [-83.00332, 36.1859], [-83.00307, 36.18725], [-83.00261, 36.18776], [-83.00258, 36.18884], [-83.00156, 36.18822], [-83.00112, 36.18744], [-82.99971, 36.18721], [-82.9988, 36.18679], [-82.99629, 36.18739], [-82.99585, 36.18768], [-82.99666, 36.18895], [-82.99683, 36.1901], [-82.99635, 36.19158], [-82.99536, 36.19264], [-82.99556, 36.19278], [-82.99706, 36.1922], [-82.99691, 36.19241], [-82.99748, 36.19387], [-82.99521, 36.19488], [-82.99371, 36.1937], [-82.99185, 36.1929], [-82.99179, 36.19045], [-82.99221, 36.19061], [-82.99269, 36.19056], [-82.99304, 36.19032], [-82.99318, 36.18991], [-82.99303, 36.18956], [-82.99261, 36.1893], [-82.99176, 36.18945], [-82.99169, 36.18653], [-82.99232, 36.18648], [-82.99284, 36.18688], [-82.99369, 36.18681], [-82.99532, 36.1859], [-82.99808, 36.18523], [-82.99828, 36.18493], [-82.99803, 36.18472], [-82.9967, 36.18461], [-82.99607, 36.18471], [-82.99554, 36.18519], [-82.99409, 36.18504], [-82.99312, 36.18464]], [[-83.00221, 36.17931], [-83.00159, 36.17905], [-82.99955, 36.17887], [-82.99947, 36.17971], [-82.99892, 36.18047], [-82.99808, 36.18093], [-82.9953, 36.18157], [-82.9951, 36.18251], [-82.99439, 36.1833], [-82.99483, 36.18339], [-82.99562, 36.18308], [-82.99661, 36.18294], [-82.99818, 36.18306], [-82.99911, 36.18259], [-83.00045, 36.18235], [-83.00135, 36.18245], [-83.00207, 36.18277], [-83.00282, 36.1823], [-83.00247, 36.18112], [-83.00265, 36.17988], [-83.00221, 36.17931]], [[-83.00499, 36.18392], [-83.00475, 36.18372], [-83.00438, 36.18374], [-83.00375, 36.18401], [-83.00366, 36.18436], [-83.00397, 36.18457], [-83.00454, 36.18447], [-83.00496, 36.18421], [-83.00499, 36.18392]]], [[[-82.99365, 36.20439], [-82.99509, 36.20353], [-82.99559, 36.2026], [-82.99729, 36.2026], [-82.9987, 36.20299], [-82.99895, 36.20483], [-82.99985, 36.20652], [-83.00019, 36.20694], [-83.00096, 36.2073], [-83.00235, 36.20894], [-83.0026, 36.20931], [-83.00249, 36.20979], [-83.00268, 36.21019], [-83.00354, 36.21111], [-83.00301, 36.21167], [-83.00246, 36.21204], [-82.99624, 36.21214], [-82.99585, 36.21186], [-82.99581, 36.21112], [-82.99549, 36.21098], [-82.99519, 36.2112], [-82.99527, 36.21216], [-82.99315, 36.21219], [-82.99314, 36.21106], [-82.99342, 36.21034], [-82.99401, 36.20976], [-82.99506, 36.20935], [-82.99621, 36.2094], [-82.99703, 36.20976], [-82.99762, 36.21034], [-82.9979, 36.21111], [-82.99877, 36.21173], [-83.00086, 36.21096], [-83.00044, 36.20971], [-82.99995, 36.20914], [-82.99873, 36.20931], [-82.99775, 36.20922], [-82.99687, 36.20883], [-82.9962, 36.20815], [-82.9959, 36.20675], [-82.99624, 36.20594], [-82.99698, 36.20528], [-82.99682, 36.20471], [-82.99385, 36.20652], [-82.99221, 36.20721], [-82.99216, 36.20519], [-82.99365, 36.20439]], [[-82.99834, 36.20675], [-82.99816, 36.20719], [-82.99838, 36.20745], [-82.99918, 36.20741], [-82.99944, 36.20721], [-82.99915, 36.20673], [-82.99834, 36.20675]]], [[[-83.00394, 36.21201], [-83.00351, 36.21202], [-83.00381, 36.21168], [-83.00386, 36.21181], [-83.00394, 36.21201]]], [[[-82.99568, 36.17616], [-82.99568, 36.17616], [-82.99572, 36.17632], [-82.99564, 36.17609], [-82.99568, 36.17616]]], [[[-82.99517, 36.17673], [-82.99483, 36.17682], [-82.99477, 36.17611], [-82.99495, 36.17611], [-82.99517, 36.17673]]], [[[-82.99418, 36.17697], [-82.99214, 36.17758], [-82.99158, 36.17669], [-82.9932, 36.17614], [-82.9941, 36.17612], [-82.99418, 36.17697]]], [[[-82.99147, 36.17771], [-82.99152, 36.17779], [-82.99147, 36.17781], [-82.99147, 36.17771]]], [[[-82.99387, 36.178], [-82.99382, 36.17782], [-82.99546, 36.17732], [-82.99601, 36.17731], [-82.99677, 36.17895], [-82.99414, 36.17954], [-82.99347, 36.17852], [-82.99387, 36.178]]], [[[-82.99191, 36.18043], [-82.99182, 36.1812], [-82.99157, 36.18184], [-82.99153, 36.18007], [-82.99186, 36.18], [-82.99191, 36.18043]]], [[[-82.99161, 36.1833], [-82.99171, 36.18406], [-82.99163, 36.18423], [-82.99161, 36.1833]]], [[[-82.9928, 36.18512], [-82.99393, 36.18557], [-82.99469, 36.18561], [-82.99389, 36.18615], [-82.99324, 36.18635], [-82.99254, 36.18597], [-82.99168, 36.18598], [-82.99165, 36.18486], [-82.992, 36.18468], [-82.9928, 36.18512]]], [[[-82.99254, 36.19408], [-82.99262, 36.19441], [-82.9933, 36.19494], [-82.99375, 36.19562], [-82.99339, 36.19681], [-82.99344, 36.19824], [-82.99293, 36.19912], [-82.99203, 36.19982], [-82.99187, 36.19377], [-82.99254, 36.19408]]], [[[-82.99281, 36.20006], [-82.99361, 36.19926], [-82.9941, 36.19835], [-82.99406, 36.19686], [-82.99442, 36.19557], [-82.99413, 36.19504], [-82.99572, 36.1968], [-82.9955, 36.19733], [-82.99559, 36.19894], [-82.99601, 36.20063], [-82.9949, 36.20155], [-82.99473, 36.20211], [-82.9921, 36.20229], [-82.99204, 36.2004], [-82.99281, 36.20006]]], [[[-82.9963, 36.19747], [-82.9984, 36.1999], [-82.99766, 36.20032], [-82.9975, 36.20011], [-82.9968, 36.2005], [-82.9963, 36.19747]]], [[[-82.99677, 36.20082], [-82.99735, 36.20114], [-82.99715, 36.2017], [-82.99814, 36.20181], [-82.99854, 36.20204], [-82.99842, 36.2023], [-82.99702, 36.20202], [-82.99559, 36.20205], [-82.99677, 36.20082]]], [[[-82.9947, 36.20273], [-82.99384, 36.20345], [-82.99214, 36.20439], [-82.9921, 36.20283], [-82.9947, 36.20273]]]]}, "properties": {"kind": "pv", "area_km2": 5.91, "mw": 295.3}}, {"type": "Feature", "geometry": {"type": "Point", "coordinates": [-83.00448, 36.19124]}, "properties": {"kind": "turbine", "i": 0, "mw": 6.0, "hub_m": 120.0, "rotor_m": 150.0}}, {"type": "Feature", "geometry": {"type": "Point", "coordinates": [-82.98841, 36.19809]}, "properties": {"kind": "turbine", "i": 1, "mw": 6.0, "hub_m": 120.0, "rotor_m": 150.0}}, {"type": "Feature", "geometry": {"type": "Point", "coordinates": [-83.00017, 36.18144]}, "properties": {"kind": "turbine", "i": 2, "mw": 6.0, "hub_m": 120.0, "rotor_m": 150.0}}, {"type": "Feature", "geometry": {"type": "Point", "coordinates": [-83.0049, 36.20769]}, "properties": {"kind": "turbine", "i": 3, "mw": 6.0, "hub_m": 120.0, "rotor_m": 150.0}}]}