{"type": "FeatureCollection", "features": [{"type": "Feature", "geometry": {"type": "MultiPolygon", "coordinates": [[[[-118.42502, 33.90929], [-118.42509, 33.90915], [-118.42537, 33.90956], [-118.42517, 33.90957], [-118.42502, 33.90929]]], [[[-118.42655, 33.91125], [-118.42652, 33.91092], [-118.42724, 33.91112], [-118.42826, 33.91359], [-118.4324, 33.92184], [-118.43123, 33.9215], [-118.4307, 33.92159], [-118.42981, 33.91987], [-118.42975, 33.91935], [-118.42922, 33.91871], [-118.42963, 33.91835], [-118.42957, 33.91783], [-118.42913, 33.91746], [-118.42859, 33.91747], [-118.42822, 33.91685], [-118.42898, 33.91664], [-118.42906, 33.91597], [-118.42874, 33.91572], [-118.42831, 33.91567], [-118.42772, 33.91596], [-118.42606, 33.91282], [-118.42537, 33.912], [-118.42631, 33.91158], [-118.42655, 33.91125]]], [[[-118.4271, 33.91612], [-118.4272, 33.91632], [-118.42614, 33.91671], [-118.42605, 33.91631], [-118.42641, 33.91631], [-118.42689, 33.91599], [-118.42442, 33.91236], [-118.42313, 33.91081], [-118.42311, 33.91058], [-118.42369, 33.91147], [-118.42521, 33.91265], [-118.4271, 33.91612]]], [[[-118.42466, 33.91643], [-118.42502, 33.91711], [-118.42454, 33.91728], [-118.42412, 33.91692], [-118.42355, 33.91675], [-118.42288, 33.91714], [-118.42278, 33.91665], [-118.42415, 33.91665], [-118.42466, 33.91643]]], [[[-118.42504, 33.92029], [-118.42493, 33.91996], [-118.42561, 33.91996], [-118.42533, 33.92035], [-118.42539, 33.92074], [-118.42575, 33.92103], [-118.42621, 33.92105], [-118.42582, 33.92143], [-118.42503, 33.92128], [-118.42504, 33.92029]]], [[[-118.4299, 33.92496], [-118.42977, 33.92502], [-118.43016, 33.92462], [-118.43027, 33.92483], [-118.4299, 33.92496]]], [[[-118.43449, 33.92623], [-118.4338, 33.92633], [-118.43346, 33.92673], [-118.43325, 33.92653], [-118.43382, 33.92615], [-118.43384, 33.92561], [-118.43337, 33.92527], [-118.43267, 33.92542], [-118.43263, 33.92501], [-118.43168, 33.92339], [-118.43332, 33.92333], [-118.43488, 33.92634], [-118.43449, 33.92623]]], [[[-118.42911, 33.92527], [-118.4291, 33.92528], [-118.42909, 33.92528], [-118.42911, 33.92527], [-118.42911, 33.92527]]], [[[-118.42784, 33.92929], [-118.42738, 33.92708], [-118.4271, 33.92673], [-118.42701, 33.92556], [-118.42612, 33.92236], [-118.42653, 33.92283], [-118.42716, 33.92282], [-118.4272, 33.92311], [-118.4268, 33.92335], [-118.42665, 33.92377], [-118.42706, 33.92463], [-118.427, 33.92508], [-118.42767, 33.92632], [-118.42829, 33.92676], [-118.42904, 33.92689], [-118.42843, 33.92717], [-118.4282, 33.9275], [-118.42825, 33.92829], [-118.42854, 33.92874], [-118.42838, 33.92948], [-118.42789, 33.92948], [-118.42784, 33.92929]]], [[[-118.43203, 33.92591], [-118.43218, 33.92584], [-118.43225, 33.92597], [-118.43212, 33.92593], [-118.43203, 33.92591]]], [[[-118.42945, 33.9267], [-118.42963, 33.92662], [-118.42963, 33.92669], [-118.42926, 33.92682], [-118.42945, 33.9267]]], [[[-118.43471, 33.92919], [-118.43522, 33.92891], [-118.43529, 33.92839], [-118.43485, 33.92803], [-118.43417, 33.92811], [-118.43386, 33.92748], [-118.43461, 33.92753], [-118.43515, 33.92693], [-118.43546, 33.92761], [-118.43549, 33.92939], [-118.43468, 33.9294], [-118.43471, 33.92919]]], [[[-118.42157, 33.90236], [-118.42126, 33.90233], [-118.42099, 33.90182], [-118.42047, 33.90064], [-118.42071, 33.90031], [-118.42062, 33.89984], [-118.42034, 33.89955], [-118.41996, 33.89947], [-118.41729, 33.89353], [-118.41781, 33.89353], [-118.41827, 33.89448], [-118.42186, 33.90252], [-118.42157, 33.90236]]], [[[-118.42206, 33.90304], [-118.42206, 33.90298], [-118.42221, 33.9033], [-118.42202, 33.90318], [-118.42206, 33.90304]]], [[[-118.42256, 33.90496], [-118.4222, 33.90421], [-118.42243, 33.90379], [-118.42412, 33.90741], [-118.42291, 33.90518], [-118.42265, 33.90522], [-118.42256, 33.90496]]], [[[-118.42099, 33.90659], [-118.42096, 33.90655], [-118.42113, 33.90673], [-118.42103, 33.90667], [-118.42099, 33.90659]]], [[[-118.4215, 33.90739], [-118.42158, 33.90755], [-118.42149, 33.90748], [-118.4215, 33.90739]]], [[[-118.42188, 33.90814], [-118.42197, 33.90832], [-118.42187, 33.90824], [-118.42188, 33.90814]]], [[[-118.42226, 33.90893], [-118.42226, 33.90889], [-118.42252, 33.90939], [-118.42235, 33.90923], [-118.42226, 33.90893]]], [[[-118.42162, 33.91637], [-118.42098, 33.91638], [-118.42095, 33.91635], [-118.42113, 33.91608], [-118.42161, 33.91619], [-118.42162, 33.91637]]], [[[-118.41881, 33.92405], [-118.41899, 33.92419], [-118.41857, 33.9243], [-118.41867, 33.92405], [-118.41881, 33.92405]]], [[[-118.41837, 33.92447], [-118.41837, 33.92447], [-118.41836, 33.92447], [-118.41837, 33.92447]]], [[[-118.41425, 33.93281], [-118.41615, 33.9323], [-118.4165, 33.93172], [-118.41764, 33.93171], [-118.4176, 33.93234], [-118.4182, 33.93265], [-118.41922, 33.93243], [-118.41936, 33.93171], [-118.42471, 33.93171], [-118.4227, 33.93175], [-118.42262, 33.93233], [-118.42363, 33.9328], [-118.42379, 33.93378], [-118.42474, 33.93329], [-118.42482, 33.93826], [-118.42434, 33.93854], [-118.42328, 33.93855], [-118.42306, 33.93829], [-118.42264, 33.93817], [-118.42008, 33.93843], [-118.41974, 33.93859], [-118.41482, 33.93865], [-118.41459, 33.93836], [-118.41417, 33.93824], [-118.41354, 33.93835], [-118.41323, 33.93867], [-118.40319, 33.93878], [-118.40316, 33.93664], [-118.40635, 33.93627], [-118.40491, 33.93583], [-118.40315, 33.93612], [-118.4031, 33.93308], [-118.40411, 33.93291], [-118.40439, 33.93238], [-118.40495, 33.93269], [-118.40557, 33.93272], [-118.40586, 33.93297], [-118.40642, 33.933], [-118.40743, 33.93344], [-118.41017, 33.93308], [-118.411, 33.93326], [-118.41225, 33.93279], [-118.41235, 33.93173], [-118.41285, 33.93173], [-118.41254, 33.93224], [-118.41283, 33.93283], [-118.41425, 33.93281]], [[-118.42304, 33.93486], [-118.4232, 33.93441], [-118.42293, 33.934], [-118.42219, 33.93377], [-118.42166, 33.93398], [-118.42151, 33.93449], [-118.42178, 33.93501], [-118.42238, 33.93513], [-118.42304, 33.93486]], [[-118.41697, 33.93546], [-118.41665, 33.93536], [-118.41579, 33.93554], [-118.41688, 33.93609], [-118.41764, 33.93619], [-118.41826, 33.93586], [-118.41816, 33.93561], [-118.41697, 33.93546]]], [[[-118.41212, 33.89686], [-118.41211, 33.89685], [-118.41211, 33.8968], [-118.41214, 33.89689], [-118.41212, 33.89686]]], [[[-118.41224, 33.89709], [-118.41224, 33.8971], [-118.41224, 33.8971], [-118.41224, 33.89709]]], [[[-118.3953, 33.90832], [-118.39488, 33.90819], [-118.39415, 33.9083], [-118.39469, 33.90818], [-118.39549, 33.90816], [-118.39549, 33.90855], [-118.3953, 33.90832]]], [[[-118.3953, 33.90988], [-118.3948, 33.90958], [-118.39472, 33.90934], [-118.39518, 33.90928], [-118.39549, 33.90899], [-118.3955, 33.91024], [-118.3953, 33.90988]]], [[[-118.39212, 33.91092], [-118.39263, 33.91093], [-118.3938, 33.91045], [-118.39405, 33.9112], [-118.39361, 33.91125], [-118.39345, 33.91155], [-118.39386, 33.91201], [-118.39452, 33.912], [-118.39464, 33.91156], [-118.39553, 33.91169], [-118.39554, 33.91311], [-118.39487, 33.91315], [-118.39461, 33.91332], [-118.39473, 33.91387], [-118.39442, 33.91443], [-118.39341, 33.91263], [-118.39192, 33.91126], [-118.39192, 33.91083], [-118.39212, 33.91092]]], [[[-118.39498, 33.91539], [-118.39557, 33.91558], [-118.39557, 33.91604], [-118.39529, 33.91603], [-118.39465, 33.91485], [-118.39498, 33.91539]]], [[[-118.41594, 33.9161], [-118.41576, 33.9161], [-118.41555, 33.91597], [-118.4161, 33.91588], [-118.41624, 33.9161], [-118.41594, 33.9161]]], [[[-118.39998, 33.91987], [-118.39998, 33.91995], [-118.39997, 33.91998], [-118.39998, 33.91986], [-118.39998, 33.91987]]], [[[-118.3946, 33.92239], [-118.39452, 33.92236], [-118.39452, 33.92195], [-118.39459, 33.92207], [-118.3946, 33.92239]]], [[[-118.39477, 33.92267], [-118.39511, 33.92285], [-118.3951, 33.92299], [-118.39475, 33.92299], [-118.39477, 33.92267]]], [[[-118.41212, 33.92555], [-118.41194, 33.92555], [-118.41214, 33.92552], [-118.41236, 33.92555], [-118.41212, 33.92555]]], [[[-118.40684, 33.93175], [-118.40684, 33.93176], [-118.40679, 33.93174], [-118.40685, 33.93174], [-118.40684, 33.93175]]]]}, "properties": {"kind": "pv", "area_km2": 1.67, "mw": 83.6}}]}