{"type": "FeatureCollection", "features": [{"type": "Feature", "geometry": {"type": "MultiPolygon", "coordinates": [[[[-94.03358, 29.99427], [-94.03671, 30.0], [-94.03651, 30.00023], [-94.02635, 29.99276], [-94.02925, 29.98966], [-94.02989, 29.98797], [-94.03166, 29.99171], [-94.03358, 29.99427]]], [[[-94.03593, 29.98252], [-94.04389, 29.97962], [-94.0448, 29.97882], [-94.04505, 29.97772], [-94.04441, 29.97654], [-94.04283, 29.97598], [-94.0406, 29.97664], [-94.04011, 29.97507], [-94.03879, 29.97379], [-94.04017, 29.97172], [-94.04231, 29.96994], [-94.04421, 29.96674], [-94.04653, 29.96647], [-94.0472, 29.96952], [-94.04599, 29.96935], [-94.04469, 29.96982], [-94.04316, 29.9714], [-94.04275, 29.97258], [-94.04316, 29.97376], [-94.04475, 29.97498], [-94.04609, 29.97533], [-94.0473, 29.97504], [-94.04612, 29.98267], [-94.04445, 29.9834], [-94.04012, 29.98346], [-94.04185, 29.98679], [-94.04132, 29.98702], [-94.0403, 29.98543], [-94.03902, 29.98441], [-94.03733, 29.98361], [-94.03458, 29.98299], [-94.03593, 29.98252]]], [[[-94.04264, 29.99027], [-94.04153, 29.99022], [-94.04175, 29.98807], [-94.04287, 29.98817], [-94.04363, 29.98966], [-94.04328, 29.99032], [-94.04264, 29.99027]]], [[[-94.02796, 29.95122], [-94.02641, 29.9562], [-94.02595, 29.95412], [-94.02467, 29.95282], [-94.01944, 29.95087], [-94.01852, 29.9494], [-94.01723, 29.94856], [-94.01537, 29.94812], [-94.01343, 29.94847], [-94.00907, 29.94611], [-94.00826, 29.94245], [-94.00826, 29.94072], [-94.00929, 29.93959], [-94.01012, 29.93651], [-94.00978, 29.93463], [-94.01231, 29.93158], [-94.01395, 29.93172], [-94.01845, 29.93334], [-94.01893, 29.93443], [-94.01976, 29.93515], [-94.02412, 29.93603], [-94.02902, 29.93913], [-94.02955, 29.93997], [-94.02846, 29.9411], [-94.02817, 29.942], [-94.02876, 29.94338], [-94.0279, 29.9435], [-94.02537, 29.94157], [-94.02617, 29.94358], [-94.02669, 29.94401], [-94.02539, 29.94524], [-94.02491, 29.94656], [-94.02534, 29.94858], [-94.02672, 29.94992], [-94.02835, 29.95048], [-94.02796, 29.95122]]], [[[-93.99717, 29.93656], [-93.99447, 29.93467], [-93.9941, 29.93506], [-93.994, 29.93466], [-93.99773, 29.93067], [-93.99228, 29.93215], [-93.99804, 29.93037], [-93.99909, 29.92923], [-93.99939, 29.92946], [-93.99871, 29.93019], [-94.00003, 29.92997], [-93.99832, 29.9305], [-93.99663, 29.93276], [-93.99638, 29.93503], [-93.99717, 29.93656]]], [[[-93.98669, 29.93154], [-93.98548, 29.93236], [-93.98404, 29.93185], [-93.98247, 29.93185], [-93.98031, 29.93291], [-93.97946, 29.93191], [-93.98832, 29.92981], [-93.98669, 29.93154]]], [[[-94.00308, 29.94188], [-94.00287, 29.94186], [-94.00308, 29.94156], [-94.00308, 29.94188]]], [[[-93.96165, 29.94189], [-93.96262, 29.94332], [-93.96109, 29.94441], [-93.96034, 29.94293], [-93.96165, 29.94189]]], [[[-93.95016, 29.96146], [-93.95015, 29.96176], [-93.94943, 29.96142], [-93.94974, 29.95956], [-93.95048, 29.95938], [-93.95016, 29.96146]]], [[[-93.97028, 29.99448], [-93.96917, 29.99507], [-93.96962, 29.99205], [-93.97821, 29.99086], [-93.97652, 29.995], [-93.97359, 29.99808], [-93.97049, 30.00276], [-93.97007, 30.00292], [-93.9708, 30.0013], [-93.97283, 29.99873], [-93.97336, 29.99656], [-93.9731, 29.99556], [-93.97232, 29.99479], [-93.97028, 29.99448]]], [[[-93.96902, 30.00349], [-93.96926, 30.0034], [-93.96841, 30.00411], [-93.96641, 30.00418], [-93.96712, 30.00346], [-93.96902, 30.00349]]], [[[-93.9959, 30.00788], [-93.99505, 30.00775], [-93.99539, 30.00708], [-93.99573, 30.00766], [-93.9959, 30.00788]]], [[[-93.99696, 29.99722], [-93.99659, 29.99763], [-93.99648, 29.99702], [-93.99744, 29.99626], [-93.99696, 29.99722]]], [[[-94.02126, 29.98945], [-94.02162, 29.98951], [-94.02182, 29.98986], [-94.02126, 29.98945]]], [[[-94.02906, 29.97544], [-94.02912, 29.97548], [-94.02906, 29.97565], [-94.02898, 29.97552], [-94.02906, 29.97544]]], [[[-94.00227, 30.01044], [-94.00152, 30.01082], [-94.00104, 30.01008], [-94.00149, 30.00959], [-94.00227, 30.01044]]], [[[-93.97693, 30.01276], [-93.97751, 30.01257], [-93.97929, 30.01405], [-93.97647, 30.01303], [-93.97693, 30.01276]]]]}, "properties": {"kind": "windland", "area_km2": 4.88}}, {"type": "Feature", "geometry": {"type": "MultiPolygon", "coordinates": [[[[-94.00228, 29.96161], [-94.00204, 29.96187], [-94.00179, 29.9617], [-94.00195, 29.96153], [-94.00228, 29.96161]]], [[[-93.998, 29.96187], [-93.99833, 29.96223], [-93.99801, 29.9625], [-93.99671, 29.96157], [-93.99798, 29.96156], [-93.998, 29.96187]]], [[[-94.00015, 29.96246], [-94.00013, 29.96182], [-94.00039, 29.96154], [-94.00114, 29.96154], [-94.00016, 29.96258], [-94.00015, 29.96246]]], [[[-93.99667, 29.9634], [-93.99641, 29.96368], [-93.99608, 29.96345], [-93.99699, 29.96247], [-93.99732, 29.9627], [-93.99667, 29.9634]]], [[[-94.001, 29.9646], [-93.99983, 29.96378], [-94.0014, 29.96211], [-94.00164, 29.96229], [-94.00154, 29.96239], [-94.00267, 29.96323], [-94.00257, 29.96345], [-94.00283, 29.9637], [-94.00285, 29.96479], [-94.00121, 29.96475], [-94.001, 29.9646]]], [[[-93.99689, 29.96402], [-93.99781, 29.96305], [-93.99813, 29.96327], [-93.99722, 29.96425], [-93.99689, 29.96402]]], [[[-93.99878, 29.96403], [-93.99804, 29.96483], [-93.9977, 29.96459], [-93.99861, 29.96362], [-93.99896, 29.96386], [-93.99878, 29.96403]]], [[[-93.99668, 29.96483], [-93.99591, 29.96566], [-93.99557, 29.96543], [-93.9965, 29.96444], [-93.99683, 29.96467], [-93.99668, 29.96483]]], [[[-93.99981, 29.96446], [-94.00104, 29.96533], [-94.00016, 29.96629], [-94.00008, 29.96603], [-93.99963, 29.96584], [-93.99904, 29.96646], [-93.9983, 29.96594], [-93.99816, 29.96609], [-93.99786, 29.96588], [-93.99944, 29.9642], [-93.99981, 29.96446]]], [[[-93.99676, 29.9662], [-93.99639, 29.966], [-93.99731, 29.96501], [-93.99765, 29.96525], [-93.99676, 29.9662]]], [[[-93.99752, 29.9668], [-93.99721, 29.96658], [-93.99747, 29.9663], [-93.99777, 29.96652], [-93.99752, 29.9668]]], [[[-93.99671, 29.9674], [-93.99656, 29.96729], [-93.9969, 29.96705], [-93.99698, 29.96711], [-93.99671, 29.9674]]], [[[-93.99707, 29.96965], [-93.99655, 29.96983], [-93.99594, 29.97057], [-93.99601, 29.97117], [-93.99667, 29.97148], [-93.9969, 29.97182], [-93.99608, 29.9727], [-93.99413, 29.97133], [-93.99631, 29.96899], [-93.99727, 29.96966], [-93.99707, 29.96965]]], [[[-93.99801, 29.97019], [-93.99789, 29.97018], [-93.99786, 29.97008], [-93.99801, 29.97019]]], [[[-93.9975, 29.97548], [-93.99718, 29.97524], [-93.99721, 29.97521], [-93.99753, 29.97545], [-93.9975, 29.97548]]], [[[-93.99798, 29.97583], [-93.99801, 29.9758], [-93.99832, 29.97603], [-93.9983, 29.97606], [-93.99798, 29.97583]]], [[[-94.00152, 29.97829], [-94.0007, 29.97782], [-94.00063, 29.97746], [-94.00022, 29.97747], [-93.99983, 29.97718], [-93.99976, 29.97683], [-93.99936, 29.97684], [-93.99877, 29.97641], [-93.99897, 29.9762], [-94.00424, 29.98], [-94.00456, 29.97967], [-94.00525, 29.98015], [-94.00469, 29.98074], [-94.00152, 29.97829]]], [[[-94.00686, 29.98039], [-94.00632, 29.98017], [-94.00681, 29.97965], [-94.0072, 29.98001], [-94.00721, 29.98049], [-94.00686, 29.98039]]], [[[-94.00601, 29.98064], [-94.00608, 29.98143], [-94.00654, 29.98176], [-94.00722, 29.98171], [-94.00722, 29.98233], [-94.00548, 29.98106], [-94.00601, 29.98064]]], [[[-94.00055, 29.9828], [-94.00015, 29.98274], [-94.00041, 29.98247], [-94.00201, 29.9836], [-94.0019, 29.98372], [-94.00055, 29.9828]]], [[[-94.00095, 29.98392], [-94.00083, 29.98388], [-94.00012, 29.98369], [-94.00032, 29.98349], [-94.00095, 29.98392]]], [[[-93.99714, 29.98378], [-93.99714, 29.98441], [-93.99688, 29.98491], [-93.99687, 29.98324], [-93.99714, 29.98378]]], [[[-94.00239, 29.98438], [-94.00484, 29.98176], [-94.00724, 29.98339], [-94.00724, 29.98421], [-94.00511, 29.98651], [-94.00239, 29.98438]]], [[[-93.99754, 29.98511], [-93.99784, 29.98432], [-93.99765, 29.98325], [-93.99882, 29.98412], [-93.9982, 29.9848], [-93.99803, 29.98561], [-93.99689, 29.98578], [-93.99754, 29.98511]]], [[[-94.00229, 29.98558], [-94.00188, 29.98547], [-94.00033, 29.98431], [-94.00136, 29.98473], [-94.00254, 29.9857], [-94.00229, 29.98558]]], [[[-94.00055, 29.98542], [-94.00069, 29.98552], [-93.99863, 29.98579], [-93.99877, 29.98504], [-93.99929, 29.98448], [-94.00055, 29.98542]]], [[[-94.00326, 29.98637], [-94.00449, 29.98754], [-94.00447, 29.98757], [-94.00356, 29.98677], [-94.00326, 29.98637]]], [[[-93.99365, 29.96173], [-93.99377, 29.9616], [-93.99433, 29.96159], [-93.99398, 29.96196], [-93.99365, 29.96173]]], [[[-93.99514, 29.96158], [-93.99568, 29.96158], [-93.99479, 29.96254], [-93.99446, 29.96231], [-93.99514, 29.96158]]], [[[-93.99619, 29.9619], [-93.99651, 29.96212], [-93.9956, 29.96311], [-93.99527, 29.96288], [-93.99619, 29.9619]]], [[[-93.9944, 29.96296], [-93.99347, 29.96394], [-93.99315, 29.96371], [-93.99407, 29.96273], [-93.9944, 29.96296]]], [[[-93.99488, 29.9633], [-93.99521, 29.96353], [-93.99428, 29.96452], [-93.99395, 29.96428], [-93.99488, 29.9633]]], [[[-93.99569, 29.96387], [-93.99601, 29.9641], [-93.99509, 29.96509], [-93.99477, 29.96486], [-93.99569, 29.96387]]], [[[-93.99264, 29.96568], [-93.99356, 29.9647], [-93.99389, 29.96494], [-93.99298, 29.96592], [-93.99264, 29.96568]]], [[[-93.99346, 29.96625], [-93.99438, 29.96528], [-93.9947, 29.96551], [-93.99379, 29.96648], [-93.99346, 29.96625]]], [[[-93.99522, 29.9664], [-93.9946, 29.96705], [-93.99427, 29.96682], [-93.99518, 29.96585], [-93.99551, 29.96608], [-93.99522, 29.9664]]], [[[-93.99306, 29.96667], [-93.99339, 29.96689], [-93.9931, 29.96719], [-93.99276, 29.96695], [-93.99306, 29.96667]]], [[[-93.99541, 29.96763], [-93.99508, 29.9674], [-93.99558, 29.96687], [-93.99586, 29.96716], [-93.99541, 29.96763]]], [[[-93.99392, 29.96777], [-93.99358, 29.96753], [-93.99387, 29.96723], [-93.99421, 29.96747], [-93.99392, 29.96777]]], [[[-93.99594, 29.96802], [-93.99615, 29.9677], [-93.99646, 29.96791], [-93.99632, 29.96806], [-93.99607, 29.96788], [-93.99594, 29.96802]]], [[[-93.99452, 29.9682], [-93.9944, 29.96812], [-93.99469, 29.96782], [-93.99502, 29.96805], [-93.99474, 29.96835], [-93.99452, 29.9682]]], [[[-93.9955, 29.9684], [-93.99583, 29.96864], [-93.99576, 29.96872], [-93.99542, 29.96848], [-93.9955, 29.9684]]], [[[-93.99347, 29.96972], [-93.99311, 29.97011], [-93.99274, 29.96985], [-93.99268, 29.96949], [-93.99225, 29.96951], [-93.99186, 29.96924], [-93.99318, 29.96794], [-93.99436, 29.96877], [-93.99347, 29.96972]]], [[[-93.99503, 29.96891], [-93.99536, 29.96914], [-93.99506, 29.96947], [-93.99472, 29.96924], [-93.99503, 29.96891]]], [[[-93.99403, 29.96998], [-93.99433, 29.96966], [-93.99466, 29.96989], [-93.99436, 29.97022], [-93.99403, 29.96998]]], [[[-93.99383, 29.97078], [-93.99365, 29.97099], [-93.99331, 29.97076], [-93.99364, 29.9704], [-93.99397, 29.97064], [-93.99383, 29.97078]]], [[[-93.99246, 29.97174], [-93.99292, 29.97118], [-93.99423, 29.97209], [-93.99368, 29.97269], [-93.99324, 29.97236], [-93.9932, 29.972], [-93.99276, 29.97202], [-93.99246, 29.97174]]], [[[-93.99451, 29.97265], [-93.99471, 29.97243], [-93.99473, 29.97244], [-93.99453, 29.97266], [-93.99451, 29.97265]]], [[[-93.99478, 29.97349], [-93.99488, 29.97327], [-93.99528, 29.97356], [-93.99512, 29.97374], [-93.99478, 29.97349]]], [[[-93.9959, 29.97431], [-93.9956, 29.97409], [-93.99563, 29.97405], [-93.99593, 29.97427], [-93.9959, 29.97431]]], [[[-93.99673, 29.97486], [-93.9967, 29.9749], [-93.99638, 29.97466], [-93.99641, 29.97462], [-93.99673, 29.97486]]], [[[-93.98939, 29.96163], [-93.98957, 29.96163], [-93.98997, 29.96195], [-93.98992, 29.962], [-93.98939, 29.96163]]], [[[-93.99082, 29.96199], [-93.99122, 29.96161], [-93.99162, 29.96161], [-93.99105, 29.96223], [-93.99082, 29.96199]]], [[[-93.98714, 29.96164], [-93.98665, 29.96217], [-93.9863, 29.96254], [-93.98629, 29.96214], [-93.98676, 29.96165], [-93.98714, 29.96164]]], [[[-93.98932, 29.96265], [-93.98792, 29.96166], [-93.98795, 29.96164], [-93.98841, 29.96164], [-93.98953, 29.96242], [-93.98932, 29.96265]]], [[[-93.99243, 29.96161], [-93.99277, 29.96181], [-93.99185, 29.9628], [-93.99153, 29.96257], [-93.99243, 29.96161]]], [[[-93.98779, 29.96263], [-93.98732, 29.9623], [-93.98753, 29.96208], [-93.98892, 29.96307], [-93.98872, 29.96329], [-93.98779, 29.96263]]], [[[-93.99326, 29.96215], [-93.99359, 29.96238], [-93.99267, 29.96337], [-93.99234, 29.96314], [-93.99326, 29.96215]]], [[[-93.99021, 29.96255], [-93.99033, 29.96242], [-93.99066, 29.96265], [-93.98974, 29.96364], [-93.98941, 29.96341], [-93.99021, 29.96255]]], [[[-93.98716, 29.96288], [-93.98631, 29.96379], [-93.98631, 29.96339], [-93.98693, 29.96272], [-93.98716, 29.96288]]], [[[-93.99114, 29.96299], [-93.99146, 29.96322], [-93.99054, 29.96421], [-93.99022, 29.96398], [-93.99114, 29.96299]]], [[[-93.99227, 29.96379], [-93.99135, 29.96479], [-93.99102, 29.96455], [-93.99194, 29.96356], [-93.99227, 29.96379]]], [[[-93.98633, 29.96535], [-93.98806, 29.96352], [-93.98833, 29.96371], [-93.98655, 29.9656], [-93.98633, 29.96535]]], [[[-93.98848, 29.96499], [-93.98772, 29.96561], [-93.9875, 29.96544], [-93.98902, 29.96383], [-93.98934, 29.96406], [-93.98848, 29.96499]]], [[[-93.99308, 29.96436], [-93.99215, 29.96535], [-93.99183, 29.96513], [-93.99276, 29.96414], [-93.99308, 29.96436]]], [[[-93.98889, 29.96537], [-93.98983, 29.9644], [-93.99015, 29.96463], [-93.98921, 29.96565], [-93.98889, 29.96537]]], [[[-93.99063, 29.96497], [-93.99096, 29.96521], [-93.99004, 29.96624], [-93.98969, 29.96599], [-93.99063, 29.96497]]], [[[-93.99228, 29.96661], [-93.99198, 29.9664], [-93.99225, 29.9661], [-93.99257, 29.96633], [-93.99228, 29.96661]]], [[[-93.98957, 29.96703], [-93.98819, 29.96597], [-93.98838, 29.96576], [-93.99006, 29.96696], [-93.98973, 29.96723], [-93.98957, 29.96703]]], [[[-93.98707, 29.9663], [-93.987, 29.96671], [-93.98747, 29.96715], [-93.98709, 29.96749], [-93.98634, 29.96685], [-93.98711, 29.96586], [-93.98733, 29.96603], [-93.98707, 29.9663]]], [[[-93.98771, 29.96658], [-93.9878, 29.96639], [-93.98887, 29.9672], [-93.98929, 29.96785], [-93.98918, 29.96792], [-93.98771, 29.96658]]], [[[-93.99116, 29.96873], [-93.99138, 29.96889], [-93.99006, 29.96795], [-93.98991, 29.96775], [-93.99043, 29.96743], [-93.99079, 29.96752], [-93.99104, 29.96739], [-93.99104, 29.96711], [-93.99068, 29.96693], [-93.99047, 29.96654], [-93.99144, 29.96555], [-93.99176, 29.96577], [-93.99132, 29.96626], [-93.99133, 29.9666], [-93.9927, 29.9676], [-93.9919, 29.96839], [-93.99235, 29.96771], [-93.99168, 29.9672], [-93.99133, 29.96723], [-93.99057, 29.96813], [-93.99116, 29.96873]]], [[[-93.99158, 29.96782], [-93.99162, 29.96785], [-93.99133, 29.96814], [-93.99131, 29.96812], [-93.99158, 29.96782]]], [[[-93.98966, 29.96921], [-93.98961, 29.96953], [-93.98997, 29.96999], [-93.98753, 29.96788], [-93.9879, 29.96754], [-93.98889, 29.96841], [-93.98961, 29.96832], [-93.99014, 29.9687], [-93.98966, 29.96921]]], [[[-93.99062, 29.96905], [-93.99099, 29.96932], [-93.99065, 29.96968], [-93.99029, 29.96939], [-93.99062, 29.96905]]], [[[-93.99186, 29.96993], [-93.99149, 29.97031], [-93.99112, 29.97004], [-93.99148, 29.96966], [-93.99186, 29.96993]]], [[[-93.99197, 29.97066], [-93.99234, 29.97027], [-93.99271, 29.97053], [-93.99235, 29.97093], [-93.99197, 29.97066]]], [[[-93.99057, 29.97038], [-93.99115, 29.97077], [-93.99116, 29.97085], [-93.99045, 29.97033], [-93.99057, 29.97038]]], [[[-93.99191, 29.9714], [-93.99144, 29.97105], [-93.99195, 29.97135], [-93.99191, 29.9714]]]]}, "properties": {"kind": "pv", "area_km2": 0.66, "mw": 32.9}}, {"type": "Feature", "geometry": {"type": "Point", "coordinates": [-93.99711, 29.99666]}, "properties": {"kind": "turbine", "i": 0, "mw": 6.0, "hub_m": 120.0, "rotor_m": 150.0}}, {"type": "Feature", "geometry": {"type": "Point", "coordinates": [-93.97436, 29.99353]}, "properties": {"kind": "turbine", "i": 1, "mw": 6.0, "hub_m": 120.0, "rotor_m": 150.0}}, {"type": "Feature", "geometry": {"type": "Point", "coordinates": [-94.01171, 29.94382]}, "properties": {"kind": "turbine", "i": 2, "mw": 6.0, "hub_m": 120.0, "rotor_m": 150.0}}, {"type": "Feature", "geometry": {"type": "Point", "coordinates": [-94.0231, 29.94703]}, "properties": {"kind": "turbine", "i": 3, "mw": 6.0, "hub_m": 120.0, "rotor_m": 150.0}}, {"type": "Feature", "geometry": {"type": "Point", "coordinates": [-94.03114, 29.9931]}, "properties": {"kind": "turbine", "i": 4, "mw": 6.0, "hub_m": 120.0, "rotor_m": 150.0}}, {"type": "Feature", "geometry": {"type": "Point", "coordinates": [-94.03861, 29.98316]}, "properties": {"kind": "turbine", "i": 5, "mw": 6.0, "hub_m": 120.0, "rotor_m": 150.0}}, {"type": "Feature", "geometry": {"type": "Point", "coordinates": [-93.99648, 29.93406]}, "properties": {"kind": "turbine", "i": 6, "mw": 6.0, "hub_m": 120.0, "rotor_m": 150.0}}]}