{"type": "FeatureCollection", "features": [{"type": "Feature", "geometry": {"type": "MultiPolygon", "coordinates": [[[[-94.04043, 30.01238], [-94.0416, 30.01125], [-94.0419, 30.01145], [-94.04059, 30.01251], [-94.04043, 30.01238]]], [[[-94.03494, 30.00826], [-94.03471, 30.00809], [-94.03658, 30.00633], [-94.0369, 30.00656], [-94.03494, 30.00826]]], [[[-94.03358, 29.99427], [-94.0349, 29.9968], [-94.03742, 30.00124], [-94.03614, 29.99989], [-94.02635, 29.99276], [-94.02925, 29.98966], [-94.02989, 29.98797], [-94.03166, 29.99171], [-94.03358, 29.99427]]], [[[-94.03593, 29.98252], [-94.04389, 29.97962], [-94.0448, 29.97882], [-94.04505, 29.97772], [-94.04441, 29.97654], [-94.04283, 29.97598], [-94.0406, 29.97664], [-94.04011, 29.97507], [-94.03879, 29.97379], [-94.04017, 29.97172], [-94.04231, 29.96994], [-94.04421, 29.96674], [-94.04653, 29.96647], [-94.04701, 29.96669], [-94.04866, 29.96934], [-94.04885, 29.9706], [-94.04693, 29.96943], [-94.04509, 29.96959], [-94.04303, 29.97158], [-94.04286, 29.9732], [-94.04475, 29.97498], [-94.04633, 29.97532], [-94.04762, 29.97485], [-94.04902, 29.97343], [-94.04952, 29.9717], [-94.05068, 29.97259], [-94.0524, 29.97534], [-94.05316, 29.97756], [-94.05113, 29.97857], [-94.05349, 29.98222], [-94.05322, 29.98222], [-94.05327, 29.98269], [-94.05642, 29.98262], [-94.05728, 29.98316], [-94.0584, 29.98496], [-94.05636, 29.99113], [-94.05259, 29.99162], [-94.04744, 29.99093], [-94.04732, 29.99062], [-94.04886, 29.9905], [-94.0499, 29.99001], [-94.05055, 29.98914], [-94.05067, 29.98807], [-94.05177, 29.98743], [-94.05235, 29.98658], [-94.05208, 29.98435], [-94.05056, 29.98303], [-94.04769, 29.98238], [-94.04445, 29.9834], [-94.04012, 29.98346], [-94.04185, 29.98679], [-94.04132, 29.98702], [-94.0403, 29.98543], [-94.03902, 29.98441], [-94.03733, 29.98361], [-94.03458, 29.98299], [-94.03593, 29.98252]]], [[[-94.04353, 29.99035], [-94.04153, 29.99022], [-94.04175, 29.98807], [-94.04287, 29.98817], [-94.04401, 29.99042], [-94.04353, 29.99035]]], [[[-94.04646, 29.99471], [-94.05092, 29.99535], [-94.05165, 29.99544], [-94.04839, 29.99866], [-94.04569, 29.99818], [-94.04437, 29.99708], [-94.04499, 29.99449], [-94.04646, 29.99471]]], [[[-94.05908, 29.96436], [-94.05911, 29.96436], [-94.05913, 29.96448], [-94.05908, 29.96436]]], [[[-94.05694, 29.95645], [-94.05635, 29.95528], [-94.05495, 29.9546], [-94.05332, 29.95483], [-94.0524, 29.95439], [-94.04884, 29.95386], [-94.04697, 29.95465], [-94.04722, 29.95143], [-94.04689, 29.95029], [-94.045, 29.94777], [-94.04273, 29.94652], [-94.04095, 29.9439], [-94.05205, 29.94641], [-94.05496, 29.95156], [-94.05694, 29.95645]]], [[[-94.02796, 29.95122], [-94.02641, 29.9562], [-94.02595, 29.95412], [-94.02467, 29.95282], [-94.01944, 29.95087], [-94.01852, 29.9494], [-94.01723, 29.94856], [-94.01537, 29.94812], [-94.01343, 29.94847], [-94.00907, 29.94611], [-94.00826, 29.94245], [-94.00826, 29.94072], [-94.00929, 29.93959], [-94.01012, 29.93651], [-94.00978, 29.93463], [-94.01231, 29.93158], [-94.01347, 29.93178], [-94.01469, 29.93142], [-94.01807, 29.92809], [-94.01939, 29.92751], [-94.02049, 29.92725], [-94.0204, 29.92791], [-94.01919, 29.92807], [-94.01817, 29.92863], [-94.01752, 29.92998], [-94.01906, 29.9346], [-94.02018, 29.93533], [-94.0218, 29.93543], [-94.02353, 29.93601], [-94.02678, 29.93555], [-94.02955, 29.93997], [-94.02822, 29.94162], [-94.02824, 29.94257], [-94.02876, 29.94338], [-94.0279, 29.9435], [-94.02537, 29.94157], [-94.02617, 29.94358], [-94.02669, 29.94401], [-94.02522, 29.94555], [-94.02495, 29.9476], [-94.02612, 29.94948], [-94.02835, 29.95048], [-94.02796, 29.95122]]], [[[-94.05653, 29.96197], [-94.05833, 29.96194], [-94.05639, 29.96232], [-94.05605, 29.96278], [-94.05601, 29.96207], [-94.05542, 29.96199], [-94.05653, 29.96197]]], [[[-94.05128, 29.96451], [-94.05409, 29.96445], [-94.05406, 29.96465], [-94.05128, 29.96451]]], [[[-93.99717, 29.93656], [-93.99447, 29.93467], [-93.9941, 29.93506], [-93.994, 29.93466], [-93.99773, 29.93067], [-93.99228, 29.93215], [-93.99804, 29.93037], [-93.99909, 29.92923], [-93.99939, 29.92946], [-93.99871, 29.93019], [-94.00003, 29.92997], [-93.99832, 29.9305], [-93.99663, 29.93276], [-93.99638, 29.93503], [-93.99717, 29.93656]]], [[[-93.99278, 29.92479], [-93.98669, 29.93154], [-93.98548, 29.93236], [-93.98286, 29.9318], [-93.98136, 29.9322], [-93.98031, 29.93291], [-93.97905, 29.93159], [-93.97713, 29.93081], [-93.97426, 29.92486], [-93.97716, 29.92172], [-93.97753, 29.92088], [-93.98503, 29.9192], [-93.99278, 29.92479]]], [[[-94.00308, 29.94188], [-94.00287, 29.94186], [-94.00308, 29.94156], [-94.00308, 29.94188]]], [[[-93.96855, 29.92477], [-93.96893, 29.92552], [-93.96744, 29.92461], [-93.9683, 29.92425], [-93.96855, 29.92477]]], [[[-93.96351, 29.92725], [-93.96512, 29.92839], [-93.96349, 29.93013], [-93.96301, 29.92856], [-93.96128, 29.92786], [-93.96302, 29.9269], [-93.96351, 29.92725]]], [[[-93.95859, 29.92964], [-93.95708, 29.93123], [-93.95655, 29.93098], [-93.95664, 29.93091], [-93.95859, 29.92964]]], [[[-93.96019, 29.9427], [-93.95888, 29.9412], [-93.96022, 29.93994], [-93.96141, 29.94089], [-93.96191, 29.94243], [-93.96262, 29.94332], [-93.96109, 29.94441], [-93.96019, 29.9427]]], [[[-93.95016, 29.96146], [-93.95015, 29.96176], [-93.94943, 29.96142], [-93.94974, 29.95956], [-93.95048, 29.95938], [-93.95016, 29.96146]]], [[[-93.94991, 29.93762], [-93.95286, 29.94154], [-93.95249, 29.94192], [-93.9489, 29.93769], [-93.94951, 29.93709], [-93.94991, 29.93762]]], [[[-93.97028, 29.99448], [-93.96917, 29.99507], [-93.96962, 29.99205], [-93.97821, 29.99086], [-93.97652, 29.995], [-93.97359, 29.99808], [-93.97049, 30.00276], [-93.97007, 30.00292], [-93.9708, 30.0013], [-93.97283, 29.99873], [-93.97336, 29.99656], [-93.9731, 29.99556], [-93.97232, 29.99479], [-93.97028, 29.99448]]], [[[-93.96902, 30.00349], [-93.96926, 30.0034], [-93.96841, 30.00411], [-93.96641, 30.00418], [-93.96712, 30.00346], [-93.96902, 30.00349]]], [[[-93.96067, 30.009], [-93.96009, 30.00862], [-93.95987, 30.0079], [-93.96067, 30.00788], [-93.96067, 30.009]]], [[[-93.9959, 30.00788], [-93.99505, 30.00775], [-93.99539, 30.00708], [-93.99573, 30.00766], [-93.9959, 30.00788]]], [[[-93.99696, 29.99722], [-93.99659, 29.99763], [-93.99648, 29.99702], [-93.99744, 29.99626], [-93.99696, 29.99722]]], [[[-94.02234, 30.01407], [-94.02243, 30.01314], [-94.02348, 30.01491], [-94.02352, 30.01606], [-94.02221, 30.01585], [-94.02102, 30.01622], [-94.02001, 30.01592], [-94.02145, 30.01534], [-94.02234, 30.01407]]], [[[-94.04489, 29.94022], [-94.04553, 29.93808], [-94.048, 29.94093], [-94.04489, 29.94022]]], [[[-94.02126, 29.98945], [-94.02162, 29.98951], [-94.02182, 29.98986], [-94.02126, 29.98945]]], [[[-94.02906, 29.97544], [-94.02912, 29.97548], [-94.02906, 29.97565], [-94.02898, 29.97552], [-94.02906, 29.97544]]], [[[-94.03467, 29.93378], [-94.03538, 29.93312], [-94.03713, 29.9328], [-94.03852, 29.93187], [-94.03903, 29.93362], [-94.04063, 29.93643], [-94.04036, 29.93794], [-94.03467, 29.93378]]], [[[-94.01754, 30.01514], [-94.01745, 30.01509], [-94.01768, 30.01523], [-94.01754, 30.01514]]], [[[-94.01665, 30.01473], [-94.01608, 30.01456], [-94.01616, 30.01439], [-94.01668, 30.01474], [-94.01665, 30.01473]]], [[[-94.00227, 30.01044], [-94.00152, 30.01082], [-94.00104, 30.01008], [-94.00149, 30.00959], [-94.00227, 30.01044]]], [[[-93.97606, 30.0145], [-93.97578, 30.01351], [-93.97751, 30.01257], [-93.97921, 30.01375], [-93.97941, 30.01446], [-93.97894, 30.0151], [-93.97782, 30.01515], [-93.97606, 30.0145]]], [[[-93.96461, 30.01809], [-93.96457, 30.01844], [-93.96264, 30.01826], [-93.96182, 30.01773], [-93.96464, 30.01732], [-93.96461, 30.01809]]], [[[-93.94149, 29.94832], [-93.94271, 29.94702], [-93.94406, 29.94803], [-93.94484, 29.94723], [-93.94645, 29.9484], [-93.94402, 29.95099], [-93.94275, 29.94934], [-93.9408, 29.94906], [-93.94149, 29.94832]]]]}, "properties": {"kind": "windland", "area_km2": 9.42}}, {"type": "Feature", "geometry": {"type": "MultiPolygon", "coordinates": [[[[-94.01593, 29.95595], [-94.01457, 29.95622], [-94.01507, 29.95553], [-94.01505, 29.95481], [-94.01426, 29.95449], [-94.01409, 29.95414], [-94.01348, 29.9538], [-94.01306, 29.95377], [-94.01271, 29.95397], [-94.01181, 29.95572], [-94.01212, 29.95616], [-94.01392, 29.95684], [-94.01419, 29.95864], [-94.01323, 29.95944], [-94.00894, 29.95552], [-94.00931, 29.95479], [-94.00889, 29.95427], [-94.01065, 29.95244], [-94.01382, 29.95242], [-94.01335, 29.95346], [-94.01359, 29.95377], [-94.01435, 29.95406], [-94.01482, 29.95384], [-94.01582, 29.9524], [-94.01729, 29.95239], [-94.01729, 29.95564], [-94.01593, 29.95595]]], [[[-94.01562, 29.95777], [-94.01474, 29.9582], [-94.01453, 29.95678], [-94.01732, 29.9562], [-94.01734, 29.95768], [-94.01562, 29.95777]]], [[[-94.01562, 29.95835], [-94.01734, 29.95823], [-94.01737, 29.96069], [-94.01512, 29.95879], [-94.01562, 29.95835]]], [[[-94.01598, 29.96026], [-94.01773, 29.96176], [-94.01667, 29.96243], [-94.01376, 29.95991], [-94.01468, 29.95917], [-94.01598, 29.96026]]], [[[-94.01425, 29.96229], [-94.01546, 29.96354], [-94.01506, 29.96374], [-94.01491, 29.96418], [-94.01445, 29.96461], [-94.01362, 29.96206], [-94.01277, 29.96146], [-94.01312, 29.9611], [-94.01425, 29.96229]]], [[[-94.02386, 29.96139], [-94.02431, 29.96136], [-94.02437, 29.96173], [-94.02397, 29.96145], [-94.02386, 29.96139]]], [[[-94.01901, 29.96196], [-94.01859, 29.96169], [-94.01879, 29.9614], [-94.01981, 29.9614], [-94.01917, 29.96209], [-94.01901, 29.96196]]], [[[-94.02501, 29.96288], [-94.0248, 29.96274], [-94.02507, 29.96227], [-94.02493, 29.96136], [-94.02681, 29.96134], [-94.02591, 29.96352], [-94.02501, 29.96288]]], [[[-94.02138, 29.96281], [-94.02059, 29.96362], [-94.01986, 29.96307], [-94.01953, 29.96255], [-94.02056, 29.96146], [-94.02275, 29.96137], [-94.02138, 29.96281]]], [[[-94.02654, 29.96363], [-94.02747, 29.96134], [-94.02774, 29.96133], [-94.02775, 29.9627], [-94.02657, 29.96398], [-94.0264, 29.96386], [-94.02654, 29.96363]]], [[[-94.01754, 29.96276], [-94.01821, 29.96211], [-94.01887, 29.96259], [-94.01937, 29.96341], [-94.02015, 29.96401], [-94.01904, 29.96534], [-94.01728, 29.96309], [-94.01754, 29.96276]]], [[[-94.02286, 29.96396], [-94.02262, 29.96403], [-94.02292, 29.96304], [-94.02253, 29.96247], [-94.02337, 29.96335], [-94.02399, 29.96356], [-94.02343, 29.96416], [-94.02286, 29.96396]]], [[[-94.02776, 29.96355], [-94.02778, 29.96483], [-94.02705, 29.96432], [-94.02776, 29.96355]]], [[[-94.02151, 29.96463], [-94.02218, 29.96446], [-94.0222, 29.96485], [-94.02251, 29.96515], [-94.02216, 29.96552], [-94.02122, 29.96486], [-94.02151, 29.96463]]], [[[-94.01447, 29.96508], [-94.01465, 29.96527], [-94.01463, 29.96528], [-94.01432, 29.96506], [-94.01441, 29.96496], [-94.01447, 29.96508]]], [[[-94.02668, 29.96476], [-94.0263, 29.96487], [-94.02616, 29.96514], [-94.02637, 29.9655], [-94.02697, 29.96559], [-94.02667, 29.96587], [-94.02638, 29.96587], [-94.02599, 29.96548], [-94.02555, 29.96534], [-94.02493, 29.96547], [-94.02603, 29.96429], [-94.02668, 29.96476]]], [[[-94.02754, 29.96536], [-94.02776, 29.96552], [-94.02778, 29.96553], [-94.02763, 29.96551], [-94.02754, 29.96536]]], [[[-94.02181, 29.96795], [-94.02153, 29.96827], [-94.02101, 29.96762], [-94.02486, 29.96348], [-94.02554, 29.96395], [-94.02181, 29.96795]]], [[[-94.02448, 29.96597], [-94.02446, 29.96598], [-94.02454, 29.96589], [-94.02452, 29.96592], [-94.02448, 29.96597]]], [[[-94.0203, 29.96505], [-94.02177, 29.96594], [-94.02063, 29.96717], [-94.01945, 29.96583], [-94.0202, 29.96498], [-94.0203, 29.96505]]], [[[-94.01676, 29.96673], [-94.016, 29.96627], [-94.01593, 29.96591], [-94.01552, 29.96593], [-94.01511, 29.96561], [-94.01564, 29.96564], [-94.0169, 29.96499], [-94.01819, 29.96632], [-94.01731, 29.96722], [-94.01676, 29.96673]]], [[[-94.02757, 29.96648], [-94.02717, 29.96658], [-94.02737, 29.96708], [-94.02711, 29.96721], [-94.0261, 29.9665], [-94.02556, 29.96645], [-94.02463, 29.96671], [-94.02544, 29.96588], [-94.0264, 29.96644], [-94.02764, 29.96606], [-94.02779, 29.96613], [-94.02779, 29.96662], [-94.02757, 29.96648]]], [[[-94.02401, 29.96657], [-94.02425, 29.96723], [-94.02418, 29.96738], [-94.02348, 29.96703], [-94.02404, 29.96642], [-94.02401, 29.96657]]], [[[-94.02357, 29.96764], [-94.02373, 29.96776], [-94.02361, 29.96781], [-94.02357, 29.96764]]], [[[-94.02734, 29.96787], [-94.02736, 29.96772], [-94.02767, 29.9676], [-94.02726, 29.96802], [-94.02734, 29.96787]]], [[[-94.0203, 29.96923], [-94.02022, 29.9689], [-94.01982, 29.9689], [-94.01786, 29.96749], [-94.01859, 29.96675], [-94.02062, 29.96916], [-94.02045, 29.96935], [-94.0203, 29.96923]]], [[[-94.02692, 29.96836], [-94.02689, 29.96841], [-94.02686, 29.96838], [-94.02689, 29.96837], [-94.02692, 29.96836]]], [[[-94.02309, 29.96911], [-94.02345, 29.96893], [-94.0239, 29.96829], [-94.02478, 29.9678], [-94.02533, 29.96709], [-94.02592, 29.96702], [-94.02674, 29.96768], [-94.02662, 29.96789], [-94.02632, 29.96793], [-94.02593, 29.96736], [-94.02533, 29.96754], [-94.02537, 29.96796], [-94.0265, 29.96883], [-94.02556, 29.96982], [-94.02501, 29.96915], [-94.02406, 29.96926], [-94.02354, 29.96968], [-94.02352, 29.97044], [-94.02266, 29.96959], [-94.02309, 29.96911]]], [[[-94.02758, 29.96937], [-94.02711, 29.96903], [-94.02781, 29.96829], [-94.02782, 29.96954], [-94.02758, 29.96937]]], [[[-94.02635, 29.97483], [-94.02458, 29.97184], [-94.02671, 29.96945], [-94.02783, 29.97024], [-94.02786, 29.97322], [-94.02635, 29.97483]]], [[[-94.02043, 29.97034], [-94.02105, 29.96968], [-94.02111, 29.96976], [-94.02043, 29.97034]]], [[[-94.02305, 29.97389], [-94.02327, 29.97397], [-94.0227, 29.97459], [-94.02226, 29.97431], [-94.0228, 29.9737], [-94.02305, 29.97389]]], [[[-94.02173, 29.97566], [-94.02185, 29.97614], [-94.02164, 29.97631], [-94.02086, 29.97583], [-94.02173, 29.9749], [-94.02197, 29.97507], [-94.02173, 29.97566]]], [[[-94.02695, 29.97506], [-94.02787, 29.97407], [-94.0279, 29.9773], [-94.02668, 29.97532], [-94.02695, 29.97506]]], [[[-94.02382, 29.97821], [-94.02356, 29.97784], [-94.02417, 29.97762], [-94.02427, 29.97733], [-94.02399, 29.97686], [-94.02326, 29.97633], [-94.02356, 29.97577], [-94.02469, 29.97479], [-94.0249, 29.97508], [-94.02414, 29.97584], [-94.02414, 29.97612], [-94.02457, 29.97621], [-94.02525, 29.97555], [-94.02651, 29.97739], [-94.02464, 29.97941], [-94.02271, 29.97942], [-94.02382, 29.97821]]], [[[-94.01378, 29.98246], [-94.01343, 29.97949], [-94.01334, 29.9788], [-94.01569, 29.98045], [-94.01378, 29.98246]]], [[[-94.01151, 29.98591], [-94.01159, 29.98573], [-94.01536, 29.9885], [-94.01164, 29.98579], [-94.01151, 29.98591]]], [[[-94.00124, 29.95251], [-94.00174, 29.95251], [-94.00154, 29.95272], [-94.00124, 29.95251]]], [[[-94.00745, 29.9526], [-94.00758, 29.95254], [-94.00753, 29.95271], [-94.00743, 29.9526], [-94.00745, 29.9526]]], [[[-94.00915, 29.95264], [-94.00934, 29.95245], [-94.0098, 29.95249], [-94.00944, 29.95286], [-94.00915, 29.95264]]], [[[-94.00247, 29.95258], [-94.00288, 29.95285], [-94.00243, 29.95335], [-94.00202, 29.95306], [-94.00247, 29.95258]]], [[[-94.00836, 29.95329], [-94.00873, 29.95303], [-94.00904, 29.95327], [-94.00858, 29.95376], [-94.00836, 29.95329]]], [[[-94.00321, 29.95336], [-94.00337, 29.95319], [-94.00465, 29.95414], [-94.00431, 29.95469], [-94.00291, 29.95369], [-94.00321, 29.95336]]], [[[-94.00203, 29.95377], [-94.0007, 29.9552], [-94.0003, 29.95491], [-94.00163, 29.95348], [-94.00203, 29.95377]]], [[[-94.00293, 29.9544], [-94.0016, 29.95582], [-94.00119, 29.95554], [-94.00252, 29.95411], [-94.00293, 29.9544]]], [[[-94.00219, 29.95624], [-94.00208, 29.95616], [-94.00341, 29.95474], [-94.00406, 29.95521], [-94.00273, 29.95663], [-94.00219, 29.95624]]], [[[-94.00361, 29.95724], [-94.00321, 29.95697], [-94.00454, 29.95555], [-94.00494, 29.95583], [-94.00361, 29.95724]]], [[[-94.00569, 29.95668], [-94.00517, 29.95644], [-94.00535, 29.95625], [-94.00579, 29.95658], [-94.00569, 29.95668]]], [[[-94.00567, 29.95772], [-94.00627, 29.95692], [-94.00663, 29.95717], [-94.00584, 29.95785], [-94.00567, 29.95772]]], [[[-94.00233, 29.95705], [-94.0008, 29.95869], [-94.00026, 29.9583], [-94.00218, 29.95694], [-94.00233, 29.95705]]], [[[-94.00282, 29.95738], [-94.00322, 29.95766], [-94.00168, 29.95931], [-94.00128, 29.95903], [-94.00282, 29.95738]]], [[[-94.01028, 29.95854], [-94.0098, 29.95903], [-94.0098, 29.95945], [-94.00789, 29.9581], [-94.00872, 29.95727], [-94.01028, 29.95854]]], [[[-94.00303, 29.95952], [-94.00259, 29.95998], [-94.00216, 29.95966], [-94.00361, 29.9581], [-94.00402, 29.95847], [-94.00303, 29.95952]]], [[[-94.00396, 29.95952], [-94.00415, 29.95964], [-94.00397, 29.95983], [-94.00371, 29.95965], [-94.00396, 29.95952]]], [[[-94.00332, 29.96007], [-94.00357, 29.96025], [-94.00332, 29.96051], [-94.00307, 29.96033], [-94.00332, 29.96007]]], [[[-94.01078, 29.96004], [-94.01147, 29.95957], [-94.0127, 29.9607], [-94.01217, 29.96124], [-94.01097, 29.96043], [-94.0106, 29.96003], [-94.01078, 29.96004]]], [[[-94.00114, 29.96154], [-94.00016, 29.96258], [-94.00013, 29.96182], [-94.00176, 29.96008], [-94.0022, 29.9604], [-94.00114, 29.96154]]], [[[-94.00267, 29.96119], [-94.00243, 29.96102], [-94.00268, 29.96075], [-94.00293, 29.96093], [-94.00267, 29.96119]]], [[[-94.00217, 29.96153], [-94.00228, 29.96161], [-94.00204, 29.96187], [-94.00179, 29.9617], [-94.00204, 29.96144], [-94.00217, 29.96153]]], [[[-94.00099, 29.9646], [-93.99983, 29.96378], [-94.0014, 29.96211], [-94.00164, 29.96229], [-94.00154, 29.96239], [-94.00267, 29.96323], [-94.00257, 29.96345], [-94.00283, 29.9637], [-94.00285, 29.96479], [-94.00121, 29.96475], [-94.00099, 29.9646]]], [[[-94.00151, 29.97826], [-94.0007, 29.97782], [-94.00063, 29.97746], [-94.00022, 29.97747], [-93.99983, 29.97718], [-93.99976, 29.97683], [-93.99936, 29.97684], [-93.99877, 29.97641], [-93.99897, 29.9762], [-94.00424, 29.98], [-94.00456, 29.97967], [-94.00525, 29.98015], [-94.00469, 29.98074], [-94.00153, 29.97843], [-94.00151, 29.97826]]], [[[-94.01054, 29.97937], [-94.01021, 29.97945], [-94.01085, 29.97877], [-94.01083, 29.97849], [-94.01036, 29.97845], [-94.00946, 29.97782], [-94.00937, 29.97751], [-94.00888, 29.97742], [-94.00996, 29.97627], [-94.01249, 29.978], [-94.01311, 29.98318], [-94.0129, 29.98339], [-94.01134, 29.98228], [-94.01178, 29.98222], [-94.01243, 29.98178], [-94.01262, 29.98135], [-94.01253, 29.98091], [-94.01204, 29.98017], [-94.01054, 29.97937]]], [[[-94.00753, 29.97909], [-94.00765, 29.97939], [-94.00811, 29.97929], [-94.00898, 29.9799], [-94.00858, 29.98033], [-94.0072, 29.97922], [-94.00753, 29.97887], [-94.00753, 29.97909]]], [[[-94.00673, 29.98039], [-94.00632, 29.98017], [-94.00681, 29.97965], [-94.00781, 29.98048], [-94.00752, 29.98081], [-94.00718, 29.98048], [-94.00673, 29.98039]]], [[[-94.00971, 29.98016], [-94.00996, 29.98059], [-94.01059, 29.98082], [-94.01076, 29.98112], [-94.01068, 29.98182], [-94.00905, 29.98067], [-94.00977, 29.97992], [-94.00971, 29.98016]]], [[[-94.0061, 29.98071], [-94.00602, 29.98132], [-94.00648, 29.98174], [-94.00736, 29.98173], [-94.00789, 29.98212], [-94.00843, 29.98207], [-94.0088, 29.98148], [-94.00829, 29.98083], [-94.01079, 29.98259], [-94.0103, 29.98251], [-94.00965, 29.98337], [-94.01103, 29.98458], [-94.01137, 29.98455], [-94.01209, 29.98381], [-94.01209, 29.98356], [-94.01183, 29.98333], [-94.01251, 29.98382], [-94.0107, 29.98587], [-94.01059, 29.98579], [-94.01103, 29.98533], [-94.01058, 29.98501], [-94.01045, 29.98468], [-94.00548, 29.98106], [-94.00585, 29.98067], [-94.0061, 29.98071]]], [[[-94.01138, 29.98371], [-94.01115, 29.98395], [-94.01037, 29.9833], [-94.01054, 29.98311], [-94.01138, 29.98371]]], [[[-94.00231, 29.98444], [-94.00484, 29.98176], [-94.0077, 29.98371], [-94.00511, 29.98651], [-94.00231, 29.98444]]], [[[-94.00223, 29.98556], [-94.00188, 29.98547], [-94.00033, 29.98431], [-94.00136, 29.98473], [-94.00254, 29.9857], [-94.00223, 29.98556]]], [[[-94.00449, 29.98754], [-94.0039, 29.9871], [-94.00326, 29.98637], [-94.00449, 29.98754]]], [[[-94.01113, 29.98727], [-94.01043, 29.98795], [-94.01008, 29.98754], [-94.00976, 29.98765], [-94.01109, 29.98631], [-94.01097, 29.98645], [-94.01227, 29.98745], [-94.01113, 29.98727]]], [[[-94.00954, 29.98855], [-94.00926, 29.98855], [-94.00938, 29.98842], [-94.00954, 29.98855]]], [[[-94.00128, 29.99013], [-94.00197, 29.98952], [-94.00232, 29.98985], [-94.00296, 29.98927], [-94.00158, 29.99089], [-93.99949, 29.99157], [-93.9994, 29.99147], [-94.00012, 29.99126], [-94.00122, 29.99034], [-94.00104, 29.99017], [-94.00128, 29.99013]]], [[[-94.00624, 29.99267], [-94.00402, 29.99365], [-94.00369, 29.99425], [-94.00383, 29.9947], [-94.00374, 29.99533], [-94.00292, 29.99539], [-94.00175, 29.99576], [-94.00093, 29.99649], [-93.99998, 29.99647], [-94.00003, 29.99198], [-94.00203, 29.99127], [-94.00425, 29.98866], [-94.00731, 29.99115], [-94.00733, 29.99298], [-94.00624, 29.99267]]], [[[-94.00658, 29.99633], [-94.00621, 29.996], [-94.00622, 29.99482], [-94.00673, 29.99438], [-94.00684, 29.99402], [-94.00634, 29.99324], [-94.00734, 29.99357], [-94.00737, 29.99693], [-94.00684, 29.99674], [-94.00658, 29.99633]]], [[[-94.00011, 29.95252], [-94.00026, 29.95252], [-94.0001, 29.9527], [-94.00011, 29.95252]]], [[[-93.99657, 29.95357], [-93.99514, 29.95256], [-93.99877, 29.95253], [-93.9973, 29.95408], [-93.99657, 29.95357]]], [[[-94.00075, 29.95286], [-94.00115, 29.95314], [-94.00007, 29.95431], [-94.00007, 29.95359], [-94.00075, 29.95286]]], [[[-93.99836, 29.95483], [-93.99779, 29.95442], [-93.99948, 29.95263], [-93.99944, 29.95442], [-93.99902, 29.95445], [-93.99886, 29.95469], [-93.99903, 29.95493], [-93.99944, 29.95496], [-93.99944, 29.9556], [-93.99836, 29.95483]]], [[[-93.99658, 29.95485], [-93.99435, 29.95725], [-93.99302, 29.95632], [-93.99422, 29.95503], [-93.99415, 29.95468], [-93.99375, 29.95468], [-93.99254, 29.95598], [-93.99158, 29.9553], [-93.99279, 29.95401], [-93.99272, 29.95365], [-93.99231, 29.95367], [-93.9911, 29.95496], [-93.99087, 29.9548], [-93.99207, 29.9535], [-93.99201, 29.95314], [-93.99159, 29.95316], [-93.99039, 29.95446], [-93.98942, 29.95378], [-93.99057, 29.9526], [-93.99146, 29.95259], [-93.99186, 29.95268], [-93.99471, 29.95471], [-93.99495, 29.95505], [-93.99538, 29.95498], [-93.9962, 29.954], [-93.99691, 29.9545], [-93.99658, 29.95485]]], [[[-93.99528, 29.95768], [-93.99495, 29.95746], [-93.99739, 29.95484], [-93.99772, 29.95508], [-93.99528, 29.95768]]], [[[-94.00006, 29.95588], [-94.00006, 29.95544], [-94.00031, 29.95562], [-94.00006, 29.95588]]], [[[-94.00011, 29.95666], [-94.0008, 29.95596], [-94.00134, 29.95633], [-94.00005, 29.95725], [-94.00011, 29.95666]]], [[[-93.99858, 29.95683], [-93.99863, 29.95708], [-93.99887, 29.95718], [-93.99943, 29.95682], [-93.9994, 29.9611], [-93.99862, 29.96091], [-93.99813, 29.96111], [-93.99799, 29.96182], [-93.99833, 29.96224], [-93.99801, 29.9625], [-93.99658, 29.96148], [-93.9977, 29.96027], [-93.99832, 29.96072], [-93.9987, 29.96063], [-93.9987, 29.96031], [-93.99798, 29.95978], [-93.99837, 29.95954], [-93.9983, 29.95923], [-93.997, 29.95936], [-93.99688, 29.95961], [-93.99722, 29.95993], [-93.99709, 29.96006], [-93.99656, 29.95962], [-93.99619, 29.95967], [-93.99614, 29.95999], [-93.9967, 29.96049], [-93.9961, 29.96114], [-93.99474, 29.96018], [-93.99588, 29.95962], [-93.99592, 29.95867], [-93.99566, 29.95815], [-93.9982, 29.95542], [-93.99928, 29.95619], [-93.99858, 29.95683]]], [[[-94.00004, 29.95949], [-94.00005, 29.9589], [-94.00005, 29.95885], [-94.00041, 29.9591], [-94.00004, 29.95949]]], [[[-94.00003, 29.96036], [-94.00089, 29.95945], [-94.00129, 29.95973], [-94.00002, 29.96108], [-94.00003, 29.96036]]], [[[-93.99651, 29.96212], [-93.9956, 29.96311], [-93.99527, 29.96288], [-93.99619, 29.9619], [-93.99651, 29.96212]]], [[[-93.99732, 29.9627], [-93.99641, 29.96368], [-93.99608, 29.96345], [-93.99699, 29.96247], [-93.99732, 29.9627]]], [[[-93.99813, 29.96327], [-93.99722, 29.96425], [-93.99689, 29.96402], [-93.99781, 29.96305], [-93.99813, 29.96327]]], [[[-93.99875, 29.96407], [-93.99804, 29.96483], [-93.9977, 29.96459], [-93.99861, 29.96362], [-93.99896, 29.96386], [-93.99875, 29.96407]]], [[[-93.99668, 29.96483], [-93.99591, 29.96566], [-93.99557, 29.96543], [-93.9965, 29.96444], [-93.99683, 29.96467], [-93.99668, 29.96483]]], [[[-94.00013, 29.96469], [-94.00104, 29.96533], [-94.00016, 29.96629], [-94.00008, 29.96603], [-93.99963, 29.96584], [-93.99904, 29.96646], [-93.9983, 29.96594], [-93.99816, 29.96609], [-93.99786, 29.96588], [-93.99944, 29.9642], [-94.00013, 29.96469]]], [[[-93.9967, 29.96616], [-93.99639, 29.966], [-93.99731, 29.96501], [-93.99765, 29.96525], [-93.9967, 29.96616]]], [[[-93.99721, 29.96658], [-93.99747, 29.9663], [-93.99777, 29.96652], [-93.99752, 29.9668], [-93.99721, 29.96658]]], [[[-93.99656, 29.96729], [-93.9969, 29.96705], [-93.99698, 29.96711], [-93.99671, 29.9674], [-93.99656, 29.96729]]], [[[-93.99615, 29.9677], [-93.99646, 29.96791], [-93.99632, 29.96806], [-93.99607, 29.96788], [-93.99589, 29.96798], [-93.99615, 29.9677]]], [[[-93.99695, 29.96967], [-93.9965, 29.96987], [-93.99594, 29.97057], [-93.99601, 29.97117], [-93.99667, 29.97148], [-93.9969, 29.97182], [-93.99608, 29.9727], [-93.99413, 29.97133], [-93.99631, 29.96899], [-93.99727, 29.96966], [-93.99695, 29.96967]]], [[[-93.998, 29.97019], [-93.99789, 29.97018], [-93.99786, 29.97008], [-93.99801, 29.97019], [-93.998, 29.97019]]], [[[-93.9967, 29.9749], [-93.99638, 29.97466], [-93.99641, 29.97462], [-93.99673, 29.97486], [-93.9967, 29.9749]]], [[[-93.99721, 29.97521], [-93.99753, 29.97545], [-93.9975, 29.97548], [-93.99718, 29.97524], [-93.99721, 29.97521]]], [[[-93.99801, 29.9758], [-93.99832, 29.97603], [-93.9983, 29.97606], [-93.99798, 29.97583], [-93.99801, 29.9758]]], [[[-94.0005, 29.98277], [-94.00015, 29.98274], [-94.00041, 29.98247], [-94.00201, 29.9836], [-94.0019, 29.98372], [-94.0005, 29.98277]]], [[[-94.00083, 29.98388], [-94.00043, 29.98377], [-94.00012, 29.98369], [-94.00032, 29.98349], [-94.00095, 29.98392], [-94.00083, 29.98388]]], [[[-93.99718, 29.9841], [-93.99682, 29.98499], [-93.99601, 29.98547], [-93.99002, 29.98612], [-93.98756, 29.98666], [-93.98719, 29.98666], [-93.98727, 29.98614], [-93.98696, 29.98574], [-93.98643, 29.9856], [-93.98596, 29.98576], [-93.9859, 29.98552], [-93.98597, 29.98494], [-93.98632, 29.98443], [-93.98692, 29.98398], [-93.98754, 29.98383], [-93.98834, 29.984], [-93.99028, 29.98522], [-93.99105, 29.98533], [-93.9918, 29.98521], [-93.99261, 29.98474], [-93.99417, 29.98313], [-93.99526, 29.98263], [-93.99589, 29.98266], [-93.99657, 29.98296], [-93.99703, 29.98347], [-93.99718, 29.9841]]], [[[-93.99757, 29.98507], [-93.99784, 29.98432], [-93.99765, 29.98325], [-93.99882, 29.98412], [-93.9982, 29.9848], [-93.99803, 29.98561], [-93.99675, 29.98581], [-93.99757, 29.98507]]], [[[-94.00069, 29.98552], [-93.99904, 29.98577], [-93.99863, 29.98579], [-93.99877, 29.98504], [-93.99929, 29.98448], [-94.00069, 29.98552]]], [[[-93.99932, 29.99718], [-93.99895, 29.99765], [-93.99394, 29.99769], [-93.99405, 29.99685], [-93.99564, 29.99512], [-93.9979, 29.99335], [-93.99946, 29.99249], [-93.99932, 29.99718]], [[-93.99744, 29.99649], [-93.99744, 29.99626], [-93.99648, 29.99702], [-93.99659, 29.99763], [-93.99744, 29.99649]]], [[[-93.99572, 29.95366], [-93.99512, 29.9543], [-93.99271, 29.95258], [-93.99417, 29.95257], [-93.99572, 29.95366]]], [[[-93.99077, 29.95737], [-93.98902, 29.95614], [-93.99011, 29.95496], [-93.99386, 29.95761], [-93.99364, 29.95779], [-93.9932, 29.9575], [-93.99287, 29.95759], [-93.99265, 29.95803], [-93.99309, 29.95841], [-93.99281, 29.95882], [-93.99077, 29.95737]]], [[[-93.99229, 29.96032], [-93.99288, 29.95968], [-93.99317, 29.95995], [-93.99236, 29.96082], [-93.99204, 29.96059], [-93.99229, 29.96032]]], [[[-93.99408, 29.96041], [-93.99317, 29.96139], [-93.99284, 29.96116], [-93.99376, 29.96018], [-93.99408, 29.96041]]], [[[-93.99489, 29.96099], [-93.99398, 29.96196], [-93.99365, 29.96173], [-93.99456, 29.96075], [-93.99489, 29.96099]]], [[[-93.99144, 29.96131], [-93.99166, 29.96102], [-93.99197, 29.96124], [-93.99105, 29.96223], [-93.99076, 29.96203], [-93.99144, 29.96131]]], [[[-93.9957, 29.96156], [-93.99479, 29.96254], [-93.99446, 29.96231], [-93.99538, 29.96133], [-93.9957, 29.96156]]], [[[-93.99153, 29.96257], [-93.99245, 29.96158], [-93.99277, 29.96181], [-93.99185, 29.9628], [-93.99153, 29.96257]]], [[[-93.99359, 29.96238], [-93.99267, 29.96337], [-93.99234, 29.96314], [-93.99326, 29.96215], [-93.99359, 29.96238]]], [[[-93.99347, 29.96394], [-93.99315, 29.96371], [-93.99407, 29.96273], [-93.9944, 29.96296], [-93.99347, 29.96394]]], [[[-93.99521, 29.96353], [-93.99428, 29.96452], [-93.99395, 29.96428], [-93.99488, 29.9633], [-93.99521, 29.96353]]], [[[-93.99135, 29.96479], [-93.99102, 29.96455], [-93.99194, 29.96356], [-93.99227, 29.96379], [-93.99135, 29.96479]]], [[[-93.99509, 29.96509], [-93.99477, 29.96486], [-93.99569, 29.96387], [-93.99601, 29.9641], [-93.99509, 29.96509]]], [[[-93.99215, 29.96535], [-93.99183, 29.96513], [-93.99276, 29.96414], [-93.99308, 29.96436], [-93.99215, 29.96535]]], [[[-93.99356, 29.9647], [-93.99389, 29.96494], [-93.99298, 29.96592], [-93.99264, 29.96568], [-93.99356, 29.9647]]], [[[-93.9947, 29.96551], [-93.99379, 29.96648], [-93.99346, 29.96625], [-93.99438, 29.96528], [-93.9947, 29.96551]]], [[[-93.99198, 29.9664], [-93.99225, 29.9661], [-93.99257, 29.96633], [-93.99228, 29.96661], [-93.99198, 29.9664]]], [[[-93.9946, 29.96705], [-93.99427, 29.96682], [-93.99518, 29.96585], [-93.99551, 29.96608], [-93.9946, 29.96705]]], [[[-93.9931, 29.96719], [-93.99276, 29.96695], [-93.99306, 29.96667], [-93.99339, 29.96689], [-93.9931, 29.96719]]], [[[-93.99508, 29.9674], [-93.99558, 29.96687], [-93.99586, 29.96716], [-93.99541, 29.96763], [-93.99508, 29.9674]]], [[[-93.99358, 29.96753], [-93.99387, 29.96723], [-93.99421, 29.96747], [-93.99392, 29.96777], [-93.99358, 29.96753]]], [[[-93.99469, 29.96782], [-93.99502, 29.96805], [-93.99474, 29.96835], [-93.9944, 29.96812], [-93.99469, 29.96782]]], [[[-93.99576, 29.96872], [-93.99542, 29.96848], [-93.9955, 29.9684], [-93.99583, 29.96864], [-93.99576, 29.96872]]], [[[-93.99345, 29.96974], [-93.99311, 29.97011], [-93.99274, 29.96985], [-93.99268, 29.96949], [-93.99225, 29.96951], [-93.99186, 29.96924], [-93.99318, 29.96794], [-93.99436, 29.96877], [-93.99345, 29.96974]]], [[[-93.99506, 29.96947], [-93.99472, 29.96924], [-93.99503, 29.96891], [-93.99536, 29.96914], [-93.99506, 29.96947]]], [[[-93.99411, 29.9699], [-93.99433, 29.96966], [-93.99466, 29.96989], [-93.99436, 29.97022], [-93.99411, 29.9699]]], [[[-93.992, 29.97063], [-93.99234, 29.97027], [-93.99271, 29.97053], [-93.99235, 29.97093], [-93.992, 29.97063]]], [[[-93.99365, 29.97099], [-93.99331, 29.97076], [-93.99364, 29.9704], [-93.99397, 29.97064], [-93.99365, 29.97099]]], [[[-93.99144, 29.97105], [-93.99154, 29.97105], [-93.99195, 29.97135], [-93.99191, 29.9714], [-93.99144, 29.97105]]], [[[-93.99241, 29.97172], [-93.99292, 29.97118], [-93.99423, 29.97209], [-93.99368, 29.97269], [-93.99324, 29.97236], [-93.9932, 29.972], [-93.99276, 29.97202], [-93.99241, 29.97172]]], [[[-93.99471, 29.97243], [-93.99453, 29.97266], [-93.99451, 29.97265], [-93.99453, 29.97262], [-93.99471, 29.97243]]], [[[-93.99483, 29.97341], [-93.99488, 29.97327], [-93.99528, 29.97356], [-93.99512, 29.97374], [-93.99483, 29.97341]]], [[[-93.99563, 29.97405], [-93.99593, 29.97427], [-93.9959, 29.97431], [-93.9956, 29.97409], [-93.99563, 29.97405]]], [[[-93.99514, 29.98139], [-93.99578, 29.98186], [-93.99489, 29.982], [-93.99404, 29.98247], [-93.99514, 29.98139]]], [[[-93.99524, 29.98684], [-93.99595, 29.98674], [-93.99325, 29.98714], [-93.99481, 29.9869], [-93.99524, 29.98684]]], [[[-93.98898, 29.95282], [-93.98921, 29.95298], [-93.98975, 29.9526], [-93.98894, 29.95344], [-93.98852, 29.95314], [-93.98898, 29.95282]]], [[[-93.98675, 29.95357], [-93.98665, 29.95368], [-93.98622, 29.95338], [-93.98666, 29.95279], [-93.98732, 29.95294], [-93.98675, 29.95357]]], [[[-93.98774, 29.95523], [-93.98752, 29.95507], [-93.98811, 29.95456], [-93.98803, 29.95392], [-93.98828, 29.95367], [-93.98891, 29.95411], [-93.98774, 29.95523]]], [[[-93.9883, 29.95563], [-93.98939, 29.95445], [-93.98963, 29.95462], [-93.98854, 29.95579], [-93.9883, 29.95563]]], [[[-93.98549, 29.95584], [-93.98632, 29.95492], [-93.98763, 29.95584], [-93.98685, 29.95668], [-93.98741, 29.95711], [-93.98821, 29.95626], [-93.99247, 29.95927], [-93.9917, 29.9601], [-93.99101, 29.95992], [-93.99062, 29.95958], [-93.99008, 29.95962], [-93.98834, 29.95841], [-93.98796, 29.95883], [-93.98768, 29.95864], [-93.98812, 29.95854], [-93.9881, 29.95818], [-93.9872, 29.9576], [-93.98679, 29.95779], [-93.98556, 29.95682], [-93.98601, 29.95629], [-93.98549, 29.95584]]], [[[-93.98562, 29.95766], [-93.98567, 29.9577], [-93.98538, 29.95803], [-93.98536, 29.95798], [-93.98562, 29.95766]]], [[[-93.98626, 29.95846], [-93.98587, 29.95897], [-93.98614, 29.95935], [-93.98569, 29.95941], [-93.9843, 29.96089], [-93.98401, 29.96061], [-93.98562, 29.95912], [-93.98559, 29.95887], [-93.9852, 29.95858], [-93.98536, 29.95835], [-93.98574, 29.95845], [-93.98616, 29.95804], [-93.98644, 29.95824], [-93.98626, 29.95846]]], [[[-93.98724, 29.95988], [-93.9895, 29.96145], [-93.98992, 29.962], [-93.98703, 29.95997], [-93.98724, 29.95988]]], [[[-93.98628, 29.96089], [-93.98671, 29.96043], [-93.98694, 29.96059], [-93.98571, 29.96191], [-93.98548, 29.96174], [-93.98628, 29.96089]]], [[[-93.98488, 29.96406], [-93.98468, 29.96387], [-93.98742, 29.96094], [-93.98765, 29.9611], [-93.98488, 29.96406]]], [[[-93.98795, 29.96164], [-93.98813, 29.96144], [-93.98953, 29.96242], [-93.98932, 29.96265], [-93.98795, 29.96164]]], [[[-93.98732, 29.9623], [-93.98753, 29.96208], [-93.98892, 29.96307], [-93.98872, 29.96329], [-93.98732, 29.9623]]], [[[-93.9905, 29.96254], [-93.99066, 29.96265], [-93.98974, 29.96364], [-93.98941, 29.96341], [-93.99033, 29.96242], [-93.9905, 29.96254]]], [[[-93.98716, 29.96288], [-93.98631, 29.96379], [-93.98551, 29.96464], [-93.98531, 29.96445], [-93.98693, 29.96272], [-93.98716, 29.96288]]], [[[-93.99054, 29.96421], [-93.99022, 29.96398], [-93.99114, 29.96299], [-93.99146, 29.96322], [-93.99054, 29.96421]]], [[[-93.98633, 29.96535], [-93.98806, 29.96352], [-93.98833, 29.96371], [-93.98655, 29.9656], [-93.98633, 29.96535]]], [[[-93.98846, 29.96504], [-93.98772, 29.96561], [-93.9875, 29.96544], [-93.98902, 29.96383], [-93.98934, 29.96406], [-93.98846, 29.96504]]], [[[-93.98892, 29.96536], [-93.98983, 29.9644], [-93.99015, 29.96463], [-93.98921, 29.96565], [-93.98892, 29.96536]]], [[[-93.9901, 29.96612], [-93.99004, 29.96624], [-93.98969, 29.96599], [-93.99063, 29.96497], [-93.99096, 29.96521], [-93.9901, 29.96612]]], [[[-93.98954, 29.96701], [-93.98819, 29.96597], [-93.98838, 29.96576], [-93.99006, 29.96696], [-93.98973, 29.96723], [-93.98954, 29.96701]]], [[[-93.98701, 29.96637], [-93.987, 29.96671], [-93.98747, 29.96715], [-93.98709, 29.96749], [-93.98626, 29.96676], [-93.98711, 29.96586], [-93.98733, 29.96603], [-93.98701, 29.96637]]], [[[-93.9877, 29.96658], [-93.9878, 29.96639], [-93.98887, 29.9672], [-93.98929, 29.96785], [-93.98918, 29.96792], [-93.9877, 29.96658]]], [[[-93.99116, 29.96873], [-93.99138, 29.96889], [-93.99006, 29.96795], [-93.98991, 29.96775], [-93.99043, 29.96743], [-93.99079, 29.96752], [-93.99104, 29.96739], [-93.99104, 29.96711], [-93.99068, 29.96693], [-93.99047, 29.96654], [-93.99144, 29.96555], [-93.99176, 29.96577], [-93.99132, 29.96626], [-93.99133, 29.9666], [-93.9927, 29.9676], [-93.9919, 29.96839], [-93.99235, 29.96771], [-93.99168, 29.9672], [-93.99133, 29.96723], [-93.99057, 29.96813], [-93.99116, 29.96873]]], [[[-93.99133, 29.96814], [-93.99131, 29.96812], [-93.99158, 29.96782], [-93.99162, 29.96785], [-93.99133, 29.96814]]], [[[-93.98964, 29.96924], [-93.98961, 29.96953], [-93.98997, 29.96999], [-93.98753, 29.96788], [-93.9879, 29.96754], [-93.98889, 29.96841], [-93.98961, 29.96832], [-93.99014, 29.9687], [-93.98964, 29.96924]]], [[[-93.99099, 29.96932], [-93.99065, 29.96968], [-93.99029, 29.96939], [-93.99062, 29.96905], [-93.99099, 29.96932]]], [[[-93.99112, 29.97004], [-93.99148, 29.96966], [-93.99186, 29.96993], [-93.99149, 29.97031], [-93.99112, 29.97004]]], [[[-93.9906, 29.97038], [-93.99115, 29.97077], [-93.99116, 29.97085], [-93.99045, 29.97033], [-93.9906, 29.97038]]], [[[-93.98682, 29.98322], [-93.98733, 29.98246], [-93.98772, 29.98237], [-93.98771, 29.98206], [-93.9881, 29.98165], [-93.98991, 29.98262], [-93.99097, 29.98153], [-93.99231, 29.98246], [-93.99137, 29.98348], [-93.99142, 29.98411], [-93.99186, 29.98409], [-93.99193, 29.98373], [-93.99274, 29.98285], [-93.99321, 29.98316], [-93.99205, 29.9844], [-93.99105, 29.98474], [-93.99146, 29.98432], [-93.98995, 29.98326], [-93.98953, 29.98374], [-93.98923, 29.98351], [-93.98955, 29.98288], [-93.98908, 29.98251], [-93.98848, 29.98309], [-93.98965, 29.98394], [-93.98953, 29.98406], [-93.99064, 29.9847], [-93.98811, 29.98331], [-93.9871, 29.9833], [-93.98633, 29.98361], [-93.98662, 29.9832], [-93.98682, 29.98322]]], [[[-93.98613, 29.98696], [-93.98633, 29.98701], [-93.98678, 29.98718], [-93.98628, 29.98724], [-93.98613, 29.98696]]], [[[-93.98319, 29.9886], [-93.98313, 29.98875], [-93.98133, 29.98876], [-93.99263, 29.98723], [-93.98319, 29.9886]]], [[[-93.97666, 29.95414], [-93.97638, 29.95453], [-93.97586, 29.95482], [-93.97585, 29.9538], [-93.97666, 29.95414]]], [[[-93.98397, 29.95634], [-93.98288, 29.95558], [-93.98311, 29.95532], [-93.98454, 29.95601], [-93.98412, 29.95645], [-93.98397, 29.95634]]], [[[-93.98219, 29.95858], [-93.9816, 29.95925], [-93.98034, 29.95837], [-93.98249, 29.956], [-93.98372, 29.95686], [-93.98219, 29.95858]]], [[[-93.98079, 29.96003], [-93.97995, 29.95954], [-93.97954, 29.95964], [-93.97924, 29.95994], [-93.97588, 29.95666], [-93.97914, 29.95969], [-93.97995, 29.9588], [-93.98122, 29.95967], [-93.98079, 29.96003]]], [[[-93.98396, 29.95924], [-93.98416, 29.95914], [-93.98446, 29.95947], [-93.98429, 29.95966], [-93.98396, 29.95924]]], [[[-93.97955, 29.96156], [-93.97891, 29.96112], [-93.97816, 29.96126], [-93.97756, 29.96179], [-93.97752, 29.96236], [-93.97696, 29.96209], [-93.97616, 29.9622], [-93.97581, 29.96248], [-93.97518, 29.96234], [-93.97446, 29.96248], [-93.97387, 29.96218], [-93.97353, 29.96258], [-93.97356, 29.96284], [-93.97329, 29.96286], [-93.97328, 29.9637], [-93.97069, 29.96177], [-93.97593, 29.96173], [-93.97589, 29.95761], [-93.97982, 29.96125], [-93.97955, 29.96156]]], [[[-93.98381, 29.96002], [-93.98381, 29.96002], [-93.9838, 29.96002], [-93.98381, 29.96002]]], [[[-93.98158, 29.96016], [-93.98158, 29.96016], [-93.98176, 29.95995], [-93.98153, 29.96021], [-93.98158, 29.96016]]], [[[-93.98372, 29.96009], [-93.9835, 29.96029], [-93.98337, 29.9602], [-93.98353, 29.96017], [-93.98372, 29.96009]]], [[[-93.986, 29.95993], [-93.98623, 29.96009], [-93.985, 29.9614], [-93.98477, 29.96124], [-93.986, 29.95993]]], [[[-93.98438, 29.96166], [-93.98461, 29.96182], [-93.98362, 29.96288], [-93.98343, 29.96269], [-93.98438, 29.96166]]], [[[-93.98509, 29.96216], [-93.98532, 29.96233], [-93.98425, 29.96347], [-93.98405, 29.96328], [-93.98509, 29.96216]]], [[[-93.97913, 29.96283], [-93.97957, 29.96303], [-93.97944, 29.9634], [-93.97894, 29.96302], [-93.97913, 29.96283]]], [[[-93.97641, 29.9639], [-93.97689, 29.96339], [-93.97746, 29.9632], [-93.97763, 29.96279], [-93.97802, 29.96303], [-93.97579, 29.96557], [-93.97463, 29.96471], [-93.97549, 29.96451], [-93.97592, 29.96403], [-93.97641, 29.9639]]], [[[-93.98259, 29.9631], [-93.98283, 29.96293], [-93.98615, 29.96602], [-93.98557, 29.96664], [-93.98476, 29.96607], [-93.98508, 29.96572], [-93.98227, 29.96315], [-93.98259, 29.9631]]], [[[-93.97756, 29.96529], [-93.97665, 29.96621], [-93.97626, 29.96593], [-93.97859, 29.96348], [-93.97905, 29.96382], [-93.97797, 29.96493], [-93.9776, 29.965], [-93.97756, 29.96529]]], [[[-93.97435, 29.96581], [-93.97443, 29.96587], [-93.97488, 29.96621], [-93.97473, 29.96619], [-93.97435, 29.96581]]], [[[-93.97563, 29.96677], [-93.97588, 29.96695], [-93.97572, 29.96713], [-93.97571, 29.96694], [-93.97563, 29.96677]]], [[[-93.97316, 29.96816], [-93.97372, 29.96779], [-93.97472, 29.96675], [-93.97303, 29.96859], [-93.97316, 29.96816]]], [[[-93.97258, 29.96907], [-93.97231, 29.96936], [-93.97103, 29.96856], [-93.97201, 29.96749], [-93.97251, 29.968], [-93.97236, 29.9685], [-93.97258, 29.96907]]], [[[-93.97427, 29.96902], [-93.97496, 29.9682], [-93.97524, 29.96839], [-93.97456, 29.96911], [-93.97427, 29.96902]]], [[[-93.97058, 29.96896], [-93.97191, 29.96977], [-93.97068, 29.97109], [-93.9703, 29.97086], [-93.96988, 29.97085], [-93.96912, 29.97158], [-93.96844, 29.97109], [-93.96909, 29.97039], [-93.96892, 29.97029], [-93.96936, 29.96967], [-93.97025, 29.96873], [-93.97058, 29.96896]]], [[[-93.97081, 29.97228], [-93.97055, 29.97209], [-93.97083, 29.9718], [-93.971, 29.97208], [-93.97081, 29.97228]]], [[[-93.96995, 29.97278], [-93.97016, 29.97252], [-93.97041, 29.97269], [-93.97019, 29.97293], [-93.96995, 29.97278]]], [[[-93.96833, 29.97264], [-93.96879, 29.97305], [-93.96717, 29.97489], [-93.96578, 29.97396], [-93.96716, 29.9725], [-93.96775, 29.97292], [-93.96817, 29.97245], [-93.96833, 29.97264]]], [[[-93.96875, 29.97431], [-93.96869, 29.97448], [-93.96848, 29.97432], [-93.96859, 29.97421], [-93.96875, 29.97431]]], [[[-93.96897, 29.97965], [-93.96921, 29.97983], [-93.96884, 29.97979], [-93.96897, 29.97965]]], [[[-93.98562, 29.98427], [-93.98558, 29.98433], [-93.98585, 29.98401], [-93.98564, 29.98425], [-93.98562, 29.98427]]], [[[-93.97812, 29.98616], [-93.97722, 29.98552], [-93.97723, 29.98548], [-93.97815, 29.98613], [-93.97812, 29.98616]]], [[[-93.98522, 29.98517], [-93.98531, 29.98592], [-93.9849, 29.98629], [-93.98498, 29.98683], [-93.98467, 29.98747], [-93.98355, 29.98762], [-93.98351, 29.98611], [-93.98399, 29.98613], [-93.98518, 29.98473], [-93.98533, 29.98477], [-93.98522, 29.98517]]], [[[-93.97656, 29.98785], [-93.97619, 29.98826], [-93.97618, 29.98794], [-93.97756, 29.98646], [-93.97773, 29.98658], [-93.97656, 29.98785]]], [[[-93.97707, 29.98876], [-93.97655, 29.98873], [-93.97821, 29.98692], [-93.98046, 29.98833], [-93.97707, 29.98876]]]]}, "properties": {"kind": "pv", "area_km2": 4.13, "mw": 206.3}}, {"type": "Feature", "geometry": {"type": "Point", "coordinates": [-93.99711, 29.99666]}, "properties": {"kind": "turbine", "i": 0, "mw": 6.0, "hub_m": 120.0, "rotor_m": 150.0}}, {"type": "Feature", "geometry": {"type": "Point", "coordinates": [-93.97436, 29.99353]}, "properties": {"kind": "turbine", "i": 1, "mw": 6.0, "hub_m": 120.0, "rotor_m": 150.0}}, {"type": "Feature", "geometry": {"type": "Point", "coordinates": [-94.01171, 29.94382]}, "properties": {"kind": "turbine", "i": 2, "mw": 6.0, "hub_m": 120.0, "rotor_m": 150.0}}, {"type": "Feature", "geometry": {"type": "Point", "coordinates": [-94.0231, 29.94703]}, "properties": {"kind": "turbine", "i": 3, "mw": 6.0, "hub_m": 120.0, "rotor_m": 150.0}}, {"type": "Feature", "geometry": {"type": "Point", "coordinates": [-94.03114, 29.9931]}, "properties": {"kind": "turbine", "i": 4, "mw": 6.0, "hub_m": 120.0, "rotor_m": 150.0}}, {"type": "Feature", "geometry": {"type": "Point", "coordinates": [-94.03861, 29.98316]}, "properties": {"kind": "turbine", "i": 5, "mw": 6.0, "hub_m": 120.0, "rotor_m": 150.0}}, {"type": "Feature", "geometry": {"type": "Point", "coordinates": [-93.99648, 29.93406]}, "properties": {"kind": "turbine", "i": 6, "mw": 6.0, "hub_m": 120.0, "rotor_m": 150.0}}, {"type": "Feature", "geometry": {"type": "Point", "coordinates": [-94.01539, 29.93391]}, "properties": {"kind": "turbine", "i": 7, "mw": 6.0, "hub_m": 120.0, "rotor_m": 150.0}}, {"type": "Feature", "geometry": {"type": "Point", "coordinates": [-94.046, 29.96662]}, "properties": {"kind": "turbine", "i": 8, "mw": 6.0, "hub_m": 120.0, "rotor_m": 150.0}}, {"type": "Feature", "geometry": {"type": "Point", "coordinates": [-93.97834, 30.01327]}, "properties": {"kind": "turbine", "i": 9, "mw": 6.0, "hub_m": 120.0, "rotor_m": 150.0}}, {"type": "Feature", "geometry": {"type": "Point", "coordinates": [-94.02678, 29.93712]}, "properties": {"kind": "turbine", "i": 10, "mw": 6.0, "hub_m": 120.0, "rotor_m": 150.0}}, {"type": "Feature", "geometry": {"type": "Point", "coordinates": [-94.04989, 29.97648]}, "properties": {"kind": "turbine", "i": 11, "mw": 6.0, "hub_m": 120.0, "rotor_m": 150.0}}, {"type": "Feature", "geometry": {"type": "Point", "coordinates": [-94.04631, 29.99628]}, "properties": {"kind": "turbine", "i": 12, "mw": 6.0, "hub_m": 120.0, "rotor_m": 150.0}}, {"type": "Feature", "geometry": {"type": "Point", "coordinates": [-93.98503, 29.92426]}, "properties": {"kind": "turbine", "i": 13, "mw": 6.0, "hub_m": 120.0, "rotor_m": 150.0}}, {"type": "Feature", "geometry": {"type": "Point", "coordinates": [-94.0458, 29.94685]}, "properties": {"kind": "turbine", "i": 14, "mw": 6.0, "hub_m": 120.0, "rotor_m": 150.0}}]}