{"type": "FeatureCollection", "features": [{"type": "Feature", "geometry": {"type": "MultiPolygon", "coordinates": [[[[-94.03494, 30.00826], [-94.03471, 30.00809], [-94.03658, 30.00633], [-94.0369, 30.00656], [-94.03494, 30.00826]]], [[[-94.03358, 29.99427], [-94.0349, 29.9968], [-94.03742, 30.00124], [-94.03614, 29.99989], [-94.02635, 29.99276], [-94.02925, 29.98966], [-94.02989, 29.98797], [-94.03166, 29.99171], [-94.03358, 29.99427]]], [[[-94.03593, 29.98252], [-94.0437, 29.9797], [-94.04469, 29.97899], [-94.04505, 29.97772], [-94.04441, 29.97654], [-94.04283, 29.97598], [-94.0406, 29.97664], [-94.04011, 29.97507], [-94.03879, 29.97379], [-94.04017, 29.97172], [-94.04231, 29.96994], [-94.04421, 29.96674], [-94.04527, 29.96648], [-94.04701, 29.96669], [-94.04866, 29.96934], [-94.04885, 29.9706], [-94.04715, 29.96949], [-94.0453, 29.9695], [-94.04316, 29.9714], [-94.0428, 29.97299], [-94.04331, 29.97392], [-94.04475, 29.97498], [-94.04656, 29.97529], [-94.04762, 29.97485], [-94.04916, 29.97326], [-94.04952, 29.9717], [-94.05068, 29.97259], [-94.0524, 29.97534], [-94.05316, 29.97756], [-94.05113, 29.97857], [-94.05349, 29.98222], [-94.05322, 29.98222], [-94.05327, 29.98269], [-94.05465, 29.98266], [-94.05334, 29.9874], [-94.05169, 29.99154], [-94.04744, 29.99093], [-94.04732, 29.99062], [-94.04886, 29.9905], [-94.0499, 29.99001], [-94.05055, 29.98914], [-94.05067, 29.98807], [-94.05228, 29.98677], [-94.05225, 29.98474], [-94.05096, 29.98324], [-94.04769, 29.98238], [-94.04445, 29.9834], [-94.04012, 29.98346], [-94.04185, 29.98679], [-94.04132, 29.98702], [-94.0403, 29.98543], [-94.03902, 29.98441], [-94.03733, 29.98361], [-94.03458, 29.98299], [-94.03593, 29.98252]]], [[[-94.04353, 29.99035], [-94.04153, 29.99022], [-94.04175, 29.98807], [-94.04287, 29.98817], [-94.04401, 29.99042], [-94.04353, 29.99035]]], [[[-94.04646, 29.99471], [-94.04983, 29.9952], [-94.04787, 29.99843], [-94.04569, 29.99818], [-94.04437, 29.99708], [-94.04499, 29.99449], [-94.04646, 29.99471]]], [[[-94.0493, 29.95389], [-94.04793, 29.95402], [-94.04697, 29.95465], [-94.04722, 29.95143], [-94.04689, 29.95029], [-94.045, 29.94777], [-94.04273, 29.94652], [-94.04095, 29.9439], [-94.0461, 29.94504], [-94.04853, 29.9485], [-94.05156, 29.95425], [-94.0493, 29.95389]]], [[[-94.02796, 29.95122], [-94.02641, 29.9562], [-94.02595, 29.95412], [-94.02467, 29.95282], [-94.01944, 29.95087], [-94.01852, 29.9494], [-94.01723, 29.94856], [-94.01537, 29.94812], [-94.01343, 29.94847], [-94.00907, 29.94611], [-94.00826, 29.94245], [-94.00826, 29.94072], [-94.00929, 29.93959], [-94.01012, 29.93651], [-94.00978, 29.93463], [-94.01231, 29.93158], [-94.01347, 29.93178], [-94.01469, 29.93142], [-94.01807, 29.92809], [-94.01939, 29.92751], [-94.02049, 29.92725], [-94.0204, 29.92791], [-94.01919, 29.92807], [-94.01817, 29.92863], [-94.01752, 29.92998], [-94.01906, 29.9346], [-94.02018, 29.93533], [-94.0218, 29.93543], [-94.02353, 29.93601], [-94.02678, 29.93555], [-94.02955, 29.93997], [-94.02822, 29.94162], [-94.02824, 29.94257], [-94.02876, 29.94338], [-94.0279, 29.9435], [-94.02537, 29.94157], [-94.02617, 29.94358], [-94.02669, 29.94401], [-94.02522, 29.94555], [-94.02495, 29.9476], [-94.02612, 29.94948], [-94.02835, 29.95048], [-94.02796, 29.95122]]], [[[-94.05128, 29.96451], [-94.05409, 29.96445], [-94.05406, 29.96465], [-94.05128, 29.96451]]], [[[-93.99717, 29.93656], [-93.99447, 29.93467], [-93.9941, 29.93506], [-93.994, 29.93466], [-93.99773, 29.93067], [-93.99228, 29.93215], [-93.99804, 29.93037], [-93.99909, 29.92923], [-93.99939, 29.92946], [-93.99871, 29.93019], [-94.00003, 29.92997], [-93.99832, 29.9305], [-93.99663, 29.93276], [-93.99638, 29.93503], [-93.99717, 29.93656]]], [[[-93.99278, 29.92479], [-93.98669, 29.93154], [-93.98548, 29.93236], [-93.98286, 29.9318], [-93.98136, 29.9322], [-93.98031, 29.93291], [-93.97905, 29.93159], [-93.97713, 29.93081], [-93.97469, 29.92574], [-93.97948, 29.92421], [-93.9894, 29.92235], [-93.99278, 29.92479]]], [[[-94.00308, 29.94188], [-94.00287, 29.94186], [-94.00308, 29.94156], [-94.00308, 29.94188]]], [[[-93.96019, 29.9427], [-93.95888, 29.9412], [-93.96022, 29.93994], [-93.96141, 29.94089], [-93.96191, 29.94243], [-93.96262, 29.94332], [-93.96109, 29.94441], [-93.96019, 29.9427]]], [[[-93.95016, 29.96146], [-93.95015, 29.96176], [-93.94943, 29.96142], [-93.94974, 29.95956], [-93.95048, 29.95938], [-93.95016, 29.96146]]], [[[-93.95251, 29.94108], [-93.95286, 29.94154], [-93.95249, 29.94192], [-93.95145, 29.94076], [-93.95193, 29.9403], [-93.95251, 29.94108]]], [[[-93.97028, 29.99448], [-93.96917, 29.99507], [-93.96962, 29.99205], [-93.97821, 29.99086], [-93.97652, 29.995], [-93.97359, 29.99808], [-93.97049, 30.00276], [-93.97007, 30.00292], [-93.9708, 30.0013], [-93.97283, 29.99873], [-93.97336, 29.99656], [-93.9731, 29.99556], [-93.97232, 29.99479], [-93.97028, 29.99448]]], [[[-93.96902, 30.00349], [-93.96926, 30.0034], [-93.96841, 30.00411], [-93.96641, 30.00418], [-93.96712, 30.00346], [-93.96902, 30.00349]]], [[[-93.96067, 30.009], [-93.96009, 30.00862], [-93.95987, 30.0079], [-93.96067, 30.00788], [-93.96067, 30.009]]], [[[-93.9959, 30.00788], [-93.99505, 30.00775], [-93.99539, 30.00708], [-93.99573, 30.00766], [-93.9959, 30.00788]]], [[[-93.99696, 29.99722], [-93.99659, 29.99763], [-93.99648, 29.99702], [-93.99744, 29.99626], [-93.99696, 29.99722]]], [[[-94.02234, 30.01407], [-94.02243, 30.01314], [-94.02348, 30.01491], [-94.02352, 30.01606], [-94.02221, 30.01585], [-94.02102, 30.01622], [-94.02001, 30.01592], [-94.02145, 30.01534], [-94.02234, 30.01407]]], [[[-94.02126, 29.98945], [-94.02162, 29.98951], [-94.02182, 29.98986], [-94.02126, 29.98945]]], [[[-94.02906, 29.97544], [-94.02912, 29.97548], [-94.02906, 29.97565], [-94.02898, 29.97552], [-94.02906, 29.97544]]], [[[-94.01754, 30.01514], [-94.01745, 30.01509], [-94.01768, 30.01523], [-94.01754, 30.01514]]], [[[-94.01665, 30.01473], [-94.01608, 30.01456], [-94.01616, 30.01439], [-94.01668, 30.01474], [-94.01665, 30.01473]]], [[[-94.00227, 30.01044], [-94.00152, 30.01082], [-94.00104, 30.01008], [-94.00149, 30.00959], [-94.00227, 30.01044]]], [[[-93.97606, 30.0145], [-93.97578, 30.01351], [-93.97751, 30.01257], [-93.97921, 30.01375], [-93.97941, 30.01446], [-93.97894, 30.0151], [-93.97782, 30.01515], [-93.97606, 30.0145]]], [[[-93.94645, 29.9484], [-93.94416, 29.95084], [-93.94587, 29.94798], [-93.94645, 29.9484]]]]}, "properties": {"kind": "windland", "area_km2": 7.65}}, {"type": "Feature", "geometry": {"type": "MultiPolygon", "coordinates": [[[[-93.99648, 29.97227], [-93.99608, 29.9727], [-93.99413, 29.97133], [-93.99479, 29.97061], [-93.99593, 29.9706], [-93.99601, 29.97117], [-93.99667, 29.97148], [-93.9969, 29.97182], [-93.99648, 29.97227]]], [[[-93.99563, 29.97405], [-93.99593, 29.97427], [-93.9959, 29.97431], [-93.9956, 29.97409], [-93.99563, 29.97405]]], [[[-93.9967, 29.9749], [-93.99638, 29.97466], [-93.99641, 29.97462], [-93.99673, 29.97486], [-93.9967, 29.9749]]], [[[-93.99721, 29.97521], [-93.99753, 29.97545], [-93.9975, 29.97548], [-93.99718, 29.97524], [-93.99721, 29.97521]]], [[[-93.99801, 29.9758], [-93.99832, 29.97603], [-93.9983, 29.97606], [-93.99798, 29.97583], [-93.99801, 29.9758]]], [[[-94.00154, 29.97837], [-94.0007, 29.97782], [-94.00063, 29.97746], [-94.00022, 29.97747], [-93.99983, 29.97718], [-93.99976, 29.97683], [-93.99936, 29.97684], [-93.99877, 29.97641], [-93.99897, 29.9762], [-94.00365, 29.97957], [-94.0031, 29.97957], [-94.00154, 29.97837]]], [[[-93.99115, 29.9708], [-93.99116, 29.97085], [-93.99087, 29.97064], [-93.99098, 29.97064], [-93.99115, 29.9708]]], [[[-93.99263, 29.97063], [-93.99235, 29.97093], [-93.99197, 29.97066], [-93.992, 29.97063], [-93.99263, 29.97063]]], [[[-93.99365, 29.97099], [-93.99331, 29.97076], [-93.99394, 29.97062], [-93.99397, 29.97064], [-93.99365, 29.97099]]], [[[-93.99151, 29.97105], [-93.99195, 29.97135], [-93.99191, 29.9714], [-93.99144, 29.97105], [-93.99151, 29.97105]]], [[[-93.99265, 29.97188], [-93.99241, 29.97172], [-93.99292, 29.97118], [-93.99423, 29.97209], [-93.99368, 29.97269], [-93.99324, 29.97236], [-93.9932, 29.972], [-93.99265, 29.97188]]], [[[-93.99453, 29.97266], [-93.99451, 29.97265], [-93.99471, 29.97243], [-93.99473, 29.97244], [-93.99453, 29.97266]]], [[[-93.99528, 29.97356], [-93.99512, 29.97374], [-93.99478, 29.97349], [-93.99488, 29.97327], [-93.99528, 29.97356]]]]}, "properties": {"kind": "pv", "area_km2": 0.06, "mw": 3.2}}, {"type": "Feature", "geometry": {"type": "Point", "coordinates": [-93.99711, 29.99666]}, "properties": {"kind": "turbine", "i": 0, "mw": 6.0, "hub_m": 120.0, "rotor_m": 150.0}}, {"type": "Feature", "geometry": {"type": "Point", "coordinates": [-93.97436, 29.99353]}, "properties": {"kind": "turbine", "i": 1, "mw": 6.0, "hub_m": 120.0, "rotor_m": 150.0}}, {"type": "Feature", "geometry": {"type": "Point", "coordinates": [-94.01171, 29.94382]}, "properties": {"kind": "turbine", "i": 2, "mw": 6.0, "hub_m": 120.0, "rotor_m": 150.0}}, {"type": "Feature", "geometry": {"type": "Point", "coordinates": [-94.0231, 29.94703]}, "properties": {"kind": "turbine", "i": 3, "mw": 6.0, "hub_m": 120.0, "rotor_m": 150.0}}, {"type": "Feature", "geometry": {"type": "Point", "coordinates": [-94.03114, 29.9931]}, "properties": {"kind": "turbine", "i": 4, "mw": 6.0, "hub_m": 120.0, "rotor_m": 150.0}}, {"type": "Feature", "geometry": {"type": "Point", "coordinates": [-94.03861, 29.98316]}, "properties": {"kind": "turbine", "i": 5, "mw": 6.0, "hub_m": 120.0, "rotor_m": 150.0}}, {"type": "Feature", "geometry": {"type": "Point", "coordinates": [-93.99648, 29.93406]}, "properties": {"kind": "turbine", "i": 6, "mw": 6.0, "hub_m": 120.0, "rotor_m": 150.0}}, {"type": "Feature", "geometry": {"type": "Point", "coordinates": [-94.01539, 29.93391]}, "properties": {"kind": "turbine", "i": 7, "mw": 6.0, "hub_m": 120.0, "rotor_m": 150.0}}, {"type": "Feature", "geometry": {"type": "Point", "coordinates": [-94.046, 29.96662]}, "properties": {"kind": "turbine", "i": 8, "mw": 6.0, "hub_m": 120.0, "rotor_m": 150.0}}, {"type": "Feature", "geometry": {"type": "Point", "coordinates": [-93.97834, 30.01327]}, "properties": {"kind": "turbine", "i": 9, "mw": 6.0, "hub_m": 120.0, "rotor_m": 150.0}}, {"type": "Feature", "geometry": {"type": "Point", "coordinates": [-94.02678, 29.93712]}, "properties": {"kind": "turbine", "i": 10, "mw": 6.0, "hub_m": 120.0, "rotor_m": 150.0}}, {"type": "Feature", "geometry": {"type": "Point", "coordinates": [-94.04989, 29.97648]}, "properties": {"kind": "turbine", "i": 11, "mw": 6.0, "hub_m": 120.0, "rotor_m": 150.0}}]}