{"type": "FeatureCollection", "features": [{"type": "Feature", "geometry": {"type": "MultiPolygon", "coordinates": [[[[-91.10518, 30.19321], [-91.10477, 30.19349], [-91.10297, 30.19236], [-91.10139, 30.1926], [-91.09931, 30.19441], [-91.099, 30.19593], [-91.09946, 30.19674], [-91.09234, 30.19922], [-91.08625, 30.18625], [-91.08513, 30.18537], [-91.08385, 30.18526], [-91.08243, 30.18608], [-91.0821, 30.18754], [-91.08815, 30.20053], [-91.0862, 30.20119], [-91.08405, 30.20133], [-91.07298, 30.20128], [-91.05872, 30.19955], [-91.05941, 30.19774], [-91.06128, 30.19834], [-91.0629, 30.19782], [-91.06421, 30.19514], [-91.06725, 30.18649], [-91.06659, 30.18498], [-91.06445, 30.18404], [-91.0647, 30.18328], [-91.06671, 30.18357], [-91.06775, 30.18334], [-91.06865, 30.1826], [-91.06904, 30.18167], [-91.07035, 30.18177], [-91.07153, 30.18131], [-91.07256, 30.1794], [-91.07238, 30.18171], [-91.07305, 30.18296], [-91.07504, 30.18364], [-91.07662, 30.18318], [-91.07749, 30.18195], [-91.07838, 30.17466], [-91.08051, 30.17484], [-91.08464, 30.17661], [-91.09006, 30.17954], [-91.09513, 30.18292], [-91.09978, 30.18671], [-91.10399, 30.19089], [-91.10565, 30.1929], [-91.10518, 30.19321]]], [[[-91.06152, 30.17908], [-91.06122, 30.17904], [-91.06149, 30.17904], [-91.06152, 30.17908]]], [[[-91.06054, 30.17895], [-91.05912, 30.17899], [-91.05807, 30.17965], [-91.05765, 30.18109], [-91.05844, 30.18231], [-91.05718, 30.1827], [-91.05635, 30.18379], [-91.05636, 30.18473], [-91.05688, 30.18556], [-91.05895, 30.18643], [-91.05416, 30.19924], [-91.0491, 30.19905], [-91.04696, 30.19807], [-91.04664, 30.19672], [-91.04388, 30.19371], [-91.05784, 30.1775], [-91.06054, 30.17895]]], [[[-91.05755, 30.17141], [-91.04471, 30.18624], [-91.04306, 30.18525], [-91.05124, 30.1768], [-91.05149, 30.17552], [-91.05058, 30.17427], [-91.04913, 30.17393], [-91.04776, 30.17446], [-91.03938, 30.18304], [-91.03731, 30.18212], [-91.04952, 30.16962], [-91.05682, 30.16964], [-91.05693, 30.17056], [-91.05755, 30.17141]]], [[[-91.03824, 30.17523], [-91.03236, 30.18119], [-91.02888, 30.1847], [-91.02898, 30.18238], [-91.04085, 30.1705], [-91.0431, 30.17019], [-91.03824, 30.17523]]], [[[-91.11736, 30.2338], [-91.10569, 30.22607], [-91.10417, 30.22575], [-91.10272, 30.22629], [-91.10107, 30.22195], [-91.102, 30.22103], [-91.10262, 30.21958], [-91.10214, 30.21707], [-91.10311, 30.21644], [-91.10354, 30.21558], [-91.10345, 30.21464], [-91.10256, 30.21323], [-91.10439, 30.21224], [-91.1054, 30.21296], [-91.1069, 30.21303], [-91.10783, 30.21255], [-91.10844, 30.21157], [-91.11102, 30.21098], [-91.11253, 30.20941], [-91.11273, 30.20722], [-91.11396, 30.20634], [-91.11559, 30.21051], [-91.11704, 30.21591], [-91.11787, 30.22141], [-91.11808, 30.22695], [-91.11736, 30.2338]]], [[[-91.09265, 30.23307], [-91.08667, 30.23354], [-91.0856, 30.22102], [-91.08509, 30.21947], [-91.09032, 30.21806], [-91.09081, 30.21955], [-91.09153, 30.22026], [-91.09277, 30.22059], [-91.09398, 30.22029], [-91.0958, 30.22467], [-91.0967, 30.22548], [-91.09784, 30.22572], [-91.09912, 30.22897], [-91.1009, 30.23129], [-91.10777, 30.23592], [-91.10937, 30.23624], [-91.11011, 30.23674], [-91.11024, 30.23739], [-91.11006, 30.23767], [-91.10079, 30.2318], [-91.09916, 30.23193], [-91.09747, 30.23117], [-91.0959, 30.23109], [-91.09408, 30.23174], [-91.09265, 30.23307]]], [[[-91.09873, 30.26307], [-91.09976, 30.26524], [-91.09275, 30.27072], [-91.09258, 30.26984], [-91.09454, 30.26815], [-91.09623, 30.26758], [-91.09762, 30.26632], [-91.0982, 30.26505], [-91.09821, 30.26312], [-91.09873, 30.26307]]], [[[-91.00795, 30.26668], [-91.00985, 30.26683], [-91.01139, 30.26654], [-91.01345, 30.26487], [-91.01413, 30.26178], [-91.01364, 30.26047], [-91.01281, 30.25955], [-91.01273, 30.25839], [-91.01383, 30.25741], [-91.01394, 30.25615], [-91.01507, 30.25555], [-91.01604, 30.25445], [-91.02957, 30.24986], [-91.0345, 30.25018], [-91.0416, 30.25246], [-91.0484, 30.25611], [-91.04591, 30.26], [-91.04067, 30.25968], [-91.03914, 30.2602], [-91.03718, 30.26235], [-91.03277, 30.2658], [-91.03216, 30.26724], [-91.03258, 30.26837], [-91.03351, 30.26913], [-91.03416, 30.27222], [-91.03517, 30.27292], [-91.03667, 30.27297], [-91.03774, 30.27234], [-91.03819, 30.27149], [-91.03769, 30.26714], [-91.04049, 30.26497], [-91.04164, 30.26361], [-91.04575, 30.26387], [-91.04571, 30.27074], [-91.04646, 30.27196], [-91.04778, 30.27255], [-91.04757, 30.27899], [-91.04792, 30.28002], [-91.04882, 30.28089], [-91.04985, 30.28119], [-91.05092, 30.28103], [-91.05177, 30.28046], [-91.05222, 30.27961], [-91.05222, 30.27106], [-91.05156, 30.26976], [-91.05017, 30.26907], [-91.05021, 30.26111], [-91.05264, 30.25737], [-91.0556, 30.25736], [-91.05636, 30.2584], [-91.05756, 30.25883], [-91.05901, 30.2585], [-91.05989, 30.25747], [-91.06109, 30.25797], [-91.06092, 30.26329], [-91.07285, 30.26942], [-91.0724, 30.26692], [-91.07716, 30.26685], [-91.07801, 30.2679], [-91.0797, 30.26894], [-91.07901, 30.27006], [-91.07908, 30.27114], [-91.07976, 30.27211], [-91.08101, 30.27267], [-91.07984, 30.27316], [-91.08441, 30.27544], [-91.08313, 30.27608], [-91.07857, 30.27367], [-91.07658, 30.27454], [-91.07603, 30.2765], [-91.07415, 30.27737], [-91.07523, 30.27907], [-91.07083, 30.28036], [-91.06461, 30.28161], [-91.05827, 30.28233], [-91.05188, 30.28251], [-91.04551, 30.28214], [-91.0392, 30.28124], [-91.03303, 30.2798], [-91.02705, 30.27784], [-91.02132, 30.27538], [-91.0159, 30.27244], [-91.01084, 30.26906], [-91.00795, 30.26668]]], [[[-91.08148, 30.2574], [-91.08108, 30.2544], [-91.08003, 30.25322], [-91.08036, 30.25247], [-91.07689, 30.25217], [-91.07702, 30.25165], [-91.08017, 30.25184], [-91.08169, 30.25299], [-91.08339, 30.25344], [-91.08226, 30.25498], [-91.08202, 30.25739], [-91.08148, 30.2574]]], [[[-91.06905, 30.24468], [-91.06557, 30.24379], [-91.06612, 30.2422], [-91.06407, 30.24166], [-91.06352, 30.24326], [-91.05335, 30.24061], [-91.05396, 30.23905], [-91.05518, 30.23832], [-91.05602, 30.2373], [-91.0575, 30.23338], [-91.05716, 30.23141], [-91.05937, 30.22869], [-91.06011, 30.22702], [-91.06081, 30.2277], [-91.0613, 30.23008], [-91.06361, 30.23181], [-91.06627, 30.2323], [-91.06776, 30.23186], [-91.06876, 30.23115], [-91.07373, 30.23381], [-91.06678, 30.23675], [-91.06592, 30.23998], [-91.06491, 30.2398], [-91.06433, 30.24011], [-91.06413, 30.24072], [-91.0656, 30.24158], [-91.0702, 30.24275], [-91.06997, 30.2431], [-91.06961, 30.24301], [-91.06905, 30.24468]]], [[[-91.0882, 30.24518], [-91.08717, 30.24487], [-91.08752, 30.244], [-91.09049, 30.24474], [-91.0909, 30.24542], [-91.0882, 30.24518]]], [[[-91.00778, 30.19336], [-91.00635, 30.19179], [-91.00432, 30.19095], [-91.00586, 30.19003], [-91.00741, 30.19147], [-91.00928, 30.19217], [-91.00778, 30.19336]]], [[[-91.01154, 30.19226], [-91.01083, 30.19216], [-91.01235, 30.19163], [-91.0125, 30.1919], [-91.01154, 30.19226]]], [[[-90.99488, 30.20857], [-90.99431, 30.20847], [-90.99425, 30.20843], [-90.99465, 30.20824], [-90.99488, 30.20857]]], [[[-90.98886, 30.2194], [-90.99675, 30.22622], [-90.99218, 30.23076], [-90.9915, 30.22974], [-90.99005, 30.22865], [-90.99075, 30.22745], [-90.99041, 30.22618], [-90.98942, 30.22545], [-90.98794, 30.22528], [-90.98844, 30.21903], [-90.98886, 30.2194]]], [[[-91.03119, 30.17431], [-91.0254, 30.18006], [-91.02494, 30.18067], [-91.02394, 30.17945], [-91.02482, 30.17842], [-91.02484, 30.1773], [-91.02362, 30.17608], [-91.02472, 30.17515], [-91.03344, 30.17215], [-91.03119, 30.17431]]], [[[-91.02677, 30.18896], [-91.02571, 30.18741], [-91.03493, 30.19512], [-91.04049, 30.19895], [-91.047, 30.20283], [-91.05656, 30.20318], [-91.06821, 30.20463], [-91.06729, 30.20513], [-91.06611, 30.20446], [-91.06462, 30.20448], [-91.06349, 30.20515], [-91.06289, 30.20613], [-91.05993, 30.20709], [-91.0509, 30.20582], [-91.04496, 30.20384], [-91.04028, 30.2013], [-91.03374, 30.19652], [-91.02937, 30.19262], [-91.02677, 30.18896]]], [[[-91.04464, 30.22399], [-91.04468, 30.2247], [-91.04269, 30.22419], [-91.04092, 30.22581], [-91.04045, 30.22717], [-91.041, 30.22733], [-91.04046, 30.22838], [-91.04409, 30.22956], [-91.04547, 30.23032], [-91.04653, 30.23158], [-91.04604, 30.23559], [-91.04514, 30.23706], [-91.04482, 30.23841], [-91.02892, 30.23429], [-91.02532, 30.23257], [-91.02572, 30.23161], [-91.0295, 30.23273], [-91.03056, 30.23255], [-91.0314, 30.23196], [-91.03185, 30.23071], [-91.03113, 30.22937], [-91.02636, 30.22769], [-91.02913, 30.22366], [-91.03147, 30.22393], [-91.0331, 30.22339], [-91.03426, 30.2224], [-91.03489, 30.22272], [-91.03619, 30.22249], [-91.0362, 30.22157], [-91.03826, 30.21906], [-91.03826, 30.21809], [-91.03964, 30.21552], [-91.04638, 30.21914], [-91.04655, 30.21956], [-91.04464, 30.22399]]], [[[-91.02897, 30.2384], [-91.04769, 30.24318], [-91.04517, 30.24983], [-91.04229, 30.24849], [-91.03649, 30.24661], [-91.02993, 30.24594], [-91.02755, 30.24637], [-91.01571, 30.2504], [-91.01474, 30.24887], [-91.01512, 30.24737], [-91.01457, 30.24616], [-91.01325, 30.24554], [-91.01132, 30.24575], [-91.00998, 30.24515], [-91.00977, 30.24438], [-91.01196, 30.2434], [-91.0129, 30.24206], [-91.01327, 30.23846], [-91.01296, 30.23606], [-91.01249, 30.23521], [-91.01162, 30.23465], [-91.01055, 30.23451], [-91.00892, 30.23536], [-91.00855, 30.23625], [-91.00883, 30.2388], [-91.00852, 30.24061], [-91.00683, 30.23984], [-91.00711, 30.23812], [-91.00624, 30.2369], [-91.0048, 30.23644], [-91.00342, 30.23675], [-91.00207, 30.23546], [-90.99977, 30.2352], [-90.99827, 30.23251], [-90.99687, 30.23183], [-90.99836, 30.23042], [-91.00014, 30.2316], [-91.00204, 30.23141], [-91.00297, 30.23039], [-91.00327, 30.22835], [-91.00423, 30.22924], [-91.00579, 30.22954], [-91.00682, 30.23087], [-91.00878, 30.2311], [-91.00988, 30.23045], [-91.01039, 30.22919], [-91.01209, 30.22861], [-91.01272, 30.22739], [-91.02198, 30.23523], [-91.02538, 30.23715], [-91.02897, 30.2384]]], [[[-91.05196, 30.24428], [-91.05238, 30.24439], [-91.05181, 30.2447], [-91.05181, 30.24468], [-91.05196, 30.24428]]], [[[-91.07052, 30.25325], [-91.07008, 30.25392], [-91.06986, 30.25273], [-91.07112, 30.25281], [-91.07052, 30.25325]]], [[[-91.06109, 30.22022], [-91.06248, 30.22025], [-91.06048, 30.22175], [-91.06107, 30.22028], [-91.06109, 30.22022]]], [[[-91.07692, 30.25718], [-91.07683, 30.25666], [-91.07704, 30.25777], [-91.07692, 30.25718]]], [[[-91.0215, 30.22924], [-91.02165, 30.22965], [-91.02066, 30.22879], [-91.02146, 30.2289], [-91.0215, 30.22924]]], [[[-91.00965, 30.21931], [-91.01298, 30.21743], [-91.01533, 30.21408], [-91.0168, 30.2145], [-91.01879, 30.21434], [-91.01776, 30.21543], [-91.01601, 30.21608], [-91.01158, 30.22098], [-91.00965, 30.21931]]], [[[-91.0238, 30.22335], [-91.02288, 30.22518], [-91.01602, 30.22417], [-91.01477, 30.22372], [-91.01884, 30.21921], [-91.01993, 30.21928], [-91.02307, 30.2159], [-91.02703, 30.21788], [-91.02561, 30.22122], [-91.0238, 30.22335]]], [[[-91.00367, 30.25249], [-91.00355, 30.25249], [-91.00366, 30.25204], [-91.00367, 30.25249]]], [[[-91.00363, 30.24819], [-91.00362, 30.24814], [-91.00363, 30.24808], [-91.00363, 30.24819]]], [[[-91.00371, 30.24239], [-91.00363, 30.24744], [-91.00324, 30.2466], [-91.00234, 30.24593], [-91.00033, 30.24589], [-90.99903, 30.2454], [-90.99788, 30.24557], [-90.99508, 30.24524], [-90.99323, 30.24559], [-90.99225, 30.24622], [-90.99263, 30.24375], [-90.99133, 30.24134], [-90.99375, 30.24126], [-90.99515, 30.24163], [-90.99819, 30.24102], [-91.00407, 30.24104], [-91.00371, 30.24239]]], [[[-91.00744, 30.25692], [-91.0071, 30.25747], [-91.00657, 30.2572], [-91.00657, 30.2563], [-91.00774, 30.25629], [-91.00744, 30.25692]]], [[[-91.00305, 30.22012], [-90.99977, 30.22337], [-90.99354, 30.21798], [-90.99482, 30.21679], [-90.99757, 30.21906], [-90.99932, 30.21747], [-90.99587, 30.21446], [-90.99536, 30.21492], [-90.99457, 30.2139], [-90.99342, 30.21352], [-90.99254, 30.21217], [-90.99433, 30.21246], [-90.99652, 30.21351], [-91.00354, 30.21953], [-91.00305, 30.22012]]], [[[-91.04206, 30.18935], [-91.03896, 30.19299], [-91.03698, 30.19152], [-91.04016, 30.18821], [-91.04206, 30.18935]]], [[[-91.03207, 30.18741], [-91.03424, 30.18522], [-91.03647, 30.186], [-91.03373, 30.18887], [-91.03207, 30.18741]]], [[[-91.08171, 30.23121], [-91.08198, 30.23106], [-91.08219, 30.23369], [-91.07926, 30.23223], [-91.08171, 30.23121]]]]}, "properties": {"kind": "windland", "area_km2": 40.83}}, {"type": "Feature", "geometry": {"type": "MultiPolygon", "coordinates": [[[[-91.0848, 30.19331], [-91.08339, 30.19036], [-91.08486, 30.19038], [-91.0848, 30.19331]]], [[[-91.09041, 30.19949], [-91.09507, 30.19955], [-91.09505, 30.2002], [-91.09119, 30.20131], [-91.09041, 30.19949]]], [[[-91.09032, 30.20086], [-91.09061, 30.20149], [-91.08666, 30.20281], [-91.07975, 30.20307], [-91.07206, 30.20288], [-91.0562, 30.20095], [-91.05828, 30.19543], [-91.06127, 30.19666], [-91.06163, 30.19656], [-91.0638, 30.19075], [-91.06534, 30.18635], [-91.06506, 30.18603], [-91.06212, 30.18506], [-91.06331, 30.18146], [-91.06669, 30.18191], [-91.06707, 30.18165], [-91.06723, 30.1811], [-91.0717, 30.18117], [-91.07057, 30.18174], [-91.06904, 30.18167], [-91.06853, 30.18274], [-91.06735, 30.18349], [-91.06649, 30.18357], [-91.0647, 30.18328], [-91.06445, 30.18404], [-91.06592, 30.18454], [-91.06659, 30.18498], [-91.06715, 30.18576], [-91.06725, 30.18649], [-91.06421, 30.19514], [-91.06341, 30.1972], [-91.0629, 30.19782], [-91.06215, 30.19822], [-91.06128, 30.19834], [-91.05941, 30.19774], [-91.05872, 30.19955], [-91.07227, 30.20122], [-91.07977, 30.2014], [-91.0862, 30.20119], [-91.08815, 30.20053], [-91.08769, 30.19945], [-91.08974, 30.19948], [-91.09032, 30.20086]]], [[[-91.0873, 30.2032], [-91.09504, 30.20077], [-91.095, 30.20287], [-91.09287, 30.20349], [-91.0863, 30.2046], [-91.08225, 30.20426], [-91.07889, 30.20427], [-91.07435, 30.20459], [-91.06947, 30.20614], [-91.06897, 30.20652], [-91.06791, 30.2069], [-91.06639, 30.20727], [-91.06564, 30.20629], [-91.06527, 30.20624], [-91.06492, 30.20668], [-91.06519, 30.20744], [-91.06363, 30.20785], [-91.06235, 30.20843], [-91.06136, 30.20848], [-91.0603, 30.20901], [-91.059, 30.20878], [-91.05832, 30.20889], [-91.05693, 30.20853], [-91.05607, 30.20862], [-91.05057, 30.20765], [-91.04841, 30.20706], [-91.04404, 30.2055], [-91.03903, 30.20279], [-91.03432, 30.1995], [-91.02824, 30.19433], [-91.02587, 30.19146], [-91.02467, 30.18949], [-91.02718, 30.18953], [-91.02768, 30.19048], [-91.03023, 30.19351], [-91.03571, 30.19811], [-91.04028, 30.2013], [-91.04496, 30.20384], [-91.0509, 30.20582], [-91.05609, 30.20675], [-91.05724, 30.20671], [-91.05819, 30.20698], [-91.05993, 30.20709], [-91.06289, 30.20613], [-91.06349, 30.20515], [-91.06462, 30.20448], [-91.06611, 30.20446], [-91.06729, 30.20513], [-91.06821, 30.20463], [-91.06139, 30.20389], [-91.05656, 30.20318], [-91.047, 30.20283], [-91.04627, 30.20242], [-91.04585, 30.20195], [-91.04175, 30.19975], [-91.03644, 30.1962], [-91.0324, 30.19315], [-91.02824, 30.18954], [-91.03097, 30.18958], [-91.03369, 30.19191], [-91.03766, 30.19492], [-91.04342, 30.19873], [-91.04756, 30.20086], [-91.04751, 30.20111], [-91.04773, 30.20129], [-91.05673, 30.20152], [-91.06162, 30.20224], [-91.07282, 30.20348], [-91.08334, 30.20355], [-91.08652, 30.20338], [-91.0873, 30.2032]]], [[[-91.09742, 30.21193], [-91.10418, 30.20871], [-91.10528, 30.20872], [-91.10527, 30.20905], [-91.10177, 30.21109], [-91.09393, 30.21461], [-91.09216, 30.21524], [-91.08343, 30.21762], [-91.07994, 30.21832], [-91.07224, 30.21915], [-91.06539, 30.21853], [-91.06209, 30.21787], [-91.05829, 30.21805], [-91.05458, 30.2178], [-91.04977, 30.2172], [-91.0462, 30.21614], [-91.02942, 30.20713], [-91.02433, 30.20249], [-91.01925, 30.19843], [-91.02175, 30.19847], [-91.02598, 30.20225], [-91.02942, 30.20563], [-91.03139, 30.20691], [-91.03242, 30.20794], [-91.0333, 30.20852], [-91.03571, 30.20953], [-91.03603, 30.20984], [-91.03629, 30.21061], [-91.03694, 30.21091], [-91.0382, 30.21109], [-91.04072, 30.21247], [-91.04911, 30.21529], [-91.05387, 30.21586], [-91.0578, 30.21673], [-91.06119, 30.21696], [-91.06318, 30.21679], [-91.06751, 30.21742], [-91.06831, 30.21712], [-91.06948, 30.21738], [-91.0713, 30.21718], [-91.07298, 30.21731], [-91.07412, 30.2169], [-91.07584, 30.21658], [-91.07987, 30.21642], [-91.08538, 30.21569], [-91.08491, 30.21601], [-91.08328, 30.21641], [-91.08051, 30.21682], [-91.07973, 30.2171], [-91.07609, 30.21754], [-91.07575, 30.2178], [-91.07573, 30.21805], [-91.07602, 30.21832], [-91.07648, 30.21839], [-91.08227, 30.21728], [-91.08555, 30.21647], [-91.08595, 30.21628], [-91.08632, 30.21551], [-91.09086, 30.21449], [-91.09182, 30.21391], [-91.09417, 30.21335], [-91.09612, 30.21233], [-91.09742, 30.21193]]], [[[-91.09847, 30.2173], [-91.09725, 30.21731], [-91.09608, 30.21428], [-91.0994, 30.2128], [-91.10024, 30.21414], [-91.09722, 30.21532], [-91.09711, 30.21562], [-91.0974, 30.21636], [-91.09788, 30.21653], [-91.10099, 30.21529], [-91.1012, 30.21551], [-91.10149, 30.2155], [-91.10162, 30.21515], [-91.09995, 30.21255], [-91.10244, 30.21137], [-91.10493, 30.20991], [-91.10525, 30.21034], [-91.1052, 30.21288], [-91.10439, 30.21224], [-91.10256, 30.21323], [-91.10345, 30.21464], [-91.10354, 30.21558], [-91.10311, 30.21644], [-91.10214, 30.21707], [-91.10264, 30.21855], [-91.10262, 30.21958], [-91.102, 30.22103], [-91.10107, 30.22195], [-91.10272, 30.22629], [-91.10373, 30.22582], [-91.10495, 30.2258], [-91.10491, 30.22765], [-91.10422, 30.22743], [-91.10212, 30.22872], [-91.10158, 30.22828], [-91.10126, 30.2277], [-91.09821, 30.21981], [-91.09896, 30.21962], [-91.09926, 30.21904], [-91.09874, 30.21759], [-91.09847, 30.2173]]], [[[-91.10068, 30.21482], [-91.09789, 30.21594], [-91.09779, 30.21568], [-91.10054, 30.21461], [-91.10068, 30.21482]]], [[[-91.09577, 30.21519], [-91.09651, 30.21711], [-91.0961, 30.21718], [-91.09601, 30.21747], [-91.09627, 30.21769], [-91.09671, 30.21762], [-91.09705, 30.21897], [-91.09741, 30.21944], [-91.10082, 30.2282], [-91.10132, 30.22884], [-91.10236, 30.22956], [-91.10217, 30.22983], [-91.10228, 30.23013], [-91.10483, 30.23186], [-91.10479, 30.23392], [-91.10062, 30.23098], [-91.10028, 30.23026], [-91.09957, 30.22963], [-91.09905, 30.22883], [-91.09784, 30.22572], [-91.0967, 30.22548], [-91.0958, 30.22467], [-91.09445, 30.22102], [-91.09398, 30.22029], [-91.09277, 30.22059], [-91.09153, 30.22026], [-91.09081, 30.21955], [-91.09032, 30.21806], [-91.08509, 30.21947], [-91.0856, 30.22102], [-91.08667, 30.23354], [-91.08989, 30.23343], [-91.09265, 30.23307], [-91.09377, 30.23196], [-91.09476, 30.23139], [-91.0959, 30.23109], [-91.09708, 30.2311], [-91.09822, 30.2314], [-91.09916, 30.23193], [-91.10015, 30.23174], [-91.1012, 30.23193], [-91.10479, 30.23423], [-91.10475, 30.23628], [-91.10025, 30.2334], [-91.09983, 30.23352], [-91.09891, 30.23453], [-91.09711, 30.23328], [-91.09555, 30.23467], [-91.09515, 30.23513], [-91.09509, 30.23549], [-91.09376, 30.23485], [-91.093, 30.23472], [-91.09006, 30.23509], [-91.08396, 30.23529], [-91.08451, 30.2347], [-91.08476, 30.234], [-91.0837, 30.22119], [-91.08477, 30.22113], [-91.08439, 30.21792], [-91.09166, 30.21594], [-91.0925, 30.21876], [-91.09288, 30.21892], [-91.09312, 30.21853], [-91.09226, 30.21578], [-91.0943, 30.21505], [-91.0975, 30.22389], [-91.09787, 30.22405], [-91.09809, 30.22371], [-91.09487, 30.21482], [-91.09553, 30.21455], [-91.09577, 30.21519]]], [[[-91.10438, 30.22797], [-91.1049, 30.22832], [-91.10486, 30.23052], [-91.10264, 30.22906], [-91.10438, 30.22797]]], [[[-91.08405, 30.23428], [-91.08311, 30.23519], [-91.08155, 30.23534], [-91.07771, 30.23335], [-91.07679, 30.23267], [-91.07739, 30.23268], [-91.07762, 30.23253], [-91.07791, 30.2319], [-91.07964, 30.23152], [-91.08113, 30.23081], [-91.08382, 30.23017], [-91.08405, 30.23428]], [[-91.08139, 30.23134], [-91.07926, 30.23223], [-91.08221, 30.23369], [-91.08198, 30.23106], [-91.08139, 30.23134]]], [[[-91.10053, 30.23558], [-91.09939, 30.23487], [-91.1002, 30.23399], [-91.10474, 30.23695], [-91.1047, 30.23853], [-91.1044, 30.23832], [-91.10234, 30.24052], [-91.0995, 30.23852], [-91.1007, 30.23719], [-91.10118, 30.23709], [-91.10161, 30.23656], [-91.10147, 30.23605], [-91.10053, 30.23558]]], [[[-91.09319, 30.23541], [-91.09457, 30.23621], [-91.09496, 30.23662], [-91.09457, 30.23707], [-91.09202, 30.23538], [-91.09319, 30.23541]]], [[[-91.09111, 30.23555], [-91.09349, 30.23704], [-91.09242, 30.2374], [-91.09168, 30.23808], [-91.09131, 30.23875], [-91.09125, 30.23967], [-91.08501, 30.2358], [-91.09111, 30.23555]]], [[[-91.08398, 30.23588], [-91.08432, 30.23603], [-91.08869, 30.23894], [-91.0884, 30.23925], [-91.08244, 30.23589], [-91.08398, 30.23588]]], [[[-91.08568, 30.23856], [-91.08115, 30.23607], [-91.08098, 30.2363], [-91.07513, 30.23322], [-91.07373, 30.23381], [-91.06876, 30.23115], [-91.06776, 30.23186], [-91.06666, 30.23224], [-91.06508, 30.23229], [-91.06395, 30.23198], [-91.06234, 30.23111], [-91.06151, 30.23037], [-91.06086, 30.22912], [-91.06081, 30.2277], [-91.06011, 30.22702], [-91.05937, 30.22869], [-91.05819, 30.2298], [-91.05776, 30.23072], [-91.05716, 30.23141], [-91.05749, 30.23235], [-91.0575, 30.23338], [-91.05703, 30.23476], [-91.05643, 30.23573], [-91.05602, 30.2373], [-91.05518, 30.23832], [-91.05396, 30.23905], [-91.05335, 30.24061], [-91.06352, 30.24326], [-91.06296, 30.24486], [-91.0509, 30.2417], [-91.05783, 30.22333], [-91.08638, 30.23864], [-91.08801, 30.23967], [-91.08782, 30.23989], [-91.08568, 30.23856]], [[-91.06349, 30.23139], [-91.06453, 30.23204], [-91.06472, 30.23133], [-91.06659, 30.23166], [-91.06675, 30.23087], [-91.06806, 30.23093], [-91.0682, 30.23024], [-91.06837, 30.23029], [-91.06868, 30.22981], [-91.06648, 30.22871], [-91.06628, 30.22825], [-91.06519, 30.22766], [-91.06449, 30.22775], [-91.06406, 30.22754], [-91.0638, 30.22761], [-91.06307, 30.23097], [-91.06349, 30.23139]]], [[[-91.09216, 30.24019], [-91.09188, 30.23967], [-91.09184, 30.23935], [-91.09208, 30.23854], [-91.0929, 30.23777], [-91.09411, 30.23759], [-91.09205, 30.23995], [-91.09368, 30.24107], [-91.09349, 30.24133], [-91.09216, 30.24019]]], [[[-91.09345, 30.24459], [-91.09329, 30.24462], [-91.09101, 30.24152], [-91.08887, 30.2396], [-91.08914, 30.23932], [-91.09311, 30.24188], [-91.0929, 30.24218], [-91.09514, 30.24374], [-91.09443, 30.24465], [-91.0942, 30.24465], [-91.09398, 30.24526], [-91.09371, 30.24471], [-91.09345, 30.24459]]], [[[-91.08946, 30.24082], [-91.0912, 30.24263], [-91.09275, 30.2449], [-91.09414, 30.24775], [-91.09411, 30.24908], [-91.09141, 30.24779], [-91.08793, 30.24691], [-91.08813, 30.24613], [-91.08733, 30.24591], [-91.08767, 30.24503], [-91.0882, 30.24518], [-91.08959, 30.2451], [-91.0909, 30.24542], [-91.09049, 30.24474], [-91.09267, 30.24529], [-91.09191, 30.24403], [-91.09011, 30.2419], [-91.08831, 30.24022], [-91.08849, 30.24002], [-91.08946, 30.24082]]], [[[-91.08436, 30.2472], [-91.08423, 30.24728], [-91.08411, 30.24738], [-91.08418, 30.24717], [-91.08436, 30.2472]]], [[[-91.08554, 30.2475], [-91.08504, 30.24794], [-91.08455, 30.24776], [-91.08491, 30.24756], [-91.08554, 30.2475]]], [[[-91.08319, 30.24863], [-91.08283, 30.24994], [-91.08211, 30.24976], [-91.08275, 30.2482], [-91.08318, 30.24832], [-91.08319, 30.24863]]], [[[-91.08607, 30.24786], [-91.08658, 30.24778], [-91.08557, 30.25064], [-91.08525, 30.25056], [-91.08576, 30.24913], [-91.08541, 30.24904], [-91.08536, 30.24874], [-91.08558, 30.24822], [-91.08607, 30.24786]]], [[[-91.0886, 30.24977], [-91.08848, 30.25016], [-91.08887, 30.25032], [-91.0885, 30.25139], [-91.08629, 30.25082], [-91.08692, 30.24903], [-91.08807, 30.24934], [-91.088, 30.24962], [-91.0886, 30.24977]]], [[[-91.08908, 30.2521], [-91.09381, 30.25333], [-91.09403, 30.25341], [-91.09402, 30.25367], [-91.08363, 30.25352], [-91.08353, 30.25893], [-91.07981, 30.25929], [-91.07927, 30.25501], [-91.07901, 30.25463], [-91.07216, 30.25421], [-91.07186, 30.25468], [-91.07223, 30.26002], [-91.07116, 30.25996], [-91.07008, 30.25392], [-91.07052, 30.25325], [-91.07112, 30.25281], [-91.07995, 30.25341], [-91.08003, 30.25322], [-91.08072, 30.25376], [-91.08108, 30.2544], [-91.08148, 30.2574], [-91.08202, 30.25739], [-91.08194, 30.2562], [-91.08226, 30.25498], [-91.08262, 30.25429], [-91.08339, 30.25344], [-91.08169, 30.25299], [-91.08017, 30.25184], [-91.0806, 30.25187], [-91.08119, 30.25007], [-91.08329, 30.25062], [-91.08277, 30.25216], [-91.08697, 30.2524], [-91.08723, 30.25163], [-91.08908, 30.2521]]], [[[-91.09398, 30.25281], [-91.09404, 30.25281], [-91.09404, 30.25283], [-91.09401, 30.25282], [-91.09398, 30.25281]]], [[[-91.08098, 30.26074], [-91.08087, 30.25996], [-91.0813, 30.26013], [-91.08207, 30.25995], [-91.08213, 30.26033], [-91.08239, 30.26053], [-91.0835, 30.26047], [-91.08348, 30.26118], [-91.08141, 30.26105], [-91.08098, 30.26074]]], [[[-91.06491, 30.18107], [-91.06659, 30.18109], [-91.06653, 30.18134], [-91.06491, 30.18107]]], [[[-91.07305, 30.18296], [-91.07247, 30.1821], [-91.07239, 30.18118], [-91.07451, 30.18121], [-91.0746, 30.1836], [-91.07381, 30.18342], [-91.07305, 30.18296]]], [[[-91.06368, 30.18915], [-91.06087, 30.1883], [-91.06194, 30.18558], [-91.06469, 30.18648], [-91.06368, 30.18915]]], [[[-91.06909, 30.22135], [-91.06881, 30.2218], [-91.06775, 30.22157], [-91.06839, 30.21938], [-91.07222, 30.21969], [-91.07399, 30.21955], [-91.07341, 30.22234], [-91.06909, 30.22135]]], [[[-91.06777, 30.21932], [-91.06715, 30.22178], [-91.06543, 30.2215], [-91.06481, 30.22326], [-91.06324, 30.22291], [-91.0628, 30.22444], [-91.06065, 30.22326], [-91.06038, 30.22406], [-91.05803, 30.2228], [-91.05967, 30.2186], [-91.06199, 30.21841], [-91.06487, 30.21901], [-91.06777, 30.21932]], [[-91.06224, 30.22058], [-91.06248, 30.22025], [-91.06113, 30.22011], [-91.06048, 30.22175], [-91.06131, 30.22104], [-91.06224, 30.22058]]], [[[-91.07463, 30.21948], [-91.07826, 30.21906], [-91.07774, 30.2221], [-91.07796, 30.22047], [-91.07749, 30.22026], [-91.07718, 30.22046], [-91.07633, 30.22533], [-91.07632, 30.22789], [-91.07603, 30.22845], [-91.07553, 30.22881], [-91.07474, 30.22837], [-91.07365, 30.22806], [-91.07368, 30.22761], [-91.07293, 30.22731], [-91.07463, 30.21948]]], [[[-91.07215, 30.22551], [-91.07194, 30.22522], [-91.07237, 30.22374], [-91.07307, 30.22386], [-91.07233, 30.22714], [-91.07144, 30.22695], [-91.07153, 30.22663], [-91.07198, 30.22633], [-91.07215, 30.22551]]], [[[-91.07889, 30.24498], [-91.07767, 30.24841], [-91.07824, 30.24876], [-91.07641, 30.24829], [-91.07671, 30.24738], [-91.07712, 30.24699], [-91.07732, 30.24646], [-91.07719, 30.24594], [-91.07748, 30.24506], [-91.07632, 30.24477], [-91.07525, 30.248], [-91.07349, 30.24755], [-91.07455, 30.24423], [-91.07322, 30.24391], [-91.07216, 30.24721], [-91.07168, 30.24709], [-91.07278, 30.24381], [-91.06997, 30.2431], [-91.0702, 30.24275], [-91.07889, 30.24498]]], [[[-91.06813, 30.24617], [-91.06502, 30.24538], [-91.06557, 30.24379], [-91.06905, 30.24468], [-91.06851, 30.24627], [-91.06813, 30.24617]]], [[[-91.08082, 30.24767], [-91.08088, 30.24827], [-91.08141, 30.24843], [-91.08201, 30.24838], [-91.08152, 30.24959], [-91.07889, 30.24893], [-91.07944, 30.24859], [-91.07968, 30.2479], [-91.07947, 30.24749], [-91.07967, 30.24692], [-91.07987, 30.24697], [-91.08028, 30.24579], [-91.08284, 30.24646], [-91.08245, 30.24734], [-91.08204, 30.24701], [-91.08133, 30.24692], [-91.081, 30.24719], [-91.08082, 30.24767]]], [[[-91.07958, 30.25184], [-91.07842, 30.25187], [-91.07744, 30.25168], [-91.07969, 30.25182], [-91.07958, 30.25184]]], [[[-91.0787, 30.25586], [-91.07919, 30.25935], [-91.07549, 30.2597], [-91.07487, 30.25653], [-91.07666, 30.25635], [-91.07663, 30.25498], [-91.07866, 30.2551], [-91.0787, 30.25586]], [[-91.07683, 30.25666], [-91.07692, 30.25718], [-91.07704, 30.25777], [-91.07688, 30.25667], [-91.07683, 30.25666]]], [[[-91.07271, 30.25795], [-91.07249, 30.25473], [-91.07395, 30.25482], [-91.07487, 30.25976], [-91.07285, 30.25996], [-91.07271, 30.25795]]], [[[-91.0786, 30.25995], [-91.08022, 30.25979], [-91.08038, 30.26089], [-91.08071, 30.26132], [-91.08129, 30.26158], [-91.08347, 30.26172], [-91.08346, 30.26254], [-91.07635, 30.26243], [-91.0746, 30.26166], [-91.07422, 30.26125], [-91.07318, 30.26121], [-91.07318, 30.26079], [-91.07293, 30.2605], [-91.0786, 30.25995]]], [[[-91.07126, 30.26055], [-91.0716, 30.26058], [-91.07208, 30.26058], [-91.07189, 30.26098], [-91.07138, 30.2612], [-91.07126, 30.26055]]], [[[-91.07185, 30.26254], [-91.07249, 30.26249], [-91.07251, 30.26362], [-91.07304, 30.264], [-91.07298, 30.26697], [-91.0724, 30.26692], [-91.0716, 30.26244], [-91.07185, 30.26254]]], [[[-91.04703, 30.19001], [-91.04388, 30.19371], [-91.04464, 30.1943], [-91.04504, 30.19527], [-91.04664, 30.19672], [-91.04696, 30.19742], [-91.04696, 30.19807], [-91.0491, 30.19905], [-91.05416, 30.19924], [-91.05895, 30.18643], [-91.0572, 30.18581], [-91.05661, 30.18525], [-91.05636, 30.18473], [-91.05631, 30.18398], [-91.05672, 30.1831], [-91.05755, 30.1825], [-91.05844, 30.18231], [-91.05783, 30.18163], [-91.05763, 30.18096], [-91.05961, 30.18099], [-91.06265, 30.18147], [-91.06153, 30.18487], [-91.05859, 30.18398], [-91.05822, 30.18416], [-91.05839, 30.18449], [-91.06135, 30.18539], [-91.05555, 30.20092], [-91.05182, 30.2009], [-91.04835, 30.20061], [-91.04452, 30.19873], [-91.04506, 30.19785], [-91.04492, 30.19753], [-91.04453, 30.1976], [-91.044, 30.19842], [-91.04349, 30.19812], [-91.04427, 30.19707], [-91.04415, 30.19674], [-91.04376, 30.19678], [-91.04298, 30.1978], [-91.04177, 30.19703], [-91.04309, 30.19556], [-91.04299, 30.19518], [-91.0426, 30.19523], [-91.04129, 30.19669], [-91.04114, 30.19659], [-91.04218, 30.19546], [-91.04209, 30.19515], [-91.04169, 30.19515], [-91.04059, 30.19621], [-91.04203, 30.19454], [-91.04191, 30.19428], [-91.04162, 30.19423], [-91.041, 30.19486], [-91.04115, 30.19458], [-91.04096, 30.19435], [-91.05252, 30.18088], [-91.05489, 30.18092], [-91.04703, 30.19001]]], [[[-91.04939, 30.18084], [-91.05175, 30.18087], [-91.04513, 30.18852], [-91.04024, 30.18557], [-91.04488, 30.18077], [-91.04734, 30.18081], [-91.04306, 30.18525], [-91.04471, 30.18624], [-91.04939, 30.18084]]], [[[-91.06349, 30.18968], [-91.06119, 30.19603], [-91.05847, 30.1949], [-91.06067, 30.18882], [-91.06349, 30.18968]]], [[[-91.04803, 30.21738], [-91.04781, 30.21728], [-91.04931, 30.21765], [-91.04855, 30.21759], [-91.04803, 30.21738]]], [[[-91.04762, 30.21953], [-91.04839, 30.22004], [-91.04656, 30.22405], [-91.0447, 30.22469], [-91.04474, 30.22347], [-91.04655, 30.21956], [-91.04638, 30.21914], [-91.03964, 30.21552], [-91.03826, 30.21809], [-91.03592, 30.21687], [-91.03853, 30.21296], [-91.04671, 30.21736], [-91.04654, 30.21758], [-91.047, 30.21891], [-91.04762, 30.21953]]], [[[-91.04622, 30.23336], [-91.04653, 30.23158], [-91.04547, 30.23032], [-91.04477, 30.2301], [-91.04409, 30.22956], [-91.04622, 30.23013], [-91.0464, 30.22975], [-91.04716, 30.22978], [-91.04907, 30.2304], [-91.04937, 30.22955], [-91.04973, 30.22962], [-91.04895, 30.23173], [-91.04906, 30.23197], [-91.04938, 30.23203], [-91.04619, 30.2405], [-91.02969, 30.23629], [-91.02658, 30.2352], [-91.02442, 30.23407], [-91.02301, 30.23311], [-91.02457, 30.22947], [-91.02954, 30.23106], [-91.02989, 30.23094], [-91.02983, 30.2306], [-91.0236, 30.22861], [-91.02341, 30.229], [-91.02398, 30.22928], [-91.02252, 30.23273], [-91.01495, 30.22621], [-91.02408, 30.22748], [-91.0245, 30.22716], [-91.02574, 30.22531], [-91.02589, 30.2246], [-91.02654, 30.2242], [-91.02814, 30.22182], [-91.02818, 30.22118], [-91.03048, 30.21758], [-91.03016, 30.21694], [-91.02841, 30.21603], [-91.0306, 30.2127], [-91.03156, 30.21159], [-91.03243, 30.21005], [-91.03224, 30.20979], [-91.02627, 30.20659], [-91.02637, 30.20648], [-91.03524, 30.2113], [-91.03288, 30.21454], [-91.03247, 30.21435], [-91.03186, 30.21532], [-91.03236, 30.21557], [-91.03173, 30.21654], [-91.03253, 30.21692], [-91.03266, 30.21676], [-91.03317, 30.21684], [-91.03343, 30.21645], [-91.03417, 30.21693], [-91.03477, 30.21698], [-91.0336, 30.21874], [-91.03221, 30.21803], [-91.03186, 30.21806], [-91.03099, 30.21763], [-91.02876, 30.221], [-91.03211, 30.22256], [-91.03472, 30.21869], [-91.03566, 30.21921], [-91.03537, 30.21968], [-91.0356, 30.21985], [-91.03434, 30.22155], [-91.03405, 30.2221], [-91.03426, 30.2224], [-91.03379, 30.2229], [-91.03273, 30.22358], [-91.03147, 30.22393], [-91.03017, 30.22393], [-91.02913, 30.22366], [-91.02764, 30.2256], [-91.02636, 30.22769], [-91.03038, 30.22898], [-91.03113, 30.22937], [-91.03164, 30.22998], [-91.03183, 30.23052], [-91.03178, 30.23128], [-91.03153, 30.2318], [-91.03056, 30.23255], [-91.0295, 30.23273], [-91.02572, 30.23161], [-91.02532, 30.23257], [-91.02703, 30.23352], [-91.02892, 30.23429], [-91.04482, 30.23841], [-91.04514, 30.23706], [-91.04604, 30.23559], [-91.04628, 30.23433], [-91.04622, 30.23336]], [[-91.02155, 30.22943], [-91.02146, 30.2289], [-91.02066, 30.22879], [-91.02165, 30.22965], [-91.02155, 30.22943]]], [[[-91.04939, 30.24401], [-91.04623, 30.25236], [-91.04278, 30.25051], [-91.03633, 30.24831], [-91.03482, 30.248], [-91.02988, 30.2476], [-91.02825, 30.24792], [-91.01482, 30.25249], [-91.0131, 30.25247], [-91.0125, 30.25168], [-91.01281, 30.25001], [-91.01305, 30.24965], [-91.01284, 30.24948], [-91.01217, 30.24946], [-91.01205, 30.25069], [-91.01153, 30.25062], [-91.01151, 30.24795], [-91.01302, 30.24803], [-91.01321, 30.24783], [-91.0132, 30.24738], [-91.01288, 30.24718], [-91.01259, 30.24739], [-91.01101, 30.24741], [-91.01105, 30.24558], [-91.01132, 30.24575], [-91.01185, 30.24574], [-91.01325, 30.24554], [-91.01387, 30.24571], [-91.01457, 30.24616], [-91.015, 30.24682], [-91.01512, 30.24737], [-91.01509, 30.24817], [-91.01474, 30.24887], [-91.01498, 30.24963], [-91.01571, 30.2504], [-91.02755, 30.24637], [-91.02993, 30.24594], [-91.03501, 30.24634], [-91.03649, 30.24661], [-91.04229, 30.24849], [-91.04517, 30.24983], [-91.04769, 30.24318], [-91.02897, 30.2384], [-91.02538, 30.23715], [-91.02303, 30.23592], [-91.02114, 30.23462], [-91.01272, 30.22739], [-91.01257, 30.22798], [-91.01209, 30.22861], [-91.01137, 30.22904], [-91.01039, 30.22919], [-91.01024, 30.22991], [-91.00973, 30.23059], [-91.00899, 30.23103], [-91.00829, 30.23118], [-91.00682, 30.23087], [-91.00616, 30.2303], [-91.00579, 30.22954], [-91.00423, 30.22924], [-91.00327, 30.22835], [-91.00297, 30.22912], [-91.00307, 30.23003], [-91.00279, 30.23074], [-91.00204, 30.23141], [-91.00094, 30.2317], [-91.00097, 30.23002], [-91.00118, 30.22978], [-91.00098, 30.2295], [-91.00101, 30.2284], [-91.00137, 30.22814], [-91.00102, 30.22774], [-91.00105, 30.22631], [-91.00159, 30.22674], [-91.00197, 30.22648], [-91.00107, 30.2254], [-91.00217, 30.22434], [-91.00281, 30.22491], [-91.00356, 30.22606], [-91.00478, 30.22701], [-91.00507, 30.22773], [-91.00691, 30.22809], [-91.00741, 30.22844], [-91.00771, 30.22932], [-91.00798, 30.22951], [-91.00838, 30.22941], [-91.00846, 30.22903], [-91.0079, 30.22809], [-91.00721, 30.22762], [-91.00857, 30.22627], [-91.01033, 30.22748], [-91.01074, 30.22743], [-91.01071, 30.22706], [-91.00429, 30.22225], [-91.00656, 30.21978], [-91.02184, 30.23293], [-91.02407, 30.23452], [-91.02671, 30.23586], [-91.0295, 30.2368], [-91.05011, 30.24206], [-91.04939, 30.24401]]], [[[-91.05196, 30.24428], [-91.05181, 30.2447], [-91.0513, 30.24497], [-91.05117, 30.24545], [-91.04909, 30.24655], [-91.0507, 30.24221], [-91.05455, 30.24323], [-91.05238, 30.24439], [-91.05196, 30.24428]]], [[[-91.05173, 30.25493], [-91.05151, 30.25506], [-91.0504, 30.25457], [-91.05072, 30.25413], [-91.05473, 30.25424], [-91.05475, 30.25516], [-91.0538, 30.25516], [-91.05339, 30.25493], [-91.05173, 30.25493]]], [[[-91.05747, 30.25698], [-91.05774, 30.25717], [-91.05805, 30.257], [-91.05807, 30.25568], [-91.05989, 30.25574], [-91.06115, 30.25613], [-91.06109, 30.25797], [-91.05989, 30.25747], [-91.05919, 30.25839], [-91.05821, 30.2588], [-91.05734, 30.2588], [-91.05654, 30.25852], [-91.05592, 30.25798], [-91.0556, 30.25736], [-91.05264, 30.25737], [-91.05021, 30.26111], [-91.05017, 30.26907], [-91.05156, 30.26976], [-91.05202, 30.27039], [-91.05222, 30.2711], [-91.05027, 30.27107], [-91.04988, 30.27073], [-91.04822, 30.27036], [-91.04829, 30.26077], [-91.0512, 30.25613], [-91.05118, 30.25587], [-91.05093, 30.25574], [-91.05065, 30.25587], [-91.04973, 30.25756], [-91.04789, 30.26019], [-91.04767, 30.2607], [-91.04768, 30.26179], [-91.04086, 30.26134], [-91.04036, 30.26149], [-91.03864, 30.26345], [-91.03414, 30.26697], [-91.03409, 30.26729], [-91.03432, 30.26762], [-91.03522, 30.26766], [-91.03565, 30.27085], [-91.03372, 30.27082], [-91.03351, 30.26913], [-91.0327, 30.26853], [-91.03222, 30.26764], [-91.03227, 30.26658], [-91.03277, 30.2658], [-91.03718, 30.26235], [-91.03887, 30.26043], [-91.03979, 30.25985], [-91.04098, 30.25968], [-91.04591, 30.26], [-91.0484, 30.25611], [-91.0416, 30.25246], [-91.0345, 30.25018], [-91.02976, 30.24982], [-91.0213, 30.25265], [-91.01645, 30.25252], [-91.02905, 30.24826], [-91.03011, 30.24815], [-91.03475, 30.24853], [-91.03612, 30.24883], [-91.0425, 30.25099], [-91.05111, 30.25551], [-91.05235, 30.25571], [-91.05744, 30.25569], [-91.05747, 30.25698]]], [[[-91.04767, 30.26307], [-91.0476, 30.27046], [-91.04794, 30.27085], [-91.04881, 30.27105], [-91.04579, 30.271], [-91.04575, 30.26387], [-91.04164, 30.26361], [-91.04049, 30.26497], [-91.03769, 30.26714], [-91.03821, 30.27089], [-91.03628, 30.27086], [-91.03579, 30.26738], [-91.03546, 30.26711], [-91.0348, 30.26715], [-91.0391, 30.26382], [-91.04077, 30.26189], [-91.04768, 30.26234], [-91.04767, 30.26307]]], [[[-91.04125, 30.18369], [-91.03973, 30.18526], [-91.03746, 30.18392], [-91.03563, 30.18338], [-91.03448, 30.18243], [-91.03624, 30.18064], [-91.03873, 30.18068], [-91.03731, 30.18212], [-91.03836, 30.18245], [-91.03938, 30.18304], [-91.04161, 30.18072], [-91.04407, 30.18076], [-91.04125, 30.18369]]], [[[-91.03313, 30.18059], [-91.03544, 30.18063], [-91.03308, 30.18302], [-91.03313, 30.18059]]], [[[-91.0349, 30.18358], [-91.03577, 30.18406], [-91.03716, 30.18439], [-91.03932, 30.18567], [-91.03387, 30.19131], [-91.03185, 30.1896], [-91.03295, 30.18961], [-91.03297, 30.18821], [-91.03373, 30.18887], [-91.03647, 30.186], [-91.03424, 30.18522], [-91.03301, 30.18647], [-91.03306, 30.18386], [-91.03407, 30.18284], [-91.0349, 30.18358]]], [[[-91.0394, 30.1864], [-91.03983, 30.18598], [-91.04477, 30.18896], [-91.03936, 30.19536], [-91.03433, 30.19168], [-91.0394, 30.1864]], [[-91.03879, 30.18967], [-91.03698, 30.19152], [-91.03896, 30.19299], [-91.04206, 30.18935], [-91.04016, 30.18821], [-91.03879, 30.18967]]], [[[-91.0268, 30.20603], [-91.02706, 30.20577], [-91.02793, 30.20658], [-91.02761, 30.20641], [-91.0268, 30.20603]]], [[[-91.03783, 30.21291], [-91.03785, 30.21271], [-91.03784, 30.2126], [-91.038, 30.21268], [-91.03783, 30.21291]]], [[[-91.03698, 30.21328], [-91.03684, 30.21343], [-91.0365, 30.21327], [-91.03712, 30.21235], [-91.03722, 30.21283], [-91.03698, 30.21328]]], [[[-91.01506, 30.19902], [-91.01574, 30.19838], [-91.01586, 30.19838], [-91.01485, 30.19933], [-91.01506, 30.19902]]], [[[-91.01716, 30.2008], [-91.01612, 30.20029], [-91.01685, 30.19966], [-91.01689, 30.19906], [-91.01748, 30.19847], [-91.01843, 30.19842], [-91.01924, 30.19923], [-91.01913, 30.19915], [-91.01729, 30.20087], [-91.01716, 30.2008]]], [[[-91.01882, 30.20139], [-91.0203, 30.20002], [-91.02368, 30.20269], [-91.02257, 30.20376], [-91.01843, 30.20154], [-91.01882, 30.20139]]], [[[-91.01246, 30.20158], [-91.01412, 30.1999], [-91.01588, 30.20085], [-91.01278, 30.20372], [-91.01246, 30.20333], [-91.01235, 30.20282], [-91.01192, 30.2025], [-91.01192, 30.20224], [-91.01246, 30.20158]]], [[[-91.02022, 30.20409], [-91.01975, 30.20383], [-91.0189, 30.2043], [-91.01822, 30.20376], [-91.01728, 30.20458], [-91.01726, 30.20299], [-91.01825, 30.20212], [-91.02112, 30.20371], [-91.02135, 30.20424], [-91.02116, 30.20484], [-91.02022, 30.20409]]], [[[-91.02197, 30.20424], [-91.02196, 30.20412], [-91.02212, 30.2042], [-91.02197, 30.20435], [-91.02197, 30.20424]]], [[[-91.02359, 30.20359], [-91.02413, 30.20307], [-91.02663, 30.20536], [-91.02626, 30.20574], [-91.02523, 30.20518], [-91.02341, 30.20375], [-91.02359, 30.20359]]], [[[-91.02233, 30.20606], [-91.02149, 30.20562], [-91.02258, 30.20457], [-91.02379, 30.20527], [-91.02311, 30.20513], [-91.02233, 30.20606]]], [[[-91.02493, 30.20588], [-91.02573, 30.20632], [-91.0257, 30.20634], [-91.02493, 30.20588]]], [[[-91.02172, 30.21288], [-91.02158, 30.21292], [-91.02176, 30.21268], [-91.02532, 30.21448], [-91.0223, 30.21297], [-91.02172, 30.21288]]], [[[-91.02194, 30.21343], [-91.02984, 30.21745], [-91.02762, 30.22095], [-91.02758, 30.22159], [-91.02604, 30.22388], [-91.02535, 30.22433], [-91.02518, 30.22506], [-91.02385, 30.22697], [-91.01531, 30.22576], [-91.01469, 30.22541], [-91.01402, 30.22541], [-91.01221, 30.22386], [-91.0178, 30.21766], [-91.01964, 30.21905], [-91.01884, 30.21921], [-91.01477, 30.22372], [-91.01602, 30.22417], [-91.02288, 30.22518], [-91.0237, 30.22348], [-91.02466, 30.22262], [-91.02561, 30.22122], [-91.02641, 30.21883], [-91.02703, 30.21788], [-91.02307, 30.2159], [-91.02111, 30.21798], [-91.02366, 30.21518], [-91.02148, 30.21368], [-91.02194, 30.21343]]], [[[-91.01763, 30.21452], [-91.01636, 30.21443], [-91.01533, 30.21408], [-91.01373, 30.21664], [-91.01298, 30.21743], [-91.01174, 30.21829], [-91.01031, 30.21869], [-91.00965, 30.21931], [-91.01158, 30.22098], [-91.01617, 30.21595], [-91.01693, 30.21557], [-91.01776, 30.21543], [-91.01879, 30.21434], [-91.01948, 30.21479], [-91.01177, 30.22347], [-91.00698, 30.21937], [-91.01019, 30.21634], [-91.01164, 30.21636], [-91.01167, 30.21493], [-91.01493, 30.21184], [-91.01873, 30.21431], [-91.01763, 30.21452]]], [[[-91.00334, 30.21623], [-91.00372, 30.21624], [-91.00354, 30.2164], [-91.00334, 30.21623]]], [[[-91.006, 30.21951], [-91.00418, 30.22155], [-91.00108, 30.22459], [-91.00114, 30.22202], [-91.00354, 30.21953], [-91.00123, 30.21751], [-91.00125, 30.2162], [-91.00244, 30.21622], [-91.00612, 30.21939], [-91.006, 30.21951]]], [[[-91.00273, 30.22379], [-91.00387, 30.22266], [-91.00468, 30.22328], [-91.00407, 30.22385], [-91.00417, 30.2243], [-91.00456, 30.2243], [-91.00514, 30.22365], [-91.00793, 30.22581], [-91.00731, 30.22655], [-91.00707, 30.22637], [-91.00617, 30.22694], [-91.00702, 30.22756], [-91.00554, 30.22731], [-91.00528, 30.22668], [-91.00403, 30.22569], [-91.00333, 30.22462], [-91.00258, 30.22394], [-91.00273, 30.22379]]], [[[-91.01262, 30.23536], [-91.01296, 30.23606], [-91.01328, 30.23873], [-91.01294, 30.24189], [-91.01235, 30.24306], [-91.01109, 30.24384], [-91.01116, 30.2403], [-91.01137, 30.23884], [-91.01121, 30.23756], [-91.01127, 30.23455], [-91.01201, 30.23483], [-91.01262, 30.23536]]], [[[-91.01174, 30.25141], [-91.0112, 30.25162], [-91.01098, 30.25231], [-91.01094, 30.25114], [-91.01195, 30.25123], [-91.01192, 30.25143], [-91.01174, 30.25141]]]]}, "properties": {"kind": "pv", "area_km2": 22.94, "mw": 1147.1}}, {"type": "Feature", "geometry": {"type": "Point", "coordinates": [-91.06029, 30.22728]}, "properties": {"kind": "turbine", "i": 0, "mw": 6.0, "hub_m": 120.0, "rotor_m": 150.0}}, {"type": "Feature", "geometry": {"type": "Point", "coordinates": [-91.05631, 30.2371]}, "properties": {"kind": "turbine", "i": 1, "mw": 6.0, "hub_m": 120.0, "rotor_m": 150.0}}, {"type": "Feature", "geometry": {"type": "Point", "coordinates": [-91.04493, 30.23693]}, "properties": {"kind": "turbine", "i": 2, "mw": 6.0, "hub_m": 120.0, "rotor_m": 150.0}}, {"type": "Feature", "geometry": {"type": "Point", "coordinates": [-91.04153, 30.21712]}, "properties": {"kind": "turbine", "i": 3, "mw": 6.0, "hub_m": 120.0, "rotor_m": 150.0}}, {"type": "Feature", "geometry": {"type": "Point", "coordinates": [-91.03754, 30.22694]}, "properties": {"kind": "turbine", "i": 4, "mw": 6.0, "hub_m": 120.0, "rotor_m": 150.0}}, {"type": "Feature", "geometry": {"type": "Point", "coordinates": [-91.07154, 30.23403]}, "properties": {"kind": "turbine", "i": 5, "mw": 6.0, "hub_m": 120.0, "rotor_m": 150.0}}, {"type": "Feature", "geometry": {"type": "Point", "coordinates": [-91.06756, 30.24386]}, "properties": {"kind": "turbine", "i": 6, "mw": 6.0, "hub_m": 120.0, "rotor_m": 150.0}}, {"type": "Feature", "geometry": {"type": "Point", "coordinates": [-91.05316, 30.20411]}, "properties": {"kind": "turbine", "i": 7, "mw": 6.0, "hub_m": 120.0, "rotor_m": 150.0}}, {"type": "Feature", "geometry": {"type": "Point", "coordinates": [-91.03348, 30.24006]}, "properties": {"kind": "turbine", "i": 8, "mw": 6.0, "hub_m": 120.0, "rotor_m": 150.0}}, {"type": "Feature", "geometry": {"type": "Point", "coordinates": [-91.06454, 30.20428]}, "properties": {"kind": "turbine", "i": 9, "mw": 6.0, "hub_m": 120.0, "rotor_m": 150.0}}, {"type": "Feature", "geometry": {"type": "Point", "coordinates": [-91.04185, 30.20065]}, "properties": {"kind": "turbine", "i": 10, "mw": 6.0, "hub_m": 120.0, "rotor_m": 150.0}}, {"type": "Feature", "geometry": {"type": "Point", "coordinates": [-91.02257, 30.21683]}, "properties": {"kind": "turbine", "i": 11, "mw": 6.0, "hub_m": 120.0, "rotor_m": 150.0}}, {"type": "Feature", "geometry": {"type": "Point", "coordinates": [-91.04081, 30.25334]}, "properties": {"kind": "turbine", "i": 12, "mw": 6.0, "hub_m": 120.0, "rotor_m": 150.0}}, {"type": "Feature", "geometry": {"type": "Point", "coordinates": [-91.08678, 30.23096]}, "properties": {"kind": "turbine", "i": 13, "mw": 6.0, "hub_m": 120.0, "rotor_m": 150.0}}, {"type": "Feature", "geometry": {"type": "Point", "coordinates": [-91.02211, 30.23989]}, "properties": {"kind": "turbine", "i": 14, "mw": 6.0, "hub_m": 120.0, "rotor_m": 150.0}}, {"type": "Feature", "geometry": {"type": "Point", "coordinates": [-91.09076, 30.22114]}, "properties": {"kind": "turbine", "i": 15, "mw": 6.0, "hub_m": 120.0, "rotor_m": 150.0}}, {"type": "Feature", "geometry": {"type": "Point", "coordinates": [-91.01472, 30.22989]}, "properties": {"kind": "turbine", "i": 16, "mw": 6.0, "hub_m": 120.0, "rotor_m": 150.0}}, {"type": "Feature", "geometry": {"type": "Point", "coordinates": [-91.02943, 30.25317]}, "properties": {"kind": "turbine", "i": 17, "mw": 6.0, "hub_m": 120.0, "rotor_m": 150.0}}, {"type": "Feature", "geometry": {"type": "Point", "coordinates": [-91.05965, 30.26021]}, "properties": {"kind": "turbine", "i": 18, "mw": 6.0, "hub_m": 120.0, "rotor_m": 150.0}}, {"type": "Feature", "geometry": {"type": "Point", "coordinates": [-91.05342, 30.19094]}, "properties": {"kind": "turbine", "i": 19, "mw": 6.0, "hub_m": 120.0, "rotor_m": 150.0}}, {"type": "Feature", "geometry": {"type": "Point", "coordinates": [-91.07231, 30.19451]}, "properties": {"kind": "turbine", "i": 20, "mw": 6.0, "hub_m": 120.0, "rotor_m": 150.0}}, {"type": "Feature", "geometry": {"type": "Point", "coordinates": [-91.01113, 30.21995]}, "properties": {"kind": "turbine", "i": 21, "mw": 6.0, "hub_m": 120.0, "rotor_m": 150.0}}, {"type": "Feature", "geometry": {"type": "Point", "coordinates": [-91.08254, 30.25396]}, "properties": {"kind": "turbine", "i": 22, "mw": 6.0, "hub_m": 120.0, "rotor_m": 150.0}}, {"type": "Feature", "geometry": {"type": "Point", "coordinates": [-91.09816, 30.23113]}, "properties": {"kind": "turbine", "i": 23, "mw": 6.0, "hub_m": 120.0, "rotor_m": 150.0}}, {"type": "Feature", "geometry": {"type": "Point", "coordinates": [-91.03303, 30.26311]}, "properties": {"kind": "turbine", "i": 24, "mw": 6.0, "hub_m": 120.0, "rotor_m": 150.0}}, {"type": "Feature", "geometry": {"type": "Point", "coordinates": [-91.08369, 30.19468]}, "properties": {"kind": "turbine", "i": 25, "mw": 6.0, "hub_m": 120.0, "rotor_m": 150.0}}, {"type": "Feature", "geometry": {"type": "Point", "coordinates": [-91.04434, 30.26657]}, "properties": {"kind": "turbine", "i": 26, "mw": 6.0, "hub_m": 120.0, "rotor_m": 150.0}}, {"type": "Feature", "geometry": {"type": "Point", "coordinates": [-91.03453, 30.18736]}, "properties": {"kind": "turbine", "i": 27, "mw": 6.0, "hub_m": 120.0, "rotor_m": 150.0}}, {"type": "Feature", "geometry": {"type": "Point", "coordinates": [-91.01798, 30.25629]}, "properties": {"kind": "turbine", "i": 28, "mw": 6.0, "hub_m": 120.0, "rotor_m": 150.0}}, {"type": "Feature", "geometry": {"type": "Point", "coordinates": [-91.10214, 30.2213]}, "properties": {"kind": "turbine", "i": 29, "mw": 6.0, "hub_m": 120.0, "rotor_m": 150.0}}, {"type": "Feature", "geometry": {"type": "Point", "coordinates": [-91.00334, 30.22972]}, "properties": {"kind": "turbine", "i": 30, "mw": 6.0, "hub_m": 120.0, "rotor_m": 150.0}}, {"type": "Feature", "geometry": {"type": "Point", "coordinates": [-91.05566, 30.27004]}, "properties": {"kind": "turbine", "i": 31, "mw": 6.0, "hub_m": 120.0, "rotor_m": 150.0}}, {"type": "Feature", "geometry": {"type": "Point", "coordinates": [-91.05741, 30.18112]}, "properties": {"kind": "turbine", "i": 32, "mw": 6.0, "hub_m": 120.0, "rotor_m": 150.0}}, {"type": "Feature", "geometry": {"type": "Point", "coordinates": [-91.06704, 30.2702]}, "properties": {"kind": "turbine", "i": 33, "mw": 6.0, "hub_m": 120.0, "rotor_m": 150.0}}, {"type": "Feature", "geometry": {"type": "Point", "coordinates": [-91.0763, 30.18469]}, "properties": {"kind": "turbine", "i": 34, "mw": 6.0, "hub_m": 120.0, "rotor_m": 150.0}}, {"type": "Feature", "geometry": {"type": "Point", "coordinates": [-91.00308, 30.24289]}, "properties": {"kind": "turbine", "i": 35, "mw": 6.0, "hub_m": 120.0, "rotor_m": 150.0}}, {"type": "Feature", "geometry": {"type": "Point", "coordinates": [-90.99982, 30.21649]}, "properties": {"kind": "turbine", "i": 36, "mw": 6.0, "hub_m": 120.0, "rotor_m": 150.0}}, {"type": "Feature", "geometry": {"type": "Point", "coordinates": [-91.02158, 30.26623]}, "properties": {"kind": "turbine", "i": 37, "mw": 6.0, "hub_m": 120.0, "rotor_m": 150.0}}, {"type": "Feature", "geometry": {"type": "Point", "coordinates": [-91.04231, 30.1776]}, "properties": {"kind": "turbine", "i": 38, "mw": 6.0, "hub_m": 120.0, "rotor_m": 150.0}}, {"type": "Feature", "geometry": {"type": "Point", "coordinates": [-91.07842, 30.27037]}, "properties": {"kind": "turbine", "i": 39, "mw": 6.0, "hub_m": 120.0, "rotor_m": 150.0}}, {"type": "Feature", "geometry": {"type": "Point", "coordinates": [-91.09885, 30.1949]}, "properties": {"kind": "turbine", "i": 40, "mw": 6.0, "hub_m": 120.0, "rotor_m": 150.0}}, {"type": "Feature", "geometry": {"type": "Point", "coordinates": [-91.04035, 30.2764]}, "properties": {"kind": "turbine", "i": 41, "mw": 6.0, "hub_m": 120.0, "rotor_m": 150.0}}]}