{"type": "FeatureCollection", "features": [{"type": "Feature", "geometry": {"type": "MultiPolygon", "coordinates": [[[[-90.92317, 30.07835], [-90.92198, 30.07887], [-90.92159, 30.07785], [-90.92276, 30.07705], [-90.92107, 30.07522], [-90.92, 30.07595], [-90.91886, 30.0752], [-90.9175, 30.07343], [-90.93184, 30.0594], [-90.94177, 30.0669], [-90.94031, 30.06874], [-90.92513, 30.07894], [-90.92425, 30.07844], [-90.92317, 30.07835]]], [[[-90.93068, 30.08015], [-90.94323, 30.07166], [-90.94515, 30.06944], [-90.94745, 30.07112], [-90.94907, 30.07526], [-90.94763, 30.07644], [-90.94703, 30.07777], [-90.94798, 30.08162], [-90.9453, 30.08321], [-90.93602, 30.09165], [-90.93562, 30.09177], [-90.9359, 30.09087], [-90.93568, 30.08951], [-90.9347, 30.08853], [-90.93242, 30.08814], [-90.92999, 30.08964], [-90.92841, 30.08882], [-90.9268, 30.08922], [-90.92538, 30.08684], [-90.92442, 30.08615], [-90.92409, 30.08522], [-90.92588, 30.08475], [-90.92695, 30.08267], [-90.93068, 30.08015]]], [[[-90.93716, 30.09562], [-90.9378, 30.0954], [-90.93965, 30.09624], [-90.9371, 30.09599], [-90.93716, 30.09562]]], [[[-90.92775, 30.10197], [-90.92626, 30.10175], [-90.92598, 30.10087], [-90.92778, 30.101], [-90.93026, 30.09918], [-90.93076, 30.09944], [-90.92775, 30.10197]]], [[[-90.88014, 30.08662], [-90.88277, 30.08755], [-90.88418, 30.08747], [-90.886, 30.08581], [-90.88907, 30.08167], [-90.88974, 30.08175], [-90.89123, 30.08292], [-90.89258, 30.08505], [-90.89411, 30.09114], [-90.88987, 30.09305], [-90.88929, 30.09384], [-90.88925, 30.09497], [-90.88993, 30.09592], [-90.89132, 30.0964], [-90.89507, 30.09505], [-90.89562, 30.09723], [-90.89535, 30.0989], [-90.88608, 30.10047], [-90.88484, 30.0988], [-90.88511, 30.0977], [-90.88468, 30.09533], [-90.88531, 30.09427], [-90.88518, 30.09307], [-90.88355, 30.09162], [-90.88166, 30.09159], [-90.88179, 30.09025], [-90.88046, 30.08897], [-90.88014, 30.08662]]], [[[-90.90032, 30.09608], [-90.9035, 30.09483], [-90.90349, 30.09575], [-90.90414, 30.09671], [-90.90271, 30.09714], [-90.90032, 30.09608]]], [[[-90.89978, 30.08875], [-90.89823, 30.0894], [-90.89794, 30.08819], [-90.902, 30.08567], [-90.90217, 30.08613], [-90.90091, 30.08693], [-90.90045, 30.08846], [-90.89978, 30.08875]]], [[[-90.89834, 30.08319], [-90.89689, 30.08409], [-90.89518, 30.08102], [-90.89612, 30.08199], [-90.89756, 30.08244], [-90.89834, 30.08319]]], [[[-90.91858, 30.0616], [-90.92473, 30.0541], [-90.92844, 30.0569], [-90.91175, 30.07313], [-90.91063, 30.07085], [-90.91858, 30.0616]]], [[[-90.91867, 30.05471], [-90.90862, 30.06677], [-90.90767, 30.06538], [-90.90367, 30.0621], [-90.89819, 30.05852], [-90.89541, 30.05755], [-90.90211, 30.05447], [-90.90876, 30.05283], [-90.91564, 30.05235], [-90.92035, 30.05274], [-90.91867, 30.05471]]], [[[-90.92007, 30.09899], [-90.91996, 30.09862], [-90.92079, 30.09848], [-90.92058, 30.09864], [-90.92007, 30.09899]]], [[[-90.92385, 30.09232], [-90.92159, 30.09397], [-90.91878, 30.09457], [-90.91866, 30.09418], [-90.923, 30.09125], [-90.92385, 30.09232]]], [[[-90.92278, 30.11191], [-90.92272, 30.11156], [-90.93669, 30.09984], [-90.9385, 30.10032], [-90.93875, 30.10189], [-90.94093, 30.10371], [-90.93878, 30.10428], [-90.93819, 30.10506], [-90.93812, 30.10609], [-90.93686, 30.10704], [-90.93405, 30.10879], [-90.92789, 30.11153], [-90.92295, 30.11282], [-90.92278, 30.11191]]], [[[-90.92479, 30.09966], [-90.92479, 30.09956], [-90.92505, 30.1001], [-90.92477, 30.09999], [-90.92479, 30.09966]]], [[[-90.92376, 30.09807], [-90.92525, 30.09772], [-90.92472, 30.09922], [-90.92439, 30.09859], [-90.92376, 30.09807]]], [[[-90.90401, 30.1023], [-90.90153, 30.10277], [-90.90131, 30.10188], [-90.90389, 30.10143], [-90.90401, 30.1023]]], [[[-90.89679, 30.10268], [-90.89699, 30.10282], [-90.89626, 30.10325], [-90.89491, 30.10357], [-90.89319, 30.10333], [-90.89679, 30.10268]]], [[[-90.88979, 30.10395], [-90.89009, 30.10389], [-90.88937, 30.10402], [-90.88979, 30.10395]]], [[[-90.8804, 30.07734], [-90.88203, 30.07844], [-90.88311, 30.07848], [-90.88418, 30.078], [-90.88588, 30.07883], [-90.88258, 30.08331], [-90.87977, 30.08236], [-90.8804, 30.07734]]], [[[-90.8826, 30.07159], [-90.88166, 30.0736], [-90.88147, 30.07357], [-90.88241, 30.0714], [-90.8826, 30.07159]]]]}, "properties": {"kind": "windland", "area_km2": 10.7}}, {"type": "Feature", "geometry": {"type": "MultiPolygon", "coordinates": [[[[-90.91853, 30.07452], [-90.91886, 30.0752], [-90.92, 30.07595], [-90.91961, 30.07622], [-90.91868, 30.07519], [-90.91838, 30.07537], [-90.91816, 30.07518], [-90.91744, 30.07567], [-90.91474, 30.07554], [-90.9128, 30.07579], [-90.912, 30.07651], [-90.91188, 30.07635], [-90.9143, 30.07402], [-90.91821, 30.07408], [-90.91853, 30.07452]]], [[[-90.92317, 30.07835], [-90.92425, 30.07844], [-90.92513, 30.07894], [-90.93204, 30.0743], [-90.93276, 30.07431], [-90.93272, 30.07594], [-90.92476, 30.0813], [-90.92372, 30.08006], [-90.92338, 30.08002], [-90.92321, 30.08029], [-90.92245, 30.07949], [-90.91981, 30.0813], [-90.91996, 30.08158], [-90.91951, 30.08193], [-90.91977, 30.08227], [-90.91959, 30.08233], [-90.91906, 30.08177], [-90.91915, 30.08143], [-90.92034, 30.08063], [-90.91982, 30.07984], [-90.92148, 30.0786], [-90.92113, 30.07816], [-90.92159, 30.07785], [-90.92198, 30.07887], [-90.92317, 30.07835]]], [[[-90.92444, 30.08282], [-90.92516, 30.08206], [-90.92517, 30.08177], [-90.93271, 30.07663], [-90.93266, 30.07882], [-90.92695, 30.08267], [-90.92664, 30.08312], [-90.92642, 30.08415], [-90.92588, 30.08475], [-90.92513, 30.08512], [-90.92409, 30.08522], [-90.92442, 30.08615], [-90.92538, 30.08684], [-90.92582, 30.08754], [-90.92595, 30.08815], [-90.9268, 30.08922], [-90.92754, 30.08889], [-90.92841, 30.08882], [-90.92923, 30.08904], [-90.92999, 30.08964], [-90.93163, 30.08846], [-90.93247, 30.08813], [-90.93243, 30.09018], [-90.93204, 30.09043], [-90.93228, 30.0908], [-90.93214, 30.09089], [-90.93185, 30.09063], [-90.93153, 30.09067], [-90.93142, 30.09093], [-90.93165, 30.09123], [-90.93152, 30.09132], [-90.93126, 30.09106], [-90.93094, 30.09108], [-90.93082, 30.09134], [-90.93103, 30.09165], [-90.93088, 30.09176], [-90.9306, 30.09149], [-90.93028, 30.09152], [-90.93016, 30.09177], [-90.93039, 30.09209], [-90.93021, 30.09222], [-90.92981, 30.09194], [-90.92954, 30.09205], [-90.92951, 30.0923], [-90.92377, 30.09221], [-90.923, 30.09125], [-90.92161, 30.09218], [-90.91857, 30.09213], [-90.92343, 30.08887], [-90.92587, 30.09192], [-90.92621, 30.09213], [-90.92669, 30.09213], [-90.92844, 30.09087], [-90.92839, 30.09055], [-90.92805, 30.09049], [-90.92643, 30.09162], [-90.92392, 30.08853], [-90.92401, 30.08809], [-90.92369, 30.08769], [-90.92478, 30.087], [-90.92203, 30.08393], [-90.92248, 30.08352], [-90.92244, 30.08385], [-90.92282, 30.08396], [-90.92396, 30.08317], [-90.92426, 30.08351], [-90.92458, 30.08352], [-90.92473, 30.08322], [-90.92444, 30.08282]]], [[[-90.92327, 30.08043], [-90.92325, 30.08054], [-90.92311, 30.08041], [-90.92322, 30.08035], [-90.92327, 30.08043]]], [[[-90.92427, 30.08163], [-90.92261, 30.08274], [-90.92218, 30.08291], [-90.9242, 30.08154], [-90.92427, 30.08163]]], [[[-90.91449, 30.08664], [-90.91437, 30.08622], [-90.91415, 30.08549], [-90.91449, 30.08643], [-90.91449, 30.08664]]], [[[-90.92326, 30.08805], [-90.92338, 30.08822], [-90.91758, 30.09211], [-90.91622, 30.09209], [-90.9219, 30.08834], [-90.9222, 30.08863], [-90.92326, 30.08805]]], [[[-90.91552, 30.09022], [-90.91533, 30.08956], [-90.91464, 30.08716], [-90.91618, 30.09209], [-90.91552, 30.09022]]], [[[-90.91451, 30.09083], [-90.91419, 30.09005], [-90.91409, 30.08891], [-90.91439, 30.09003], [-90.91485, 30.09012], [-90.91543, 30.09208], [-90.91494, 30.09207], [-90.91451, 30.09083]]], [[[-90.93205, 30.09227], [-90.93212, 30.09202], [-90.9319, 30.09175], [-90.93204, 30.09165], [-90.93239, 30.09193], [-90.93238, 30.09235], [-90.93195, 30.09234], [-90.93205, 30.09227]]], [[[-90.93164, 30.09232], [-90.93168, 30.09234], [-90.93106, 30.09233], [-90.93141, 30.09208], [-90.93164, 30.09232]]], [[[-90.91088, 30.07538], [-90.91008, 30.07395], [-90.91348, 30.07401], [-90.91148, 30.07593], [-90.91088, 30.07538]]], [[[-90.9113, 30.08066], [-90.90977, 30.07719], [-90.90879, 30.07624], [-90.90842, 30.07509], [-90.90763, 30.07391], [-90.90889, 30.07393], [-90.9099, 30.07591], [-90.91096, 30.07684], [-90.91235, 30.0794], [-90.91261, 30.0808], [-90.91218, 30.08286], [-90.91401, 30.08863], [-90.91328, 30.08759], [-90.91312, 30.08617], [-90.9113, 30.08066]]], [[[-90.90151, 30.08043], [-90.90152, 30.07984], [-90.90161, 30.07977], [-90.90187, 30.08015], [-90.90151, 30.08043]]], [[[-90.90294, 30.08019], [-90.90406, 30.0822], [-90.90389, 30.08262], [-90.90418, 30.0836], [-90.90574, 30.08747], [-90.90588, 30.08783], [-90.9061, 30.08859], [-90.90577, 30.08755], [-90.90487, 30.0862], [-90.90276, 30.0811], [-90.90248, 30.08], [-90.90155, 30.07862], [-90.90156, 30.0779], [-90.90227, 30.07884], [-90.90294, 30.08019]]], [[[-90.90196, 30.08082], [-90.90194, 30.08082], [-90.90204, 30.08074], [-90.90204, 30.08077], [-90.90196, 30.08082]]], [[[-90.90233, 30.08163], [-90.90265, 30.08219], [-90.90189, 30.08269], [-90.90188, 30.08304], [-90.90145, 30.08331], [-90.90148, 30.08186], [-90.9022, 30.08135], [-90.90233, 30.08163]]], [[[-90.91374, 30.08392], [-90.91397, 30.08467], [-90.91393, 30.08475], [-90.91348, 30.08343], [-90.91374, 30.08392]]], [[[-90.90321, 30.0835], [-90.90462, 30.0869], [-90.90431, 30.08688], [-90.90414, 30.08714], [-90.90255, 30.08783], [-90.90236, 30.08826], [-90.90252, 30.08854], [-90.90281, 30.0886], [-90.90302, 30.08823], [-90.90425, 30.0877], [-90.90455, 30.08787], [-90.90513, 30.08767], [-90.90533, 30.08821], [-90.90131, 30.08995], [-90.90138, 30.08651], [-90.90217, 30.08613], [-90.902, 30.08567], [-90.90139, 30.08605], [-90.90143, 30.08398], [-90.903, 30.08301], [-90.90321, 30.0835]]], [[[-90.90129, 30.091], [-90.9013, 30.09056], [-90.9055, 30.08874], [-90.90567, 30.08928], [-90.90129, 30.091]]], [[[-90.90654, 30.09101], [-90.90649, 30.0898], [-90.90655, 30.08956], [-90.90696, 30.09041], [-90.90683, 30.09147], [-90.90706, 30.09195], [-90.90651, 30.09194], [-90.90654, 30.09101]]], [[[-90.90588, 30.09], [-90.90587, 30.09147], [-90.90441, 30.09191], [-90.90127, 30.09186], [-90.90127, 30.0916], [-90.90586, 30.0898], [-90.90588, 30.09]], [[-90.90479, 30.0904], [-90.90389, 30.0907], [-90.90398, 30.09118], [-90.90445, 30.09126], [-90.90499, 30.09095], [-90.90506, 30.09068], [-90.90479, 30.0904]]]]}, "properties": {"kind": "pv", "area_km2": 1.52, "mw": 75.8}}, {"type": "Feature", "geometry": {"type": "Point", "coordinates": [-90.92994, 30.08664]}, "properties": {"kind": "turbine", "i": 0, "mw": 6.0, "hub_m": 120.0, "rotor_m": 150.0}}, {"type": "Feature", "geometry": {"type": "Point", "coordinates": [-90.92271, 30.07006]}, "properties": {"kind": "turbine", "i": 1, "mw": 6.0, "hub_m": 120.0, "rotor_m": 150.0}}, {"type": "Feature", "geometry": {"type": "Point", "coordinates": [-90.90323, 30.0961]}, "properties": {"kind": "turbine", "i": 2, "mw": 6.0, "hub_m": 120.0, "rotor_m": 150.0}}, {"type": "Feature", "geometry": {"type": "Point", "coordinates": [-90.91149, 30.06329]}, "properties": {"kind": "turbine", "i": 3, "mw": 6.0, "hub_m": 120.0, "rotor_m": 150.0}}, {"type": "Feature", "geometry": {"type": "Point", "coordinates": [-90.93772, 30.07688]}, "properties": {"kind": "turbine", "i": 4, "mw": 6.0, "hub_m": 120.0, "rotor_m": 150.0}}, {"type": "Feature", "geometry": {"type": "Point", "coordinates": [-90.88836, 30.08269]}, "properties": {"kind": "turbine", "i": 5, "mw": 6.0, "hub_m": 120.0, "rotor_m": 150.0}}, {"type": "Feature", "geometry": {"type": "Point", "coordinates": [-90.9413, 30.08682]}, "properties": {"kind": "turbine", "i": 6, "mw": 6.0, "hub_m": 120.0, "rotor_m": 150.0}}, {"type": "Feature", "geometry": {"type": "Point", "coordinates": [-90.93421, 30.06365]}, "properties": {"kind": "turbine", "i": 7, "mw": 6.0, "hub_m": 120.0, "rotor_m": 150.0}}, {"type": "Feature", "geometry": {"type": "Point", "coordinates": [-90.93724, 30.09994]}, "properties": {"kind": "turbine", "i": 8, "mw": 6.0, "hub_m": 120.0, "rotor_m": 150.0}}]}