{"type": "FeatureCollection", "features": [{"type": "Feature", "geometry": {"type": "MultiPolygon", "coordinates": [[[[-90.92317, 30.07835], [-90.92198, 30.07887], [-90.92159, 30.07785], [-90.92276, 30.07705], [-90.92107, 30.07522], [-90.92, 30.07595], [-90.91886, 30.0752], [-90.9175, 30.07343], [-90.92691, 30.06409], [-90.92915, 30.06529], [-90.93285, 30.06803], [-90.93604, 30.07161], [-90.92513, 30.07894], [-90.92425, 30.07844], [-90.92317, 30.07835]]], [[[-90.93068, 30.08015], [-90.93809, 30.07512], [-90.93972, 30.08128], [-90.93963, 30.0855], [-90.93865, 30.08949], [-90.93602, 30.09165], [-90.93562, 30.09177], [-90.9359, 30.09087], [-90.93568, 30.08951], [-90.9347, 30.08853], [-90.93242, 30.08814], [-90.92999, 30.08964], [-90.92841, 30.08882], [-90.9268, 30.08922], [-90.92538, 30.08684], [-90.92442, 30.08615], [-90.92409, 30.08522], [-90.92588, 30.08475], [-90.92695, 30.08267], [-90.93068, 30.08015]]], [[[-90.92964, 30.10038], [-90.92716, 30.10177], [-90.92626, 30.10175], [-90.92598, 30.10087], [-90.92778, 30.101], [-90.93026, 30.09918], [-90.93076, 30.09944], [-90.92964, 30.10038]]], [[[-90.89123, 30.08292], [-90.89258, 30.08505], [-90.89411, 30.09114], [-90.89242, 30.09187], [-90.89059, 30.08682], [-90.89024, 30.08214], [-90.89123, 30.08292]]], [[[-90.89507, 30.09505], [-90.89534, 30.09613], [-90.89461, 30.09524], [-90.89507, 30.09505]]], [[[-90.90032, 30.09608], [-90.9035, 30.09483], [-90.90349, 30.09575], [-90.90414, 30.09671], [-90.90271, 30.09714], [-90.90032, 30.09608]]], [[[-90.89978, 30.08875], [-90.89823, 30.0894], [-90.89794, 30.08819], [-90.902, 30.08567], [-90.90217, 30.08613], [-90.90091, 30.08693], [-90.90045, 30.08846], [-90.89978, 30.08875]]], [[[-90.89834, 30.08319], [-90.89689, 30.08409], [-90.89518, 30.08102], [-90.89612, 30.08199], [-90.89756, 30.08244], [-90.89834, 30.08319]]], [[[-90.91909, 30.0658], [-90.918, 30.06715], [-90.91175, 30.07313], [-90.91063, 30.07085], [-90.91853, 30.06167], [-90.92259, 30.06247], [-90.91909, 30.0658]]], [[[-90.91269, 30.06219], [-90.90862, 30.06677], [-90.90767, 30.06538], [-90.9051, 30.06325], [-90.90824, 30.06225], [-90.91325, 30.06149], [-90.91269, 30.06219]]], [[[-90.92007, 30.09899], [-90.91996, 30.09862], [-90.92079, 30.09848], [-90.92058, 30.09864], [-90.92007, 30.09899]]], [[[-90.92385, 30.09232], [-90.92159, 30.09397], [-90.91878, 30.09457], [-90.91866, 30.09418], [-90.923, 30.09125], [-90.92385, 30.09232]]], [[[-90.92479, 30.09966], [-90.92479, 30.09956], [-90.92505, 30.1001], [-90.92477, 30.09999], [-90.92479, 30.09966]]], [[[-90.92376, 30.09807], [-90.92525, 30.09772], [-90.92472, 30.09922], [-90.92439, 30.09859], [-90.92376, 30.09807]]], [[[-90.90401, 30.1023], [-90.90291, 30.10183], [-90.90259, 30.10166], [-90.90389, 30.10143], [-90.90401, 30.1023]]]]}, "properties": {"kind": "windland", "area_km2": 4.11}}, {"type": "Feature", "geometry": {"type": "MultiPolygon", "coordinates": [[[[-90.92577, 30.06518], [-90.9175, 30.07343], [-90.91834, 30.07424], [-90.91886, 30.0752], [-90.92, 30.07595], [-90.91961, 30.07622], [-90.91868, 30.07519], [-90.91838, 30.07537], [-90.91816, 30.07518], [-90.91744, 30.07567], [-90.91474, 30.07554], [-90.9128, 30.07579], [-90.912, 30.07651], [-90.91188, 30.07635], [-90.92015, 30.06838], [-90.92097, 30.06728], [-90.92322, 30.06514], [-90.92577, 30.06518]]], [[[-90.93344, 30.07546], [-90.92476, 30.0813], [-90.92372, 30.08006], [-90.92338, 30.08002], [-90.92321, 30.08029], [-90.92245, 30.07949], [-90.91981, 30.0813], [-90.91996, 30.08158], [-90.91951, 30.08193], [-90.91977, 30.08227], [-90.91965, 30.08237], [-90.91906, 30.08177], [-90.91915, 30.08143], [-90.92034, 30.08063], [-90.91982, 30.07984], [-90.92148, 30.0786], [-90.92113, 30.07816], [-90.92159, 30.07785], [-90.92198, 30.07887], [-90.92275, 30.07845], [-90.92361, 30.07833], [-90.92445, 30.07851], [-90.92513, 30.07894], [-90.93277, 30.07381], [-90.93276, 30.07431], [-90.9351, 30.07435], [-90.93344, 30.07546]]], [[[-90.93915, 30.07441], [-90.92695, 30.08267], [-90.92664, 30.08312], [-90.92642, 30.08415], [-90.92588, 30.08475], [-90.92513, 30.08512], [-90.92409, 30.08522], [-90.92442, 30.08615], [-90.92538, 30.08684], [-90.92582, 30.08754], [-90.92595, 30.08815], [-90.9268, 30.08922], [-90.92754, 30.08889], [-90.92841, 30.08882], [-90.92923, 30.08904], [-90.92999, 30.08964], [-90.93181, 30.08835], [-90.93285, 30.08808], [-90.93371, 30.08819], [-90.93488, 30.08863], [-90.93549, 30.08918], [-90.9358, 30.08988], [-90.93589, 30.09106], [-90.93562, 30.09177], [-90.93692, 30.09109], [-90.9429, 30.08546], [-90.94285, 30.08797], [-90.93806, 30.09244], [-90.93238, 30.09235], [-90.93234, 30.09407], [-90.92928, 30.09461], [-90.92867, 30.09395], [-90.93141, 30.09208], [-90.93169, 30.09234], [-90.93201, 30.09231], [-90.93212, 30.09205], [-90.9319, 30.09175], [-90.93204, 30.09165], [-90.93233, 30.09191], [-90.93265, 30.09187], [-90.93276, 30.09161], [-90.93253, 30.09132], [-90.93324, 30.09144], [-90.93327, 30.09081], [-90.93358, 30.09108], [-90.93393, 30.09098], [-90.93375, 30.09047], [-90.93386, 30.09005], [-90.93338, 30.09004], [-90.93289, 30.08975], [-90.93265, 30.09003], [-90.93289, 30.09038], [-90.93276, 30.09046], [-90.93248, 30.09019], [-90.93217, 30.09022], [-90.93205, 30.09048], [-90.93228, 30.0908], [-90.93214, 30.09089], [-90.93185, 30.09063], [-90.93153, 30.09067], [-90.93142, 30.09093], [-90.93165, 30.09123], [-90.93152, 30.09132], [-90.93126, 30.09106], [-90.93094, 30.09108], [-90.93082, 30.09134], [-90.93103, 30.09165], [-90.93088, 30.09176], [-90.93057, 30.09148], [-90.93024, 30.09155], [-90.93017, 30.0918], [-90.93039, 30.09209], [-90.93021, 30.09222], [-90.92992, 30.09196], [-90.92958, 30.09201], [-90.92949, 30.09225], [-90.92972, 30.09256], [-90.92953, 30.09269], [-90.9292, 30.09241], [-90.92887, 30.09249], [-90.9288, 30.09273], [-90.92904, 30.09303], [-90.92803, 30.09378], [-90.92822, 30.0944], [-90.92682, 30.09487], [-90.92354, 30.09538], [-90.92687, 30.09308], [-90.92692, 30.09276], [-90.92658, 30.09263], [-90.92314, 30.09495], [-90.9229, 30.09548], [-90.91738, 30.09653], [-90.91649, 30.09349], [-90.92343, 30.08887], [-90.92587, 30.09192], [-90.92624, 30.09214], [-90.92669, 30.09213], [-90.92847, 30.09082], [-90.92837, 30.09054], [-90.92805, 30.09049], [-90.92634, 30.09156], [-90.92392, 30.08853], [-90.92401, 30.08809], [-90.92369, 30.08769], [-90.92478, 30.087], [-90.92203, 30.08393], [-90.92248, 30.08352], [-90.92244, 30.08385], [-90.92282, 30.08396], [-90.92396, 30.08317], [-90.92429, 30.08352], [-90.92463, 30.08349], [-90.92473, 30.08322], [-90.92444, 30.08282], [-90.92516, 30.08206], [-90.92517, 30.08177], [-90.93609, 30.07436], [-90.93915, 30.07441]], [[-90.92348, 30.09256], [-90.92385, 30.09232], [-90.923, 30.09125], [-90.91866, 30.09418], [-90.91878, 30.09457], [-90.92159, 30.09397], [-90.92348, 30.09256]]], [[[-90.92325, 30.08054], [-90.92311, 30.08041], [-90.92322, 30.08035], [-90.92333, 30.0805], [-90.92325, 30.08054]]], [[[-90.92363, 30.08206], [-90.92261, 30.08274], [-90.92218, 30.08291], [-90.9242, 30.08154], [-90.92363, 30.08206]]], [[[-90.92338, 30.08822], [-90.91675, 30.09268], [-90.91632, 30.09293], [-90.91464, 30.08716], [-90.91618, 30.09212], [-90.9219, 30.08834], [-90.9222, 30.08863], [-90.92323, 30.08798], [-90.92338, 30.08822]]], [[[-90.94243, 30.09188], [-90.94275, 30.09251], [-90.9392, 30.09246], [-90.94135, 30.09043], [-90.94243, 30.09188]]], [[[-90.92879, 30.0955], [-90.92744, 30.09645], [-90.92747, 30.09683], [-90.92784, 30.09685], [-90.92921, 30.09592], [-90.92946, 30.09534], [-90.93233, 30.09484], [-90.93233, 30.095], [-90.93, 30.0967], [-90.92941, 30.09693], [-90.92781, 30.09821], [-90.92753, 30.09805], [-90.92715, 30.09816], [-90.92712, 30.09866], [-90.92663, 30.09899], [-90.92683, 30.09938], [-90.92725, 30.09939], [-90.9298, 30.09736], [-90.93036, 30.09715], [-90.93184, 30.09606], [-90.9319, 30.09643], [-90.93229, 30.09679], [-90.93221, 30.10054], [-90.93124, 30.10135], [-90.92853, 30.10131], [-90.93076, 30.09944], [-90.93026, 30.09918], [-90.92924, 30.10012], [-90.92778, 30.101], [-90.92693, 30.1011], [-90.92598, 30.10087], [-90.92618, 30.10127], [-90.92182, 30.1012], [-90.92052, 30.10226], [-90.91996, 30.10191], [-90.92279, 30.09989], [-90.92285, 30.09959], [-90.92256, 30.09943], [-90.91903, 30.10186], [-90.9183, 30.09964], [-90.92163, 30.09735], [-90.9215, 30.09672], [-90.91908, 30.09718], [-90.91782, 30.09806], [-90.91761, 30.09734], [-90.92879, 30.0955]], [[-90.92479, 30.09985], [-90.92477, 30.09999], [-90.92505, 30.1001], [-90.92479, 30.09956], [-90.92479, 30.09985]], [[-90.92471, 30.09906], [-90.92486, 30.09835], [-90.92525, 30.09772], [-90.92361, 30.09799], [-90.92426, 30.09844], [-90.92472, 30.09922], [-90.92471, 30.09906]], [[-90.92007, 30.09899], [-90.92058, 30.09864], [-90.92079, 30.09848], [-90.91996, 30.09862], [-90.92007, 30.09899]]], [[[-90.93212, 30.10137], [-90.93219, 30.1013], [-90.93219, 30.10137], [-90.93212, 30.10137]]], [[[-90.921, 30.10275], [-90.92094, 30.10266], [-90.9218, 30.10204], [-90.9218, 30.10219], [-90.921, 30.10275]]], [[[-90.92078, 30.10659], [-90.92082, 30.10634], [-90.92058, 30.10616], [-90.91998, 30.1065], [-90.91974, 30.10527], [-90.92177, 30.10381], [-90.92172, 30.10607], [-90.92007, 30.1073], [-90.92078, 30.10659]]], [[[-90.92015, 30.10795], [-90.92107, 30.10728], [-90.92125, 30.10745], [-90.9202, 30.10829], [-90.92015, 30.10795]]], [[[-90.92158, 30.10876], [-90.92159, 30.10889], [-90.92135, 30.10878], [-90.92167, 30.10852], [-90.92158, 30.10876]]], [[[-90.92103, 30.10964], [-90.92127, 30.10944], [-90.9214, 30.10961], [-90.92119, 30.10978], [-90.92103, 30.10964]]], [[[-90.92068, 30.11021], [-90.92054, 30.1102], [-90.92049, 30.10993], [-90.92074, 30.11016], [-90.92068, 30.11021]]], [[[-90.92163, 30.11022], [-90.92156, 30.11022], [-90.92163, 30.11016], [-90.92163, 30.11022]]], [[[-90.91423, 30.06317], [-90.90815, 30.07004], [-90.90628, 30.06653], [-90.90188, 30.06298], [-90.90192, 30.0609], [-90.90379, 30.06219], [-90.90742, 30.06515], [-90.90862, 30.06677], [-90.91269, 30.06219], [-90.91761, 30.05603], [-90.91991, 30.05607], [-90.91423, 30.06317]]], [[[-90.92276, 30.05641], [-90.91631, 30.06444], [-90.91063, 30.07085], [-90.91175, 30.07313], [-90.918, 30.06715], [-90.91899, 30.0659], [-90.92263, 30.06243], [-90.92258, 30.06494], [-90.92049, 30.06694], [-90.91965, 30.06805], [-90.91148, 30.07593], [-90.91051, 30.07484], [-90.90843, 30.07061], [-90.91474, 30.06349], [-90.92066, 30.05608], [-90.92276, 30.05611], [-90.92276, 30.05641]]], [[[-90.91252, 30.08132], [-90.91218, 30.08289], [-90.91401, 30.08863], [-90.91328, 30.08759], [-90.91312, 30.08617], [-90.91144, 30.081], [-90.90977, 30.07719], [-90.90879, 30.07624], [-90.90842, 30.07509], [-90.90739, 30.07351], [-90.90643, 30.07145], [-90.90542, 30.07053], [-90.9045, 30.06883], [-90.90339, 30.06767], [-90.90283, 30.06667], [-90.90063, 30.06478], [-90.90184, 30.0648], [-90.90185, 30.06425], [-90.90565, 30.06738], [-90.90979, 30.07575], [-90.91096, 30.07684], [-90.91195, 30.07857], [-90.91247, 30.07982], [-90.91252, 30.08132]]], [[[-90.91395, 30.0847], [-90.91393, 30.08475], [-90.91348, 30.08343], [-90.91374, 30.08392], [-90.91395, 30.0847]]], [[[-90.91437, 30.08622], [-90.91415, 30.08549], [-90.91449, 30.08664], [-90.91437, 30.08622]]], [[[-90.91429, 30.09037], [-90.91409, 30.08891], [-90.91439, 30.09003], [-90.91485, 30.09012], [-90.91682, 30.09684], [-90.91599, 30.09699], [-90.91536, 30.09354], [-90.91429, 30.09037]]], [[[-90.9163, 30.09836], [-90.91615, 30.09759], [-90.91668, 30.0975], [-90.91673, 30.09778], [-90.91715, 30.09799], [-90.91854, 30.10235], [-90.91991, 30.11019], [-90.91882, 30.11007], [-90.91863, 30.10846], [-90.91768, 30.10445], [-90.91743, 30.10204], [-90.9163, 30.09836]]], [[[-90.92028, 30.10281], [-90.92048, 30.10305], [-90.91946, 30.10375], [-90.91928, 30.10286], [-90.91991, 30.10248], [-90.92028, 30.10281]]], [[[-90.91986, 30.10436], [-90.91959, 30.10448], [-90.92179, 30.10289], [-90.92178, 30.1031], [-90.91986, 30.10436]]], [[[-90.90142, 30.0805], [-90.90126, 30.08065], [-90.90049, 30.0812], [-90.90085, 30.08082], [-90.90075, 30.08041], [-90.90161, 30.07977], [-90.90187, 30.08015], [-90.90142, 30.0805]]], [[[-90.90326, 30.0807], [-90.90406, 30.0822], [-90.90389, 30.08262], [-90.90418, 30.0836], [-90.90574, 30.08747], [-90.90588, 30.08783], [-90.9061, 30.08859], [-90.90577, 30.08755], [-90.90487, 30.0862], [-90.90276, 30.0811], [-90.90246, 30.07997], [-90.9008, 30.07759], [-90.89689, 30.07352], [-90.89542, 30.07253], [-90.89522, 30.07214], [-90.89594, 30.07134], [-90.89906, 30.07479], [-90.90207, 30.07852], [-90.90326, 30.0807]]], [[[-90.90194, 30.08082], [-90.90204, 30.08074], [-90.90204, 30.08077], [-90.90194, 30.08082]]], [[[-90.90253, 30.08193], [-90.90265, 30.08219], [-90.90187, 30.08271], [-90.90188, 30.08304], [-90.89567, 30.08688], [-90.8946, 30.08345], [-90.89347, 30.0818], [-90.8918, 30.08039], [-90.89275, 30.08002], [-90.89591, 30.07667], [-90.89592, 30.07634], [-90.89625, 30.07599], [-90.89594, 30.07577], [-90.89712, 30.07458], [-90.89742, 30.07491], [-90.89711, 30.07519], [-90.89714, 30.07547], [-90.89747, 30.07556], [-90.89782, 30.07532], [-90.89808, 30.0756], [-90.89714, 30.0762], [-90.89633, 30.07734], [-90.8947, 30.07894], [-90.89468, 30.07924], [-90.89516, 30.0793], [-90.89682, 30.07767], [-90.89726, 30.07693], [-90.89764, 30.07694], [-90.89847, 30.07636], [-90.89856, 30.0761], [-90.89871, 30.07626], [-90.89777, 30.0771], [-90.89779, 30.07742], [-90.89821, 30.07747], [-90.89911, 30.07668], [-90.8993, 30.07687], [-90.89812, 30.07789], [-90.89813, 30.07821], [-90.89855, 30.07827], [-90.8997, 30.07729], [-90.90005, 30.07765], [-90.89725, 30.08015], [-90.89729, 30.08065], [-90.89777, 30.0807], [-90.89993, 30.07889], [-90.89997, 30.07851], [-90.90044, 30.07809], [-90.90129, 30.0793], [-90.90013, 30.08019], [-90.9002, 30.0807], [-90.8993, 30.08141], [-90.89927, 30.08168], [-90.89962, 30.08183], [-90.90013, 30.08148], [-90.90018, 30.08181], [-90.90064, 30.0818], [-90.90066, 30.08206], [-90.90095, 30.08218], [-90.9022, 30.08135], [-90.90253, 30.08193]], [[-90.89731, 30.08243], [-90.89612, 30.08199], [-90.8954, 30.08099], [-90.89518, 30.08102], [-90.89629, 30.08267], [-90.89689, 30.08409], [-90.89834, 30.08319], [-90.89756, 30.08244], [-90.89731, 30.08243]]], [[[-90.90324, 30.08356], [-90.90462, 30.0869], [-90.90431, 30.08688], [-90.90414, 30.08714], [-90.90255, 30.08783], [-90.90236, 30.08826], [-90.90252, 30.08854], [-90.90281, 30.0886], [-90.90302, 30.08823], [-90.90425, 30.0877], [-90.90455, 30.08787], [-90.90513, 30.08767], [-90.90533, 30.08821], [-90.89688, 30.09181], [-90.89581, 30.08746], [-90.903, 30.08301], [-90.90324, 30.08356]], [[-90.90173, 30.08633], [-90.90217, 30.08613], [-90.902, 30.08567], [-90.89794, 30.08819], [-90.89823, 30.0894], [-90.90045, 30.08846], [-90.90062, 30.08734], [-90.90104, 30.08678], [-90.90173, 30.08633]]], [[[-90.90567, 30.08928], [-90.9026, 30.09048], [-90.89718, 30.09264], [-90.89712, 30.09231], [-90.9055, 30.08874], [-90.90567, 30.08928]]], [[[-90.9066, 30.09048], [-90.90655, 30.08956], [-90.90696, 30.09041], [-90.90684, 30.09153], [-90.90783, 30.09357], [-90.90825, 30.09536], [-90.90865, 30.09818], [-90.90803, 30.09838], [-90.90648, 30.09179], [-90.9066, 30.09048]]], [[[-90.9059, 30.09009], [-90.90587, 30.09147], [-90.90277, 30.09245], [-90.89958, 30.09388], [-90.89891, 30.09403], [-90.89823, 30.09394], [-90.89765, 30.09362], [-90.8973, 30.09318], [-90.90586, 30.0898], [-90.9059, 30.09009]], [[-90.90476, 30.0904], [-90.90389, 30.0907], [-90.90398, 30.09118], [-90.90445, 30.09126], [-90.90499, 30.09095], [-90.90506, 30.09068], [-90.90476, 30.0904]]], [[[-90.9062, 30.0949], [-90.90547, 30.09507], [-90.90536, 30.09538], [-90.90567, 30.09556], [-90.9067, 30.09533], [-90.90717, 30.09736], [-90.90451, 30.09839], [-90.90255, 30.09882], [-90.90194, 30.09868], [-90.90021, 30.09777], [-90.89958, 30.09767], [-90.89838, 30.09787], [-90.89745, 30.09418], [-90.89842, 30.09454], [-90.89938, 30.09451], [-90.90595, 30.09224], [-90.90658, 30.0948], [-90.9062, 30.0949]], [[-90.90271, 30.09714], [-90.90414, 30.09671], [-90.90349, 30.09575], [-90.9035, 30.09483], [-90.90013, 30.09605], [-90.9011, 30.09629], [-90.90271, 30.09714]]], [[[-90.90475, 30.09889], [-90.90657, 30.09809], [-90.90729, 30.0979], [-90.90742, 30.09849], [-90.90426, 30.09904], [-90.90475, 30.09889]]], [[[-90.90209, 30.09931], [-90.90245, 30.09935], [-90.89889, 30.09998], [-90.89851, 30.0984], [-90.90002, 30.09829], [-90.90209, 30.09931]]], [[[-90.90871, 30.1], [-90.90922, 30.10172], [-90.90993, 30.1056], [-90.91001, 30.10746], [-90.91082, 30.11005], [-90.91023, 30.11004], [-90.90876, 30.10409], [-90.90865, 30.10332], [-90.90886, 30.10212], [-90.90817, 30.09899], [-90.90858, 30.09892], [-90.90871, 30.1]]], [[[-90.89904, 30.10058], [-90.90756, 30.09909], [-90.90796, 30.10087], [-90.90599, 30.1014], [-90.90579, 30.10168], [-90.90613, 30.10192], [-90.90809, 30.1014], [-90.90824, 30.10228], [-90.90806, 30.10372], [-90.90704, 30.10411], [-90.90679, 30.10465], [-90.9072, 30.10529], [-90.90843, 30.10522], [-90.9085, 30.10545], [-90.90607, 30.1059], [-90.90576, 30.10567], [-90.9053, 30.10434], [-90.90453, 30.10395], [-90.901, 30.10458], [-90.90108, 30.10087], [-90.8991, 30.10084], [-90.89904, 30.10058]], [[-90.90379, 30.10233], [-90.90401, 30.1023], [-90.90389, 30.10143], [-90.90131, 30.10188], [-90.90153, 30.10277], [-90.90379, 30.10233]]], [[[-90.90516, 30.10584], [-90.90591, 30.10643], [-90.90778, 30.10616], [-90.90817, 30.10658], [-90.90888, 30.10679], [-90.90756, 30.10705], [-90.907, 30.10685], [-90.90549, 30.1072], [-90.90485, 30.10711], [-90.90422, 30.10746], [-90.90358, 30.1075], [-90.9032, 30.10779], [-90.90257, 30.10767], [-90.90199, 30.10797], [-90.90146, 30.1079], [-90.90092, 30.10814], [-90.90099, 30.10513], [-90.90445, 30.10449], [-90.90478, 30.10465], [-90.90516, 30.10584]]], [[[-90.89189, 30.0672], [-90.89553, 30.07094], [-90.89457, 30.07206], [-90.89351, 30.07149], [-90.89308, 30.071], [-90.89372, 30.07011], [-90.89358, 30.06979], [-90.89321, 30.06983], [-90.89253, 30.07064], [-90.89184, 30.07057], [-90.89135, 30.0703], [-90.89143, 30.06663], [-90.89189, 30.0672]]], [[[-90.89134, 30.07098], [-90.89134, 30.07093], [-90.89136, 30.07094], [-90.89134, 30.07098]]], [[[-90.89133, 30.07141], [-90.89133, 30.0712], [-90.89141, 30.0713], [-90.89133, 30.07141]]], [[[-90.89145, 30.07224], [-90.89211, 30.07136], [-90.89215, 30.07138], [-90.8913, 30.07259], [-90.89145, 30.07224]]], [[[-90.89126, 30.07461], [-90.89126, 30.07454], [-90.89306, 30.07188], [-90.89322, 30.07196], [-90.89126, 30.07461]]], [[[-90.89314, 30.07428], [-90.89321, 30.07455], [-90.89355, 30.07462], [-90.8912, 30.0775], [-90.89124, 30.07564], [-90.89375, 30.07225], [-90.89446, 30.07264], [-90.89314, 30.07428]]], [[[-90.89521, 30.07372], [-90.89447, 30.0746], [-90.89466, 30.07494], [-90.895, 30.07487], [-90.89608, 30.07361], [-90.89671, 30.07416], [-90.8936, 30.07728], [-90.89246, 30.07949], [-90.89188, 30.07983], [-90.89115, 30.07978], [-90.89118, 30.07847], [-90.89547, 30.0732], [-90.8956, 30.07327], [-90.89521, 30.07372]]], [[[-90.89412, 30.07758], [-90.89429, 30.07749], [-90.8944, 30.0774], [-90.89412, 30.07772], [-90.89412, 30.07758]]], [[[-90.89404, 30.08369], [-90.89467, 30.08541], [-90.89631, 30.09205], [-90.89126, 30.09422], [-90.89109, 30.09454], [-90.8915, 30.09472], [-90.89644, 30.0926], [-90.89777, 30.09798], [-90.89729, 30.09809], [-90.89716, 30.09836], [-90.89741, 30.09857], [-90.8979, 30.09851], [-90.89828, 30.10008], [-90.89433, 30.10077], [-90.89071, 30.10071], [-90.89073, 30.09967], [-90.89535, 30.0989], [-90.89528, 30.09796], [-90.89562, 30.09723], [-90.89507, 30.09505], [-90.89218, 30.09628], [-90.8908, 30.09633], [-90.89088, 30.09253], [-90.89411, 30.09114], [-90.89258, 30.08505], [-90.8918, 30.08357], [-90.89109, 30.08281], [-90.89113, 30.0806], [-90.89298, 30.08213], [-90.89404, 30.08369]], [[-90.89602, 30.0934], [-90.89638, 30.09327], [-90.89627, 30.09303], [-90.8959, 30.09317], [-90.89602, 30.0934]]], [[[-90.89843, 30.10069], [-90.89846, 30.10083], [-90.8977, 30.10082], [-90.89843, 30.10069]]]]}, "properties": {"kind": "pv", "area_km2": 7.7, "mw": 385.1}}, {"type": "Feature", "geometry": {"type": "Point", "coordinates": [-90.92994, 30.08664]}, "properties": {"kind": "turbine", "i": 0, "mw": 6.0, "hub_m": 120.0, "rotor_m": 150.0}}, {"type": "Feature", "geometry": {"type": "Point", "coordinates": [-90.92271, 30.07006]}, "properties": {"kind": "turbine", "i": 1, "mw": 6.0, "hub_m": 120.0, "rotor_m": 150.0}}, {"type": "Feature", "geometry": {"type": "Point", "coordinates": [-90.90323, 30.0961]}, "properties": {"kind": "turbine", "i": 2, "mw": 6.0, "hub_m": 120.0, "rotor_m": 150.0}}]}