{"type": "FeatureCollection", "features": [{"type": "Feature", "geometry": {"type": "MultiPolygon", "coordinates": [[[[-90.97698, 30.09872], [-90.9759, 30.09873], [-90.97496, 30.09918], [-90.97507, 30.09803], [-90.97462, 30.09718], [-90.97376, 30.09661], [-90.97247, 30.09648], [-90.97093, 30.09745], [-90.97021, 30.09998], [-90.96877, 30.0998], [-90.96842, 30.09851], [-90.96983, 30.08861], [-90.97056, 30.08915], [-90.96991, 30.09146], [-90.97089, 30.09364], [-90.97289, 30.09506], [-90.97552, 30.09531], [-90.97623, 30.09722], [-90.97796, 30.09845], [-90.97783, 30.0989], [-90.97698, 30.09872]]], [[[-90.97574, 30.08721], [-90.97233, 30.08465], [-90.97176, 30.08264], [-90.97083, 30.08153], [-90.96908, 30.08069], [-90.96701, 30.08071], [-90.96585, 30.07983], [-90.96704, 30.07808], [-90.96787, 30.07553], [-90.98422, 30.04799], [-90.98637, 30.05124], [-90.98661, 30.05224], [-90.98961, 30.05747], [-90.99213, 30.06396], [-90.99391, 30.07062], [-90.99495, 30.07827], [-90.99393, 30.07581], [-90.99306, 30.07498], [-90.99138, 30.07476], [-90.99001, 30.07564], [-90.98976, 30.07711], [-90.99273, 30.08403], [-90.9914, 30.08499], [-90.98651, 30.09341], [-90.98094, 30.09062], [-90.97574, 30.08721]]], [[[-90.95924, 30.02601], [-90.95698, 30.02614], [-90.95694, 30.02483], [-90.95892, 30.02475], [-90.96111, 30.02598], [-90.95924, 30.02601]]], [[[-90.95676, 30.13993], [-90.95618, 30.13894], [-90.95938, 30.13732], [-90.95995, 30.13818], [-90.96088, 30.13866], [-90.96196, 30.13871], [-90.96304, 30.13826], [-90.96349, 30.13848], [-90.95851, 30.14157], [-90.95676, 30.13993]]], [[[-90.96672, 30.13602], [-90.96726, 30.13336], [-90.97434, 30.1298], [-90.97068, 30.13319], [-90.96672, 30.13602]]], [[[-90.97466, 30.12517], [-90.96748, 30.12878], [-90.96571, 30.12698], [-90.96465, 30.12678], [-90.96361, 30.12703], [-90.96283, 30.12767], [-90.96248, 30.12876], [-90.96361, 30.13072], [-90.95735, 30.13387], [-90.95685, 30.13168], [-90.95579, 30.13104], [-90.95468, 30.13098], [-90.95633, 30.1239], [-90.95766, 30.12326], [-90.96116, 30.12355], [-90.96241, 30.12298], [-90.96309, 30.12209], [-90.9627, 30.11899], [-90.96319, 30.11806], [-90.96309, 30.11713], [-90.96221, 30.11578], [-90.96034, 30.11504], [-90.96903, 30.11686], [-90.96778, 30.11867], [-90.96784, 30.12071], [-90.96829, 30.12177], [-90.96955, 30.12247], [-90.97084, 30.1224], [-90.97236, 30.12151], [-90.97315, 30.12047], [-90.9733, 30.11959], [-90.97465, 30.11915], [-90.97541, 30.11819], [-90.97746, 30.11854], [-90.97641, 30.12093], [-90.97721, 30.12388], [-90.97466, 30.12517]]], [[[-90.96131, 30.07311], [-90.96114, 30.0699], [-90.96016, 30.06871], [-90.95807, 30.06842], [-90.95666, 30.06926], [-90.9563, 30.07033], [-90.95681, 30.07156], [-90.95686, 30.07308], [-90.93486, 30.05657], [-90.9388, 30.05293], [-90.9441, 30.05845], [-90.94706, 30.06066], [-90.96046, 30.06755], [-90.96615, 30.06999], [-90.96417, 30.07333], [-90.96131, 30.07311]]], [[[-90.96444, 30.09494], [-90.96349, 30.09276], [-90.96256, 30.09164], [-90.96248, 30.0883], [-90.96061, 30.0883], [-90.95956, 30.08513], [-90.96479, 30.08622], [-90.96559, 30.08692], [-90.96444, 30.09494]]], [[[-90.96396, 30.09835], [-90.96388, 30.09775], [-90.96409, 30.09741], [-90.96396, 30.09835]]], [[[-90.94487, 30.14461], [-90.94702, 30.14382], [-90.95047, 30.14179], [-90.95016, 30.14279], [-90.95054, 30.14547], [-90.94707, 30.14683], [-90.94487, 30.14461]]], [[[-90.95657, 30.14114], [-90.95676, 30.14063], [-90.95801, 30.14184], [-90.95744, 30.14213], [-90.95657, 30.14114]]], [[[-90.93206, 30.1507], [-90.93171, 30.15047], [-90.93397, 30.14983], [-90.93448, 30.15057], [-90.93241, 30.15099], [-90.93206, 30.1507]]], [[[-90.9511, 30.04349], [-90.95161, 30.04491], [-90.9529, 30.04557], [-90.95541, 30.04534], [-90.95666, 30.04462], [-90.95709, 30.04319], [-90.95608, 30.04182], [-90.95713, 30.04148], [-90.95799, 30.0406], [-90.95814, 30.03856], [-90.95746, 30.03721], [-90.95498, 30.03519], [-90.957, 30.03379], [-90.95716, 30.03123], [-90.95971, 30.03115], [-90.96173, 30.03029], [-90.96736, 30.03022], [-90.97269, 30.03459], [-90.97937, 30.04156], [-90.97866, 30.04254], [-90.9787, 30.04377], [-90.97951, 30.04473], [-90.98091, 30.04513], [-90.9682, 30.06655], [-90.96266, 30.06419], [-90.94967, 30.05753], [-90.94743, 30.05588], [-90.94181, 30.05003], [-90.94241, 30.04943], [-90.94364, 30.04965], [-90.94487, 30.0493], [-90.94579, 30.04805], [-90.94811, 30.04651], [-90.94858, 30.04494], [-90.94751, 30.04343], [-90.94613, 30.04278], [-90.94453, 30.04299], [-90.94289, 30.04419], [-90.94229, 30.0454], [-90.94051, 30.04564], [-90.93891, 30.04704], [-90.93468, 30.04261], [-90.93756, 30.0393], [-90.93927, 30.04024], [-90.94283, 30.04089], [-90.9466, 30.03919], [-90.94787, 30.03979], [-90.94946, 30.03964], [-90.95068, 30.03866], [-90.95095, 30.03711], [-90.95139, 30.03691], [-90.95224, 30.03969], [-90.95435, 30.04149], [-90.95226, 30.04185], [-90.9511, 30.04349]]], [[[-90.93316, 30.14594], [-90.93091, 30.14664], [-90.93079, 30.14644], [-90.93093, 30.14564], [-90.93207, 30.14493], [-90.93358, 30.14525], [-90.93316, 30.14594]]], [[[-90.92317, 30.07835], [-90.92198, 30.07887], [-90.92159, 30.07785], [-90.92276, 30.07705], [-90.92107, 30.07522], [-90.92, 30.07595], [-90.91886, 30.0752], [-90.9175, 30.07343], [-90.93184, 30.0594], [-90.94177, 30.0669], [-90.94031, 30.06874], [-90.92513, 30.07894], [-90.92425, 30.07844], [-90.92317, 30.07835]]], [[[-90.93068, 30.08015], [-90.94323, 30.07166], [-90.94515, 30.06944], [-90.95111, 30.07386], [-90.94799, 30.07605], [-90.9472, 30.07718], [-90.94701, 30.07852], [-90.94798, 30.08162], [-90.94574, 30.08285], [-90.93692, 30.09109], [-90.93567, 30.09176], [-90.93575, 30.08969], [-90.9347, 30.08853], [-90.93242, 30.08814], [-90.92999, 30.08964], [-90.92841, 30.08882], [-90.9268, 30.08922], [-90.92538, 30.08684], [-90.92442, 30.08615], [-90.92409, 30.08522], [-90.92588, 30.08475], [-90.92695, 30.08267], [-90.93068, 30.08015]]], [[[-90.93716, 30.09562], [-90.9378, 30.0954], [-90.93965, 30.09624], [-90.9371, 30.09599], [-90.93716, 30.09562]]], [[[-90.92775, 30.10197], [-90.92626, 30.10175], [-90.92598, 30.10087], [-90.92778, 30.101], [-90.93026, 30.09918], [-90.93076, 30.09944], [-90.92775, 30.10197]]], [[[-90.92477, 30.03226], [-90.92281, 30.03022], [-90.92317, 30.02961], [-90.92609, 30.0308], [-90.92494, 30.03244], [-90.92477, 30.03226]]], [[[-90.83855, 30.06446], [-90.84053, 30.06601], [-90.83649, 30.06905], [-90.83798, 30.06391], [-90.83855, 30.06446]]], [[[-90.84338, 30.06291], [-90.84022, 30.0602], [-90.83963, 30.05944], [-90.83996, 30.0587], [-90.84358, 30.06257], [-90.84338, 30.06291]]], [[[-90.84285, 30.07082], [-90.84223, 30.06985], [-90.84405, 30.06849], [-90.85026, 30.07256], [-90.85534, 30.07398], [-90.85419, 30.07492], [-90.85289, 30.07493], [-90.85179, 30.07544], [-90.84964, 30.07899], [-90.84976, 30.08016], [-90.85073, 30.08124], [-90.85272, 30.08212], [-90.85536, 30.08269], [-90.84953, 30.09774], [-90.8467, 30.09631], [-90.84791, 30.09555], [-90.84937, 30.09286], [-90.84935, 30.09108], [-90.84822, 30.09009], [-90.84451, 30.0892], [-90.84596, 30.08755], [-90.84708, 30.08687], [-90.84845, 30.08464], [-90.84871, 30.08343], [-90.84814, 30.0823], [-90.84519, 30.0805], [-90.84386, 30.08019], [-90.84256, 30.08056], [-90.84137, 30.0817], [-90.83839, 30.08057], [-90.83697, 30.08055], [-90.83485, 30.08219], [-90.8349, 30.08083], [-90.84332, 30.07343], [-90.8436, 30.07206], [-90.84285, 30.07082]]], [[[-90.85915, 30.07037], [-90.85916, 30.07039], [-90.85393, 30.06962], [-90.85482, 30.06864], [-90.85915, 30.07037]]], [[[-90.86345, 30.09874], [-90.8639, 30.09926], [-90.86263, 30.10197], [-90.85368, 30.09916], [-90.85823, 30.08736], [-90.85962, 30.08883], [-90.8624, 30.08949], [-90.86356, 30.08944], [-90.86523, 30.09122], [-90.86321, 30.09736], [-90.86345, 30.09874]]], [[[-90.87164, 30.08881], [-90.87172, 30.08705], [-90.87102, 30.08545], [-90.86918, 30.08419], [-90.8664, 30.08408], [-90.8668, 30.08257], [-90.86797, 30.08274], [-90.86927, 30.08367], [-90.87227, 30.08422], [-90.88342, 30.08761], [-90.88497, 30.08699], [-90.88907, 30.08167], [-90.88974, 30.08175], [-90.89148, 30.08317], [-90.89229, 30.08438], [-90.89411, 30.09114], [-90.88987, 30.09305], [-90.88929, 30.09384], [-90.88925, 30.09497], [-90.88993, 30.09592], [-90.89132, 30.0964], [-90.89507, 30.09505], [-90.89562, 30.09723], [-90.89535, 30.0989], [-90.88393, 30.10084], [-90.88355, 30.09981], [-90.88464, 30.09907], [-90.88511, 30.09791], [-90.88468, 30.09533], [-90.88534, 30.09366], [-90.88467, 30.0924], [-90.88333, 30.09154], [-90.88166, 30.09159], [-90.88187, 30.09063], [-90.88153, 30.08973], [-90.88074, 30.08909], [-90.87948, 30.08884], [-90.87828, 30.08925], [-90.87647, 30.09096], [-90.8762, 30.09078], [-90.87426, 30.09329], [-90.87515, 30.09164], [-90.87488, 30.0902], [-90.87383, 30.08935], [-90.87164, 30.08881]]], [[[-90.90032, 30.09608], [-90.9035, 30.09483], [-90.90349, 30.09575], [-90.90414, 30.09671], [-90.90271, 30.09714], [-90.90032, 30.09608]]], [[[-90.89978, 30.08875], [-90.89823, 30.0894], [-90.89794, 30.08819], [-90.902, 30.08567], [-90.90217, 30.08613], [-90.90091, 30.08693], [-90.90045, 30.08846], [-90.89978, 30.08875]]], [[[-90.89834, 30.08319], [-90.89689, 30.08409], [-90.89518, 30.08102], [-90.89612, 30.08199], [-90.89756, 30.08244], [-90.89834, 30.08319]]], [[[-90.85948, 30.11211], [-90.85788, 30.12211], [-90.85734, 30.1221], [-90.85894, 30.11216], [-90.85948, 30.11211]]], [[[-90.87759, 30.11839], [-90.87523, 30.11875], [-90.87512, 30.11835], [-90.88131, 30.11714], [-90.88204, 30.1176], [-90.87759, 30.11839]]], [[[-90.88437, 30.11889], [-90.88421, 30.11862], [-90.88527, 30.11842], [-90.88695, 30.11932], [-90.88877, 30.11946], [-90.89126, 30.11837], [-90.89457, 30.11775], [-90.89617, 30.11866], [-90.89913, 30.11898], [-90.90113, 30.1196], [-90.90307, 30.124], [-90.89851, 30.12611], [-90.89816, 30.12572], [-90.89761, 30.12622], [-90.89805, 30.12633], [-90.88586, 30.13189], [-90.88618, 30.13026], [-90.88526, 30.12855], [-90.88395, 30.12771], [-90.88215, 30.12785], [-90.88149, 30.12661], [-90.88478, 30.12588], [-90.88611, 30.12454], [-90.8861, 30.12334], [-90.88437, 30.11889]]], [[[-90.90702, 30.12218], [-90.90611, 30.12053], [-90.90957, 30.11995], [-90.90984, 30.12091], [-90.90702, 30.12218]]], [[[-90.87581, 30.11178], [-90.8792, 30.11111], [-90.88028, 30.11224], [-90.87984, 30.1135], [-90.87166, 30.11503], [-90.8724, 30.11315], [-90.87365, 30.11222], [-90.87581, 30.11178]]], [[[-90.88093, 30.1453], [-90.88028, 30.1445], [-90.88453, 30.1349], [-90.88573, 30.13569], [-90.88723, 30.13563], [-90.90535, 30.12732], [-90.90858, 30.1319], [-90.89289, 30.14995], [-90.88717, 30.14831], [-90.88572, 30.14727], [-90.88415, 30.14732], [-90.88295, 30.14692], [-90.88123, 30.14618], [-90.88093, 30.1453]]], [[[-90.90985, 30.03778], [-90.9092, 30.03708], [-90.91217, 30.03795], [-90.91408, 30.0373], [-90.91722, 30.03083], [-90.9284, 30.0425], [-90.92863, 30.04318], [-90.92403, 30.04847], [-90.90985, 30.03778]]], [[[-90.93581, 30.04996], [-90.93147, 30.05406], [-90.9274, 30.051], [-90.93175, 30.046], [-90.93581, 30.04996]]], [[[-90.95443, 30.08518], [-90.95418, 30.08444], [-90.95432, 30.0844], [-90.95443, 30.08518]]], [[[-90.91858, 30.0616], [-90.92473, 30.0541], [-90.92844, 30.0569], [-90.91175, 30.07313], [-90.91063, 30.07085], [-90.91858, 30.0616]]], [[[-90.91037, 30.0433], [-90.92135, 30.05157], [-90.90862, 30.06677], [-90.90767, 30.06538], [-90.90367, 30.0621], [-90.89819, 30.05852], [-90.89494, 30.0574], [-90.89615, 30.05705], [-90.89705, 30.05609], [-90.90235, 30.04049], [-90.90552, 30.04126], [-90.90713, 30.04085], [-90.91037, 30.0433]]], [[[-90.86355, 30.03201], [-90.86506, 30.03337], [-90.86667, 30.03364], [-90.87122, 30.03101], [-90.87446, 30.0343], [-90.8714, 30.03825], [-90.87121, 30.03926], [-90.87173, 30.04039], [-90.87425, 30.04201], [-90.87589, 30.04264], [-90.88094, 30.04121], [-90.87998, 30.04528], [-90.88023, 30.04625], [-90.88111, 30.0471], [-90.88018, 30.05135], [-90.881, 30.05259], [-90.88267, 30.05316], [-90.88427, 30.05298], [-90.88547, 30.05178], [-90.88999, 30.03613], [-90.89005, 30.03813], [-90.88491, 30.05495], [-90.88418, 30.05495], [-90.88307, 30.05346], [-90.88138, 30.05305], [-90.8797, 30.05383], [-90.87897, 30.05601], [-90.87683, 30.05643], [-90.8762, 30.05507], [-90.87443, 30.05441], [-90.87312, 30.05476], [-90.87163, 30.05601], [-90.87542, 30.04818], [-90.87499, 30.04674], [-90.87331, 30.04597], [-90.87225, 30.04616], [-90.87142, 30.04676], [-90.86875, 30.05165], [-90.86677, 30.05188], [-90.8648, 30.05469], [-90.86372, 30.05443], [-90.86267, 30.05465], [-90.86099, 30.05643], [-90.85994, 30.05662], [-90.85838, 30.05624], [-90.85344, 30.05413], [-90.85283, 30.05332], [-90.85458, 30.05173], [-90.85445, 30.05007], [-90.85371, 30.04939], [-90.85269, 30.04909], [-90.85162, 30.04924], [-90.85061, 30.04988], [-90.8505, 30.04965], [-90.85511, 30.04547], [-90.85498, 30.04382], [-90.85337, 30.04286], [-90.85562, 30.0413], [-90.85612, 30.04046], [-90.8561, 30.03952], [-90.85819, 30.03793], [-90.85848, 30.03684], [-90.85795, 30.03571], [-90.86355, 30.03201]]], [[[-90.95372, 30.07723], [-90.95342, 30.07745], [-90.95286, 30.07759], [-90.95392, 30.07686], [-90.95372, 30.07723]]], [[[-90.92007, 30.09899], [-90.91996, 30.09862], [-90.92079, 30.09848], [-90.92058, 30.09864], [-90.92007, 30.09899]]], [[[-90.92385, 30.09232], [-90.92159, 30.09397], [-90.91878, 30.09457], [-90.91866, 30.09418], [-90.923, 30.09125], [-90.92385, 30.09232]]], [[[-90.92483, 30.11881], [-90.92408, 30.11797], [-90.92272, 30.11156], [-90.93669, 30.09984], [-90.93806, 30.09999], [-90.9385, 30.10032], [-90.93875, 30.10189], [-90.94108, 30.10383], [-90.93912, 30.10405], [-90.93809, 30.10543], [-90.93864, 30.10699], [-90.93795, 30.10862], [-90.93895, 30.11015], [-90.93791, 30.11258], [-90.93776, 30.114], [-90.9387, 30.11674], [-90.93935, 30.12516], [-90.93736, 30.12833], [-90.93496, 30.12912], [-90.93086, 30.12788], [-90.92817, 30.12523], [-90.92606, 30.12227], [-90.92485, 30.12019], [-90.92483, 30.11881]]], [[[-90.92479, 30.09966], [-90.92479, 30.09956], [-90.92505, 30.1001], [-90.92477, 30.09999], [-90.92479, 30.09966]]], [[[-90.92376, 30.09807], [-90.92525, 30.09772], [-90.92472, 30.09922], [-90.92439, 30.09859], [-90.92376, 30.09807]]], [[[-90.92075, 30.14588], [-90.92042, 30.14772], [-90.9165, 30.14803], [-90.91877, 30.14078], [-90.92056, 30.13971], [-90.92172, 30.14019], [-90.92075, 30.14588]]], [[[-90.9567, 30.11932], [-90.9567, 30.11933], [-90.9567, 30.11918], [-90.95677, 30.11929], [-90.9567, 30.11932]]], [[[-90.95664, 30.11753], [-90.95658, 30.11721], [-90.95671, 30.11745], [-90.95664, 30.11753]]], [[[-90.90401, 30.1023], [-90.90153, 30.10277], [-90.90131, 30.10188], [-90.90389, 30.10143], [-90.90401, 30.1023]]], [[[-90.89679, 30.10268], [-90.89699, 30.10282], [-90.89626, 30.10325], [-90.89491, 30.10357], [-90.89319, 30.10333], [-90.89679, 30.10268]]], [[[-90.88979, 30.10395], [-90.89009, 30.10389], [-90.88912, 30.10406], [-90.88979, 30.10395]]], [[[-90.88632, 30.10459], [-90.88617, 30.10458], [-90.88649, 30.10452], [-90.88642, 30.10455], [-90.88632, 30.10459]]], [[[-90.88174, 30.1055], [-90.8833, 30.10509], [-90.87977, 30.10703], [-90.87744, 30.10749], [-90.88174, 30.1055]]], [[[-90.90743, 30.13963], [-90.91045, 30.13616], [-90.91066, 30.13841], [-90.9112, 30.1397], [-90.91227, 30.14072], [-90.91397, 30.14138], [-90.91177, 30.1484], [-90.89894, 30.14941], [-90.90743, 30.13963]]], [[[-90.87002, 30.07673], [-90.87019, 30.07588], [-90.88064, 30.07737], [-90.88127, 30.07808], [-90.88225, 30.07848], [-90.88418, 30.078], [-90.88588, 30.07883], [-90.88258, 30.08331], [-90.8717, 30.08017], [-90.87094, 30.07945], [-90.86956, 30.07907], [-90.87002, 30.07673]]], [[[-90.8826, 30.07159], [-90.88166, 30.0736], [-90.88033, 30.07341], [-90.881, 30.07125], [-90.88198, 30.07008], [-90.8826, 30.07159]]], [[[-90.86442, 30.07832], [-90.86429, 30.07824], [-90.86447, 30.07806], [-90.86444, 30.07819], [-90.86442, 30.07832]]], [[[-90.86531, 30.07679], [-90.86518, 30.0769], [-90.86531, 30.07518], [-90.86581, 30.07525], [-90.86531, 30.07679]]], [[[-90.86584, 30.07119], [-90.86581, 30.07133], [-90.86475, 30.07118], [-90.86488, 30.07086], [-90.86603, 30.07077], [-90.86584, 30.07119]]]]}, "properties": {"kind": "windland", "area_km2": 53.9}}, {"type": "Feature", "geometry": {"type": "MultiPolygon", "coordinates": [[[[-90.94608, 30.04795], [-90.94579, 30.04805], [-90.94547, 30.04876], [-90.94468, 30.0494], [-90.94364, 30.04965], [-90.94241, 30.04943], [-90.94181, 30.05003], [-90.94791, 30.05628], [-90.95025, 30.05787], [-90.9538, 30.05967], [-90.95376, 30.06158], [-90.94924, 30.05928], [-90.94661, 30.05751], [-90.9393, 30.05001], [-90.94178, 30.04757], [-90.9436, 30.04798], [-90.9439, 30.04768], [-90.94352, 30.04742], [-90.94688, 30.04747], [-90.94608, 30.04795]]], [[[-90.94558, 30.0574], [-90.94821, 30.05933], [-90.95375, 30.0622], [-90.95371, 30.06411], [-90.94795, 30.06118], [-90.9459, 30.05989], [-90.9441, 30.05845], [-90.9388, 30.05293], [-90.93486, 30.05657], [-90.95686, 30.07308], [-90.95681, 30.07156], [-90.9564, 30.07089], [-90.9563, 30.07033], [-90.95639, 30.06977], [-90.95679, 30.0691], [-90.95745, 30.06862], [-90.9585, 30.06838], [-90.95958, 30.06847], [-90.96049, 30.06895], [-90.96119, 30.07008], [-90.96131, 30.07319], [-90.96263, 30.07306], [-90.9639, 30.07324], [-90.9638, 30.07798], [-90.96303, 30.07741], [-90.96332, 30.07679], [-90.96294, 30.07588], [-90.96212, 30.07593], [-90.96154, 30.07683], [-90.96174, 30.07716], [-90.96088, 30.078], [-90.96219, 30.07901], [-90.96307, 30.07815], [-90.96371, 30.07863], [-90.96278, 30.07945], [-90.96218, 30.07906], [-90.95951, 30.07695], [-90.95932, 30.07055], [-90.95913, 30.07012], [-90.95846, 30.07005], [-90.95821, 30.07032], [-90.95835, 30.07054], [-90.9587, 30.07058], [-90.95888, 30.0768], [-90.93209, 30.0567], [-90.93888, 30.05042], [-90.94558, 30.0574]]], [[[-90.96403, 30.06667], [-90.96353, 30.06646], [-90.96195, 30.06575], [-90.96405, 30.06578], [-90.96403, 30.06667]]], [[[-90.94449, 30.06718], [-90.94339, 30.0678], [-90.94154, 30.07002], [-90.92476, 30.0813], [-90.92372, 30.08006], [-90.92338, 30.08002], [-90.92321, 30.08029], [-90.92245, 30.07949], [-90.91981, 30.0813], [-90.91996, 30.08158], [-90.91951, 30.08193], [-90.91977, 30.08227], [-90.91959, 30.08233], [-90.91906, 30.08177], [-90.91915, 30.08143], [-90.92034, 30.08063], [-90.91982, 30.07984], [-90.92148, 30.0786], [-90.92113, 30.07816], [-90.92159, 30.07785], [-90.92198, 30.07887], [-90.92275, 30.07845], [-90.92361, 30.07833], [-90.92445, 30.07851], [-90.92513, 30.07894], [-90.94031, 30.06874], [-90.94177, 30.0669], [-90.93184, 30.0594], [-90.92242, 30.06836], [-90.92157, 30.06948], [-90.9175, 30.07343], [-90.91834, 30.07424], [-90.91886, 30.0752], [-90.92, 30.07595], [-90.91961, 30.07622], [-90.91868, 30.07519], [-90.91838, 30.07537], [-90.91816, 30.07518], [-90.91744, 30.07567], [-90.91474, 30.07554], [-90.9128, 30.07579], [-90.912, 30.07651], [-90.91188, 30.07635], [-90.92015, 30.06838], [-90.92097, 30.06728], [-90.93166, 30.0571], [-90.94497, 30.0671], [-90.94449, 30.06718]]], [[[-90.95676, 30.06567], [-90.96066, 30.06573], [-90.96402, 30.06727], [-90.96398, 30.06909], [-90.96055, 30.0676], [-90.95676, 30.06567]]], [[[-90.94484, 30.06766], [-90.94554, 30.0677], [-90.94649, 30.06823], [-90.95436, 30.07411], [-90.95342, 30.07439], [-90.94967, 30.07697], [-90.9491, 30.07753], [-90.94891, 30.07811], [-90.94899, 30.07871], [-90.95035, 30.08271], [-90.94878, 30.08313], [-90.94706, 30.08405], [-90.93825, 30.09229], [-90.93681, 30.09317], [-90.92928, 30.09461], [-90.92885, 30.0943], [-90.92867, 30.09395], [-90.93141, 30.09208], [-90.93169, 30.09234], [-90.93203, 30.09229], [-90.93212, 30.09205], [-90.9319, 30.09175], [-90.93204, 30.09165], [-90.93233, 30.09191], [-90.93267, 30.09185], [-90.93276, 30.09161], [-90.93253, 30.09132], [-90.93265, 30.09123], [-90.93295, 30.09149], [-90.93326, 30.09143], [-90.93327, 30.09081], [-90.93358, 30.09108], [-90.93393, 30.09098], [-90.93375, 30.09047], [-90.93388, 30.09008], [-90.93338, 30.09004], [-90.93292, 30.08974], [-90.93265, 30.08997], [-90.93289, 30.09038], [-90.93276, 30.09046], [-90.93243, 30.09018], [-90.93208, 30.0903], [-90.93228, 30.0908], [-90.93214, 30.09089], [-90.93182, 30.09062], [-90.93149, 30.09071], [-90.93143, 30.09096], [-90.93165, 30.09123], [-90.93152, 30.09132], [-90.93123, 30.09105], [-90.93089, 30.09112], [-90.93082, 30.09137], [-90.93103, 30.09165], [-90.93088, 30.09176], [-90.93057, 30.09148], [-90.93024, 30.09155], [-90.93017, 30.0918], [-90.93039, 30.09209], [-90.93021, 30.09222], [-90.92992, 30.09196], [-90.92958, 30.09201], [-90.92949, 30.09225], [-90.92972, 30.09256], [-90.92953, 30.09269], [-90.9292, 30.09241], [-90.92887, 30.09249], [-90.9288, 30.09273], [-90.92904, 30.09303], [-90.92803, 30.09378], [-90.92822, 30.0944], [-90.92682, 30.09487], [-90.92354, 30.09538], [-90.92687, 30.09308], [-90.92692, 30.09276], [-90.92658, 30.09263], [-90.92314, 30.09495], [-90.9229, 30.09548], [-90.91738, 30.09653], [-90.91649, 30.09349], [-90.92343, 30.08887], [-90.92587, 30.09192], [-90.92624, 30.09214], [-90.92669, 30.09213], [-90.92847, 30.09082], [-90.92837, 30.09054], [-90.92805, 30.09049], [-90.92634, 30.09156], [-90.92392, 30.08853], [-90.92401, 30.08809], [-90.92369, 30.08769], [-90.92478, 30.087], [-90.92203, 30.08393], [-90.92248, 30.08352], [-90.92244, 30.08385], [-90.92282, 30.08396], [-90.92396, 30.08317], [-90.92429, 30.08352], [-90.92463, 30.08349], [-90.92473, 30.08322], [-90.92444, 30.08282], [-90.92516, 30.08206], [-90.92517, 30.08177], [-90.94193, 30.07044], [-90.94385, 30.06816], [-90.94484, 30.06766]], [[-90.94378, 30.08463], [-90.94589, 30.08274], [-90.94798, 30.08162], [-90.94701, 30.07852], [-90.9472, 30.07718], [-90.94799, 30.07605], [-90.95111, 30.07386], [-90.94515, 30.06944], [-90.94323, 30.07166], [-90.92695, 30.08267], [-90.92664, 30.08312], [-90.92642, 30.08415], [-90.92588, 30.08475], [-90.92513, 30.08512], [-90.92409, 30.08522], [-90.92442, 30.08615], [-90.92538, 30.08684], [-90.92582, 30.08754], [-90.92595, 30.08815], [-90.9268, 30.08922], [-90.92754, 30.08889], [-90.92841, 30.08882], [-90.92923, 30.08904], [-90.92999, 30.08964], [-90.93181, 30.08835], [-90.93285, 30.08808], [-90.93371, 30.08819], [-90.93488, 30.08863], [-90.93549, 30.08918], [-90.9358, 30.08988], [-90.93589, 30.09106], [-90.93562, 30.09177], [-90.93692, 30.09109], [-90.94378, 30.08463]], [[-90.92385, 30.09232], [-90.923, 30.09125], [-90.91866, 30.09418], [-90.91878, 30.09457], [-90.92159, 30.09397], [-90.92385, 30.09232]]], [[[-90.95759, 30.07655], [-90.95686, 30.07666], [-90.95606, 30.07709], [-90.95527, 30.07823], [-90.95457, 30.07881], [-90.95142, 30.07972], [-90.95079, 30.0802], [-90.95036, 30.08083], [-90.94953, 30.07829], [-90.94966, 30.07776], [-90.95378, 30.07483], [-90.95432, 30.07465], [-90.95491, 30.07472], [-90.95759, 30.07655]], [[-90.95344, 30.07719], [-90.95286, 30.07759], [-90.95358, 30.07738], [-90.95392, 30.07686], [-90.95344, 30.07719]]], [[[-90.95518, 30.07909], [-90.95648, 30.07749], [-90.95762, 30.07709], [-90.95848, 30.07737], [-90.96088, 30.07902], [-90.9596, 30.07872], [-90.95932, 30.07843], [-90.95748, 30.07887], [-90.95623, 30.07968], [-90.95483, 30.08117], [-90.95391, 30.08159], [-90.95125, 30.08224], [-90.95101, 30.08242], [-90.951, 30.08132], [-90.95168, 30.08038], [-90.95518, 30.07909]]], [[[-90.96307, 30.07995], [-90.9636, 30.07954], [-90.96377, 30.07939], [-90.96375, 30.08046], [-90.96307, 30.07995]]], [[[-90.9564, 30.08144], [-90.95552, 30.0816], [-90.95726, 30.07984], [-90.95869, 30.0793], [-90.95959, 30.07926], [-90.96048, 30.07945], [-90.96191, 30.0803], [-90.96072, 30.08113], [-90.96004, 30.08135], [-90.9564, 30.08144]]], [[[-90.95949, 30.082], [-90.96101, 30.08161], [-90.96239, 30.08065], [-90.96372, 30.08161], [-90.96369, 30.08352], [-90.95632, 30.082], [-90.95949, 30.082]]], [[[-90.95602, 30.0827], [-90.95662, 30.08717], [-90.95531, 30.0875], [-90.95438, 30.08648], [-90.95298, 30.08683], [-90.95182, 30.0833], [-90.95469, 30.08263], [-90.95602, 30.0827]], [[-90.95418, 30.08444], [-90.95443, 30.08518], [-90.95432, 30.0844], [-90.95418, 30.08444]]], [[[-90.95665, 30.08282], [-90.9568, 30.08285], [-90.95683, 30.08411], [-90.95677, 30.08371], [-90.95665, 30.08282]]], [[[-90.96367, 30.08427], [-90.96364, 30.08598], [-90.95956, 30.08513], [-90.96061, 30.0883], [-90.95956, 30.0883], [-90.95952, 30.08695], [-90.95886, 30.08711], [-90.95854, 30.08613], [-90.95794, 30.08628], [-90.95747, 30.08452], [-90.95743, 30.08298], [-90.96367, 30.08427]]], [[[-90.95701, 30.08536], [-90.95712, 30.08574], [-90.95706, 30.08576], [-90.95706, 30.08566], [-90.95701, 30.08536]]], [[[-90.94258, 30.09209], [-90.94495, 30.09515], [-90.94292, 30.09603], [-90.94183, 30.09497], [-90.94073, 30.09419], [-90.93838, 30.09313], [-90.94135, 30.09043], [-90.94258, 30.09209]]], [[[-90.96349, 30.09283], [-90.96333, 30.10075], [-90.96326, 30.09999], [-90.96296, 30.09981], [-90.96268, 30.09999], [-90.96263, 30.10068], [-90.96113, 30.10055], [-90.96034, 30.10078], [-90.9603, 30.09839], [-90.96048, 30.09799], [-90.9603, 30.09665], [-90.96102, 30.09642], [-90.96122, 30.09606], [-90.96061, 30.09417], [-90.96123, 30.09289], [-90.96259, 30.09284], [-90.96256, 30.09164], [-90.96349, 30.09283]]], [[[-90.94352, 30.0976], [-90.94367, 30.09789], [-90.94214, 30.09911], [-90.94214, 30.09947], [-90.94306, 30.10003], [-90.94464, 30.09881], [-90.94478, 30.09894], [-90.94345, 30.10001], [-90.94348, 30.10036], [-90.94387, 30.1004], [-90.9452, 30.09934], [-90.94533, 30.09946], [-90.94396, 30.10056], [-90.94399, 30.10092], [-90.94486, 30.10149], [-90.94631, 30.10039], [-90.94677, 30.10045], [-90.94962, 30.10316], [-90.94757, 30.10461], [-90.94686, 30.10405], [-90.94649, 30.10408], [-90.94643, 30.10442], [-90.94713, 30.105], [-90.94677, 30.10533], [-90.94083, 30.10066], [-90.94055, 30.1006], [-90.94035, 30.10075], [-90.9404, 30.10105], [-90.94495, 30.10463], [-90.94456, 30.10464], [-90.9445, 30.10498], [-90.94585, 30.1061], [-90.94425, 30.10555], [-90.94408, 30.10586], [-90.94374, 30.10581], [-90.94356, 30.10607], [-90.94437, 30.10683], [-90.94361, 30.10702], [-90.94212, 30.10588], [-90.94182, 30.10589], [-90.94168, 30.1061], [-90.94087, 30.10549], [-90.94024, 30.10542], [-90.94, 30.1056], [-90.94007, 30.10588], [-90.94174, 30.10716], [-90.94139, 30.10762], [-90.94191, 30.10811], [-90.94165, 30.10871], [-90.94075, 30.10802], [-90.94039, 30.10821], [-90.94004, 30.10815], [-90.93985, 30.10837], [-90.94079, 30.10929], [-90.94074, 30.10957], [-90.94111, 30.10991], [-90.93989, 30.11263], [-90.93967, 30.11362], [-90.93977, 30.11445], [-90.94058, 30.11639], [-90.94084, 30.11955], [-90.93892, 30.11952], [-90.93869, 30.11671], [-90.93795, 30.11496], [-90.93775, 30.11364], [-90.93795, 30.11246], [-90.93895, 30.11015], [-90.93822, 30.10934], [-90.93795, 30.10862], [-90.93809, 30.10769], [-90.93864, 30.10699], [-90.9381, 30.106], [-90.93819, 30.10506], [-90.93862, 30.10441], [-90.93931, 30.10395], [-90.94015, 30.10376], [-90.94108, 30.10383], [-90.93875, 30.10189], [-90.93844, 30.10119], [-90.9385, 30.10032], [-90.93806, 30.09999], [-90.93669, 30.09984], [-90.92272, 30.11156], [-90.92408, 30.11797], [-90.92463, 30.11848], [-90.92495, 30.11918], [-90.92485, 30.12019], [-90.92606, 30.12227], [-90.92817, 30.12523], [-90.93086, 30.12788], [-90.93163, 30.12816], [-90.93163, 30.12842], [-90.92879, 30.12838], [-90.92625, 30.12571], [-90.92416, 30.12272], [-90.9228, 30.12028], [-90.9227, 30.12001], [-90.92307, 30.11948], [-90.92283, 30.11926], [-90.9225, 30.11938], [-90.92197, 30.1175], [-90.92068, 30.11096], [-90.93599, 30.09812], [-90.93891, 30.0984], [-90.9398, 30.09901], [-90.94282, 30.09675], [-90.9436, 30.09746], [-90.94352, 30.0976]]], [[[-90.94531, 30.0956], [-90.94925, 30.10066], [-90.95087, 30.10271], [-90.95022, 30.10292], [-90.94336, 30.09645], [-90.94531, 30.0956]]], [[[-90.94283, 30.09928], [-90.94409, 30.09829], [-90.94422, 30.09841], [-90.94298, 30.0994], [-90.94283, 30.09928]]], [[[-90.94482, 30.10085], [-90.94466, 30.10073], [-90.94575, 30.09986], [-90.94589, 30.1], [-90.94482, 30.10085]]], [[[-90.95704, 30.10136], [-90.96006, 30.10142], [-90.96144, 30.10111], [-90.96332, 30.10129], [-90.96331, 30.10185], [-90.95498, 30.10172], [-90.95704, 30.10136]]], [[[-90.94632, 30.10571], [-90.9463, 30.10572], [-90.94507, 30.10472], [-90.94632, 30.10571]]], [[[-90.94259, 30.10864], [-90.94295, 30.10846], [-90.94267, 30.108], [-90.94292, 30.1078], [-90.94345, 30.10762], [-90.94409, 30.10814], [-90.94452, 30.10811], [-90.94929, 30.10401], [-90.95292, 30.10239], [-90.95289, 30.10413], [-90.9514, 30.10462], [-90.94779, 30.10655], [-90.94678, 30.10781], [-90.94555, 30.10857], [-90.94361, 30.11017], [-90.94318, 30.11137], [-90.94256, 30.11448], [-90.94258, 30.1169], [-90.94327, 30.11958], [-90.94146, 30.11956], [-90.94119, 30.1163], [-90.94029, 30.11383], [-90.94038, 30.11311], [-90.94093, 30.11179], [-90.94239, 30.10853], [-90.94259, 30.10864]]], [[[-90.94428, 30.10756], [-90.94414, 30.10745], [-90.94451, 30.10736], [-90.94428, 30.10756]]], [[[-90.95028, 30.11767], [-90.94998, 30.11654], [-90.9504, 30.11622], [-90.9508, 30.11557], [-90.95109, 30.113], [-90.95271, 30.11247], [-90.95257, 30.11973], [-90.95059, 30.11964], [-90.95028, 30.11767]]], [[[-90.92791, 30.03815], [-90.92978, 30.03818], [-90.93052, 30.03885], [-90.92955, 30.03986], [-90.92791, 30.03815]]], [[[-90.93132, 30.04152], [-90.93142, 30.04145], [-90.93348, 30.03927], [-90.93346, 30.04035], [-90.93183, 30.04223], [-90.93118, 30.04155], [-90.93132, 30.04152]]], [[[-90.93344, 30.04127], [-90.93339, 30.04386], [-90.93224, 30.04266], [-90.93344, 30.04127]]], [[[-90.92422, 30.03814], [-90.9267, 30.03813], [-90.93046, 30.04205], [-90.93033, 30.0424], [-90.93104, 30.04317], [-90.92432, 30.05089], [-90.9069, 30.03782], [-90.90996, 30.03786], [-90.92403, 30.04847], [-90.92863, 30.04318], [-90.9284, 30.0425], [-90.92422, 30.03814]]], [[[-90.93332, 30.04726], [-90.93548, 30.04729], [-90.93848, 30.05], [-90.93161, 30.05636], [-90.9248, 30.05124], [-90.93168, 30.04333], [-90.93336, 30.04508], [-90.93332, 30.04726]], [[-90.9274, 30.051], [-90.93147, 30.05406], [-90.93586, 30.05], [-90.93378, 30.04815], [-90.93175, 30.046], [-90.9274, 30.051]]], [[[-90.93668, 30.04731], [-90.94111, 30.04738], [-90.93889, 30.04959], [-90.93668, 30.04731]]], [[[-90.92395, 30.05132], [-90.9202, 30.05571], [-90.91423, 30.06317], [-90.90815, 30.07004], [-90.90628, 30.06653], [-90.90251, 30.06342], [-90.8972, 30.05994], [-90.89237, 30.05836], [-90.89291, 30.05682], [-90.89282, 30.05644], [-90.89235, 30.05652], [-90.89178, 30.05818], [-90.89115, 30.05798], [-90.89174, 30.05588], [-90.89159, 30.05564], [-90.89129, 30.05563], [-90.89056, 30.0578], [-90.89015, 30.05767], [-90.8961, 30.03764], [-90.898, 30.03767], [-90.89379, 30.04991], [-90.894, 30.05023], [-90.89386, 30.05093], [-90.89425, 30.05117], [-90.89304, 30.05484], [-90.8932, 30.05512], [-90.89474, 30.05556], [-90.89509, 30.0554], [-90.90108, 30.03772], [-90.90355, 30.03776], [-90.90323, 30.03862], [-90.90333, 30.03885], [-90.90566, 30.03942], [-90.90596, 30.03928], [-90.90644, 30.03819], [-90.92395, 30.05132]], [[-90.91269, 30.06219], [-90.92135, 30.05157], [-90.90713, 30.04085], [-90.90646, 30.04116], [-90.90552, 30.04126], [-90.90235, 30.04049], [-90.89705, 30.05609], [-90.89615, 30.05705], [-90.89494, 30.0574], [-90.89819, 30.05852], [-90.90367, 30.0621], [-90.90767, 30.06538], [-90.90862, 30.06677], [-90.91269, 30.06219]]], [[[-90.92258, 30.06494], [-90.92049, 30.06694], [-90.91965, 30.06805], [-90.91148, 30.07593], [-90.91051, 30.07484], [-90.90843, 30.07061], [-90.91473, 30.0635], [-90.92071, 30.05602], [-90.92442, 30.05167], [-90.93119, 30.05675], [-90.92258, 30.06494]], [[-90.91479, 30.07026], [-90.918, 30.06715], [-90.91909, 30.0658], [-90.92844, 30.0569], [-90.92473, 30.0541], [-90.91631, 30.06444], [-90.91063, 30.07085], [-90.91175, 30.07313], [-90.91479, 30.07026]]], [[[-90.92311, 30.08041], [-90.92322, 30.08035], [-90.92333, 30.0805], [-90.92325, 30.08054], [-90.92311, 30.08041]]], [[[-90.92249, 30.0828], [-90.92218, 30.08291], [-90.9242, 30.08154], [-90.92427, 30.08163], [-90.92249, 30.0828]]], [[[-90.92331, 30.08827], [-90.91675, 30.09268], [-90.91632, 30.09293], [-90.91464, 30.08716], [-90.91618, 30.09212], [-90.9219, 30.08834], [-90.9222, 30.08863], [-90.92323, 30.08798], [-90.92331, 30.08827]]], [[[-90.93, 30.0967], [-90.92941, 30.09693], [-90.92781, 30.09821], [-90.92753, 30.09805], [-90.92713, 30.09818], [-90.92712, 30.09866], [-90.92664, 30.09897], [-90.92679, 30.09934], [-90.92725, 30.09939], [-90.9298, 30.09736], [-90.93036, 30.09715], [-90.93184, 30.09606], [-90.9319, 30.09643], [-90.93223, 30.09676], [-90.93297, 30.09675], [-90.93356, 30.09628], [-90.93369, 30.09593], [-90.93339, 30.09544], [-90.93291, 30.09528], [-90.93372, 30.09459], [-90.93625, 30.09413], [-90.93788, 30.09346], [-90.94038, 30.09464], [-90.9424, 30.09635], [-90.93979, 30.09837], [-90.93911, 30.09788], [-90.93569, 30.09763], [-90.92297, 30.10829], [-90.92271, 30.10769], [-90.92699, 30.10429], [-90.92684, 30.10343], [-90.92644, 30.10345], [-90.92282, 30.10624], [-90.92268, 30.10593], [-90.9221, 30.10582], [-90.92007, 30.1073], [-90.92084, 30.10639], [-90.92048, 30.10616], [-90.91998, 30.1065], [-90.91974, 30.10527], [-90.92424, 30.10203], [-90.92435, 30.10177], [-90.92416, 30.10157], [-90.92387, 30.1016], [-90.91999, 30.10438], [-90.91959, 30.10448], [-90.92224, 30.10257], [-90.92227, 30.10227], [-90.92197, 30.10213], [-90.92094, 30.10266], [-90.92238, 30.10163], [-90.92247, 30.10139], [-90.92228, 30.10119], [-90.92202, 30.1012], [-90.92052, 30.10226], [-90.91996, 30.10191], [-90.92277, 30.0999], [-90.92287, 30.09964], [-90.92268, 30.09945], [-90.92239, 30.09948], [-90.91903, 30.10186], [-90.9183, 30.09964], [-90.92163, 30.09735], [-90.9215, 30.09672], [-90.91908, 30.09718], [-90.91782, 30.09806], [-90.91761, 30.09734], [-90.92882, 30.09544], [-90.92742, 30.09647], [-90.92741, 30.09677], [-90.92773, 30.09689], [-90.92923, 30.0959], [-90.92946, 30.09534], [-90.93262, 30.09478], [-90.93, 30.0967]], [[-90.92974, 30.09968], [-90.92778, 30.101], [-90.92693, 30.1011], [-90.92598, 30.10087], [-90.92626, 30.10175], [-90.927, 30.10174], [-90.92775, 30.10197], [-90.93076, 30.09944], [-90.93026, 30.09918], [-90.92974, 30.09968]], [[-90.93931, 30.09603], [-90.9378, 30.0954], [-90.93708, 30.09565], [-90.9371, 30.09599], [-90.93965, 30.09624], [-90.93931, 30.09603]], [[-90.92489, 30.10003], [-90.92505, 30.1001], [-90.92479, 30.09956], [-90.92477, 30.09999], [-90.92489, 30.10003]], [[-90.92475, 30.0987], [-90.92525, 30.09772], [-90.92361, 30.09799], [-90.92426, 30.09844], [-90.92472, 30.09922], [-90.92475, 30.0987]], [[-90.92079, 30.09848], [-90.91996, 30.09862], [-90.92007, 30.09899], [-90.92058, 30.09864], [-90.92079, 30.09848]]], [[[-90.9221, 30.10861], [-90.92171, 30.10858], [-90.92159, 30.10889], [-90.92135, 30.10878], [-90.92231, 30.10802], [-90.92245, 30.10873], [-90.92233, 30.10883], [-90.9221, 30.10861]]], [[[-90.92173, 30.10905], [-90.92188, 30.1092], [-90.92185, 30.10923], [-90.92173, 30.10905]]], [[[-90.92206, 30.12004], [-90.92341, 30.12264], [-90.92456, 30.12437], [-90.92609, 30.12649], [-90.92795, 30.12836], [-90.92642, 30.12834], [-90.92427, 30.12564], [-90.92344, 30.12398], [-90.92195, 30.12198], [-90.91993, 30.11697], [-90.9194, 30.11422], [-90.91996, 30.11437], [-90.92081, 30.11517], [-90.92206, 30.12004]]], [[[-90.91218, 30.08255], [-90.91401, 30.08863], [-90.91328, 30.08759], [-90.91312, 30.08617], [-90.91091, 30.07972], [-90.90975, 30.07716], [-90.90879, 30.07624], [-90.90842, 30.07509], [-90.90739, 30.07351], [-90.90644, 30.07147], [-90.90542, 30.07053], [-90.90448, 30.06881], [-90.90339, 30.06767], [-90.9026, 30.06642], [-90.90045, 30.06462], [-90.89999, 30.0639], [-90.89817, 30.06265], [-90.89518, 30.06105], [-90.88926, 30.05943], [-90.88606, 30.05935], [-90.88496, 30.05899], [-90.88391, 30.05895], [-90.88171, 30.05939], [-90.87782, 30.05973], [-90.87549, 30.06024], [-90.87085, 30.06066], [-90.87084, 30.0596], [-90.87426, 30.05957], [-90.88388, 30.05768], [-90.88493, 30.05763], [-90.88935, 30.05849], [-90.8965, 30.06072], [-90.8973, 30.06111], [-90.9028, 30.06496], [-90.90565, 30.06738], [-90.90978, 30.07573], [-90.91096, 30.07684], [-90.91235, 30.0794], [-90.91261, 30.0808], [-90.91218, 30.08255]]], [[[-90.91393, 30.08475], [-90.91383, 30.0844], [-90.91348, 30.08343], [-90.91374, 30.08392], [-90.91393, 30.08475]]], [[[-90.91417, 30.0855], [-90.91449, 30.08643], [-90.91449, 30.08664], [-90.91415, 30.08549], [-90.91417, 30.0855]]], [[[-90.91419, 30.09005], [-90.91409, 30.08891], [-90.91439, 30.09003], [-90.91485, 30.09012], [-90.91682, 30.09684], [-90.91599, 30.09699], [-90.91536, 30.09354], [-90.91419, 30.09005]]], [[[-90.91624, 30.09815], [-90.91615, 30.09759], [-90.91668, 30.0975], [-90.91673, 30.09778], [-90.91715, 30.09799], [-90.91854, 30.10235], [-90.92063, 30.11421], [-90.92029, 30.1139], [-90.91946, 30.11368], [-90.91864, 30.1085], [-90.91768, 30.10445], [-90.91743, 30.10204], [-90.91624, 30.09815]]], [[[-90.92048, 30.10305], [-90.91946, 30.10375], [-90.91928, 30.10286], [-90.91991, 30.10248], [-90.92048, 30.10305]]], [[[-90.92108, 30.10729], [-90.92125, 30.10745], [-90.9202, 30.10829], [-90.92015, 30.10795], [-90.92108, 30.10729]]], [[[-90.9214, 30.10961], [-90.92119, 30.10978], [-90.92103, 30.10964], [-90.92127, 30.10944], [-90.9214, 30.10961]]], [[[-90.92054, 30.1102], [-90.92049, 30.10993], [-90.92074, 30.11016], [-90.92054, 30.1102]]], [[[-90.91168, 30.11417], [-90.91276, 30.11932], [-90.91395, 30.12305], [-90.91474, 30.12471], [-90.91526, 30.12533], [-90.91682, 30.12819], [-90.91631, 30.12818], [-90.91462, 30.12556], [-90.91384, 30.12364], [-90.91282, 30.12201], [-90.9124, 30.12077], [-90.91196, 30.11913], [-90.91155, 30.11535], [-90.90869, 30.10368], [-90.90886, 30.10212], [-90.90817, 30.09899], [-90.90858, 30.09892], [-90.90993, 30.1056], [-90.91001, 30.10746], [-90.91077, 30.10967], [-90.91095, 30.11159], [-90.91145, 30.11213], [-90.91168, 30.11417]]], [[[-90.91112, 30.11744], [-90.90529, 30.11843], [-90.90475, 30.11691], [-90.90447, 30.11678], [-90.90422, 30.11691], [-90.90459, 30.11858], [-90.90524, 30.11898], [-90.91118, 30.11799], [-90.91207, 30.12178], [-90.90627, 30.1244], [-90.90511, 30.12265], [-90.90404, 30.12047], [-90.90264, 30.11525], [-90.91044, 30.11373], [-90.91051, 30.114], [-90.90444, 30.11518], [-90.90383, 30.1157], [-90.9042, 30.11594], [-90.90463, 30.1157], [-90.91068, 30.11452], [-90.91112, 30.11744]], [[-90.90611, 30.12053], [-90.90701, 30.12219], [-90.90984, 30.12091], [-90.90957, 30.11995], [-90.90611, 30.12053]]], [[[-90.91308, 30.12357], [-90.91218, 30.12398], [-90.912, 30.12369], [-90.90945, 30.12504], [-90.90955, 30.1252], [-90.90755, 30.12611], [-90.90659, 30.12486], [-90.91228, 30.12229], [-90.91308, 30.12357]]], [[[-90.91455, 30.12743], [-90.91412, 30.12815], [-90.91089, 30.12809], [-90.91401, 30.12571], [-90.91467, 30.12674], [-90.91455, 30.12743]]], [[[-90.91518, 30.12752], [-90.91518, 30.12752], [-90.91559, 30.12817], [-90.91482, 30.12816], [-90.91518, 30.12752]]], [[[-90.91278, 30.03791], [-90.91217, 30.03795], [-90.91178, 30.03789], [-90.91277, 30.03791], [-90.91278, 30.03791]]], [[[-90.89937, 30.0761], [-90.89689, 30.07352], [-90.89542, 30.07253], [-90.89522, 30.07214], [-90.89594, 30.07134], [-90.89906, 30.07479], [-90.90207, 30.07852], [-90.90271, 30.07958], [-90.90406, 30.0822], [-90.90389, 30.08262], [-90.90418, 30.0836], [-90.90574, 30.08747], [-90.90588, 30.08783], [-90.9061, 30.08859], [-90.90577, 30.08755], [-90.90487, 30.0862], [-90.90276, 30.0811], [-90.90246, 30.07997], [-90.90083, 30.07762], [-90.89937, 30.0761]]], [[[-90.90187, 30.08015], [-90.90126, 30.08065], [-90.90049, 30.0812], [-90.90085, 30.08082], [-90.90075, 30.08041], [-90.90161, 30.07977], [-90.90187, 30.08015]]], [[[-90.90204, 30.08074], [-90.90204, 30.08077], [-90.90194, 30.08082], [-90.90204, 30.08074]]], [[[-90.90265, 30.08219], [-90.90187, 30.08271], [-90.90188, 30.08304], [-90.89567, 30.08688], [-90.8946, 30.08345], [-90.89347, 30.0818], [-90.8918, 30.08039], [-90.89275, 30.08002], [-90.89591, 30.07667], [-90.89592, 30.07634], [-90.89625, 30.07599], [-90.89594, 30.07577], [-90.89712, 30.07458], [-90.89742, 30.07491], [-90.89711, 30.07519], [-90.89714, 30.07547], [-90.89747, 30.07556], [-90.89782, 30.07532], [-90.89808, 30.0756], [-90.89714, 30.0762], [-90.89633, 30.07734], [-90.8947, 30.07894], [-90.89468, 30.07924], [-90.89516, 30.0793], [-90.89682, 30.07767], [-90.89726, 30.07693], [-90.89764, 30.07694], [-90.89847, 30.07636], [-90.89856, 30.0761], [-90.89871, 30.07626], [-90.89777, 30.0771], [-90.89779, 30.07742], [-90.89821, 30.07747], [-90.89911, 30.07668], [-90.8993, 30.07687], [-90.89812, 30.07789], [-90.89813, 30.07821], [-90.89855, 30.07827], [-90.8997, 30.07729], [-90.90005, 30.07765], [-90.89725, 30.08015], [-90.89728, 30.08063], [-90.89749, 30.08077], [-90.89777, 30.0807], [-90.89993, 30.07889], [-90.89997, 30.07851], [-90.90044, 30.07809], [-90.90129, 30.0793], [-90.90013, 30.08019], [-90.9002, 30.0807], [-90.8993, 30.08141], [-90.89927, 30.08168], [-90.89962, 30.08183], [-90.90013, 30.08148], [-90.90018, 30.08181], [-90.90064, 30.0818], [-90.90066, 30.08206], [-90.90095, 30.08218], [-90.9022, 30.08135], [-90.90265, 30.08219]], [[-90.89679, 30.08379], [-90.89689, 30.08409], [-90.89834, 30.08319], [-90.89756, 30.08244], [-90.89688, 30.08235], [-90.89612, 30.08199], [-90.8954, 30.08099], [-90.89518, 30.08102], [-90.89629, 30.08267], [-90.89679, 30.08379]]], [[[-90.90403, 30.08574], [-90.90462, 30.0869], [-90.90431, 30.08688], [-90.90414, 30.08714], [-90.90253, 30.08784], [-90.90233, 30.08811], [-90.90245, 30.08845], [-90.90287, 30.08859], [-90.90302, 30.08823], [-90.90425, 30.0877], [-90.90455, 30.08787], [-90.90513, 30.08767], [-90.90533, 30.08821], [-90.89688, 30.09181], [-90.89581, 30.08746], [-90.903, 30.08301], [-90.90403, 30.08574]], [[-90.89978, 30.08875], [-90.90045, 30.08846], [-90.90048, 30.08768], [-90.90091, 30.08693], [-90.90217, 30.08613], [-90.902, 30.08567], [-90.89794, 30.08819], [-90.89823, 30.0894], [-90.89978, 30.08875]]], [[[-90.89712, 30.09231], [-90.90089, 30.09073], [-90.9055, 30.08874], [-90.90567, 30.08928], [-90.89718, 30.09264], [-90.89712, 30.09231]]], [[[-90.9066, 30.09042], [-90.90655, 30.08956], [-90.90696, 30.09041], [-90.90684, 30.09153], [-90.90783, 30.09357], [-90.90825, 30.09536], [-90.90865, 30.09818], [-90.90803, 30.09838], [-90.90648, 30.09179], [-90.9066, 30.09042]]], [[[-90.90594, 30.09024], [-90.90587, 30.09147], [-90.90277, 30.09245], [-90.89958, 30.09388], [-90.89891, 30.09403], [-90.89823, 30.09394], [-90.89765, 30.09362], [-90.8973, 30.09318], [-90.90586, 30.0898], [-90.90594, 30.09024]], [[-90.9047, 30.09039], [-90.90387, 30.09072], [-90.90401, 30.0912], [-90.90445, 30.09126], [-90.90501, 30.09093], [-90.90499, 30.09055], [-90.9047, 30.09039]]], [[[-90.90555, 30.09504], [-90.90534, 30.0953], [-90.90558, 30.09555], [-90.9067, 30.09533], [-90.90717, 30.09736], [-90.90451, 30.09839], [-90.90255, 30.09882], [-90.90194, 30.09868], [-90.90021, 30.09777], [-90.89958, 30.09767], [-90.89838, 30.09787], [-90.89745, 30.09418], [-90.89842, 30.09454], [-90.89938, 30.09451], [-90.90595, 30.09224], [-90.90658, 30.0948], [-90.90555, 30.09504]], [[-90.904, 30.09658], [-90.90349, 30.09575], [-90.9035, 30.09483], [-90.90013, 30.09605], [-90.9011, 30.09629], [-90.90271, 30.09714], [-90.90414, 30.09671], [-90.904, 30.09658]]], [[[-90.90535, 30.09865], [-90.90657, 30.09809], [-90.90729, 30.0979], [-90.90742, 30.09849], [-90.90426, 30.09904], [-90.90535, 30.09865]]], [[[-90.90166, 30.09917], [-90.90245, 30.09935], [-90.89889, 30.09998], [-90.89851, 30.0984], [-90.90002, 30.09829], [-90.90166, 30.09917]]], [[[-90.90599, 30.1014], [-90.9058, 30.1017], [-90.9061, 30.10192], [-90.90809, 30.1014], [-90.90824, 30.10228], [-90.90806, 30.10372], [-90.90704, 30.10411], [-90.90679, 30.10465], [-90.9072, 30.10529], [-90.90843, 30.10522], [-90.9085, 30.10545], [-90.90607, 30.1059], [-90.90576, 30.10567], [-90.9053, 30.10434], [-90.90453, 30.10395], [-90.90006, 30.10476], [-90.89904, 30.10058], [-90.90756, 30.09909], [-90.90796, 30.10087], [-90.90599, 30.1014]], [[-90.90397, 30.10219], [-90.90389, 30.10143], [-90.90131, 30.10188], [-90.90153, 30.10277], [-90.90401, 30.1023], [-90.90397, 30.10219]]], [[[-90.89937, 30.10455], [-90.89942, 30.10488], [-90.87594, 30.10949], [-90.87258, 30.10944], [-90.87365, 30.1082], [-90.8772, 30.10558], [-90.88023, 30.10421], [-90.88294, 30.10345], [-90.89843, 30.10069], [-90.89937, 30.10455]], [[-90.88112, 30.10619], [-90.8833, 30.10509], [-90.88008, 30.10609], [-90.87744, 30.10749], [-90.87977, 30.10703], [-90.88112, 30.10619]], [[-90.89596, 30.10329], [-90.89699, 30.10282], [-90.89695, 30.10265], [-90.89319, 30.10333], [-90.89491, 30.10357], [-90.89596, 30.10329]], [[-90.88987, 30.10397], [-90.89009, 30.10389], [-90.88912, 30.10406], [-90.88959, 30.1041], [-90.88987, 30.10397]], [[-90.88617, 30.10458], [-90.88632, 30.10459], [-90.88649, 30.10452], [-90.88617, 30.10458]]], [[[-90.90519, 30.1059], [-90.90563, 30.10632], [-90.90614, 30.10646], [-90.90778, 30.10616], [-90.90817, 30.10658], [-90.90888, 30.10679], [-90.90756, 30.10705], [-90.907, 30.10685], [-90.90549, 30.1072], [-90.90485, 30.10711], [-90.90422, 30.10746], [-90.90358, 30.1075], [-90.9032, 30.10779], [-90.90257, 30.10767], [-90.90199, 30.10797], [-90.90146, 30.1079], [-90.90089, 30.10817], [-90.90019, 30.10529], [-90.90445, 30.10449], [-90.90478, 30.10465], [-90.90519, 30.1059]]], [[[-90.90157, 30.11666], [-90.90228, 30.11639], [-90.90346, 30.12066], [-90.90455, 30.1229], [-90.90572, 30.12465], [-90.90052, 30.12707], [-90.90056, 30.12516], [-90.90307, 30.124], [-90.90199, 30.12202], [-90.90113, 30.1196], [-90.90068, 30.11955], [-90.9007, 30.11891], [-90.89658, 30.11877], [-90.89551, 30.1184], [-90.89457, 30.11775], [-90.90104, 30.11652], [-90.90157, 30.11666]]], [[[-90.90393, 30.12798], [-90.9005, 30.12793], [-90.90051, 30.12769], [-90.90604, 30.12512], [-90.90811, 30.12805], [-90.90584, 30.12801], [-90.90535, 30.12732], [-90.90393, 30.12798]]], [[[-90.89202, 30.03888], [-90.89204, 30.03758], [-90.89238, 30.03758], [-90.89202, 30.03888]]], [[[-90.89284, 30.04661], [-90.89052, 30.05431], [-90.8903, 30.05433], [-90.89042, 30.05363], [-90.88964, 30.0558], [-90.88938, 30.0557], [-90.88913, 30.05582], [-90.88891, 30.05546], [-90.88961, 30.05281], [-90.88983, 30.05261], [-90.89156, 30.04659], [-90.89185, 30.0466], [-90.89188, 30.04549], [-90.89411, 30.0377], [-90.89538, 30.03791], [-90.89284, 30.04661]]], [[[-90.88914, 30.05265], [-90.88779, 30.05711], [-90.88861, 30.05392], [-90.88837, 30.05361], [-90.88801, 30.05379], [-90.88709, 30.05697], [-90.88697, 30.05695], [-90.88871, 30.05072], [-90.88914, 30.05265]]], [[[-90.88882, 30.06865], [-90.88764, 30.06787], [-90.88769, 30.0672], [-90.88869, 30.06517], [-90.88994, 30.06567], [-90.89131, 30.06652], [-90.89261, 30.06811], [-90.89553, 30.07094], [-90.89457, 30.07206], [-90.89351, 30.07149], [-90.89308, 30.071], [-90.89372, 30.07011], [-90.8936, 30.0698], [-90.89321, 30.06983], [-90.89253, 30.07064], [-90.89184, 30.07057], [-90.88952, 30.0693], [-90.88882, 30.06865]]], [[[-90.88757, 30.06894], [-90.88753, 30.06887], [-90.88762, 30.0687], [-90.88767, 30.06872], [-90.88757, 30.06894]]], [[[-90.8864, 30.07115], [-90.88633, 30.07117], [-90.8874, 30.06926], [-90.88645, 30.07114], [-90.8864, 30.07115]]], [[[-90.89135, 30.07096], [-90.89141, 30.0713], [-90.89088, 30.07204], [-90.89102, 30.07232], [-90.89141, 30.07228], [-90.89215, 30.07138], [-90.88789, 30.07742], [-90.88756, 30.07717], [-90.88982, 30.07281], [-90.8911, 30.0708], [-90.89135, 30.07096]]], [[[-90.88659, 30.07337], [-90.88657, 30.07285], [-90.88636, 30.07264], [-90.88654, 30.07229], [-90.88697, 30.07217], [-90.88679, 30.07179], [-90.88713, 30.07115], [-90.88775, 30.07141], [-90.88807, 30.07122], [-90.888, 30.07095], [-90.88738, 30.07065], [-90.88824, 30.06895], [-90.88839, 30.06904], [-90.88792, 30.0699], [-90.88802, 30.07016], [-90.88843, 30.07016], [-90.88883, 30.06949], [-90.88974, 30.07006], [-90.88896, 30.07139], [-90.88863, 30.07164], [-90.88601, 30.0763], [-90.88349, 30.07556], [-90.8857, 30.07078], [-90.88552, 30.07041], [-90.88456, 30.0701], [-90.88513, 30.06893], [-90.88509, 30.06809], [-90.88703, 30.06852], [-90.88443, 30.07376], [-90.88462, 30.07406], [-90.88499, 30.07396], [-90.88609, 30.07167], [-90.88571, 30.07265], [-90.88571, 30.07317], [-90.88597, 30.07348], [-90.88526, 30.07478], [-90.8854, 30.0751], [-90.88583, 30.075], [-90.88659, 30.07337]]], [[[-90.88886, 30.07278], [-90.88872, 30.07272], [-90.88916, 30.07193], [-90.89023, 30.07058], [-90.88886, 30.07278]]], [[[-90.89126, 30.07454], [-90.89185, 30.07366], [-90.89306, 30.07188], [-90.89322, 30.07196], [-90.8907, 30.07537], [-90.89126, 30.07454]]], [[[-90.89317, 30.07423], [-90.89319, 30.07453], [-90.89355, 30.07462], [-90.89, 30.07898], [-90.8892, 30.07838], [-90.89375, 30.07225], [-90.89446, 30.07264], [-90.89317, 30.07423]]], [[[-90.8945, 30.07455], [-90.89456, 30.07489], [-90.89495, 30.07491], [-90.89608, 30.07361], [-90.89671, 30.07416], [-90.8936, 30.07728], [-90.89246, 30.07949], [-90.89188, 30.07983], [-90.89109, 30.07976], [-90.89047, 30.07934], [-90.89547, 30.0732], [-90.8956, 30.07327], [-90.8945, 30.07455]]], [[[-90.88822, 30.0736], [-90.88844, 30.07321], [-90.8886, 30.07328], [-90.88726, 30.07545], [-90.88822, 30.0736]]], [[[-90.88724, 30.07602], [-90.88749, 30.07599], [-90.88704, 30.07685], [-90.88655, 30.07658], [-90.88692, 30.07591], [-90.88724, 30.07602]]], [[[-90.89424, 30.07752], [-90.8944, 30.0774], [-90.89412, 30.07772], [-90.89412, 30.07758], [-90.89424, 30.07752]]], [[[-90.88852, 30.0778], [-90.8888, 30.07793], [-90.88873, 30.07803], [-90.8884, 30.07779], [-90.88852, 30.0778]]], [[[-90.88938, 30.0798], [-90.8897, 30.08009], [-90.8901, 30.07978], [-90.89259, 30.08175], [-90.89404, 30.08369], [-90.89467, 30.08541], [-90.89631, 30.09205], [-90.89126, 30.09422], [-90.8911, 30.09456], [-90.8915, 30.09472], [-90.89644, 30.0926], [-90.89777, 30.09798], [-90.89729, 30.09809], [-90.89716, 30.09836], [-90.89741, 30.09857], [-90.8979, 30.09851], [-90.89828, 30.10008], [-90.88363, 30.10259], [-90.88095, 30.10323], [-90.87888, 30.10395], [-90.87675, 30.10495], [-90.87374, 30.10711], [-90.87098, 30.1064], [-90.87338, 30.1061], [-90.87522, 30.10366], [-90.87514, 30.10332], [-90.87662, 30.10288], [-90.87681, 30.10264], [-90.88181, 30.10125], [-90.88091, 30.09887], [-90.88299, 30.09789], [-90.88254, 30.09544], [-90.88186, 30.09519], [-90.88148, 30.09531], [-90.88321, 30.094], [-90.88317, 30.0937], [-90.88261, 30.09328], [-90.88108, 30.09433], [-90.88067, 30.09409], [-90.88035, 30.09415], [-90.87659, 30.09812], [-90.87644, 30.09787], [-90.87505, 30.09705], [-90.87468, 30.09707], [-90.86993, 30.10194], [-90.86994, 30.10134], [-90.87992, 30.0909], [-90.87985, 30.09057], [-90.87948, 30.09054], [-90.878, 30.09196], [-90.87647, 30.09096], [-90.87756, 30.08983], [-90.87885, 30.08897], [-90.87992, 30.08885], [-90.88093, 30.08919], [-90.88153, 30.08973], [-90.88179, 30.09025], [-90.88186, 30.09101], [-90.88166, 30.09159], [-90.88265, 30.09144], [-90.88355, 30.09162], [-90.88467, 30.0924], [-90.88518, 30.09307], [-90.88531, 30.09427], [-90.88468, 30.09533], [-90.88509, 30.09811], [-90.88464, 30.09907], [-90.88355, 30.09981], [-90.88393, 30.10084], [-90.89535, 30.0989], [-90.89528, 30.09796], [-90.89562, 30.09723], [-90.89507, 30.09505], [-90.89218, 30.09628], [-90.89132, 30.0964], [-90.89048, 30.09623], [-90.88993, 30.09592], [-90.8894, 30.09532], [-90.8892, 30.09478], [-90.88929, 30.09384], [-90.88987, 30.09305], [-90.89411, 30.09114], [-90.89281, 30.0858], [-90.89229, 30.08438], [-90.89123, 30.08292], [-90.88974, 30.08175], [-90.88907, 30.08167], [-90.88497, 30.08699], [-90.88418, 30.08747], [-90.88311, 30.0876], [-90.87227, 30.08422], [-90.86927, 30.08367], [-90.86851, 30.08331], [-90.86797, 30.08274], [-90.8668, 30.08257], [-90.8664, 30.08408], [-90.8675, 30.08393], [-90.8688, 30.08408], [-90.87051, 30.08493], [-90.87123, 30.08575], [-90.87166, 30.08671], [-90.87174, 30.08774], [-90.87153, 30.08883], [-90.87257, 30.08886], [-90.87424, 30.08957], [-90.87488, 30.0902], [-90.87518, 30.09101], [-90.8751, 30.09185], [-90.87426, 30.09329], [-90.8745, 30.09305], [-90.87317, 30.09481], [-90.87443, 30.09574], [-90.86996, 30.10047], [-90.87005, 30.09625], [-90.87304, 30.09137], [-90.87304, 30.09111], [-90.87206, 30.09065], [-90.87175, 30.0907], [-90.87026, 30.09318], [-90.87012, 30.09314], [-90.87016, 30.09135], [-90.86936, 30.09134], [-90.86959, 30.09068], [-90.86939, 30.09043], [-90.86797, 30.09011], [-90.86775, 30.09027], [-90.8674, 30.09131], [-90.86521, 30.09127], [-90.86429, 30.09052], [-90.86356, 30.08944], [-90.8624, 30.08949], [-90.85983, 30.08891], [-90.85991, 30.08549], [-90.86043, 30.08612], [-90.86021, 30.08695], [-90.86048, 30.08715], [-90.86276, 30.08768], [-90.86323, 30.08753], [-90.86475, 30.08212], [-90.86461, 30.08179], [-90.86485, 30.08061], [-90.86941, 30.08129], [-90.86942, 30.08163], [-90.86981, 30.08207], [-90.87299, 30.08265], [-90.8834, 30.08594], [-90.88525, 30.08382], [-90.88887, 30.07885], [-90.88963, 30.07942], [-90.88938, 30.0798]], [[-90.89627, 30.09303], [-90.8959, 30.09317], [-90.89602, 30.0934], [-90.89638, 30.09327], [-90.89627, 30.09303]], [[-90.86542, 30.08859], [-90.86815, 30.08901], [-90.86865, 30.08659], [-90.86592, 30.08617], [-90.86542, 30.08859]]], [[[-90.88894, 30.11872], [-90.88559, 30.11867], [-90.88527, 30.11842], [-90.88869, 30.11777], [-90.88894, 30.11872]]], [[[-90.89033, 30.11855], [-90.89126, 30.11837], [-90.89077, 30.11875], [-90.88937, 30.11873], [-90.89033, 30.11855]]], [[[-90.88229, 30.05108], [-90.88314, 30.05137], [-90.88346, 30.05121], [-90.88476, 30.04648], [-90.88692, 30.04652], [-90.88538, 30.05197], [-90.88447, 30.05288], [-90.88314, 30.05321], [-90.88135, 30.05281], [-90.88149, 30.04643], [-90.88344, 30.04646], [-90.88229, 30.05108]]], [[[-90.88288, 30.05337], [-90.88371, 30.05396], [-90.88418, 30.05495], [-90.88491, 30.05495], [-90.88628, 30.05009], [-90.88694, 30.04915], [-90.88768, 30.04653], [-90.88985, 30.04656], [-90.88873, 30.0505], [-90.88842, 30.05031], [-90.88813, 30.05051], [-90.88636, 30.05684], [-90.88427, 30.05661], [-90.88177, 30.05706], [-90.88229, 30.05518], [-90.88206, 30.05487], [-90.88131, 30.05476], [-90.88135, 30.05305], [-90.88288, 30.05337]]], [[[-90.88156, 30.05558], [-90.88111, 30.05561], [-90.88084, 30.05633], [-90.88109, 30.0572], [-90.8753, 30.05844], [-90.87558, 30.05793], [-90.8752, 30.0577], [-90.87491, 30.05789], [-90.8746, 30.05857], [-90.87376, 30.05868], [-90.87444, 30.05709], [-90.87489, 30.05664], [-90.87483, 30.05623], [-90.87426, 30.05611], [-90.8738, 30.05702], [-90.87355, 30.0568], [-90.87323, 30.05692], [-90.87246, 30.05866], [-90.87086, 30.05869], [-90.87093, 30.05528], [-90.87173, 30.05529], [-90.87146, 30.0558], [-90.87163, 30.05601], [-90.8725, 30.05531], [-90.87647, 30.05537], [-90.87683, 30.05643], [-90.87897, 30.05601], [-90.87915, 30.05541], [-90.8813, 30.05545], [-90.8813, 30.0552], [-90.88163, 30.05531], [-90.88156, 30.05558]]], [[[-90.88468, 30.06472], [-90.88637, 30.06461], [-90.88811, 30.06499], [-90.88709, 30.06705], [-90.88708, 30.06753], [-90.88606, 30.06723], [-90.88474, 30.06746], [-90.87789, 30.06713], [-90.87066, 30.06802], [-90.87067, 30.06724], [-90.87123, 30.06704], [-90.87229, 30.0673], [-90.87263, 30.06704], [-90.87285, 30.06655], [-90.87755, 30.06542], [-90.88322, 30.06469], [-90.88468, 30.06472]]], [[[-90.87911, 30.07028], [-90.87887, 30.06962], [-90.87959, 30.06771], [-90.88017, 30.06773], [-90.87951, 30.06958], [-90.87979, 30.06988], [-90.88011, 30.06971], [-90.88081, 30.06774], [-90.88448, 30.06797], [-90.88436, 30.06848], [-90.88451, 30.06884], [-90.8839, 30.07028], [-90.88412, 30.07053], [-90.88502, 30.07082], [-90.88286, 30.07546], [-90.8773, 30.07466], [-90.87827, 30.07363], [-90.87904, 30.07128], [-90.87911, 30.07028]], [[-90.88033, 30.07341], [-90.88166, 30.0736], [-90.8826, 30.07159], [-90.8821, 30.07087], [-90.88198, 30.07008], [-90.88166, 30.07069], [-90.881, 30.07125], [-90.88033, 30.07341]]], [[[-90.87219, 30.0695], [-90.8719, 30.07002], [-90.87148, 30.07206], [-90.87131, 30.07381], [-90.86875, 30.07344], [-90.86878, 30.07329], [-90.87054, 30.07332], [-90.87064, 30.06858], [-90.87244, 30.06829], [-90.87219, 30.0695]]], [[[-90.86815, 30.07328], [-90.86813, 30.07335], [-90.86755, 30.07327], [-90.86815, 30.07328]]], [[[-90.88086, 30.07572], [-90.88262, 30.07597], [-90.88236, 30.07658], [-90.88261, 30.07685], [-90.88293, 30.07673], [-90.88325, 30.07607], [-90.88492, 30.07647], [-90.88696, 30.07745], [-90.88839, 30.07849], [-90.88323, 30.08535], [-90.8732, 30.08214], [-90.87012, 30.08158], [-90.86985, 30.08082], [-90.86663, 30.0803], [-90.86698, 30.07847], [-90.86711, 30.07845], [-90.86723, 30.07897], [-90.86767, 30.0788], [-90.86864, 30.07397], [-90.88086, 30.07572]], [[-90.88409, 30.07807], [-90.88333, 30.07843], [-90.88225, 30.07848], [-90.88127, 30.07808], [-90.88064, 30.07737], [-90.87019, 30.07588], [-90.86956, 30.07907], [-90.87094, 30.07945], [-90.8717, 30.08017], [-90.87375, 30.08054], [-90.88258, 30.08331], [-90.88588, 30.07883], [-90.8849, 30.07828], [-90.88409, 30.07807]]], [[[-90.8652, 30.07498], [-90.86475, 30.07489], [-90.86499, 30.07345], [-90.86802, 30.07389], [-90.86722, 30.07787], [-90.86661, 30.07802], [-90.86642, 30.07822], [-90.86601, 30.08021], [-90.86341, 30.07987], [-90.86386, 30.07797], [-90.86447, 30.07806], [-90.86429, 30.0783], [-90.86447, 30.07806], [-90.86465, 30.07808], [-90.8652, 30.07498]], [[-90.86532, 30.07637], [-90.86518, 30.0769], [-90.86552, 30.07665], [-90.86581, 30.07525], [-90.86531, 30.07518], [-90.86532, 30.07637]]], [[[-90.87908, 30.09724], [-90.87896, 30.0972], [-90.88098, 30.09569], [-90.88109, 30.09613], [-90.87908, 30.09724]]], [[[-90.8704, 30.10621], [-90.86984, 30.10604], [-90.86986, 30.1049], [-90.87094, 30.10458], [-90.8704, 30.10621]]], [[[-90.87244, 30.10837], [-90.87159, 30.10942], [-90.86977, 30.10939], [-90.86983, 30.10661], [-90.8731, 30.1077], [-90.87244, 30.10837]]], [[[-90.87854, 30.10953], [-90.88001, 30.10924], [-90.88009, 30.10956], [-90.87854, 30.10953]]], [[[-90.88134, 30.11715], [-90.87997, 30.11744], [-90.88001, 30.11573], [-90.88055, 30.11561], [-90.8807, 30.11537], [-90.8805, 30.11512], [-90.88002, 30.11517], [-90.88008, 30.11264], [-90.88028, 30.11224], [-90.88009, 30.11209], [-90.88014, 30.10974], [-90.88245, 30.11862], [-90.87995, 30.11858], [-90.87996, 30.11795], [-90.88204, 30.1176], [-90.88134, 30.11715]]], [[[-90.88411, 30.11864], [-90.88421, 30.11862], [-90.88423, 30.11865], [-90.88411, 30.11864]]]]}, "properties": {"kind": "pv", "area_km2": 28.02, "mw": 1401.2}}, {"type": "Feature", "geometry": {"type": "Point", "coordinates": [-90.92994, 30.08664]}, "properties": {"kind": "turbine", "i": 0, "mw": 6.0, "hub_m": 120.0, "rotor_m": 150.0}}, {"type": "Feature", "geometry": {"type": "Point", "coordinates": [-90.92271, 30.07006]}, "properties": {"kind": "turbine", "i": 1, "mw": 6.0, "hub_m": 120.0, "rotor_m": 150.0}}, {"type": "Feature", "geometry": {"type": "Point", "coordinates": [-90.90323, 30.0961]}, "properties": {"kind": "turbine", "i": 2, "mw": 6.0, "hub_m": 120.0, "rotor_m": 150.0}}, {"type": "Feature", "geometry": {"type": "Point", "coordinates": [-90.91149, 30.06329]}, "properties": {"kind": "turbine", "i": 3, "mw": 6.0, "hub_m": 120.0, "rotor_m": 150.0}}, {"type": "Feature", "geometry": {"type": "Point", "coordinates": [-90.93772, 30.07688]}, "properties": {"kind": "turbine", "i": 4, "mw": 6.0, "hub_m": 120.0, "rotor_m": 150.0}}, {"type": "Feature", "geometry": {"type": "Point", "coordinates": [-90.88836, 30.08269]}, "properties": {"kind": "turbine", "i": 5, "mw": 6.0, "hub_m": 120.0, "rotor_m": 150.0}}, {"type": "Feature", "geometry": {"type": "Point", "coordinates": [-90.9413, 30.08682]}, "properties": {"kind": "turbine", "i": 6, "mw": 6.0, "hub_m": 120.0, "rotor_m": 150.0}}, {"type": "Feature", "geometry": {"type": "Point", "coordinates": [-90.93421, 30.06365]}, "properties": {"kind": "turbine", "i": 7, "mw": 6.0, "hub_m": 120.0, "rotor_m": 150.0}}, {"type": "Feature", "geometry": {"type": "Point", "coordinates": [-90.93724, 30.09994]}, "properties": {"kind": "turbine", "i": 8, "mw": 6.0, "hub_m": 120.0, "rotor_m": 150.0}}, {"type": "Feature", "geometry": {"type": "Point", "coordinates": [-90.88808, 30.09586]}, "properties": {"kind": "turbine", "i": 9, "mw": 6.0, "hub_m": 120.0, "rotor_m": 150.0}}, {"type": "Feature", "geometry": {"type": "Point", "coordinates": [-90.91927, 30.05353]}, "properties": {"kind": "turbine", "i": 10, "mw": 6.0, "hub_m": 120.0, "rotor_m": 150.0}}, {"type": "Feature", "geometry": {"type": "Point", "coordinates": [-90.94915, 30.07377]}, "properties": {"kind": "turbine", "i": 11, "mw": 6.0, "hub_m": 120.0, "rotor_m": 150.0}}, {"type": "Feature", "geometry": {"type": "Point", "coordinates": [-90.93325, 30.10976]}, "properties": {"kind": "turbine", "i": 12, "mw": 6.0, "hub_m": 120.0, "rotor_m": 150.0}}, {"type": "Feature", "geometry": {"type": "Point", "coordinates": [-90.90413, 30.05329]}, "properties": {"kind": "turbine", "i": 13, "mw": 6.0, "hub_m": 120.0, "rotor_m": 150.0}}, {"type": "Feature", "geometry": {"type": "Point", "coordinates": [-90.881, 30.07269]}, "properties": {"kind": "turbine", "i": 14, "mw": 6.0, "hub_m": 120.0, "rotor_m": 150.0}}, {"type": "Feature", "geometry": {"type": "Point", "coordinates": [-90.87693, 30.0858]}, "properties": {"kind": "turbine", "i": 15, "mw": 6.0, "hub_m": 120.0, "rotor_m": 150.0}}, {"type": "Feature", "geometry": {"type": "Point", "coordinates": [-90.94564, 30.06054]}, "properties": {"kind": "turbine", "i": 16, "mw": 6.0, "hub_m": 120.0, "rotor_m": 150.0}}, {"type": "Feature", "geometry": {"type": "Point", "coordinates": [-90.93448, 30.05048]}, "properties": {"kind": "turbine", "i": 17, "mw": 6.0, "hub_m": 120.0, "rotor_m": 150.0}}, {"type": "Feature", "geometry": {"type": "Point", "coordinates": [-90.92547, 30.11952]}, "properties": {"kind": "turbine", "i": 18, "mw": 6.0, "hub_m": 120.0, "rotor_m": 150.0}}, {"type": "Feature", "geometry": {"type": "Point", "coordinates": [-90.89895, 30.11909]}, "properties": {"kind": "turbine", "i": 19, "mw": 6.0, "hub_m": 120.0, "rotor_m": 150.0}}, {"type": "Feature", "geometry": {"type": "Point", "coordinates": [-90.8852, 30.05299]}, "properties": {"kind": "turbine", "i": 20, "mw": 6.0, "hub_m": 120.0, "rotor_m": 150.0}}, {"type": "Feature", "geometry": {"type": "Point", "coordinates": [-90.90812, 30.04347]}, "properties": {"kind": "turbine", "i": 21, "mw": 6.0, "hub_m": 120.0, "rotor_m": 150.0}}, {"type": "Feature", "geometry": {"type": "Point", "coordinates": [-90.93683, 30.1197]}, "properties": {"kind": "turbine", "i": 22, "mw": 6.0, "hub_m": 120.0, "rotor_m": 150.0}}, {"type": "Feature", "geometry": {"type": "Point", "coordinates": [-90.88015, 30.1122]}, "properties": {"kind": "turbine", "i": 23, "mw": 6.0, "hub_m": 120.0, "rotor_m": 150.0}}, {"type": "Feature", "geometry": {"type": "Point", "coordinates": [-90.95699, 30.06071]}, "properties": {"kind": "turbine", "i": 24, "mw": 6.0, "hub_m": 120.0, "rotor_m": 150.0}}, {"type": "Feature", "geometry": {"type": "Point", "coordinates": [-90.91955, 30.04036]}, "properties": {"kind": "turbine", "i": 25, "mw": 6.0, "hub_m": 120.0, "rotor_m": 150.0}}, {"type": "Feature", "geometry": {"type": "Point", "coordinates": [-90.96403, 30.08718]}, "properties": {"kind": "turbine", "i": 26, "mw": 6.0, "hub_m": 120.0, "rotor_m": 150.0}}, {"type": "Feature", "geometry": {"type": "Point", "coordinates": [-90.94963, 30.05072]}, "properties": {"kind": "turbine", "i": 27, "mw": 6.0, "hub_m": 120.0, "rotor_m": 150.0}}, {"type": "Feature", "geometry": {"type": "Point", "coordinates": [-90.96436, 30.07071]}, "properties": {"kind": "turbine", "i": 28, "mw": 6.0, "hub_m": 120.0, "rotor_m": 150.0}}, {"type": "Feature", "geometry": {"type": "Point", "coordinates": [-90.88752, 30.12221]}, "properties": {"kind": "turbine", "i": 29, "mw": 6.0, "hub_m": 120.0, "rotor_m": 150.0}}, {"type": "Feature", "geometry": {"type": "Point", "coordinates": [-90.90632, 30.12909]}, "properties": {"kind": "turbine", "i": 30, "mw": 6.0, "hub_m": 120.0, "rotor_m": 150.0}}, {"type": "Feature", "geometry": {"type": "Point", "coordinates": [-90.93847, 30.04066]}, "properties": {"kind": "turbine", "i": 31, "mw": 6.0, "hub_m": 120.0, "rotor_m": 150.0}}, {"type": "Feature", "geometry": {"type": "Point", "coordinates": [-90.86157, 30.09543]}, "properties": {"kind": "turbine", "i": 32, "mw": 6.0, "hub_m": 120.0, "rotor_m": 150.0}}, {"type": "Feature", "geometry": {"type": "Point", "coordinates": [-90.88927, 30.03988]}, "properties": {"kind": "turbine", "i": 33, "mw": 6.0, "hub_m": 120.0, "rotor_m": 150.0}}, {"type": "Feature", "geometry": {"type": "Point", "coordinates": [-90.96098, 30.05089]}, "properties": {"kind": "turbine", "i": 34, "mw": 6.0, "hub_m": 120.0, "rotor_m": 150.0}}, {"type": "Feature", "geometry": {"type": "Point", "coordinates": [-90.96835, 30.06089]}, "properties": {"kind": "turbine", "i": 35, "mw": 6.0, "hub_m": 120.0, "rotor_m": 150.0}}, {"type": "Feature", "geometry": {"type": "Point", "coordinates": [-90.87784, 30.04299]}, "properties": {"kind": "turbine", "i": 36, "mw": 6.0, "hub_m": 120.0, "rotor_m": 150.0}}, {"type": "Feature", "geometry": {"type": "Point", "coordinates": [-90.89489, 30.13221]}, "properties": {"kind": "turbine", "i": 37, "mw": 6.0, "hub_m": 120.0, "rotor_m": 150.0}}, {"type": "Feature", "geometry": {"type": "Point", "coordinates": [-90.85421, 30.08543]}, "properties": {"kind": "turbine", "i": 38, "mw": 6.0, "hub_m": 120.0, "rotor_m": 150.0}}, {"type": "Feature", "geometry": {"type": "Point", "coordinates": [-90.92354, 30.03054]}, "properties": {"kind": "turbine", "i": 39, "mw": 6.0, "hub_m": 120.0, "rotor_m": 150.0}}, {"type": "Feature", "geometry": {"type": "Point", "coordinates": [-90.95361, 30.0409]}, "properties": {"kind": "turbine", "i": 40, "mw": 6.0, "hub_m": 120.0, "rotor_m": 150.0}}, {"type": "Feature", "geometry": {"type": "Point", "coordinates": [-90.97572, 30.07089]}, "properties": {"kind": "turbine", "i": 41, "mw": 6.0, "hub_m": 120.0, "rotor_m": 150.0}}, {"type": "Feature", "geometry": {"type": "Point", "coordinates": [-90.97519, 30.09723]}, "properties": {"kind": "turbine", "i": 42, "mw": 6.0, "hub_m": 120.0, "rotor_m": 150.0}}, {"type": "Feature", "geometry": {"type": "Point", "coordinates": [-90.85457, 30.06896]}, "properties": {"kind": "turbine", "i": 43, "mw": 6.0, "hub_m": 120.0, "rotor_m": 150.0}}, {"type": "Feature", "geometry": {"type": "Point", "coordinates": [-90.97931, 30.08082]}, "properties": {"kind": "turbine", "i": 44, "mw": 6.0, "hub_m": 120.0, "rotor_m": 150.0}}, {"type": "Feature", "geometry": {"type": "Point", "coordinates": [-90.85864, 30.05585]}, "properties": {"kind": "turbine", "i": 45, "mw": 6.0, "hub_m": 120.0, "rotor_m": 150.0}}, {"type": "Feature", "geometry": {"type": "Point", "coordinates": [-90.86642, 30.0461]}, "properties": {"kind": "turbine", "i": 46, "mw": 6.0, "hub_m": 120.0, "rotor_m": 150.0}}, {"type": "Feature", "geometry": {"type": "Point", "coordinates": [-90.9099, 30.13903]}, "properties": {"kind": "turbine", "i": 47, "mw": 6.0, "hub_m": 120.0, "rotor_m": 150.0}}, {"type": "Feature", "geometry": {"type": "Point", "coordinates": [-90.96721, 30.11687]}, "properties": {"kind": "turbine", "i": 48, "mw": 6.0, "hub_m": 120.0, "rotor_m": 150.0}}, {"type": "Feature", "geometry": {"type": "Point", "coordinates": [-90.85021, 30.09525]}, "properties": {"kind": "turbine", "i": 49, "mw": 6.0, "hub_m": 120.0, "rotor_m": 150.0}}, {"type": "Feature", "geometry": {"type": "Point", "coordinates": [-90.95943, 30.12664]}, "properties": {"kind": "turbine", "i": 50, "mw": 6.0, "hub_m": 120.0, "rotor_m": 150.0}}, {"type": "Feature", "geometry": {"type": "Point", "coordinates": [-90.9212, 30.14251]}, "properties": {"kind": "turbine", "i": 51, "mw": 6.0, "hub_m": 120.0, "rotor_m": 150.0}}, {"type": "Feature", "geometry": {"type": "Point", "coordinates": [-90.89847, 30.14215]}, "properties": {"kind": "turbine", "i": 52, "mw": 6.0, "hub_m": 120.0, "rotor_m": 150.0}}, {"type": "Feature", "geometry": {"type": "Point", "coordinates": [-90.97978, 30.05777]}, "properties": {"kind": "turbine", "i": 53, "mw": 6.0, "hub_m": 120.0, "rotor_m": 150.0}}, {"type": "Feature", "geometry": {"type": "Point", "coordinates": [-90.88338, 30.13861]}, "properties": {"kind": "turbine", "i": 54, "mw": 6.0, "hub_m": 120.0, "rotor_m": 150.0}}, {"type": "Feature", "geometry": {"type": "Point", "coordinates": [-90.98668, 30.09082]}, "properties": {"kind": "turbine", "i": 55, "mw": 6.0, "hub_m": 120.0, "rotor_m": 150.0}}, {"type": "Feature", "geometry": {"type": "Point", "coordinates": [-90.84307, 30.07536]}, "properties": {"kind": "turbine", "i": 56, "mw": 6.0, "hub_m": 120.0, "rotor_m": 150.0}}, {"type": "Feature", "geometry": {"type": "Point", "coordinates": [-90.97247, 30.04448]}, "properties": {"kind": "turbine", "i": 57, "mw": 6.0, "hub_m": 120.0, "rotor_m": 150.0}}, {"type": "Feature", "geometry": {"type": "Point", "coordinates": [-90.87049, 30.03299]}, "properties": {"kind": "turbine", "i": 58, "mw": 6.0, "hub_m": 120.0, "rotor_m": 150.0}}, {"type": "Feature", "geometry": {"type": "Point", "coordinates": [-90.85506, 30.04591]}, "properties": {"kind": "turbine", "i": 59, "mw": 6.0, "hub_m": 120.0, "rotor_m": 150.0}}, {"type": "Feature", "geometry": {"type": "Point", "coordinates": [-90.98715, 30.06777]}, "properties": {"kind": "turbine", "i": 60, "mw": 6.0, "hub_m": 120.0, "rotor_m": 150.0}}, {"type": "Feature", "geometry": {"type": "Point", "coordinates": [-90.9325, 30.14598]}, "properties": {"kind": "turbine", "i": 61, "mw": 6.0, "hub_m": 120.0, "rotor_m": 150.0}}]}