{"type": "FeatureCollection", "features": [{"type": "Feature", "geometry": {"type": "MultiPolygon", "coordinates": [[[[11.27439, 52.05651], [11.27597, 52.05474], [11.27824, 52.0539], [11.2702, 52.05034], [11.27439, 52.05651]]], [[[11.2682, 52.04471], [11.28288, 52.05115], [11.28486, 52.05045], [11.28751, 52.05015], [11.29102, 52.05063], [11.2924, 52.04945], [11.29482, 52.04864], [11.29709, 52.04857], [11.29919, 52.04902], [11.30163, 52.05086], [11.302, 52.05271], [11.30128, 52.0541], [11.30245, 52.05585], [11.30237, 52.05763], [11.30402, 52.05843], [11.30818, 52.05669], [11.31257, 52.0565], [11.3155, 52.05185], [11.31689, 52.05126], [11.31954, 52.05097], [11.32449, 52.04862], [11.33505, 52.04196], [11.33482, 52.04097], [11.32689, 52.03203], [11.32321, 52.03226], [11.31952, 52.03176], [11.315, 52.02971], [11.31335, 52.02795], [11.31349, 52.02597], [11.31215, 52.02384], [11.31272, 52.02217], [11.31757, 52.01905], [11.32159, 52.01821], [11.32462, 52.01815], [11.32536, 52.01733], [11.32294, 52.0155], [11.30762, 52.0172], [11.30552, 52.0185], [11.30531, 52.01978], [11.30426, 52.02101], [11.30131, 52.02223], [11.29875, 52.02236], [11.29664, 52.02196], [11.29493, 52.02109], [11.29312, 52.01935], [11.28693, 52.02108], [11.28877, 52.02196], [11.29003, 52.02354], [11.28926, 52.02705], [11.29092, 52.02939], [11.29033, 52.03175], [11.28891, 52.0328], [11.28641, 52.03351], [11.28058, 52.03345], [11.27851, 52.03306], [11.27553, 52.0334], [11.2738, 52.03383], [11.26914, 52.03596], [11.26726, 52.03783], [11.2682, 52.04471]], [[11.30429, 52.03561], [11.30301, 52.03676], [11.30115, 52.03749], [11.29892, 52.03774], [11.29675, 52.03745], [11.2949, 52.03666], [11.2937, 52.03551], [11.29329, 52.03414], [11.29377, 52.0328], [11.29505, 52.03165], [11.29691, 52.03092], [11.29914, 52.03067], [11.30131, 52.03096], [11.30316, 52.03175], [11.30437, 52.03291], [11.30477, 52.03427], [11.30429, 52.03561]]], [[[11.28923, 52.01611], [11.28589, 52.01714], [11.2917, 52.0155], [11.28923, 52.01611]]], [[[11.31486, 52.01118], [11.30739, 52.01256], [11.30801, 52.01325], [11.32096, 52.01183], [11.32036, 52.01161], [11.31722, 52.01181], [11.31486, 52.01118]]], [[[11.35064, 52.00493], [11.35298, 52.0054], [11.35265, 52.00401], [11.35176, 52.00347], [11.35114, 52.00352], [11.35064, 52.00493]]], [[[11.33106, 51.99954], [11.32939, 52.00044], [11.32705, 52.00096], [11.32431, 52.00076], [11.3224, 52.00001], [11.32189, 52.00095], [11.32426, 52.00167], [11.32593, 52.00311], [11.33434, 52.00066], [11.33658, 52.00057], [11.34072, 52.00123], [11.3425, 52.00096], [11.34357, 52.00034], [11.33468, 51.99953], [11.33106, 51.99954]]], [[[11.31299, 52.0039], [11.31374, 52.00296], [11.31272, 52.00259], [11.30958, 52.00291], [11.30694, 52.0023], [11.29672, 52.00553], [11.30109, 52.00585], [11.30554, 52.00565], [11.31299, 52.0039]]], [[[11.35683, 52.02356], [11.33357, 52.01612], [11.32986, 52.02026], [11.33078, 52.02169], [11.33055, 52.02335], [11.33275, 52.02462], [11.33415, 52.02692], [11.334, 52.02835], [11.33256, 52.0304], [11.34053, 52.03938], [11.34134, 52.03685], [11.34269, 52.03541], [11.34511, 52.03443], [11.34831, 52.0343], [11.35194, 52.03538], [11.35451, 52.03711], [11.35554, 52.03874], [11.35534, 52.04148], [11.35306, 52.04368], [11.3501, 52.04489], [11.3459, 52.045], [11.34292, 52.04392], [11.3395, 52.04467], [11.32866, 52.0515], [11.32282, 52.05427], [11.32009, 52.05488], [11.31865, 52.05746], [11.31976, 52.05804], [11.32525, 52.0588], [11.32769, 52.06015], [11.32905, 52.063], [11.3285, 52.06433], [11.32709, 52.06557], [11.34, 52.06901], [11.34084, 52.06766], [11.34235, 52.06688], [11.34463, 52.0668], [11.3485, 52.06792], [11.34937, 52.06675], [11.35112, 52.06568], [11.35509, 52.0648], [11.35632, 52.06359], [11.35715, 52.06178], [11.36109, 52.05918], [11.36431, 52.05499], [11.36702, 52.05398], [11.37134, 52.0537], [11.37444, 52.05464], [11.37604, 52.05616], [11.37708, 52.05988], [11.37642, 52.06162], [11.37667, 52.06296], [11.37736, 52.06359], [11.37852, 52.0639], [11.38428, 52.05913], [11.38977, 52.05227], [11.39298, 52.04487], [11.39374, 52.03904], [11.38855, 52.03847], [11.38643, 52.03723], [11.38509, 52.03512], [11.35683, 52.02356]], [[11.33394, 52.06181], [11.33321, 52.0605], [11.33332, 52.05914], [11.33426, 52.05791], [11.33637, 52.05683], [11.3386, 52.05648], [11.3412, 52.05664], [11.34314, 52.0573], [11.34453, 52.05837], [11.34517, 52.05988], [11.34488, 52.06131], [11.34374, 52.06251], [11.34193, 52.06334], [11.33966, 52.06368], [11.3375, 52.06351], [11.33539, 52.06282], [11.33394, 52.06181]]], [[[11.34629, 52.01507], [11.34477, 52.01536], [11.3484, 52.01652], [11.34629, 52.01507]]], [[[11.35125, 52.01705], [11.34921, 52.01678], [11.36018, 52.02031], [11.38758, 52.03152], [11.39246, 52.03061], [11.39046, 52.02596], [11.38818, 52.02239], [11.38197, 52.01576], [11.37808, 52.01274], [11.37726, 52.01401], [11.37571, 52.01499], [11.37364, 52.01553], [11.37143, 52.01555], [11.36857, 52.01481], [11.36694, 52.01389], [11.36601, 52.01266], [11.36565, 52.0111], [11.3573, 52.00995], [11.35912, 52.01258], [11.35847, 52.01492], [11.35607, 52.01632], [11.35125, 52.01705]]], [[[11.34751, 52.076], [11.34458, 52.07346], [11.33816, 52.07271], [11.33439, 52.07173], [11.33013, 52.07309], [11.32751, 52.07292], [11.3257, 52.07136], [11.32649, 52.06961], [11.32471, 52.06914], [11.31679, 52.06951], [11.31381, 52.06882], [11.30814, 52.06881], [11.30483, 52.06822], [11.30265, 52.06715], [11.30141, 52.06545], [11.30156, 52.06375], [11.30276, 52.06245], [11.29791, 52.06037], [11.29463, 52.06112], [11.29407, 52.06228], [11.29276, 52.06338], [11.2912, 52.06417], [11.28896, 52.06463], [11.28846, 52.06766], [11.29189, 52.06946], [11.30135, 52.07314], [11.30431, 52.07265], [11.30703, 52.07296], [11.30919, 52.07402], [11.31024, 52.07546], [11.31406, 52.07622], [11.32014, 52.07703], [11.33253, 52.07753], [11.33873, 52.07722], [11.34751, 52.076]]]]}, "properties": {"kind": "windland", "area_km2": 31.3}}, {"type": "Feature", "geometry": {"type": "MultiPolygon", "coordinates": [[[[11.22884, 52.0045], [11.22719, 52.00453], [11.22731, 52.00709], [11.22858, 52.00492], [11.22884, 52.0045]]], [[[11.25574, 52.00534], [11.25433, 52.00446], [11.25422, 52.00393], [11.25464, 52.0036], [11.25543, 52.00356], [11.25631, 52.00325], [11.25685, 52.00285], [11.25756, 52.00284], [11.25833, 52.00315], [11.26005, 52.00309], [11.26063, 52.00361], [11.26148, 52.00355], [11.26203, 52.00386], [11.2619, 52.00446], [11.26043, 52.00499], [11.26043, 52.00525], [11.26129, 52.00571], [11.26127, 52.00617], [11.26063, 52.0065], [11.25971, 52.00637], [11.25988, 52.00768], [11.25945, 52.00822], [11.25882, 52.00857], [11.23703, 52.01223], [11.23318, 52.01328], [11.23004, 52.01421], [11.22965, 52.01453], [11.22843, 52.01488], [11.22843, 52.01567], [11.22791, 52.01602], [11.22839, 52.01754], [11.22938, 52.01698], [11.23022, 52.017], [11.23086, 52.01682], [11.23149, 52.01637], [11.23263, 52.0163], [11.23436, 52.0158], [11.23499, 52.01538], [11.23604, 52.01516], [11.23663, 52.01521], [11.23789, 52.01665], [11.23938, 52.01934], [11.24043, 52.02055], [11.24028, 52.02111], [11.24097, 52.02157], [11.24125, 52.02155], [11.24182, 52.02138], [11.24282, 52.02037], [11.24376, 52.02002], [11.2455, 52.01979], [11.24776, 52.02015], [11.24868, 52.01913], [11.25055, 52.01877], [11.25622, 52.01518], [11.25838, 52.01435], [11.25818, 52.01376], [11.25869, 52.01336], [11.2594, 52.01328], [11.26006, 52.01346], [11.2611, 52.01424], [11.26177, 52.0143], [11.26466, 52.01362], [11.26632, 52.01405], [11.2682, 52.01405], [11.2684, 52.014], [11.26842, 52.01327], [11.26953, 52.01284], [11.27009, 52.01213], [11.27101, 52.0123], [11.27157, 52.01313], [11.27249, 52.01299], [11.27468, 52.01325], [11.27671, 52.01227], [11.279, 52.01198], [11.28314, 52.01061], [11.28637, 52.00793], [11.28772, 52.00732], [11.28737, 52.00657], [11.28774, 52.00572], [11.29019, 52.00472], [11.29154, 52.0044], [11.29839, 51.9986], [11.29814, 51.9985], [11.29711, 51.99875], [11.29645, 51.9984], [11.29558, 51.99851], [11.2947, 51.99892], [11.29383, 51.99874], [11.29363, 51.99808], [11.29512, 51.99723], [11.29498, 51.99683], [11.29529, 51.9964], [11.29592, 51.99625], [11.29717, 51.99641], [11.29765, 51.9967], [11.29771, 51.99718], [11.29832, 51.99749], [11.3001, 51.99754], [11.30071, 51.99809], [11.30267, 51.99811], [11.30257, 51.99782], [11.30192, 51.99793], [11.30107, 51.99774], [11.30026, 51.99695], [11.30036, 51.99634], [11.30129, 51.99614], [11.30093, 51.99585], [11.30035, 51.99559], [11.29964, 51.99557], [11.29864, 51.99506], [11.29869, 51.99455], [11.29947, 51.99425], [11.29942, 51.99337], [11.29893, 51.99332], [11.29921, 51.9939], [11.29863, 51.99434], [11.29779, 51.99429], [11.29735, 51.99382], [11.29662, 51.99404], [11.29633, 51.99452], [11.29515, 51.99446], [11.29365, 51.994], [11.2937, 51.99355], [11.29312, 51.99283], [11.29334, 51.99244], [11.29242, 51.99235], [11.29197, 51.99205], [11.29201, 51.99157], [11.29327, 51.99021], [11.29412, 51.9895], [11.29499, 51.98934], [11.29483, 51.98886], [11.29502, 51.98851], [11.29644, 51.98822], [11.29408, 51.98823], [11.28941, 51.98766], [11.28872, 51.98809], [11.2886, 51.98893], [11.28768, 51.98969], [11.28776, 51.99007], [11.28734, 51.99024], [11.28542, 51.98989], [11.2849, 51.99011], [11.2839, 51.99007], [11.2829, 51.98962], [11.2827, 51.98914], [11.28183, 51.9892], [11.27995, 51.98857], [11.27857, 51.9893], [11.27771, 51.98931], [11.27713, 51.98893], [11.27724, 51.98815], [11.27798, 51.98774], [11.27825, 51.98677], [11.27914, 51.98628], [11.26983, 51.98332], [11.26992, 51.98523], [11.27336, 51.98636], [11.27259, 51.98745], [11.27238, 51.98932], [11.27315, 51.99062], [11.27423, 51.99142], [11.27564, 51.99199], [11.27727, 51.99227], [11.27855, 51.99231], [11.28021, 51.99208], [11.28173, 51.99271], [11.28333, 51.99302], [11.28744, 51.99301], [11.28826, 51.99396], [11.29038, 51.99502], [11.29068, 51.99544], [11.28904, 51.99722], [11.28878, 51.99858], [11.28957, 52.00012], [11.29147, 52.00134], [11.28963, 52.00289], [11.28677, 52.00382], [11.28569, 52.00438], [11.28491, 52.00507], [11.28445, 52.00614], [11.28311, 52.00649], [11.28181, 52.00714], [11.28062, 52.00835], [11.28028, 52.00947], [11.27789, 52.01026], [11.27563, 52.01056], [11.27384, 52.01127], [11.2719, 52.01046], [11.2701, 52.01028], [11.26824, 52.01068], [11.26629, 52.01198], [11.26423, 52.0118], [11.26223, 52.01218], [11.26009, 52.0115], [11.25903, 52.01146], [11.25754, 52.01167], [11.25643, 52.01214], [11.2553, 52.01332], [11.24876, 52.01721], [11.24731, 52.0175], [11.24631, 52.01801], [11.2438, 52.01811], [11.24246, 52.01576], [11.2434, 52.01524], [11.24431, 52.01438], [11.24478, 52.01339], [11.24482, 52.01266], [11.25972, 52.01014], [11.26131, 52.00943], [11.26271, 52.00918], [11.26412, 52.00864], [11.26573, 52.00726], [11.2669, 52.00406], [11.26662, 52.00301], [11.26558, 52.00184], [11.26438, 52.00117], [11.26168, 52.00031], [11.25669, 51.99986], [11.25507, 52.0001], [11.2518, 52.00121], [11.25059, 52.00192], [11.24978, 52.00282], [11.24939, 52.0039], [11.24967, 52.00525], [11.25042, 52.00617], [11.25233, 52.00742], [11.24049, 52.00938], [11.23877, 52.00928], [11.23704, 52.00949], [11.23432, 52.01015], [11.23292, 52.01074], [11.2318, 52.00966], [11.23005, 52.00888], [11.23281, 52.00442], [11.22981, 52.00448], [11.22739, 52.00855], [11.22753, 52.0115], [11.22841, 52.01177], [11.22984, 52.01367], [11.23647, 52.01178], [11.25837, 52.0081], [11.25907, 52.00738], [11.25867, 52.00597], [11.25759, 52.00601], [11.25702, 52.00554], [11.25574, 52.00534]], [[11.23599, 52.01305], [11.23668, 52.01274], [11.23758, 52.01281], [11.238, 52.01241], [11.23905, 52.01223], [11.23975, 52.01241], [11.24004, 52.01288], [11.23962, 52.01338], [11.23821, 52.01353], [11.23732, 52.01392], [11.23619, 52.01377], [11.23589, 52.01341], [11.23599, 52.01305]], [[11.29955, 51.99623], [11.29895, 51.99652], [11.29821, 51.99644], [11.29781, 51.9961], [11.29796, 51.99561], [11.29851, 51.99537], [11.29926, 51.99545], [11.29965, 51.99579], [11.29955, 51.99623]]], [[[11.2307, 52.01746], [11.23129, 52.01765], [11.23109, 52.01735], [11.2307, 52.01746]]], [[[11.22797, 52.02025], [11.22908, 52.02003], [11.22838, 52.01861], [11.22884, 52.01801], [11.22787, 52.01829], [11.22797, 52.02025]]], [[[11.25495, 52.0171], [11.25108, 52.01934], [11.24938, 52.01972], [11.24828, 52.02073], [11.2469, 52.0208], [11.24546, 52.02048], [11.24417, 52.02062], [11.24354, 52.02088], [11.2424, 52.02194], [11.23989, 52.02232], [11.24111, 52.02261], [11.24872, 52.02159], [11.25619, 52.01994], [11.25977, 52.01954], [11.26476, 52.01928], [11.26787, 52.01874], [11.26979, 52.01813], [11.27455, 52.01723], [11.2813, 52.01521], [11.28392, 52.01479], [11.29177, 52.01278], [11.30397, 52.00823], [11.30051, 52.00833], [11.29735, 52.00801], [11.29117, 52.00785], [11.29027, 52.00815], [11.28944, 52.00781], [11.28855, 52.00787], [11.28747, 52.00821], [11.28638, 52.00901], [11.28711, 52.00946], [11.28679, 52.01004], [11.28625, 52.0102], [11.28568, 52.01011], [11.28536, 52.01037], [11.28531, 52.01101], [11.28498, 52.0112], [11.28387, 52.0111], [11.28442, 52.01165], [11.28418, 52.01209], [11.28367, 52.01203], [11.28332, 52.01151], [11.28309, 52.0121], [11.28247, 52.01212], [11.28204, 52.01242], [11.28134, 52.01238], [11.28101, 52.01198], [11.27899, 52.01277], [11.2769, 52.01297], [11.27519, 52.01386], [11.27441, 52.01394], [11.27226, 52.01372], [11.26847, 52.01476], [11.2665, 52.01479], [11.26466, 52.01431], [11.26247, 52.01498], [11.25896, 52.01495], [11.25697, 52.01567], [11.25495, 52.0171]], [[11.26353, 52.0167], [11.26471, 52.01636], [11.2663, 52.01662], [11.26786, 52.01664], [11.26673, 52.01704], [11.26425, 52.01747], [11.2576, 52.01795], [11.25879, 52.01713], [11.25983, 52.01675], [11.26205, 52.01685], [11.26353, 52.0167]], [[11.2875, 52.00935], [11.28706, 52.00864], [11.28751, 52.00838], [11.28879, 52.00909], [11.28825, 52.00948], [11.2875, 52.00935]], [[11.2729, 52.01563], [11.27229, 52.01572], [11.27225, 52.01573], [11.27268, 52.01559], [11.2729, 52.01563]]], [[[11.2337, 52.01991], [11.23478, 52.02033], [11.23485, 52.01995], [11.23528, 52.0197], [11.23601, 52.01963], [11.23653, 52.01987], [11.23698, 52.01967], [11.23561, 52.01916], [11.23302, 52.01989], [11.2337, 52.01991]]], [[[11.23088, 52.02027], [11.23124, 52.02046], [11.23103, 52.02024], [11.23088, 52.02027]]], [[[11.23496, 52.02197], [11.23528, 52.02117], [11.23476, 52.02088], [11.23421, 52.02114], [11.23346, 52.02109], [11.23158, 52.02168], [11.23197, 52.02192], [11.23252, 52.02288], [11.233, 52.02312], [11.23387, 52.0225], [11.23532, 52.02242], [11.23496, 52.02197]], [[11.23254, 52.02262], [11.23269, 52.02191], [11.23325, 52.02183], [11.2336, 52.02206], [11.2337, 52.02246], [11.23344, 52.02269], [11.23287, 52.02277], [11.23254, 52.02262]]], [[[11.23894, 52.02282], [11.23777, 52.02263], [11.23788, 52.02292], [11.23894, 52.02282]]], [[[11.24193, 52.02317], [11.24186, 52.02388], [11.24229, 52.0242], [11.24253, 52.02367], [11.24346, 52.02351], [11.24414, 52.02389], [11.24399, 52.02443], [11.24299, 52.02464], [11.24232, 52.02427], [11.24229, 52.02464], [11.24187, 52.02492], [11.2401, 52.02493], [11.23948, 52.02459], [11.23917, 52.02341], [11.23788, 52.02353], [11.23856, 52.02442], [11.23843, 52.02485], [11.23772, 52.02534], [11.2383, 52.02576], [11.23802, 52.02629], [11.23863, 52.02647], [11.23936, 52.02721], [11.2415, 52.02695], [11.24164, 52.02659], [11.24209, 52.02635], [11.24318, 52.02638], [11.24392, 52.02705], [11.24362, 52.02767], [11.25474, 52.02424], [11.25521, 52.02389], [11.25598, 52.02386], [11.28275, 52.01561], [11.28174, 52.01577], [11.27486, 52.01783], [11.27057, 52.01862], [11.26745, 52.0195], [11.26453, 52.01995], [11.25986, 52.02017], [11.25618, 52.02059], [11.24885, 52.02221], [11.24193, 52.02317]]], [[[11.2503, 52.0266], [11.25188, 52.0264], [11.25185, 52.02578], [11.24966, 52.02646], [11.2503, 52.0266]]], [[[11.24294, 52.0278], [11.24293, 52.02788], [11.24327, 52.02778], [11.24294, 52.0278]]], [[[11.23274, 52.02855], [11.23417, 52.02864], [11.23413, 52.02821], [11.23312, 52.02822], [11.23274, 52.02855]]], [[[11.23825, 52.02811], [11.23845, 52.0287], [11.23937, 52.02898], [11.23904, 52.02798], [11.23825, 52.02811]]], [[[11.23656, 52.02896], [11.23638, 52.02911], [11.23655, 52.02916], [11.23656, 52.02896]]], [[[11.24229, 52.03332], [11.24228, 52.03331], [11.24228, 52.03332], [11.24229, 52.03332]]], [[[11.25637, 52.0313], [11.25602, 52.03159], [11.25526, 52.03172], [11.25466, 52.03152], [11.2544, 52.03113], [11.25366, 52.03147], [11.25357, 52.03212], [11.25263, 52.03238], [11.25186, 52.03218], [11.25141, 52.03142], [11.25082, 52.03149], [11.25087, 52.03213], [11.25051, 52.03249], [11.24961, 52.03258], [11.24902, 52.03214], [11.24869, 52.03276], [11.24765, 52.033], [11.24774, 52.03316], [11.24849, 52.033], [11.24909, 52.03319], [11.25031, 52.03301], [11.2506, 52.0327], [11.2512, 52.03252], [11.2521, 52.03264], [11.25301, 52.03415], [11.25264, 52.03461], [11.25127, 52.03496], [11.25184, 52.03512], [11.2521, 52.03552], [11.25569, 52.03473], [11.25545, 52.03401], [11.25603, 52.03358], [11.25708, 52.03369], [11.2581, 52.03353], [11.25856, 52.03378], [11.25868, 52.03413], [11.25975, 52.03391], [11.25928, 52.03326], [11.25955, 52.03279], [11.25898, 52.03254], [11.25769, 52.03069], [11.25709, 52.03053], [11.25632, 52.02977], [11.25604, 52.02906], [11.25663, 52.02849], [11.25653, 52.02804], [11.25585, 52.02787], [11.25563, 52.02843], [11.25485, 52.02865], [11.25541, 52.02977], [11.25595, 52.03013], [11.25637, 52.0313]]], [[[11.21794, 52.03618], [11.21641, 52.03281], [11.2158, 52.03241], [11.21537, 52.03173], [11.21396, 52.03176], [11.21428, 52.03829], [11.21843, 52.03658], [11.21794, 52.03618]]], [[[11.24919, 52.03539], [11.24936, 52.03539], [11.24946, 52.03533], [11.24919, 52.03539]]], [[[11.24851, 52.03549], [11.24858, 52.03548], [11.2485, 52.03547], [11.24851, 52.03549]]], [[[11.22704, 52.04132], [11.22517, 52.03865], [11.22101, 52.03938], [11.21968, 52.03839], [11.21917, 52.03693], [11.21431, 52.03892], [11.21441, 52.04087], [11.21593, 52.04025], [11.21713, 52.04115], [11.21841, 52.04179], [11.21993, 52.04217], [11.22132, 52.04227], [11.2218, 52.04337], [11.22267, 52.04424], [11.22391, 52.04492], [11.22559, 52.04544], [11.22628, 52.04675], [11.22483, 52.04711], [11.22353, 52.04774], [11.22259, 52.04858], [11.22205, 52.04959], [11.22942, 52.04945], [11.2297, 52.05512], [11.23528, 52.05543], [11.24119, 52.05325], [11.237, 52.0487], [11.23568, 52.04709], [11.23489, 52.04564], [11.23439, 52.04537], [11.23317, 52.04557], [11.23245, 52.04541], [11.23116, 52.04559], [11.23046, 52.0453], [11.23039, 52.04455], [11.23071, 52.04418], [11.23341, 52.04363], [11.23291, 52.04283], [11.23237, 52.04268], [11.23108, 52.04303], [11.22885, 52.04315], [11.22816, 52.04293], [11.22773, 52.0424], [11.22653, 52.04244], [11.22617, 52.04215], [11.22612, 52.04175], [11.22648, 52.04145], [11.22704, 52.04132]], [[11.23584, 52.05407], [11.2353, 52.05368], [11.23554, 52.05316], [11.23625, 52.05299], [11.23707, 52.05321], [11.23736, 52.05359], [11.23709, 52.05403], [11.23648, 52.05421], [11.23584, 52.05407]], [[11.23454, 52.05018], [11.2334, 52.05048], [11.2334, 52.04983], [11.23454, 52.05018]]], [[[11.2505, 52.03965], [11.24792, 52.03845], [11.2468, 52.03881], [11.2474, 52.04019], [11.24715, 52.04084], [11.24333, 52.04172], [11.24371, 52.04281], [11.24325, 52.04334], [11.23976, 52.04404], [11.23902, 52.04396], [11.23818, 52.04355], [11.2374, 52.04173], [11.23759, 52.04133], [11.23839, 52.041], [11.23891, 52.04051], [11.23791, 52.04085], [11.23578, 52.04104], [11.23537, 52.04134], [11.23405, 52.0417], [11.23518, 52.04185], [11.23563, 52.04209], [11.23612, 52.04297], [11.23576, 52.04351], [11.23679, 52.04338], [11.23742, 52.0439], [11.23713, 52.04448], [11.23614, 52.04458], [11.23657, 52.04506], [11.23643, 52.04542], [11.23586, 52.04567], [11.23629, 52.04629], [11.23678, 52.04617], [11.23704, 52.04559], [11.23831, 52.04494], [11.2394, 52.04488], [11.24028, 52.04515], [11.24071, 52.0455], [11.24092, 52.04601], [11.24063, 52.04639], [11.23959, 52.04667], [11.2388, 52.04646], [11.23848, 52.04697], [11.23704, 52.04736], [11.23779, 52.04847], [11.24192, 52.05295], [11.24654, 52.05065], [11.25116, 52.04984], [11.2519, 52.04948], [11.25172, 52.04839], [11.25233, 52.04795], [11.25236, 52.04758], [11.25202, 52.0473], [11.25127, 52.04549], [11.25044, 52.04506], [11.24944, 52.04393], [11.2497, 52.04348], [11.25045, 52.04328], [11.25058, 52.04288], [11.25017, 52.04261], [11.25012, 52.04221], [11.2507, 52.0415], [11.25128, 52.04127], [11.2505, 52.03965]], [[11.24383, 52.04859], [11.24516, 52.04749], [11.24571, 52.04598], [11.24701, 52.04723], [11.24693, 52.04845], [11.24662, 52.04889], [11.24494, 52.04932], [11.24272, 52.05048], [11.24172, 52.04935], [11.24383, 52.04859]]], [[[11.25161, 52.04008], [11.25322, 52.04278], [11.25496, 52.04209], [11.25531, 52.04172], [11.25161, 52.04008]]], [[[11.23478, 52.04402], [11.23509, 52.04451], [11.23598, 52.04453], [11.2355, 52.0438], [11.23478, 52.04402]]], [[[11.25708, 52.0493], [11.25675, 52.05019], [11.25573, 52.05052], [11.2557, 52.051], [11.25526, 52.05133], [11.25469, 52.05139], [11.25416, 52.05122], [11.2535, 52.05076], [11.25342, 52.05021], [11.2524, 52.05075], [11.25164, 52.05068], [11.25119, 52.05039], [11.24699, 52.05112], [11.24236, 52.05342], [11.25244, 52.06457], [11.25326, 52.0677], [11.25306, 52.07008], [11.25388, 52.07105], [11.25313, 52.07259], [11.25362, 52.07345], [11.25291, 52.07392], [11.2533, 52.07458], [11.2539, 52.07497], [11.25407, 52.07578], [11.25524, 52.07629], [11.25811, 52.07701], [11.26302, 52.07744], [11.26599, 52.07851], [11.26797, 52.07736], [11.26857, 52.0764], [11.27241, 52.07583], [11.27319, 52.07519], [11.27494, 52.07442], [11.27708, 52.07352], [11.27907, 52.07294], [11.28446, 52.07063], [11.28572, 52.06209], [11.28445, 52.06215], [11.28354, 52.06186], [11.28326, 52.06148], [11.28201, 52.06129], [11.28045, 52.0601], [11.28027, 52.05975], [11.28051, 52.05892], [11.2813, 52.05818], [11.28104, 52.05781], [11.28121, 52.05745], [11.282, 52.05719], [11.28287, 52.05642], [11.28374, 52.05628], [11.28381, 52.05589], [11.28344, 52.05545], [11.28374, 52.05493], [11.28461, 52.05474], [11.2858, 52.05515], [11.28646, 52.05465], [11.28596, 52.05434], [11.28066, 52.05293], [11.26351, 52.04535], [11.26353, 52.04579], [11.26311, 52.04612], [11.2616, 52.04627], [11.261, 52.04616], [11.26062, 52.04572], [11.26078, 52.04531], [11.26157, 52.04499], [11.2625, 52.0449], [11.26096, 52.04422], [11.2608, 52.04495], [11.26011, 52.04534], [11.25859, 52.0453], [11.25586, 52.04557], [11.25451, 52.04549], [11.25479, 52.04593], [11.25634, 52.04647], [11.25617, 52.04728], [11.25659, 52.04764], [11.25666, 52.04838], [11.25636, 52.04878], [11.25708, 52.0493]], [[11.27563, 52.07212], [11.27077, 52.07438], [11.2682, 52.07471], [11.26705, 52.07503], [11.26604, 52.07569], [11.26559, 52.07643], [11.26376, 52.07584], [11.26088, 52.07558], [11.26, 52.0747], [11.25836, 52.07388], [11.25829, 52.07251], [11.25863, 52.07063], [11.25818, 52.06964], [11.25653, 52.06804], [11.25659, 52.06681], [11.25616, 52.06584], [11.2553, 52.06498], [11.2546, 52.0635], [11.24582, 52.05387], [11.2481, 52.05272], [11.24963, 52.05337], [11.25356, 52.05427], [11.25527, 52.05434], [11.25693, 52.0541], [11.25882, 52.05335], [11.26084, 52.05173], [11.26149, 52.05078], [11.26187, 52.04921], [11.26442, 52.04898], [11.26599, 52.04849], [11.27824, 52.0539], [11.27639, 52.05451], [11.27497, 52.05556], [11.27437, 52.05656], [11.27435, 52.05793], [11.2755, 52.05946], [11.27583, 52.061], [11.27664, 52.0619], [11.27893, 52.06356], [11.28265, 52.06489], [11.28188, 52.06972], [11.27765, 52.07153], [11.27563, 52.07212]], [[11.27906, 52.05716], [11.27947, 52.05678], [11.28014, 52.05671], [11.28079, 52.05696], [11.28092, 52.05737], [11.28053, 52.05775], [11.27985, 52.05784], [11.27919, 52.05757], [11.27906, 52.05716]]], [[[11.24163, 52.05371], [11.23553, 52.05595], [11.22973, 52.05567], [11.22979, 52.05687], [11.23068, 52.05714], [11.23107, 52.0582], [11.23073, 52.05862], [11.22988, 52.05875], [11.23015, 52.06411], [11.23207, 52.06308], [11.23291, 52.06219], [11.23329, 52.06112], [11.23515, 52.0599], [11.23574, 52.05894], [11.23579, 52.05761], [11.23886, 52.05683], [11.24062, 52.05603], [11.2476, 52.06368], [11.2462, 52.06423], [11.24512, 52.06502], [11.24446, 52.06596], [11.24412, 52.0673], [11.24266, 52.06785], [11.24155, 52.06861], [11.24059, 52.06997], [11.24027, 52.07098], [11.24061, 52.07233], [11.24169, 52.07346], [11.24102, 52.07474], [11.24122, 52.0762], [11.24534, 52.07612], [11.24561, 52.08098], [11.24785, 52.0817], [11.25061, 52.08182], [11.25219, 52.08149], [11.25374, 52.08077], [11.25593, 52.0809], [11.25756, 52.08064], [11.25899, 52.0801], [11.26002, 52.07941], [11.26179, 52.07953], [11.26528, 52.08067], [11.26718, 52.08061], [11.26833, 52.08018], [11.27117, 52.07835], [11.27427, 52.07771], [11.2758, 52.07674], [11.27888, 52.07541], [11.2819, 52.07441], [11.2828, 52.07595], [11.28044, 52.07856], [11.28011, 52.08009], [11.28057, 52.08114], [11.28168, 52.08216], [11.28223, 52.08419], [11.28235, 52.08652], [11.28559, 52.09359], [11.28524, 52.09482], [11.28545, 52.09584], [11.28136, 52.09969], [11.28023, 52.10013], [11.27912, 52.1009], [11.27819, 52.10247], [11.28338, 52.10237], [11.28338, 52.10135], [11.28385, 52.10112], [11.28434, 52.10012], [11.2859, 52.09865], [11.287, 52.09794], [11.28801, 52.09677], [11.28876, 52.0963], [11.29066, 52.09638], [11.29025, 52.09573], [11.29026, 52.09523], [11.28976, 52.0946], [11.28995, 52.09438], [11.29051, 52.0943], [11.28889, 52.09351], [11.28782, 52.09257], [11.28497, 52.08614], [11.28492, 52.08404], [11.28422, 52.08153], [11.28315, 52.08062], [11.2828, 52.08], [11.28296, 52.07916], [11.28469, 52.07737], [11.28557, 52.07602], [11.28438, 52.07365], [11.2844, 52.07131], [11.27956, 52.07339], [11.27754, 52.07398], [11.27545, 52.07486], [11.27376, 52.0756], [11.27287, 52.07629], [11.26994, 52.07684], [11.2691, 52.07685], [11.26865, 52.0777], [11.2663, 52.07904], [11.26567, 52.07901], [11.26263, 52.07793], [11.25865, 52.07763], [11.25646, 52.07718], [11.25592, 52.07783], [11.25509, 52.07793], [11.25432, 52.07748], [11.25467, 52.07671], [11.25389, 52.07637], [11.25268, 52.07731], [11.25162, 52.07721], [11.25104, 52.07698], [11.25028, 52.07872], [11.24967, 52.07892], [11.24879, 52.07876], [11.24842, 52.07841], [11.24859, 52.07788], [11.24835, 52.0775], [11.24749, 52.07733], [11.24616, 52.07647], [11.24617, 52.07566], [11.24579, 52.07525], [11.24599, 52.0748], [11.24694, 52.07444], [11.24701, 52.07378], [11.24791, 52.07346], [11.24656, 52.073], [11.24614, 52.07188], [11.24524, 52.07147], [11.24507, 52.07106], [11.24552, 52.07028], [11.24604, 52.07001], [11.24722, 52.07018], [11.24759, 52.06985], [11.24814, 52.06971], [11.24952, 52.06997], [11.2522, 52.06989], [11.25239, 52.06775], [11.25165, 52.06484], [11.24163, 52.05371]], [[11.24912, 52.06668], [11.2495, 52.06639], [11.25009, 52.06633], [11.25163, 52.06689], [11.25177, 52.06769], [11.25116, 52.0683], [11.25023, 52.06838], [11.24909, 52.06796], [11.24889, 52.06761], [11.24912, 52.06668]]], [[[11.23662, 52.06577], [11.23531, 52.06518], [11.23393, 52.06501], [11.23234, 52.06525], [11.2313, 52.06576], [11.23059, 52.06652], [11.23041, 52.0674], [11.2308, 52.06827], [11.23172, 52.06901], [11.23292, 52.06947], [11.23446, 52.06961], [11.23585, 52.06937], [11.23682, 52.06892], [11.23758, 52.06818], [11.23779, 52.0673], [11.23749, 52.06653], [11.23662, 52.06577]], [[11.23339, 52.06716], [11.23367, 52.06689], [11.23415, 52.06687], [11.23477, 52.06727], [11.23477, 52.06757], [11.23442, 52.06776], [11.23394, 52.06775], [11.23339, 52.06716]]], [[[11.25966, 51.98871], [11.26175, 51.98824], [11.26357, 51.98716], [11.26497, 51.98678], [11.2673, 51.98578], [11.2554, 51.98601], [11.25551, 51.98823], [11.25749, 51.98866], [11.25966, 51.98871]]], [[[11.27411, 52.00222], [11.27273, 52.00184], [11.27124, 52.00178], [11.26977, 52.0021], [11.26832, 52.00277], [11.26752, 52.00356], [11.26728, 52.00441], [11.26762, 52.00531], [11.26838, 52.00596], [11.2699, 52.0065], [11.27179, 52.00657], [11.27318, 52.00637], [11.2745, 52.00578], [11.2754, 52.00493], [11.27566, 52.00406], [11.27515, 52.00294], [11.27411, 52.00222]], [[11.27174, 52.00359], [11.27252, 52.0038], [11.27254, 52.00437], [11.27176, 52.00473], [11.27045, 52.00464], [11.27025, 52.00435], [11.27044, 52.00406], [11.27174, 52.00359]]], [[[11.2692, 52.01354], [11.26924, 52.01381], [11.27078, 52.01337], [11.2705, 52.01282], [11.27013, 52.01324], [11.2692, 52.01354]]], [[[11.2591, 52.01386], [11.25925, 52.01427], [11.2601, 52.0142], [11.25964, 52.01393], [11.2591, 52.01386]]], [[[11.26845, 52.02066], [11.26911, 52.02128], [11.26889, 52.02162], [11.2675, 52.02192], [11.26757, 52.02233], [11.26881, 52.02218], [11.26946, 52.02243], [11.26972, 52.02321], [11.26933, 52.02361], [11.2966, 52.01606], [11.2965, 52.01565], [11.29679, 52.01533], [11.29791, 52.01527], [11.29824, 52.01508], [11.29816, 52.01386], [11.2987, 52.01346], [11.29948, 52.01347], [11.30083, 52.01411], [11.30173, 52.01376], [11.30248, 52.01382], [11.30358, 52.01437], [11.30345, 52.015], [11.30367, 52.01535], [11.31802, 52.01395], [11.3272, 52.01264], [11.32762, 52.01198], [11.32854, 52.01175], [11.3282, 52.01083], [11.32628, 52.00948], [11.32589, 52.00975], [11.32525, 52.00981], [11.32407, 52.00917], [11.32317, 52.00921], [11.32267, 52.00877], [11.32196, 52.00855], [11.3218, 52.00814], [11.3185, 52.00888], [11.29634, 52.01288], [11.29578, 52.01319], [11.29499, 52.01313], [11.2905, 52.014], [11.26845, 52.02066]], [[11.30801, 52.01325], [11.30739, 52.01256], [11.31486, 52.01118], [11.31722, 52.01181], [11.31889, 52.01184], [11.32036, 52.01161], [11.32096, 52.01183], [11.31752, 52.01232], [11.30801, 52.01325]], [[11.28923, 52.01611], [11.2917, 52.01551], [11.28589, 52.01714], [11.28923, 52.01611]]], [[[11.26657, 52.02125], [11.26659, 52.02123], [11.26653, 52.02125], [11.26657, 52.02125]]], [[[11.26583, 52.02147], [11.26476, 52.0218], [11.25974, 52.02335], [11.26021, 52.02354], [11.2617, 52.02308], [11.26246, 52.02314], [11.26285, 52.02347], [11.26336, 52.02466], [11.26699, 52.02393], [11.2668, 52.02289], [11.26522, 52.02275], [11.26475, 52.02232], [11.26484, 52.02202], [11.26583, 52.02147]]], [[[11.25725, 52.0243], [11.25724, 52.02412], [11.25681, 52.02425], [11.25725, 52.0243]]], [[[11.25512, 52.02521], [11.25557, 52.02494], [11.25503, 52.0248], [11.25452, 52.02496], [11.25512, 52.02521]]], [[[11.26595, 52.02504], [11.26624, 52.02526], [11.2669, 52.02503], [11.26747, 52.02508], [11.26781, 52.02462], [11.26595, 52.02504]]], [[[11.26924, 52.02427], [11.27, 52.02498], [11.27007, 52.0254], [11.26945, 52.02579], [11.26796, 52.02582], [11.26809, 52.02655], [11.26983, 52.02673], [11.27014, 52.0271], [11.27002, 52.0276], [11.27039, 52.02768], [11.2705, 52.0269], [11.27103, 52.02636], [11.27162, 52.02617], [11.27235, 52.02632], [11.27264, 52.02671], [11.2738, 52.02668], [11.2743, 52.02723], [11.27422, 52.0276], [11.2737, 52.02787], [11.2722, 52.02811], [11.27075, 52.02794], [11.27081, 52.0284], [11.2705, 52.02883], [11.27101, 52.02838], [11.2716, 52.02824], [11.27234, 52.02849], [11.27248, 52.02914], [11.27326, 52.02873], [11.27417, 52.02902], [11.27563, 52.02884], [11.27501, 52.02862], [11.27478, 52.02831], [11.27513, 52.02779], [11.27612, 52.0277], [11.27535, 52.02733], [11.27545, 52.02669], [11.2751, 52.02579], [11.27533, 52.0255], [11.27589, 52.02532], [11.27613, 52.02487], [11.27707, 52.02464], [11.27763, 52.02475], [11.27802, 52.02513], [11.27914, 52.02512], [11.27954, 52.02573], [11.28065, 52.02564], [11.28217, 52.02488], [11.2846, 52.0253], [11.2849, 52.02568], [11.2847, 52.02607], [11.28254, 52.02678], [11.2827, 52.0271], [11.28327, 52.02717], [11.28368, 52.02675], [11.28439, 52.02691], [11.28404, 52.02767], [11.28365, 52.02785], [11.28367, 52.02838], [11.28276, 52.02869], [11.28216, 52.0285], [11.28193, 52.02814], [11.28127, 52.02834], [11.28033, 52.02802], [11.27929, 52.02823], [11.27993, 52.02885], [11.27923, 52.03], [11.27754, 52.0301], [11.27701, 52.02981], [11.27699, 52.02936], [11.27673, 52.02939], [11.27683, 52.03014], [11.27593, 52.03045], [11.27521, 52.03019], [11.27517, 52.02965], [11.27447, 52.02977], [11.27409, 52.03013], [11.2734, 52.03024], [11.27309, 52.03085], [11.27125, 52.03103], [11.27088, 52.03148], [11.27017, 52.03164], [11.26892, 52.03104], [11.26891, 52.03043], [11.26967, 52.03012], [11.27054, 52.03037], [11.27099, 52.02998], [11.27189, 52.02999], [11.27206, 52.02985], [11.27071, 52.02948], [11.27025, 52.02976], [11.26893, 52.02995], [11.26839, 52.0297], [11.26821, 52.02923], [11.26728, 52.02935], [11.26663, 52.02895], [11.26416, 52.02957], [11.26356, 52.02956], [11.26298, 52.02909], [11.26219, 52.02898], [11.26187, 52.02863], [11.26203, 52.02817], [11.26286, 52.02762], [11.26354, 52.02746], [11.26359, 52.02722], [11.26269, 52.02679], [11.26237, 52.0257], [11.26129, 52.02592], [11.2612, 52.02639], [11.26057, 52.02665], [11.25989, 52.02662], [11.25944, 52.02629], [11.25843, 52.02649], [11.25872, 52.02698], [11.25969, 52.02667], [11.26051, 52.02693], [11.2609, 52.02755], [11.2615, 52.02786], [11.26176, 52.02875], [11.26287, 52.03014], [11.26334, 52.03039], [11.26373, 52.03117], [11.26466, 52.03123], [11.26512, 52.03157], [11.26533, 52.03148], [11.26526, 52.03087], [11.26583, 52.03044], [11.26816, 52.03036], [11.26861, 52.03061], [11.26894, 52.0312], [11.26915, 52.0324], [11.26766, 52.03314], [11.26654, 52.03321], [11.2648, 52.03376], [11.26358, 52.03388], [11.26403, 52.03413], [11.26451, 52.03505], [11.26394, 52.03566], [11.26235, 52.03593], [11.26177, 52.03584], [11.26139, 52.03555], [11.26075, 52.03428], [11.25117, 52.03634], [11.25028, 52.03668], [11.25074, 52.03697], [11.25225, 52.0368], [11.25247, 52.03719], [11.25063, 52.03756], [11.25026, 52.03805], [11.24929, 52.03809], [11.24904, 52.03827], [11.25731, 52.04194], [11.25811, 52.04205], [11.25912, 52.04272], [11.26074, 52.04228], [11.26151, 52.04238], [11.26216, 52.04307], [11.26136, 52.04373], [11.28126, 52.05252], [11.28577, 52.0537], [11.28637, 52.05325], [11.28733, 52.05336], [11.28775, 52.05313], [11.28837, 52.05312], [11.28921, 52.05359], [11.28923, 52.0541], [11.29004, 52.0542], [11.2905, 52.05444], [11.29146, 52.05419], [11.29175, 52.05388], [11.29242, 52.05368], [11.29431, 52.05375], [11.29491, 52.05409], [11.29488, 52.05472], [11.29536, 52.05533], [11.29653, 52.05529], [11.29713, 52.05558], [11.29714, 52.0561], [11.2978, 52.05664], [11.29728, 52.05727], [11.30301, 52.06004], [11.30497, 52.06067], [11.30766, 52.06106], [11.30746, 52.06067], [11.30769, 52.06033], [11.30926, 52.06012], [11.30942, 52.05966], [11.31, 52.05944], [11.31165, 52.0594], [11.31234, 52.05989], [11.31322, 52.05997], [11.31364, 52.05971], [11.31754, 52.05293], [11.32082, 52.05245], [11.32276, 52.05134], [11.32623, 52.04989], [11.33729, 52.04292], [11.33794, 52.04268], [11.33738, 52.04041], [11.32734, 52.02908], [11.32687, 52.02892], [11.32624, 52.02907], [11.32553, 52.0289], [11.32477, 52.02928], [11.32197, 52.0292], [11.32149, 52.02898], [11.32091, 52.02824], [11.32016, 52.02817], [11.31955, 52.02772], [11.31849, 52.02764], [11.31802, 52.02727], [11.31838, 52.02644], [11.31885, 52.02626], [11.31945, 52.02629], [11.31913, 52.02567], [11.31942, 52.02531], [11.31886, 52.02522], [11.31864, 52.02495], [11.31882, 52.02464], [11.3193, 52.02456], [11.31906, 52.02417], [11.31962, 52.02296], [11.31935, 52.02223], [11.31949, 52.02184], [11.32057, 52.02151], [11.32161, 52.02162], [11.32282, 52.02107], [11.32493, 52.0212], [11.32934, 52.01631], [11.3292, 52.01475], [11.32824, 52.01487], [11.32763, 52.01469], [11.32712, 52.0132], [11.31818, 52.01448], [11.30168, 52.01609], [11.30036, 52.01637], [11.30078, 52.0176], [11.30073, 52.01884], [11.30048, 52.01919], [11.29986, 52.01941], [11.2987, 52.01926], [11.29845, 52.01851], [11.29737, 52.01798], [11.29746, 52.01695], [11.29811, 52.01644], [11.29631, 52.01666], [11.26924, 52.02427]], [[11.31689, 52.05126], [11.31573, 52.0517], [11.31489, 52.05241], [11.31257, 52.0565], [11.30982, 52.05648], [11.30818, 52.05669], [11.30535, 52.05772], [11.30402, 52.05843], [11.30237, 52.05763], [11.30259, 52.05687], [11.30245, 52.05585], [11.30128, 52.0541], [11.302, 52.05271], [11.3018, 52.05119], [11.30115, 52.05023], [11.29966, 52.04922], [11.29764, 52.04863], [11.29537, 52.04857], [11.29282, 52.04923], [11.29165, 52.04996], [11.29102, 52.05063], [11.28916, 52.0502], [11.28751, 52.05015], [11.28486, 52.05045], [11.28288, 52.05115], [11.2682, 52.04472], [11.26696, 52.04316], [11.26676, 52.04214], [11.26631, 52.04139], [11.26537, 52.04056], [11.26426, 52.03996], [11.26272, 52.03949], [11.26011, 52.03935], [11.25752, 52.0387], [11.25516, 52.03862], [11.25546, 52.03803], [11.25679, 52.03811], [11.25837, 52.03794], [11.26072, 52.03876], [11.26346, 52.03881], [11.26682, 52.03804], [11.26837, 52.03705], [11.26914, 52.03596], [11.27059, 52.0355], [11.2738, 52.03383], [11.27553, 52.0334], [11.27676, 52.03338], [11.27851, 52.03306], [11.28058, 52.03345], [11.28305, 52.03329], [11.28583, 52.03356], [11.28748, 52.03332], [11.28891, 52.0328], [11.29033, 52.03175], [11.29099, 52.03044], [11.29079, 52.02906], [11.29004, 52.02779], [11.28926, 52.02705], [11.29007, 52.0249], [11.29012, 52.02388], [11.28911, 52.02223], [11.28797, 52.02148], [11.28693, 52.02108], [11.29312, 52.01935], [11.29493, 52.02109], [11.29664, 52.02196], [11.29875, 52.02236], [11.30131, 52.02223], [11.30283, 52.02179], [11.30426, 52.02101], [11.30531, 52.01978], [11.30552, 52.0185], [11.30665, 52.01798], [11.30762, 52.0172], [11.31864, 52.01611], [11.32294, 52.0155], [11.32407, 52.01667], [11.32536, 52.01733], [11.32462, 52.01815], [11.32159, 52.01821], [11.31757, 52.01905], [11.31623, 52.01966], [11.31517, 52.02057], [11.31371, 52.02126], [11.31272, 52.02217], [11.31215, 52.02384], [11.31246, 52.02485], [11.31349, 52.02597], [11.31321, 52.02693], [11.31335, 52.02795], [11.31397, 52.02891], [11.315, 52.02971], [11.3175, 52.03063], [11.31952, 52.03176], [11.32109, 52.03212], [11.32321, 52.03226], [11.32689, 52.03203], [11.33482, 52.04097], [11.33505, 52.04196], [11.32449, 52.04862], [11.32119, 52.05], [11.31954, 52.05097], [11.31689, 52.05126]], [[11.2806, 52.0304], [11.28023, 52.02988], [11.28073, 52.02931], [11.28191, 52.02925], [11.28248, 52.02946], [11.28311, 52.02918], [11.28389, 52.02928], [11.28471, 52.02878], [11.28564, 52.02898], [11.28574, 52.02956], [11.28622, 52.03], [11.28602, 52.03042], [11.28542, 52.03062], [11.28452, 52.03033], [11.28308, 52.03028], [11.28256, 52.03008], [11.2815, 52.0305], [11.2806, 52.0304]], [[11.285, 52.0238], [11.28536, 52.02433], [11.28492, 52.02493], [11.28417, 52.025], [11.28312, 52.02463], [11.28298, 52.02422], [11.28337, 52.02385], [11.28443, 52.02369], [11.285, 52.0238]], [[11.29641, 52.05149], [11.29704, 52.05175], [11.29722, 52.05242], [11.29691, 52.05279], [11.29619, 52.05292], [11.29549, 52.05265], [11.29534, 52.05201], [11.29569, 52.0516], [11.29641, 52.05149]], [[11.31643, 52.02395], [11.31683, 52.02311], [11.31732, 52.02289], [11.31815, 52.02298], [11.3188, 52.02349], [11.31857, 52.0241], [11.31763, 52.02425], [11.3172, 52.02451], [11.31662, 52.02441], [11.31643, 52.02395]]], [[[11.26899, 52.02819], [11.26839, 52.0284], [11.26847, 52.02848], [11.26901, 52.02836], [11.26899, 52.02819]]], [[[11.26337, 52.03385], [11.26333, 52.03384], [11.26335, 52.03385], [11.26337, 52.03385]]], [[[11.2797, 52.09186], [11.27878, 52.09134], [11.27779, 52.09106], [11.27655, 52.09098], [11.27532, 52.09113], [11.27428, 52.09148], [11.27341, 52.09209], [11.27298, 52.09285], [11.27302, 52.09358], [11.27542, 52.09353], [11.2755, 52.09525], [11.27704, 52.09534], [11.27836, 52.09515], [11.27967, 52.09455], [11.28039, 52.09365], [11.28034, 52.09264], [11.2797, 52.09186]], [[11.27629, 52.09349], [11.27597, 52.09329], [11.27606, 52.09295], [11.27655, 52.09282], [11.27731, 52.09294], [11.27732, 52.09341], [11.27629, 52.09349]]], [[[11.27618, 52.10251], [11.27613, 52.10153], [11.27579, 52.1008], [11.27587, 52.10252], [11.27618, 52.10251]]], [[[11.27847, 51.97918], [11.27983, 51.98026], [11.28208, 51.981], [11.28104, 51.98191], [11.28061, 51.98267], [11.27735, 51.9833], [11.27536, 51.98265], [11.27673, 51.98172], [11.27751, 51.98044], [11.27746, 51.97892], [11.27655, 51.97767], [11.27475, 51.97664], [11.26949, 51.97674], [11.26979, 51.9827], [11.2787, 51.98561], [11.2799, 51.98585], [11.28129, 51.98585], [11.28207, 51.9855], [11.28301, 51.9855], [11.28391, 51.98575], [11.28415, 51.98538], [11.2849, 51.9852], [11.28509, 51.98493], [11.2854, 51.98437], [11.28519, 51.98404], [11.28538, 51.98316], [11.28585, 51.98293], [11.28655, 51.98293], [11.28713, 51.98323], [11.28719, 51.9837], [11.28795, 51.98388], [11.28826, 51.9842], [11.28778, 51.98533], [11.28785, 51.98632], [11.28939, 51.98655], [11.28983, 51.98716], [11.29418, 51.98769], [11.29645, 51.98768], [11.29689, 51.98726], [11.29805, 51.98691], [11.29713, 51.97804], [11.29594, 51.97797], [11.29543, 51.9775], [11.29576, 51.97652], [11.29641, 51.97628], [11.29723, 51.97635], [11.29724, 51.9762], [11.29081, 51.97633], [11.29065, 51.97768], [11.29099, 51.97869], [11.29179, 51.97959], [11.29324, 51.98041], [11.2927, 51.98158], [11.2929, 51.98346], [11.29208, 51.98233], [11.29058, 51.98114], [11.28931, 51.98048], [11.28767, 51.98006], [11.28862, 51.97928], [11.28922, 51.97832], [11.28935, 51.97729], [11.28903, 51.97636], [11.27812, 51.97658], [11.27788, 51.97785], [11.27847, 51.97918]], [[11.28356, 51.97817], [11.2829, 51.97798], [11.28266, 51.97754], [11.2831, 51.97709], [11.28375, 51.97698], [11.28439, 51.9772], [11.28457, 51.97761], [11.2842, 51.97802], [11.28356, 51.97817]], [[11.27173, 51.9804], [11.27106, 51.98015], [11.27084, 51.9798], [11.27104, 51.97931], [11.27172, 51.9791], [11.27246, 51.97925], [11.27282, 51.97969], [11.27256, 51.98024], [11.27173, 51.9804]]], [[[11.2952, 51.99331], [11.29495, 51.99327], [11.29468, 51.99352], [11.29489, 51.99357], [11.2952, 51.99331]]], [[[11.29915, 51.99906], [11.29248, 52.00475], [11.28979, 52.00566], [11.29136, 52.00562], [11.29193, 52.00586], [11.29217, 52.00662], [11.29427, 52.00694], [11.29527, 52.00733], [11.30135, 52.00769], [11.30621, 52.00746], [11.31185, 52.00624], [11.31503, 52.00538], [11.31794, 52.0052], [11.31803, 52.00461], [11.31773, 52.00398], [11.3146, 51.99965], [11.31343, 51.99874], [11.31005, 51.99693], [11.30979, 51.99729], [11.30888, 51.99774], [11.31095, 51.99753], [11.31189, 51.99793], [11.31214, 51.99827], [11.31177, 51.99929], [11.31059, 51.99994], [11.30999, 51.99995], [11.30887, 51.99955], [11.3082, 51.99886], [11.30821, 51.99846], [11.30631, 51.99866], [11.30481, 51.99846], [11.30226, 51.99885], [11.30053, 51.99874], [11.29915, 51.99906]], [[11.30109, 52.00585], [11.29621, 52.00552], [11.29548, 52.00527], [11.29953, 52.00183], [11.30224, 52.00146], [11.30364, 52.00156], [11.30518, 52.00143], [11.30626, 52.00205], [11.3085, 52.00276], [11.31069, 52.00292], [11.31272, 52.00259], [11.31374, 52.00296], [11.31339, 52.0038], [11.30554, 52.00565], [11.30109, 52.00585]]], [[[11.28877, 52.00695], [11.2898, 52.00711], [11.29189, 52.00721], [11.29127, 52.0069], [11.29089, 52.00619], [11.28945, 52.00649], [11.28856, 52.0063], [11.28848, 52.00667], [11.28877, 52.00695]]], [[[11.28448, 52.01065], [11.28452, 52.01065], [11.28451, 52.01062], [11.28448, 52.01065]]], [[[11.2962, 52.0123], [11.31719, 52.00841], [11.31703, 52.00801], [11.31723, 52.00767], [11.31852, 52.00733], [11.31934, 52.00743], [11.31975, 52.00795], [11.32092, 52.00774], [11.32014, 52.00704], [11.31844, 52.00661], [11.3182, 52.00587], [11.31502, 52.00612], [11.31229, 52.00688], [11.30585, 52.00822], [11.2956, 52.0121], [11.2962, 52.0123]]], [[[11.29464, 52.01246], [11.29423, 52.0126], [11.29391, 52.01273], [11.29458, 52.01261], [11.29464, 52.01246]]], [[[11.27704, 52.02615], [11.27735, 52.02674], [11.27772, 52.02666], [11.27704, 52.02615]]], [[[11.27729, 52.02863], [11.27729, 52.02912], [11.27782, 52.02901], [11.27729, 52.02863]]], [[[11.29748, 52.0308], [11.29547, 52.03143], [11.29403, 52.03247], [11.29333, 52.03379], [11.29351, 52.03516], [11.29453, 52.0364], [11.29621, 52.03729], [11.29836, 52.03772], [11.30058, 52.03761], [11.30259, 52.03698], [11.30402, 52.03594], [11.30473, 52.03461], [11.30455, 52.03324], [11.30352, 52.032], [11.30185, 52.03112], [11.2997, 52.03069], [11.29748, 52.0308]], [[11.29939, 52.03474], [11.29867, 52.03474], [11.29816, 52.03443], [11.29816, 52.03398], [11.29867, 52.03367], [11.29939, 52.03367], [11.29989, 52.03398], [11.2999, 52.03443], [11.29939, 52.03474]]], [[[11.29634, 52.0575], [11.29447, 52.05709], [11.29484, 52.05733], [11.2949, 52.0577], [11.29438, 52.05813], [11.29362, 52.05814], [11.29309, 52.0578], [11.29198, 52.05827], [11.29082, 52.05835], [11.29024, 52.05881], [11.28926, 52.05873], [11.28925, 52.05919], [11.28829, 52.05985], [11.28958, 52.0603], [11.28988, 52.06073], [11.28964, 52.06111], [11.2889, 52.06156], [11.28817, 52.06169], [11.2867, 52.06139], [11.28535, 52.07045], [11.28522, 52.07332], [11.28644, 52.07607], [11.28561, 52.07744], [11.28375, 52.07938], [11.28365, 52.07979], [11.28392, 52.08036], [11.28507, 52.0814], [11.28579, 52.08399], [11.28583, 52.08604], [11.28876, 52.09257], [11.29146, 52.09414], [11.29172, 52.09335], [11.29217, 52.09305], [11.29608, 52.09237], [11.29716, 52.09234], [11.29768, 52.09253], [11.29804, 52.09312], [11.29738, 52.09362], [11.29804, 52.09463], [11.29736, 52.09506], [11.29698, 52.09596], [11.29646, 52.09637], [11.29705, 52.09697], [11.29771, 52.09721], [11.2979, 52.09754], [11.29911, 52.09799], [11.29932, 52.0986], [11.29988, 52.09868], [11.29961, 52.09804], [11.30034, 52.09763], [11.30132, 52.09788], [11.30138, 52.0987], [11.30383, 52.098], [11.30391, 52.09762], [11.30324, 52.09737], [11.30311, 52.09693], [11.30363, 52.09644], [11.30442, 52.09622], [11.30433, 52.09576], [11.30486, 52.09542], [11.30619, 52.09532], [11.30726, 52.09571], [11.30772, 52.09539], [11.30858, 52.09531], [11.30908, 52.09551], [11.30946, 52.09605], [11.31181, 52.09525], [11.31654, 52.09451], [11.32552, 52.09131], [11.32838, 52.09074], [11.32814, 52.09022], [11.32835, 52.08976], [11.32801, 52.08933], [11.32815, 52.08873], [11.3278, 52.08848], [11.32692, 52.08845], [11.32592, 52.08797], [11.32574, 52.08762], [11.32599, 52.08709], [11.32647, 52.08689], [11.32769, 52.08684], [11.32833, 52.08654], [11.32944, 52.08662], [11.32964, 52.08567], [11.33123, 52.08534], [11.33185, 52.08537], [11.33229, 52.08562], [11.33205, 52.08661], [11.33234, 52.08669], [11.3337, 52.08598], [11.33467, 52.08565], [11.3353, 52.08565], [11.33514, 52.08508], [11.33438, 52.08438], [11.33437, 52.08401], [11.33566, 52.08311], [11.33719, 52.08265], [11.33837, 52.08284], [11.33863, 52.08355], [11.33952, 52.08373], [11.3397, 52.0843], [11.33778, 52.08515], [11.33698, 52.08515], [11.33689, 52.08552], [11.33647, 52.08579], [11.33568, 52.08583], [11.33641, 52.08628], [11.33641, 52.08679], [11.33414, 52.08753], [11.33454, 52.08785], [11.33452, 52.08822], [11.33393, 52.08857], [11.33311, 52.08849], [11.3332, 52.08925], [11.33592, 52.08874], [11.33581, 52.08811], [11.3364, 52.08779], [11.33782, 52.08795], [11.3381, 52.08844], [11.34337, 52.08776], [11.3452, 52.0878], [11.34594, 52.08753], [11.34615, 52.08718], [11.34704, 52.08664], [11.34842, 52.08678], [11.34913, 52.08727], [11.35074, 52.087], [11.35111, 52.0864], [11.35174, 52.08617], [11.35281, 52.08648], [11.35335, 52.08617], [11.35428, 52.08623], [11.35548, 52.08596], [11.35673, 52.08626], [11.35721, 52.08685], [11.35778, 52.08708], [11.35796, 52.08673], [11.35765, 52.086], [11.35652, 52.08516], [11.35612, 52.08442], [11.35616, 52.0839], [11.35677, 52.08319], [11.35601, 52.08337], [11.35572, 52.08418], [11.35441, 52.08414], [11.35407, 52.0839], [11.35441, 52.08315], [11.35415, 52.08282], [11.35456, 52.08213], [11.35756, 52.08051], [11.3586, 52.08058], [11.35888, 52.08105], [11.36114, 52.07876], [11.35988, 52.07862], [11.36004, 52.07803], [11.36041, 52.0779], [11.36186, 52.07803], [11.36328, 52.07659], [11.36248, 52.07625], [11.36117, 52.07703], [11.36049, 52.07698], [11.35978, 52.07658], [11.35937, 52.07685], [11.3589, 52.07679], [11.35887, 52.0764], [11.36012, 52.07545], [11.35934, 52.07407], [11.35873, 52.07391], [11.35815, 52.07411], [11.35693, 52.07407], [11.35533, 52.07478], [11.3544, 52.07482], [11.35362, 52.0752], [11.35302, 52.07523], [11.35069, 52.07378], [11.35013, 52.07287], [11.34935, 52.07273], [11.34906, 52.0723], [11.33885, 52.07111], [11.33408, 52.06983], [11.33325, 52.06991], [11.32902, 52.07134], [11.32864, 52.07107], [11.32876, 52.0708], [11.3326, 52.06943], [11.32525, 52.06749], [11.31835, 52.06787], [11.31663, 52.06783], [11.31506, 52.06731], [11.31353, 52.06579], [11.31292, 52.06591], [11.3116, 52.06583], [11.31091, 52.06535], [11.30891, 52.06588], [11.30828, 52.06575], [11.30793, 52.06535], [11.3074, 52.06555], [11.3068, 52.06553], [11.30617, 52.06499], [11.30621, 52.06452], [11.30672, 52.06426], [11.30734, 52.06425], [11.30796, 52.06387], [11.30879, 52.06388], [11.30962, 52.06351], [11.30974, 52.06291], [11.3102, 52.06262], [11.30981, 52.0619], [11.30492, 52.06123], [11.30301, 52.06067], [11.29634, 52.0575]], [[11.32294, 52.09031], [11.31539, 52.09301], [11.31251, 52.09344], [11.31079, 52.09267], [11.30919, 52.09237], [11.30522, 52.09238], [11.30284, 52.09274], [11.30223, 52.09141], [11.3012, 52.09051], [11.29971, 52.0898], [11.29813, 52.08945], [11.295, 52.08949], [11.29057, 52.09026], [11.28847, 52.0857], [11.28849, 52.08409], [11.29147, 52.08391], [11.29302, 52.08353], [11.29433, 52.08289], [11.29547, 52.08177], [11.2976, 52.08159], [11.29952, 52.08091], [11.30077, 52.08002], [11.30133, 52.07928], [11.30402, 52.07976], [11.30559, 52.0797], [11.30718, 52.07939], [11.30929, 52.07829], [11.31031, 52.07671], [11.31016, 52.07525], [11.30919, 52.07402], [11.30703, 52.07296], [11.30486, 52.07265], [11.30275, 52.07278], [11.30122, 52.07319], [11.29959, 52.07412], [11.29879, 52.07511], [11.29676, 52.07464], [11.29454, 52.07469], [11.29208, 52.07547], [11.29041, 52.07688], [11.28892, 52.07683], [11.28907, 52.0754], [11.28791, 52.07332], [11.28803, 52.07058], [11.28896, 52.06463], [11.2912, 52.06417], [11.29276, 52.06338], [11.29407, 52.06228], [11.29463, 52.06112], [11.29791, 52.06037], [11.30104, 52.06187], [11.30276, 52.06245], [11.30156, 52.06375], [11.30141, 52.06545], [11.30265, 52.06715], [11.30483, 52.06822], [11.30814, 52.06881], [11.31043, 52.0687], [11.31381, 52.06882], [11.31538, 52.06932], [11.31679, 52.06951], [11.32471, 52.06914], [11.32649, 52.06961], [11.32573, 52.07052], [11.3257, 52.07136], [11.32628, 52.07222], [11.32751, 52.07292], [11.32879, 52.07317], [11.33013, 52.07309], [11.33439, 52.07173], [11.33816, 52.07271], [11.34458, 52.07346], [11.34539, 52.07442], [11.34709, 52.07573], [11.35007, 52.0776], [11.34858, 52.0785], [11.34816, 52.07974], [11.34911, 52.08164], [11.35003, 52.08228], [11.35119, 52.08263], [11.35119, 52.08324], [11.3488, 52.08375], [11.34648, 52.08369], [11.34456, 52.08411], [11.34442, 52.08334], [11.34382, 52.08237], [11.34209, 52.08097], [11.34061, 52.08019], [11.33921, 52.07981], [11.33776, 52.07966], [11.33629, 52.07974], [11.33446, 52.08012], [11.3323, 52.08099], [11.33028, 52.08244], [11.32743, 52.08302], [11.32572, 52.08397], [11.32374, 52.08443], [11.32247, 52.08507], [11.32132, 52.08627], [11.32095, 52.08783], [11.3215, 52.08916], [11.32294, 52.09031]], [[11.30357, 52.07663], [11.30332, 52.07615], [11.30367, 52.07573], [11.3047, 52.0756], [11.30537, 52.07582], [11.30556, 52.07632], [11.30522, 52.07668], [11.30419, 52.07681], [11.30357, 52.07663]], [[11.29033, 52.07986], [11.29107, 52.08033], [11.29097, 52.08074], [11.29054, 52.081], [11.2895, 52.08098], [11.28899, 52.08076], [11.28855, 52.08108], [11.28789, 52.08113], [11.28709, 52.08069], [11.28711, 52.08021], [11.28772, 52.07979], [11.28856, 52.07979], [11.28905, 52.08003], [11.28955, 52.07983], [11.29033, 52.07986]], [[11.29523, 52.07871], [11.2948, 52.07834], [11.29491, 52.07792], [11.29555, 52.07758], [11.2963, 52.07764], [11.29678, 52.07799], [11.29669, 52.07845], [11.29597, 52.07881], [11.29523, 52.07871]], [[11.35682, 52.08], [11.35379, 52.08074], [11.35211, 52.08089], [11.35168, 52.08071], [11.35112, 52.07951], [11.35133, 52.07926], [11.35214, 52.07906], [11.35264, 52.0791], [11.3531, 52.07937], [11.35309, 52.07902], [11.35341, 52.07884], [11.3563, 52.0786], [11.35677, 52.079], [11.35682, 52.08]]], [[[11.29229, 52.09461], [11.29224, 52.09461], [11.29229, 52.09463], [11.29229, 52.09461]]], [[[11.28485, 52.10231], [11.28476, 52.10234], [11.2849, 52.10234], [11.28485, 52.10231]]], [[[11.29811, 51.97619], [11.298, 51.97868], [11.29827, 51.98139], [11.29951, 51.98128], [11.30075, 51.9819], [11.30156, 51.98154], [11.30244, 51.98153], [11.30343, 51.98241], [11.30332, 51.98283], [11.30222, 51.98375], [11.30112, 51.98388], [11.30077, 51.98411], [11.30073, 51.98471], [11.3002, 51.98554], [11.29888, 51.98577], [11.29891, 51.98599], [11.29947, 51.98608], [11.30029, 51.98653], [11.30001, 51.98726], [11.30105, 51.98784], [11.3018, 51.98759], [11.30274, 51.98773], [11.303, 51.98701], [11.30384, 51.98662], [11.30894, 51.98707], [11.3091, 51.98627], [11.30985, 51.98595], [11.31105, 51.98616], [11.31148, 51.98671], [11.31236, 51.98689], [11.31278, 51.988], [11.31239, 51.98828], [11.31123, 51.98852], [11.31119, 51.98888], [11.31155, 51.98916], [11.31263, 51.99129], [11.31252, 51.99171], [11.31191, 51.99208], [11.31291, 51.99354], [11.31333, 51.99382], [11.3141, 51.9934], [11.31502, 51.99341], [11.31541, 51.99369], [11.31545, 51.99416], [11.31782, 51.9945], [11.31875, 51.99551], [11.31852, 51.99599], [11.31806, 51.99622], [11.31544, 51.99595], [11.31541, 51.99631], [11.31503, 51.99659], [11.31425, 51.99664], [11.31332, 51.99632], [11.31318, 51.99684], [11.3139, 51.9968], [11.31453, 51.9971], [11.316, 51.99703], [11.3165, 51.99735], [11.31642, 51.99782], [11.31702, 51.99782], [11.31752, 51.99811], [11.31783, 51.99881], [11.31764, 51.99959], [11.31669, 52.00019], [11.31612, 52.00032], [11.31852, 52.00374], [11.31914, 52.00362], [11.32097, 52.00386], [11.32145, 52.00416], [11.32145, 52.0046], [11.32417, 52.00511], [11.32852, 52.00463], [11.33515, 52.00242], [11.33675, 52.00243], [11.34044, 52.00307], [11.34209, 52.00295], [11.34313, 52.00281], [11.34493, 52.00217], [11.34634, 52.00113], [11.34723, 52.00082], [11.35061, 52.00098], [11.35492, 52.00076], [11.35646, 52.00042], [11.35997, 51.99904], [11.36372, 51.99929], [11.36462, 51.99885], [11.36543, 51.99868], [11.36587, 51.99835], [11.3666, 51.99831], [11.36677, 51.99798], [11.36725, 51.99776], [11.36811, 51.99788], [11.3684, 51.99843], [11.37002, 51.99579], [11.37392, 51.9943], [11.37503, 51.99344], [11.37654, 51.99295], [11.37605, 51.99262], [11.37589, 51.99121], [11.37684, 51.99028], [11.37673, 51.98993], [11.37733, 51.98921], [11.37722, 51.98867], [11.37769, 51.98829], [11.37869, 51.98825], [11.37947, 51.98801], [11.38009, 51.98816], [11.38052, 51.98856], [11.38237, 51.98816], [11.38283, 51.98848], [11.38217, 51.98886], [11.38085, 51.98923], [11.37991, 51.98909], [11.37942, 51.98871], [11.37888, 51.98891], [11.37826, 51.98888], [11.37838, 51.98939], [11.37748, 51.99033], [11.37742, 51.99105], [11.37693, 51.99132], [11.37707, 51.99262], [11.38287, 51.98919], [11.38414, 51.98874], [11.38679, 51.98833], [11.38912, 51.98728], [11.38934, 51.98713], [11.38878, 51.98715], [11.38844, 51.98675], [11.38848, 51.98629], [11.38884, 51.986], [11.38955, 51.98615], [11.38947, 51.98705], [11.39068, 51.98634], [11.3944, 51.98565], [11.39717, 51.98622], [11.39997, 51.98596], [11.40101, 51.98533], [11.40089, 51.98313], [11.40003, 51.98315], [11.39871, 51.98417], [11.39746, 51.98434], [11.39614, 51.98396], [11.39454, 51.98381], [11.39072, 51.98438], [11.38931, 51.98414], [11.38774, 51.9843], [11.38691, 51.9846], [11.38606, 51.98521], [11.38535, 51.98666], [11.38447, 51.98677], [11.383, 51.98636], [11.38127, 51.98644], [11.37946, 51.98617], [11.37658, 51.98659], [11.37521, 51.98722], [11.3745, 51.98794], [11.37377, 51.98979], [11.37301, 51.99077], [11.37302, 51.99208], [11.37187, 51.99291], [11.36875, 51.99403], [11.36752, 51.99479], [11.36597, 51.99492], [11.36445, 51.99533], [11.36231, 51.99634], [11.36128, 51.99719], [11.35921, 51.99727], [11.35752, 51.9978], [11.35598, 51.9977], [11.35434, 51.99788], [11.35282, 51.99836], [11.35159, 51.9991], [11.34766, 51.99895], [11.34641, 51.99906], [11.34466, 51.9996], [11.34303, 52.00075], [11.34152, 52.00115], [11.34072, 52.00123], [11.33658, 52.00057], [11.33434, 52.00066], [11.33258, 52.0011], [11.32721, 52.00296], [11.32593, 52.00311], [11.32537, 52.00244], [11.32426, 52.00167], [11.32189, 52.00095], [11.3224, 52.00001], [11.32484, 52.00086], [11.3265, 52.00098], [11.32813, 52.0008], [11.3307, 51.9998], [11.33165, 51.99896], [11.33217, 51.99798], [11.3322, 51.99695], [11.33129, 51.99545], [11.33098, 51.99388], [11.32959, 51.99244], [11.32986, 51.99125], [11.32926, 51.9903], [11.3277, 51.98954], [11.32583, 51.98937], [11.32381, 51.98984], [11.32272, 51.99068], [11.32134, 51.99059], [11.31763, 51.99093], [11.31736, 51.99083], [11.31681, 51.98961], [11.31754, 51.98845], [11.3176, 51.98742], [11.31689, 51.98586], [11.31602, 51.98499], [11.3139, 51.98379], [11.31242, 51.98332], [11.31009, 51.98299], [11.30814, 51.98317], [11.30805, 51.98163], [11.30665, 51.97991], [11.30499, 51.97901], [11.30264, 51.97856], [11.30292, 51.97711], [11.30259, 51.9761], [11.29811, 51.97619]], [[11.31953, 51.99378], [11.32014, 51.99421], [11.32052, 51.99422], [11.32075, 51.99373], [11.32162, 51.99355], [11.32165, 51.99302], [11.32247, 51.99274], [11.3233, 51.9937], [11.32427, 51.99368], [11.32494, 51.99431], [11.32584, 51.99436], [11.32641, 51.99476], [11.32793, 51.99483], [11.32833, 51.99524], [11.32807, 51.99594], [11.32835, 51.9961], [11.32846, 51.99661], [11.32811, 51.9973], [11.32701, 51.99787], [11.3261, 51.99801], [11.32556, 51.99775], [11.32541, 51.99734], [11.32584, 51.99695], [11.32674, 51.99682], [11.32659, 51.99641], [11.3258, 51.99626], [11.32473, 51.99657], [11.32385, 51.99618], [11.32309, 51.99643], [11.32194, 51.99637], [11.32071, 51.99537], [11.32002, 51.99576], [11.31916, 51.99568], [11.31828, 51.99425], [11.31867, 51.99385], [11.31953, 51.99378]], [[11.32563, 51.99194], [11.3254, 51.99155], [11.32554, 51.99133], [11.32598, 51.9912], [11.32681, 51.99133], [11.32676, 51.9918], [11.32563, 51.99194]]], [[[11.3116, 51.99353], [11.31195, 51.99344], [11.31137, 51.99257], [11.30891, 51.99052], [11.30865, 51.99105], [11.30957, 51.99128], [11.30991, 51.99196], [11.30971, 51.99274], [11.3089, 51.99312], [11.30936, 51.99348], [11.30925, 51.99391], [11.3101, 51.99407], [11.31053, 51.99453], [11.30999, 51.99533], [11.30847, 51.99538], [11.30895, 51.99556], [11.30916, 51.9959], [11.30972, 51.99607], [11.31126, 51.99574], [11.31074, 51.99452], [11.3116, 51.99353]]], [[[11.29753, 51.99335], [11.29759, 51.99336], [11.29759, 51.99336], [11.29753, 51.99335]]], [[[11.30421, 51.99644], [11.30422, 51.99645], [11.30423, 51.99645], [11.30421, 51.99644]]], [[[11.31403, 51.99835], [11.31407, 51.99834], [11.31387, 51.99826], [11.31403, 51.99835]]], [[[11.3144, 51.99857], [11.31434, 51.99855], [11.31441, 51.99859], [11.3144, 51.99857]]], [[[11.31458, 52.0597], [11.3162, 52.06001], [11.31708, 52.06116], [11.318, 52.06089], [11.31926, 52.0609], [11.32018, 52.06108], [11.32079, 52.06153], [11.32321, 52.06147], [11.32363, 52.06173], [11.32425, 52.06274], [11.32396, 52.06323], [11.32281, 52.06359], [11.32279, 52.06425], [11.32207, 52.06449], [11.32142, 52.06439], [11.32105, 52.06405], [11.32108, 52.06363], [11.32156, 52.06336], [11.32131, 52.06303], [11.3194, 52.06292], [11.31775, 52.06347], [11.31746, 52.064], [11.31658, 52.06445], [11.31598, 52.0645], [11.31535, 52.06542], [11.31438, 52.06563], [11.31596, 52.06707], [11.31679, 52.0673], [11.3183, 52.06734], [11.3253, 52.06695], [11.3391, 52.07059], [11.3495, 52.0718], [11.3514, 52.07182], [11.35249, 52.07209], [11.35343, 52.07172], [11.35458, 52.07172], [11.35477, 52.07167], [11.35375, 52.07157], [11.35325, 52.07124], [11.35344, 52.07049], [11.35324, 52.0685], [11.35459, 52.06785], [11.3572, 52.06776], [11.35752, 52.06744], [11.35928, 52.06668], [11.35929, 52.06623], [11.35982, 52.06593], [11.3601, 52.06541], [11.362, 52.06511], [11.36165, 52.0642], [11.36111, 52.06363], [11.36203, 52.06266], [11.36272, 52.06251], [11.36313, 52.06216], [11.36387, 52.06206], [11.36442, 52.06221], [11.36471, 52.06259], [11.36554, 52.06269], [11.36626, 52.06251], [11.36842, 52.06279], [11.36891, 52.06217], [11.36865, 52.06171], [11.36754, 52.06185], [11.3663, 52.06144], [11.36603, 52.062], [11.36527, 52.06222], [11.36462, 52.06204], [11.36434, 52.06166], [11.36467, 52.06114], [11.3653, 52.06097], [11.36567, 52.06008], [11.36653, 52.05936], [11.36723, 52.05764], [11.36817, 52.05686], [11.36885, 52.05684], [11.36945, 52.05713], [11.37005, 52.05666], [11.37095, 52.05671], [11.3717, 52.05742], [11.37162, 52.05788], [11.37296, 52.05835], [11.37297, 52.05861], [11.37205, 52.05958], [11.37222, 52.06017], [11.37057, 52.06199], [11.37177, 52.06241], [11.37186, 52.06283], [11.37123, 52.06343], [11.3716, 52.06348], [11.37213, 52.06392], [11.37203, 52.06453], [11.37288, 52.06479], [11.37321, 52.0651], [11.37253, 52.06621], [11.37324, 52.06669], [11.37565, 52.06641], [11.3763, 52.06652], [11.37712, 52.06779], [11.37781, 52.06782], [11.37823, 52.06808], [11.37833, 52.06902], [11.38619, 52.06835], [11.38613, 52.06787], [11.3866, 52.06746], [11.38747, 52.06717], [11.38952, 52.06687], [11.39064, 52.06717], [11.39086, 52.06799], [11.40826, 52.06792], [11.42519, 52.06301], [11.42507, 52.06183], [11.42429, 52.06137], [11.42414, 52.05955], [11.42503, 52.05847], [11.42754, 52.05829], [11.42845, 52.05732], [11.42966, 52.05729], [11.42937, 52.05596], [11.42985, 52.05461], [11.41018, 52.04221], [11.3916, 52.03594], [11.39091, 52.03589], [11.38898, 52.03471], [11.35808, 52.02209], [11.32971, 52.01312], [11.33024, 52.01636], [11.32547, 52.02171], [11.32605, 52.02225], [11.32516, 52.0233], [11.32567, 52.02379], [11.3251, 52.02507], [11.32441, 52.02552], [11.32342, 52.02552], [11.32346, 52.02576], [11.32418, 52.02598], [11.32502, 52.0256], [11.32698, 52.02564], [11.32866, 52.02616], [11.32877, 52.02687], [11.32928, 52.02712], [11.3294, 52.02749], [11.32916, 52.02783], [11.32866, 52.028], [11.32869, 52.02861], [11.32821, 52.02895], [11.33819, 52.0402], [11.33878, 52.0425], [11.34559, 52.041], [11.34536, 52.03949], [11.34577, 52.03922], [11.34692, 52.039], [11.34618, 52.03856], [11.34589, 52.03786], [11.34619, 52.03743], [11.34671, 52.03722], [11.34642, 52.03667], [11.34675, 52.03642], [11.3478, 52.03641], [11.34796, 52.03676], [11.34752, 52.03702], [11.34771, 52.03733], [11.34905, 52.03775], [11.3494, 52.03852], [11.35002, 52.03851], [11.3505, 52.03873], [11.35079, 52.03915], [11.3506, 52.03963], [11.35084, 52.03995], [11.35079, 52.04053], [11.34961, 52.04163], [11.34841, 52.04212], [11.34679, 52.04208], [11.34596, 52.04149], [11.338, 52.04325], [11.32678, 52.05031], [11.32329, 52.05177], [11.32124, 52.05292], [11.31932, 52.05328], [11.31815, 52.05332], [11.31458, 52.0597]], [[11.32709, 52.06557], [11.3285, 52.06433], [11.32899, 52.06335], [11.329, 52.06232], [11.32843, 52.06109], [11.32738, 52.05987], [11.32574, 52.05896], [11.3242, 52.05857], [11.32245, 52.05847], [11.32126, 52.05817], [11.31976, 52.05804], [11.31865, 52.05746], [11.32009, 52.05488], [11.32282, 52.05427], [11.32497, 52.05307], [11.32866, 52.0515], [11.3395, 52.04467], [11.34292, 52.04392], [11.34434, 52.04463], [11.34644, 52.04506], [11.34906, 52.04506], [11.35115, 52.04458], [11.35303, 52.0437], [11.3546, 52.04241], [11.35534, 52.04148], [11.35565, 52.04038], [11.35543, 52.0384], [11.35418, 52.03683], [11.35149, 52.03518], [11.34934, 52.03451], [11.34778, 52.03424], [11.34615, 52.03426], [11.34494, 52.03447], [11.34269, 52.03541], [11.34134, 52.03685], [11.34112, 52.03813], [11.34053, 52.03938], [11.33256, 52.0304], [11.334, 52.02835], [11.33415, 52.02692], [11.33275, 52.02462], [11.33171, 52.02385], [11.33055, 52.02335], [11.33078, 52.02169], [11.32986, 52.02026], [11.33357, 52.01612], [11.35728, 52.02374], [11.38509, 52.03512], [11.38551, 52.03618], [11.38643, 52.03723], [11.38855, 52.03847], [11.39065, 52.03889], [11.39529, 52.03908], [11.40866, 52.04357], [11.42505, 52.05394], [11.42462, 52.05547], [11.42274, 52.05587], [11.42145, 52.05649], [11.42049, 52.05731], [11.4196, 52.0586], [11.41933, 52.06056], [11.41996, 52.06266], [11.40751, 52.06627], [11.39528, 52.06631], [11.3945, 52.06541], [11.39337, 52.0647], [11.39123, 52.06405], [11.38962, 52.06391], [11.38573, 52.06441], [11.38389, 52.06502], [11.38246, 52.06588], [11.38162, 52.06595], [11.37966, 52.06441], [11.37736, 52.06359], [11.37667, 52.06296], [11.37642, 52.06162], [11.377, 52.06057], [11.37704, 52.05954], [11.37644, 52.05824], [11.3764, 52.05682], [11.37548, 52.05545], [11.37355, 52.05422], [11.37241, 52.05388], [11.37078, 52.05366], [11.36642, 52.0541], [11.36431, 52.05499], [11.36298, 52.05626], [11.36217, 52.05795], [11.36109, 52.05918], [11.36046, 52.05971], [11.35842, 52.06071], [11.35715, 52.06178], [11.3565, 52.06272], [11.35632, 52.06359], [11.35509, 52.0648], [11.35287, 52.06509], [11.35112, 52.06568], [11.34937, 52.06675], [11.3485, 52.06792], [11.34494, 52.06686], [11.34299, 52.06676], [11.34205, 52.06697], [11.34104, 52.06749], [11.33991, 52.069], [11.32709, 52.06557]], [[11.34962, 52.07158], [11.34309, 52.06933], [11.34298, 52.06909], [11.34337, 52.06863], [11.34385, 52.06857], [11.34681, 52.06943], [11.34777, 52.07], [11.35026, 52.07086], [11.3504, 52.07115], [11.35006, 52.07152], [11.34962, 52.07158]]], [[[11.30971, 52.06134], [11.30931, 52.06121], [11.30909, 52.06125], [11.30971, 52.06134]]], [[[11.31314, 52.08236], [11.31186, 52.0821], [11.3103, 52.08213], [11.30778, 52.08308], [11.30709, 52.08379], [11.30689, 52.08461], [11.30721, 52.08541], [11.30802, 52.08607], [11.30938, 52.08655], [11.31094, 52.08666], [11.31299, 52.08629], [11.31406, 52.0858], [11.31484, 52.08489], [11.3149, 52.08407], [11.31435, 52.08309], [11.31314, 52.08236]], [[11.31195, 52.08446], [11.31084, 52.08483], [11.31011, 52.08475], [11.30986, 52.08452], [11.31, 52.08431], [11.31111, 52.08389], [11.31176, 52.084], [11.31195, 52.08446]]], [[[11.31662, 52.09507], [11.31202, 52.09578], [11.30865, 52.09695], [11.30825, 52.09724], [11.30563, 52.098], [11.30518, 52.09836], [11.30391, 52.09859], [11.30501, 52.0985], [11.30557, 52.09864], [11.30625, 52.09932], [11.30615, 52.09978], [11.30485, 52.1003], [11.30416, 52.1003], [11.30353, 52.10072], [11.3027, 52.10068], [11.30093, 52.1013], [11.30055, 52.10167], [11.30063, 52.10201], [11.30152, 52.10202], [11.30163, 52.10172], [11.3022, 52.1016], [11.30259, 52.10172], [11.30269, 52.102], [11.30958, 52.10186], [11.31069, 52.10078], [11.31108, 52.09963], [11.31317, 52.09845], [11.31413, 52.09716], [11.31815, 52.09647], [11.32623, 52.09359], [11.32791, 52.09455], [11.33051, 52.09507], [11.33273, 52.09503], [11.33558, 52.09437], [11.33739, 52.09354], [11.33832, 52.09267], [11.3388, 52.09167], [11.33877, 52.0906], [11.3405, 52.09036], [11.3415, 52.09118], [11.34351, 52.09197], [11.34447, 52.09272], [11.34581, 52.09333], [11.34792, 52.09375], [11.35041, 52.09369], [11.35206, 52.09439], [11.35362, 52.09466], [11.35394, 52.09588], [11.35343, 52.09688], [11.35362, 52.09794], [11.35444, 52.0988], [11.35481, 52.09994], [11.35631, 52.10094], [11.35925, 52.10088], [11.36031, 52.10009], [11.3603, 52.09983], [11.35868, 52.0993], [11.35766, 52.09921], [11.35741, 52.09902], [11.35767, 52.09863], [11.36003, 52.09808], [11.35898, 52.09671], [11.35696, 52.0976], [11.35652, 52.09749], [11.3564, 52.09704], [11.35736, 52.09604], [11.35732, 52.09554], [11.35662, 52.09508], [11.35662, 52.09481], [11.35829, 52.09435], [11.35875, 52.09444], [11.35975, 52.09084], [11.35924, 52.08913], [11.35914, 52.09032], [11.35853, 52.09076], [11.35819, 52.09149], [11.35759, 52.09168], [11.35655, 52.09152], [11.35524, 52.09176], [11.35419, 52.09173], [11.35368, 52.09153], [11.3535, 52.09118], [11.35366, 52.09038], [11.35265, 52.09043], [11.35208, 52.09], [11.35134, 52.08984], [11.3505, 52.09049], [11.34919, 52.09084], [11.34813, 52.09074], [11.3473, 52.09], [11.34725, 52.08913], [11.34645, 52.08889], [11.34586, 52.08922], [11.34508, 52.08917], [11.34465, 52.08885], [11.34471, 52.08832], [11.34319, 52.08833], [11.33625, 52.08924], [11.33389, 52.08974], [11.33381, 52.09031], [11.33347, 52.09064], [11.33395, 52.09091], [11.33404, 52.09127], [11.33353, 52.0917], [11.33156, 52.09216], [11.33039, 52.09202], [11.32996, 52.09143], [11.33064, 52.09073], [11.3297, 52.09105], [11.32592, 52.09179], [11.31662, 52.09507]]], [[[11.33637, 51.96785], [11.33746, 51.96847], [11.33908, 51.96898], [11.34033, 51.96914], [11.3419, 51.9691], [11.34176, 51.96633], [11.33513, 51.96647], [11.33637, 51.96785]]], [[[11.34021, 51.98253], [11.33878, 51.98149], [11.33734, 51.98098], [11.33533, 51.98069], [11.33343, 51.98077], [11.33274, 51.97985], [11.33164, 51.97907], [11.33023, 51.97853], [11.32862, 51.97827], [11.32642, 51.97838], [11.32436, 51.97902], [11.32293, 51.98006], [11.32225, 51.98137], [11.32261, 51.98306], [11.32386, 51.98429], [11.32568, 51.98506], [11.32821, 51.98534], [11.32877, 51.98654], [11.33036, 51.98805], [11.3322, 51.98882], [11.33381, 51.98907], [11.33547, 51.98902], [11.33765, 51.98852], [11.33933, 51.98776], [11.34044, 51.98699], [11.34114, 51.98606], [11.34137, 51.98504], [11.34111, 51.98402], [11.34021, 51.98253]], [[11.33338, 51.98426], [11.33443, 51.98367], [11.33566, 51.98375], [11.33612, 51.9841], [11.33656, 51.98496], [11.33648, 51.98532], [11.3354, 51.98591], [11.33455, 51.98612], [11.33396, 51.98606], [11.33297, 51.98506], [11.33338, 51.98426]], [[11.32855, 51.98133], [11.3289, 51.98173], [11.32875, 51.98214], [11.32809, 51.98239], [11.32743, 51.9823], [11.32701, 51.98187], [11.32716, 51.98146], [11.32781, 51.98121], [11.32855, 51.98133]]], [[[11.32288, 51.99435], [11.32277, 51.99434], [11.32292, 51.99442], [11.32288, 51.99435]]], [[[11.34061, 52.00379], [11.33944, 52.00366], [11.3392, 52.00397], [11.33721, 52.00437], [11.33644, 52.0041], [11.33628, 52.00354], [11.33689, 52.00326], [11.33761, 52.0033], [11.33783, 52.0036], [11.33828, 52.00342], [11.33647, 52.00308], [11.33575, 52.00309], [11.32851, 52.00538], [11.32395, 52.00577], [11.32126, 52.00524], [11.3212, 52.00544], [11.32183, 52.00549], [11.32294, 52.00604], [11.32582, 52.00635], [11.3267, 52.00664], [11.33013, 52.00606], [11.33426, 52.00562], [11.33896, 52.00553], [11.342, 52.00566], [11.35452, 52.00732], [11.35854, 52.00507], [11.35835, 52.00478], [11.3576, 52.00455], [11.35743, 52.00415], [11.35773, 52.0037], [11.35854, 52.00345], [11.35859, 52.00305], [11.35914, 52.00268], [11.35863, 52.00204], [11.35901, 52.00158], [11.35998, 52.00135], [11.36066, 52.00156], [11.36085, 52.002], [11.36034, 52.00272], [11.3605, 52.00281], [11.36104, 52.00268], [11.36175, 52.00217], [11.36282, 52.00218], [11.36284, 52.00175], [11.36225, 52.0015], [11.36205, 52.00116], [11.3626, 52.00061], [11.36336, 52.00058], [11.36392, 52.00088], [11.36491, 52.00078], [11.36533, 52.00106], [11.36813, 52.00019], [11.36906, 52.00041], [11.37041, 51.99998], [11.3714, 52.0003], [11.3717, 52.00018], [11.37083, 51.99859], [11.37093, 51.9978], [11.37125, 51.99749], [11.37323, 51.99697], [11.37425, 51.99705], [11.37507, 51.99736], [11.37523, 51.99679], [11.37668, 51.99622], [11.37755, 51.99653], [11.3786, 51.99641], [11.37942, 51.99698], [11.4011, 51.987], [11.40106, 51.98634], [11.39982, 51.9867], [11.39735, 51.98691], [11.39626, 51.98679], [11.3949, 51.98635], [11.39315, 51.98676], [11.39155, 51.98684], [11.38981, 51.98792], [11.38714, 51.98899], [11.38469, 51.98937], [11.38352, 51.98976], [11.37775, 51.99324], [11.37561, 51.99401], [11.37447, 51.99491], [11.37097, 51.99614], [11.36952, 51.99862], [11.36886, 51.99909], [11.36809, 51.99934], [11.36553, 51.99934], [11.36368, 52.0], [11.36053, 51.99967], [11.357, 52.00103], [11.35693, 52.00152], [11.35625, 52.00179], [11.35567, 52.00171], [11.3553, 52.00144], [11.35081, 52.00169], [11.34747, 52.00147], [11.34565, 52.00272], [11.34413, 52.00331], [11.34061, 52.00379]], [[11.34735, 52.00453], [11.3459, 52.00474], [11.34538, 52.00449], [11.34575, 52.00408], [11.34699, 52.00385], [11.34711, 52.0036], [11.34665, 52.00309], [11.34703, 52.00283], [11.34775, 52.00301], [11.34819, 52.00369], [11.34785, 52.00425], [11.34735, 52.00453]], [[11.35176, 52.00347], [11.35265, 52.00401], [11.35298, 52.0054], [11.35056, 52.00501], [11.35107, 52.00422], [11.35114, 52.00352], [11.35176, 52.00347]], [[11.38837, 51.99066], [11.38995, 51.99002], [11.38138, 51.994], [11.38093, 51.99383], [11.38497, 51.99137], [11.38585, 51.99106], [11.38837, 51.99066]], [[11.39297, 51.98862], [11.39241, 51.98888], [11.39274, 51.98862], [11.39297, 51.98862]]], [[[11.33012, 52.0101], [11.3322, 52.00992], [11.33193, 52.0094], [11.3323, 52.00858], [11.33358, 52.00823], [11.33404, 52.00785], [11.33491, 52.00777], [11.33546, 52.00729], [11.33636, 52.00732], [11.33693, 52.00684], [11.33791, 52.0069], [11.3383, 52.00664], [11.33893, 52.00658], [11.33923, 52.00608], [11.33328, 52.00624], [11.3276, 52.00704], [11.3272, 52.00811], [11.32674, 52.0084], [11.32676, 52.00902], [11.32884, 52.01046], [11.33012, 52.0101]]], [[[11.33624, 52.01169], [11.33581, 52.01], [11.33159, 52.0106], [11.33112, 52.01121], [11.32941, 52.01172], [11.32971, 52.01257], [11.33225, 52.01322], [11.35851, 52.02162], [11.3899, 52.03446], [11.39004, 52.03413], [11.39061, 52.03384], [11.39191, 52.03373], [11.3931, 52.034], [11.39365, 52.03349], [11.39471, 52.03351], [11.39515, 52.03417], [11.39586, 52.03457], [11.39588, 52.03576], [11.39508, 52.03612], [11.39436, 52.0361], [11.39391, 52.03587], [11.3934, 52.03595], [11.4109, 52.04186], [11.43043, 52.05421], [11.43173, 52.05394], [11.43258, 52.05427], [11.4283, 52.03434], [11.42741, 52.03421], [11.42696, 52.0339], [11.42703, 52.03324], [11.42649, 52.03275], [11.42683, 52.03214], [11.42637, 52.03126], [11.42499, 52.0314], [11.4239, 52.03127], [11.42349, 52.03101], [11.42319, 52.03023], [11.42372, 52.02959], [11.42475, 52.02935], [11.42415, 52.02891], [11.42443, 52.02837], [11.42524, 52.02823], [11.42592, 52.02857], [11.4261, 52.0285], [11.42602, 52.02807], [11.42643, 52.02749], [11.42601, 52.02693], [11.42664, 52.02647], [11.42654, 52.026], [11.41824, 52.02248], [11.41289, 52.02124], [11.41034, 52.02015], [11.40967, 52.02044], [11.40837, 52.02034], [11.40758, 52.0207], [11.40639, 52.02038], [11.40582, 52.02118], [11.40485, 52.02133], [11.40434, 52.02114], [11.40349, 52.02033], [11.40335, 52.0196], [11.40355, 52.01929], [11.40261, 52.0185], [11.40172, 52.0184], [11.40125, 52.01874], [11.40034, 52.01883], [11.39951, 52.01867], [11.39927, 52.01818], [11.3997, 52.01739], [11.40218, 52.01707], [11.40186, 52.01645], [11.40273, 52.01591], [11.40261, 52.0152], [11.40284, 52.01484], [11.40353, 52.01464], [11.40464, 52.01482], [11.40497, 52.01459], [11.40461, 52.01435], [11.40455, 52.01398], [11.40515, 52.01332], [11.40573, 52.0131], [11.40665, 52.01316], [11.40502, 52.01236], [11.40157, 52.0112], [11.3978, 52.01061], [11.37276, 52.01001], [11.37235, 52.01091], [11.37337, 52.01215], [11.37299, 52.01255], [11.37229, 52.01265], [11.37106, 52.01228], [11.37068, 52.01199], [11.37063, 52.01157], [11.37101, 52.01117], [11.37049, 52.0109], [11.37037, 52.01047], [11.37086, 52.00994], [11.3668, 52.00956], [11.35478, 52.00791], [11.35381, 52.00843], [11.35118, 52.00919], [11.35184, 52.00953], [11.35215, 52.01082], [11.35258, 52.01111], [11.35292, 52.01183], [11.35386, 52.01202], [11.35441, 52.01315], [11.35392, 52.01368], [11.35163, 52.01407], [11.35104, 52.01405], [11.35061, 52.01379], [11.34884, 52.01045], [11.34663, 52.01036], [11.34663, 52.01083], [11.34743, 52.01125], [11.34726, 52.01176], [11.34344, 52.01251], [11.34287, 52.01241], [11.34239, 52.01207], [11.3423, 52.01134], [11.34162, 52.01116], [11.34134, 52.01085], [11.33978, 52.01141], [11.33989, 52.01206], [11.33968, 52.01227], [11.34011, 52.01262], [11.34005, 52.01319], [11.33958, 52.01342], [11.33842, 52.01358], [11.33767, 52.01334], [11.33746, 52.01278], [11.3379, 52.01239], [11.33911, 52.0122], [11.33895, 52.01165], [11.33675, 52.01197], [11.33624, 52.01169]], [[11.35892, 52.01989], [11.34921, 52.01678], [11.35181, 52.01704], [11.35503, 52.01657], [11.35655, 52.01615], [11.35817, 52.01521], [11.35907, 52.01395], [11.35919, 52.01293], [11.35848, 52.01113], [11.3573, 52.00995], [11.36565, 52.0111], [11.36617, 52.01298], [11.36729, 52.01415], [11.36985, 52.01522], [11.37198, 52.0156], [11.37422, 52.01544], [11.37656, 52.01454], [11.37777, 52.0134], [11.37814, 52.01179], [11.39605, 52.01218], [11.39977, 52.01256], [11.39853, 52.01352], [11.39791, 52.01461], [11.39595, 52.01554], [11.39489, 52.01675], [11.39451, 52.0178], [11.39455, 52.01889], [11.39508, 52.01987], [11.39605, 52.02071], [11.39737, 52.02135], [11.3993, 52.02175], [11.40101, 52.02327], [11.40337, 52.02414], [11.40626, 52.02424], [11.40861, 52.02359], [11.41093, 52.02329], [11.41243, 52.02291], [11.41692, 52.02393], [11.42152, 52.02586], [11.42014, 52.02698], [11.41877, 52.02891], [11.4184, 52.02992], [11.41853, 52.03094], [11.41936, 52.03251], [11.42039, 52.03333], [11.42209, 52.03401], [11.42244, 52.0349], [11.42323, 52.0358], [11.4244, 52.03653], [11.42612, 52.03708], [11.42517, 52.03853], [11.42522, 52.04], [11.42598, 52.04133], [11.42729, 52.04227], [11.42916, 52.05101], [11.41288, 52.04071], [11.40054, 52.03645], [11.40068, 52.03451], [11.40032, 52.03348], [11.39892, 52.03199], [11.39734, 52.03104], [11.3953, 52.03052], [11.39363, 52.03048], [11.38915, 52.03103], [11.38758, 52.03152], [11.35892, 52.01989]], [[11.3477, 52.0162], [11.3484, 52.01652], [11.34477, 52.01536], [11.34629, 52.01507], [11.3477, 52.0162]]], [[[11.32106, 52.02559], [11.32074, 52.02625], [11.32142, 52.02624], [11.32195, 52.02649], [11.32256, 52.02642], [11.32262, 52.02599], [11.32167, 52.026], [11.32106, 52.02559]]], [[[11.33856, 52.06366], [11.34085, 52.06357], [11.3429, 52.06298], [11.34441, 52.06194], [11.34514, 52.06063], [11.34494, 52.05901], [11.34392, 52.05779], [11.34223, 52.05691], [11.34011, 52.05649], [11.33741, 52.0566], [11.33542, 52.05719], [11.33395, 52.0582], [11.33321, 52.05948], [11.33332, 52.06087], [11.33424, 52.06209], [11.33584, 52.06301], [11.33856, 52.06366]], [[11.33803, 52.05976], [11.33861, 52.05946], [11.33983, 52.05947], [11.34033, 52.05983], [11.34032, 52.06039], [11.33983, 52.06068], [11.33893, 52.06069], [11.33808, 52.06031], [11.33803, 52.05976]]], [[[11.35858, 51.97766], [11.35839, 51.97651], [11.36014, 51.97678], [11.36234, 51.97663], [11.36513, 51.97576], [11.36658, 51.97483], [11.34739, 51.97522], [11.34656, 51.97654], [11.34663, 51.97791], [11.34796, 51.9796], [11.34957, 51.98053], [11.35164, 51.98101], [11.35385, 51.98097], [11.35622, 51.98029], [11.35801, 51.97899], [11.35858, 51.97766]], [[11.35336, 51.97791], [11.3526, 51.9781], [11.3519, 51.97792], [11.35128, 51.97719], [11.35157, 51.9767], [11.35247, 51.97644], [11.35317, 51.97663], [11.3538, 51.97736], [11.35336, 51.97791]]], [[[11.36382, 52.00173], [11.36401, 52.00165], [11.36397, 52.0015], [11.36382, 52.00173]]], [[[11.34123, 52.00637], [11.34119, 52.00702], [11.34322, 52.00739], [11.34363, 52.00691], [11.34423, 52.00673], [11.34503, 52.00693], [11.34592, 52.00685], [11.34697, 52.007], [11.34766, 52.00791], [11.3484, 52.00791], [11.34888, 52.00812], [11.34919, 52.00912], [11.35375, 52.00776], [11.34325, 52.00632], [11.341, 52.00615], [11.34123, 52.00637]]], [[[11.35556, 52.00746], [11.36953, 52.0093], [11.36924, 52.0084], [11.36994, 52.00796], [11.36945, 52.00696], [11.36816, 52.00631], [11.36689, 52.00635], [11.36636, 52.0061], [11.36556, 52.00603], [11.36515, 52.00575], [11.36347, 52.00574], [11.36294, 52.00554], [11.36192, 52.00573], [11.36001, 52.00529], [11.3593, 52.00538], [11.35556, 52.00746]]], [[[11.36464, 52.06397], [11.36261, 52.06421], [11.36475, 52.06399], [11.36464, 52.06397]]], [[[11.3697, 52.06484], [11.36614, 52.06385], [11.36513, 52.06449], [11.36387, 52.06465], [11.36408, 52.06529], [11.36485, 52.06566], [11.36475, 52.06646], [11.36542, 52.06688], [11.36566, 52.06685], [11.36574, 52.06626], [11.3662, 52.06595], [11.3671, 52.06588], [11.3677, 52.0662], [11.36852, 52.06611], [11.36903, 52.06569], [11.3697, 52.06484]]], [[[11.35642, 52.06874], [11.35707, 52.0687], [11.35731, 52.0683], [11.35643, 52.0684], [11.35642, 52.06874]]], [[[11.36499, 52.07068], [11.36529, 52.07046], [11.36458, 52.07034], [11.3646, 52.07053], [11.36499, 52.07068]]], [[[11.35562, 52.07155], [11.35498, 52.07165], [11.35599, 52.07194], [11.35607, 52.07173], [11.35562, 52.07155]]], [[[11.36373, 52.0719], [11.36386, 52.07235], [11.3642, 52.07244], [11.36482, 52.07194], [11.36387, 52.07193], [11.36339, 52.07157], [11.36275, 52.07167], [11.36373, 52.0719]]], [[[11.36257, 52.07362], [11.36214, 52.07371], [11.36199, 52.07395], [11.36257, 52.07362]]], [[[11.357, 52.08406], [11.35724, 52.08485], [11.35808, 52.08534], [11.35852, 52.08589], [11.3591, 52.08587], [11.35957, 52.08607], [11.36071, 52.08585], [11.36367, 52.08422], [11.38396, 52.07679], [11.37829, 52.07394], [11.37753, 52.07436], [11.37693, 52.07434], [11.37637, 52.07408], [11.37523, 52.07454], [11.37194, 52.0745], [11.3699, 52.07478], [11.369, 52.07434], [11.36836, 52.07471], [11.367, 52.07458], [11.3663, 52.07473], [11.357, 52.08406]], [[11.36219, 52.08283], [11.36122, 52.08291], [11.36458, 52.0795], [11.36599, 52.07929], [11.36734, 52.07884], [11.36902, 52.07769], [11.37722, 52.07734], [11.36219, 52.08283]]], [[[11.35767, 52.08219], [11.35685, 52.08311], [11.35782, 52.08214], [11.35767, 52.08219]]], [[[11.36158, 52.08621], [11.36165, 52.08645], [11.36228, 52.08634], [11.36285, 52.08645], [11.36323, 52.08697], [11.363, 52.08731], [11.36236, 52.08755], [11.36287, 52.0879], [11.3628, 52.0885], [11.3621, 52.08874], [11.36168, 52.08933], [11.36034, 52.08944], [11.36061, 52.091], [11.3594, 52.09567], [11.36006, 52.09704], [11.36133, 52.09843], [11.36144, 52.09988], [11.36124, 52.10029], [11.36025, 52.10086], [11.36407, 52.10078], [11.36415, 52.10065], [11.36433, 52.09923], [11.36413, 52.09792], [11.36257, 52.0964], [11.36219, 52.09521], [11.36255, 52.09337], [11.363, 52.0922], [11.36508, 52.09144], [11.3673, 52.08956], [11.36802, 52.08716], [11.36788, 52.08612], [11.36745, 52.08539], [11.40925, 52.07012], [11.43175, 52.06935], [11.43435, 52.06946], [11.43472, 52.0697], [11.43462, 52.06781], [11.43138, 52.0677], [11.4085, 52.06846], [11.36414, 52.08467], [11.36158, 52.08621]]], [[[11.37958, 51.99758], [11.37872, 51.99824], [11.37779, 51.99845], [11.37861, 51.99835], [11.37918, 51.99847], [11.37953, 51.99888], [11.37941, 51.99929], [11.37894, 51.99952], [11.37777, 51.99961], [11.37716, 51.99925], [11.37727, 51.99865], [11.37696, 51.99879], [11.37639, 51.99912], [11.37699, 51.99985], [11.37695, 52.00022], [11.37616, 52.001], [11.37535, 52.00138], [11.37394, 52.00173], [11.37334, 52.0017], [11.37199, 52.00071], [11.37134, 52.00116], [11.37056, 52.0013], [11.37045, 52.00144], [11.37124, 52.00168], [11.37163, 52.00235], [11.37237, 52.00269], [11.37241, 52.00306], [11.37211, 52.00336], [11.37122, 52.00363], [11.37003, 52.00371], [11.36949, 52.00355], [11.3691, 52.00308], [11.36847, 52.0032], [11.36829, 52.00355], [11.36874, 52.004], [11.3695, 52.00425], [11.36965, 52.00494], [11.37085, 52.00497], [11.37151, 52.00552], [11.37141, 52.00598], [11.3703, 52.00683], [11.37089, 52.00803], [11.37132, 52.00839], [11.37154, 52.00939], [11.39791, 52.01007], [11.40237, 52.01082], [11.40608, 52.01218], [11.4069, 52.01103], [11.40748, 52.01094], [11.40852, 52.01118], [11.40895, 52.0108], [11.40848, 52.01022], [11.40923, 52.00958], [11.40928, 52.00882], [11.40986, 52.00851], [11.41071, 52.00858], [11.41333, 52.0042], [11.41119, 51.99191], [11.4085, 51.99197], [11.41064, 52.00407], [11.40974, 52.00554], [11.40802, 52.00578], [11.40614, 52.00652], [11.40512, 52.00735], [11.4045, 52.00847], [11.40307, 52.0092], [11.39903, 52.0085], [11.39289, 52.00825], [11.3928, 52.00688], [11.39186, 52.00564], [11.39023, 52.00471], [11.38814, 52.00425], [11.3859, 52.00431], [11.38346, 52.0051], [11.38191, 52.00651], [11.38159, 52.00802], [11.37653, 52.0079], [11.37574, 52.00725], [11.37633, 52.00595], [11.3762, 52.00492], [11.3768, 52.00425], [11.37934, 52.00321], [11.38047, 52.00232], [11.38235, 52.00166], [11.38372, 52.00059], [11.38425, 51.99961], [11.38442, 51.99741], [11.40124, 51.98963], [11.40113, 51.98765], [11.37958, 51.99758]], [[11.38723, 52.00828], [11.38659, 52.00809], [11.38636, 52.0077], [11.38666, 52.0073], [11.3873, 52.00716], [11.38794, 52.00735], [11.38817, 52.00774], [11.38787, 52.00814], [11.38723, 52.00828]]], [[[11.39127, 52.06852], [11.38946, 52.06869], [11.38859, 52.06886], [11.39062, 52.06861], [11.39172, 52.06908], [11.39577, 52.06851], [11.39127, 52.06852]]], [[[11.39157, 52.07031], [11.39199, 52.07035], [11.39185, 52.06996], [11.3911, 52.07013], [11.39007, 52.07002], [11.39013, 52.07064], [11.38963, 52.0712], [11.38973, 52.07152], [11.39045, 52.07179], [11.39062, 52.0722], [11.39014, 52.07272], [11.38867, 52.07273], [11.38832, 52.07243], [11.38828, 52.07199], [11.38788, 52.0723], [11.38696, 52.07242], [11.3868, 52.07314], [11.38462, 52.07357], [11.38417, 52.07386], [11.38245, 52.07394], [11.38179, 52.07361], [11.3808, 52.07374], [11.38011, 52.07416], [11.38473, 52.07651], [11.39626, 52.07231], [11.39312, 52.07266], [11.39265, 52.07243], [11.39203, 52.07262], [11.39145, 52.07252], [11.39108, 52.07217], [11.39116, 52.07175], [11.3917, 52.07149], [11.39235, 52.07152], [11.39228, 52.07128], [11.3914, 52.07142], [11.39079, 52.07108], [11.39088, 52.07054], [11.39157, 52.07031]]], [[[11.37575, 52.06979], [11.37539, 52.07079], [11.37599, 52.07115], [11.37581, 52.07174], [11.37635, 52.07228], [11.37943, 52.07382], [11.38014, 52.07337], [11.38092, 52.07315], [11.38026, 52.07255], [11.38, 52.07134], [11.38048, 52.07083], [11.38093, 52.06961], [11.37575, 52.06979]]], [[[11.38181, 52.07294], [11.38182, 52.07304], [11.38196, 52.07293], [11.38181, 52.07294]]], [[[11.41206, 51.99189], [11.4142, 52.00424], [11.4112, 52.00929], [11.41197, 52.0096], [11.41211, 52.01006], [11.41124, 52.01058], [11.41024, 52.01062], [11.40895, 52.01176], [11.40812, 52.01323], [11.41234, 52.01539], [11.41586, 52.01677], [11.4193, 52.01777], [11.42756, 52.01964], [11.43208, 52.02118], [11.43197, 52.01918], [11.42763, 52.01785], [11.41842, 52.01572], [11.41303, 52.01363], [11.41324, 52.01327], [11.41497, 52.01259], [11.41605, 52.01181], [11.41692, 52.01016], [11.41663, 52.0088], [11.41525, 52.00743], [11.41664, 52.00513], [11.4169, 52.00395], [11.41475, 51.99184], [11.41206, 51.99189]]], [[[11.4159, 52.01739], [11.41183, 52.01583], [11.40781, 52.01378], [11.40696, 52.01477], [11.40817, 52.01614], [11.40794, 52.01686], [11.40824, 52.01721], [11.40898, 52.01732], [11.41014, 52.01795], [11.41059, 52.01887], [11.41041, 52.01927], [11.41136, 52.01999], [11.41328, 52.02076], [11.41867, 52.02202], [11.42703, 52.02553], [11.4275, 52.02637], [11.42919, 52.02641], [11.4303, 52.02704], [11.43047, 52.02801], [11.43119, 52.02807], [11.43213, 52.0279], [11.43317, 52.02807], [11.43381, 52.02776], [11.43456, 52.02783], [11.43518, 52.02872], [11.43584, 52.02896], [11.43607, 52.02939], [11.43886, 52.03001], [11.43907, 52.03046], [11.43851, 52.03091], [11.43853, 52.03118], [11.44026, 52.03187], [11.44238, 52.03238], [11.4473, 52.03284], [11.4471, 52.02932], [11.44297, 52.02723], [11.43791, 52.02733], [11.43808, 52.02804], [11.4373, 52.02841], [11.43562, 52.02822], [11.43538, 52.02789], [11.43559, 52.02738], [11.43242, 52.02745], [11.43212, 52.02184], [11.4272, 52.02013], [11.41899, 52.01828], [11.4159, 52.01739]], [[11.41537, 52.01909], [11.4272, 52.02197], [11.42974, 52.02286], [11.42968, 52.02342], [11.42685, 52.02344], [11.41995, 52.02056], [11.41542, 52.01948], [11.41537, 52.01909]], [[11.44382, 52.03083], [11.44379, 52.02979], [11.44621, 52.03101], [11.44481, 52.03091], [11.44382, 52.03083]]], [[[11.44439, 52.0272], [11.44705, 52.02835], [11.44698, 52.02714], [11.44439, 52.0272]]], [[[11.42566, 52.02925], [11.42566, 52.02925], [11.42565, 52.02925], [11.42566, 52.02925]]], [[[11.44733, 52.03341], [11.44084, 52.03265], [11.43922, 52.0321], [11.43865, 52.03349], [11.43821, 52.03373], [11.43762, 52.03377], [11.43563, 52.03249], [11.43483, 52.03264], [11.434, 52.03246], [11.43369, 52.03213], [11.43374, 52.03168], [11.43215, 52.03266], [11.43103, 52.03255], [11.43047, 52.03213], [11.42907, 52.03255], [11.42931, 52.03364], [11.42911, 52.034], [11.43012, 52.03871], [11.43145, 52.03847], [11.43195, 52.0381], [11.433, 52.038], [11.43291, 52.03643], [11.44068, 52.03627], [11.44202, 52.03561], [11.44176, 52.03625], [11.44677, 52.03614], [11.44695, 52.03573], [11.44744, 52.03552], [11.44733, 52.03341]]], [[[11.4331, 52.03988], [11.43095, 52.04015], [11.4304, 52.04003], [11.43349, 52.0544], [11.43377, 52.05472], [11.43366, 52.05523], [11.43393, 52.05523], [11.4331, 52.03988]]], [[[11.42945, 52.06175], [11.42884, 52.06191], [11.42885, 52.06197], [11.42945, 52.06175]]], [[[11.42931, 52.06439], [11.42909, 52.0625], [11.42837, 52.06291], [11.42759, 52.06292], [11.42647, 52.06344], [11.42572, 52.06345], [11.41004, 52.0679], [11.43134, 52.06716], [11.43459, 52.06726], [11.43441, 52.06405], [11.43417, 52.06388], [11.43308, 52.06376], [11.43286, 52.06408], [11.43222, 52.06426], [11.43174, 52.06469], [11.42998, 52.06476], [11.42931, 52.06439]]], [[[11.40491, 52.06847], [11.40516, 52.06906], [11.40677, 52.06847], [11.40491, 52.06847]]]]}, "properties": {"kind": "pv", "area_km2": 62.24, "mw": 3112.2}}, {"type": "Feature", "geometry": {"type": "Point", "coordinates": [11.32539, 52.03909]}, "properties": {"kind": "turbine", "i": 0, "mw": 6.0, "hub_m": 120.0, "rotor_m": 150.0}}, {"type": "Feature", "geometry": {"type": "Point", "coordinates": [11.34169, 52.04534]}, "properties": {"kind": "turbine", "i": 1, "mw": 6.0, "hub_m": 120.0, "rotor_m": 150.0}}, {"type": "Feature", "geometry": {"type": "Point", "coordinates": [11.33552, 52.02904]}, "properties": {"kind": "turbine", "i": 2, "mw": 6.0, "hub_m": 120.0, "rotor_m": 150.0}}, {"type": "Feature", "geometry": {"type": "Point", "coordinates": [11.3096, 52.04269]}, "properties": {"kind": "turbine", "i": 3, "mw": 6.0, "hub_m": 120.0, "rotor_m": 150.0}}, {"type": "Feature", "geometry": {"type": "Point", "coordinates": [11.30909, 52.03285]}, "properties": {"kind": "turbine", "i": 4, "mw": 6.0, "hub_m": 120.0, "rotor_m": 150.0}}, {"type": "Feature", "geometry": {"type": "Point", "coordinates": [11.35164, 52.032]}, "properties": {"kind": "turbine", "i": 5, "mw": 6.0, "hub_m": 120.0, "rotor_m": 150.0}}, {"type": "Feature", "geometry": {"type": "Point", "coordinates": [11.33688, 52.05528]}, "properties": {"kind": "turbine", "i": 6, "mw": 6.0, "hub_m": 120.0, "rotor_m": 150.0}}, {"type": "Feature", "geometry": {"type": "Point", "coordinates": [11.35765, 52.04502]}, "properties": {"kind": "turbine", "i": 7, "mw": 6.0, "hub_m": 120.0, "rotor_m": 150.0}}, {"type": "Feature", "geometry": {"type": "Point", "coordinates": [11.32092, 52.0556]}, "properties": {"kind": "turbine", "i": 8, "mw": 6.0, "hub_m": 120.0, "rotor_m": 150.0}}, {"type": "Feature", "geometry": {"type": "Point", "coordinates": [11.335, 52.0192]}, "properties": {"kind": "turbine", "i": 9, "mw": 6.0, "hub_m": 120.0, "rotor_m": 150.0}}, {"type": "Feature", "geometry": {"type": "Point", "coordinates": [11.30859, 52.02301]}, "properties": {"kind": "turbine", "i": 10, "mw": 6.0, "hub_m": 120.0, "rotor_m": 150.0}}, {"type": "Feature", "geometry": {"type": "Point", "coordinates": [11.35113, 52.02216]}, "properties": {"kind": "turbine", "i": 11, "mw": 6.0, "hub_m": 120.0, "rotor_m": 150.0}}, {"type": "Feature", "geometry": {"type": "Point", "coordinates": [11.30479, 52.05263]}, "properties": {"kind": "turbine", "i": 12, "mw": 6.0, "hub_m": 120.0, "rotor_m": 150.0}}, {"type": "Feature", "geometry": {"type": "Point", "coordinates": [11.35285, 52.05497]}, "properties": {"kind": "turbine", "i": 13, "mw": 6.0, "hub_m": 120.0, "rotor_m": 150.0}}, {"type": "Feature", "geometry": {"type": "Point", "coordinates": [11.29348, 52.03972]}, "properties": {"kind": "turbine", "i": 14, "mw": 6.0, "hub_m": 120.0, "rotor_m": 150.0}}, {"type": "Feature", "geometry": {"type": "Point", "coordinates": [11.36777, 52.03496]}, "properties": {"kind": "turbine", "i": 15, "mw": 6.0, "hub_m": 120.0, "rotor_m": 150.0}}, {"type": "Feature", "geometry": {"type": "Point", "coordinates": [11.29297, 52.02988]}, "properties": {"kind": "turbine", "i": 16, "mw": 6.0, "hub_m": 120.0, "rotor_m": 150.0}}, {"type": "Feature", "geometry": {"type": "Point", "coordinates": [11.33208, 52.06523]}, "properties": {"kind": "turbine", "i": 17, "mw": 6.0, "hub_m": 120.0, "rotor_m": 150.0}}, {"type": "Feature", "geometry": {"type": "Point", "coordinates": [11.37361, 52.0447]}, "properties": {"kind": "turbine", "i": 18, "mw": 6.0, "hub_m": 120.0, "rotor_m": 150.0}}, {"type": "Feature", "geometry": {"type": "Point", "coordinates": [11.28866, 52.04966]}, "properties": {"kind": "turbine", "i": 19, "mw": 6.0, "hub_m": 120.0, "rotor_m": 150.0}}, {"type": "Feature", "geometry": {"type": "Point", "coordinates": [11.34804, 52.06491]}, "properties": {"kind": "turbine", "i": 20, "mw": 6.0, "hub_m": 120.0, "rotor_m": 150.0}}, {"type": "Feature", "geometry": {"type": "Point", "coordinates": [11.30808, 52.01316]}, "properties": {"kind": "turbine", "i": 21, "mw": 6.0, "hub_m": 120.0, "rotor_m": 150.0}}, {"type": "Feature", "geometry": {"type": "Point", "coordinates": [11.37257, 52.02502]}, "properties": {"kind": "turbine", "i": 22, "mw": 6.0, "hub_m": 120.0, "rotor_m": 150.0}}, {"type": "Feature", "geometry": {"type": "Point", "coordinates": [11.29247, 52.02004]}, "properties": {"kind": "turbine", "i": 23, "mw": 6.0, "hub_m": 120.0, "rotor_m": 150.0}}, {"type": "Feature", "geometry": {"type": "Point", "coordinates": [11.36124, 52.01211]}, "properties": {"kind": "turbine", "i": 24, "mw": 6.0, "hub_m": 120.0, "rotor_m": 150.0}}, {"type": "Feature", "geometry": {"type": "Point", "coordinates": [11.31096, 52.06893]}, "properties": {"kind": "turbine", "i": 25, "mw": 6.0, "hub_m": 120.0, "rotor_m": 150.0}}, {"type": "Feature", "geometry": {"type": "Point", "coordinates": [11.29465, 52.06268]}, "properties": {"kind": "turbine", "i": 26, "mw": 6.0, "hub_m": 120.0, "rotor_m": 150.0}}, {"type": "Feature", "geometry": {"type": "Point", "coordinates": [11.38373, 52.03464]}, "properties": {"kind": "turbine", "i": 27, "mw": 6.0, "hub_m": 120.0, "rotor_m": 150.0}}, {"type": "Feature", "geometry": {"type": "Point", "coordinates": [11.27718, 52.03347]}, "properties": {"kind": "turbine", "i": 28, "mw": 6.0, "hub_m": 120.0, "rotor_m": 150.0}}, {"type": "Feature", "geometry": {"type": "Point", "coordinates": [11.37945, 52.05443]}, "properties": {"kind": "turbine", "i": 29, "mw": 6.0, "hub_m": 120.0, "rotor_m": 150.0}}]}