{"type": "FeatureCollection", "features": [{"type": "Feature", "geometry": {"type": "MultiPolygon", "coordinates": [[[[11.29212, 52.04962], [11.29482, 52.04864], [11.29709, 52.04857], [11.29919, 52.04902], [11.30084, 52.04994], [11.30191, 52.05152], [11.30192, 52.05304], [11.30128, 52.0541], [11.30245, 52.05585], [11.30237, 52.05763], [11.30402, 52.05843], [11.30818, 52.05669], [11.31257, 52.0565], [11.3155, 52.05185], [11.31689, 52.05126], [11.31954, 52.05097], [11.32449, 52.04862], [11.33505, 52.04196], [11.33482, 52.04097], [11.32689, 52.03203], [11.32321, 52.03226], [11.31952, 52.03176], [11.315, 52.02971], [11.31335, 52.02795], [11.31349, 52.02597], [11.31215, 52.02384], [11.31272, 52.02217], [11.31757, 52.01905], [11.32159, 52.01821], [11.32462, 52.01815], [11.32536, 52.01733], [11.32294, 52.0155], [11.30762, 52.0172], [11.30552, 52.0185], [11.30512, 52.02011], [11.30388, 52.02127], [11.30077, 52.02231], [11.29741, 52.02216], [11.29248, 52.02691], [11.29085, 52.02921], [11.29077, 52.03112], [11.28921, 52.03263], [11.28865, 52.03421], [11.2881, 52.03933], [11.28918, 52.04442], [11.29184, 52.04928], [11.29212, 52.04962]], [[11.30429, 52.03561], [11.30301, 52.03676], [11.30115, 52.03749], [11.29892, 52.03774], [11.29675, 52.03745], [11.2949, 52.03666], [11.2937, 52.03551], [11.29329, 52.03414], [11.29377, 52.0328], [11.29505, 52.03165], [11.29691, 52.03092], [11.29914, 52.03067], [11.30131, 52.03096], [11.30316, 52.03175], [11.30437, 52.03291], [11.30477, 52.03427], [11.30429, 52.03561]]], [[[11.35677, 52.02354], [11.33357, 52.01612], [11.32986, 52.02026], [11.33078, 52.02169], [11.33055, 52.02335], [11.33275, 52.02462], [11.33415, 52.02692], [11.334, 52.02835], [11.33256, 52.0304], [11.34053, 52.03938], [11.34134, 52.03685], [11.34269, 52.03541], [11.34494, 52.03447], [11.34778, 52.03424], [11.35149, 52.03518], [11.35418, 52.03683], [11.35543, 52.0384], [11.35557, 52.04081], [11.35343, 52.04342], [11.35015, 52.04488], [11.3459, 52.045], [11.34292, 52.04392], [11.3395, 52.04467], [11.32866, 52.0515], [11.32282, 52.05427], [11.32009, 52.05488], [11.31865, 52.05746], [11.31976, 52.05804], [11.32525, 52.0588], [11.32738, 52.05987], [11.329, 52.06232], [11.32826, 52.06461], [11.33601, 52.06444], [11.34412, 52.06328], [11.3517, 52.06116], [11.35846, 52.05818], [11.36415, 52.05443], [11.36652, 52.05232], [11.3702, 52.04772], [11.37235, 52.04277], [11.37283, 52.04022], [11.37256, 52.03509], [11.36998, 52.02902], [11.35677, 52.02354]], [[11.33394, 52.06181], [11.33321, 52.0605], [11.33332, 52.05914], [11.33426, 52.05791], [11.33637, 52.05683], [11.3386, 52.05648], [11.3412, 52.05664], [11.34314, 52.0573], [11.34453, 52.05837], [11.34517, 52.05988], [11.34488, 52.06131], [11.34374, 52.06251], [11.34193, 52.06334], [11.33966, 52.06368], [11.3375, 52.06351], [11.33539, 52.06282], [11.33394, 52.06181]]], [[[11.34629, 52.01507], [11.34477, 52.01536], [11.3484, 52.01652], [11.34629, 52.01507]]], [[[11.35125, 52.01705], [11.34921, 52.01678], [11.36219, 52.02113], [11.35397, 52.01674], [11.35125, 52.01705]]]]}, "properties": {"kind": "windland", "area_km2": 17.68}}, {"type": "Feature", "geometry": {"type": "MultiPolygon", "coordinates": [[[[11.27115, 52.00373], [11.27086, 52.00369], [11.27087, 52.0039], [11.27115, 52.00373]]], [[[11.27286, 52.00644], [11.27405, 52.00603], [11.27507, 52.00533], [11.27561, 52.00445], [11.27555, 52.0036], [11.27223, 52.00367], [11.27267, 52.00403], [11.27254, 52.00437], [11.272, 52.00468], [11.27091, 52.00475], [11.271, 52.00659], [11.27286, 52.00644]]], [[[11.27245, 52.01299], [11.27468, 52.01325], [11.27671, 52.01227], [11.279, 52.01198], [11.28341, 52.01045], [11.28637, 52.00793], [11.28772, 52.00732], [11.28737, 52.00657], [11.28774, 52.00572], [11.29019, 52.00472], [11.29154, 52.0044], [11.29839, 51.9986], [11.29814, 51.9985], [11.29711, 51.99875], [11.29645, 51.9984], [11.29558, 51.99851], [11.2947, 51.99892], [11.29383, 51.99874], [11.29363, 51.99808], [11.29512, 51.99723], [11.29498, 51.99683], [11.29535, 51.99637], [11.29592, 51.99625], [11.29725, 51.99643], [11.29765, 51.9967], [11.29771, 51.99718], [11.29832, 51.99749], [11.3001, 51.99754], [11.30071, 51.99809], [11.30267, 51.99811], [11.30257, 51.99782], [11.30192, 51.99793], [11.30107, 51.99774], [11.30026, 51.99695], [11.30036, 51.99634], [11.30129, 51.99614], [11.30093, 51.99585], [11.30035, 51.99559], [11.29964, 51.99557], [11.29864, 51.99506], [11.29865, 51.9946], [11.29943, 51.99415], [11.29838, 51.99437], [11.29758, 51.99418], [11.29657, 51.9942], [11.29643, 51.99447], [11.29594, 51.99457], [11.29455, 51.99424], [11.28883, 51.99435], [11.29038, 51.99502], [11.29068, 51.99544], [11.28904, 51.99722], [11.28876, 51.99823], [11.28898, 51.99926], [11.28987, 52.00041], [11.29147, 52.00134], [11.28963, 52.00289], [11.28677, 52.00382], [11.28569, 52.00438], [11.28491, 52.00507], [11.28445, 52.00614], [11.28311, 52.00649], [11.28181, 52.00714], [11.28062, 52.00835], [11.28028, 52.00947], [11.27789, 52.01026], [11.27563, 52.01056], [11.27384, 52.01127], [11.27119, 52.01032], [11.27131, 52.01261], [11.27157, 52.01313], [11.27245, 52.01299]], [[11.29966, 51.996], [11.29934, 51.9964], [11.29869, 51.99654], [11.29801, 51.99634], [11.29779, 51.99594], [11.29807, 51.99552], [11.29877, 51.99535], [11.29945, 51.99555], [11.29966, 51.996]]], [[[11.2692, 52.01354], [11.26924, 52.01381], [11.27078, 52.01337], [11.2705, 52.01282], [11.27013, 52.01324], [11.2692, 52.01354]]], [[[11.25685, 52.01489], [11.25838, 52.01435], [11.25825, 52.01365], [11.25865, 52.01337], [11.25931, 52.01328], [11.26017, 52.0135], [11.2611, 52.01424], [11.26177, 52.0143], [11.26466, 52.01362], [11.26632, 52.01405], [11.2682, 52.01405], [11.2684, 52.014], [11.26844, 52.01325], [11.26964, 52.01271], [11.25675, 52.01296], [11.25685, 52.01489]]], [[[11.25929, 52.01383], [11.25904, 52.0139], [11.25925, 52.01427], [11.2601, 52.0142], [11.25929, 52.01383]]], [[[11.27251, 52.01369], [11.26847, 52.01476], [11.2668, 52.01482], [11.26449, 52.01432], [11.26247, 52.01498], [11.25896, 52.01495], [11.25697, 52.01567], [11.2571, 52.01987], [11.25977, 52.01954], [11.265, 52.01925], [11.27455, 52.01723], [11.2813, 52.01521], [11.28392, 52.01479], [11.29177, 52.01278], [11.30397, 52.00823], [11.30051, 52.00833], [11.29735, 52.00801], [11.29117, 52.00785], [11.29027, 52.00815], [11.28944, 52.00781], [11.28855, 52.00787], [11.28747, 52.00821], [11.28638, 52.00901], [11.28711, 52.00946], [11.28679, 52.01004], [11.28625, 52.0102], [11.28568, 52.01011], [11.28536, 52.01037], [11.28531, 52.01101], [11.28498, 52.0112], [11.28387, 52.0111], [11.28442, 52.01165], [11.28422, 52.01208], [11.28367, 52.01203], [11.28332, 52.01151], [11.28309, 52.0121], [11.28247, 52.01212], [11.28204, 52.01242], [11.28134, 52.01238], [11.28101, 52.01198], [11.27899, 52.01277], [11.2769, 52.01297], [11.27519, 52.01386], [11.27441, 52.01394], [11.27251, 52.01369]], [[11.26326, 52.01675], [11.26471, 52.01636], [11.2663, 52.01662], [11.26786, 52.01664], [11.26673, 52.01704], [11.26425, 52.01747], [11.2576, 52.01795], [11.25879, 52.01713], [11.25983, 52.01675], [11.26326, 52.01675]], [[11.2875, 52.00935], [11.28706, 52.00864], [11.28751, 52.00838], [11.28879, 52.00909], [11.28825, 52.00948], [11.2875, 52.00935]], [[11.27268, 52.01559], [11.2729, 52.01563], [11.27225, 52.01573], [11.27268, 52.01559]]], [[[11.28275, 52.01561], [11.27486, 52.01783], [11.27057, 52.01862], [11.26745, 52.0195], [11.26453, 52.01995], [11.25986, 52.02017], [11.25713, 52.0205], [11.25728, 52.02346], [11.28275, 52.01561]]], [[[11.26845, 52.02066], [11.2691, 52.02122], [11.26894, 52.02158], [11.2683, 52.02185], [11.2675, 52.02192], [11.26757, 52.02233], [11.26881, 52.02218], [11.26946, 52.02243], [11.26972, 52.02321], [11.26933, 52.02361], [11.2966, 52.01606], [11.2965, 52.01565], [11.29679, 52.01533], [11.29791, 52.01527], [11.29824, 52.01508], [11.29816, 52.01386], [11.2987, 52.01346], [11.29948, 52.01347], [11.30083, 52.01411], [11.30173, 52.01376], [11.30248, 52.01382], [11.30358, 52.01437], [11.30345, 52.015], [11.30367, 52.01535], [11.31802, 52.01395], [11.3272, 52.01264], [11.32762, 52.01198], [11.32854, 52.01175], [11.3282, 52.01083], [11.32628, 52.00948], [11.32589, 52.00975], [11.32525, 52.00981], [11.32407, 52.00917], [11.32317, 52.00921], [11.32267, 52.00877], [11.32196, 52.00855], [11.3218, 52.00814], [11.3185, 52.00888], [11.29634, 52.01288], [11.29578, 52.01319], [11.29499, 52.01313], [11.2905, 52.014], [11.26845, 52.02066]], [[11.28923, 52.01611], [11.2917, 52.0155], [11.28589, 52.01714], [11.28923, 52.01611]], [[11.31486, 52.01118], [11.31722, 52.01181], [11.31889, 52.01184], [11.32036, 52.01161], [11.32096, 52.01183], [11.31752, 52.01232], [11.30801, 52.01325], [11.30739, 52.01256], [11.31486, 52.01118]]], [[[11.26653, 52.02125], [11.26657, 52.02125], [11.26659, 52.02123], [11.26653, 52.02125]]], [[[11.26482, 52.02205], [11.26583, 52.02147], [11.25974, 52.02335], [11.26021, 52.02354], [11.2617, 52.02308], [11.26246, 52.02314], [11.26285, 52.02347], [11.26336, 52.02466], [11.26699, 52.02393], [11.2668, 52.02289], [11.26526, 52.02276], [11.26486, 52.02255], [11.26482, 52.02205]]], [[[11.26595, 52.02504], [11.26624, 52.02526], [11.2669, 52.02503], [11.26747, 52.02508], [11.26781, 52.02462], [11.26595, 52.02504]]], [[[11.26918, 52.02424], [11.27, 52.02498], [11.27007, 52.0254], [11.26945, 52.02579], [11.26796, 52.02582], [11.26809, 52.02655], [11.26983, 52.02673], [11.27014, 52.0271], [11.27002, 52.0276], [11.27039, 52.02768], [11.2705, 52.0269], [11.27103, 52.02636], [11.27162, 52.02617], [11.27235, 52.02632], [11.27264, 52.02671], [11.2738, 52.02668], [11.2743, 52.02723], [11.27422, 52.0276], [11.2737, 52.02787], [11.2722, 52.02811], [11.27075, 52.02794], [11.27081, 52.0284], [11.2705, 52.02883], [11.27101, 52.02838], [11.2716, 52.02824], [11.27234, 52.02849], [11.27248, 52.02914], [11.27326, 52.02873], [11.27417, 52.02902], [11.27563, 52.02884], [11.27501, 52.02862], [11.27478, 52.02831], [11.27513, 52.02779], [11.27612, 52.0277], [11.27535, 52.02733], [11.27545, 52.02669], [11.2751, 52.02579], [11.27533, 52.0255], [11.27589, 52.02532], [11.27613, 52.02487], [11.27707, 52.02464], [11.27763, 52.02475], [11.27802, 52.02513], [11.27914, 52.02512], [11.27954, 52.02573], [11.28065, 52.02564], [11.28217, 52.02488], [11.2846, 52.0253], [11.2849, 52.02568], [11.2847, 52.02607], [11.28254, 52.02678], [11.2827, 52.0271], [11.28327, 52.02717], [11.28368, 52.02675], [11.28439, 52.02691], [11.28404, 52.02767], [11.28365, 52.02785], [11.28367, 52.02838], [11.28276, 52.02869], [11.28216, 52.0285], [11.28193, 52.02814], [11.28127, 52.02834], [11.28033, 52.02802], [11.27929, 52.02823], [11.27993, 52.02885], [11.27923, 52.03], [11.27754, 52.0301], [11.27701, 52.02981], [11.27699, 52.02936], [11.27673, 52.02939], [11.27683, 52.03014], [11.27593, 52.03045], [11.27521, 52.03019], [11.27517, 52.02965], [11.27447, 52.02977], [11.27409, 52.03013], [11.2734, 52.03024], [11.27309, 52.03085], [11.27125, 52.03103], [11.27088, 52.03148], [11.27017, 52.03164], [11.26892, 52.03104], [11.26891, 52.03043], [11.26967, 52.03012], [11.27054, 52.03037], [11.27099, 52.02998], [11.27189, 52.02999], [11.27206, 52.02985], [11.27071, 52.02948], [11.27025, 52.02976], [11.26893, 52.02995], [11.26839, 52.0297], [11.26821, 52.02923], [11.26728, 52.02935], [11.26663, 52.02895], [11.26416, 52.02957], [11.26356, 52.02956], [11.26298, 52.02909], [11.26219, 52.02898], [11.26187, 52.02863], [11.26203, 52.02817], [11.26286, 52.02762], [11.26354, 52.02746], [11.26359, 52.02722], [11.26269, 52.02679], [11.26237, 52.0257], [11.26129, 52.02592], [11.2612, 52.02639], [11.26057, 52.02665], [11.25989, 52.02662], [11.25944, 52.02629], [11.25843, 52.02649], [11.25872, 52.02698], [11.25969, 52.02667], [11.26051, 52.02693], [11.2609, 52.02755], [11.2615, 52.02786], [11.26176, 52.02875], [11.26287, 52.03014], [11.26334, 52.03039], [11.26373, 52.03117], [11.26466, 52.03123], [11.26512, 52.03157], [11.26533, 52.03148], [11.26526, 52.03087], [11.26583, 52.03044], [11.26816, 52.03036], [11.26861, 52.03061], [11.26894, 52.0312], [11.26915, 52.0324], [11.26766, 52.03314], [11.26654, 52.03321], [11.2648, 52.03376], [11.26358, 52.03388], [11.26403, 52.03413], [11.26451, 52.03505], [11.26394, 52.03566], [11.26235, 52.03593], [11.26177, 52.03584], [11.26139, 52.03555], [11.26075, 52.03428], [11.25117, 52.03634], [11.25028, 52.03668], [11.25074, 52.03697], [11.25225, 52.0368], [11.25247, 52.03719], [11.25063, 52.03756], [11.25026, 52.03805], [11.24929, 52.03809], [11.24904, 52.03827], [11.25731, 52.04194], [11.25811, 52.04205], [11.25912, 52.04272], [11.26074, 52.04228], [11.26151, 52.04238], [11.26216, 52.04307], [11.26136, 52.04373], [11.28126, 52.05252], [11.28577, 52.0537], [11.28637, 52.05325], [11.28733, 52.05336], [11.28775, 52.05313], [11.28837, 52.05312], [11.28921, 52.05359], [11.28923, 52.0541], [11.29004, 52.0542], [11.2905, 52.05444], [11.29146, 52.05419], [11.29175, 52.05388], [11.29242, 52.05368], [11.29431, 52.05375], [11.29491, 52.05409], [11.29488, 52.05472], [11.29536, 52.05533], [11.29653, 52.05529], [11.29713, 52.05558], [11.29714, 52.0561], [11.2978, 52.05664], [11.29728, 52.05727], [11.30301, 52.06004], [11.30497, 52.06067], [11.30766, 52.06106], [11.30746, 52.06067], [11.30769, 52.06033], [11.30926, 52.06012], [11.30942, 52.05966], [11.31, 52.05944], [11.31165, 52.0594], [11.31234, 52.05989], [11.31322, 52.05997], [11.31364, 52.05971], [11.31754, 52.05293], [11.32082, 52.05245], [11.32276, 52.05134], [11.32623, 52.04989], [11.33729, 52.04292], [11.33794, 52.04268], [11.33738, 52.04041], [11.32734, 52.02908], [11.32687, 52.02892], [11.32624, 52.02907], [11.32553, 52.0289], [11.32477, 52.02928], [11.32197, 52.0292], [11.32149, 52.02898], [11.32091, 52.02824], [11.32016, 52.02817], [11.31955, 52.02772], [11.31849, 52.02764], [11.31802, 52.02727], [11.31838, 52.02644], [11.31885, 52.02626], [11.31945, 52.02629], [11.31913, 52.02567], [11.31942, 52.02531], [11.31886, 52.02522], [11.31864, 52.02495], [11.31882, 52.02464], [11.3193, 52.02456], [11.31906, 52.02417], [11.31962, 52.02296], [11.31935, 52.02223], [11.31949, 52.02184], [11.32057, 52.02151], [11.32161, 52.02162], [11.32282, 52.02107], [11.32493, 52.0212], [11.32934, 52.01631], [11.3292, 52.01475], [11.32824, 52.01487], [11.32763, 52.01469], [11.32712, 52.0132], [11.31818, 52.01448], [11.30168, 52.01609], [11.30036, 52.01637], [11.30078, 52.0176], [11.30073, 52.01884], [11.30048, 52.01919], [11.29986, 52.01941], [11.2987, 52.01926], [11.29845, 52.01851], [11.29737, 52.01798], [11.29746, 52.01695], [11.29811, 52.01644], [11.29631, 52.01666], [11.26918, 52.02424]], [[11.32459, 52.04857], [11.32119, 52.05], [11.31954, 52.05097], [11.31689, 52.05126], [11.3155, 52.05185], [11.31478, 52.05256], [11.31257, 52.0565], [11.30982, 52.05648], [11.30818, 52.05669], [11.30535, 52.05772], [11.30402, 52.05843], [11.30237, 52.05763], [11.30259, 52.05687], [11.30245, 52.05585], [11.30128, 52.0541], [11.302, 52.05271], [11.30163, 52.05086], [11.30049, 52.04968], [11.29919, 52.04902], [11.29709, 52.04857], [11.29482, 52.04864], [11.2924, 52.04945], [11.29102, 52.05063], [11.28916, 52.0502], [11.28751, 52.05015], [11.28486, 52.05045], [11.28288, 52.05115], [11.2682, 52.04472], [11.26696, 52.04316], [11.26676, 52.04214], [11.26631, 52.04139], [11.26537, 52.04056], [11.26426, 52.03996], [11.26272, 52.03949], [11.26011, 52.03935], [11.25752, 52.0387], [11.25516, 52.03862], [11.25546, 52.03803], [11.25679, 52.03811], [11.25837, 52.03794], [11.25968, 52.03851], [11.26125, 52.03883], [11.26291, 52.03886], [11.26528, 52.0385], [11.26767, 52.03759], [11.26868, 52.03672], [11.26914, 52.03596], [11.27059, 52.0355], [11.2738, 52.03383], [11.27553, 52.0334], [11.27676, 52.03338], [11.27851, 52.03306], [11.28058, 52.03345], [11.28305, 52.03329], [11.28416, 52.03351], [11.28586, 52.03356], [11.28748, 52.03332], [11.28933, 52.03257], [11.29057, 52.03144], [11.29102, 52.0301], [11.29026, 52.0281], [11.28926, 52.02705], [11.29007, 52.0249], [11.29012, 52.02388], [11.28911, 52.02223], [11.28797, 52.02148], [11.28693, 52.02108], [11.29312, 52.01935], [11.29493, 52.02109], [11.29664, 52.02196], [11.29875, 52.02236], [11.30131, 52.02223], [11.30283, 52.02179], [11.30426, 52.02101], [11.30531, 52.01978], [11.30552, 52.0185], [11.30665, 52.01798], [11.30762, 52.0172], [11.31864, 52.01611], [11.32294, 52.0155], [11.32407, 52.01667], [11.32536, 52.01733], [11.32462, 52.01815], [11.32159, 52.01821], [11.31808, 52.01891], [11.31664, 52.01943], [11.31517, 52.02057], [11.3141, 52.02102], [11.31303, 52.02181], [11.31233, 52.02282], [11.31215, 52.02384], [11.31246, 52.02485], [11.31349, 52.02597], [11.31321, 52.02693], [11.31335, 52.02795], [11.31462, 52.02947], [11.31589, 52.03013], [11.3175, 52.03063], [11.31904, 52.03158], [11.32055, 52.03203], [11.32376, 52.03228], [11.32689, 52.03203], [11.33482, 52.04097], [11.33505, 52.04196], [11.32459, 52.04857]], [[11.31643, 52.02395], [11.31683, 52.02311], [11.31732, 52.02289], [11.31815, 52.02298], [11.3188, 52.02349], [11.31857, 52.0241], [11.31763, 52.02425], [11.3172, 52.02451], [11.31662, 52.02441], [11.31643, 52.02395]], [[11.28047, 52.03033], [11.28024, 52.02983], [11.2808, 52.02928], [11.28191, 52.02925], [11.28248, 52.02946], [11.28311, 52.02918], [11.28397, 52.02926], [11.28424, 52.02891], [11.2848, 52.02877], [11.28564, 52.02898], [11.28574, 52.02956], [11.28622, 52.03002], [11.28602, 52.03042], [11.28539, 52.03062], [11.28452, 52.03033], [11.28308, 52.03028], [11.28256, 52.03008], [11.28142, 52.03051], [11.28047, 52.03033]], [[11.28493, 52.02377], [11.28537, 52.02428], [11.28499, 52.02489], [11.28426, 52.02502], [11.28317, 52.02467], [11.28297, 52.02427], [11.2833, 52.02388], [11.28435, 52.02369], [11.28493, 52.02377]], [[11.29632, 52.05149], [11.29704, 52.05175], [11.29722, 52.05242], [11.29691, 52.05279], [11.29619, 52.05292], [11.29549, 52.05265], [11.29534, 52.05201], [11.29563, 52.05163], [11.29632, 52.05149]]], [[[11.27704, 52.02615], [11.27735, 52.02674], [11.27772, 52.02666], [11.27704, 52.02615]]], [[[11.26901, 52.02836], [11.269, 52.02812], [11.26847, 52.02848], [11.26901, 52.02836]]], [[[11.27729, 52.02863], [11.27729, 52.02912], [11.27782, 52.02901], [11.27729, 52.02863]]], [[[11.25766, 52.03093], [11.25636, 52.03095], [11.25621, 52.03149], [11.25543, 52.03172], [11.25472, 52.03156], [11.2544, 52.03113], [11.25366, 52.03147], [11.25357, 52.03212], [11.25263, 52.03238], [11.25186, 52.03218], [11.25141, 52.03142], [11.25082, 52.03149], [11.25087, 52.03213], [11.25058, 52.03246], [11.24961, 52.03258], [11.24902, 52.03214], [11.24875, 52.03272], [11.24765, 52.033], [11.24774, 52.03316], [11.2484, 52.033], [11.24909, 52.03319], [11.24966, 52.03314], [11.25129, 52.03251], [11.2521, 52.03264], [11.25301, 52.03415], [11.25264, 52.03461], [11.25127, 52.03496], [11.25184, 52.03512], [11.2521, 52.03552], [11.25569, 52.03473], [11.25545, 52.03401], [11.25603, 52.03358], [11.25708, 52.03369], [11.2581, 52.03353], [11.25856, 52.03378], [11.25868, 52.03413], [11.25975, 52.03391], [11.25928, 52.03326], [11.25955, 52.03279], [11.25898, 52.03254], [11.25877, 52.03198], [11.25765, 52.03069], [11.25766, 52.03093]]], [[[11.26335, 52.03385], [11.26337, 52.03385], [11.26333, 52.03384], [11.26335, 52.03385]]], [[[11.24941, 52.03535], [11.24936, 52.03539], [11.24946, 52.03533], [11.24941, 52.03535]]], [[[11.24852, 52.03548], [11.24851, 52.03549], [11.24858, 52.03548], [11.24852, 52.03548]]], [[[11.2505, 52.03965], [11.24792, 52.03845], [11.2468, 52.03881], [11.2474, 52.04019], [11.24715, 52.04084], [11.24362, 52.04169], [11.24396, 52.04851], [11.24516, 52.04749], [11.24571, 52.04598], [11.24715, 52.04751], [11.24662, 52.04889], [11.24541, 52.04915], [11.25191, 52.04902], [11.25172, 52.04839], [11.25233, 52.04795], [11.25236, 52.04758], [11.25202, 52.0473], [11.25127, 52.04549], [11.25044, 52.04506], [11.24944, 52.04393], [11.2497, 52.04348], [11.25045, 52.04328], [11.25058, 52.04288], [11.25017, 52.04261], [11.25012, 52.04221], [11.2507, 52.0415], [11.25128, 52.04127], [11.2505, 52.03965]]], [[[11.25161, 52.04008], [11.25322, 52.04278], [11.25496, 52.04209], [11.25531, 52.04172], [11.25161, 52.04008]]], [[[11.26351, 52.04535], [11.26342, 52.04594], [11.26295, 52.04616], [11.26149, 52.04627], [11.26093, 52.04613], [11.26062, 52.04572], [11.26078, 52.04531], [11.26157, 52.04499], [11.2625, 52.0449], [11.26096, 52.04422], [11.2608, 52.04495], [11.26011, 52.04534], [11.25859, 52.0453], [11.25586, 52.04557], [11.25451, 52.04549], [11.25479, 52.04593], [11.256, 52.04623], [11.25637, 52.04652], [11.25617, 52.04728], [11.25659, 52.04764], [11.25666, 52.04838], [11.25636, 52.04878], [11.25674, 52.04893], [11.25856, 52.04889], [11.25879, 52.05337], [11.26111, 52.05142], [11.2618, 52.04996], [11.26187, 52.04921], [11.26442, 52.04898], [11.26599, 52.04849], [11.27824, 52.0539], [11.27639, 52.05451], [11.27497, 52.05556], [11.27428, 52.0569], [11.27448, 52.05826], [11.2755, 52.05946], [11.27566, 52.06067], [11.27664, 52.0619], [11.27893, 52.06356], [11.28265, 52.06489], [11.28188, 52.06972], [11.27765, 52.07153], [11.27435, 52.07265], [11.27446, 52.07463], [11.27708, 52.07352], [11.27907, 52.07294], [11.28446, 52.07063], [11.28572, 52.06209], [11.28445, 52.06215], [11.28354, 52.06186], [11.28326, 52.06148], [11.28201, 52.06129], [11.28045, 52.0601], [11.28027, 52.05975], [11.28051, 52.05892], [11.2813, 52.05818], [11.28104, 52.05781], [11.28121, 52.05745], [11.282, 52.05719], [11.28287, 52.05642], [11.28374, 52.05628], [11.28381, 52.05589], [11.28344, 52.05545], [11.28374, 52.05493], [11.28461, 52.05474], [11.2858, 52.05515], [11.28646, 52.05465], [11.28596, 52.05434], [11.28066, 52.05293], [11.26351, 52.04535]], [[11.27905, 52.05721], [11.2794, 52.05682], [11.28005, 52.0567], [11.28074, 52.05692], [11.28094, 52.05732], [11.2806, 52.05772], [11.27994, 52.05784], [11.27924, 52.05762], [11.27905, 52.05721]]], [[[11.28445, 52.07386], [11.2844, 52.07131], [11.27953, 52.0734], [11.2769, 52.07424], [11.27449, 52.07528], [11.2745, 52.07557], [11.27871, 52.07548], [11.2819, 52.07441], [11.28242, 52.07541], [11.28531, 52.07536], [11.28445, 52.07386]]], [[[11.29915, 51.99906], [11.29248, 52.00475], [11.28979, 52.00566], [11.29136, 52.00562], [11.29193, 52.00586], [11.29217, 52.00662], [11.29427, 52.00694], [11.29527, 52.00733], [11.30135, 52.00769], [11.30621, 52.00746], [11.31185, 52.00624], [11.31503, 52.00538], [11.31794, 52.0052], [11.31803, 52.00461], [11.31773, 52.00398], [11.3146, 51.99965], [11.31343, 51.99874], [11.31005, 51.99693], [11.30979, 51.99729], [11.30888, 51.99774], [11.31095, 51.99753], [11.31189, 51.99793], [11.31214, 51.99827], [11.31177, 51.99929], [11.31059, 51.99994], [11.30999, 51.99995], [11.30887, 51.99955], [11.3082, 51.99886], [11.30821, 51.99846], [11.30631, 51.99866], [11.30481, 51.99846], [11.30226, 51.99885], [11.30053, 51.99874], [11.29915, 51.99906]], [[11.30109, 52.00585], [11.29621, 52.00552], [11.29548, 52.00527], [11.29953, 52.00183], [11.30224, 52.00146], [11.30364, 52.00156], [11.30518, 52.00143], [11.30626, 52.00205], [11.3085, 52.00276], [11.31069, 52.00292], [11.31272, 52.00259], [11.31374, 52.00296], [11.31339, 52.0038], [11.30554, 52.00565], [11.30109, 52.00585]]], [[[11.28848, 52.00667], [11.28893, 52.00704], [11.29189, 52.00721], [11.29127, 52.0069], [11.29089, 52.00619], [11.28945, 52.00649], [11.28856, 52.0063], [11.28848, 52.00667]]], [[[11.28448, 52.01065], [11.28452, 52.01065], [11.28451, 52.01062], [11.28448, 52.01065]]], [[[11.3061, 52.00814], [11.2956, 52.0121], [11.29621, 52.01231], [11.31719, 52.00841], [11.31703, 52.00801], [11.31723, 52.00767], [11.31852, 52.00733], [11.31934, 52.00743], [11.31975, 52.00795], [11.32092, 52.00774], [11.32014, 52.00704], [11.31844, 52.00661], [11.3182, 52.00587], [11.31552, 52.00605], [11.30831, 52.00779], [11.3061, 52.00814]]], [[[11.29464, 52.01246], [11.29423, 52.0126], [11.29391, 52.01273], [11.29458, 52.01261], [11.29464, 52.01246]]], [[[11.29803, 52.03072], [11.29592, 52.03123], [11.29433, 52.03218], [11.29342, 52.03345], [11.29338, 52.03483], [11.29421, 52.03612], [11.29574, 52.03711], [11.29781, 52.03766], [11.30003, 52.03769], [11.30214, 52.03718], [11.30373, 52.03623], [11.30464, 52.03495], [11.30468, 52.03358], [11.30385, 52.03228], [11.30232, 52.0313], [11.30025, 52.03075], [11.29803, 52.03072]], [[11.29947, 52.03472], [11.29875, 52.03476], [11.2982, 52.03448], [11.29813, 52.03403], [11.29859, 52.03369], [11.29931, 52.03365], [11.29986, 52.03393], [11.29993, 52.03437], [11.29947, 52.03472]]], [[[11.29634, 52.0575], [11.29447, 52.05709], [11.29493, 52.05759], [11.29438, 52.05813], [11.29362, 52.05814], [11.29309, 52.0578], [11.29198, 52.05827], [11.29082, 52.05835], [11.29024, 52.05881], [11.28926, 52.05873], [11.28925, 52.05919], [11.28829, 52.05985], [11.28958, 52.0603], [11.28988, 52.06073], [11.28964, 52.06111], [11.2889, 52.06156], [11.28817, 52.06169], [11.2867, 52.06139], [11.28528, 52.07119], [11.28525, 52.07358], [11.28625, 52.07534], [11.28903, 52.07528], [11.28791, 52.07332], [11.28803, 52.07058], [11.28896, 52.06463], [11.2912, 52.06417], [11.29276, 52.06338], [11.29407, 52.06228], [11.29463, 52.06112], [11.29791, 52.06037], [11.30104, 52.06187], [11.30276, 52.06245], [11.30156, 52.06375], [11.30141, 52.06545], [11.30265, 52.06715], [11.30483, 52.06822], [11.30814, 52.06881], [11.31043, 52.0687], [11.31381, 52.06882], [11.31538, 52.06932], [11.31679, 52.06951], [11.32471, 52.06914], [11.32649, 52.06961], [11.32567, 52.07073], [11.32588, 52.07176], [11.32695, 52.07269], [11.32846, 52.07314], [11.33045, 52.07302], [11.33439, 52.07173], [11.33816, 52.07271], [11.34458, 52.07346], [11.34539, 52.07442], [11.34709, 52.07573], [11.35007, 52.0776], [11.34858, 52.0785], [11.34816, 52.07974], [11.34911, 52.08164], [11.35003, 52.08228], [11.35119, 52.08263], [11.35118, 52.08305], [11.35417, 52.08299], [11.35456, 52.08213], [11.3576, 52.0805], [11.3586, 52.08058], [11.35888, 52.08105], [11.36114, 52.07876], [11.35988, 52.07862], [11.36004, 52.07803], [11.36041, 52.0779], [11.36186, 52.07803], [11.36328, 52.07659], [11.36248, 52.07625], [11.36117, 52.07703], [11.36049, 52.07698], [11.35978, 52.07658], [11.35937, 52.07685], [11.3589, 52.07679], [11.35887, 52.0764], [11.36012, 52.07545], [11.35959, 52.07424], [11.35873, 52.07391], [11.35815, 52.07411], [11.35693, 52.07407], [11.35533, 52.07478], [11.3544, 52.07482], [11.35362, 52.0752], [11.35302, 52.07523], [11.35069, 52.07378], [11.35013, 52.07287], [11.34935, 52.07273], [11.34906, 52.0723], [11.33885, 52.07111], [11.33408, 52.06983], [11.33325, 52.06991], [11.32902, 52.07134], [11.32864, 52.07107], [11.32876, 52.0708], [11.3326, 52.06943], [11.32525, 52.06749], [11.31835, 52.06787], [11.31663, 52.06783], [11.31506, 52.06731], [11.31353, 52.06579], [11.31292, 52.06591], [11.3116, 52.06583], [11.31091, 52.06535], [11.30891, 52.06588], [11.30828, 52.06575], [11.30793, 52.06535], [11.3074, 52.06555], [11.3068, 52.06553], [11.30617, 52.06499], [11.30621, 52.06452], [11.30672, 52.06426], [11.30734, 52.06425], [11.30796, 52.06387], [11.30879, 52.06388], [11.30962, 52.06351], [11.30974, 52.06291], [11.3102, 52.06262], [11.30981, 52.0619], [11.30492, 52.06123], [11.30301, 52.06067], [11.29634, 52.0575]], [[11.35684, 52.07997], [11.35379, 52.08074], [11.35211, 52.08089], [11.35168, 52.08071], [11.35112, 52.07951], [11.35133, 52.07926], [11.35214, 52.07906], [11.35264, 52.0791], [11.3531, 52.07937], [11.35309, 52.07902], [11.35341, 52.07884], [11.3563, 52.0786], [11.35676, 52.07896], [11.35684, 52.07997]]], [[[11.30033, 52.0736], [11.29929, 52.07441], [11.29879, 52.07511], [11.2962, 52.07461], [11.29401, 52.07478], [11.29208, 52.07547], [11.29041, 52.07688], [11.28916, 52.07685], [11.28932, 52.07988], [11.29058, 52.07991], [11.29108, 52.08039], [11.29061, 52.08097], [11.28937, 52.08096], [11.28953, 52.08399], [11.29092, 52.08397], [11.29253, 52.08369], [11.29433, 52.08289], [11.29547, 52.08177], [11.2976, 52.08159], [11.29908, 52.08112], [11.30045, 52.0803], [11.30133, 52.07928], [11.30347, 52.07974], [11.30614, 52.07963], [11.30813, 52.07903], [11.3096, 52.078], [11.31031, 52.07671], [11.31028, 52.07559], [11.3095, 52.0743], [11.30799, 52.0733], [11.30597, 52.07274], [11.30385, 52.07267], [11.30222, 52.07288], [11.30033, 52.0736]], [[11.3037, 52.07671], [11.30332, 52.0762], [11.3036, 52.07577], [11.3047, 52.0756], [11.30532, 52.07577], [11.30556, 52.07626], [11.30528, 52.07664], [11.30473, 52.07679], [11.3037, 52.07671]], [[11.2953, 52.07874], [11.29482, 52.07839], [11.29487, 52.07797], [11.29547, 52.0776], [11.29623, 52.07761], [11.29678, 52.07799], [11.29674, 52.07841], [11.29606, 52.07879], [11.2953, 52.07874]]], [[[11.28914, 52.07585], [11.28909, 52.07549], [11.28913, 52.07617], [11.28914, 52.07585]]], [[[11.32664, 51.98941], [11.32456, 51.98956], [11.32355, 51.98997], [11.32272, 51.99068], [11.32079, 51.99061], [11.31763, 51.99093], [11.31736, 51.99083], [11.31681, 51.98961], [11.31741, 51.98878], [11.31764, 51.98776], [11.31689, 51.98586], [11.31579, 51.98483], [11.3136, 51.98488], [11.31404, 51.99342], [11.31516, 51.99347], [11.31556, 51.99422], [11.31782, 51.9945], [11.31875, 51.99556], [11.31852, 51.99599], [11.31806, 51.99622], [11.31544, 51.99595], [11.31541, 51.99631], [11.31503, 51.99659], [11.31425, 51.99664], [11.31332, 51.99632], [11.31318, 51.99684], [11.3139, 51.9968], [11.31453, 51.9971], [11.316, 51.99703], [11.3165, 51.99735], [11.31642, 51.99782], [11.31702, 51.99782], [11.31752, 51.99811], [11.31783, 51.99881], [11.31764, 51.99959], [11.31669, 52.00019], [11.31612, 52.00032], [11.31852, 52.00374], [11.31914, 52.00362], [11.32097, 52.00386], [11.32145, 52.00416], [11.32145, 52.0046], [11.32387, 52.00508], [11.32852, 52.00463], [11.33515, 52.00242], [11.33675, 52.00243], [11.34044, 52.00307], [11.34209, 52.00295], [11.34313, 52.00281], [11.34493, 52.00217], [11.34634, 52.00113], [11.34723, 52.00082], [11.35061, 52.00098], [11.35492, 52.00076], [11.35646, 52.00042], [11.35997, 51.99904], [11.36372, 51.99929], [11.36462, 51.99885], [11.36543, 51.99868], [11.36587, 51.99835], [11.3666, 51.99831], [11.36677, 51.99798], [11.36725, 51.99776], [11.36811, 51.99788], [11.3684, 51.99843], [11.36981, 51.99597], [11.37049, 51.99552], [11.37238, 51.99486], [11.37227, 51.9927], [11.37207, 51.99271], [11.36875, 51.99403], [11.36752, 51.99479], [11.36597, 51.99492], [11.36445, 51.99533], [11.36231, 51.99634], [11.36128, 51.99719], [11.35921, 51.99727], [11.35752, 51.9978], [11.35598, 51.9977], [11.35434, 51.99788], [11.35282, 51.99836], [11.35159, 51.9991], [11.34766, 51.99895], [11.34641, 51.99906], [11.34466, 51.9996], [11.34303, 52.00075], [11.34152, 52.00115], [11.34072, 52.00123], [11.33658, 52.00057], [11.33434, 52.00066], [11.33258, 52.0011], [11.32721, 52.00296], [11.32593, 52.00311], [11.32537, 52.00244], [11.32426, 52.00167], [11.32189, 52.00095], [11.3224, 52.00001], [11.32381, 52.00062], [11.32539, 52.00093], [11.32705, 52.00096], [11.32865, 52.00068], [11.32986, 52.00025], [11.33106, 51.99954], [11.33188, 51.99864], [11.33223, 51.99763], [11.3321, 51.99661], [11.33129, 51.99545], [11.33098, 51.99388], [11.32959, 51.99244], [11.32989, 51.99155], [11.32959, 51.99066], [11.3283, 51.98973], [11.32664, 51.98941]], [[11.31944, 51.99377], [11.32014, 51.99421], [11.32052, 51.99422], [11.32075, 51.99373], [11.32162, 51.99355], [11.32165, 51.99302], [11.32247, 51.99274], [11.3233, 51.9937], [11.32427, 51.99368], [11.32494, 51.99431], [11.32584, 51.99436], [11.32641, 51.99476], [11.32793, 51.99483], [11.32833, 51.99524], [11.32807, 51.99594], [11.32835, 51.9961], [11.32846, 51.99661], [11.32811, 51.9973], [11.32701, 51.99787], [11.3261, 51.99801], [11.32556, 51.99775], [11.32541, 51.99734], [11.32584, 51.99695], [11.32674, 51.99682], [11.32659, 51.99641], [11.3258, 51.99626], [11.32473, 51.99657], [11.32385, 51.99618], [11.32309, 51.99643], [11.32194, 51.99637], [11.32071, 51.99537], [11.32002, 51.99576], [11.31916, 51.99568], [11.31828, 51.99425], [11.31867, 51.99385], [11.31944, 51.99377]], [[11.32567, 51.99196], [11.32543, 51.99174], [11.32554, 51.99133], [11.32598, 51.9912], [11.32681, 51.99133], [11.32676, 51.9918], [11.32567, 51.99196]]], [[[11.31028, 51.99418], [11.31054, 51.99458], [11.31019, 51.99523], [11.30967, 51.9954], [11.30847, 51.99538], [11.30972, 51.99607], [11.31126, 51.99574], [11.31074, 51.99457], [11.31121, 51.99392], [11.30957, 51.99395], [11.31028, 51.99418]]], [[[11.30423, 51.99645], [11.30421, 51.99644], [11.30422, 51.99645], [11.30423, 51.99645]]], [[[11.31391, 51.99828], [11.31415, 51.99842], [11.31387, 51.99826], [11.31391, 51.99828]]], [[[11.3144, 51.99857], [11.31434, 51.99855], [11.31441, 51.99859], [11.3144, 51.99857]]], [[[11.32106, 52.02559], [11.32074, 52.02625], [11.32142, 52.02624], [11.32195, 52.02649], [11.32256, 52.02642], [11.32262, 52.02599], [11.32167, 52.026], [11.32106, 52.02559]]], [[[11.3271, 52.05013], [11.32329, 52.05177], [11.32124, 52.05292], [11.31932, 52.05328], [11.31815, 52.05332], [11.31802, 52.0535], [11.31455, 52.05969], [11.3162, 52.06001], [11.31708, 52.06116], [11.318, 52.06089], [11.31926, 52.0609], [11.32018, 52.06108], [11.32079, 52.06153], [11.32321, 52.06147], [11.32391, 52.06209], [11.32426, 52.06285], [11.32396, 52.06323], [11.32281, 52.06359], [11.32288, 52.06415], [11.32207, 52.06449], [11.32142, 52.06439], [11.32105, 52.06405], [11.32108, 52.06363], [11.32156, 52.06336], [11.32131, 52.06303], [11.3194, 52.06292], [11.31775, 52.06347], [11.31746, 52.064], [11.31658, 52.06445], [11.31598, 52.0645], [11.31535, 52.06542], [11.31438, 52.06563], [11.31559, 52.06686], [11.31649, 52.06723], [11.3183, 52.06734], [11.3253, 52.06695], [11.3392, 52.07061], [11.3495, 52.0718], [11.3514, 52.07182], [11.35213, 52.07206], [11.35284, 52.07204], [11.35343, 52.07172], [11.35458, 52.07172], [11.35477, 52.07167], [11.35361, 52.07152], [11.35323, 52.07119], [11.35344, 52.07049], [11.35312, 52.06887], [11.35328, 52.06846], [11.35459, 52.06785], [11.3572, 52.06776], [11.35752, 52.06744], [11.35928, 52.06668], [11.35929, 52.06623], [11.35982, 52.06593], [11.3601, 52.06541], [11.362, 52.06511], [11.36114, 52.06347], [11.36197, 52.0627], [11.36272, 52.06251], [11.36313, 52.06216], [11.36413, 52.0621], [11.36471, 52.06259], [11.36554, 52.06269], [11.36626, 52.06251], [11.36842, 52.06279], [11.36891, 52.06217], [11.36865, 52.06171], [11.36754, 52.06185], [11.3663, 52.06144], [11.36603, 52.062], [11.36527, 52.06222], [11.36456, 52.062], [11.36435, 52.06155], [11.36467, 52.06114], [11.3653, 52.06097], [11.36567, 52.06008], [11.36653, 52.05936], [11.36707, 52.05844], [11.36699, 52.05801], [11.36775, 52.05706], [11.36865, 52.05681], [11.36945, 52.05713], [11.36983, 52.05675], [11.37038, 52.05661], [11.37133, 52.05693], [11.37172, 52.05748], [11.37162, 52.05788], [11.373, 52.05843], [11.37205, 52.05958], [11.37222, 52.06017], [11.37057, 52.06199], [11.37147, 52.06222], [11.37185, 52.06251], [11.37183, 52.06288], [11.37123, 52.06343], [11.3716, 52.06348], [11.37213, 52.06392], [11.37203, 52.06453], [11.37318, 52.06505], [11.37318, 52.06542], [11.37253, 52.06621], [11.37324, 52.06669], [11.37565, 52.06641], [11.3763, 52.06652], [11.37712, 52.06779], [11.37781, 52.06782], [11.37823, 52.06808], [11.37833, 52.06902], [11.38619, 52.06835], [11.38613, 52.06787], [11.3866, 52.06746], [11.38747, 52.06717], [11.38943, 52.06687], [11.3904, 52.06703], [11.39082, 52.06744], [11.39065, 52.06427], [11.39205, 52.06424], [11.38962, 52.06391], [11.38658, 52.06425], [11.38389, 52.06502], [11.38246, 52.06588], [11.38162, 52.06595], [11.37966, 52.06441], [11.37736, 52.06359], [11.37667, 52.06296], [11.37642, 52.06162], [11.37688, 52.0609], [11.37708, 52.05988], [11.37644, 52.05824], [11.37649, 52.05716], [11.37604, 52.05616], [11.37517, 52.05516], [11.37401, 52.05442], [11.37241, 52.05388], [11.37078, 52.05366], [11.36642, 52.0541], [11.36431, 52.05499], [11.36298, 52.05626], [11.36217, 52.05795], [11.36109, 52.05918], [11.36046, 52.05971], [11.35842, 52.06071], [11.35715, 52.06178], [11.3565, 52.06272], [11.35632, 52.06359], [11.35509, 52.0648], [11.35287, 52.06509], [11.35112, 52.06568], [11.34937, 52.06675], [11.3485, 52.06792], [11.34494, 52.06686], [11.34299, 52.06676], [11.34205, 52.06697], [11.34104, 52.06749], [11.34025, 52.06834], [11.34, 52.06901], [11.32709, 52.06557], [11.3285, 52.06433], [11.32899, 52.06335], [11.329, 52.06232], [11.32843, 52.06109], [11.32738, 52.05987], [11.32574, 52.05896], [11.3242, 52.05857], [11.32245, 52.05847], [11.32126, 52.05817], [11.31976, 52.05804], [11.31865, 52.05746], [11.32009, 52.05488], [11.32282, 52.05427], [11.32497, 52.05307], [11.32866, 52.0515], [11.3395, 52.04467], [11.34292, 52.04392], [11.34434, 52.04463], [11.34644, 52.04506], [11.34906, 52.04506], [11.35115, 52.04458], [11.35303, 52.0437], [11.3546, 52.04241], [11.35534, 52.04148], [11.35565, 52.04038], [11.35543, 52.0384], [11.35418, 52.03683], [11.35149, 52.03518], [11.34934, 52.03451], [11.34778, 52.03424], [11.34615, 52.03426], [11.34494, 52.03447], [11.34269, 52.03541], [11.34134, 52.03685], [11.34112, 52.03813], [11.34053, 52.03938], [11.33256, 52.0304], [11.334, 52.02835], [11.33415, 52.02692], [11.33275, 52.02462], [11.33171, 52.02385], [11.33055, 52.02335], [11.33078, 52.02169], [11.32986, 52.02026], [11.33357, 52.01612], [11.35728, 52.02374], [11.38509, 52.03512], [11.38551, 52.03618], [11.38643, 52.03723], [11.38855, 52.03847], [11.39065, 52.03889], [11.39529, 52.03908], [11.40848, 52.0435], [11.41236, 52.04584], [11.41598, 52.04577], [11.41018, 52.04221], [11.3916, 52.03594], [11.39091, 52.03589], [11.38898, 52.03471], [11.35825, 52.02216], [11.32971, 52.01312], [11.33024, 52.01636], [11.32547, 52.02171], [11.32605, 52.02225], [11.32516, 52.0233], [11.32567, 52.02379], [11.3251, 52.02507], [11.32441, 52.02552], [11.32342, 52.02552], [11.32346, 52.02576], [11.32418, 52.02598], [11.32502, 52.0256], [11.32698, 52.02564], [11.32866, 52.02616], [11.32877, 52.02687], [11.32928, 52.02712], [11.3294, 52.02749], [11.32916, 52.02783], [11.32866, 52.028], [11.32869, 52.02861], [11.32821, 52.02895], [11.33819, 52.0402], [11.33878, 52.0425], [11.34559, 52.041], [11.34536, 52.03949], [11.34577, 52.03922], [11.34692, 52.039], [11.34618, 52.03856], [11.34589, 52.03791], [11.34604, 52.03756], [11.34671, 52.03722], [11.34642, 52.03667], [11.34671, 52.03643], [11.3478, 52.03641], [11.34796, 52.03676], [11.34752, 52.03702], [11.34771, 52.03733], [11.34905, 52.03775], [11.3494, 52.03852], [11.35002, 52.03851], [11.3505, 52.03873], [11.35079, 52.03915], [11.3506, 52.03963], [11.35086, 52.04018], [11.3507, 52.04068], [11.34967, 52.04159], [11.34847, 52.04211], [11.34679, 52.04208], [11.34596, 52.04149], [11.338, 52.04325], [11.3271, 52.05013]], [[11.34962, 52.07158], [11.34309, 52.06933], [11.34298, 52.06909], [11.34337, 52.06863], [11.34385, 52.06857], [11.34681, 52.06943], [11.34777, 52.07], [11.35026, 52.07086], [11.3504, 52.07115], [11.35006, 52.07152], [11.34962, 52.07158]]], [[[11.30971, 52.06134], [11.30931, 52.06121], [11.30909, 52.06125], [11.30971, 52.06134]]], [[[11.31343, 52.08248], [11.31186, 52.0821], [11.30999, 52.08218], [11.30802, 52.08294], [11.30702, 52.08393], [11.31479, 52.08377], [11.31435, 52.08309], [11.31343, 52.08248]]], [[[11.32374, 52.08443], [11.32182, 52.08562], [11.32116, 52.08659], [11.32094, 52.08749], [11.3215, 52.08916], [11.32294, 52.09031], [11.31912, 52.09168], [11.31917, 52.09268], [11.32184, 52.09263], [11.32568, 52.09126], [11.32838, 52.09074], [11.32814, 52.09022], [11.32835, 52.08976], [11.32801, 52.08933], [11.32815, 52.08873], [11.3278, 52.08848], [11.32692, 52.08845], [11.32592, 52.08797], [11.32574, 52.08762], [11.32599, 52.08709], [11.32647, 52.08689], [11.32769, 52.08684], [11.32833, 52.08654], [11.32944, 52.08662], [11.32964, 52.08567], [11.33123, 52.08534], [11.33185, 52.08537], [11.33229, 52.08562], [11.33205, 52.08661], [11.33234, 52.08669], [11.3337, 52.08598], [11.33467, 52.08565], [11.3353, 52.08565], [11.33514, 52.08508], [11.33438, 52.08438], [11.33437, 52.08401], [11.33566, 52.08311], [11.33719, 52.08265], [11.33837, 52.08284], [11.33863, 52.08355], [11.33952, 52.08373], [11.3397, 52.0843], [11.33778, 52.08515], [11.33698, 52.08515], [11.33689, 52.08552], [11.33647, 52.08579], [11.33568, 52.08583], [11.33641, 52.08628], [11.33641, 52.08679], [11.33414, 52.08753], [11.33454, 52.08785], [11.33452, 52.08822], [11.33393, 52.08857], [11.33311, 52.08849], [11.3332, 52.08925], [11.33592, 52.08874], [11.33581, 52.08811], [11.3364, 52.08779], [11.33782, 52.08795], [11.3381, 52.08844], [11.34337, 52.08776], [11.3452, 52.0878], [11.34594, 52.08753], [11.34689, 52.08669], [11.34806, 52.08669], [11.3479, 52.08367], [11.34594, 52.08376], [11.34456, 52.08411], [11.34407, 52.08268], [11.34209, 52.08097], [11.34056, 52.08017], [11.33829, 52.07969], [11.33636, 52.07973], [11.33446, 52.08012], [11.3323, 52.08099], [11.33028, 52.08244], [11.32792, 52.08286], [11.32653, 52.08342], [11.32572, 52.08397], [11.32374, 52.08443]]], [[[11.3262, 51.98518], [11.32821, 51.98534], [11.32877, 51.98654], [11.32966, 51.98752], [11.33077, 51.98829], [11.33272, 51.98893], [11.33492, 51.98907], [11.33765, 51.98852], [11.33974, 51.98753], [11.34114, 51.98606], [11.34134, 51.98469], [11.34124, 51.98433], [11.33617, 51.98443], [11.33656, 51.98496], [11.33644, 51.98537], [11.33548, 51.98588], [11.33438, 51.98613], [11.33369, 51.98593], [11.33305, 51.98521], [11.33323, 51.98449], [11.32456, 51.98466], [11.3262, 51.98518]]], [[[11.32291, 51.9944], [11.32277, 51.99434], [11.32292, 51.99442], [11.32291, 51.9944]]], [[[11.34094, 52.0038], [11.33944, 52.00366], [11.3392, 52.00397], [11.33721, 52.00437], [11.33644, 52.0041], [11.33628, 52.00354], [11.33689, 52.00326], [11.33761, 52.0033], [11.33783, 52.0036], [11.33828, 52.00342], [11.33647, 52.00308], [11.33575, 52.00309], [11.32851, 52.00538], [11.32395, 52.00577], [11.32126, 52.00524], [11.3212, 52.00544], [11.32183, 52.00549], [11.32294, 52.00604], [11.32582, 52.00635], [11.3267, 52.00664], [11.33013, 52.00606], [11.33426, 52.00562], [11.33896, 52.00553], [11.342, 52.00566], [11.35452, 52.00732], [11.35854, 52.00507], [11.35835, 52.00478], [11.3576, 52.00455], [11.35743, 52.00415], [11.35773, 52.0037], [11.35854, 52.00345], [11.35859, 52.00305], [11.35914, 52.00268], [11.35863, 52.00204], [11.35901, 52.00158], [11.35998, 52.00135], [11.36066, 52.00156], [11.36085, 52.002], [11.36034, 52.00272], [11.3605, 52.00281], [11.36104, 52.00268], [11.36175, 52.00217], [11.36282, 52.00218], [11.36284, 52.00175], [11.36225, 52.0015], [11.36205, 52.00116], [11.3626, 52.00061], [11.36336, 52.00058], [11.36392, 52.00088], [11.36491, 52.00078], [11.36533, 52.00106], [11.36813, 52.00019], [11.36906, 52.00041], [11.37024, 51.99999], [11.3714, 52.0003], [11.3717, 52.00018], [11.37084, 51.99865], [11.37091, 51.99785], [11.37125, 51.99749], [11.3725, 51.9971], [11.37243, 51.99567], [11.37082, 51.99625], [11.36952, 51.99862], [11.36886, 51.99909], [11.36806, 51.99934], [11.36553, 51.99934], [11.36368, 52.0], [11.36053, 51.99967], [11.357, 52.00103], [11.35693, 52.00152], [11.35625, 52.00179], [11.35567, 52.00171], [11.3553, 52.00144], [11.35081, 52.00169], [11.34747, 52.00147], [11.34594, 52.00256], [11.34472, 52.0031], [11.34327, 52.00351], [11.34094, 52.0038]], [[11.34739, 52.00452], [11.3459, 52.00474], [11.34538, 52.00449], [11.34575, 52.00408], [11.34699, 52.00385], [11.34711, 52.0036], [11.34665, 52.00309], [11.34703, 52.00283], [11.34775, 52.00301], [11.34819, 52.00369], [11.34785, 52.00425], [11.34739, 52.00452]], [[11.35172, 52.00348], [11.35265, 52.00401], [11.35298, 52.0054], [11.35056, 52.00501], [11.35107, 52.00422], [11.35114, 52.00352], [11.35172, 52.00348]]], [[[11.33012, 52.0101], [11.3322, 52.00992], [11.33193, 52.0094], [11.3323, 52.00858], [11.33358, 52.00823], [11.33404, 52.00785], [11.33491, 52.00777], [11.33546, 52.00729], [11.33636, 52.00732], [11.33693, 52.00684], [11.33791, 52.0069], [11.3383, 52.00664], [11.33893, 52.00658], [11.33923, 52.00608], [11.33328, 52.00624], [11.3276, 52.00704], [11.3272, 52.00811], [11.32674, 52.0084], [11.32676, 52.00902], [11.32884, 52.01046], [11.33012, 52.0101]]], [[[11.33624, 52.01169], [11.33581, 52.01], [11.33159, 52.0106], [11.33112, 52.01121], [11.32941, 52.01172], [11.32971, 52.01257], [11.33225, 52.01322], [11.35851, 52.02162], [11.3899, 52.03446], [11.39004, 52.03413], [11.39061, 52.03384], [11.39191, 52.03373], [11.3931, 52.034], [11.39365, 52.03349], [11.39471, 52.03351], [11.39515, 52.03417], [11.39586, 52.03457], [11.39588, 52.03576], [11.39508, 52.03612], [11.39436, 52.0361], [11.39391, 52.03587], [11.3934, 52.03595], [11.41015, 52.04155], [11.4117, 52.04228], [11.41716, 52.04575], [11.41883, 52.04571], [11.41876, 52.04438], [11.41288, 52.04071], [11.40054, 52.03645], [11.40068, 52.03451], [11.40032, 52.03348], [11.39892, 52.03199], [11.39734, 52.03104], [11.3953, 52.03052], [11.39363, 52.03048], [11.38915, 52.03103], [11.38758, 52.03152], [11.36018, 52.02031], [11.34921, 52.01678], [11.35181, 52.01704], [11.35503, 52.01657], [11.35655, 52.01615], [11.35817, 52.01521], [11.35907, 52.01395], [11.35919, 52.01293], [11.35848, 52.01113], [11.3573, 52.00995], [11.36565, 52.0111], [11.36617, 52.01298], [11.36729, 52.01415], [11.36985, 52.01522], [11.37198, 52.0156], [11.37422, 52.01544], [11.37656, 52.01454], [11.37777, 52.0134], [11.37814, 52.01179], [11.39605, 52.01218], [11.39866, 52.01238], [11.39977, 52.01256], [11.39853, 52.01352], [11.39791, 52.01461], [11.39633, 52.01529], [11.39508, 52.01643], [11.39451, 52.0178], [11.39468, 52.01922], [11.39536, 52.02017], [11.39645, 52.02095], [11.39787, 52.0215], [11.3993, 52.02175], [11.40101, 52.02327], [11.40308, 52.02408], [11.40279, 52.01864], [11.40179, 52.01839], [11.40118, 52.01876], [11.40005, 52.01884], [11.39951, 52.01867], [11.39926, 52.01828], [11.39984, 52.01732], [11.40218, 52.01707], [11.40186, 52.01645], [11.40265, 52.01595], [11.40241, 52.01142], [11.39968, 52.01082], [11.3966, 52.01054], [11.37276, 52.01001], [11.37235, 52.01091], [11.37337, 52.01215], [11.37306, 52.01252], [11.37238, 52.01265], [11.37106, 52.01228], [11.37068, 52.01199], [11.37063, 52.01157], [11.37101, 52.01117], [11.37049, 52.0109], [11.37037, 52.01047], [11.37086, 52.00994], [11.3668, 52.00956], [11.35478, 52.00791], [11.35381, 52.00843], [11.35118, 52.00919], [11.35184, 52.00953], [11.35215, 52.01082], [11.35258, 52.01111], [11.35292, 52.01183], [11.35386, 52.01202], [11.35441, 52.01315], [11.35392, 52.01368], [11.35163, 52.01407], [11.35104, 52.01405], [11.35061, 52.01379], [11.34884, 52.01045], [11.34846, 52.01037], [11.34663, 52.01036], [11.34663, 52.01083], [11.34717, 52.01098], [11.34746, 52.01132], [11.34707, 52.01187], [11.345, 52.01212], [11.34353, 52.0125], [11.34268, 52.0123], [11.34223, 52.01185], [11.3423, 52.01134], [11.34162, 52.01116], [11.34134, 52.01085], [11.3404, 52.01114], [11.33978, 52.01141], [11.33989, 52.01206], [11.33968, 52.01227], [11.34008, 52.01257], [11.34009, 52.01315], [11.33966, 52.0134], [11.33842, 52.01358], [11.33767, 52.01334], [11.33746, 52.01278], [11.3379, 52.01239], [11.33911, 52.0122], [11.33895, 52.01165], [11.33675, 52.01197], [11.33624, 52.01169]], [[11.3477, 52.0162], [11.3484, 52.01652], [11.34477, 52.01536], [11.34629, 52.01507], [11.3477, 52.0162]]], [[[11.33802, 52.0636], [11.3403, 52.06364], [11.34243, 52.06318], [11.3441, 52.06224], [11.34504, 52.06097], [11.34507, 52.05934], [11.34425, 52.05807], [11.3427, 52.05709], [11.34066, 52.05655], [11.33804, 52.05652], [11.33588, 52.057], [11.33426, 52.05791], [11.33332, 52.05914], [11.33321, 52.0605], [11.33394, 52.06181], [11.33539, 52.06282], [11.33802, 52.0636]], [[11.338, 52.05981], [11.33853, 52.05948], [11.33975, 52.05946], [11.34031, 52.05978], [11.34035, 52.06034], [11.33983, 52.06068], [11.33901, 52.0607], [11.33813, 52.06036], [11.338, 52.05981]]], [[[11.34827, 52.09078], [11.34728, 52.08996], [11.34725, 52.08913], [11.34645, 52.08889], [11.34594, 52.0892], [11.34516, 52.08919], [11.34465, 52.08885], [11.34471, 52.08832], [11.34348, 52.0883], [11.3357, 52.08932], [11.33389, 52.08974], [11.33381, 52.09031], [11.33347, 52.09064], [11.33398, 52.09096], [11.33396, 52.09143], [11.33214, 52.09207], [11.33129, 52.09215], [11.33013, 52.09188], [11.32998, 52.09137], [11.3306, 52.09097], [11.33064, 52.09073], [11.3297, 52.09105], [11.32619, 52.09171], [11.32368, 52.09259], [11.33856, 52.0923], [11.33877, 52.0906], [11.3405, 52.09036], [11.3415, 52.09118], [11.34374, 52.09219], [11.34834, 52.0921], [11.34827, 52.09078]]], [[[11.36382, 52.00173], [11.36401, 52.00165], [11.36397, 52.0015], [11.36382, 52.00173]]], [[[11.341, 52.00615], [11.34119, 52.00702], [11.34322, 52.00739], [11.34363, 52.00691], [11.34423, 52.00673], [11.34503, 52.00693], [11.34592, 52.00685], [11.34697, 52.007], [11.34766, 52.00791], [11.3484, 52.00791], [11.34888, 52.00812], [11.34919, 52.00912], [11.35375, 52.00776], [11.34325, 52.00632], [11.341, 52.00615]]], [[[11.35556, 52.00746], [11.36953, 52.0093], [11.36924, 52.0084], [11.36994, 52.00796], [11.36945, 52.00696], [11.36816, 52.00631], [11.36689, 52.00635], [11.36636, 52.0061], [11.36556, 52.00603], [11.36515, 52.00575], [11.36347, 52.00574], [11.36294, 52.00554], [11.36192, 52.00573], [11.36001, 52.00529], [11.3593, 52.00538], [11.35556, 52.00746]]], [[[11.36464, 52.06397], [11.36261, 52.06421], [11.36475, 52.06399], [11.36464, 52.06397]]], [[[11.3697, 52.06484], [11.36614, 52.06385], [11.36513, 52.06449], [11.36387, 52.06465], [11.36408, 52.06529], [11.36485, 52.06566], [11.36475, 52.06646], [11.36542, 52.06688], [11.36566, 52.06685], [11.36574, 52.06626], [11.3662, 52.06595], [11.3671, 52.06588], [11.3677, 52.0662], [11.36852, 52.06611], [11.36903, 52.06569], [11.3697, 52.06484]]], [[[11.35642, 52.06874], [11.35707, 52.0687], [11.35731, 52.0683], [11.35643, 52.0684], [11.35642, 52.06874]]], [[[11.36499, 52.07068], [11.36529, 52.07046], [11.36458, 52.07034], [11.3646, 52.07053], [11.36499, 52.07068]]], [[[11.35562, 52.07155], [11.35498, 52.07165], [11.35599, 52.07194], [11.35607, 52.07173], [11.35562, 52.07155]]], [[[11.36367, 52.07186], [11.36386, 52.07235], [11.3642, 52.07244], [11.36482, 52.07194], [11.36387, 52.07193], [11.36339, 52.07157], [11.36275, 52.07167], [11.36367, 52.07186]]], [[[11.36257, 52.07362], [11.36214, 52.07371], [11.36199, 52.07395], [11.36257, 52.07362]]], [[[11.36458, 52.0795], [11.36734, 52.07884], [11.36902, 52.07769], [11.37676, 52.07736], [11.37659, 52.0742], [11.37637, 52.07408], [11.37523, 52.07454], [11.37194, 52.0745], [11.3699, 52.07478], [11.369, 52.07434], [11.36836, 52.07471], [11.367, 52.07458], [11.3663, 52.07473], [11.35807, 52.08291], [11.36128, 52.08285], [11.36458, 52.0795]]], [[[11.35767, 52.08219], [11.3569, 52.08294], [11.35782, 52.08214], [11.35767, 52.08219]]], [[[11.36219, 52.08283], [11.36776, 52.08272], [11.37251, 52.08099], [11.37686, 52.07939], [11.37676, 52.0775], [11.36219, 52.08283]]], [[[11.37273, 52.00134], [11.37199, 52.00071], [11.37134, 52.00116], [11.37045, 52.00144], [11.37112, 52.0016], [11.37163, 52.00235], [11.37233, 52.00264], [11.37243, 52.00301], [11.37217, 52.00332], [11.37122, 52.00363], [11.37003, 52.00371], [11.36949, 52.00355], [11.3691, 52.00308], [11.36847, 52.0032], [11.36829, 52.00355], [11.36874, 52.004], [11.3695, 52.00425], [11.36965, 52.00494], [11.37077, 52.00495], [11.37141, 52.00534], [11.37146, 52.00593], [11.3703, 52.00683], [11.37089, 52.00803], [11.37132, 52.00839], [11.37154, 52.00939], [11.38775, 52.0098], [11.38766, 52.00822], [11.38679, 52.0082], [11.38636, 52.00775], [11.38672, 52.00727], [11.38761, 52.0072], [11.38745, 52.00421], [11.38485, 52.00453], [11.38306, 52.00534], [11.38191, 52.00651], [11.38159, 52.00802], [11.37653, 52.0079], [11.37574, 52.00725], [11.37633, 52.00595], [11.3762, 52.00492], [11.3768, 52.00425], [11.37934, 52.00321], [11.38047, 52.00232], [11.38265, 52.00149], [11.3736, 52.00174], [11.37274, 52.00169], [11.37273, 52.00134]]], [[[11.39876, 52.01015], [11.40237, 52.01082], [11.40233, 52.01008], [11.39876, 52.01015]]], [[[11.39082, 52.06766], [11.39083, 52.06769], [11.39083, 52.06761], [11.39082, 52.06766]]], [[[11.39088, 52.06853], [11.38946, 52.06869], [11.38859, 52.06886], [11.39089, 52.06867], [11.39088, 52.06853]]], [[[11.3757, 52.06989], [11.37574, 52.07035], [11.37539, 52.07079], [11.37599, 52.07115], [11.37581, 52.07174], [11.37635, 52.07228], [11.3788, 52.07351], [11.37992, 52.07348], [11.38092, 52.07315], [11.38026, 52.07255], [11.38, 52.07134], [11.38048, 52.07083], [11.38093, 52.06961], [11.3757, 52.06989]]], [[[11.39096, 52.07012], [11.39007, 52.07002], [11.39013, 52.07064], [11.38963, 52.0712], [11.38973, 52.07152], [11.39053, 52.07189], [11.3904, 52.07259], [11.38991, 52.07277], [11.38883, 52.07278], [11.38835, 52.07248], [11.38828, 52.07199], [11.38788, 52.0723], [11.38696, 52.07242], [11.3868, 52.07314], [11.38568, 52.07337], [11.39113, 52.07326], [11.39103, 52.07129], [11.39072, 52.07089], [11.39096, 52.07012]]], [[[11.38196, 52.07293], [11.38182, 52.07301], [11.38182, 52.07304], [11.38196, 52.07293]]], [[[11.3769, 52.08001], [11.36958, 52.08268], [11.37516, 52.08257], [11.377, 52.0819], [11.3769, 52.08001]]]]}, "properties": {"kind": "pv", "area_km2": 34.94, "mw": 1746.9}}, {"type": "Feature", "geometry": {"type": "Point", "coordinates": [11.32539, 52.03909]}, "properties": {"kind": "turbine", "i": 0, "mw": 6.0, "hub_m": 120.0, "rotor_m": 150.0}}, {"type": "Feature", "geometry": {"type": "Point", "coordinates": [11.34169, 52.04534]}, "properties": {"kind": "turbine", "i": 1, "mw": 6.0, "hub_m": 120.0, "rotor_m": 150.0}}, {"type": "Feature", "geometry": {"type": "Point", "coordinates": [11.33552, 52.02904]}, "properties": {"kind": "turbine", "i": 2, "mw": 6.0, "hub_m": 120.0, "rotor_m": 150.0}}, {"type": "Feature", "geometry": {"type": "Point", "coordinates": [11.3096, 52.04269]}, "properties": {"kind": "turbine", "i": 3, "mw": 6.0, "hub_m": 120.0, "rotor_m": 150.0}}, {"type": "Feature", "geometry": {"type": "Point", "coordinates": [11.30909, 52.03285]}, "properties": {"kind": "turbine", "i": 4, "mw": 6.0, "hub_m": 120.0, "rotor_m": 150.0}}, {"type": "Feature", "geometry": {"type": "Point", "coordinates": [11.35164, 52.032]}, "properties": {"kind": "turbine", "i": 5, "mw": 6.0, "hub_m": 120.0, "rotor_m": 150.0}}, {"type": "Feature", "geometry": {"type": "Point", "coordinates": [11.33688, 52.05528]}, "properties": {"kind": "turbine", "i": 6, "mw": 6.0, "hub_m": 120.0, "rotor_m": 150.0}}, {"type": "Feature", "geometry": {"type": "Point", "coordinates": [11.35765, 52.04502]}, "properties": {"kind": "turbine", "i": 7, "mw": 6.0, "hub_m": 120.0, "rotor_m": 150.0}}, {"type": "Feature", "geometry": {"type": "Point", "coordinates": [11.32092, 52.0556]}, "properties": {"kind": "turbine", "i": 8, "mw": 6.0, "hub_m": 120.0, "rotor_m": 150.0}}, {"type": "Feature", "geometry": {"type": "Point", "coordinates": [11.335, 52.0192]}, "properties": {"kind": "turbine", "i": 9, "mw": 6.0, "hub_m": 120.0, "rotor_m": 150.0}}, {"type": "Feature", "geometry": {"type": "Point", "coordinates": [11.30859, 52.02301]}, "properties": {"kind": "turbine", "i": 10, "mw": 6.0, "hub_m": 120.0, "rotor_m": 150.0}}, {"type": "Feature", "geometry": {"type": "Point", "coordinates": [11.35113, 52.02216]}, "properties": {"kind": "turbine", "i": 11, "mw": 6.0, "hub_m": 120.0, "rotor_m": 150.0}}, {"type": "Feature", "geometry": {"type": "Point", "coordinates": [11.30479, 52.05263]}, "properties": {"kind": "turbine", "i": 12, "mw": 6.0, "hub_m": 120.0, "rotor_m": 150.0}}]}