{"type": "FeatureCollection", "features": [{"type": "Feature", "geometry": {"type": "MultiPolygon", "coordinates": [[[[11.32792, 52.04646], [11.33505, 52.04196], [11.33482, 52.04097], [11.32689, 52.03203], [11.32219, 52.0322], [11.31931, 52.0342], [11.31777, 52.03639], [11.31733, 52.03876], [11.31801, 52.04111], [11.32058, 52.04386], [11.32466, 52.04579], [11.32792, 52.04646]]], [[[11.33264, 52.03048], [11.34053, 52.03938], [11.34134, 52.03685], [11.34268, 52.03542], [11.34192, 52.03444], [11.33952, 52.03257], [11.33747, 52.0316], [11.33264, 52.03048]]]]}, "properties": {"kind": "windland", "area_km2": 1.55}}, {"type": "Feature", "geometry": {"type": "MultiPolygon", "coordinates": [[[[11.31833, 52.01187], [11.31975, 52.01173], [11.31705, 52.01179], [11.31833, 52.01187]]], [[[11.30739, 52.01256], [11.31094, 52.01191], [11.30043, 52.01212], [11.30052, 52.01395], [11.3011, 52.0141], [11.30207, 52.01374], [11.30332, 52.01416], [11.30363, 52.01448], [11.30345, 52.015], [11.30367, 52.01535], [11.31802, 52.01395], [11.3272, 52.01264], [11.32762, 52.01198], [11.32854, 52.01175], [11.32849, 52.01156], [11.32063, 52.01172], [11.32096, 52.01183], [11.31752, 52.01232], [11.30801, 52.01325], [11.30739, 52.01256]]], [[[11.31818, 52.01448], [11.30065, 52.01636], [11.30089, 52.0211], [11.29511, 52.02121], [11.29616, 52.02178], [11.29766, 52.02222], [11.29958, 52.02238], [11.30131, 52.02223], [11.30283, 52.02179], [11.30388, 52.02127], [11.30488, 52.02043], [11.30544, 52.01943], [11.30552, 52.0185], [11.30665, 52.01798], [11.30762, 52.0172], [11.31864, 52.01611], [11.32294, 52.0155], [11.32407, 52.01667], [11.32536, 52.01733], [11.32462, 52.01815], [11.32159, 52.01821], [11.31757, 52.01905], [11.31623, 52.01966], [11.31517, 52.02057], [11.31335, 52.02153], [11.3125, 52.02249], [11.31215, 52.02384], [11.31246, 52.02485], [11.31349, 52.02597], [11.31321, 52.02693], [11.31335, 52.02795], [11.31397, 52.02891], [11.315, 52.02971], [11.3175, 52.03063], [11.31952, 52.03176], [11.32109, 52.03212], [11.32321, 52.03226], [11.32689, 52.03203], [11.33482, 52.04097], [11.33505, 52.04196], [11.32449, 52.04862], [11.32119, 52.05], [11.31954, 52.05097], [11.31689, 52.05126], [11.3155, 52.05185], [11.31478, 52.05256], [11.31257, 52.0565], [11.30926, 52.05652], [11.30731, 52.05694], [11.31525, 52.05679], [11.31757, 52.05291], [11.32082, 52.05245], [11.32276, 52.05134], [11.32623, 52.04989], [11.33729, 52.04292], [11.33794, 52.04268], [11.33741, 52.04047], [11.32734, 52.02908], [11.32687, 52.02892], [11.32624, 52.02907], [11.32553, 52.0289], [11.32477, 52.02928], [11.32197, 52.0292], [11.32149, 52.02898], [11.32091, 52.02824], [11.32016, 52.02817], [11.31955, 52.02772], [11.31849, 52.02764], [11.31802, 52.02727], [11.31838, 52.02644], [11.31885, 52.02626], [11.31945, 52.02629], [11.31913, 52.02567], [11.31942, 52.02531], [11.31886, 52.02522], [11.31864, 52.02495], [11.31882, 52.02464], [11.3193, 52.02456], [11.31906, 52.02417], [11.31962, 52.02296], [11.31935, 52.02223], [11.31949, 52.02184], [11.32057, 52.02151], [11.32161, 52.02162], [11.32282, 52.02107], [11.32493, 52.0212], [11.32934, 52.01631], [11.3292, 52.01475], [11.32824, 52.01487], [11.32763, 52.01469], [11.32712, 52.0132], [11.31818, 52.01448]], [[11.31653, 52.02433], [11.31681, 52.02313], [11.31715, 52.02293], [11.31799, 52.02292], [11.31877, 52.02344], [11.3188, 52.02386], [11.31829, 52.02423], [11.31763, 52.02425], [11.31693, 52.02452], [11.31653, 52.02433]]], [[[11.29092, 52.02939], [11.29004, 52.02779], [11.28926, 52.02705], [11.29014, 52.02456], [11.28985, 52.02315], [11.28911, 52.02223], [11.28797, 52.02148], [11.28768, 52.02135], [11.28633, 52.02138], [11.28694, 52.03343], [11.28891, 52.0328], [11.29033, 52.03175], [11.29099, 52.03044], [11.29092, 52.02939]]], [[[11.29914, 52.03067], [11.29695, 52.03091], [11.29505, 52.03165], [11.29377, 52.0328], [11.29329, 52.03414], [11.29369, 52.03549], [11.2949, 52.03666], [11.29675, 52.03745], [11.29892, 52.03774], [11.30111, 52.0375], [11.30301, 52.03676], [11.30429, 52.03561], [11.30477, 52.03427], [11.30437, 52.03291], [11.30316, 52.03175], [11.30131, 52.03096], [11.29914, 52.03067]], [[11.29962, 52.03466], [11.29892, 52.03478], [11.29829, 52.03457], [11.29809, 52.03414], [11.29844, 52.03375], [11.29913, 52.03363], [11.29977, 52.03384], [11.29997, 52.03427], [11.29962, 52.03466]]], [[[11.30229, 52.05552], [11.30128, 52.0541], [11.302, 52.05271], [11.3018, 52.05119], [11.30084, 52.04994], [11.29919, 52.04902], [11.29709, 52.04857], [11.29537, 52.04857], [11.29282, 52.04923], [11.29165, 52.04996], [11.29102, 52.05063], [11.2897, 52.05028], [11.2878, 52.05014], [11.28795, 52.0531], [11.28854, 52.05316], [11.28911, 52.0535], [11.28923, 52.0541], [11.29004, 52.0542], [11.2905, 52.05444], [11.29146, 52.05419], [11.29175, 52.05388], [11.29242, 52.05368], [11.29431, 52.05375], [11.29491, 52.05409], [11.29488, 52.05472], [11.29536, 52.05533], [11.29653, 52.05529], [11.29713, 52.05558], [11.29714, 52.0561], [11.29779, 52.05659], [11.29745, 52.05713], [11.30256, 52.05703], [11.30229, 52.05552]], [[11.29609, 52.0515], [11.29681, 52.0516], [11.29716, 52.05196], [11.29716, 52.05258], [11.29652, 52.05291], [11.29579, 52.05283], [11.29538, 52.05245], [11.29542, 52.0518], [11.29609, 52.0515]]], [[[11.31815, 52.05332], [11.31619, 52.05677], [11.31731, 52.05675], [11.31753, 52.06103], [11.31926, 52.0609], [11.32018, 52.06108], [11.32079, 52.06153], [11.32321, 52.06147], [11.32363, 52.06173], [11.32426, 52.0628], [11.32396, 52.06323], [11.32281, 52.06359], [11.32288, 52.06415], [11.32207, 52.06449], [11.32142, 52.06439], [11.32105, 52.06405], [11.32108, 52.06363], [11.32156, 52.06336], [11.32131, 52.06303], [11.3194, 52.06292], [11.31775, 52.06347], [11.31778, 52.06573], [11.32711, 52.06555], [11.3285, 52.06433], [11.32899, 52.06335], [11.329, 52.06232], [11.32843, 52.06109], [11.32738, 52.05987], [11.32574, 52.05896], [11.3242, 52.05857], [11.32245, 52.05847], [11.32126, 52.05817], [11.31976, 52.05804], [11.31865, 52.05746], [11.32009, 52.05488], [11.32282, 52.05427], [11.32497, 52.05307], [11.32866, 52.0515], [11.3395, 52.04467], [11.34292, 52.04392], [11.34434, 52.04463], [11.3459, 52.045], [11.34852, 52.0451], [11.3501, 52.04489], [11.35306, 52.04368], [11.35489, 52.04211], [11.35548, 52.04115], [11.35554, 52.03874], [11.35451, 52.03711], [11.35194, 52.03538], [11.34831, 52.0343], [11.34669, 52.03422], [11.34511, 52.03443], [11.34395, 52.03476], [11.34269, 52.03541], [11.34134, 52.03685], [11.34112, 52.03813], [11.34053, 52.03938], [11.33256, 52.0304], [11.334, 52.02835], [11.33415, 52.02692], [11.33275, 52.02462], [11.33171, 52.02385], [11.33055, 52.02335], [11.33078, 52.02169], [11.32986, 52.02026], [11.33357, 52.01612], [11.34454, 52.01963], [11.34444, 52.01773], [11.32971, 52.01312], [11.33024, 52.01636], [11.32547, 52.02171], [11.32605, 52.02225], [11.32516, 52.0233], [11.32567, 52.02379], [11.3251, 52.02507], [11.32441, 52.02552], [11.32342, 52.02552], [11.32346, 52.02576], [11.32418, 52.02598], [11.32502, 52.0256], [11.32698, 52.02564], [11.32866, 52.02616], [11.32877, 52.02687], [11.32928, 52.02712], [11.3294, 52.02749], [11.32916, 52.02783], [11.32866, 52.028], [11.32869, 52.02861], [11.32821, 52.02895], [11.33819, 52.0402], [11.33878, 52.0425], [11.34559, 52.041], [11.34536, 52.03949], [11.34577, 52.03922], [11.34692, 52.039], [11.34618, 52.03856], [11.34589, 52.03786], [11.34619, 52.03743], [11.34671, 52.03722], [11.34642, 52.03667], [11.34675, 52.03642], [11.3478, 52.03641], [11.34796, 52.03676], [11.34752, 52.03702], [11.34771, 52.03733], [11.34905, 52.03775], [11.3494, 52.03852], [11.35002, 52.03851], [11.3505, 52.03873], [11.35079, 52.03915], [11.3506, 52.03963], [11.35084, 52.03995], [11.35079, 52.04053], [11.34961, 52.04163], [11.34841, 52.04212], [11.34679, 52.04208], [11.34596, 52.04149], [11.338, 52.04325], [11.32678, 52.05031], [11.32329, 52.05177], [11.32124, 52.05292], [11.31932, 52.05328], [11.31815, 52.05332]]], [[[11.29534, 52.05718], [11.2946, 52.05703], [11.29447, 52.05709], [11.29534, 52.05718]]], [[[11.32941, 52.01172], [11.32971, 52.01257], [11.33224, 52.01321], [11.34441, 52.01711], [11.34416, 52.0124], [11.34335, 52.01251], [11.3428, 52.01237], [11.34224, 52.01188], [11.3423, 52.01134], [11.33978, 52.01141], [11.33989, 52.01206], [11.33968, 52.01227], [11.34008, 52.01257], [11.34013, 52.0131], [11.33966, 52.0134], [11.33851, 52.01357], [11.33772, 52.01339], [11.33746, 52.01278], [11.3379, 52.01239], [11.33911, 52.0122], [11.33895, 52.01165], [11.337, 52.012], [11.33639, 52.01182], [11.33614, 52.01141], [11.33029, 52.01153], [11.32941, 52.01172]]], [[[11.32105, 52.02561], [11.32074, 52.02625], [11.32142, 52.02624], [11.32195, 52.02649], [11.32256, 52.02642], [11.32262, 52.02599], [11.32159, 52.02598], [11.32105, 52.02561]]], [[[11.35361, 52.02005], [11.35924, 52.02191], [11.35914, 52.01995], [11.35361, 52.02005]]], [[[11.35927, 52.02257], [11.35183, 52.02009], [11.34633, 52.0202], [11.35677, 52.02354], [11.35938, 52.0246], [11.35927, 52.02257]]], [[[11.36929, 52.02873], [11.37428, 52.03077], [11.37418, 52.02875], [11.36929, 52.02873]]], [[[11.33699, 52.06339], [11.33911, 52.06369], [11.3414, 52.06347], [11.34334, 52.06276], [11.34467, 52.06163], [11.34519, 52.06028], [11.34476, 52.05868], [11.34355, 52.05753], [11.34172, 52.05676], [11.33955, 52.05647], [11.33688, 52.0567], [11.335, 52.05741], [11.33369, 52.0585], [11.33315, 52.06016], [11.33369, 52.06151], [11.33497, 52.0626], [11.33699, 52.06339]], [[11.33795, 52.05991], [11.33845, 52.0595], [11.33966, 52.05944], [11.34027, 52.05973], [11.34037, 52.06029], [11.33991, 52.06066], [11.3391, 52.06072], [11.33818, 52.0604], [11.33795, 52.05991]]]]}, "properties": {"kind": "pv", "area_km2": 7.72, "mw": 386.2}}, {"type": "Feature", "geometry": {"type": "Point", "coordinates": [11.32539, 52.03909]}, "properties": {"kind": "turbine", "i": 0, "mw": 6.0, "hub_m": 120.0, "rotor_m": 150.0}}]}