{"type": "FeatureCollection", "features": [{"type": "Feature", "geometry": {"type": "MultiPolygon", "coordinates": [[[[11.28466, 52.09673], [11.28545, 52.09584], [11.28559, 52.09359], [11.28235, 52.08652], [11.28168, 52.08216], [11.28009, 52.07997], [11.28044, 52.07856], [11.2828, 52.07595], [11.2819, 52.07441], [11.2758, 52.07674], [11.27427, 52.07771], [11.27117, 52.07835], [11.26718, 52.08061], [11.26528, 52.08067], [11.26179, 52.07953], [11.26002, 52.07941], [11.25756, 52.08064], [11.25374, 52.08077], [11.25198, 52.08155], [11.25855, 52.08575], [11.26641, 52.08987], [11.27303, 52.0927], [11.2738, 52.09176], [11.27532, 52.09113], [11.27748, 52.09102], [11.27904, 52.09145], [11.2801, 52.09226], [11.28046, 52.09324], [11.28004, 52.09422], [11.27903, 52.09492], [11.28466, 52.09673]]], [[[11.24033, 52.07167], [11.24043, 52.0703], [11.24126, 52.06891], [11.24412, 52.0673], [11.24512, 52.06502], [11.2476, 52.06368], [11.24062, 52.05603], [11.23579, 52.05761], [11.2354, 52.05959], [11.23329, 52.06112], [11.23286, 52.06227], [11.23463, 52.06505], [11.23618, 52.06551], [11.23749, 52.06653], [11.2374, 52.06842], [11.24033, 52.07167]]], [[[11.22628, 52.04675], [11.22628, 52.04674], [11.22628, 52.04675], [11.22628, 52.04675]]], [[[11.24179, 52.04933], [11.24272, 52.05048], [11.24662, 52.04889], [11.24715, 52.04751], [11.24571, 52.04598], [11.24458, 52.04808], [11.24179, 52.04933]]], [[[11.24823, 52.0528], [11.24582, 52.05387], [11.25489, 52.06389], [11.2565, 52.06648], [11.25653, 52.06804], [11.25853, 52.07029], [11.25836, 52.07388], [11.26088, 52.07558], [11.26376, 52.07584], [11.26559, 52.07643], [11.26705, 52.07503], [11.27077, 52.07438], [11.28188, 52.06972], [11.28265, 52.06489], [11.27893, 52.06356], [11.27664, 52.0619], [11.27435, 52.05793], [11.27497, 52.05556], [11.27639, 52.05451], [11.27824, 52.0539], [11.26599, 52.04849], [11.26187, 52.04921], [11.26084, 52.05173], [11.25882, 52.05335], [11.25693, 52.0541], [11.25356, 52.05427], [11.24823, 52.0528]]], [[[11.2682, 52.04471], [11.28288, 52.05115], [11.28486, 52.05045], [11.28751, 52.05015], [11.29102, 52.05063], [11.2924, 52.04945], [11.29482, 52.04864], [11.29709, 52.04857], [11.29919, 52.04902], [11.30163, 52.05086], [11.302, 52.05271], [11.30128, 52.0541], [11.30245, 52.05585], [11.30237, 52.05763], [11.30402, 52.05843], [11.30818, 52.05669], [11.31257, 52.0565], [11.3155, 52.05185], [11.31689, 52.05126], [11.31954, 52.05097], [11.32449, 52.04862], [11.33505, 52.04196], [11.33482, 52.04097], [11.32689, 52.03203], [11.32321, 52.03226], [11.31952, 52.03176], [11.315, 52.02971], [11.31335, 52.02795], [11.31349, 52.02597], [11.31215, 52.02384], [11.31272, 52.02217], [11.31757, 52.01905], [11.32159, 52.01821], [11.32462, 52.01815], [11.32536, 52.01733], [11.32294, 52.0155], [11.30762, 52.0172], [11.30552, 52.0185], [11.30531, 52.01978], [11.30426, 52.02101], [11.30131, 52.02223], [11.29875, 52.02236], [11.29664, 52.02196], [11.29493, 52.02109], [11.29312, 52.01935], [11.28693, 52.02108], [11.28911, 52.02223], [11.29012, 52.02388], [11.28926, 52.02705], [11.29079, 52.02906], [11.29099, 52.03044], [11.29033, 52.03175], [11.28891, 52.0328], [11.28583, 52.03356], [11.28058, 52.03345], [11.27851, 52.03306], [11.27553, 52.0334], [11.2738, 52.03383], [11.26914, 52.03596], [11.26837, 52.03705], [11.26682, 52.03804], [11.26346, 52.03881], [11.26072, 52.03876], [11.25837, 52.03794], [11.25546, 52.03803], [11.25516, 52.03862], [11.26217, 52.0394], [11.26471, 52.04018], [11.26631, 52.04139], [11.2682, 52.04471]], [[11.30429, 52.03561], [11.30301, 52.03676], [11.30115, 52.03749], [11.29892, 52.03774], [11.29675, 52.03745], [11.2949, 52.03666], [11.2937, 52.03551], [11.29329, 52.03414], [11.29377, 52.0328], [11.29505, 52.03165], [11.29691, 52.03092], [11.29914, 52.03067], [11.30131, 52.03096], [11.30316, 52.03175], [11.30437, 52.03291], [11.30477, 52.03427], [11.30429, 52.03561]]], [[[11.28923, 52.01611], [11.28589, 52.01714], [11.2917, 52.0155], [11.28923, 52.01611]]], [[[11.31486, 52.01118], [11.30739, 52.01256], [11.30801, 52.01325], [11.32096, 52.01183], [11.32036, 52.01161], [11.31722, 52.01181], [11.31486, 52.01118]]], [[[11.35064, 52.00493], [11.35298, 52.0054], [11.35265, 52.00401], [11.35176, 52.00347], [11.35114, 52.00352], [11.35064, 52.00493]]], [[[11.38497, 51.99137], [11.38138, 51.994], [11.38995, 51.99002], [11.38497, 51.99137]]], [[[11.39274, 51.98862], [11.39241, 51.98888], [11.39297, 51.98862], [11.39274, 51.98862]]], [[[11.36753, 51.97786], [11.35839, 51.97651], [11.3584, 51.97834], [11.35705, 51.97983], [11.35439, 51.98088], [11.35164, 51.98101], [11.34869, 51.98012], [11.34699, 51.97856], [11.34649, 51.97688], [11.34759, 51.97504], [11.34677, 51.97451], [11.33743, 51.97384], [11.32714, 51.97373], [11.31687, 51.97425], [11.3026, 51.97611], [11.30264, 51.97856], [11.30499, 51.97901], [11.30665, 51.97991], [11.30805, 51.98163], [11.30814, 51.98317], [11.31065, 51.98302], [11.31294, 51.98344], [11.31636, 51.98526], [11.3176, 51.98742], [11.31681, 51.98961], [11.31736, 51.99083], [11.32272, 51.99068], [11.32381, 51.98984], [11.32583, 51.98937], [11.32801, 51.98963], [11.32944, 51.99047], [11.32988, 51.99146], [11.32959, 51.99244], [11.33098, 51.99388], [11.33217, 51.99798], [11.3307, 51.9998], [11.32813, 52.0008], [11.32484, 52.00086], [11.3224, 52.00001], [11.32189, 52.00095], [11.32426, 52.00167], [11.32593, 52.00311], [11.33434, 52.00066], [11.33658, 52.00057], [11.34152, 52.00115], [11.34641, 51.99906], [11.35159, 51.9991], [11.35434, 51.99788], [11.35752, 51.9978], [11.35921, 51.99727], [11.36128, 51.99719], [11.36445, 51.99533], [11.36752, 51.99479], [11.37187, 51.99291], [11.37302, 51.99208], [11.37301, 51.99077], [11.3745, 51.98794], [11.37596, 51.9868], [11.37946, 51.98617], [11.38535, 51.98666], [11.38606, 51.98521], [11.38783, 51.98427], [11.37698, 51.98039], [11.36753, 51.97786]], [[11.32322, 51.97977], [11.32581, 51.97851], [11.32862, 51.97827], [11.33164, 51.97907], [11.33343, 51.98077], [11.33588, 51.98074], [11.33833, 51.98129], [11.34021, 51.98253], [11.34125, 51.98435], [11.34127, 51.98572], [11.34044, 51.98699], [11.33813, 51.98835], [11.33601, 51.98894], [11.33326, 51.98902], [11.33122, 51.98849], [11.32937, 51.98723], [11.32821, 51.98534], [11.32518, 51.98491], [11.32289, 51.98345], [11.32221, 51.98171], [11.32322, 51.97977]]], [[[11.31299, 52.0039], [11.31374, 52.00296], [11.31272, 52.00259], [11.30903, 52.00285], [11.30518, 52.00143], [11.30224, 52.00146], [11.29953, 52.00183], [11.29548, 52.00527], [11.30083, 52.00584], [11.30554, 52.00565], [11.31299, 52.0039]]], [[[11.29129, 52.00149], [11.28957, 52.00012], [11.28878, 51.99858], [11.28904, 51.99722], [11.29068, 51.99544], [11.29038, 51.99502], [11.28862, 51.99423], [11.28744, 51.99301], [11.28333, 51.99302], [11.28021, 51.99208], [11.27727, 51.99227], [11.27467, 51.99164], [11.27315, 51.99062], [11.27238, 51.98932], [11.27259, 51.98745], [11.27336, 51.98636], [11.27042, 51.98539], [11.26135, 51.98973], [11.25393, 51.99415], [11.24725, 51.99899], [11.24137, 52.00421], [11.23651, 52.00959], [11.24049, 52.00938], [11.25233, 52.00742], [11.24987, 52.00557], [11.2496, 52.00314], [11.25136, 52.00142], [11.25507, 52.0001], [11.25725, 51.99985], [11.26115, 52.00021], [11.26438, 52.00117], [11.26591, 52.00211], [11.26676, 52.00333], [11.2668, 52.00476], [11.26573, 52.00726], [11.26412, 52.00864], [11.25916, 52.01027], [11.24482, 52.01266], [11.24431, 52.01438], [11.24246, 52.01576], [11.2438, 52.01811], [11.24631, 52.01801], [11.24876, 52.01721], [11.25153, 52.01565], [11.25754, 52.01167], [11.26009, 52.0115], [11.26223, 52.01218], [11.26423, 52.0118], [11.26629, 52.01198], [11.26824, 52.01068], [11.2701, 52.01028], [11.2719, 52.01046], [11.27384, 52.01127], [11.28028, 52.00947], [11.28062, 52.00835], [11.28181, 52.00714], [11.28445, 52.00614], [11.28569, 52.00438], [11.28963, 52.00289], [11.29129, 52.00149]], [[11.26795, 52.00566], [11.26741, 52.00376], [11.26952, 52.0022], [11.27218, 52.00177], [11.27384, 52.00212], [11.27499, 52.00277], [11.27555, 52.00465], [11.27378, 52.00616], [11.27053, 52.00658], [11.26795, 52.00566]]], [[[11.27735, 51.9833], [11.28061, 51.98267], [11.28186, 51.98116], [11.27644, 51.983], [11.27735, 51.9833]]], [[[11.28862, 51.97928], [11.28767, 51.98006], [11.29058, 51.98114], [11.2929, 51.98346], [11.2927, 51.98158], [11.29324, 51.98041], [11.29092, 51.97856], [11.28862, 51.97928]]], [[[11.26026, 52.01671], [11.2576, 52.01795], [11.26425, 52.01747], [11.26786, 52.01664], [11.26471, 52.01636], [11.26235, 52.01685], [11.26026, 52.01671]]], [[[11.27229, 52.01572], [11.2729, 52.01563], [11.27225, 52.01573], [11.27229, 52.01572]]], [[[11.23454, 52.05018], [11.2334, 52.04983], [11.2334, 52.05048], [11.23454, 52.05018]]], [[[11.35683, 52.02356], [11.33357, 52.01612], [11.32986, 52.02026], [11.33078, 52.02169], [11.33055, 52.02335], [11.33275, 52.02462], [11.33415, 52.02692], [11.334, 52.02835], [11.33256, 52.0304], [11.34053, 52.03938], [11.34134, 52.03685], [11.34269, 52.03541], [11.34494, 52.03447], [11.34778, 52.03424], [11.35149, 52.03518], [11.35418, 52.03683], [11.35543, 52.0384], [11.35557, 52.04081], [11.35343, 52.04342], [11.35015, 52.04488], [11.3459, 52.045], [11.34292, 52.04392], [11.3395, 52.04467], [11.32866, 52.0515], [11.32282, 52.05427], [11.32009, 52.05488], [11.31865, 52.05746], [11.31976, 52.05804], [11.32574, 52.05896], [11.32738, 52.05987], [11.32843, 52.06109], [11.32899, 52.06335], [11.32709, 52.06557], [11.34, 52.06901], [11.34104, 52.06749], [11.34299, 52.06676], [11.34494, 52.06686], [11.3485, 52.06792], [11.34937, 52.06675], [11.35112, 52.06568], [11.35509, 52.0648], [11.35632, 52.06359], [11.35715, 52.06178], [11.36109, 52.05918], [11.36431, 52.05499], [11.36642, 52.0541], [11.37022, 52.05366], [11.37307, 52.05406], [11.37548, 52.05545], [11.3764, 52.05682], [11.37704, 52.05954], [11.37642, 52.06162], [11.37667, 52.06296], [11.37736, 52.06359], [11.37966, 52.06441], [11.38162, 52.06595], [11.38573, 52.06441], [11.38962, 52.06391], [11.39337, 52.0647], [11.39528, 52.06631], [11.40751, 52.06627], [11.41996, 52.06266], [11.41933, 52.06056], [11.4196, 52.0586], [11.42145, 52.05649], [11.42462, 52.05547], [11.42505, 52.05394], [11.40906, 52.04377], [11.39529, 52.03908], [11.39065, 52.03889], [11.38855, 52.03847], [11.38643, 52.03723], [11.38509, 52.03512], [11.35683, 52.02356]], [[11.33394, 52.06181], [11.33321, 52.0605], [11.33332, 52.05914], [11.33426, 52.05791], [11.33637, 52.05683], [11.3386, 52.05648], [11.3412, 52.05664], [11.34314, 52.0573], [11.34453, 52.05837], [11.34517, 52.05988], [11.34488, 52.06131], [11.34374, 52.06251], [11.34193, 52.06334], [11.33966, 52.06368], [11.3375, 52.06351], [11.33539, 52.06282], [11.33394, 52.06181]]], [[[11.34629, 52.01507], [11.34477, 52.01536], [11.3484, 52.01652], [11.34629, 52.01507]]], [[[11.35125, 52.01705], [11.34921, 52.01678], [11.36018, 52.02031], [11.38758, 52.03152], [11.39363, 52.03048], [11.39734, 52.03104], [11.40032, 52.03348], [11.40054, 52.03645], [11.41288, 52.04071], [11.42916, 52.05101], [11.42729, 52.04227], [11.42598, 52.04133], [11.42522, 52.04], [11.42517, 52.03853], [11.42612, 52.03708], [11.42323, 52.0358], [11.42209, 52.03401], [11.41936, 52.03251], [11.41853, 52.03094], [11.41877, 52.02891], [11.42152, 52.02586], [11.41692, 52.02393], [11.41243, 52.02291], [11.40626, 52.02424], [11.40337, 52.02414], [11.40101, 52.02327], [11.3993, 52.02175], [11.39605, 52.02071], [11.39455, 52.01889], [11.39489, 52.01675], [11.39595, 52.01554], [11.39791, 52.01461], [11.39977, 52.01256], [11.39605, 52.01218], [11.37814, 52.01179], [11.37777, 52.0134], [11.37656, 52.01454], [11.37422, 52.01544], [11.37198, 52.0156], [11.36985, 52.01522], [11.36729, 52.01415], [11.36617, 52.01298], [11.36565, 52.0111], [11.3573, 52.00995], [11.35912, 52.01258], [11.35847, 52.01492], [11.35607, 52.01632], [11.35125, 52.01705]]], [[[11.38442, 51.99758], [11.38425, 51.99961], [11.38344, 52.00089], [11.3768, 52.00425], [11.3762, 52.00492], [11.37574, 52.00725], [11.37653, 52.0079], [11.38159, 52.00802], [11.38191, 52.00651], [11.38306, 52.00534], [11.38536, 52.0044], [11.38759, 52.00421], [11.38974, 52.00455], [11.39151, 52.00537], [11.39264, 52.00655], [11.39289, 52.00825], [11.39903, 52.0085], [11.40307, 52.0092], [11.4045, 52.00847], [11.40614, 52.00652], [11.40974, 52.00554], [11.41065, 52.004], [11.40905, 51.99551], [11.40018, 51.9901], [11.38442, 51.99758]]], [[[11.42691, 52.02343], [11.42968, 52.02342], [11.42974, 52.02286], [11.42525, 52.02142], [11.41537, 52.01909], [11.41542, 52.01948], [11.41995, 52.02056], [11.42691, 52.02343]]], [[[11.41526, 52.00745], [11.41679, 52.00913], [11.41673, 52.01084], [11.41573, 52.01209], [11.41303, 52.01363], [11.41877, 52.01582], [11.43043, 52.01866], [11.42618, 52.01176], [11.42147, 52.0061], [11.41628, 52.00114], [11.41687, 52.00446], [11.41526, 52.00745]]], [[[11.35636, 52.10086], [11.35481, 52.09994], [11.35362, 52.09794], [11.35362, 52.09466], [11.35041, 52.09369], [11.34792, 52.09375], [11.34581, 52.09333], [11.3405, 52.09036], [11.33877, 52.0906], [11.33869, 52.09201], [11.33739, 52.09354], [11.3342, 52.09475], [11.33162, 52.09512], [11.32944, 52.09495], [11.32623, 52.09359], [11.31815, 52.09647], [11.31413, 52.09716], [11.31317, 52.09845], [11.31108, 52.09963], [11.31069, 52.10078], [11.30949, 52.10192], [11.32355, 52.10316], [11.33388, 52.10327], [11.34417, 52.10275], [11.35433, 52.10161], [11.35607, 52.10131], [11.35636, 52.10086]]], [[[11.31539, 52.09301], [11.32294, 52.09031], [11.3215, 52.08916], [11.32095, 52.08783], [11.32132, 52.08627], [11.32247, 52.08507], [11.32743, 52.08302], [11.33028, 52.08244], [11.3323, 52.08099], [11.33446, 52.08012], [11.33776, 52.07966], [11.34061, 52.08019], [11.34382, 52.08237], [11.34456, 52.08411], [11.35119, 52.08324], [11.35119, 52.08263], [11.34911, 52.08164], [11.34816, 52.07974], [11.34858, 52.0785], [11.35007, 52.0776], [11.34709, 52.07573], [11.34458, 52.07346], [11.33816, 52.07271], [11.33439, 52.07173], [11.33013, 52.07309], [11.32751, 52.07292], [11.3257, 52.07136], [11.32649, 52.06961], [11.32471, 52.06914], [11.31679, 52.06951], [11.31381, 52.06882], [11.30814, 52.06881], [11.30483, 52.06822], [11.30265, 52.06715], [11.30141, 52.06545], [11.30156, 52.06375], [11.30276, 52.06245], [11.29791, 52.06037], [11.29463, 52.06112], [11.29407, 52.06228], [11.29276, 52.06338], [11.2912, 52.06417], [11.28896, 52.06463], [11.28791, 52.07332], [11.28907, 52.0754], [11.28892, 52.07683], [11.29041, 52.07688], [11.29208, 52.07547], [11.29454, 52.07469], [11.29676, 52.07464], [11.29879, 52.07511], [11.29959, 52.07412], [11.30122, 52.07319], [11.30486, 52.07265], [11.30703, 52.07296], [11.30919, 52.07402], [11.31016, 52.07525], [11.31031, 52.07671], [11.30929, 52.07829], [11.30718, 52.07939], [11.30402, 52.07976], [11.30133, 52.07928], [11.29952, 52.08091], [11.2976, 52.08159], [11.29547, 52.08177], [11.29302, 52.08353], [11.28849, 52.08409], [11.28847, 52.0857], [11.29057, 52.09026], [11.295, 52.08949], [11.29813, 52.08945], [11.3012, 52.09051], [11.30284, 52.09274], [11.30522, 52.09238], [11.30919, 52.09237], [11.31251, 52.09344], [11.31539, 52.09301]], [[11.31435, 52.08309], [11.31484, 52.08489], [11.31329, 52.08619], [11.31, 52.08665], [11.30737, 52.0856], [11.30709, 52.08379], [11.30942, 52.08235], [11.3122, 52.08214], [11.31435, 52.08309]]], [[[11.42251, 52.06967], [11.40925, 52.07012], [11.36745, 52.08539], [11.36802, 52.08716], [11.3673, 52.08956], [11.36508, 52.09144], [11.363, 52.0922], [11.36255, 52.09337], [11.36219, 52.09521], [11.36257, 52.0964], [11.36413, 52.09792], [11.36432, 52.09985], [11.37386, 52.09753], [11.38305, 52.09463], [11.39172, 52.09118], [11.39981, 52.08723], [11.40722, 52.0828], [11.41389, 52.07795], [11.41976, 52.07272], [11.42251, 52.06967]]], [[[11.37691, 52.07733], [11.36902, 52.07769], [11.36734, 52.07884], [11.36458, 52.0795], [11.36122, 52.08291], [11.36186, 52.08297], [11.37691, 52.07733]]], [[[11.43536, 52.04254], [11.43374, 52.04292], [11.43459, 52.04688], [11.43536, 52.04254]]]]}, "properties": {"kind": "windland", "area_km2": 79.76}}, {"type": "Feature", "geometry": {"type": "MultiPolygon", "coordinates": [[[[11.29621, 52.00552], [11.29548, 52.00527], [11.29569, 52.00499], [11.29794, 52.00317], [11.29414, 52.00324], [11.29224, 52.0049], [11.28979, 52.00566], [11.29136, 52.00562], [11.29193, 52.00586], [11.29217, 52.00662], [11.29427, 52.00694], [11.29527, 52.00733], [11.30135, 52.00769], [11.30621, 52.00746], [11.31185, 52.00624], [11.31503, 52.00538], [11.31794, 52.0052], [11.31803, 52.00461], [11.31692, 52.0028], [11.31342, 52.00287], [11.31374, 52.00296], [11.31339, 52.0038], [11.30554, 52.00565], [11.30109, 52.00585], [11.29621, 52.00552]]], [[[11.2867, 52.00772], [11.28772, 52.00732], [11.28737, 52.00654], [11.28786, 52.00563], [11.29019, 52.00472], [11.29154, 52.0044], [11.29278, 52.00327], [11.28813, 52.00336], [11.28646, 52.00394], [11.28557, 52.00447], [11.28567, 52.00852], [11.2867, 52.00772]]], [[[11.28856, 52.0063], [11.28893, 52.00704], [11.29189, 52.00721], [11.29127, 52.0069], [11.29089, 52.00619], [11.28945, 52.00649], [11.28856, 52.0063]]], [[[11.29611, 52.00799], [11.29117, 52.00785], [11.29027, 52.00815], [11.28944, 52.00781], [11.28855, 52.00787], [11.28747, 52.00821], [11.28638, 52.00901], [11.28697, 52.00926], [11.28712, 52.00962], [11.28658, 52.01013], [11.28576, 52.01014], [11.28587, 52.0124], [11.27987, 52.01251], [11.27892, 52.01278], [11.2769, 52.01297], [11.27515, 52.01387], [11.27441, 52.01394], [11.27251, 52.01369], [11.27138, 52.01395], [11.27157, 52.01778], [11.27455, 52.01723], [11.2813, 52.01521], [11.28392, 52.01479], [11.29177, 52.01278], [11.30397, 52.00823], [11.30051, 52.00833], [11.29611, 52.00799]], [[11.28753, 52.00937], [11.28706, 52.00867], [11.28746, 52.00838], [11.28879, 52.00906], [11.28829, 52.00947], [11.28753, 52.00937]], [[11.27268, 52.01559], [11.2729, 52.01563], [11.27225, 52.01573], [11.27268, 52.01559]]], [[[11.3061, 52.00814], [11.2956, 52.0121], [11.29621, 52.01231], [11.31719, 52.00841], [11.31703, 52.00801], [11.31723, 52.00767], [11.31852, 52.00733], [11.31934, 52.00743], [11.31975, 52.00795], [11.32092, 52.00774], [11.32014, 52.00704], [11.31844, 52.00661], [11.3182, 52.00587], [11.31552, 52.00605], [11.30831, 52.00779], [11.3061, 52.00814]]], [[[11.27241, 52.01299], [11.27468, 52.01325], [11.27592, 52.01259], [11.27135, 52.01268], [11.27157, 52.01313], [11.27241, 52.01299]]], [[[11.29464, 52.01246], [11.29423, 52.0126], [11.29391, 52.01273], [11.29458, 52.01261], [11.29464, 52.01246]]], [[[11.29634, 52.01288], [11.29556, 52.01322], [11.29499, 52.01313], [11.29226, 52.01363], [11.2881, 52.0146], [11.27167, 52.01967], [11.27183, 52.0229], [11.2966, 52.01606], [11.2965, 52.01565], [11.29679, 52.01533], [11.29791, 52.01527], [11.29824, 52.01508], [11.29816, 52.01386], [11.29879, 52.01344], [11.29956, 52.0135], [11.30083, 52.01411], [11.30173, 52.01376], [11.30248, 52.01382], [11.30358, 52.01437], [11.30345, 52.015], [11.30367, 52.01535], [11.31802, 52.01395], [11.3272, 52.01264], [11.32762, 52.01198], [11.32854, 52.01175], [11.3282, 52.01083], [11.32628, 52.00948], [11.32589, 52.00975], [11.32525, 52.00981], [11.32407, 52.00917], [11.32317, 52.00921], [11.32267, 52.00877], [11.32196, 52.00855], [11.3218, 52.00814], [11.3185, 52.00888], [11.29634, 52.01288]], [[11.28923, 52.01611], [11.2917, 52.0155], [11.28589, 52.01714], [11.28923, 52.01611]], [[11.31496, 52.01122], [11.31722, 52.01181], [11.31889, 52.01184], [11.32036, 52.01161], [11.32096, 52.01183], [11.31752, 52.01232], [11.30801, 52.01325], [11.30739, 52.01256], [11.31496, 52.01122]]], [[[11.28275, 52.01561], [11.27486, 52.01783], [11.2716, 52.01844], [11.27163, 52.01904], [11.28275, 52.01561]]], [[[11.30078, 52.0176], [11.3007, 52.01895], [11.30034, 52.01926], [11.29977, 52.01941], [11.29884, 52.01932], [11.29848, 52.01903], [11.29845, 52.01851], [11.2976, 52.0182], [11.29733, 52.01787], [11.29746, 52.01695], [11.29811, 52.01644], [11.29656, 52.01662], [11.27186, 52.02349], [11.272, 52.02619], [11.27264, 52.02671], [11.27331, 52.0266], [11.27387, 52.02671], [11.27431, 52.02729], [11.27386, 52.02783], [11.27209, 52.02811], [11.27254, 52.02875], [11.27248, 52.02914], [11.27326, 52.02873], [11.27417, 52.02902], [11.27563, 52.02884], [11.27501, 52.02862], [11.27478, 52.02831], [11.27513, 52.02779], [11.27612, 52.0277], [11.27535, 52.02733], [11.27545, 52.02669], [11.27509, 52.02584], [11.27641, 52.02474], [11.27724, 52.02464], [11.27802, 52.02513], [11.27907, 52.02509], [11.27954, 52.02573], [11.28036, 52.02574], [11.28143, 52.02537], [11.28184, 52.02496], [11.28242, 52.02487], [11.28439, 52.02521], [11.2849, 52.02568], [11.28458, 52.02615], [11.28254, 52.02678], [11.2827, 52.0271], [11.28327, 52.02717], [11.28368, 52.02675], [11.28441, 52.02693], [11.28339, 52.02858], [11.28243, 52.02863], [11.28193, 52.02814], [11.28127, 52.02834], [11.28033, 52.02802], [11.27929, 52.02823], [11.27993, 52.02885], [11.27923, 52.03], [11.27754, 52.0301], [11.27701, 52.02981], [11.27699, 52.02936], [11.27673, 52.02939], [11.27657, 52.02944], [11.27691, 52.02998], [11.27648, 52.03037], [11.27593, 52.03045], [11.27538, 52.03031], [11.27517, 52.02965], [11.27443, 52.02978], [11.27401, 52.03016], [11.2734, 52.03024], [11.27309, 52.03085], [11.27224, 52.03094], [11.27242, 52.0346], [11.2738, 52.03383], [11.27553, 52.0334], [11.27676, 52.03338], [11.27846, 52.03307], [11.28058, 52.03345], [11.28305, 52.03329], [11.28471, 52.03356], [11.28641, 52.03351], [11.28846, 52.033], [11.29004, 52.03204], [11.29077, 52.03112], [11.29102, 52.0301], [11.29026, 52.0281], [11.28926, 52.02705], [11.29007, 52.0249], [11.29003, 52.02354], [11.28877, 52.02196], [11.28693, 52.02108], [11.29312, 52.01935], [11.29493, 52.02109], [11.29664, 52.02196], [11.29875, 52.02236], [11.30131, 52.02223], [11.30283, 52.02179], [11.30426, 52.02101], [11.30531, 52.01978], [11.30552, 52.0185], [11.30665, 52.01798], [11.30762, 52.0172], [11.31864, 52.01611], [11.32294, 52.0155], [11.32407, 52.01667], [11.32536, 52.01733], [11.32462, 52.01815], [11.32159, 52.01821], [11.31757, 52.01905], [11.31623, 52.01966], [11.31517, 52.02057], [11.31371, 52.02126], [11.31272, 52.02217], [11.31215, 52.02384], [11.31246, 52.02485], [11.31349, 52.02597], [11.31321, 52.02693], [11.31335, 52.02795], [11.31397, 52.02891], [11.315, 52.02971], [11.3175, 52.03063], [11.31952, 52.03176], [11.32109, 52.03212], [11.32321, 52.03226], [11.32689, 52.03203], [11.33482, 52.04097], [11.33505, 52.04196], [11.32449, 52.04862], [11.32119, 52.05], [11.31954, 52.05097], [11.31689, 52.05126], [11.3155, 52.05185], [11.31478, 52.05256], [11.31257, 52.0565], [11.30982, 52.05648], [11.30818, 52.05669], [11.30535, 52.05772], [11.30402, 52.05843], [11.30237, 52.05763], [11.30259, 52.05687], [11.30245, 52.05585], [11.30128, 52.0541], [11.302, 52.05271], [11.30163, 52.05086], [11.30049, 52.04968], [11.2987, 52.04886], [11.29653, 52.04853], [11.29482, 52.04864], [11.2924, 52.04945], [11.29102, 52.05063], [11.28916, 52.0502], [11.28751, 52.05015], [11.28486, 52.05045], [11.28288, 52.05115], [11.27304, 52.04686], [11.27315, 52.04895], [11.28114, 52.05248], [11.28577, 52.0537], [11.28637, 52.05325], [11.28733, 52.05336], [11.28775, 52.05313], [11.28834, 52.05311], [11.28921, 52.05359], [11.28923, 52.0541], [11.29004, 52.0542], [11.2905, 52.05444], [11.29146, 52.05419], [11.29175, 52.05388], [11.29242, 52.05368], [11.29431, 52.05375], [11.29491, 52.05409], [11.29488, 52.05472], [11.29536, 52.05533], [11.29653, 52.05529], [11.29713, 52.05558], [11.29714, 52.0561], [11.2978, 52.05664], [11.29728, 52.05727], [11.30317, 52.06011], [11.30507, 52.06069], [11.30766, 52.06106], [11.30746, 52.06067], [11.30769, 52.06033], [11.30926, 52.06012], [11.30937, 52.0597], [11.30983, 52.05946], [11.31165, 52.0594], [11.31234, 52.05989], [11.31322, 52.05997], [11.31364, 52.05971], [11.31754, 52.05293], [11.32082, 52.05245], [11.32276, 52.05134], [11.32623, 52.04989], [11.33729, 52.04292], [11.33794, 52.04268], [11.33738, 52.04041], [11.32734, 52.02908], [11.32687, 52.02892], [11.32624, 52.02907], [11.32553, 52.0289], [11.32477, 52.02928], [11.32197, 52.0292], [11.32149, 52.02898], [11.32091, 52.02824], [11.32016, 52.02817], [11.31955, 52.02772], [11.31849, 52.02764], [11.31802, 52.02727], [11.31838, 52.02644], [11.31885, 52.02626], [11.31945, 52.02629], [11.31913, 52.02567], [11.31942, 52.02531], [11.31886, 52.02522], [11.31864, 52.02495], [11.31882, 52.02464], [11.3193, 52.02456], [11.31906, 52.02417], [11.31962, 52.02296], [11.31935, 52.02223], [11.31949, 52.02184], [11.32057, 52.02151], [11.32161, 52.02162], [11.32282, 52.02107], [11.32493, 52.0212], [11.32934, 52.01631], [11.3292, 52.01475], [11.32824, 52.01487], [11.32763, 52.01469], [11.32712, 52.0132], [11.31818, 52.01448], [11.30168, 52.01609], [11.30036, 52.01637], [11.30078, 52.0176]], [[11.28068, 52.03043], [11.28022, 52.02994], [11.28073, 52.02931], [11.28191, 52.02925], [11.28248, 52.02946], [11.28311, 52.02918], [11.28389, 52.02928], [11.28471, 52.02878], [11.28564, 52.02898], [11.28574, 52.02956], [11.28622, 52.03], [11.28602, 52.03042], [11.28542, 52.03062], [11.28452, 52.03033], [11.28308, 52.03028], [11.28256, 52.03008], [11.2815, 52.0305], [11.28068, 52.03043]], [[11.28493, 52.02377], [11.28537, 52.02428], [11.28499, 52.02489], [11.28426, 52.02502], [11.28317, 52.02467], [11.28297, 52.02427], [11.2833, 52.02388], [11.28435, 52.02369], [11.28493, 52.02377]], [[11.31644, 52.024], [11.31683, 52.02311], [11.31732, 52.02289], [11.31815, 52.02298], [11.3188, 52.02349], [11.31857, 52.0241], [11.31763, 52.02425], [11.31725, 52.0245], [11.31666, 52.02444], [11.31644, 52.024]], [[11.29632, 52.05149], [11.29704, 52.05175], [11.29722, 52.05242], [11.29691, 52.05279], [11.29619, 52.05292], [11.29549, 52.05265], [11.29534, 52.05201], [11.29563, 52.05163], [11.29632, 52.05149]]], [[[11.27704, 52.02615], [11.27735, 52.02674], [11.27772, 52.02666], [11.27704, 52.02615]]], [[[11.27729, 52.02863], [11.27729, 52.02912], [11.27782, 52.02901], [11.27729, 52.02863]]], [[[11.29858, 52.03068], [11.29641, 52.03106], [11.29467, 52.0319], [11.29357, 52.03312], [11.29331, 52.03448], [11.29393, 52.03583], [11.2953, 52.0369], [11.29727, 52.03757], [11.29948, 52.03773], [11.30165, 52.03735], [11.30339, 52.03651], [11.30449, 52.03529], [11.30475, 52.03392], [11.30412, 52.03258], [11.30275, 52.03151], [11.30079, 52.03084], [11.29858, 52.03068]], [[11.29955, 52.03469], [11.29884, 52.03477], [11.29824, 52.03452], [11.29811, 52.03409], [11.29851, 52.03372], [11.29922, 52.03364], [11.29982, 52.03388], [11.29995, 52.03432], [11.29955, 52.03469]]], [[[11.28109, 52.0576], [11.282, 52.05719], [11.28287, 52.05642], [11.28374, 52.05628], [11.28381, 52.05589], [11.28344, 52.0554], [11.28387, 52.05486], [11.28461, 52.05474], [11.2858, 52.05515], [11.28646, 52.05465], [11.28596, 52.05434], [11.28069, 52.05294], [11.27318, 52.04962], [11.27329, 52.05171], [11.27824, 52.0539], [11.27684, 52.05431], [11.2756, 52.05499], [11.27437, 52.05656], [11.27435, 52.05793], [11.2755, 52.05946], [11.27554, 52.06033], [11.27605, 52.06131], [11.27893, 52.06356], [11.28265, 52.06489], [11.2824, 52.06642], [11.28512, 52.06637], [11.28572, 52.06209], [11.28445, 52.06215], [11.28354, 52.06186], [11.28326, 52.06148], [11.28201, 52.06129], [11.2803, 52.05991], [11.28047, 52.05897], [11.2813, 52.05818], [11.28109, 52.0576]], [[11.27905, 52.05732], [11.27927, 52.05689], [11.27988, 52.0567], [11.28062, 52.05684], [11.28094, 52.05721], [11.28072, 52.05764], [11.28012, 52.05784], [11.27937, 52.0577], [11.27905, 52.05732]]], [[[11.29634, 52.0575], [11.29447, 52.05709], [11.29493, 52.05759], [11.29445, 52.05811], [11.29362, 52.05814], [11.29309, 52.0578], [11.29198, 52.05827], [11.29082, 52.05835], [11.29024, 52.05881], [11.28926, 52.05873], [11.28921, 52.05924], [11.28834, 52.05966], [11.28829, 52.05985], [11.2897, 52.06038], [11.28985, 52.06084], [11.28852, 52.06168], [11.2867, 52.06139], [11.286, 52.06635], [11.28862, 52.0663], [11.28864, 52.06671], [11.28896, 52.06463], [11.2912, 52.06417], [11.29276, 52.06338], [11.29407, 52.06228], [11.29463, 52.06112], [11.29791, 52.06037], [11.30104, 52.06187], [11.30276, 52.06245], [11.30156, 52.06375], [11.30141, 52.06545], [11.30265, 52.06715], [11.30483, 52.06822], [11.30814, 52.06881], [11.31043, 52.0687], [11.31381, 52.06882], [11.31538, 52.06932], [11.31679, 52.06951], [11.32471, 52.06914], [11.32649, 52.06961], [11.32567, 52.07073], [11.32588, 52.07176], [11.32695, 52.07269], [11.32846, 52.07314], [11.33045, 52.07302], [11.33439, 52.07173], [11.33816, 52.07271], [11.34458, 52.07346], [11.34513, 52.07418], [11.35125, 52.07406], [11.35048, 52.07361], [11.35013, 52.07287], [11.34935, 52.07273], [11.34906, 52.0723], [11.33885, 52.07111], [11.33408, 52.06983], [11.33325, 52.06991], [11.32898, 52.07133], [11.32864, 52.07107], [11.32876, 52.0708], [11.3326, 52.06943], [11.32525, 52.06749], [11.31835, 52.06787], [11.31663, 52.06783], [11.31506, 52.06731], [11.31353, 52.06579], [11.31292, 52.06591], [11.3116, 52.06583], [11.31091, 52.06535], [11.30891, 52.06588], [11.30828, 52.06575], [11.30793, 52.06535], [11.3074, 52.06555], [11.3068, 52.06553], [11.30617, 52.06499], [11.30621, 52.06452], [11.30672, 52.06426], [11.30734, 52.06425], [11.30796, 52.06387], [11.30879, 52.06388], [11.30962, 52.06351], [11.30974, 52.06291], [11.3102, 52.06262], [11.30996, 52.06201], [11.30492, 52.06123], [11.303, 52.06066], [11.29634, 52.0575]]], [[[11.30033, 52.0736], [11.29929, 52.07441], [11.2988, 52.07509], [11.30996, 52.07488], [11.30843, 52.07352], [11.30597, 52.07274], [11.30431, 52.07265], [11.30275, 52.07278], [11.30033, 52.0736]]], [[[11.29454, 52.07469], [11.29262, 52.07521], [11.29874, 52.07509], [11.29676, 52.07464], [11.29454, 52.07469]]], [[[11.31078, 52.00292], [11.31009, 52.00293], [11.31069, 52.00292], [11.31078, 52.00292]]], [[[11.321, 52.02568], [11.32074, 52.02625], [11.32142, 52.02624], [11.32195, 52.02649], [11.32256, 52.02642], [11.32262, 52.02599], [11.32167, 52.026], [11.321, 52.02568]]], [[[11.3271, 52.05013], [11.32329, 52.05177], [11.32124, 52.05292], [11.31932, 52.05328], [11.31815, 52.05332], [11.31802, 52.0535], [11.31455, 52.05969], [11.3162, 52.06001], [11.31708, 52.06116], [11.318, 52.06089], [11.31926, 52.0609], [11.32018, 52.06108], [11.32079, 52.06153], [11.32321, 52.06147], [11.32391, 52.06209], [11.32426, 52.06285], [11.32396, 52.06323], [11.32281, 52.06359], [11.32288, 52.06415], [11.32207, 52.06449], [11.32142, 52.06439], [11.32105, 52.06405], [11.32108, 52.06363], [11.32156, 52.06336], [11.32131, 52.06303], [11.3194, 52.06292], [11.31775, 52.06347], [11.31746, 52.064], [11.31658, 52.06445], [11.31598, 52.0645], [11.31535, 52.06542], [11.31438, 52.06563], [11.31529, 52.06662], [11.31614, 52.06713], [11.3183, 52.06734], [11.3253, 52.06695], [11.3392, 52.07061], [11.3495, 52.0718], [11.3514, 52.07182], [11.35213, 52.07206], [11.35284, 52.07204], [11.35343, 52.07172], [11.35458, 52.07172], [11.35477, 52.07167], [11.35361, 52.07152], [11.35323, 52.07119], [11.35344, 52.07049], [11.35312, 52.06887], [11.35328, 52.06846], [11.35459, 52.06785], [11.3572, 52.06776], [11.35752, 52.06744], [11.35928, 52.06668], [11.35929, 52.06623], [11.35982, 52.06593], [11.3601, 52.06541], [11.362, 52.06511], [11.36114, 52.06347], [11.36197, 52.0627], [11.36272, 52.06251], [11.36313, 52.06216], [11.36413, 52.0621], [11.36471, 52.06259], [11.36554, 52.06269], [11.36626, 52.06251], [11.36842, 52.06279], [11.36891, 52.06217], [11.36865, 52.06171], [11.36754, 52.06185], [11.3663, 52.06144], [11.36603, 52.062], [11.36527, 52.06222], [11.36456, 52.062], [11.36435, 52.06155], [11.36467, 52.06114], [11.3653, 52.06097], [11.36567, 52.06008], [11.36653, 52.05936], [11.36707, 52.05844], [11.36699, 52.05801], [11.36775, 52.05706], [11.36865, 52.05681], [11.36945, 52.05713], [11.36983, 52.05675], [11.37038, 52.05661], [11.37133, 52.05693], [11.37172, 52.05748], [11.37162, 52.05788], [11.37301, 52.05845], [11.37205, 52.05958], [11.37222, 52.06017], [11.37057, 52.06199], [11.37177, 52.06241], [11.37186, 52.06283], [11.37123, 52.06343], [11.3716, 52.06348], [11.37213, 52.06392], [11.37203, 52.06453], [11.37288, 52.06479], [11.37321, 52.0651], [11.37253, 52.06621], [11.37324, 52.06669], [11.37618, 52.06647], [11.3756, 52.0556], [11.37401, 52.05442], [11.37188, 52.05377], [11.37022, 52.05366], [11.36706, 52.05397], [11.36585, 52.05426], [11.36431, 52.05499], [11.36298, 52.05626], [11.36217, 52.05795], [11.36109, 52.05918], [11.36046, 52.05971], [11.35842, 52.06071], [11.35715, 52.06178], [11.3565, 52.06272], [11.35632, 52.06359], [11.35509, 52.0648], [11.35287, 52.06509], [11.35112, 52.06568], [11.34937, 52.06675], [11.3485, 52.06792], [11.34463, 52.0668], [11.34331, 52.06673], [11.34235, 52.06688], [11.34084, 52.06766], [11.34, 52.06901], [11.32709, 52.06557], [11.3285, 52.06433], [11.32905, 52.063], [11.32889, 52.06198], [11.32769, 52.06015], [11.32663, 52.05936], [11.32525, 52.0588], [11.31976, 52.05804], [11.31865, 52.05746], [11.32009, 52.05488], [11.32282, 52.05427], [11.32497, 52.05307], [11.32866, 52.0515], [11.3395, 52.04467], [11.34292, 52.04392], [11.34434, 52.04463], [11.3459, 52.045], [11.34852, 52.0451], [11.3501, 52.04489], [11.35306, 52.04368], [11.35489, 52.04211], [11.35548, 52.04115], [11.35554, 52.03874], [11.35451, 52.03711], [11.35194, 52.03538], [11.34831, 52.0343], [11.34669, 52.03422], [11.34511, 52.03443], [11.34395, 52.03476], [11.34269, 52.03541], [11.34134, 52.03685], [11.34112, 52.03813], [11.34053, 52.03938], [11.33256, 52.0304], [11.334, 52.02835], [11.33415, 52.02692], [11.33275, 52.02462], [11.33171, 52.02385], [11.33055, 52.02335], [11.33078, 52.02169], [11.32986, 52.02026], [11.33357, 52.01612], [11.35728, 52.02374], [11.38509, 52.03512], [11.38551, 52.03618], [11.38675, 52.03751], [11.38808, 52.03828], [11.38929, 52.03868], [11.38908, 52.03475], [11.35808, 52.02209], [11.32971, 52.01312], [11.33024, 52.01636], [11.32547, 52.02171], [11.32605, 52.02225], [11.32516, 52.0233], [11.32567, 52.02379], [11.3251, 52.02507], [11.32441, 52.02552], [11.32342, 52.02552], [11.32346, 52.02576], [11.32418, 52.02598], [11.32502, 52.0256], [11.32698, 52.02564], [11.32866, 52.02616], [11.32877, 52.02687], [11.32928, 52.02712], [11.3294, 52.02749], [11.32916, 52.02783], [11.32866, 52.028], [11.32869, 52.02861], [11.32821, 52.02895], [11.33819, 52.0402], [11.33878, 52.0425], [11.34559, 52.041], [11.34536, 52.03949], [11.34577, 52.03922], [11.34692, 52.039], [11.34618, 52.03856], [11.34589, 52.03791], [11.34604, 52.03756], [11.34671, 52.03722], [11.34642, 52.03667], [11.34671, 52.03643], [11.3478, 52.03641], [11.34796, 52.03676], [11.34752, 52.03702], [11.34771, 52.03733], [11.34905, 52.03775], [11.3494, 52.03852], [11.35002, 52.03851], [11.3505, 52.03873], [11.35079, 52.03915], [11.3506, 52.03963], [11.35086, 52.04018], [11.3507, 52.04068], [11.34967, 52.04159], [11.34847, 52.04211], [11.34679, 52.04208], [11.34596, 52.04149], [11.338, 52.04325], [11.3271, 52.05013]], [[11.34962, 52.07158], [11.34309, 52.06933], [11.34298, 52.06909], [11.34337, 52.06863], [11.34385, 52.06857], [11.34681, 52.06943], [11.34777, 52.07], [11.35026, 52.07086], [11.3504, 52.07115], [11.35006, 52.07152], [11.34962, 52.07158]]], [[[11.30971, 52.06134], [11.30931, 52.06121], [11.30909, 52.06125], [11.30971, 52.06134]]], [[[11.33635, 52.00241], [11.3409, 52.00307], [11.34313, 52.00281], [11.34474, 52.00225], [11.33635, 52.00241]]], [[[11.32852, 52.00463], [11.33508, 52.00244], [11.32824, 52.00257], [11.32721, 52.00296], [11.32593, 52.00311], [11.32555, 52.00263], [11.31786, 52.00278], [11.31852, 52.00374], [11.31914, 52.00362], [11.32097, 52.00386], [11.32145, 52.00416], [11.32145, 52.0046], [11.32417, 52.00511], [11.32852, 52.00463]]], [[[11.34099, 52.00379], [11.33944, 52.00366], [11.3392, 52.00397], [11.33721, 52.00437], [11.33644, 52.0041], [11.33628, 52.00354], [11.33689, 52.00326], [11.33761, 52.0033], [11.33783, 52.0036], [11.33828, 52.00342], [11.33647, 52.00308], [11.33575, 52.00309], [11.32851, 52.00538], [11.32395, 52.00577], [11.32126, 52.00524], [11.3212, 52.00544], [11.32183, 52.00549], [11.32294, 52.00604], [11.32582, 52.00635], [11.3267, 52.00664], [11.33013, 52.00606], [11.33426, 52.00562], [11.33896, 52.00553], [11.342, 52.00566], [11.35452, 52.00732], [11.35854, 52.00507], [11.35835, 52.00478], [11.3576, 52.00455], [11.35744, 52.00409], [11.3578, 52.00367], [11.35854, 52.00345], [11.35859, 52.00305], [11.35914, 52.00268], [11.35864, 52.00197], [11.34643, 52.00221], [11.34562, 52.00274], [11.3441, 52.00332], [11.34099, 52.00379]], [[11.34743, 52.00451], [11.3459, 52.00474], [11.34538, 52.00449], [11.34575, 52.00408], [11.34699, 52.00385], [11.34711, 52.0036], [11.34665, 52.00309], [11.34703, 52.00283], [11.34775, 52.00301], [11.34819, 52.00369], [11.34743, 52.00451]], [[11.35155, 52.00349], [11.35265, 52.00401], [11.35298, 52.0054], [11.35056, 52.00501], [11.35107, 52.00422], [11.35114, 52.00352], [11.35155, 52.00349]]], [[[11.341, 52.00615], [11.34136, 52.00668], [11.34119, 52.00702], [11.34322, 52.00739], [11.34363, 52.00691], [11.34423, 52.00673], [11.34503, 52.00693], [11.34592, 52.00685], [11.34697, 52.007], [11.34766, 52.00791], [11.3484, 52.00791], [11.34888, 52.00812], [11.34919, 52.00912], [11.35375, 52.00776], [11.34325, 52.00632], [11.341, 52.00615]]], [[[11.33005, 52.01011], [11.3322, 52.00992], [11.33193, 52.0094], [11.3323, 52.00858], [11.33358, 52.00823], [11.33404, 52.00785], [11.33491, 52.00777], [11.33546, 52.00729], [11.33636, 52.00732], [11.33693, 52.00684], [11.33791, 52.0069], [11.3383, 52.00664], [11.33893, 52.00658], [11.33923, 52.00608], [11.33328, 52.00624], [11.3276, 52.00704], [11.3272, 52.00811], [11.32674, 52.0084], [11.32676, 52.00902], [11.32884, 52.01046], [11.33005, 52.01011]]], [[[11.33624, 52.01169], [11.33581, 52.01], [11.33159, 52.0106], [11.33112, 52.01121], [11.32941, 52.01172], [11.32971, 52.01257], [11.33225, 52.01322], [11.35851, 52.02162], [11.38904, 52.03408], [11.38888, 52.03109], [11.38758, 52.03152], [11.36018, 52.02031], [11.34921, 52.01678], [11.35181, 52.01704], [11.35503, 52.01657], [11.35655, 52.01615], [11.35817, 52.01521], [11.35907, 52.01395], [11.35919, 52.01293], [11.35848, 52.01113], [11.3573, 52.00995], [11.36565, 52.0111], [11.36617, 52.01298], [11.36768, 52.0144], [11.37088, 52.01548], [11.37348, 52.01555], [11.37331, 52.01232], [11.37292, 52.01258], [11.37229, 52.01265], [11.37076, 52.01209], [11.37062, 52.01163], [11.37101, 52.01117], [11.37049, 52.0109], [11.37037, 52.01047], [11.37086, 52.00994], [11.3668, 52.00956], [11.35478, 52.00791], [11.35381, 52.00843], [11.35118, 52.00919], [11.35184, 52.00953], [11.35215, 52.01082], [11.35258, 52.01111], [11.35292, 52.01183], [11.35386, 52.01202], [11.35441, 52.01315], [11.35392, 52.01368], [11.35146, 52.01409], [11.35057, 52.01374], [11.34884, 52.01045], [11.34663, 52.01036], [11.34663, 52.01083], [11.34743, 52.01125], [11.34726, 52.01176], [11.34344, 52.01251], [11.34287, 52.01241], [11.34239, 52.01207], [11.3423, 52.01134], [11.34162, 52.01116], [11.34134, 52.01085], [11.33978, 52.01141], [11.33989, 52.01206], [11.33968, 52.01227], [11.34011, 52.01262], [11.34005, 52.01319], [11.33958, 52.01342], [11.33842, 52.01358], [11.33767, 52.01334], [11.33746, 52.01278], [11.3379, 52.01239], [11.33911, 52.0122], [11.33895, 52.01165], [11.33675, 52.01197], [11.33624, 52.01169]], [[11.34729, 52.01597], [11.3484, 52.01652], [11.34477, 52.01536], [11.34629, 52.01507], [11.34729, 52.01597]]], [[[11.3375, 52.06351], [11.33966, 52.06368], [11.34193, 52.06334], [11.34374, 52.06251], [11.34488, 52.06131], [11.34517, 52.05988], [11.34453, 52.05837], [11.34314, 52.0573], [11.3412, 52.05664], [11.3386, 52.05648], [11.33637, 52.05683], [11.33461, 52.05765], [11.33348, 52.05882], [11.33315, 52.06016], [11.33394, 52.06181], [11.33539, 52.06282], [11.3375, 52.06351]], [[11.33797, 52.05986], [11.33853, 52.05948], [11.33975, 52.05946], [11.34031, 52.05978], [11.34035, 52.06034], [11.33983, 52.06068], [11.33901, 52.0607], [11.33813, 52.06036], [11.33797, 52.05986]]], [[[11.36086, 52.00192], [11.36034, 52.00272], [11.3605, 52.00281], [11.36104, 52.00268], [11.36175, 52.00217], [11.36282, 52.00218], [11.36284, 52.00188], [11.36086, 52.00192]]], [[[11.37127, 52.00172], [11.37163, 52.00235], [11.37242, 52.00279], [11.37204, 52.00339], [11.37114, 52.00364], [11.36994, 52.0037], [11.36943, 52.00351], [11.3691, 52.00308], [11.36847, 52.0032], [11.36829, 52.00355], [11.36874, 52.004], [11.3695, 52.00425], [11.36965, 52.00494], [11.37069, 52.00493], [11.37134, 52.00524], [11.37149, 52.00589], [11.3703, 52.00683], [11.37089, 52.00803], [11.37132, 52.00839], [11.37154, 52.00939], [11.37316, 52.00949], [11.37274, 52.00169], [11.37127, 52.00172]]], [[[11.35556, 52.00746], [11.36953, 52.0093], [11.36924, 52.0084], [11.36994, 52.00796], [11.36945, 52.00696], [11.36816, 52.00631], [11.36689, 52.00635], [11.36636, 52.0061], [11.36556, 52.00603], [11.36515, 52.00575], [11.36347, 52.00574], [11.36294, 52.00554], [11.36192, 52.00573], [11.36001, 52.00529], [11.3593, 52.00538], [11.35556, 52.00746]]], [[[11.37276, 52.01001], [11.37235, 52.01091], [11.37248, 52.01126], [11.37328, 52.01183], [11.37319, 52.01003], [11.37276, 52.01001]]], [[[11.36475, 52.06399], [11.36293, 52.06414], [11.36261, 52.06421], [11.36475, 52.06399]]], [[[11.3697, 52.06484], [11.36614, 52.06385], [11.36513, 52.06449], [11.36387, 52.06465], [11.36408, 52.06529], [11.36485, 52.06566], [11.36475, 52.06646], [11.36542, 52.06688], [11.36566, 52.06685], [11.36574, 52.06626], [11.3662, 52.06595], [11.3671, 52.06588], [11.3677, 52.0662], [11.36852, 52.06611], [11.36903, 52.06569], [11.3697, 52.06484]]], [[[11.35642, 52.06874], [11.35707, 52.0687], [11.35731, 52.0683], [11.35643, 52.0684], [11.35642, 52.06874]]], [[[11.3646, 52.07053], [11.36529, 52.07046], [11.36458, 52.07034], [11.3646, 52.07053]]], [[[11.37569, 52.06986], [11.37574, 52.07035], [11.37539, 52.07079], [11.37599, 52.07115], [11.37581, 52.07174], [11.37649, 52.07235], [11.37635, 52.0698], [11.37569, 52.06986]]], [[[11.35607, 52.07173], [11.35533, 52.07153], [11.35498, 52.07165], [11.35599, 52.07194], [11.35607, 52.07173]]], [[[11.36367, 52.07186], [11.36386, 52.07235], [11.3642, 52.07244], [11.36482, 52.07194], [11.36387, 52.07193], [11.36339, 52.07157], [11.36275, 52.07167], [11.36367, 52.07186]]], [[[11.36257, 52.07362], [11.36214, 52.07371], [11.36208, 52.07384], [11.36257, 52.07362]]]]}, "properties": {"kind": "pv", "area_km2": 20.38, "mw": 1019.2}}, {"type": "Feature", "geometry": {"type": "Point", "coordinates": [11.32539, 52.03909]}, "properties": {"kind": "turbine", "i": 0, "mw": 6.0, "hub_m": 120.0, "rotor_m": 150.0}}, {"type": "Feature", "geometry": {"type": "Point", "coordinates": [11.34169, 52.04534]}, "properties": {"kind": "turbine", "i": 1, "mw": 6.0, "hub_m": 120.0, "rotor_m": 150.0}}, {"type": "Feature", "geometry": {"type": "Point", "coordinates": [11.33552, 52.02904]}, "properties": {"kind": "turbine", "i": 2, "mw": 6.0, "hub_m": 120.0, "rotor_m": 150.0}}, {"type": "Feature", "geometry": {"type": "Point", "coordinates": [11.3096, 52.04269]}, "properties": {"kind": "turbine", "i": 3, "mw": 6.0, "hub_m": 120.0, "rotor_m": 150.0}}, {"type": "Feature", "geometry": {"type": "Point", "coordinates": [11.30909, 52.03285]}, "properties": {"kind": "turbine", "i": 4, "mw": 6.0, "hub_m": 120.0, "rotor_m": 150.0}}, {"type": "Feature", "geometry": {"type": "Point", "coordinates": [11.35164, 52.032]}, "properties": {"kind": "turbine", "i": 5, "mw": 6.0, "hub_m": 120.0, "rotor_m": 150.0}}, {"type": "Feature", "geometry": {"type": "Point", "coordinates": [11.33688, 52.05528]}, "properties": {"kind": "turbine", "i": 6, "mw": 6.0, "hub_m": 120.0, "rotor_m": 150.0}}, {"type": "Feature", "geometry": {"type": "Point", "coordinates": [11.35765, 52.04502]}, "properties": {"kind": "turbine", "i": 7, "mw": 6.0, "hub_m": 120.0, "rotor_m": 150.0}}, {"type": "Feature", "geometry": {"type": "Point", "coordinates": [11.32092, 52.0556]}, "properties": {"kind": "turbine", "i": 8, "mw": 6.0, "hub_m": 120.0, "rotor_m": 150.0}}, {"type": "Feature", "geometry": {"type": "Point", "coordinates": [11.335, 52.0192]}, "properties": {"kind": "turbine", "i": 9, "mw": 6.0, "hub_m": 120.0, "rotor_m": 150.0}}, {"type": "Feature", "geometry": {"type": "Point", "coordinates": [11.30859, 52.02301]}, "properties": {"kind": "turbine", "i": 10, "mw": 6.0, "hub_m": 120.0, "rotor_m": 150.0}}, {"type": "Feature", "geometry": {"type": "Point", "coordinates": [11.35113, 52.02216]}, "properties": {"kind": "turbine", "i": 11, "mw": 6.0, "hub_m": 120.0, "rotor_m": 150.0}}, {"type": "Feature", "geometry": {"type": "Point", "coordinates": [11.30479, 52.05263]}, "properties": {"kind": "turbine", "i": 12, "mw": 6.0, "hub_m": 120.0, "rotor_m": 150.0}}, {"type": "Feature", "geometry": {"type": "Point", "coordinates": [11.35285, 52.05497]}, "properties": {"kind": "turbine", "i": 13, "mw": 6.0, "hub_m": 120.0, "rotor_m": 150.0}}, {"type": "Feature", "geometry": {"type": "Point", "coordinates": [11.29348, 52.03972]}, "properties": {"kind": "turbine", "i": 14, "mw": 6.0, "hub_m": 120.0, "rotor_m": 150.0}}, {"type": "Feature", "geometry": {"type": "Point", "coordinates": [11.36777, 52.03496]}, "properties": {"kind": "turbine", "i": 15, "mw": 6.0, "hub_m": 120.0, "rotor_m": 150.0}}, {"type": "Feature", "geometry": {"type": "Point", "coordinates": [11.29297, 52.02988]}, "properties": {"kind": "turbine", "i": 16, "mw": 6.0, "hub_m": 120.0, "rotor_m": 150.0}}, {"type": "Feature", "geometry": {"type": "Point", "coordinates": [11.33208, 52.06523]}, "properties": {"kind": "turbine", "i": 17, "mw": 6.0, "hub_m": 120.0, "rotor_m": 150.0}}, {"type": "Feature", "geometry": {"type": "Point", "coordinates": [11.37361, 52.0447]}, "properties": {"kind": "turbine", "i": 18, "mw": 6.0, "hub_m": 120.0, "rotor_m": 150.0}}, {"type": "Feature", "geometry": {"type": "Point", "coordinates": [11.28866, 52.04966]}, "properties": {"kind": "turbine", "i": 19, "mw": 6.0, "hub_m": 120.0, "rotor_m": 150.0}}, {"type": "Feature", "geometry": {"type": "Point", "coordinates": [11.34804, 52.06491]}, "properties": {"kind": "turbine", "i": 20, "mw": 6.0, "hub_m": 120.0, "rotor_m": 150.0}}, {"type": "Feature", "geometry": {"type": "Point", "coordinates": [11.30808, 52.01316]}, "properties": {"kind": "turbine", "i": 21, "mw": 6.0, "hub_m": 120.0, "rotor_m": 150.0}}, {"type": "Feature", "geometry": {"type": "Point", "coordinates": [11.37257, 52.02502]}, "properties": {"kind": "turbine", "i": 22, "mw": 6.0, "hub_m": 120.0, "rotor_m": 150.0}}, {"type": "Feature", "geometry": {"type": "Point", "coordinates": [11.29247, 52.02004]}, "properties": {"kind": "turbine", "i": 23, "mw": 6.0, "hub_m": 120.0, "rotor_m": 150.0}}, {"type": "Feature", "geometry": {"type": "Point", "coordinates": [11.36124, 52.01211]}, "properties": {"kind": "turbine", "i": 24, "mw": 6.0, "hub_m": 120.0, "rotor_m": 150.0}}, {"type": "Feature", "geometry": {"type": "Point", "coordinates": [11.31096, 52.06893]}, "properties": {"kind": "turbine", "i": 25, "mw": 6.0, "hub_m": 120.0, "rotor_m": 150.0}}, {"type": "Feature", "geometry": {"type": "Point", "coordinates": [11.29465, 52.06268]}, "properties": {"kind": "turbine", "i": 26, "mw": 6.0, "hub_m": 120.0, "rotor_m": 150.0}}, {"type": "Feature", "geometry": {"type": "Point", "coordinates": [11.38373, 52.03464]}, "properties": {"kind": "turbine", "i": 27, "mw": 6.0, "hub_m": 120.0, "rotor_m": 150.0}}, {"type": "Feature", "geometry": {"type": "Point", "coordinates": [11.27718, 52.03347]}, "properties": {"kind": "turbine", "i": 28, "mw": 6.0, "hub_m": 120.0, "rotor_m": 150.0}}, {"type": "Feature", "geometry": {"type": "Point", "coordinates": [11.37945, 52.05443]}, "properties": {"kind": "turbine", "i": 29, "mw": 6.0, "hub_m": 120.0, "rotor_m": 150.0}}, {"type": "Feature", "geometry": {"type": "Point", "coordinates": [11.27236, 52.04341]}, "properties": {"kind": "turbine", "i": 30, "mw": 6.0, "hub_m": 120.0, "rotor_m": 150.0}}, {"type": "Feature", "geometry": {"type": "Point", "coordinates": [11.32727, 52.07518]}, "properties": {"kind": "turbine", "i": 31, "mw": 6.0, "hub_m": 120.0, "rotor_m": 150.0}}, {"type": "Feature", "geometry": {"type": "Point", "coordinates": [11.38957, 52.04438]}, "properties": {"kind": "turbine", "i": 32, "mw": 6.0, "hub_m": 120.0, "rotor_m": 150.0}}, {"type": "Feature", "geometry": {"type": "Point", "coordinates": [11.34324, 52.07486]}, "properties": {"kind": "turbine", "i": 33, "mw": 6.0, "hub_m": 120.0, "rotor_m": 150.0}}, {"type": "Feature", "geometry": {"type": "Point", "coordinates": [11.37736, 52.01507]}, "properties": {"kind": "turbine", "i": 34, "mw": 6.0, "hub_m": 120.0, "rotor_m": 150.0}}, {"type": "Feature", "geometry": {"type": "Point", "coordinates": [11.38852, 52.02469]}, "properties": {"kind": "turbine", "i": 35, "mw": 6.0, "hub_m": 120.0, "rotor_m": 150.0}}, {"type": "Feature", "geometry": {"type": "Point", "coordinates": [11.30226, 52.00343]}, "properties": {"kind": "turbine", "i": 36, "mw": 6.0, "hub_m": 120.0, "rotor_m": 150.0}}, {"type": "Feature", "geometry": {"type": "Point", "coordinates": [11.37998, 52.06427]}, "properties": {"kind": "turbine", "i": 37, "mw": 6.0, "hub_m": 120.0, "rotor_m": 150.0}}, {"type": "Feature", "geometry": {"type": "Point", "coordinates": [11.31147, 52.07877]}, "properties": {"kind": "turbine", "i": 38, "mw": 6.0, "hub_m": 120.0, "rotor_m": 150.0}}, {"type": "Feature", "geometry": {"type": "Point", "coordinates": [11.28983, 52.07263]}, "properties": {"kind": "turbine", "i": 39, "mw": 6.0, "hub_m": 120.0, "rotor_m": 150.0}}, {"type": "Feature", "geometry": {"type": "Point", "coordinates": [11.39541, 52.05411]}, "properties": {"kind": "turbine", "i": 40, "mw": 6.0, "hub_m": 120.0, "rotor_m": 150.0}}, {"type": "Feature", "geometry": {"type": "Point", "coordinates": [11.27336, 52.06309]}, "properties": {"kind": "turbine", "i": 41, "mw": 6.0, "hub_m": 120.0, "rotor_m": 150.0}}, {"type": "Feature", "geometry": {"type": "Point", "coordinates": [11.26222, 52.05346]}, "properties": {"kind": "turbine", "i": 42, "mw": 6.0, "hub_m": 120.0, "rotor_m": 150.0}}, {"type": "Feature", "geometry": {"type": "Point", "coordinates": [11.39331, 52.01475]}, "properties": {"kind": "turbine", "i": 43, "mw": 6.0, "hub_m": 120.0, "rotor_m": 150.0}}, {"type": "Feature", "geometry": {"type": "Point", "coordinates": [11.33364, 51.99296]}, "properties": {"kind": "turbine", "i": 44, "mw": 6.0, "hub_m": 120.0, "rotor_m": 150.0}}, {"type": "Feature", "geometry": {"type": "Point", "coordinates": [11.405, 52.03421]}, "properties": {"kind": "turbine", "i": 45, "mw": 6.0, "hub_m": 120.0, "rotor_m": 150.0}}, {"type": "Feature", "geometry": {"type": "Point", "coordinates": [11.40553, 52.04405]}, "properties": {"kind": "turbine", "i": 46, "mw": 6.0, "hub_m": 120.0, "rotor_m": 150.0}}, {"type": "Feature", "geometry": {"type": "Point", "coordinates": [11.34958, 51.99264]}, "properties": {"kind": "turbine", "i": 47, "mw": 6.0, "hub_m": 120.0, "rotor_m": 150.0}}, {"type": "Feature", "geometry": {"type": "Point", "coordinates": [11.39594, 52.06395]}, "properties": {"kind": "turbine", "i": 48, "mw": 6.0, "hub_m": 120.0, "rotor_m": 150.0}}, {"type": "Feature", "geometry": {"type": "Point", "coordinates": [11.40447, 52.02437]}, "properties": {"kind": "turbine", "i": 49, "mw": 6.0, "hub_m": 120.0, "rotor_m": 150.0}}, {"type": "Feature", "geometry": {"type": "Point", "coordinates": [11.37535, 52.0775]}, "properties": {"kind": "turbine", "i": 50, "mw": 6.0, "hub_m": 120.0, "rotor_m": 150.0}}, {"type": "Feature", "geometry": {"type": "Point", "coordinates": [11.2604, 52.01737]}, "properties": {"kind": "turbine", "i": 51, "mw": 6.0, "hub_m": 120.0, "rotor_m": 150.0}}, {"type": "Feature", "geometry": {"type": "Point", "coordinates": [11.27568, 52.00394]}, "properties": {"kind": "turbine", "i": 52, "mw": 6.0, "hub_m": 120.0, "rotor_m": 150.0}}, {"type": "Feature", "geometry": {"type": "Point", "coordinates": [11.38198, 52.00184]}, "properties": {"kind": "turbine", "i": 53, "mw": 6.0, "hub_m": 120.0, "rotor_m": 150.0}}, {"type": "Feature", "geometry": {"type": "Point", "coordinates": [11.29566, 52.08236]}, "properties": {"kind": "turbine", "i": 54, "mw": 6.0, "hub_m": 120.0, "rotor_m": 150.0}}, {"type": "Feature", "geometry": {"type": "Point", "coordinates": [11.31197, 52.08861]}, "properties": {"kind": "turbine", "i": 55, "mw": 6.0, "hub_m": 120.0, "rotor_m": 150.0}}, {"type": "Feature", "geometry": {"type": "Point", "coordinates": [11.2574, 52.0634]}, "properties": {"kind": "turbine", "i": 56, "mw": 6.0, "hub_m": 120.0, "rotor_m": 150.0}}, {"type": "Feature", "geometry": {"type": "Point", "coordinates": [11.41138, 52.05378]}, "properties": {"kind": "turbine", "i": 57, "mw": 6.0, "hub_m": 120.0, "rotor_m": 150.0}}, {"type": "Feature", "geometry": {"type": "Point", "coordinates": [11.24593, 52.0472]}, "properties": {"kind": "turbine", "i": 58, "mw": 6.0, "hub_m": 120.0, "rotor_m": 150.0}}, {"type": "Feature", "geometry": {"type": "Point", "coordinates": [11.26322, 52.07314]}, "properties": {"kind": "turbine", "i": 59, "mw": 6.0, "hub_m": 120.0, "rotor_m": 150.0}}, {"type": "Feature", "geometry": {"type": "Point", "coordinates": [11.2805, 51.994]}, "properties": {"kind": "turbine", "i": 60, "mw": 6.0, "hub_m": 120.0, "rotor_m": 150.0}}, {"type": "Feature", "geometry": {"type": "Point", "coordinates": [11.27969, 52.08267]}, "properties": {"kind": "turbine", "i": 61, "mw": 6.0, "hub_m": 120.0, "rotor_m": 150.0}}, {"type": "Feature", "geometry": {"type": "Point", "coordinates": [11.37055, 52.08745]}, "properties": {"kind": "turbine", "i": 62, "mw": 6.0, "hub_m": 120.0, "rotor_m": 150.0}}, {"type": "Feature", "geometry": {"type": "Point", "coordinates": [11.39793, 52.00152]}, "properties": {"kind": "turbine", "i": 63, "mw": 6.0, "hub_m": 120.0, "rotor_m": 150.0}}, {"type": "Feature", "geometry": {"type": "Point", "coordinates": [11.31719, 51.98343]}, "properties": {"kind": "turbine", "i": 64, "mw": 6.0, "hub_m": 120.0, "rotor_m": 150.0}}, {"type": "Feature", "geometry": {"type": "Point", "coordinates": [11.42095, 52.03388]}, "properties": {"kind": "turbine", "i": 65, "mw": 6.0, "hub_m": 120.0, "rotor_m": 150.0}}, {"type": "Feature", "geometry": {"type": "Point", "coordinates": [11.41191, 52.06362]}, "properties": {"kind": "turbine", "i": 66, "mw": 6.0, "hub_m": 120.0, "rotor_m": 150.0}}, {"type": "Feature", "geometry": {"type": "Point", "coordinates": [11.34375, 51.98291]}, "properties": {"kind": "turbine", "i": 67, "mw": 6.0, "hub_m": 120.0, "rotor_m": 150.0}}, {"type": "Feature", "geometry": {"type": "Point", "coordinates": [11.40179, 52.07368]}, "properties": {"kind": "turbine", "i": 68, "mw": 6.0, "hub_m": 120.0, "rotor_m": 150.0}}, {"type": "Feature", "geometry": {"type": "Point", "coordinates": [11.42149, 52.04372]}, "properties": {"kind": "turbine", "i": 69, "mw": 6.0, "hub_m": 120.0, "rotor_m": 150.0}}, {"type": "Feature", "geometry": {"type": "Point", "coordinates": [11.32829, 52.09486]}, "properties": {"kind": "turbine", "i": 70, "mw": 6.0, "hub_m": 120.0, "rotor_m": 150.0}}, {"type": "Feature", "geometry": {"type": "Point", "coordinates": [11.34427, 52.09454]}, "properties": {"kind": "turbine", "i": 71, "mw": 6.0, "hub_m": 120.0, "rotor_m": 150.0}}, {"type": "Feature", "geometry": {"type": "Point", "coordinates": [11.24445, 52.01768]}, "properties": {"kind": "turbine", "i": 72, "mw": 6.0, "hub_m": 120.0, "rotor_m": 150.0}}, {"type": "Feature", "geometry": {"type": "Point", "coordinates": [11.2411, 52.05715]}, "properties": {"kind": "turbine", "i": 73, "mw": 6.0, "hub_m": 120.0, "rotor_m": 150.0}}, {"type": "Feature", "geometry": {"type": "Point", "coordinates": [11.35969, 51.98259]}, "properties": {"kind": "turbine", "i": 74, "mw": 6.0, "hub_m": 120.0, "rotor_m": 150.0}}, {"type": "Feature", "geometry": {"type": "Point", "coordinates": [11.24927, 52.00773]}, "properties": {"kind": "turbine", "i": 75, "mw": 6.0, "hub_m": 120.0, "rotor_m": 150.0}}, {"type": "Feature", "geometry": {"type": "Point", "coordinates": [11.39167, 52.08374]}, "properties": {"kind": "turbine", "i": 76, "mw": 6.0, "hub_m": 120.0, "rotor_m": 150.0}}, {"type": "Feature", "geometry": {"type": "Point", "coordinates": [11.3758, 51.98555]}, "properties": {"kind": "turbine", "i": 77, "mw": 6.0, "hub_m": 120.0, "rotor_m": 150.0}}]}