{"type": "FeatureCollection", "features": [{"type": "Feature", "geometry": {"type": "MultiPolygon", "coordinates": [[[[11.28008, 52.07956], [11.28048, 52.07851], [11.2828, 52.07595], [11.2819, 52.07441], [11.27533, 52.07713], [11.28008, 52.07956]]], [[[11.27077, 52.07438], [11.28188, 52.06972], [11.28265, 52.06489], [11.27893, 52.06356], [11.27664, 52.0619], [11.27448, 52.05826], [11.27428, 52.0569], [11.27497, 52.05556], [11.27639, 52.05451], [11.27824, 52.0539], [11.26599, 52.04849], [11.26187, 52.04921], [11.26084, 52.05173], [11.25744, 52.05396], [11.25411, 52.05432], [11.25069, 52.05359], [11.25434, 52.05971], [11.25808, 52.06421], [11.26251, 52.06846], [11.27077, 52.07438]]], [[[11.2682, 52.04471], [11.28288, 52.05115], [11.28486, 52.05045], [11.28751, 52.05015], [11.29102, 52.05063], [11.2924, 52.04945], [11.29482, 52.04864], [11.29709, 52.04857], [11.29919, 52.04902], [11.30163, 52.05086], [11.302, 52.05271], [11.30128, 52.0541], [11.30245, 52.05585], [11.30237, 52.05763], [11.30402, 52.05843], [11.30818, 52.05669], [11.31257, 52.0565], [11.3155, 52.05185], [11.31689, 52.05126], [11.31954, 52.05097], [11.32449, 52.04862], [11.33505, 52.04196], [11.33482, 52.04097], [11.32689, 52.03203], [11.32321, 52.03226], [11.31952, 52.03176], [11.315, 52.02971], [11.31335, 52.02795], [11.31349, 52.02597], [11.31215, 52.02384], [11.31272, 52.02217], [11.31757, 52.01905], [11.32159, 52.01821], [11.32462, 52.01815], [11.32536, 52.01733], [11.32294, 52.0155], [11.30762, 52.0172], [11.30552, 52.0185], [11.30531, 52.01978], [11.30426, 52.02101], [11.30131, 52.02223], [11.29875, 52.02236], [11.29664, 52.02196], [11.29493, 52.02109], [11.29312, 52.01935], [11.28693, 52.02108], [11.28911, 52.02223], [11.29012, 52.02388], [11.28926, 52.02705], [11.29079, 52.02906], [11.29099, 52.03044], [11.29033, 52.03175], [11.28891, 52.0328], [11.28583, 52.03356], [11.28058, 52.03345], [11.27851, 52.03306], [11.27553, 52.0334], [11.2738, 52.03383], [11.26914, 52.03596], [11.26837, 52.03705], [11.26682, 52.03804], [11.26346, 52.03881], [11.26072, 52.03876], [11.25837, 52.03794], [11.25546, 52.03803], [11.25516, 52.03862], [11.26217, 52.0394], [11.26471, 52.04018], [11.26631, 52.04139], [11.2682, 52.04471]], [[11.30429, 52.03561], [11.30301, 52.03676], [11.30115, 52.03749], [11.29892, 52.03774], [11.29675, 52.03745], [11.2949, 52.03666], [11.2937, 52.03551], [11.29329, 52.03414], [11.29377, 52.0328], [11.29505, 52.03165], [11.29691, 52.03092], [11.29914, 52.03067], [11.30131, 52.03096], [11.30316, 52.03175], [11.30437, 52.03291], [11.30477, 52.03427], [11.30429, 52.03561]]], [[[11.28923, 52.01611], [11.28589, 52.01714], [11.2917, 52.0155], [11.28923, 52.01611]]], [[[11.31486, 52.01118], [11.30739, 52.01256], [11.30801, 52.01325], [11.32096, 52.01183], [11.32036, 52.01161], [11.31722, 52.01181], [11.31486, 52.01118]]], [[[11.35064, 52.00493], [11.35298, 52.0054], [11.35265, 52.00401], [11.35176, 52.00347], [11.35114, 52.00352], [11.35064, 52.00493]]], [[[11.31764, 51.98776], [11.31681, 51.98961], [11.31763, 51.99093], [11.32272, 51.99068], [11.32381, 51.98984], [11.32583, 51.98937], [11.3283, 51.98973], [11.32971, 51.99085], [11.32959, 51.99244], [11.33097, 51.99385], [11.3322, 51.99695], [11.33165, 51.99896], [11.3303, 52.00004], [11.32813, 52.0008], [11.32484, 52.00086], [11.3224, 52.00001], [11.32189, 52.00095], [11.32426, 52.00167], [11.32593, 52.00311], [11.33434, 52.00066], [11.33658, 52.00057], [11.34152, 52.00115], [11.34641, 51.99906], [11.35159, 51.9991], [11.35434, 51.99788], [11.35752, 51.9978], [11.35921, 51.99727], [11.36128, 51.99719], [11.36445, 51.99533], [11.36752, 51.99479], [11.3706, 51.99338], [11.35995, 51.99029], [11.35215, 51.98874], [11.34415, 51.98767], [11.33996, 51.98737], [11.33765, 51.98852], [11.33437, 51.98909], [11.33122, 51.98849], [11.32921, 51.98702], [11.31966, 51.98741], [11.31764, 51.98776]]], [[[11.31299, 52.0039], [11.31374, 52.00296], [11.31272, 52.00259], [11.30903, 52.00285], [11.30518, 52.00143], [11.30224, 52.00146], [11.29953, 52.00183], [11.29548, 52.00527], [11.30083, 52.00584], [11.30554, 52.00565], [11.31299, 52.0039]]], [[[11.29129, 52.00149], [11.28957, 52.00012], [11.28878, 51.99858], [11.28904, 51.99722], [11.29068, 51.99544], [11.28836, 51.99404], [11.28193, 51.99659], [11.27208, 52.00177], [11.27411, 52.00222], [11.2754, 52.0033], [11.27555, 52.00465], [11.2745, 52.00578], [11.2727, 52.00647], [11.27022, 52.00655], [11.26838, 52.00596], [11.26738, 52.00486], [11.26615, 52.00585], [11.2649, 52.00815], [11.26172, 52.00938], [11.25944, 52.01145], [11.26223, 52.01218], [11.26423, 52.0118], [11.26629, 52.01198], [11.26798, 52.0108], [11.26944, 52.01034], [11.27161, 52.01039], [11.27384, 52.01127], [11.27563, 52.01056], [11.27789, 52.01026], [11.28028, 52.00947], [11.28114, 52.00768], [11.28264, 52.00668], [11.28445, 52.00614], [11.28586, 52.00427], [11.28963, 52.00289], [11.29129, 52.00149]]], [[[11.26026, 52.01671], [11.2576, 52.01795], [11.26425, 52.01747], [11.26786, 52.01664], [11.26471, 52.01636], [11.26235, 52.01685], [11.26026, 52.01671]]], [[[11.27229, 52.01572], [11.2729, 52.01563], [11.27225, 52.01573], [11.27229, 52.01572]]], [[[11.35683, 52.02356], [11.33357, 52.01612], [11.32986, 52.02026], [11.33078, 52.02169], [11.33055, 52.02335], [11.33275, 52.02462], [11.33415, 52.02692], [11.334, 52.02835], [11.33256, 52.0304], [11.34053, 52.03938], [11.34134, 52.03685], [11.34269, 52.03541], [11.34494, 52.03447], [11.34778, 52.03424], [11.35149, 52.03518], [11.35418, 52.03683], [11.35543, 52.0384], [11.35557, 52.04081], [11.35343, 52.04342], [11.35015, 52.04488], [11.3459, 52.045], [11.34292, 52.04392], [11.3395, 52.04467], [11.32866, 52.0515], [11.32282, 52.05427], [11.32009, 52.05488], [11.31865, 52.05746], [11.31976, 52.05804], [11.32574, 52.05896], [11.32738, 52.05987], [11.32843, 52.06109], [11.32899, 52.06335], [11.32709, 52.06557], [11.34, 52.06901], [11.34104, 52.06749], [11.34299, 52.06676], [11.34494, 52.06686], [11.3485, 52.06792], [11.34937, 52.06675], [11.35112, 52.06568], [11.35509, 52.0648], [11.35632, 52.06359], [11.35715, 52.06178], [11.36109, 52.05918], [11.36431, 52.05499], [11.36642, 52.0541], [11.37078, 52.05366], [11.37355, 52.05422], [11.37548, 52.05545], [11.3764, 52.05682], [11.37704, 52.05954], [11.37642, 52.06162], [11.37667, 52.06296], [11.37736, 52.06359], [11.37966, 52.06441], [11.38162, 52.06595], [11.38573, 52.06441], [11.38962, 52.06391], [11.39337, 52.0647], [11.39528, 52.06631], [11.40081, 52.06629], [11.40544, 52.06129], [11.4087, 52.05665], [11.41121, 52.05184], [11.41305, 52.04629], [11.40866, 52.04357], [11.39529, 52.03908], [11.39065, 52.03889], [11.38855, 52.03847], [11.38643, 52.03723], [11.38509, 52.03512], [11.35683, 52.02356]], [[11.33394, 52.06181], [11.33321, 52.0605], [11.33332, 52.05914], [11.33426, 52.05791], [11.33637, 52.05683], [11.3386, 52.05648], [11.3412, 52.05664], [11.34314, 52.0573], [11.34453, 52.05837], [11.34517, 52.05988], [11.34488, 52.06131], [11.34374, 52.06251], [11.34193, 52.06334], [11.33966, 52.06368], [11.3375, 52.06351], [11.33539, 52.06282], [11.33394, 52.06181]]], [[[11.34629, 52.01507], [11.34477, 52.01536], [11.3484, 52.01652], [11.34629, 52.01507]]], [[[11.35125, 52.01705], [11.34921, 52.01678], [11.36018, 52.02031], [11.38758, 52.03152], [11.39363, 52.03048], [11.39734, 52.03104], [11.40032, 52.03348], [11.40054, 52.03645], [11.41148, 52.04011], [11.41388, 52.04128], [11.414, 52.03682], [11.41332, 52.03178], [11.41026, 52.02337], [11.40626, 52.02424], [11.40285, 52.02403], [11.40101, 52.02327], [11.3993, 52.02175], [11.39605, 52.02071], [11.39468, 52.01922], [11.39451, 52.0178], [11.39508, 52.01643], [11.39633, 52.01529], [11.39791, 52.01461], [11.39977, 52.01256], [11.39605, 52.01218], [11.37814, 52.01179], [11.37777, 52.0134], [11.37656, 52.01454], [11.37422, 52.01544], [11.37198, 52.0156], [11.36985, 52.01522], [11.36729, 52.01415], [11.36617, 52.01298], [11.36565, 52.0111], [11.3573, 52.00995], [11.35912, 52.01258], [11.35847, 52.01492], [11.35607, 52.01632], [11.35125, 52.01705]]], [[[11.38433, 51.99927], [11.38275, 52.00143], [11.3768, 52.00425], [11.3762, 52.00492], [11.37574, 52.00725], [11.37653, 52.0079], [11.38159, 52.00802], [11.38191, 52.00651], [11.38306, 52.00534], [11.38536, 52.0044], [11.38755, 52.00421], [11.38974, 52.00455], [11.39151, 52.00537], [11.39264, 52.00655], [11.39289, 52.00825], [11.39831, 52.00843], [11.3933, 52.00454], [11.38433, 51.99927]]], [[[11.32202, 52.0897], [11.321, 52.08714], [11.32247, 52.08507], [11.32743, 52.08302], [11.33028, 52.08244], [11.33273, 52.08076], [11.33504, 52.07998], [11.33829, 52.07969], [11.34101, 52.08035], [11.34382, 52.08237], [11.34456, 52.08411], [11.35119, 52.08324], [11.35119, 52.08263], [11.34911, 52.08164], [11.34816, 52.07974], [11.34858, 52.0785], [11.35007, 52.0776], [11.34709, 52.07573], [11.34458, 52.07346], [11.33816, 52.07271], [11.33439, 52.07173], [11.33013, 52.07309], [11.32751, 52.07292], [11.3257, 52.07136], [11.32649, 52.06961], [11.32471, 52.06914], [11.31679, 52.06951], [11.31381, 52.06882], [11.30814, 52.06881], [11.30483, 52.06822], [11.30265, 52.06715], [11.30141, 52.06545], [11.30156, 52.06375], [11.30276, 52.06245], [11.29791, 52.06037], [11.29463, 52.06112], [11.29407, 52.06228], [11.29276, 52.06338], [11.2912, 52.06417], [11.28896, 52.06463], [11.28791, 52.07332], [11.28907, 52.0754], [11.28892, 52.07683], [11.29041, 52.07688], [11.29208, 52.07547], [11.29454, 52.07469], [11.29676, 52.07464], [11.29879, 52.07511], [11.29959, 52.07412], [11.30122, 52.07319], [11.30486, 52.07265], [11.30703, 52.07296], [11.30919, 52.07402], [11.31016, 52.07525], [11.31031, 52.07671], [11.30929, 52.07829], [11.30767, 52.07922], [11.30402, 52.07976], [11.30133, 52.07928], [11.29908, 52.08112], [11.29547, 52.08177], [11.29393, 52.08313], [11.29127, 52.08393], [11.30099, 52.0867], [11.3088, 52.08826], [11.31682, 52.08933], [11.32202, 52.0897]], [[11.31435, 52.08309], [11.31484, 52.08489], [11.31329, 52.08619], [11.31, 52.08665], [11.30737, 52.0856], [11.30709, 52.08379], [11.30942, 52.08235], [11.3122, 52.08214], [11.31435, 52.08309]]], [[[11.37691, 52.07733], [11.36902, 52.07769], [11.36734, 52.07884], [11.36458, 52.0795], [11.36122, 52.08291], [11.36186, 52.08297], [11.37691, 52.07733]]]]}, "properties": {"kind": "windland", "area_km2": 50.45}}, {"type": "Feature", "geometry": {"type": "MultiPolygon", "coordinates": [[[[11.30397, 52.00823], [11.30023, 52.00832], [11.3003, 52.00962], [11.30397, 52.00823]]], [[[11.29603, 52.0122], [11.29621, 52.01231], [11.29688, 52.01218], [11.29603, 52.0122]]], [[[11.29464, 52.01246], [11.29423, 52.0126], [11.29391, 52.01273], [11.29458, 52.01261], [11.29464, 52.01246]]], [[[11.28597, 52.01426], [11.29142, 52.01288], [11.29322, 52.01225], [11.28587, 52.0124], [11.28597, 52.01426]]], [[[11.29634, 52.01288], [11.29556, 52.01322], [11.29499, 52.01313], [11.2905, 52.014], [11.28602, 52.01525], [11.28611, 52.01707], [11.2917, 52.0155], [11.28611, 52.01708], [11.2862, 52.01887], [11.2966, 52.01606], [11.2965, 52.01565], [11.29679, 52.01533], [11.29791, 52.01527], [11.29824, 52.01508], [11.29816, 52.01386], [11.29879, 52.01344], [11.29956, 52.0135], [11.30083, 52.01411], [11.30173, 52.01376], [11.30248, 52.01382], [11.30358, 52.01437], [11.30345, 52.015], [11.30367, 52.01535], [11.31802, 52.01395], [11.3272, 52.01264], [11.32762, 52.01198], [11.32854, 52.01175], [11.3282, 52.01083], [11.32628, 52.00948], [11.32589, 52.00975], [11.32525, 52.00981], [11.32407, 52.00917], [11.32317, 52.00921], [11.32267, 52.00877], [11.32196, 52.00855], [11.3218, 52.00814], [11.3185, 52.00888], [11.29634, 52.01288]], [[11.31496, 52.01122], [11.31722, 52.01181], [11.31889, 52.01184], [11.32036, 52.01161], [11.32096, 52.01183], [11.31752, 52.01232], [11.30801, 52.01325], [11.30739, 52.01256], [11.31496, 52.01122]]], [[[11.30041, 52.01647], [11.30078, 52.0176], [11.30073, 52.01884], [11.30003, 52.01938], [11.29877, 52.01929], [11.29845, 52.01851], [11.2974, 52.01803], [11.29744, 52.017], [11.29811, 52.01644], [11.29656, 52.01662], [11.28623, 52.01946], [11.28633, 52.02138], [11.27885, 52.02153], [11.27186, 52.02349], [11.272, 52.02619], [11.27264, 52.02671], [11.27331, 52.0266], [11.27387, 52.02671], [11.27431, 52.02729], [11.27386, 52.02783], [11.27209, 52.02811], [11.27254, 52.02875], [11.27248, 52.02914], [11.27326, 52.02873], [11.27417, 52.02902], [11.27563, 52.02884], [11.27501, 52.02862], [11.27478, 52.02831], [11.27513, 52.02779], [11.27612, 52.0277], [11.27535, 52.02733], [11.27545, 52.02669], [11.27509, 52.02584], [11.27641, 52.02474], [11.27724, 52.02464], [11.27802, 52.02513], [11.27907, 52.02509], [11.27954, 52.02573], [11.28036, 52.02574], [11.28143, 52.02537], [11.28184, 52.02496], [11.28242, 52.02487], [11.28439, 52.02521], [11.2849, 52.02568], [11.28458, 52.02615], [11.28254, 52.02678], [11.2827, 52.0271], [11.28327, 52.02717], [11.28368, 52.02675], [11.28441, 52.02693], [11.28339, 52.02858], [11.28243, 52.02863], [11.28193, 52.02814], [11.28127, 52.02834], [11.28033, 52.02802], [11.27929, 52.02823], [11.27993, 52.02885], [11.27923, 52.03], [11.27754, 52.0301], [11.27701, 52.02981], [11.27699, 52.02936], [11.27673, 52.02939], [11.27657, 52.02944], [11.27691, 52.02998], [11.27648, 52.03037], [11.27593, 52.03045], [11.27538, 52.03031], [11.27517, 52.02965], [11.27443, 52.02978], [11.27401, 52.03016], [11.2734, 52.03024], [11.27309, 52.03085], [11.27224, 52.03094], [11.27242, 52.0346], [11.2738, 52.03383], [11.27553, 52.0334], [11.27676, 52.03338], [11.27846, 52.03307], [11.28058, 52.03345], [11.28305, 52.03329], [11.28471, 52.03356], [11.28641, 52.03351], [11.28846, 52.033], [11.29004, 52.03204], [11.29077, 52.03112], [11.29102, 52.0301], [11.29026, 52.0281], [11.28926, 52.02705], [11.29007, 52.0249], [11.29003, 52.02354], [11.28877, 52.02196], [11.28693, 52.02108], [11.29312, 52.01935], [11.29493, 52.02109], [11.29664, 52.02196], [11.29875, 52.02236], [11.30131, 52.02223], [11.30283, 52.02179], [11.30426, 52.02101], [11.30531, 52.01978], [11.30552, 52.0185], [11.30665, 52.01798], [11.30762, 52.0172], [11.31864, 52.01611], [11.32294, 52.0155], [11.32407, 52.01667], [11.32536, 52.01733], [11.32462, 52.01815], [11.32159, 52.01821], [11.31757, 52.01905], [11.31623, 52.01966], [11.31517, 52.02057], [11.31371, 52.02126], [11.31272, 52.02217], [11.31215, 52.02384], [11.31246, 52.02485], [11.31349, 52.02597], [11.31321, 52.02693], [11.31335, 52.02795], [11.31397, 52.02891], [11.315, 52.02971], [11.3175, 52.03063], [11.31952, 52.03176], [11.32109, 52.03212], [11.32321, 52.03226], [11.32689, 52.03203], [11.33482, 52.04097], [11.33505, 52.04196], [11.32449, 52.04862], [11.32119, 52.05], [11.31954, 52.05097], [11.31689, 52.05126], [11.3155, 52.05185], [11.31478, 52.05256], [11.31257, 52.0565], [11.30982, 52.05648], [11.30818, 52.05669], [11.30535, 52.05772], [11.30402, 52.05843], [11.30237, 52.05763], [11.30259, 52.05687], [11.30245, 52.05585], [11.30128, 52.0541], [11.302, 52.05271], [11.30163, 52.05086], [11.30049, 52.04968], [11.2987, 52.04886], [11.29653, 52.04853], [11.29482, 52.04864], [11.2924, 52.04945], [11.29102, 52.05063], [11.28916, 52.0502], [11.28751, 52.05015], [11.28486, 52.05045], [11.28288, 52.05115], [11.27304, 52.04686], [11.27315, 52.04895], [11.28114, 52.05248], [11.28577, 52.0537], [11.28637, 52.05325], [11.28733, 52.05336], [11.28775, 52.05313], [11.28834, 52.05311], [11.28921, 52.05359], [11.28923, 52.0541], [11.29004, 52.0542], [11.2905, 52.05444], [11.29146, 52.05419], [11.29175, 52.05388], [11.29242, 52.05368], [11.29431, 52.05375], [11.29491, 52.05409], [11.29488, 52.05472], [11.29536, 52.05533], [11.29653, 52.05529], [11.29713, 52.05558], [11.29714, 52.0561], [11.2978, 52.05664], [11.29728, 52.05727], [11.30317, 52.06011], [11.30507, 52.06069], [11.30766, 52.06106], [11.30746, 52.06067], [11.30769, 52.06033], [11.30926, 52.06012], [11.30937, 52.0597], [11.30983, 52.05946], [11.31165, 52.0594], [11.31234, 52.05989], [11.31322, 52.05997], [11.31364, 52.05971], [11.31754, 52.05293], [11.32082, 52.05245], [11.32276, 52.05134], [11.32623, 52.04989], [11.33729, 52.04292], [11.33794, 52.04268], [11.33738, 52.04041], [11.32734, 52.02908], [11.32687, 52.02892], [11.32624, 52.02907], [11.32553, 52.0289], [11.32477, 52.02928], [11.32197, 52.0292], [11.32149, 52.02898], [11.32091, 52.02824], [11.32016, 52.02817], [11.31955, 52.02772], [11.31849, 52.02764], [11.31802, 52.02727], [11.31838, 52.02644], [11.31885, 52.02626], [11.31945, 52.02629], [11.31913, 52.02567], [11.31942, 52.02531], [11.31886, 52.02522], [11.31864, 52.02495], [11.31882, 52.02464], [11.3193, 52.02456], [11.31906, 52.02417], [11.31962, 52.02296], [11.31935, 52.02223], [11.31949, 52.02184], [11.32057, 52.02151], [11.32161, 52.02162], [11.32282, 52.02107], [11.32493, 52.0212], [11.32934, 52.01631], [11.3292, 52.01475], [11.32824, 52.01487], [11.32763, 52.01469], [11.32712, 52.0132], [11.31818, 52.01448], [11.30168, 52.01609], [11.30041, 52.01647]], [[11.28068, 52.03043], [11.28022, 52.02994], [11.28073, 52.02931], [11.28191, 52.02925], [11.28248, 52.02946], [11.28311, 52.02918], [11.28389, 52.02928], [11.28471, 52.02878], [11.28564, 52.02898], [11.28574, 52.02956], [11.28622, 52.03], [11.28602, 52.03042], [11.28542, 52.03062], [11.28452, 52.03033], [11.28308, 52.03028], [11.28256, 52.03008], [11.2815, 52.0305], [11.28068, 52.03043]], [[11.28485, 52.02375], [11.28536, 52.02422], [11.28505, 52.02486], [11.28434, 52.02502], [11.28323, 52.02471], [11.28297, 52.02433], [11.28324, 52.02392], [11.28426, 52.0237], [11.28485, 52.02375]], [[11.31644, 52.024], [11.31683, 52.02311], [11.31732, 52.02289], [11.31815, 52.02298], [11.3188, 52.02349], [11.31857, 52.0241], [11.31763, 52.02425], [11.31725, 52.0245], [11.31666, 52.02444], [11.31644, 52.024]], [[11.29623, 52.05149], [11.29699, 52.05171], [11.29722, 52.05228], [11.29703, 52.05271], [11.29644, 52.05291], [11.29572, 52.0528], [11.29537, 52.0524], [11.29546, 52.05176], [11.29623, 52.05149]]], [[[11.27183, 52.0229], [11.2766, 52.02157], [11.27177, 52.02166], [11.27183, 52.0229]]], [[[11.27704, 52.02615], [11.27735, 52.02674], [11.27772, 52.02666], [11.27704, 52.02615]]], [[[11.27729, 52.02863], [11.27729, 52.02912], [11.27782, 52.02901], [11.27729, 52.02863]]], [[[11.29858, 52.03068], [11.29641, 52.03106], [11.29467, 52.0319], [11.29357, 52.03312], [11.29331, 52.03448], [11.29393, 52.03583], [11.2953, 52.0369], [11.29727, 52.03757], [11.29948, 52.03773], [11.30165, 52.03735], [11.30339, 52.03651], [11.30449, 52.03529], [11.30475, 52.03392], [11.30412, 52.03258], [11.30275, 52.03151], [11.30079, 52.03084], [11.29858, 52.03068]], [[11.29955, 52.03469], [11.29884, 52.03477], [11.29824, 52.03452], [11.29811, 52.03409], [11.29851, 52.03372], [11.29922, 52.03364], [11.29982, 52.03388], [11.29995, 52.03432], [11.29955, 52.03469]]], [[[11.28088, 52.05746], [11.282, 52.05719], [11.28287, 52.05642], [11.28374, 52.05628], [11.28381, 52.05589], [11.28344, 52.0554], [11.28387, 52.05486], [11.28461, 52.05474], [11.2858, 52.05515], [11.28646, 52.05465], [11.28596, 52.05434], [11.28069, 52.05294], [11.27318, 52.04962], [11.27329, 52.05171], [11.27824, 52.0539], [11.27639, 52.05451], [11.27526, 52.05527], [11.27451, 52.05622], [11.27427, 52.05758], [11.27912, 52.05749], [11.27918, 52.05698], [11.27988, 52.0567], [11.28074, 52.05692], [11.28088, 52.05746]]], [[[11.29634, 52.0575], [11.29447, 52.05709], [11.29493, 52.05759], [11.29445, 52.05811], [11.29362, 52.05814], [11.29309, 52.0578], [11.29198, 52.05827], [11.29082, 52.05835], [11.29024, 52.05881], [11.28926, 52.05873], [11.28921, 52.05924], [11.28829, 52.05971], [11.28829, 52.05986], [11.28958, 52.0603], [11.28988, 52.06068], [11.28959, 52.06116], [11.28839, 52.0617], [11.28862, 52.0663], [11.28896, 52.06463], [11.2912, 52.06417], [11.29276, 52.06338], [11.29407, 52.06228], [11.29463, 52.06112], [11.29791, 52.06037], [11.30104, 52.06187], [11.30276, 52.06245], [11.30156, 52.06375], [11.30141, 52.06545], [11.30169, 52.06604], [11.3032, 52.06601], [11.30328, 52.06758], [11.30483, 52.06822], [11.30814, 52.06881], [11.31043, 52.0687], [11.31381, 52.06882], [11.31538, 52.06932], [11.31679, 52.06951], [11.32471, 52.06914], [11.32649, 52.06961], [11.32573, 52.07052], [11.32577, 52.07156], [11.3267, 52.07255], [11.32813, 52.07309], [11.33013, 52.07309], [11.33439, 52.07173], [11.33816, 52.07271], [11.34458, 52.07346], [11.34513, 52.07418], [11.3474, 52.07414], [11.34729, 52.07209], [11.33885, 52.07111], [11.33408, 52.06983], [11.33325, 52.06991], [11.32902, 52.07134], [11.32864, 52.07107], [11.32876, 52.0708], [11.3326, 52.06943], [11.32525, 52.06749], [11.31835, 52.06787], [11.31663, 52.06783], [11.31506, 52.06731], [11.31353, 52.06579], [11.31292, 52.06591], [11.3116, 52.06583], [11.31091, 52.06535], [11.30891, 52.06588], [11.30828, 52.06575], [11.30793, 52.06535], [11.30732, 52.06557], [11.30673, 52.0655], [11.30614, 52.06494], [11.30621, 52.06452], [11.30672, 52.06426], [11.30734, 52.06425], [11.30796, 52.06387], [11.30879, 52.06388], [11.30962, 52.06351], [11.30974, 52.06291], [11.3102, 52.06262], [11.30996, 52.06201], [11.30492, 52.06123], [11.303, 52.06066], [11.29634, 52.0575]]], [[[11.30971, 52.06134], [11.30973, 52.06123], [11.30909, 52.06125], [11.30971, 52.06134]]], [[[11.30799, 52.0733], [11.30597, 52.07274], [11.30354, 52.07269], [11.30366, 52.075], [11.30996, 52.07488], [11.30919, 52.07402], [11.30799, 52.0733]]], [[[11.31014, 52.00293], [11.31078, 52.00292], [11.31009, 52.00293], [11.31014, 52.00293]]], [[[11.31503, 52.00538], [11.31794, 52.0052], [11.31803, 52.00461], [11.31692, 52.0028], [11.31342, 52.00287], [11.31374, 52.00296], [11.31339, 52.0038], [11.30856, 52.00503], [11.30554, 52.00565], [11.3001, 52.00578], [11.3002, 52.00765], [11.30621, 52.00746], [11.31185, 52.00624], [11.31503, 52.00538]]], [[[11.31705, 52.00791], [11.3175, 52.00753], [11.31869, 52.00731], [11.3194, 52.00746], [11.31975, 52.00795], [11.32092, 52.00774], [11.32014, 52.00704], [11.31844, 52.00661], [11.3182, 52.00587], [11.31502, 52.00612], [11.31229, 52.00688], [11.30585, 52.00822], [11.30034, 52.01032], [11.3004, 52.01153], [11.31719, 52.00841], [11.31705, 52.00791]]], [[[11.32105, 52.02561], [11.32074, 52.02625], [11.32142, 52.02624], [11.32195, 52.02649], [11.32256, 52.02642], [11.32262, 52.02599], [11.32159, 52.02598], [11.32105, 52.02561]]], [[[11.31455, 52.05969], [11.3162, 52.06001], [11.31708, 52.06116], [11.318, 52.06089], [11.31926, 52.0609], [11.32018, 52.06108], [11.32079, 52.06153], [11.32321, 52.06147], [11.32363, 52.06173], [11.32425, 52.06274], [11.32396, 52.06323], [11.32281, 52.06359], [11.32279, 52.06425], [11.32207, 52.06449], [11.32142, 52.06439], [11.32105, 52.06405], [11.32108, 52.06363], [11.32156, 52.06336], [11.32131, 52.06303], [11.3194, 52.06292], [11.31775, 52.06347], [11.31746, 52.064], [11.31658, 52.06445], [11.31598, 52.0645], [11.31535, 52.06542], [11.31438, 52.06563], [11.31596, 52.06707], [11.31679, 52.0673], [11.3183, 52.06734], [11.3253, 52.06695], [11.3391, 52.07059], [11.34726, 52.07154], [11.34722, 52.07077], [11.34316, 52.06937], [11.34297, 52.06914], [11.34334, 52.06865], [11.34376, 52.06855], [11.34555, 52.06899], [11.34716, 52.06963], [11.34704, 52.0674], [11.3443, 52.06675], [11.34235, 52.06688], [11.34084, 52.06766], [11.34, 52.06901], [11.32709, 52.06557], [11.3285, 52.06433], [11.32905, 52.063], [11.32889, 52.06198], [11.32769, 52.06015], [11.32663, 52.05936], [11.32525, 52.0588], [11.31976, 52.05804], [11.31865, 52.05746], [11.32009, 52.05488], [11.32282, 52.05427], [11.32497, 52.05307], [11.32866, 52.0515], [11.3395, 52.04467], [11.34292, 52.04392], [11.34434, 52.04463], [11.3459, 52.045], [11.34852, 52.0451], [11.3501, 52.04489], [11.35306, 52.04368], [11.35489, 52.04211], [11.35548, 52.04115], [11.35554, 52.03874], [11.35451, 52.03711], [11.35194, 52.03538], [11.34831, 52.0343], [11.34669, 52.03422], [11.34511, 52.03443], [11.34395, 52.03476], [11.34269, 52.03541], [11.34134, 52.03685], [11.34112, 52.03813], [11.34053, 52.03938], [11.33256, 52.0304], [11.334, 52.02835], [11.33415, 52.02692], [11.33275, 52.02462], [11.33171, 52.02385], [11.33055, 52.02335], [11.33078, 52.02169], [11.32986, 52.02026], [11.33357, 52.01612], [11.35728, 52.02374], [11.38509, 52.03512], [11.38551, 52.03618], [11.38675, 52.03751], [11.38808, 52.03828], [11.38929, 52.03868], [11.38908, 52.03475], [11.35808, 52.02209], [11.32971, 52.01312], [11.33024, 52.01636], [11.32547, 52.02171], [11.32605, 52.02225], [11.32516, 52.0233], [11.32567, 52.02379], [11.3251, 52.02507], [11.32441, 52.02552], [11.32342, 52.02552], [11.32346, 52.02576], [11.32418, 52.02598], [11.32502, 52.0256], [11.32698, 52.02564], [11.32866, 52.02616], [11.32877, 52.02687], [11.32928, 52.02712], [11.3294, 52.02749], [11.32916, 52.02783], [11.32866, 52.028], [11.32869, 52.02861], [11.32821, 52.02895], [11.33819, 52.0402], [11.33878, 52.0425], [11.34559, 52.041], [11.34536, 52.03949], [11.34577, 52.03922], [11.34692, 52.039], [11.34618, 52.03856], [11.34589, 52.03786], [11.34619, 52.03743], [11.34671, 52.03722], [11.34642, 52.03667], [11.34675, 52.03642], [11.3478, 52.03641], [11.34796, 52.03676], [11.34752, 52.03702], [11.34771, 52.03733], [11.34905, 52.03775], [11.3494, 52.03852], [11.35002, 52.03851], [11.3505, 52.03873], [11.35079, 52.03915], [11.3506, 52.03963], [11.35084, 52.03995], [11.35079, 52.04053], [11.34961, 52.04163], [11.34841, 52.04212], [11.34679, 52.04208], [11.34596, 52.04149], [11.338, 52.04325], [11.32678, 52.05031], [11.32329, 52.05177], [11.32124, 52.05292], [11.31932, 52.05328], [11.31815, 52.05332], [11.31455, 52.05969]]], [[[11.33635, 52.00241], [11.3409, 52.00307], [11.34313, 52.00281], [11.34474, 52.00225], [11.33635, 52.00241]]], [[[11.32852, 52.00463], [11.33508, 52.00244], [11.32824, 52.00257], [11.32721, 52.00296], [11.32593, 52.00311], [11.32555, 52.00263], [11.31786, 52.00278], [11.31852, 52.00374], [11.31914, 52.00362], [11.32097, 52.00386], [11.32145, 52.00416], [11.32145, 52.0046], [11.32417, 52.00511], [11.32852, 52.00463]]], [[[11.34099, 52.00379], [11.33944, 52.00366], [11.3392, 52.00397], [11.33721, 52.00437], [11.33644, 52.0041], [11.33628, 52.00354], [11.33689, 52.00326], [11.33761, 52.0033], [11.33783, 52.0036], [11.33828, 52.00342], [11.33647, 52.00308], [11.33575, 52.00309], [11.32851, 52.00538], [11.32395, 52.00577], [11.32126, 52.00524], [11.3212, 52.00544], [11.32183, 52.00549], [11.32294, 52.00604], [11.32582, 52.00635], [11.3267, 52.00664], [11.33013, 52.00606], [11.33426, 52.00562], [11.33896, 52.00553], [11.342, 52.00566], [11.35452, 52.00732], [11.35836, 52.00518], [11.35834, 52.00478], [11.35772, 52.00463], [11.35742, 52.0042], [11.35768, 52.00374], [11.35827, 52.00349], [11.35819, 52.00198], [11.34643, 52.00221], [11.34562, 52.00274], [11.3441, 52.00332], [11.34099, 52.00379]], [[11.34743, 52.00451], [11.3459, 52.00474], [11.34538, 52.00449], [11.34575, 52.00408], [11.34699, 52.00385], [11.34711, 52.0036], [11.34665, 52.00309], [11.34703, 52.00283], [11.34775, 52.00301], [11.34819, 52.00369], [11.34743, 52.00451]], [[11.35155, 52.00349], [11.35265, 52.00401], [11.35298, 52.0054], [11.35056, 52.00501], [11.35107, 52.00422], [11.35114, 52.00352], [11.35155, 52.00349]]], [[[11.32996, 52.01012], [11.3322, 52.00992], [11.33193, 52.0094], [11.3323, 52.00858], [11.33358, 52.00823], [11.33404, 52.00785], [11.33491, 52.00777], [11.33546, 52.00729], [11.33636, 52.00732], [11.33693, 52.00684], [11.33791, 52.0069], [11.3383, 52.00664], [11.33893, 52.00658], [11.33923, 52.00608], [11.33328, 52.00624], [11.3276, 52.00704], [11.3272, 52.00811], [11.32674, 52.0084], [11.32676, 52.00902], [11.32884, 52.01046], [11.32996, 52.01012]]], [[[11.33624, 52.01169], [11.33581, 52.01], [11.33159, 52.0106], [11.33112, 52.01121], [11.32941, 52.01172], [11.32971, 52.01257], [11.33225, 52.01322], [11.35851, 52.02162], [11.37414, 52.02809], [11.37403, 52.02605], [11.36007, 52.02027], [11.34921, 52.01678], [11.35181, 52.01704], [11.35503, 52.01657], [11.35655, 52.01615], [11.35817, 52.01521], [11.35907, 52.01395], [11.35919, 52.01293], [11.35848, 52.01113], [11.3573, 52.00995], [11.35862, 52.01014], [11.35853, 52.00843], [11.35478, 52.00791], [11.35381, 52.00843], [11.35118, 52.00919], [11.35184, 52.00953], [11.35215, 52.01082], [11.35258, 52.01111], [11.35292, 52.01183], [11.35386, 52.01202], [11.35441, 52.01315], [11.35392, 52.01368], [11.35155, 52.01409], [11.35061, 52.01379], [11.34884, 52.01045], [11.34846, 52.01037], [11.34663, 52.01036], [11.34663, 52.01083], [11.34717, 52.01098], [11.34746, 52.01132], [11.34707, 52.01187], [11.345, 52.01212], [11.34353, 52.0125], [11.34268, 52.0123], [11.34223, 52.01185], [11.3423, 52.01134], [11.34162, 52.01116], [11.34134, 52.01085], [11.3404, 52.01114], [11.33978, 52.01141], [11.33989, 52.01206], [11.33968, 52.01227], [11.34008, 52.01257], [11.34009, 52.01315], [11.33966, 52.0134], [11.33851, 52.01357], [11.33772, 52.01339], [11.33746, 52.01278], [11.3379, 52.01239], [11.33911, 52.0122], [11.33895, 52.01165], [11.33675, 52.01197], [11.33624, 52.01169]], [[11.34693, 52.01571], [11.3484, 52.01652], [11.34477, 52.01536], [11.34629, 52.01507], [11.34693, 52.01571]]], [[[11.3375, 52.06351], [11.33966, 52.06368], [11.34193, 52.06334], [11.34374, 52.06251], [11.34488, 52.06131], [11.34517, 52.05988], [11.34453, 52.05837], [11.34314, 52.0573], [11.3412, 52.05664], [11.3386, 52.05648], [11.33637, 52.05683], [11.33461, 52.05765], [11.33348, 52.05882], [11.33315, 52.06016], [11.33394, 52.06181], [11.33539, 52.06282], [11.3375, 52.06351]], [[11.33797, 52.05986], [11.33853, 52.05948], [11.33975, 52.05946], [11.34031, 52.05978], [11.34035, 52.06034], [11.33983, 52.06068], [11.33901, 52.0607], [11.33813, 52.06036], [11.33797, 52.05986]]], [[[11.341, 52.00615], [11.34136, 52.00668], [11.34119, 52.00702], [11.34322, 52.00739], [11.34363, 52.00691], [11.34423, 52.00673], [11.34503, 52.00693], [11.34592, 52.00685], [11.34697, 52.007], [11.34766, 52.00791], [11.3484, 52.00791], [11.34888, 52.00812], [11.34919, 52.00912], [11.35375, 52.00776], [11.34325, 52.00632], [11.341, 52.00615]]], [[[11.35556, 52.00746], [11.3585, 52.00787], [11.35839, 52.00588], [11.35762, 52.00631], [11.35556, 52.00746]]], [[[11.37249, 52.01068], [11.37248, 52.01126], [11.37328, 52.01183], [11.37322, 52.01067], [11.37249, 52.01068]]], [[[11.37292, 52.01258], [11.37221, 52.01263], [11.37086, 52.01218], [11.37061, 52.01168], [11.37101, 52.01117], [11.3704, 52.01073], [11.3639, 52.01086], [11.36565, 52.0111], [11.36617, 52.01298], [11.36729, 52.01415], [11.36857, 52.01481], [11.37088, 52.01548], [11.37348, 52.01555], [11.37331, 52.01232], [11.37292, 52.01258]]], [[[11.37543, 52.02861], [11.38904, 52.03408], [11.38888, 52.03109], [11.38758, 52.03152], [11.38011, 52.02852], [11.37543, 52.02861]]], [[[11.37307, 52.05406], [11.37134, 52.0537], [11.36967, 52.05369], [11.36642, 52.0541], [11.36477, 52.05472], [11.36307, 52.05616], [11.36217, 52.05795], [11.36109, 52.05918], [11.36046, 52.05971], [11.35842, 52.06071], [11.35715, 52.06178], [11.3565, 52.06272], [11.35632, 52.06359], [11.35509, 52.0648], [11.35319, 52.06503], [11.36198, 52.06485], [11.36165, 52.0642], [11.36117, 52.06388], [11.36114, 52.06347], [11.36203, 52.06266], [11.36272, 52.06251], [11.36338, 52.0621], [11.36428, 52.06214], [11.36471, 52.06259], [11.36554, 52.06269], [11.36635, 52.06252], [11.36826, 52.06287], [11.36891, 52.06217], [11.36865, 52.06171], [11.36754, 52.06185], [11.3663, 52.06144], [11.36603, 52.062], [11.36527, 52.06222], [11.36456, 52.062], [11.36435, 52.06155], [11.36467, 52.06114], [11.3653, 52.06097], [11.36567, 52.06008], [11.36653, 52.05936], [11.36707, 52.05844], [11.36699, 52.05801], [11.36775, 52.05706], [11.36865, 52.05681], [11.36945, 52.05713], [11.36983, 52.05675], [11.37038, 52.05661], [11.37133, 52.05693], [11.37172, 52.05748], [11.37162, 52.05788], [11.37301, 52.05845], [11.37205, 52.05958], [11.37222, 52.06017], [11.37057, 52.06199], [11.37147, 52.06222], [11.37185, 52.06251], [11.37183, 52.06288], [11.37123, 52.06343], [11.37209, 52.06387], [11.37203, 52.06453], [11.3724, 52.06464], [11.37608, 52.06457], [11.3756, 52.0556], [11.37444, 52.05464], [11.37307, 52.05406]]], [[[11.36475, 52.06399], [11.36293, 52.06414], [11.36261, 52.06421], [11.36475, 52.06399]]], [[[11.36896, 52.06471], [11.36614, 52.06385], [11.36513, 52.06449], [11.36387, 52.06465], [11.36403, 52.06481], [11.36896, 52.06471]]]]}, "properties": {"kind": "pv", "area_km2": 17.29, "mw": 864.5}}, {"type": "Feature", "geometry": {"type": "Point", "coordinates": [11.32539, 52.03909]}, "properties": {"kind": "turbine", "i": 0, "mw": 6.0, "hub_m": 120.0, "rotor_m": 150.0}}, {"type": "Feature", "geometry": {"type": "Point", "coordinates": [11.34169, 52.04534]}, "properties": {"kind": "turbine", "i": 1, "mw": 6.0, "hub_m": 120.0, "rotor_m": 150.0}}, {"type": "Feature", "geometry": {"type": "Point", "coordinates": [11.33552, 52.02904]}, "properties": {"kind": "turbine", "i": 2, "mw": 6.0, "hub_m": 120.0, "rotor_m": 150.0}}, {"type": "Feature", "geometry": {"type": "Point", "coordinates": [11.3096, 52.04269]}, "properties": {"kind": "turbine", "i": 3, "mw": 6.0, "hub_m": 120.0, "rotor_m": 150.0}}, {"type": "Feature", "geometry": {"type": "Point", "coordinates": [11.30909, 52.03285]}, "properties": {"kind": "turbine", "i": 4, "mw": 6.0, "hub_m": 120.0, "rotor_m": 150.0}}, {"type": "Feature", "geometry": {"type": "Point", "coordinates": [11.35164, 52.032]}, "properties": {"kind": "turbine", "i": 5, "mw": 6.0, "hub_m": 120.0, "rotor_m": 150.0}}, {"type": "Feature", "geometry": {"type": "Point", "coordinates": [11.33688, 52.05528]}, "properties": {"kind": "turbine", "i": 6, "mw": 6.0, "hub_m": 120.0, "rotor_m": 150.0}}, {"type": "Feature", "geometry": {"type": "Point", "coordinates": [11.35765, 52.04502]}, "properties": {"kind": "turbine", "i": 7, "mw": 6.0, "hub_m": 120.0, "rotor_m": 150.0}}, {"type": "Feature", "geometry": {"type": "Point", "coordinates": [11.32092, 52.0556]}, "properties": {"kind": "turbine", "i": 8, "mw": 6.0, "hub_m": 120.0, "rotor_m": 150.0}}, {"type": "Feature", "geometry": {"type": "Point", "coordinates": [11.335, 52.0192]}, "properties": {"kind": "turbine", "i": 9, "mw": 6.0, "hub_m": 120.0, "rotor_m": 150.0}}, {"type": "Feature", "geometry": {"type": "Point", "coordinates": [11.30859, 52.02301]}, "properties": {"kind": "turbine", "i": 10, "mw": 6.0, "hub_m": 120.0, "rotor_m": 150.0}}, {"type": "Feature", "geometry": {"type": "Point", "coordinates": [11.35113, 52.02216]}, "properties": {"kind": "turbine", "i": 11, "mw": 6.0, "hub_m": 120.0, "rotor_m": 150.0}}, {"type": "Feature", "geometry": {"type": "Point", "coordinates": [11.30479, 52.05263]}, "properties": {"kind": "turbine", "i": 12, "mw": 6.0, "hub_m": 120.0, "rotor_m": 150.0}}, {"type": "Feature", "geometry": {"type": "Point", "coordinates": [11.35285, 52.05497]}, "properties": {"kind": "turbine", "i": 13, "mw": 6.0, "hub_m": 120.0, "rotor_m": 150.0}}, {"type": "Feature", "geometry": {"type": "Point", "coordinates": [11.29348, 52.03972]}, "properties": {"kind": "turbine", "i": 14, "mw": 6.0, "hub_m": 120.0, "rotor_m": 150.0}}, {"type": "Feature", "geometry": {"type": "Point", "coordinates": [11.36777, 52.03496]}, "properties": {"kind": "turbine", "i": 15, "mw": 6.0, "hub_m": 120.0, "rotor_m": 150.0}}, {"type": "Feature", "geometry": {"type": "Point", "coordinates": [11.29297, 52.02988]}, "properties": {"kind": "turbine", "i": 16, "mw": 6.0, "hub_m": 120.0, "rotor_m": 150.0}}, {"type": "Feature", "geometry": {"type": "Point", "coordinates": [11.33208, 52.06523]}, "properties": {"kind": "turbine", "i": 17, "mw": 6.0, "hub_m": 120.0, "rotor_m": 150.0}}, {"type": "Feature", "geometry": {"type": "Point", "coordinates": [11.37361, 52.0447]}, "properties": {"kind": "turbine", "i": 18, "mw": 6.0, "hub_m": 120.0, "rotor_m": 150.0}}, {"type": "Feature", "geometry": {"type": "Point", "coordinates": [11.28866, 52.04966]}, "properties": {"kind": "turbine", "i": 19, "mw": 6.0, "hub_m": 120.0, "rotor_m": 150.0}}, {"type": "Feature", "geometry": {"type": "Point", "coordinates": [11.34804, 52.06491]}, "properties": {"kind": "turbine", "i": 20, "mw": 6.0, "hub_m": 120.0, "rotor_m": 150.0}}, {"type": "Feature", "geometry": {"type": "Point", "coordinates": [11.30808, 52.01316]}, "properties": {"kind": "turbine", "i": 21, "mw": 6.0, "hub_m": 120.0, "rotor_m": 150.0}}, {"type": "Feature", "geometry": {"type": "Point", "coordinates": [11.37257, 52.02502]}, "properties": {"kind": "turbine", "i": 22, "mw": 6.0, "hub_m": 120.0, "rotor_m": 150.0}}, {"type": "Feature", "geometry": {"type": "Point", "coordinates": [11.29247, 52.02004]}, "properties": {"kind": "turbine", "i": 23, "mw": 6.0, "hub_m": 120.0, "rotor_m": 150.0}}, {"type": "Feature", "geometry": {"type": "Point", "coordinates": [11.36124, 52.01211]}, "properties": {"kind": "turbine", "i": 24, "mw": 6.0, "hub_m": 120.0, "rotor_m": 150.0}}, {"type": "Feature", "geometry": {"type": "Point", "coordinates": [11.31096, 52.06893]}, "properties": {"kind": "turbine", "i": 25, "mw": 6.0, "hub_m": 120.0, "rotor_m": 150.0}}, {"type": "Feature", "geometry": {"type": "Point", "coordinates": [11.29465, 52.06268]}, "properties": {"kind": "turbine", "i": 26, "mw": 6.0, "hub_m": 120.0, "rotor_m": 150.0}}, {"type": "Feature", "geometry": {"type": "Point", "coordinates": [11.38373, 52.03464]}, "properties": {"kind": "turbine", "i": 27, "mw": 6.0, "hub_m": 120.0, "rotor_m": 150.0}}, {"type": "Feature", "geometry": {"type": "Point", "coordinates": [11.27718, 52.03347]}, "properties": {"kind": "turbine", "i": 28, "mw": 6.0, "hub_m": 120.0, "rotor_m": 150.0}}, {"type": "Feature", "geometry": {"type": "Point", "coordinates": [11.37945, 52.05443]}, "properties": {"kind": "turbine", "i": 29, "mw": 6.0, "hub_m": 120.0, "rotor_m": 150.0}}, {"type": "Feature", "geometry": {"type": "Point", "coordinates": [11.27236, 52.04341]}, "properties": {"kind": "turbine", "i": 30, "mw": 6.0, "hub_m": 120.0, "rotor_m": 150.0}}, {"type": "Feature", "geometry": {"type": "Point", "coordinates": [11.32727, 52.07518]}, "properties": {"kind": "turbine", "i": 31, "mw": 6.0, "hub_m": 120.0, "rotor_m": 150.0}}, {"type": "Feature", "geometry": {"type": "Point", "coordinates": [11.38957, 52.04438]}, "properties": {"kind": "turbine", "i": 32, "mw": 6.0, "hub_m": 120.0, "rotor_m": 150.0}}, {"type": "Feature", "geometry": {"type": "Point", "coordinates": [11.34324, 52.07486]}, "properties": {"kind": "turbine", "i": 33, "mw": 6.0, "hub_m": 120.0, "rotor_m": 150.0}}, {"type": "Feature", "geometry": {"type": "Point", "coordinates": [11.37736, 52.01507]}, "properties": {"kind": "turbine", "i": 34, "mw": 6.0, "hub_m": 120.0, "rotor_m": 150.0}}, {"type": "Feature", "geometry": {"type": "Point", "coordinates": [11.38852, 52.02469]}, "properties": {"kind": "turbine", "i": 35, "mw": 6.0, "hub_m": 120.0, "rotor_m": 150.0}}, {"type": "Feature", "geometry": {"type": "Point", "coordinates": [11.30226, 52.00343]}, "properties": {"kind": "turbine", "i": 36, "mw": 6.0, "hub_m": 120.0, "rotor_m": 150.0}}, {"type": "Feature", "geometry": {"type": "Point", "coordinates": [11.37998, 52.06427]}, "properties": {"kind": "turbine", "i": 37, "mw": 6.0, "hub_m": 120.0, "rotor_m": 150.0}}, {"type": "Feature", "geometry": {"type": "Point", "coordinates": [11.31147, 52.07877]}, "properties": {"kind": "turbine", "i": 38, "mw": 6.0, "hub_m": 120.0, "rotor_m": 150.0}}, {"type": "Feature", "geometry": {"type": "Point", "coordinates": [11.28983, 52.07263]}, "properties": {"kind": "turbine", "i": 39, "mw": 6.0, "hub_m": 120.0, "rotor_m": 150.0}}, {"type": "Feature", "geometry": {"type": "Point", "coordinates": [11.39541, 52.05411]}, "properties": {"kind": "turbine", "i": 40, "mw": 6.0, "hub_m": 120.0, "rotor_m": 150.0}}, {"type": "Feature", "geometry": {"type": "Point", "coordinates": [11.27336, 52.06309]}, "properties": {"kind": "turbine", "i": 41, "mw": 6.0, "hub_m": 120.0, "rotor_m": 150.0}}, {"type": "Feature", "geometry": {"type": "Point", "coordinates": [11.26222, 52.05346]}, "properties": {"kind": "turbine", "i": 42, "mw": 6.0, "hub_m": 120.0, "rotor_m": 150.0}}, {"type": "Feature", "geometry": {"type": "Point", "coordinates": [11.39331, 52.01475]}, "properties": {"kind": "turbine", "i": 43, "mw": 6.0, "hub_m": 120.0, "rotor_m": 150.0}}, {"type": "Feature", "geometry": {"type": "Point", "coordinates": [11.33364, 51.99296]}, "properties": {"kind": "turbine", "i": 44, "mw": 6.0, "hub_m": 120.0, "rotor_m": 150.0}}, {"type": "Feature", "geometry": {"type": "Point", "coordinates": [11.405, 52.03421]}, "properties": {"kind": "turbine", "i": 45, "mw": 6.0, "hub_m": 120.0, "rotor_m": 150.0}}, {"type": "Feature", "geometry": {"type": "Point", "coordinates": [11.40553, 52.04405]}, "properties": {"kind": "turbine", "i": 46, "mw": 6.0, "hub_m": 120.0, "rotor_m": 150.0}}]}