{"type": "FeatureCollection", "features": [{"type": "Feature", "geometry": {"type": "MultiPolygon", "coordinates": [[[[12.58799, 51.90755], [12.59108, 51.90533], [12.59409, 51.90455], [12.59622, 51.90293], [12.59314, 51.90273], [12.5943, 51.90033], [12.59278, 51.9002], [12.59283, 51.89962], [12.59406, 51.89902], [12.59629, 51.89942], [12.59633, 51.89897], [12.59428, 51.89736], [12.59472, 51.8978], [12.5921, 51.8991], [12.59252, 51.89936], [12.58771, 51.9016], [12.58553, 51.90135], [12.58659, 51.90371], [12.58727, 51.9047], [12.58787, 51.90485], [12.58716, 51.90663], [12.58799, 51.90755]], [[12.59204, 51.90272], [12.59113, 51.9027], [12.59126, 51.90073], [12.59267, 51.90003], [12.59204, 51.90272]]], [[[12.59313, 51.88801], [12.59315, 51.88801], [12.59313, 51.888], [12.59313, 51.88801]]], [[[12.59423, 51.88803], [12.59399, 51.88796], [12.5936, 51.888], [12.59382, 51.888], [12.59423, 51.88803]]], [[[12.59652, 51.88757], [12.59657, 51.88726], [12.59464, 51.88808], [12.59657, 51.88814], [12.59652, 51.88757]]], [[[12.63138, 51.88455], [12.62898, 51.88756], [12.62926, 51.88972], [12.63128, 51.89133], [12.63256, 51.89567], [12.63444, 51.89586], [12.63437, 51.8966], [12.63328, 51.89683], [12.63219, 51.8965], [12.63079, 51.89779], [12.63228, 51.89831], [12.63273, 51.8978], [12.6322, 51.89764], [12.63253, 51.89701], [12.63603, 51.89782], [12.63685, 51.89869], [12.63663, 51.89932], [12.63454, 51.89846], [12.63394, 51.89922], [12.63158, 51.89875], [12.63169, 51.89932], [12.63058, 51.89926], [12.63297, 51.89988], [12.63393, 51.89929], [12.63499, 51.8996], [12.63535, 51.8994], [12.63675, 51.90008], [12.6388, 51.89504], [12.63767, 51.89397], [12.63724, 51.89267], [12.63175, 51.88678], [12.63138, 51.88455]]], [[[12.63015, 51.89875], [12.62946, 51.89837], [12.62866, 51.89857], [12.62985, 51.89895], [12.63015, 51.89875]]], [[[12.63432, 51.91604], [12.63452, 51.91565], [12.62707, 51.91541], [12.62624, 51.91683], [12.62324, 51.91891], [12.62707, 51.91831], [12.62662, 51.9165], [12.62867, 51.91683], [12.62916, 51.91728], [12.62878, 51.91778], [12.62948, 51.91778], [12.63432, 51.91604]]], [[[12.63151, 51.91347], [12.62776, 51.91251], [12.62704, 51.9128], [12.62732, 51.91317], [12.6317, 51.91455], [12.63227, 51.91406], [12.63123, 51.91376], [12.63151, 51.91347]]], [[[12.63448, 51.91107], [12.63474, 51.91017], [12.63242, 51.90983], [12.63141, 51.91103], [12.63448, 51.91107]]], [[[12.63538, 51.91094], [12.63556, 51.91003], [12.63487, 51.91202], [12.63434, 51.91192], [12.63238, 51.91368], [12.63577, 51.91485], [12.63594, 51.91417], [12.63788, 51.9147], [12.64073, 51.91308], [12.6396, 51.91294], [12.63989, 51.91261], [12.64081, 51.9128], [12.64106, 51.91208], [12.63538, 51.91094]]], [[[12.63882, 51.90942], [12.63866, 51.91033], [12.6381, 51.91019], [12.63777, 51.91083], [12.64185, 51.91198], [12.64222, 51.91099], [12.63901, 51.90962], [12.63954, 51.90941], [12.63882, 51.90942]]], [[[12.64396, 51.89829], [12.6427, 51.90126], [12.64333, 51.9028], [12.64338, 51.90516], [12.64293, 51.90932], [12.64202, 51.91196], [12.64231, 51.91199], [12.6428, 51.9102], [12.64367, 51.91094], [12.64529, 51.9094], [12.64312, 51.90854], [12.64349, 51.90516], [12.64332, 51.90195], [12.64372, 51.90145], [12.64461, 51.90229], [12.64884, 51.90407], [12.64984, 51.89979], [12.64945, 51.89603], [12.64571, 51.89569], [12.64486, 51.89593], [12.64396, 51.89829]]], [[[12.62024, 51.91911], [12.622, 51.91903], [12.62226, 51.9188], [12.6206, 51.91881], [12.62024, 51.91911]]]]}, "properties": {"kind": "windland", "area_km2": 1.49}}, {"type": "Feature", "geometry": {"type": "MultiPolygon", "coordinates": [[[[12.58137, 51.86359], [12.58153, 51.86283], [12.58183, 51.86263], [12.58179, 51.862], [12.58251, 51.86167], [12.58358, 51.85835], [12.58406, 51.8576], [12.58598, 51.85586], [12.58824, 51.85487], [12.58357, 51.85477], [12.58216, 51.85589], [12.58075, 51.8578], [12.57983, 51.86055], [12.57899, 51.86139], [12.57853, 51.86279], [12.57722, 51.86472], [12.57439, 51.86524], [12.57176, 51.86533], [12.56767, 51.86474], [12.56265, 51.86334], [12.5616, 51.86331], [12.5615, 51.86512], [12.56281, 51.86556], [12.5644, 51.86582], [12.5647, 51.86611], [12.56615, 51.86632], [12.56657, 51.86661], [12.56784, 51.86659], [12.56816, 51.86683], [12.56913, 51.86676], [12.56958, 51.86704], [12.5709, 51.86709], [12.57125, 51.86726], [12.5725, 51.86711], [12.57295, 51.86729], [12.57416, 51.86707], [12.57454, 51.8672], [12.57555, 51.86693], [12.5762, 51.86702], [12.57731, 51.86661], [12.57775, 51.86668], [12.57912, 51.8662], [12.58042, 51.86515], [12.58059, 51.86461], [12.58095, 51.86446], [12.58101, 51.8638], [12.58137, 51.86359]]], [[[12.58635, 51.85875], [12.58554, 51.86056], [12.58569, 51.86087], [12.5852, 51.86153], [12.58535, 51.86183], [12.58463, 51.8627], [12.58418, 51.86402], [12.5833, 51.86538], [12.58347, 51.86564], [12.58468, 51.86427], [12.58453, 51.86344], [12.58473, 51.86298], [12.58544, 51.86268], [12.58638, 51.86175], [12.58797, 51.86122], [12.58849, 51.86149], [12.59067, 51.86155], [12.59122, 51.86201], [12.59192, 51.862], [12.59236, 51.86235], [12.59372, 51.86271], [12.59434, 51.86501], [12.59367, 51.86511], [12.59399, 51.86533], [12.59494, 51.86517], [12.59557, 51.8646], [12.5984, 51.86428], [12.60039, 51.8636], [12.60208, 51.8637], [12.60264, 51.86401], [12.60285, 51.86455], [12.60298, 51.86404], [12.60353, 51.86375], [12.60469, 51.86356], [12.60535, 51.86371], [12.60582, 51.86346], [12.6077, 51.86326], [12.60812, 51.86308], [12.60346, 51.86193], [12.60109, 51.86104], [12.59923, 51.85985], [12.59596, 51.85701], [12.59276, 51.85599], [12.59003, 51.85615], [12.58862, 51.85669], [12.58722, 51.85776], [12.58635, 51.85875]], [[12.59003, 51.85856], [12.59048, 51.85812], [12.59121, 51.85785], [12.59211, 51.85781], [12.5932, 51.85812], [12.59396, 51.85848], [12.59726, 51.86122], [12.59662, 51.86141], [12.59574, 51.86102], [12.5947, 51.85982], [12.59299, 51.85896], [12.59143, 51.85861], [12.59003, 51.85856]], [[12.58654, 51.85969], [12.58738, 51.85953], [12.58754, 51.85963], [12.58676, 51.86044], [12.5864, 51.86039], [12.58654, 51.85969]], [[12.59981, 51.86083], [12.60037, 51.8612], [12.6, 51.86149], [12.59916, 51.86126], [12.59947, 51.86088], [12.59981, 51.86083]], [[12.60304, 51.86315], [12.60244, 51.86301], [12.60215, 51.86263], [12.60238, 51.8622], [12.60299, 51.86202], [12.60368, 51.86216], [12.60398, 51.86254], [12.60374, 51.86297], [12.60304, 51.86315]]], [[[12.58346, 51.8666], [12.58367, 51.86678], [12.58599, 51.86658], [12.58705, 51.866], [12.58813, 51.86575], [12.58321, 51.86636], [12.58319, 51.86604], [12.58292, 51.86629], [12.58346, 51.8666]]], [[[12.56945, 51.86883], [12.57047, 51.86896], [12.57134, 51.8689], [12.57033, 51.86888], [12.56945, 51.86883]]], [[[12.5686, 51.87168], [12.56789, 51.87132], [12.56742, 51.86983], [12.56691, 51.86939], [12.56658, 51.86967], [12.56586, 51.86981], [12.56532, 51.86967], [12.56502, 51.86933], [12.56513, 51.86892], [12.56567, 51.86867], [12.56643, 51.86868], [12.56693, 51.86911], [12.56762, 51.86867], [12.56234, 51.86786], [12.56137, 51.86757], [12.56119, 51.87078], [12.56255, 51.87026], [12.56292, 51.86969], [12.56372, 51.86937], [12.56461, 51.8695], [12.56501, 51.87009], [12.56496, 51.87066], [12.56437, 51.87164], [12.56386, 51.87181], [12.56309, 51.87174], [12.56212, 51.87205], [12.56117, 51.87119], [12.56111, 51.8723], [12.55927, 51.87226], [12.56054, 51.87306], [12.56098, 51.8738], [12.56277, 51.87316], [12.5625, 51.87284], [12.56257, 51.87248], [12.56383, 51.87195], [12.56478, 51.87205], [12.56504, 51.8727], [12.5686, 51.87168]]], [[[12.54686, 51.87438], [12.54757, 51.87449], [12.54818, 51.87507], [12.54973, 51.87556], [12.55229, 51.87566], [12.55373, 51.87523], [12.55384, 51.8746], [12.5543, 51.87429], [12.55526, 51.87415], [12.55592, 51.8745], [12.55702, 51.87387], [12.55707, 51.87361], [12.5567, 51.87375], [12.55668, 51.87363], [12.55702, 51.87343], [12.55711, 51.87355], [12.55845, 51.87224], [12.55106, 51.87209], [12.55073, 51.87227], [12.5503, 51.87207], [12.5466, 51.87199], [12.54648, 51.8741], [12.54686, 51.87438]], [[12.55623, 51.87379], [12.55599, 51.87391], [12.55592, 51.87387], [12.55623, 51.87379]], [[12.5493, 51.87377], [12.54892, 51.87381], [12.54877, 51.87366], [12.54909, 51.87363], [12.5493, 51.87377]], [[12.55012, 51.87401], [12.55012, 51.87386], [12.55109, 51.87412], [12.55092, 51.87418], [12.55012, 51.87401]], [[12.55149, 51.87424], [12.55175, 51.87417], [12.55212, 51.8743], [12.55194, 51.87432], [12.55149, 51.87424]]], [[[12.5758, 51.87456], [12.57601, 51.87461], [12.57605, 51.8746], [12.57601, 51.87454], [12.5758, 51.87456]]], [[[12.56064, 51.87452], [12.56035, 51.8747], [12.56029, 51.87527], [12.56161, 51.87494], [12.56116, 51.87434], [12.56064, 51.87452]]], [[[12.56149, 51.87652], [12.56124, 51.87642], [12.5583, 51.87675], [12.55571, 51.87676], [12.557, 51.87687], [12.55737, 51.87746], [12.55799, 51.87708], [12.56281, 51.87655], [12.56149, 51.87652]]], [[[12.55734, 51.87765], [12.55735, 51.87752], [12.55706, 51.8778], [12.55771, 51.87894], [12.55734, 51.87765]]], [[[12.54846, 51.88052], [12.54769, 51.88067], [12.54752, 51.87947], [12.54697, 51.87909], [12.54947, 51.87877], [12.54939, 51.87741], [12.54628, 51.87781], [12.54612, 51.88085], [12.54789, 51.88184], [12.54797, 51.88123], [12.54956, 51.881], [12.54958, 51.88081], [12.54844, 51.88095], [12.54846, 51.88052]]], [[[12.5585, 51.88004], [12.55799, 51.87977], [12.5578, 51.87925], [12.55766, 51.8795], [12.55828, 51.88028], [12.55918, 51.88007], [12.5596, 51.88017], [12.55991, 51.88105], [12.56536, 51.88038], [12.56507, 51.87938], [12.5585, 51.88004]]], [[[12.55681, 51.87978], [12.55691, 51.87998], [12.55736, 51.87988], [12.5581, 51.88129], [12.55765, 51.88157], [12.55811, 51.88184], [12.55833, 51.88171], [12.55858, 51.88213], [12.55973, 51.88297], [12.56042, 51.88404], [12.56072, 51.884], [12.56085, 51.8838], [12.56025, 51.88355], [12.55998, 51.88286], [12.55962, 51.88276], [12.55913, 51.88214], [12.55881, 51.88218], [12.55741, 51.87965], [12.55681, 51.87978]]], [[[12.58558, 51.88109], [12.58564, 51.88075], [12.58247, 51.88152], [12.58305, 51.88197], [12.58292, 51.88243], [12.58321, 51.88312], [12.58272, 51.88354], [12.58251, 51.8843], [12.58091, 51.88459], [12.5806, 51.88499], [12.58058, 51.88542], [12.58135, 51.88579], [12.58133, 51.88625], [12.58071, 51.88659], [12.57982, 51.88645], [12.58019, 51.8868], [12.57846, 51.88707], [12.57896, 51.89042], [12.58193, 51.89035], [12.5851, 51.89088], [12.58798, 51.89106], [12.58856, 51.88894], [12.58843, 51.88785], [12.58774, 51.88688], [12.58719, 51.88665], [12.58698, 51.8863], [12.58738, 51.88575], [12.58797, 51.88554], [12.58903, 51.88586], [12.58917, 51.88627], [12.58876, 51.88673], [12.58933, 51.88695], [12.5905, 51.88801], [12.59089, 51.88802], [12.59096, 51.88826], [12.59028, 51.88871], [12.59012, 51.88907], [12.59053, 51.88978], [12.59082, 51.88993], [12.59199, 51.88964], [12.59204, 51.8894], [12.5911, 51.88928], [12.59126, 51.88873], [12.59227, 51.88875], [12.59298, 51.88842], [12.59377, 51.8886], [12.59634, 51.88964], [12.59488, 51.8897], [12.59477, 51.88935], [12.5944, 51.88919], [12.59362, 51.88949], [12.59303, 51.88913], [12.59259, 51.88952], [12.59265, 51.89003], [12.59235, 51.89048], [12.59256, 51.89091], [12.59316, 51.89074], [12.5938, 51.89099], [12.5949, 51.89009], [12.59643, 51.89035], [12.59561, 51.89108], [12.59641, 51.89096], [12.59785, 51.89137], [12.59822, 51.89183], [12.59773, 51.89247], [12.59875, 51.89264], [12.59913, 51.89205], [12.59963, 51.89184], [12.60067, 51.89198], [12.6011, 51.89225], [12.60122, 51.89185], [12.60058, 51.89158], [12.60049, 51.89114], [12.60028, 51.8911], [12.59993, 51.89175], [12.59863, 51.89161], [12.59967, 51.89096], [12.60122, 51.89065], [12.60069, 51.8894], [12.60188, 51.88894], [12.6001, 51.88894], [12.59782, 51.8893], [12.59806, 51.88854], [12.59911, 51.88824], [12.60096, 51.88803], [12.60096, 51.88861], [12.60212, 51.88862], [12.60267, 51.88841], [12.60163, 51.88826], [12.60131, 51.88764], [12.60165, 51.88728], [12.60253, 51.88712], [12.60359, 51.88754], [12.6035, 51.88817], [12.60477, 51.88794], [12.60651, 51.88838], [12.60735, 51.88805], [12.60826, 51.88839], [12.60892, 51.88826], [12.60953, 51.88838], [12.60981, 51.88784], [12.60758, 51.88559], [12.60749, 51.88458], [12.60788, 51.88345], [12.60729, 51.88313], [12.60611, 51.88298], [12.60566, 51.88274], [12.60452, 51.87973], [12.60291, 51.87968], [12.60177, 51.87985], [12.60197, 51.87948], [12.60123, 51.87801], [12.60082, 51.8781], [12.60066, 51.87855], [12.59993, 51.87893], [12.59887, 51.87891], [12.59835, 51.87867], [12.59626, 51.88123], [12.59822, 51.88268], [12.6008, 51.88277], [12.601, 51.88118], [12.60191, 51.8812], [12.60294, 51.88183], [12.60402, 51.88433], [12.60385, 51.88505], [12.60484, 51.88547], [12.60334, 51.88558], [12.60334, 51.88589], [12.60248, 51.88608], [12.60265, 51.88698], [12.60141, 51.88725], [12.60118, 51.88578], [12.60063, 51.88579], [12.59657, 51.88726], [12.59657, 51.88814], [12.59552, 51.88823], [12.59313, 51.88801], [12.5915, 51.88719], [12.58767, 51.88332], [12.58897, 51.883], [12.58943, 51.88247], [12.58926, 51.88216], [12.58852, 51.88242], [12.58757, 51.8832], [12.58665, 51.88226], [12.5859, 51.88201], [12.58558, 51.88109]], [[12.58387, 51.88887], [12.58396, 51.88883], [12.58436, 51.88904], [12.58372, 51.88894], [12.58387, 51.88887]]], [[[12.58885, 51.88186], [12.58935, 51.88177], [12.58932, 51.88163], [12.588, 51.88177], [12.58821, 51.88195], [12.58885, 51.88186]]], [[[12.57214, 51.88207], [12.57214, 51.88207], [12.57214, 51.88207], [12.57214, 51.88207]]], [[[12.57159, 51.88237], [12.57037, 51.88261], [12.56893, 51.88251], [12.56844, 51.88204], [12.56843, 51.88158], [12.56804, 51.88163], [12.56805, 51.88211], [12.56725, 51.88246], [12.56722, 51.88288], [12.56654, 51.88337], [12.56666, 51.88358], [12.5677, 51.88359], [12.568, 51.88326], [12.56856, 51.88313], [12.57315, 51.88304], [12.57408, 51.88332], [12.5741, 51.88204], [12.57398, 51.8825], [12.57362, 51.88234], [12.57159, 51.88237]]], [[[12.55896, 51.88323], [12.55881, 51.88309], [12.55611, 51.8838], [12.55648, 51.88428], [12.55565, 51.8844], [12.55572, 51.88453], [12.55666, 51.88457], [12.55588, 51.88475], [12.55595, 51.88484], [12.55697, 51.88473], [12.55754, 51.88533], [12.55727, 51.88554], [12.55749, 51.88569], [12.55917, 51.8854], [12.55998, 51.8861], [12.55927, 51.88643], [12.56093, 51.88646], [12.55896, 51.88323]]], [[[12.57258, 51.88539], [12.57173, 51.88548], [12.57164, 51.88642], [12.57334, 51.88626], [12.57324, 51.88572], [12.57355, 51.88556], [12.5735, 51.8853], [12.57258, 51.88539]]], [[[12.56947, 51.88551], [12.56906, 51.88545], [12.56556, 51.8855], [12.56574, 51.88599], [12.56607, 51.88607], [12.56891, 51.88588], [12.57088, 51.88607], [12.57085, 51.88549], [12.56947, 51.88551]]], [[[12.55608, 51.8853], [12.55618, 51.88592], [12.55675, 51.88617], [12.55693, 51.8861], [12.55675, 51.88574], [12.55608, 51.8853]]], [[[12.57928, 51.88618], [12.57922, 51.88638], [12.57968, 51.88633], [12.57959, 51.8862], [12.57928, 51.88618]]], [[[12.56218, 51.88644], [12.56213, 51.88636], [12.56186, 51.88643], [12.56192, 51.88649], [12.56218, 51.88644]]], [[[12.5628, 51.88692], [12.56316, 51.88752], [12.56441, 51.88752], [12.56351, 51.88748], [12.56316, 51.88679], [12.5627, 51.88677], [12.5628, 51.88692]]], [[[12.56461, 51.89008], [12.56282, 51.88854], [12.56107, 51.88666], [12.56079, 51.8869], [12.55881, 51.88687], [12.55751, 51.88778], [12.55792, 51.88807], [12.55807, 51.88908], [12.55869, 51.89003], [12.56112, 51.89227], [12.56254, 51.89302], [12.56332, 51.89441], [12.56464, 51.89566], [12.5658, 51.8964], [12.56687, 51.8968], [12.56984, 51.89472], [12.56775, 51.89327], [12.56722, 51.89245], [12.56461, 51.89008]]], [[[12.57574, 51.89011], [12.57585, 51.89029], [12.57622, 51.89025], [12.5767, 51.89053], [12.57716, 51.89047], [12.57704, 51.88996], [12.5764, 51.89019], [12.57608, 51.89003], [12.57574, 51.89011]]], [[[12.56958, 51.89028], [12.56848, 51.89064], [12.56626, 51.89056], [12.56734, 51.89158], [12.56887, 51.89114], [12.5698, 51.89111], [12.56976, 51.89025], [12.56958, 51.89028]]], [[[12.53513, 51.89261], [12.53754, 51.89166], [12.53849, 51.89084], [12.53902, 51.88982], [12.5334, 51.88982], [12.5311, 51.88966], [12.53095, 51.89243], [12.53289, 51.89276], [12.53513, 51.89261]]], [[[12.57146, 51.89261], [12.57141, 51.89256], [12.57133, 51.89249], [12.57134, 51.89261], [12.57146, 51.89261]]], [[[12.57296, 51.89272], [12.57236, 51.89279], [12.57257, 51.89305], [12.57319, 51.89306], [12.57365, 51.8933], [12.57361, 51.89403], [12.57459, 51.89399], [12.57454, 51.89221], [12.57451, 51.89269], [12.57296, 51.89272]]], [[[12.57181, 51.89396], [12.57034, 51.89409], [12.57014, 51.89421], [12.57031, 51.8944], [12.57066, 51.89415], [12.57218, 51.89409], [12.57181, 51.89396]]], [[[12.57911, 51.9017], [12.57906, 51.90187], [12.57992, 51.90212], [12.57764, 51.90033], [12.57634, 51.90104], [12.57673, 51.90111], [12.57727, 51.90082], [12.5781, 51.9008], [12.57901, 51.90149], [12.57669, 51.90138], [12.57676, 51.90197], [12.5789, 51.90192], [12.57911, 51.9017]]], [[[12.58604, 51.90785], [12.58713, 51.9067], [12.58744, 51.90569], [12.58612, 51.90571], [12.58614, 51.90669], [12.58643, 51.90668], [12.58642, 51.90685], [12.58445, 51.90691], [12.58438, 51.90502], [12.58256, 51.90509], [12.58253, 51.90482], [12.58455, 51.9039], [12.58727, 51.9047], [12.58659, 51.90371], [12.58619, 51.90217], [12.58553, 51.90135], [12.58525, 51.9018], [12.58579, 51.90248], [12.58539, 51.90285], [12.58444, 51.90195], [12.58287, 51.9031], [12.58309, 51.90346], [12.5842, 51.90379], [12.5824, 51.9046], [12.58279, 51.90434], [12.58156, 51.90362], [12.58136, 51.90375], [12.58186, 51.90412], [12.58194, 51.90497], [12.58264, 51.90542], [12.58239, 51.90594], [12.58138, 51.90609], [12.58037, 51.90546], [12.5792, 51.90586], [12.57894, 51.90617], [12.57794, 51.90637], [12.5776, 51.90636], [12.57686, 51.90419], [12.57735, 51.90396], [12.57831, 51.90409], [12.57846, 51.90398], [12.57833, 51.90375], [12.57758, 51.90348], [12.57759, 51.90323], [12.57694, 51.90318], [12.57641, 51.90205], [12.57559, 51.90176], [12.57371, 51.90465], [12.57372, 51.90568], [12.57423, 51.9067], [12.57434, 51.90683], [12.57575, 51.90688], [12.57655, 51.90667], [12.57845, 51.9071], [12.57963, 51.90738], [12.5794, 51.90801], [12.58032, 51.90813], [12.58008, 51.90858], [12.57812, 51.9085], [12.57818, 51.90797], [12.57638, 51.90774], [12.57572, 51.90787], [12.57746, 51.90849], [12.58017, 51.90895], [12.5807, 51.90746], [12.58445, 51.9074], [12.58444, 51.90866], [12.58604, 51.90785]]], [[[12.58519, 51.91034], [12.585, 51.9106], [12.58539, 51.91061], [12.58538, 51.91041], [12.58737, 51.91039], [12.58745, 51.90953], [12.58807, 51.90955], [12.58814, 51.9093], [12.58901, 51.90936], [12.58915, 51.90864], [12.58965, 51.90863], [12.58951, 51.90949], [12.5915, 51.90948], [12.59109, 51.91084], [12.59159, 51.9109], [12.59137, 51.9113], [12.5896, 51.91093], [12.58964, 51.91123], [12.58994, 51.91136], [12.59224, 51.91138], [12.59256, 51.91013], [12.59184, 51.90967], [12.59216, 51.90903], [12.59119, 51.90898], [12.59138, 51.90818], [12.59181, 51.90822], [12.59194, 51.90754], [12.59391, 51.90775], [12.59477, 51.90749], [12.59553, 51.90781], [12.5966, 51.90722], [12.59259, 51.90661], [12.59325, 51.90572], [12.59663, 51.90607], [12.59721, 51.90535], [12.59668, 51.90528], [12.59676, 51.90297], [12.59622, 51.90293], [12.59529, 51.90341], [12.59409, 51.90455], [12.592, 51.90495], [12.59062, 51.90559], [12.58954, 51.90655], [12.58832, 51.90726], [12.58742, 51.90824], [12.5871, 51.90897], [12.5861, 51.9095], [12.58519, 51.91034]]], [[[12.58429, 51.91191], [12.58462, 51.913], [12.58379, 51.91468], [12.58478, 51.91408], [12.58516, 51.91335], [12.58516, 51.91266], [12.5866, 51.91263], [12.58666, 51.91203], [12.58621, 51.91196], [12.58626, 51.91177], [12.58697, 51.91183], [12.58739, 51.91155], [12.58877, 51.91165], [12.58828, 51.91082], [12.58752, 51.91084], [12.58543, 51.91112], [12.58539, 51.91129], [12.58443, 51.91125], [12.58429, 51.91191]]], [[[12.5847, 51.91912], [12.58435, 51.91957], [12.58558, 51.91954], [12.58713, 51.91974], [12.58658, 51.92245], [12.58655, 51.92335], [12.58817, 51.92649], [12.58665, 51.92334], [12.58733, 51.91937], [12.58936, 51.91948], [12.58923, 51.92034], [12.58953, 51.91922], [12.59017, 51.91882], [12.59084, 51.91874], [12.59127, 51.91768], [12.59078, 51.91743], [12.59068, 51.91704], [12.58939, 51.91736], [12.58803, 51.9181], [12.58721, 51.91797], [12.5869, 51.91824], [12.5855, 51.91847], [12.58472, 51.91833], [12.58491, 51.91846], [12.5847, 51.91912]]], [[[12.57949, 51.9239], [12.582, 51.9247], [12.58249, 51.92512], [12.58223, 51.92627], [12.58354, 51.92594], [12.58288, 51.923], [12.58086, 51.92332], [12.57949, 51.9239]]], [[[12.54366, 51.92589], [12.54416, 51.9259], [12.5437, 51.92522], [12.54366, 51.92589]]], [[[12.58261, 51.92688], [12.58246, 51.92674], [12.58235, 51.92693], [12.58253, 51.92701], [12.58261, 51.92688]]], [[[12.58505, 51.92721], [12.58598, 51.92716], [12.58584, 51.92678], [12.58518, 51.92677], [12.58505, 51.92721]]], [[[12.58562, 51.93234], [12.5857, 51.93239], [12.58613, 51.93222], [12.58575, 51.93224], [12.58562, 51.93234]]], [[[12.57954, 51.93376], [12.58351, 51.93369], [12.58361, 51.93381], [12.58695, 51.93358], [12.5869, 51.93389], [12.58611, 51.93389], [12.587, 51.93441], [12.5858, 51.93556], [12.58388, 51.93561], [12.58545, 51.93606], [12.58705, 51.93619], [12.5872, 51.9377], [12.58789, 51.93864], [12.58862, 51.93921], [12.58987, 51.93929], [12.59021, 51.93898], [12.58904, 51.93877], [12.58901, 51.93834], [12.58936, 51.93804], [12.59023, 51.93823], [12.59042, 51.9385], [12.59112, 51.93872], [12.59154, 51.93858], [12.59157, 51.93776], [12.58933, 51.93729], [12.58808, 51.93674], [12.58803, 51.93649], [12.58912, 51.93649], [12.5894, 51.93572], [12.59178, 51.93666], [12.59194, 51.93624], [12.58747, 51.93473], [12.58933, 51.93514], [12.58952, 51.93411], [12.58987, 51.93418], [12.58978, 51.93457], [12.59028, 51.93421], [12.58957, 51.93394], [12.5897, 51.93344], [12.5895, 51.93334], [12.58987, 51.93317], [12.58901, 51.933], [12.58595, 51.93328], [12.58569, 51.93283], [12.58267, 51.93261], [12.58308, 51.93323], [12.57912, 51.93333], [12.57954, 51.93376]], [[12.58718, 51.93359], [12.58954, 51.93347], [12.58932, 51.93457], [12.58703, 51.93451], [12.58718, 51.93359]]], [[[12.60529, 51.84666], [12.60458, 51.84663], [12.60447, 51.84621], [12.59225, 51.84596], [12.59223, 51.84653], [12.59153, 51.84688], [12.59128, 51.85143], [12.59169, 51.85129], [12.59282, 51.85148], [12.59436, 51.85145], [12.59733, 51.85067], [12.59869, 51.85053], [12.60116, 51.85088], [12.60049, 51.85182], [12.60029, 51.85284], [12.60108, 51.85455], [12.60298, 51.85578], [12.6045, 51.8562], [12.60614, 51.85632], [12.60861, 51.85593], [12.61077, 51.85488], [12.61177, 51.85366], [12.61184, 51.85202], [12.61373, 51.85084], [12.61421, 51.85013], [12.61429, 51.84941], [12.61607, 51.84963], [12.61754, 51.84954], [12.62098, 51.85007], [12.62266, 51.85003], [12.62326, 51.85079], [12.62395, 51.85122], [12.62453, 51.85222], [12.62437, 51.85361], [12.62495, 51.8546], [12.6265, 51.85539], [12.62917, 51.8558], [12.63118, 51.85539], [12.63229, 51.85467], [12.6327, 51.85399], [12.63279, 51.85304], [12.6325, 51.8524], [12.63159, 51.85164], [12.63134, 51.85115], [12.63252, 51.85033], [12.63303, 51.84941], [12.63496, 51.84918], [12.63509, 51.84683], [12.62951, 51.84672], [12.62864, 51.84728], [12.62717, 51.84733], [12.62564, 51.84703], [12.62317, 51.84708], [12.62239, 51.84686], [12.62195, 51.84709], [12.62138, 51.84712], [12.61998, 51.84675], [12.61894, 51.84674], [12.6183, 51.84649], [12.61703, 51.84646], [12.61624, 51.84667], [12.61542, 51.84643], [12.61221, 51.84637], [12.61, 51.84687], [12.6085, 51.84772], [12.60652, 51.84823], [12.61009, 51.84945], [12.61064, 51.84924], [12.61117, 51.84936], [12.61124, 51.84985], [12.61057, 51.85007], [12.61023, 51.85047], [12.60854, 51.84998], [12.60721, 51.85004], [12.60596, 51.84923], [12.60471, 51.84882], [12.60424, 51.84917], [12.60229, 51.84914], [12.59962, 51.84879], [12.59933, 51.84861], [12.59935, 51.84821], [12.59768, 51.84881], [12.59636, 51.8489], [12.59428, 51.84958], [12.59322, 51.84967], [12.59196, 51.84932], [12.59182, 51.84889], [12.59205, 51.84861], [12.59571, 51.84766], [12.59713, 51.84752], [12.59766, 51.84781], [12.59924, 51.84709], [12.59986, 51.84742], [12.59978, 51.84804], [12.60163, 51.8482], [12.60054, 51.84766], [12.60093, 51.84723], [12.60542, 51.84769], [12.60722, 51.84724], [12.60951, 51.84631], [12.60675, 51.84628], [12.60529, 51.84666]], [[12.6056, 51.85331], [12.60511, 51.85292], [12.6052, 51.85245], [12.60606, 51.85213], [12.60673, 51.8522], [12.60717, 51.85261], [12.60706, 51.85302], [12.60628, 51.85334], [12.6056, 51.85331]], [[12.62952, 51.84891], [12.62993, 51.84896], [12.63009, 51.84923], [12.6293, 51.84969], [12.62663, 51.84993], [12.62581, 51.84979], [12.62552, 51.84955], [12.62592, 51.84916], [12.62952, 51.84891]], [[12.62868, 51.85035], [12.62799, 51.85066], [12.6284, 51.85139], [12.62831, 51.85171], [12.62868, 51.85209], [12.62843, 51.85232], [12.62793, 51.85237], [12.62752, 51.8522], [12.62762, 51.85181], [12.62692, 51.85111], [12.62709, 51.85062], [12.62684, 51.85023], [12.62727, 51.84999], [12.6283, 51.84991], [12.62864, 51.85004], [12.62868, 51.85035]], [[12.62731, 51.85336], [12.62765, 51.85277], [12.62805, 51.85258], [12.62963, 51.85302], [12.62986, 51.8533], [12.6297, 51.85377], [12.62902, 51.85396], [12.62771, 51.85371], [12.62731, 51.85336]]], [[[12.60001, 51.85408], [12.59725, 51.85308], [12.59461, 51.85267], [12.59314, 51.85189], [12.59127, 51.85165], [12.59117, 51.85358], [12.59157, 51.85348], [12.59207, 51.85363], [12.59242, 51.85433], [12.59624, 51.8548], [12.59742, 51.85539], [12.59794, 51.8554], [12.59816, 51.85588], [12.59909, 51.85627], [12.60147, 51.85848], [12.60394, 51.86], [12.60714, 51.86101], [12.60847, 51.86106], [12.60887, 51.86136], [12.60954, 51.86145], [12.60993, 51.86128], [12.61045, 51.86131], [12.61078, 51.86161], [12.61211, 51.86141], [12.61269, 51.86167], [12.61435, 51.86152], [12.61999, 51.86025], [12.62086, 51.8602], [12.62266, 51.85968], [12.63093, 51.8583], [12.63276, 51.85787], [12.63292, 51.85769], [12.63307, 51.85782], [12.6338, 51.85775], [12.63626, 51.85718], [12.63634, 51.85744], [12.63588, 51.85755], [12.63704, 51.85737], [12.63854, 51.85655], [12.64021, 51.85621], [12.64014, 51.85592], [12.63386, 51.85578], [12.62188, 51.85791], [12.61393, 51.85964], [12.61156, 51.85961], [12.60812, 51.85922], [12.60551, 51.85841], [12.60382, 51.85728], [12.60001, 51.85408]], [[12.60084, 51.85656], [12.60182, 51.85737], [12.60458, 51.8589], [12.60458, 51.85963], [12.6039, 51.85945], [12.60118, 51.85766], [12.6007, 51.85721], [12.60065, 51.85671], [12.5991, 51.85614], [12.5983, 51.8555], [12.60084, 51.85656]]], [[[12.60213, 51.87177], [12.60228, 51.87168], [12.60251, 51.8716], [12.60191, 51.87166], [12.60213, 51.87177]]], [[[12.60185, 51.8772], [12.60322, 51.87666], [12.60243, 51.8757], [12.60146, 51.8762], [12.60126, 51.87692], [12.60151, 51.87694], [12.6009, 51.87751], [12.60185, 51.8772]]], [[[12.59986, 51.87752], [12.60015, 51.87764], [12.60016, 51.8774], [12.60001, 51.8774], [12.59986, 51.87752]]], [[[12.59183, 51.87759], [12.59199, 51.87865], [12.5934, 51.87831], [12.59308, 51.87716], [12.59259, 51.87694], [12.59243, 51.87658], [12.59206, 51.87688], [12.59132, 51.87698], [12.59142, 51.87738], [12.59183, 51.87759]]], [[[12.59709, 51.87892], [12.59659, 51.87871], [12.59642, 51.87836], [12.59616, 51.87837], [12.5916, 51.87932], [12.59305, 51.88004], [12.59355, 51.88071], [12.59418, 51.88097], [12.595, 51.88015], [12.59605, 51.88015], [12.59709, 51.87892]]], [[[12.59016, 51.88064], [12.58998, 51.8807], [12.59024, 51.88093], [12.5906, 51.8806], [12.59114, 51.88048], [12.59016, 51.88064]]], [[[12.59453, 51.88227], [12.59458, 51.88223], [12.59437, 51.88218], [12.59453, 51.88227]]], [[[12.59139, 51.88458], [12.59195, 51.88452], [12.59255, 51.88419], [12.59144, 51.88371], [12.59084, 51.88423], [12.59139, 51.88458]]], [[[12.5925, 51.89157], [12.59273, 51.89121], [12.59254, 51.89105], [12.59166, 51.89134], [12.5916, 51.8915], [12.5925, 51.89157]]], [[[12.59206, 51.89213], [12.59148, 51.89204], [12.59167, 51.89275], [12.59264, 51.89239], [12.59268, 51.89225], [12.59206, 51.89213]]], [[[12.59897, 51.89926], [12.60075, 51.89694], [12.59925, 51.89663], [12.59886, 51.89622], [12.59955, 51.89467], [12.59994, 51.89424], [12.60028, 51.89429], [12.60027, 51.89427], [12.59898, 51.89392], [12.59786, 51.89386], [12.59836, 51.89425], [12.59823, 51.89472], [12.59766, 51.89496], [12.59684, 51.89487], [12.59637, 51.8945], [12.59639, 51.89411], [12.59687, 51.89379], [12.59756, 51.89376], [12.59687, 51.8932], [12.59645, 51.89361], [12.59496, 51.89405], [12.59495, 51.8944], [12.59531, 51.89467], [12.59506, 51.89493], [12.59445, 51.89474], [12.59434, 51.89566], [12.5951, 51.89571], [12.59388, 51.89696], [12.59532, 51.89837], [12.59633, 51.89897], [12.5965, 51.90007], [12.5995, 51.90065], [12.59909, 51.9001], [12.59897, 51.89926]]], [[[12.60123, 51.90766], [12.60027, 51.90829], [12.59934, 51.90852], [12.59941, 51.90918], [12.59884, 51.90951], [12.59783, 51.91075], [12.59739, 51.91056], [12.59755, 51.9103], [12.59594, 51.91104], [12.59611, 51.91117], [12.59657, 51.91096], [12.59718, 51.91098], [12.59789, 51.91148], [12.59767, 51.91193], [12.59689, 51.91252], [12.59593, 51.91265], [12.59613, 51.91322], [12.59744, 51.91347], [12.59787, 51.91385], [12.59789, 51.91462], [12.5968, 51.91554], [12.59788, 51.91595], [12.59823, 51.91555], [12.59896, 51.91538], [12.60081, 51.91544], [12.60129, 51.91572], [12.60099, 51.91682], [12.59941, 51.91699], [12.60155, 51.91793], [12.6031, 51.91908], [12.60545, 51.91918], [12.60598, 51.91305], [12.60526, 51.91287], [12.60452, 51.91203], [12.60489, 51.91037], [12.60363, 51.91004], [12.60269, 51.9092], [12.6014, 51.90895], [12.60209, 51.90792], [12.60123, 51.90766]], [[12.59908, 51.91292], [12.60154, 51.91323], [12.60145, 51.91402], [12.59836, 51.91358], [12.59843, 51.91344], [12.59795, 51.91316], [12.5986, 51.91315], [12.59908, 51.91292]]], [[[12.59604, 51.90859], [12.59604, 51.90859], [12.59609, 51.90873], [12.59625, 51.90863], [12.59604, 51.90859]]], [[[12.59017, 51.91348], [12.58984, 51.91391], [12.59083, 51.91313], [12.59017, 51.91348]]], [[[12.59574, 51.91587], [12.59578, 51.91583], [12.59571, 51.91591], [12.59574, 51.91587]]], [[[12.58815, 51.91602], [12.58823, 51.91579], [12.58856, 51.91543], [12.58777, 51.91544], [12.58725, 51.91605], [12.58821, 51.91626], [12.58815, 51.91602]]], [[[12.59227, 51.91563], [12.59217, 51.91589], [12.59173, 51.91634], [12.59252, 51.91612], [12.5928, 51.91554], [12.59227, 51.91563]]], [[[12.59085, 51.91678], [12.59077, 51.9168], [12.59073, 51.9168], [12.59082, 51.91682], [12.59085, 51.91678]]], [[[12.59465, 51.91731], [12.59333, 51.91802], [12.5929, 51.91898], [12.59189, 51.91924], [12.59121, 51.92171], [12.59233, 51.92195], [12.5926, 51.92158], [12.59343, 51.92179], [12.59255, 51.92307], [12.5904, 51.92252], [12.58947, 51.92374], [12.59241, 51.92434], [12.59404, 51.92444], [12.59452, 51.92488], [12.59419, 51.92542], [12.59616, 51.92587], [12.59717, 51.92546], [12.59793, 51.92578], [12.5984, 51.92563], [12.599, 51.92568], [12.59953, 51.92615], [12.60164, 51.92649], [12.60169, 51.92708], [12.60216, 51.92734], [12.60319, 51.92748], [12.60472, 51.9237], [12.6022, 51.92332], [12.60199, 51.92354], [12.59979, 51.92314], [12.59748, 51.92251], [12.59716, 51.92218], [12.59608, 51.92177], [12.59634, 51.92104], [12.59739, 51.92009], [12.59834, 51.92013], [12.59864, 51.92107], [12.60056, 51.92151], [12.60096, 51.92012], [12.59994, 51.9199], [12.60016, 51.91904], [12.59524, 51.91796], [12.59508, 51.91712], [12.59465, 51.91731]], [[12.60069, 51.92361], [12.60179, 51.92378], [12.6011, 51.92488], [12.59909, 51.92451], [12.60069, 51.92361]]], [[[12.589, 51.92211], [12.58886, 51.922], [12.58876, 51.92187], [12.58872, 51.92203], [12.589, 51.92211]]], [[[12.58869, 51.9234], [12.58914, 51.92269], [12.58816, 51.92251], [12.58846, 51.92387], [12.58869, 51.9234]]], [[[12.59329, 51.92709], [12.59298, 51.92729], [12.59362, 51.92738], [12.59337, 51.92699], [12.59329, 51.92709]]], [[[12.5867, 51.92725], [12.5865, 51.92701], [12.58633, 51.92702], [12.5863, 51.92721], [12.5867, 51.92725]]], [[[12.59613, 51.92813], [12.59661, 51.92847], [12.59702, 51.92843], [12.59578, 51.92787], [12.59557, 51.92789], [12.59613, 51.92813]]], [[[12.59074, 51.92826], [12.59055, 51.92818], [12.59021, 51.92802], [12.5908, 51.92849], [12.59102, 51.92832], [12.59074, 51.92826]]], [[[12.59881, 51.92955], [12.60021, 51.92977], [12.60071, 51.92931], [12.60035, 51.92897], [12.59911, 51.9287], [12.59869, 51.92843], [12.59767, 51.92831], [12.59801, 51.92879], [12.59867, 51.92899], [12.59834, 51.92925], [12.59881, 51.92955]]], [[[12.58943, 51.92927], [12.58878, 51.92868], [12.58869, 51.92866], [12.58925, 51.9292], [12.58943, 51.92927]]], [[[12.59047, 51.92988], [12.59042, 51.92986], [12.59042, 51.92988], [12.59047, 51.92988]]], [[[12.59555, 51.9344], [12.5952, 51.93423], [12.59507, 51.93373], [12.59561, 51.93341], [12.59708, 51.93347], [12.5973, 51.93257], [12.59622, 51.93282], [12.59475, 51.93271], [12.59143, 51.9329], [12.59059, 51.93268], [12.59053, 51.93318], [12.59176, 51.93311], [12.59306, 51.93343], [12.59247, 51.93403], [12.59125, 51.93379], [12.59094, 51.93354], [12.59125, 51.93399], [12.59164, 51.93411], [12.59173, 51.93392], [12.59382, 51.93454], [12.59491, 51.93464], [12.59487, 51.93477], [12.59555, 51.9344]]], [[[12.59655, 51.93446], [12.59684, 51.93466], [12.59692, 51.93467], [12.59693, 51.93441], [12.59655, 51.93446]]], [[[12.59882, 51.93642], [12.5989, 51.93659], [12.59937, 51.93639], [12.5994, 51.93582], [12.59988, 51.9355], [12.5999, 51.93413], [12.60035, 51.93361], [12.60116, 51.93334], [12.60123, 51.93276], [12.60058, 51.93256], [12.60011, 51.93197], [12.59943, 51.93247], [12.59867, 51.93251], [12.59803, 51.93311], [12.59781, 51.9352], [12.59867, 51.93568], [12.59882, 51.93642]]], [[[12.59681, 51.9393], [12.59718, 51.93771], [12.59711, 51.93767], [12.59663, 51.93994], [12.59681, 51.9393]]], [[[12.59559, 51.93869], [12.59511, 51.93872], [12.59482, 51.93846], [12.59439, 51.93853], [12.59441, 51.93876], [12.59464, 51.93878], [12.59453, 51.93923], [12.59314, 51.93932], [12.59314, 51.93949], [12.59585, 51.93949], [12.59654, 51.93922], [12.59651, 51.93879], [12.59559, 51.93869]]], [[[12.59995, 51.9408], [12.59885, 51.94054], [12.59859, 51.93962], [12.59868, 51.93912], [12.59906, 51.93907], [12.59875, 51.93805], [12.5993, 51.93752], [12.5993, 51.93716], [12.59898, 51.93753], [12.59811, 51.93778], [12.59788, 51.93942], [12.59748, 51.94003], [12.59785, 51.94112], [12.60013, 51.94109], [12.59995, 51.9408]]], [[[12.59614, 51.94341], [12.59668, 51.94298], [12.5965, 51.94262], [12.59446, 51.94271], [12.59304, 51.94333], [12.59306, 51.94348], [12.59485, 51.94318], [12.59614, 51.94341]]], [[[12.59962, 51.94379], [12.59927, 51.94368], [12.59908, 51.94384], [12.59853, 51.9438], [12.59858, 51.94363], [12.59818, 51.94363], [12.59787, 51.9433], [12.59731, 51.94323], [12.59706, 51.94367], [12.59655, 51.94373], [12.59641, 51.94471], [12.59561, 51.94495], [12.59805, 51.945], [12.59824, 51.94476], [12.59831, 51.94501], [12.60012, 51.94504], [12.59999, 51.94384], [12.59962, 51.94379]]], [[[12.60447, 51.87029], [12.60445, 51.8698], [12.60355, 51.8699], [12.6031, 51.87054], [12.6017, 51.87061], [12.60165, 51.87105], [12.60486, 51.87069], [12.60447, 51.87029]]], [[[12.60437, 51.87142], [12.60437, 51.87141], [12.60372, 51.87147], [12.60439, 51.87146], [12.60437, 51.87142]]], [[[12.60291, 51.87233], [12.60299, 51.87238], [12.60304, 51.87205], [12.60266, 51.87223], [12.60291, 51.87233]]], [[[12.61152, 51.8729], [12.61189, 51.87281], [12.61164, 51.87235], [12.60938, 51.87207], [12.6089, 51.8718], [12.60874, 51.87143], [12.60808, 51.87178], [12.60753, 51.87255], [12.60743, 51.87329], [12.60788, 51.8737], [12.60789, 51.87452], [12.60827, 51.87483], [12.60855, 51.87576], [12.60912, 51.87572], [12.60942, 51.87542], [12.61021, 51.87515], [12.60985, 51.87425], [12.60942, 51.87394], [12.61008, 51.87347], [12.61152, 51.8729]]], [[[12.60623, 51.87262], [12.60586, 51.8721], [12.60513, 51.87199], [12.60506, 51.87265], [12.60406, 51.87288], [12.60435, 51.87365], [12.60491, 51.87382], [12.60517, 51.87416], [12.60506, 51.87453], [12.60453, 51.87482], [12.60478, 51.87522], [12.60536, 51.87474], [12.60594, 51.87462], [12.60601, 51.87371], [12.60645, 51.87334], [12.60623, 51.87262]]], [[[12.60329, 51.87275], [12.60324, 51.87272], [12.60335, 51.87278], [12.60329, 51.87275]]], [[[12.6035, 51.87284], [12.60343, 51.87282], [12.60343, 51.87291], [12.60361, 51.87286], [12.6035, 51.87284]]], [[[12.60486, 51.87558], [12.6051, 51.87568], [12.60498, 51.87539], [12.60482, 51.8754], [12.60486, 51.87558]]], [[[12.61392, 51.87486], [12.61262, 51.87532], [12.61267, 51.87577], [12.6122, 51.87612], [12.61264, 51.87679], [12.61111, 51.87789], [12.6101, 51.87803], [12.60914, 51.87746], [12.60922, 51.87858], [12.6103, 51.88155], [12.61153, 51.88116], [12.61108, 51.88078], [12.61106, 51.88041], [12.61228, 51.87951], [12.6131, 51.87958], [12.61353, 51.87988], [12.61357, 51.88026], [12.61437, 51.88057], [12.61621, 51.88007], [12.61547, 51.87939], [12.6149, 51.87925], [12.6145, 51.87889], [12.61361, 51.879], [12.61296, 51.87858], [12.61285, 51.87752], [12.61363, 51.87719], [12.61431, 51.8772], [12.61459, 51.87686], [12.61392, 51.87486]], [[12.61131, 51.87852], [12.6117, 51.87894], [12.61135, 51.87948], [12.61078, 51.87973], [12.61004, 51.87964], [12.60961, 51.87928], [12.60972, 51.87865], [12.61045, 51.87833], [12.61131, 51.87852]]], [[[12.60208, 51.87775], [12.60201, 51.87777], [12.60247, 51.87886], [12.60348, 51.87807], [12.6024, 51.87763], [12.60208, 51.87775]]], [[[12.60325, 51.88836], [12.6032, 51.88832], [12.60311, 51.88835], [12.60318, 51.88838], [12.60325, 51.88836]]], [[[12.60262, 51.88976], [12.60301, 51.88959], [12.60336, 51.88953], [12.60259, 51.88939], [12.60262, 51.88976]]], [[[12.61045, 51.88843], [12.60996, 51.88913], [12.6104, 51.88945], [12.61044, 51.89019], [12.60986, 51.89069], [12.61026, 51.89177], [12.60984, 51.8921], [12.60887, 51.89226], [12.60924, 51.89325], [12.60878, 51.89577], [12.60898, 51.89582], [12.61133, 51.89446], [12.61186, 51.89358], [12.61187, 51.89217], [12.61131, 51.88928], [12.61045, 51.88843]]], [[[12.60176, 51.89061], [12.60208, 51.89043], [12.60248, 51.88983], [12.60158, 51.88982], [12.60133, 51.88997], [12.60164, 51.89013], [12.60176, 51.89061]]], [[[12.60672, 51.89515], [12.60673, 51.89515], [12.60674, 51.89513], [12.60672, 51.89515]]], [[[12.61107, 51.89565], [12.61217, 51.89588], [12.6127, 51.8966], [12.61229, 51.8945], [12.61086, 51.89559], [12.61107, 51.89565]]], [[[12.60331, 51.89718], [12.60162, 51.89708], [12.59984, 51.8993], [12.59997, 51.90003], [12.60066, 51.90087], [12.60281, 51.90129], [12.60194, 51.90246], [12.60209, 51.90302], [12.60133, 51.90465], [12.60239, 51.90486], [12.60167, 51.90598], [12.60282, 51.90593], [12.60482, 51.90188], [12.6043, 51.9012], [12.6043, 51.90014], [12.60499, 51.89812], [12.60384, 51.89805], [12.60335, 51.89762], [12.60331, 51.89718]]], [[[12.61322, 51.89793], [12.61303, 51.89821], [12.61346, 51.89878], [12.61389, 51.89856], [12.61322, 51.89793]]], [[[12.61017, 51.89892], [12.61018, 51.8993], [12.6106, 51.89929], [12.61027, 51.89894], [12.61017, 51.89892]]], [[[12.60675, 51.89968], [12.60671, 51.89971], [12.60677, 51.89974], [12.60676, 51.89971], [12.60675, 51.89968]]], [[[12.60916, 51.90092], [12.60924, 51.90096], [12.60927, 51.90092], [12.60919, 51.90092], [12.60916, 51.90092]]], [[[12.61274, 51.9028], [12.613, 51.90303], [12.61334, 51.9032], [12.61279, 51.9025], [12.61274, 51.9028]]], [[[12.60422, 51.90576], [12.60625, 51.90553], [12.60674, 51.90527], [12.6083, 51.90507], [12.60844, 51.90453], [12.60566, 51.90425], [12.60517, 51.90393], [12.60505, 51.9034], [12.60384, 51.9058], [12.60422, 51.90576]]], [[[12.60101, 51.9056], [12.60115, 51.90525], [12.60106, 51.90522], [12.6009, 51.90557], [12.60101, 51.9056]]], [[[12.60805, 51.90787], [12.6082, 51.90734], [12.60735, 51.90724], [12.6072, 51.90781], [12.60805, 51.90787]]], [[[12.61287, 51.90945], [12.6129, 51.90956], [12.61289, 51.90971], [12.61308, 51.90955], [12.61289, 51.90929], [12.61287, 51.90945]]], [[[12.61635, 51.91425], [12.61438, 51.91289], [12.61431, 51.91234], [12.61482, 51.912], [12.61464, 51.9116], [12.6142, 51.91135], [12.61397, 51.91078], [12.61293, 51.91025], [12.61314, 51.91178], [12.61291, 51.91207], [12.61235, 51.91225], [12.61118, 51.91204], [12.61082, 51.91111], [12.61026, 51.91121], [12.60933, 51.91108], [12.60903, 51.91047], [12.60892, 51.91098], [12.60852, 51.91125], [12.60778, 51.9113], [12.6072, 51.91107], [12.60694, 51.91193], [12.60712, 51.91268], [12.60781, 51.91259], [12.60822, 51.9128], [12.60973, 51.91298], [12.60983, 51.91314], [12.60974, 51.9137], [12.6094, 51.91389], [12.60701, 51.91373], [12.60701, 51.91282], [12.60686, 51.91293], [12.60636, 51.91871], [12.60863, 51.91884], [12.60887, 51.91833], [12.60954, 51.91835], [12.60946, 51.91875], [12.61141, 51.91906], [12.61128, 51.91923], [12.60985, 51.91956], [12.60788, 51.91943], [12.60774, 51.91955], [12.61089, 51.92025], [12.61189, 51.91939], [12.61202, 51.91891], [12.61248, 51.91888], [12.61417, 51.91932], [12.61443, 51.91903], [12.61496, 51.91914], [12.61544, 51.91859], [12.61785, 51.91908], [12.61876, 51.91871], [12.62024, 51.91911], [12.6206, 51.91881], [12.6221, 51.91875], [12.61981, 51.91801], [12.6205, 51.9174], [12.62185, 51.917], [12.62413, 51.91811], [12.62391, 51.9183], [12.62591, 51.91712], [12.62693, 51.91587], [12.62707, 51.91541], [12.62606, 51.91537], [12.62376, 51.91445], [12.62184, 51.91411], [12.62222, 51.91448], [12.62231, 51.9151], [12.62152, 51.91574], [12.62096, 51.91587], [12.6201, 51.91574], [12.61969, 51.91548], [12.61985, 51.91447], [12.61855, 51.91432], [12.6178, 51.9145], [12.61635, 51.91425]], [[12.6152, 51.91839], [12.61386, 51.91844], [12.61359, 51.9181], [12.61398, 51.91768], [12.61473, 51.91737], [12.61565, 51.91621], [12.61635, 51.9161], [12.6168, 51.91693], [12.61777, 51.91723], [12.61813, 51.91779], [12.61743, 51.91806], [12.61606, 51.91783], [12.6152, 51.91839]], [[12.60957, 51.91705], [12.61073, 51.91711], [12.61073, 51.91771], [12.61201, 51.91787], [12.61201, 51.91822], [12.61146, 51.91835], [12.60912, 51.91806], [12.60913, 51.91738], [12.60957, 51.91705]], [[12.61029, 51.91429], [12.60992, 51.91406], [12.61004, 51.91378], [12.61186, 51.91393], [12.61124, 51.91427], [12.61029, 51.91429]], [[12.6136, 51.91388], [12.61587, 51.91482], [12.61562, 51.91548], [12.61426, 51.91523], [12.61404, 51.91561], [12.61152, 51.91559], [12.61021, 51.91538], [12.60993, 51.91612], [12.60926, 51.91593], [12.60791, 51.91646], [12.60716, 51.91634], [12.60702, 51.916], [12.60733, 51.91546], [12.6096, 51.91472], [12.6102, 51.91493], [12.6136, 51.91388]], [[12.61192, 51.91585], [12.61391, 51.91587], [12.61534, 51.91629], [12.61455, 51.91689], [12.61149, 51.91604], [12.61192, 51.91585]]], [[[12.60832, 51.9202], [12.60725, 51.92005], [12.60718, 51.92035], [12.60887, 51.92058], [12.60813, 51.92195], [12.60912, 51.92259], [12.60976, 51.92235], [12.61064, 51.92247], [12.61114, 51.92304], [12.61246, 51.92141], [12.61129, 51.92115], [12.61136, 51.92094], [12.60832, 51.9202]]], [[[12.60886, 51.9233], [12.6081, 51.92341], [12.6066, 51.92305], [12.60623, 51.9227], [12.60631, 51.92229], [12.60606, 51.92225], [12.60541, 51.92426], [12.60686, 51.92444], [12.60678, 51.92462], [12.60797, 51.92472], [12.6082, 51.92426], [12.60869, 51.92436], [12.60933, 51.92343], [12.60902, 51.9232], [12.60886, 51.9233]]], [[[12.60784, 51.93109], [12.60776, 51.93119], [12.60831, 51.93083], [12.60783, 51.93063], [12.60784, 51.93109]]], [[[12.60012, 51.93058], [12.60001, 51.93029], [12.60004, 51.93144], [12.60044, 51.9309], [12.60012, 51.93058]]], [[[12.60962, 51.93221], [12.6098, 51.93237], [12.61246, 51.93191], [12.61263, 51.93139], [12.60925, 51.93195], [12.60962, 51.93221]]], [[[12.60219, 51.93298], [12.60787, 51.93274], [12.60899, 51.93259], [12.60812, 51.93206], [12.60242, 51.93239], [12.60213, 51.93262], [12.60219, 51.93298]]], [[[12.60249, 51.93883], [12.60243, 51.93894], [12.60336, 51.93903], [12.60252, 51.93873], [12.60249, 51.93883]]], [[[12.6086, 51.93983], [12.60765, 51.9397], [12.60744, 51.94], [12.60852, 51.9402], [12.6086, 51.93983]]], [[[12.60243, 51.94007], [12.60276, 51.94105], [12.60214, 51.94108], [12.60278, 51.94107], [12.60268, 51.94012], [12.60243, 51.94007]]], [[[12.62648, 51.8611], [12.62646, 51.86104], [12.62623, 51.861], [12.62637, 51.86113], [12.62648, 51.8611]]], [[[12.62556, 51.86132], [12.62575, 51.86136], [12.62576, 51.86117], [12.62566, 51.86127], [12.62556, 51.86132]]], [[[12.62433, 51.86132], [12.6244, 51.86131], [12.62433, 51.86131], [12.62433, 51.86132]]], [[[12.62452, 51.86132], [12.62467, 51.86133], [12.62469, 51.86133], [12.62452, 51.86132]]], [[[12.63189, 51.86038], [12.63057, 51.86045], [12.62994, 51.86072], [12.62914, 51.86059], [12.62741, 51.86132], [12.6273, 51.86163], [12.62501, 51.86204], [12.62408, 51.86206], [12.62418, 51.8615], [12.62351, 51.86157], [12.62374, 51.86179], [12.6236, 51.86226], [12.62293, 51.86222], [12.62246, 51.86196], [12.62175, 51.86214], [12.62109, 51.86207], [12.62083, 51.86226], [12.61971, 51.86246], [12.61887, 51.86237], [12.61801, 51.86255], [12.61804, 51.8627], [12.62279, 51.86261], [12.62601, 51.863], [12.62714, 51.86323], [12.62698, 51.86342], [12.62735, 51.86321], [12.62895, 51.86347], [12.62956, 51.86323], [12.62923, 51.86303], [12.6295, 51.86277], [12.6301, 51.86328], [12.6307, 51.86332], [12.63048, 51.86305], [12.6319, 51.86359], [12.63341, 51.86367], [12.63536, 51.86316], [12.63657, 51.86314], [12.63705, 51.86281], [12.63661, 51.86261], [12.63707, 51.86241], [12.63749, 51.8627], [12.63923, 51.86289], [12.63981, 51.8635], [12.64612, 51.86218], [12.64573, 51.86208], [12.64616, 51.86197], [12.6463, 51.86214], [12.64671, 51.86205], [12.64662, 51.8617], [12.64685, 51.86184], [12.64724, 51.86166], [12.64749, 51.86188], [12.64781, 51.86181], [12.64764, 51.86155], [12.647, 51.86159], [12.646, 51.86122], [12.64525, 51.86119], [12.64549, 51.86094], [12.64669, 51.86064], [12.64675, 51.86033], [12.64837, 51.86045], [12.6488, 51.86088], [12.64951, 51.86113], [12.65045, 51.86095], [12.65082, 51.86126], [12.65181, 51.86122], [12.65125, 51.85869], [12.6503, 51.85825], [12.64952, 51.85805], [12.64897, 51.85814], [12.64845, 51.85794], [12.64801, 51.85822], [12.64637, 51.85788], [12.64615, 51.85795], [12.64622, 51.85831], [12.64579, 51.85841], [12.64307, 51.85824], [12.64112, 51.85845], [12.64026, 51.85878], [12.63921, 51.85877], [12.63898, 51.85901], [12.63787, 51.85899], [12.63654, 51.85959], [12.63453, 51.85982], [12.63285, 51.86039], [12.63189, 51.86038]], [[12.63423, 51.86138], [12.63288, 51.86181], [12.63287, 51.86113], [12.63345, 51.86137], [12.63449, 51.86097], [12.63414, 51.86071], [12.63322, 51.86068], [12.63308, 51.86057], [12.63334, 51.86034], [12.6345, 51.86063], [12.63478, 51.86097], [12.63483, 51.86119], [12.63423, 51.86138]], [[12.63197, 51.8619], [12.63295, 51.86223], [12.6337, 51.86296], [12.63292, 51.86229], [12.63078, 51.86265], [12.6312, 51.86232], [12.63193, 51.86227], [12.63197, 51.8619]], [[12.64875, 51.8593], [12.64821, 51.85955], [12.64834, 51.86012], [12.64805, 51.86028], [12.64706, 51.8593], [12.64727, 51.85842], [12.64771, 51.85831], [12.64898, 51.85849], [12.64943, 51.85907], [12.64893, 51.85953], [12.64875, 51.8593]], [[12.64436, 51.85905], [12.64449, 51.85867], [12.64467, 51.85866], [12.64478, 51.8591], [12.64436, 51.85905]], [[12.64222, 51.86024], [12.64306, 51.86018], [12.6432, 51.86017], [12.64203, 51.8603], [12.64222, 51.86024]]], [[[12.62306, 51.86293], [12.62332, 51.86297], [12.62389, 51.86294], [12.62254, 51.86281], [12.62306, 51.86293]]], [[[12.6232, 51.8644], [12.62334, 51.86437], [12.62316, 51.86437], [12.6232, 51.8644]]], [[[12.62334, 51.86759], [12.62331, 51.86787], [12.62486, 51.86755], [12.62489, 51.86731], [12.62334, 51.86759]]], [[[12.62616, 51.86801], [12.62613, 51.86802], [12.62622, 51.86803], [12.62621, 51.868], [12.62616, 51.86801]]], [[[12.62049, 51.86846], [12.62069, 51.8684], [12.62054, 51.86829], [12.61995, 51.86859], [12.61579, 51.86911], [12.61499, 51.8695], [12.61354, 51.86949], [12.61346, 51.86974], [12.6184, 51.86905], [12.6202, 51.86871], [12.62049, 51.86846]]], [[[12.61921, 51.86951], [12.61523, 51.87012], [12.61632, 51.87127], [12.61691, 51.87141], [12.61755, 51.87194], [12.61779, 51.87188], [12.61752, 51.87092], [12.61792, 51.86994], [12.61921, 51.86951]]], [[[12.62613, 51.87052], [12.62713, 51.8701], [12.6268, 51.86976], [12.62557, 51.86988], [12.62473, 51.8702], [12.62534, 51.87025], [12.62576, 51.87059], [12.62613, 51.87052]]], [[[12.62892, 51.87057], [12.6293, 51.87065], [12.62915, 51.87], [12.62846, 51.87013], [12.62649, 51.87101], [12.62696, 51.87143], [12.62709, 51.87246], [12.62755, 51.87187], [12.62721, 51.87153], [12.62729, 51.87085], [12.62782, 51.87059], [12.62892, 51.87057]]], [[[12.62706, 51.87275], [12.6271, 51.87278], [12.62708, 51.87271], [12.62706, 51.87275]]], [[[12.62457, 51.87325], [12.62481, 51.87305], [12.62372, 51.87293], [12.62325, 51.87269], [12.62321, 51.87197], [12.62234, 51.87195], [12.62025, 51.87258], [12.61968, 51.87247], [12.61926, 51.87215], [12.61953, 51.87269], [12.61921, 51.87311], [12.61802, 51.87332], [12.61734, 51.87297], [12.61627, 51.8738], [12.61472, 51.8744], [12.61504, 51.87547], [12.61604, 51.87533], [12.61805, 51.87562], [12.61882, 51.8755], [12.61824, 51.87584], [12.61817, 51.87647], [12.61738, 51.87672], [12.61687, 51.87724], [12.61751, 51.87793], [12.61729, 51.87827], [12.61663, 51.87857], [12.6163, 51.87918], [12.61693, 51.87977], [12.61705, 51.87925], [12.61802, 51.87885], [12.61867, 51.87896], [12.61912, 51.87932], [12.62095, 51.87925], [12.62163, 51.8795], [12.62186, 51.87983], [12.62225, 51.8798], [12.62288, 51.87928], [12.62373, 51.87926], [12.62423, 51.87952], [12.62519, 51.87903], [12.62617, 51.87904], [12.62617, 51.87819], [12.62538, 51.87784], [12.62534, 51.87705], [12.62442, 51.87672], [12.62252, 51.87693], [12.62163, 51.87634], [12.62174, 51.87598], [12.62226, 51.87562], [12.62351, 51.87531], [12.62357, 51.8746], [12.62436, 51.87446], [12.62444, 51.87463], [12.62529, 51.8748], [12.62584, 51.87537], [12.62688, 51.87542], [12.62683, 51.87512], [12.62575, 51.87439], [12.62513, 51.87436], [12.62456, 51.87408], [12.62429, 51.87362], [12.62457, 51.87325]]], [[[12.62893, 51.87685], [12.62892, 51.87685], [12.62892, 51.87686], [12.62893, 51.87685]]], [[[12.61712, 51.87995], [12.6172, 51.88002], [12.61721, 51.88002], [12.61712, 51.87995]]], [[[12.62903, 51.88127], [12.62893, 51.88083], [12.62774, 51.88075], [12.6245, 51.88201], [12.62815, 51.88331], [12.62938, 51.88158], [12.62903, 51.88127]]], [[[12.62308, 51.88257], [12.61962, 51.8839], [12.61959, 51.88586], [12.6203, 51.88657], [12.62047, 51.88737], [12.6197, 51.88853], [12.61956, 51.88989], [12.62331, 51.89004], [12.62367, 51.88954], [12.62278, 51.88928], [12.62273, 51.88863], [12.62341, 51.88831], [12.62441, 51.88851], [12.62779, 51.88381], [12.6237, 51.88234], [12.62308, 51.88257]]], [[[12.62511, 51.89188], [12.62517, 51.89203], [12.62714, 51.89202], [12.62735, 51.89161], [12.62878, 51.89201], [12.62912, 51.89244], [12.62855, 51.89364], [12.63009, 51.89432], [12.62963, 51.89493], [12.62635, 51.89341], [12.62527, 51.89321], [12.62494, 51.89292], [12.62486, 51.89324], [12.62764, 51.89417], [12.62754, 51.89436], [12.62803, 51.89485], [12.62857, 51.89496], [12.62829, 51.89534], [12.63005, 51.89579], [12.62943, 51.89629], [12.63087, 51.89678], [12.63052, 51.89711], [12.63014, 51.89703], [12.62804, 51.89625], [12.62805, 51.8961], [12.6246, 51.89544], [12.62341, 51.8956], [12.62325, 51.896], [12.62315, 51.89557], [12.62238, 51.89547], [12.62228, 51.89567], [12.62298, 51.89615], [12.6222, 51.89597], [12.62154, 51.89645], [12.62266, 51.89676], [12.62291, 51.89663], [12.62309, 51.89689], [12.6233, 51.89658], [12.62432, 51.89738], [12.6281, 51.89855], [12.62892, 51.89851], [12.62946, 51.89837], [12.62998, 51.89746], [12.63029, 51.89743], [12.63079, 51.89779], [12.63219, 51.8965], [12.63228, 51.89624], [12.63076, 51.89555], [12.632, 51.89573], [12.63257, 51.89564], [12.63255, 51.89462], [12.63163, 51.8932], [12.63128, 51.89133], [12.63046, 51.89043], [12.62926, 51.88972], [12.62938, 51.88864], [12.62898, 51.88756], [12.63112, 51.88458], [12.63156, 51.88452], [12.63139, 51.88578], [12.63175, 51.88678], [12.63325, 51.88813], [12.63376, 51.88914], [12.63526, 51.89086], [12.63724, 51.89267], [12.63767, 51.89397], [12.6388, 51.89504], [12.63675, 51.90008], [12.63915, 51.90094], [12.63945, 51.90025], [12.63838, 51.90004], [12.63879, 51.89908], [12.63988, 51.89926], [12.64223, 51.89313], [12.64202, 51.89257], [12.64224, 51.89209], [12.64259, 51.89194], [12.64261, 51.89143], [12.64136, 51.89114], [12.64053, 51.8904], [12.6407, 51.88982], [12.63934, 51.88931], [12.63944, 51.88839], [12.63802, 51.8878], [12.6381, 51.88728], [12.63905, 51.88629], [12.63779, 51.88598], [12.63676, 51.88604], [12.63625, 51.88577], [12.63629, 51.88497], [12.63668, 51.88463], [12.63919, 51.88452], [12.63779, 51.88281], [12.63522, 51.88246], [12.63468, 51.88221], [12.63446, 51.88165], [12.63489, 51.87997], [12.63467, 51.87959], [12.63379, 51.87929], [12.63351, 51.87933], [12.63354, 51.87971], [12.63321, 51.88002], [12.63264, 51.88013], [12.63177, 51.87997], [12.63144, 51.88032], [12.62417, 51.89018], [12.62604, 51.89052], [12.62605, 51.89078], [12.62481, 51.89162], [12.62511, 51.89188]]], [[[12.6249, 51.89279], [12.62489, 51.89281], [12.62491, 51.89285], [12.6249, 51.8928], [12.6249, 51.89279]]], [[[12.62531, 51.89538], [12.62394, 51.89484], [12.62371, 51.89496], [12.62555, 51.89548], [12.62531, 51.89538]]], [[[12.61489, 51.89816], [12.61502, 51.89805], [12.61434, 51.89748], [12.61454, 51.89703], [12.61402, 51.89684], [12.61459, 51.89634], [12.61338, 51.89571], [12.6139, 51.89746], [12.61468, 51.89822], [12.61489, 51.89816]]], [[[12.62039, 51.89778], [12.62096, 51.89792], [12.62112, 51.89732], [12.62017, 51.89717], [12.61991, 51.89768], [12.62039, 51.89778]]], [[[12.62289, 51.89891], [12.62263, 51.89965], [12.62177, 51.90006], [12.62082, 51.8999], [12.62058, 51.89936], [12.61884, 51.89909], [12.61871, 51.89944], [12.62243, 51.90039], [12.62496, 51.90013], [12.62628, 51.90066], [12.62642, 51.89974], [12.62514, 51.89897], [12.62288, 51.89877], [12.62289, 51.89891]]], [[[12.61847, 51.90077], [12.61927, 51.90096], [12.61979, 51.90083], [12.6213, 51.90115], [12.62121, 51.90186], [12.62163, 51.90211], [12.62155, 51.90245], [12.62089, 51.90297], [12.62048, 51.90302], [12.61695, 51.9017], [12.6175, 51.90245], [12.6172, 51.90284], [12.61659, 51.90312], [12.61738, 51.90322], [12.61755, 51.90309], [12.61818, 51.90336], [12.61823, 51.90399], [12.61891, 51.90374], [12.62028, 51.9038], [12.62099, 51.90365], [12.62189, 51.90399], [12.62376, 51.90395], [12.62391, 51.90305], [12.62469, 51.90241], [12.62557, 51.90098], [12.62481, 51.90068], [12.62221, 51.90091], [12.61925, 51.90016], [12.6189, 51.90079], [12.61847, 51.90077]]], [[[12.62501, 51.90414], [12.62463, 51.90389], [12.62443, 51.90441], [12.62501, 51.90466], [12.62708, 51.90475], [12.62501, 51.90414]]], [[[12.62538, 51.90527], [12.62638, 51.90573], [12.62671, 51.90528], [12.62533, 51.90522], [12.62538, 51.90527]]], [[[12.61338, 51.90583], [12.61307, 51.90592], [12.61361, 51.90621], [12.6138, 51.90684], [12.61429, 51.9067], [12.61381, 51.90612], [12.61387, 51.90578], [12.61338, 51.90583]]], [[[12.61969, 51.90676], [12.61982, 51.90701], [12.62013, 51.90659], [12.61979, 51.9065], [12.61969, 51.90676]]], [[[12.62572, 51.90729], [12.62491, 51.9072], [12.62362, 51.90673], [12.62271, 51.90673], [12.62166, 51.90629], [12.61983, 51.90608], [12.61983, 51.90622], [12.62162, 51.90681], [12.62834, 51.90847], [12.62891, 51.90877], [12.62893, 51.90896], [12.62786, 51.9087], [12.62752, 51.90929], [12.62678, 51.90957], [12.62614, 51.90939], [12.62521, 51.90968], [12.6248, 51.91019], [12.62479, 51.91055], [12.6257, 51.91089], [12.62539, 51.91149], [12.62704, 51.9128], [12.62776, 51.91251], [12.62608, 51.911], [12.62648, 51.91082], [12.62959, 51.91142], [12.63003, 51.91095], [12.63141, 51.91103], [12.63242, 51.90983], [12.63114, 51.90964], [12.63109, 51.90926], [12.63045, 51.90908], [12.63057, 51.90868], [12.62858, 51.9082], [12.62862, 51.90799], [12.62572, 51.90729]], [[12.62934, 51.90966], [12.63063, 51.91], [12.63059, 51.9103], [12.62892, 51.91027], [12.62765, 51.90991], [12.62768, 51.90942], [12.62832, 51.9094], [12.62934, 51.90966]]], [[[12.61356, 51.90766], [12.61353, 51.90793], [12.61317, 51.90869], [12.61361, 51.90854], [12.61356, 51.90766]]], [[[12.61659, 51.90831], [12.61665, 51.90833], [12.61663, 51.90831], [12.61659, 51.90831]]], [[[12.61634, 51.90857], [12.61633, 51.90861], [12.61642, 51.90837], [12.6164, 51.90838], [12.61634, 51.90857]]], [[[12.61616, 51.90912], [12.61611, 51.90917], [12.61614, 51.90918], [12.61616, 51.90912], [12.61616, 51.90912]]], [[[12.61945, 51.90938], [12.61911, 51.90923], [12.61907, 51.90926], [12.61943, 51.9094], [12.61945, 51.90938]]], [[[12.61629, 51.91162], [12.61702, 51.91228], [12.6168, 51.91279], [12.61734, 51.91318], [12.61848, 51.9135], [12.61879, 51.9138], [12.61999, 51.91394], [12.62088, 51.91366], [12.62148, 51.91377], [12.6218, 51.91403], [12.62188, 51.91364], [12.62249, 51.91335], [12.61952, 51.91182], [12.61724, 51.91148], [12.61635, 51.91145], [12.61608, 51.91159], [12.61629, 51.91162]]], [[[12.63041, 51.92169], [12.63101, 51.92068], [12.62917, 51.92039], [12.62737, 51.91952], [12.6269, 51.91952], [12.62525, 51.91971], [12.62376, 51.9202], [12.62257, 51.92093], [12.62168, 51.92189], [12.61974, 51.92101], [12.61915, 51.92158], [12.61852, 51.92137], [12.61773, 51.92216], [12.62396, 51.92494], [12.62462, 51.92463], [12.62492, 51.92408], [12.62557, 51.92372], [12.62626, 51.92374], [12.6271, 51.92415], [12.62615, 51.92308], [12.6264, 51.92269], [12.62739, 51.92212], [12.62722, 51.92182], [12.62754, 51.92182], [12.62776, 51.92158], [12.62801, 51.92165], [12.62782, 51.92194], [12.62925, 51.92255], [12.62982, 51.9216], [12.63041, 51.92169]], [[12.62342, 51.92288], [12.62191, 51.92223], [12.62209, 51.92201], [12.62382, 51.92237], [12.6237, 51.92251], [12.62485, 51.9229], [12.62467, 51.92325], [12.62342, 51.92288]], [[12.62694, 51.9205], [12.62714, 51.92058], [12.62704, 51.92132], [12.62669, 51.92167], [12.62686, 51.92177], [12.62657, 51.92235], [12.62598, 51.92221], [12.62607, 51.92202], [12.62522, 51.92146], [12.62562, 51.92104], [12.62627, 51.9214], [12.62694, 51.9205]]], [[[12.61352, 51.92583], [12.61477, 51.92505], [12.61563, 51.92393], [12.61801, 51.92501], [12.61866, 51.92447], [12.61567, 51.92379], [12.6165, 51.92325], [12.61926, 51.9238], [12.62175, 51.92491], [12.62118, 51.92522], [12.62179, 51.92541], [12.62123, 51.92628], [12.61926, 51.92562], [12.61821, 51.92645], [12.61875, 51.92793], [12.61797, 51.9274], [12.61715, 51.92832], [12.61668, 51.92828], [12.61621, 51.92868], [12.61661, 51.92884], [12.6164, 51.92899], [12.61685, 51.92942], [12.61707, 51.92945], [12.61712, 51.92915], [12.61785, 51.9294], [12.61735, 51.92978], [12.61755, 51.93012], [12.61847, 51.93046], [12.61399, 51.93117], [12.61475, 51.9315], [12.61907, 51.9308], [12.621, 51.93185], [12.62272, 51.93186], [12.62454, 51.93122], [12.62549, 51.93007], [12.62724, 51.92981], [12.629, 51.93079], [12.63106, 51.93143], [12.63381, 51.93148], [12.63623, 51.93074], [12.64044, 51.93242], [12.64904, 51.93389], [12.6504, 51.93398], [12.65045, 51.93373], [12.65482, 51.93405], [12.65555, 51.93369], [12.65554, 51.93418], [12.65713, 51.93374], [12.65838, 51.93295], [12.66078, 51.93297], [12.66062, 51.93283], [12.66174, 51.93238], [12.66231, 51.93303], [12.66369, 51.93311], [12.66432, 51.93385], [12.66539, 51.93441], [12.67102, 51.93369], [12.67139, 51.93344], [12.67418, 51.93333], [12.6743, 51.93112], [12.67278, 51.93071], [12.6733, 51.93029], [12.67315, 51.92974], [12.67175, 51.92995], [12.67096, 51.92966], [12.66917, 51.93045], [12.66845, 51.93043], [12.66427, 51.93142], [12.65781, 51.93129], [12.65808, 51.93181], [12.65662, 51.93166], [12.65564, 51.93235], [12.65466, 51.93259], [12.64882, 51.93219], [12.64185, 51.93097], [12.6338, 51.92772], [12.63323, 51.92843], [12.63244, 51.92859], [12.63144, 51.92823], [12.63117, 51.92778], [12.63022, 51.92769], [12.63034, 51.92755], [12.62998, 51.92719], [12.62956, 51.9276], [12.63049, 51.92788], [12.62866, 51.92817], [12.62802, 51.92799], [12.62852, 51.92753], [12.62833, 51.92731], [12.62853, 51.92699], [12.62645, 51.92618], [12.62641, 51.92664], [12.62749, 51.92681], [12.6274, 51.92707], [12.62794, 51.92726], [12.62731, 51.92775], [12.6235, 51.92698], [12.6229, 51.92676], [12.62318, 51.92604], [12.62284, 51.92567], [12.62295, 51.92521], [12.61639, 51.92224], [12.6146, 51.92219], [12.61289, 51.92447], [12.61201, 51.92506], [12.61185, 51.92531], [12.61299, 51.92552], [12.61352, 51.92583]], [[12.62075, 51.92977], [12.62066, 51.92947], [12.62127, 51.92905], [12.62217, 51.92931], [12.62257, 51.92973], [12.62231, 51.93001], [12.62182, 51.93008], [12.62075, 51.92977]], [[12.65971, 51.93191], [12.66007, 51.93266], [12.65829, 51.93256], [12.65819, 51.93183], [12.65971, 51.93191]], [[12.66653, 51.93246], [12.6682, 51.93198], [12.66893, 51.93231], [12.66852, 51.93265], [12.66703, 51.93282], [12.66665, 51.93272], [12.66653, 51.93246]]], [[[12.61386, 51.92698], [12.61325, 51.9272], [12.61394, 51.92831], [12.61483, 51.92828], [12.61485, 51.92761], [12.61586, 51.92678], [12.61386, 51.92698]]], [[[12.64285, 51.85648], [12.64286, 51.85653], [12.64448, 51.85637], [12.64397, 51.856], [12.6426, 51.85597], [12.64285, 51.85648]]], [[[12.6385, 51.85885], [12.63836, 51.85885], [12.63873, 51.85887], [12.6385, 51.85885]]], [[[12.63422, 51.85948], [12.63425, 51.85947], [12.63425, 51.85947], [12.63422, 51.85948]]], [[[12.63411, 51.85951], [12.63413, 51.8595], [12.63411, 51.8595], [12.63411, 51.85951]]], [[[12.63214, 51.8602], [12.63207, 51.86024], [12.63202, 51.86026], [12.63209, 51.86027], [12.63214, 51.8602]]], [[[12.63899, 51.86353], [12.63922, 51.86339], [12.63913, 51.86321], [12.63881, 51.86323], [12.63856, 51.86367], [12.63899, 51.86353]]], [[[12.63674, 51.86381], [12.63605, 51.86409], [12.63595, 51.86427], [12.63734, 51.86394], [12.63674, 51.86381]]], [[[12.64629, 51.86433], [12.64637, 51.86433], [12.64641, 51.86433], [12.6464, 51.86431], [12.64629, 51.86433]]], [[[12.63572, 51.86434], [12.6358, 51.86433], [12.63566, 51.86429], [12.63569, 51.86431], [12.63572, 51.86434]]], [[[12.63477, 51.86455], [12.63451, 51.86453], [12.63421, 51.86458], [12.63433, 51.86466], [12.63477, 51.86455]]], [[[12.63183, 51.86531], [12.63148, 51.86526], [12.63148, 51.8654], [12.63184, 51.86532], [12.63183, 51.86531]]], [[[12.6295, 51.86741], [12.62947, 51.86754], [12.63069, 51.8673], [12.63058, 51.86709], [12.6295, 51.86741]]], [[[12.6297, 51.87107], [12.62967, 51.87133], [12.63131, 51.87171], [12.63162, 51.87216], [12.63247, 51.8727], [12.63345, 51.87235], [12.63344, 51.87144], [12.63379, 51.87109], [12.63363, 51.87081], [12.63284, 51.87123], [12.62948, 51.87075], [12.6297, 51.87107]]], [[[12.6366, 51.8734], [12.63709, 51.87269], [12.63706, 51.8722], [12.63669, 51.87192], [12.63659, 51.87233], [12.63609, 51.8726], [12.63628, 51.87319], [12.63581, 51.87359], [12.63673, 51.87376], [12.6366, 51.8734]]], [[[12.63127, 51.87361], [12.62999, 51.87304], [12.62969, 51.87265], [12.62879, 51.87317], [12.62789, 51.87326], [12.6273, 51.87306], [12.62778, 51.87426], [12.62741, 51.87471], [12.62806, 51.87584], [12.62848, 51.87594], [12.62901, 51.87565], [12.63072, 51.87537], [12.6306, 51.87483], [12.63114, 51.87445], [12.63108, 51.8743], [12.63145, 51.87424], [12.63152, 51.8744], [12.63198, 51.87446], [12.63207, 51.87434], [12.6317, 51.87361], [12.63127, 51.87361]]], [[[12.63703, 51.87458], [12.63733, 51.87446], [12.63674, 51.87391], [12.6364, 51.87385], [12.63614, 51.87428], [12.63678, 51.87473], [12.63703, 51.87458]]], [[[12.63937, 51.87612], [12.63932, 51.87621], [12.63939, 51.87628], [12.63954, 51.876], [12.63937, 51.87612]]], [[[12.63928, 51.87705], [12.63953, 51.87714], [12.63959, 51.87715], [12.63932, 51.87689], [12.63928, 51.87705]]], [[[12.64759, 51.87682], [12.64717, 51.87646], [12.6467, 51.87666], [12.6461, 51.87665], [12.64468, 51.87612], [12.64373, 51.87602], [12.64305, 51.87617], [12.64227, 51.87592], [12.64181, 51.87646], [12.64189, 51.87661], [12.64273, 51.87643], [12.64336, 51.87665], [12.64356, 51.87701], [12.64337, 51.8777], [12.64437, 51.87794], [12.64467, 51.87864], [12.64529, 51.87845], [12.64657, 51.87842], [12.64781, 51.87863], [12.64869, 51.87847], [12.6491, 51.87799], [12.64759, 51.87682]]], [[[12.62999, 51.87703], [12.63024, 51.87727], [12.6303, 51.87756], [12.63038, 51.87702], [12.62999, 51.87703]]], [[[12.62865, 51.87835], [12.63019, 51.87818], [12.63023, 51.87787], [12.62965, 51.87819], [12.62854, 51.87815], [12.62865, 51.87835]]], [[[12.63769, 51.87812], [12.63731, 51.87824], [12.63734, 51.87844], [12.63812, 51.87883], [12.63842, 51.87887], [12.63918, 51.8785], [12.63769, 51.87812]]], [[[12.64046, 51.87912], [12.64049, 51.87912], [12.64046, 51.8791], [12.64046, 51.87912]]], [[[12.64378, 51.87978], [12.64371, 51.88009], [12.64443, 51.87969], [12.64517, 51.87967], [12.64444, 51.87926], [12.64369, 51.87954], [12.64378, 51.87978]]], [[[12.64569, 51.88275], [12.64626, 51.88252], [12.64754, 51.88266], [12.64771, 51.88254], [12.64769, 51.88233], [12.64694, 51.88201], [12.64691, 51.88141], [12.64613, 51.88139], [12.64565, 51.881], [12.64448, 51.88106], [12.64374, 51.88086], [12.64273, 51.88105], [12.64189, 51.88077], [12.64175, 51.88166], [12.64127, 51.88197], [12.64079, 51.88293], [12.64028, 51.88316], [12.64019, 51.88359], [12.63975, 51.88382], [12.64024, 51.88476], [12.64149, 51.8854], [12.64161, 51.88589], [12.64138, 51.88619], [12.64279, 51.88649], [12.64334, 51.88634], [12.64484, 51.88643], [12.64492, 51.88631], [12.64367, 51.88607], [12.64335, 51.88565], [12.64348, 51.88527], [12.64278, 51.88507], [12.64281, 51.88332], [12.64292, 51.88312], [12.64332, 51.88307], [12.64532, 51.88301], [12.64569, 51.88275]]], [[[12.64523, 51.89202], [12.64311, 51.89317], [12.64131, 51.898], [12.6427, 51.90126], [12.64486, 51.89593], [12.64571, 51.89569], [12.6477, 51.89606], [12.64948, 51.89603], [12.65058, 51.89669], [12.65428, 51.89808], [12.6541, 51.89846], [12.65507, 51.89866], [12.65552, 51.89823], [12.65531, 51.89782], [12.65483, 51.89774], [12.65489, 51.89746], [12.65674, 51.89698], [12.6562, 51.89664], [12.65644, 51.89656], [12.65814, 51.89645], [12.65897, 51.89675], [12.65896, 51.89723], [12.65941, 51.89693], [12.65963, 51.89704], [12.65925, 51.89739], [12.65769, 51.89794], [12.65761, 51.89816], [12.65864, 51.89874], [12.65838, 51.89918], [12.65775, 51.89933], [12.65842, 51.89955], [12.65821, 51.89971], [12.65856, 51.90023], [12.65908, 51.90025], [12.659, 51.9], [12.65962, 51.90012], [12.6599, 51.89969], [12.66069, 51.89946], [12.66231, 51.90063], [12.66161, 51.90034], [12.6615, 51.90051], [12.66201, 51.90083], [12.66168, 51.90114], [12.66203, 51.90184], [12.66431, 51.90295], [12.66539, 51.90317], [12.66564, 51.9026], [12.66506, 51.90247], [12.66281, 51.90127], [12.66529, 51.89887], [12.66724, 51.89787], [12.6664, 51.89759], [12.66576, 51.89668], [12.66523, 51.89711], [12.6644, 51.89713], [12.66388, 51.89679], [12.66384, 51.8964], [12.66313, 51.89608], [12.66291, 51.89575], [12.66177, 51.8954], [12.66153, 51.896], [12.6606, 51.89628], [12.66087, 51.8966], [12.66022, 51.897], [12.65958, 51.89689], [12.65959, 51.8966], [12.65858, 51.89622], [12.65739, 51.89626], [12.65736, 51.89608], [12.65603, 51.89588], [12.65754, 51.89544], [12.65861, 51.89558], [12.65873, 51.89593], [12.65945, 51.89601], [12.65943, 51.89543], [12.66006, 51.89478], [12.66099, 51.89463], [12.66163, 51.89486], [12.66169, 51.89458], [12.6613, 51.89432], [12.66048, 51.8946], [12.65974, 51.89436], [12.6596, 51.89379], [12.66008, 51.89344], [12.65958, 51.89298], [12.65844, 51.89337], [12.65736, 51.89348], [12.65671, 51.89386], [12.65744, 51.89415], [12.65763, 51.8948], [12.65719, 51.89526], [12.65628, 51.89537], [12.6556, 51.89518], [12.65525, 51.89486], [12.65517, 51.89448], [12.65546, 51.89406], [12.65406, 51.89441], [12.65323, 51.8942], [12.65291, 51.89373], [12.65298, 51.89317], [12.6522, 51.89249], [12.65203, 51.89164], [12.65084, 51.89158], [12.65034, 51.89176], [12.64909, 51.89294], [12.64849, 51.89313], [12.64774, 51.893], [12.64708, 51.89242], [12.64586, 51.89229], [12.64523, 51.89202]], [[12.65969, 51.89767], [12.66016, 51.89796], [12.66085, 51.89856], [12.6598, 51.89805], [12.65947, 51.89752], [12.65969, 51.89767]]], [[[12.63116, 51.89962], [12.63016, 51.89964], [12.63198, 51.90041], [12.63297, 51.89988], [12.63169, 51.89946], [12.63117, 51.89935], [12.63058, 51.89926], [12.63116, 51.89936], [12.63116, 51.89962]]], [[[12.63364, 51.90694], [12.63616, 51.90783], [12.6371, 51.90579], [12.63498, 51.90478], [12.6338, 51.90446], [12.6327, 51.90481], [12.63154, 51.90574], [12.63364, 51.90694]]], [[[12.63885, 51.90939], [12.63903, 51.90925], [12.63796, 51.90891], [12.63687, 51.90821], [12.63631, 51.90844], [12.63556, 51.91003], [12.63606, 51.90916], [12.63662, 51.90916], [12.63706, 51.90893], [12.63866, 51.90953], [12.63885, 51.90939]]], [[[12.6421, 51.91622], [12.64338, 51.91618], [12.64521, 51.91573], [12.64103, 51.91561], [12.64126, 51.91386], [12.64032, 51.91458], [12.64005, 51.91553], [12.63993, 51.9157], [12.63962, 51.91568], [12.63951, 51.91642], [12.64047, 51.91655], [12.6421, 51.91622]]], [[[12.64088, 51.91668], [12.63953, 51.91673], [12.63955, 51.91684], [12.6417, 51.91686], [12.64172, 51.91672], [12.64088, 51.91668]]], [[[12.63, 51.92323], [12.63026, 51.92316], [12.63064, 51.9232], [12.62995, 51.92311], [12.63, 51.92323]]], [[[12.63206, 51.92348], [12.63229, 51.92353], [12.63227, 51.92363], [12.63233, 51.92351], [12.63206, 51.92348]]], [[[12.64159, 51.92499], [12.64152, 51.92396], [12.64094, 51.92272], [12.63926, 51.92141], [12.63539, 51.92335], [12.63665, 51.92405], [12.63683, 51.92468], [12.63637, 51.9255], [12.6356, 51.92569], [12.63372, 51.92534], [12.63263, 51.92588], [12.63427, 51.92639], [12.63437, 51.92731], [12.64227, 51.93049], [12.64898, 51.93166], [12.65451, 51.93205], [12.65511, 51.93193], [12.65695, 51.93082], [12.66039, 51.93077], [12.65962, 51.92931], [12.65829, 51.9282], [12.65853, 51.92812], [12.65815, 51.92735], [12.65608, 51.92621], [12.65566, 51.92565], [12.65497, 51.92562], [12.65409, 51.92517], [12.6536, 51.92587], [12.65468, 51.92625], [12.65585, 51.92731], [12.65582, 51.92755], [12.65336, 51.92691], [12.6537, 51.92808], [12.65512, 51.92954], [12.65378, 51.93034], [12.64952, 51.93003], [12.64283, 51.92886], [12.63978, 51.92757], [12.64091, 51.92651], [12.64159, 51.92499]], [[12.65679, 51.9282], [12.65699, 51.92854], [12.65684, 51.92946], [12.65619, 51.92929], [12.65642, 51.92874], [12.65455, 51.92829], [12.65502, 51.92777], [12.65587, 51.92794], [12.65602, 51.92762], [12.65679, 51.9282]]], [[[12.63149, 51.94199], [12.62895, 51.94116], [12.62893, 51.94205], [12.6284, 51.94257], [12.62903, 51.9427], [12.62893, 51.94304], [12.62993, 51.94209], [12.63087, 51.94207], [12.63252, 51.94242], [12.63256, 51.9423], [12.63149, 51.94199]]], [[[12.63812, 51.94418], [12.63735, 51.94395], [12.63728, 51.94456], [12.6407, 51.9449], [12.64076, 51.94434], [12.63984, 51.94422], [12.64089, 51.94346], [12.64295, 51.94365], [12.64265, 51.94329], [12.64119, 51.94315], [12.6399, 51.94369], [12.63889, 51.94443], [12.63812, 51.94418]]], [[[12.62283, 51.94341], [12.62248, 51.94338], [12.62938, 51.94564], [12.63513, 51.94575], [12.63339, 51.94542], [12.62929, 51.94516], [12.62736, 51.94443], [12.62643, 51.94431], [12.62647, 51.94396], [12.62313, 51.94332], [12.62283, 51.94341]]], [[[12.63426, 51.94454], [12.63423, 51.94492], [12.63623, 51.94546], [12.63624, 51.94482], [12.63426, 51.94454]]], [[[12.64123, 51.94587], [12.64054, 51.94585], [12.64054, 51.94586], [12.64123, 51.94587]]], [[[12.65226, 51.85638], [12.6527, 51.85617], [12.65213, 51.85616], [12.65226, 51.85638]]], [[[12.65039, 51.85645], [12.65067, 51.8565], [12.65057, 51.85613], [12.6504, 51.85613], [12.65039, 51.85645]]], [[[12.65242, 51.85673], [12.65568, 51.85777], [12.65653, 51.85784], [12.65821, 51.85867], [12.65927, 51.85883], [12.6595, 51.85901], [12.66039, 51.85858], [12.66226, 51.85636], [12.661, 51.85634], [12.66031, 51.8573], [12.65756, 51.85627], [12.65352, 51.85619], [12.65253, 51.8565], [12.65242, 51.85673]]], [[[12.66275, 51.85654], [12.66241, 51.85645], [12.66073, 51.85856], [12.65961, 51.85919], [12.65966, 51.85943], [12.66105, 51.85964], [12.66169, 51.85994], [12.66321, 51.85941], [12.66349, 51.85913], [12.66355, 51.85793], [12.66322, 51.85763], [12.66358, 51.85738], [12.66363, 51.85639], [12.66272, 51.85637], [12.66275, 51.85654]], [[12.66039, 51.85934], [12.66026, 51.85894], [12.66096, 51.8589], [12.66115, 51.85909], [12.66098, 51.85934], [12.66039, 51.85934]]], [[[12.65888, 51.85897], [12.6589, 51.85902], [12.65906, 51.859], [12.65885, 51.85894], [12.65888, 51.85897]]], [[[12.66201, 51.86014], [12.66156, 51.86008], [12.66145, 51.86013], [12.66161, 51.86023], [12.66201, 51.86014]]], [[[12.65404, 51.86052], [12.65477, 51.8614], [12.6546, 51.86116], [12.65527, 51.86089], [12.65601, 51.86145], [12.65648, 51.86127], [12.65866, 51.86164], [12.65881, 51.86152], [12.65811, 51.86091], [12.65736, 51.86084], [12.65698, 51.86038], [12.65637, 51.86035], [12.65612, 51.86016], [12.65579, 51.86032], [12.6554, 51.86026], [12.65521, 51.85956], [12.65475, 51.85955], [12.65449, 51.85925], [12.65404, 51.8593], [12.65352, 51.85895], [12.65313, 51.85895], [12.65404, 51.86052]]], [[[12.66316, 51.8606], [12.66341, 51.86071], [12.66341, 51.8606], [12.66268, 51.8604], [12.66272, 51.86058], [12.66316, 51.8606]]], [[[12.65266, 51.86002], [12.65287, 51.86126], [12.65367, 51.86136], [12.65262, 51.85988], [12.65266, 51.86002]]], [[[12.64985, 51.86137], [12.64878, 51.86096], [12.64875, 51.86159], [12.64842, 51.86167], [12.64985, 51.86137]]], [[[12.65795, 51.8624], [12.65872, 51.86239], [12.65859, 51.86175], [12.65644, 51.8614], [12.65609, 51.862], [12.65751, 51.86272], [12.65795, 51.8624]]], [[[12.65493, 51.86258], [12.6533, 51.86218], [12.65102, 51.8621], [12.65516, 51.86309], [12.65534, 51.86292], [12.65493, 51.86258]]], [[[12.66175, 51.86311], [12.66216, 51.86244], [12.66183, 51.86235], [12.66124, 51.86266], [12.65928, 51.86272], [12.65919, 51.86324], [12.65865, 51.8635], [12.65901, 51.86364], [12.66178, 51.86373], [12.66175, 51.86311]]], [[[12.65179, 51.86306], [12.65161, 51.86328], [12.65223, 51.86321], [12.65232, 51.86298], [12.65182, 51.86286], [12.65179, 51.86306]]], [[[12.65048, 51.86356], [12.6512, 51.86352], [12.6513, 51.86343], [12.65068, 51.86349], [12.65048, 51.86356]]], [[[12.66479, 51.86792], [12.66561, 51.86811], [12.66611, 51.86806], [12.66626, 51.86778], [12.66675, 51.86787], [12.66682, 51.86775], [12.66568, 51.86742], [12.66395, 51.86722], [12.66354, 51.86675], [12.6631, 51.86703], [12.66479, 51.86792]]], [[[12.66248, 51.86938], [12.66261, 51.86942], [12.66297, 51.86958], [12.66257, 51.8692], [12.66248, 51.86938]]], [[[12.66227, 51.86994], [12.66217, 51.86989], [12.66196, 51.86999], [12.66199, 51.87002], [12.66227, 51.86994]]], [[[12.65651, 51.88174], [12.65742, 51.88133], [12.65725, 51.88086], [12.65641, 51.8815], [12.65632, 51.88182], [12.65651, 51.88174]]], [[[12.659, 51.88294], [12.65796, 51.88175], [12.65631, 51.88249], [12.65958, 51.88538], [12.66028, 51.88507], [12.66088, 51.88505], [12.66068, 51.88485], [12.65963, 51.88463], [12.66008, 51.88394], [12.659, 51.88294]]], [[[12.65544, 51.88286], [12.65488, 51.88293], [12.65224, 51.88258], [12.65227, 51.88306], [12.65175, 51.88365], [12.65157, 51.88471], [12.65231, 51.88491], [12.65389, 51.88624], [12.65526, 51.88604], [12.65536, 51.88566], [12.65582, 51.88542], [12.65803, 51.885], [12.65561, 51.8828], [12.65544, 51.88286]]], [[[12.66332, 51.88588], [12.66305, 51.88557], [12.6627, 51.88571], [12.66303, 51.88587], [12.66301, 51.88646], [12.6637, 51.88729], [12.66424, 51.8871], [12.66332, 51.88588]]], [[[12.66103, 51.88676], [12.66177, 51.88744], [12.66198, 51.88735], [12.66106, 51.88655], [12.66103, 51.88676]]], [[[12.65305, 51.88637], [12.65192, 51.88546], [12.6516, 51.88601], [12.65183, 51.88634], [12.65173, 51.88691], [12.65089, 51.88837], [12.65123, 51.88893], [12.65109, 51.88937], [12.65224, 51.8904], [12.65283, 51.89032], [12.65273, 51.8877], [12.65305, 51.88637]]], [[[12.66321, 51.8886], [12.66398, 51.8883], [12.66353, 51.88802], [12.66287, 51.88823], [12.66321, 51.8886]]], [[[12.64801, 51.88967], [12.64798, 51.88966], [12.64797, 51.88969], [12.64799, 51.88969], [12.64801, 51.88967]]], [[[12.6686, 51.8922], [12.66875, 51.89239], [12.66889, 51.89196], [12.66821, 51.8905], [12.66697, 51.89093], [12.66762, 51.89179], [12.66784, 51.89184], [12.66795, 51.8914], [12.6682, 51.89141], [12.6686, 51.8922]]], [[[12.66106, 51.8935], [12.66138, 51.89375], [12.66262, 51.89339], [12.66336, 51.89348], [12.66386, 51.89379], [12.66393, 51.89425], [12.66456, 51.89499], [12.6672, 51.89481], [12.66946, 51.89536], [12.66712, 51.89324], [12.66644, 51.89341], [12.66499, 51.89322], [12.66394, 51.89341], [12.66266, 51.89284], [12.66228, 51.8933], [12.6612, 51.89333], [12.66106, 51.8935]]], [[[12.66603, 51.89554], [12.66498, 51.89552], [12.66503, 51.89598], [12.66528, 51.89605], [12.66514, 51.89584], [12.66539, 51.89571], [12.66598, 51.89588], [12.66603, 51.89554]]], [[[12.65619, 51.9011], [12.65771, 51.90121], [12.65846, 51.90052], [12.65761, 51.90021], [12.65688, 51.89959], [12.65722, 51.8997], [12.65732, 51.89954], [12.657, 51.89896], [12.6571, 51.89856], [12.65663, 51.89851], [12.65598, 51.8991], [12.65545, 51.89886], [12.65523, 51.89902], [12.6554, 51.8993], [12.65634, 51.89971], [12.65604, 51.90008], [12.65546, 51.89996], [12.65556, 51.89983], [12.65517, 51.89969], [12.65469, 51.89985], [12.6545, 51.89971], [12.65485, 51.89942], [12.65405, 51.89908], [12.65363, 51.89952], [12.655, 51.9002], [12.65597, 51.90023], [12.65566, 51.9006], [12.65619, 51.9011]]], [[[12.65309, 51.90036], [12.65293, 51.90139], [12.65347, 51.90271], [12.65607, 51.90467], [12.65746, 51.90523], [12.65905, 51.90553], [12.66071, 51.90553], [12.66251, 51.90516], [12.66134, 51.90468], [12.6609, 51.90479], [12.65913, 51.90412], [12.65923, 51.90345], [12.65994, 51.90379], [12.66014, 51.90362], [12.65819, 51.90239], [12.65776, 51.90264], [12.65612, 51.90144], [12.6552, 51.90136], [12.65414, 51.90082], [12.65337, 51.90022], [12.6534, 51.89997], [12.65381, 51.90017], [12.6539, 51.90005], [12.65341, 51.8998], [12.65309, 51.90036]]], [[[12.6608, 51.90098], [12.66094, 51.90133], [12.66115, 51.90122], [12.65996, 51.90029], [12.65978, 51.90033], [12.6608, 51.90098]]], [[[12.66083, 51.90154], [12.66091, 51.90213], [12.65997, 51.90261], [12.66019, 51.90271], [12.66158, 51.90171], [12.66093, 51.90138], [12.66083, 51.90154]]], [[[12.64681, 51.91596], [12.64695, 51.91659], [12.6476, 51.91655], [12.64871, 51.91702], [12.64959, 51.91651], [12.64678, 51.91572], [12.64611, 51.91572], [12.64681, 51.91596]]], [[[12.64435, 51.91619], [12.64416, 51.91621], [12.64414, 51.91683], [12.6444, 51.9168], [12.64435, 51.91619]]], [[[12.6518, 51.91642], [12.64768, 51.91901], [12.64592, 51.91994], [12.64752, 51.91982], [12.65013, 51.91886], [12.65136, 51.91773], [12.6518, 51.91642]]], [[[12.66009, 51.92462], [12.66126, 51.92535], [12.66085, 51.9261], [12.66264, 51.9264], [12.66339, 51.92692], [12.66406, 51.92711], [12.66486, 51.92715], [12.66525, 51.92674], [12.66589, 51.92661], [12.66815, 51.92742], [12.66968, 51.92955], [12.67029, 51.92931], [12.67041, 51.92857], [12.67141, 51.92798], [12.67348, 51.92806], [12.67361, 51.9275], [12.67269, 51.92738], [12.6723, 51.92693], [12.67285, 51.92627], [12.67253, 51.92477], [12.67126, 51.92699], [12.6693, 51.92645], [12.66975, 51.92586], [12.668, 51.92415], [12.66556, 51.92409], [12.66589, 51.92365], [12.66466, 51.92372], [12.66414, 51.92447], [12.66177, 51.92399], [12.66137, 51.92452], [12.6602, 51.92318], [12.65858, 51.92322], [12.66001, 51.92408], [12.66009, 51.92462]]], [[[12.65336, 51.92672], [12.65347, 51.92663], [12.65338, 51.92661], [12.65336, 51.92672]]], [[[12.65938, 51.92768], [12.66002, 51.92797], [12.65967, 51.92839], [12.66072, 51.92879], [12.66105, 51.9284], [12.66258, 51.92902], [12.66278, 51.92887], [12.66348, 51.92912], [12.66253, 51.93035], [12.66286, 51.93047], [12.66324, 51.93012], [12.66364, 51.93006], [12.66425, 51.93032], [12.66418, 51.93081], [12.6645, 51.93082], [12.66468, 51.93062], [12.66501, 51.9307], [12.66774, 51.93002], [12.66767, 51.92985], [12.66173, 51.92785], [12.66081, 51.92786], [12.65989, 51.92755], [12.65938, 51.92768]]], [[[12.65192, 51.94609], [12.65072, 51.94604], [12.65021, 51.94564], [12.64902, 51.94559], [12.64902, 51.94603], [12.65192, 51.94609]]], [[[12.64373, 51.94573], [12.64306, 51.94556], [12.64303, 51.94591], [12.6434, 51.94577], [12.64373, 51.94573]]], [[[12.67208, 51.8677], [12.67163, 51.86732], [12.67083, 51.86736], [12.67068, 51.8678], [12.67018, 51.86801], [12.67244, 51.86819], [12.67208, 51.8677]]], [[[12.66938, 51.86807], [12.66942, 51.86807], [12.66984, 51.86804], [12.66939, 51.86804], [12.66938, 51.86807]]], [[[12.673, 51.86833], [12.67305, 51.86835], [12.67305, 51.86834], [12.673, 51.86833]]], [[[12.66928, 51.86873], [12.66955, 51.86877], [12.66988, 51.86858], [12.66929, 51.86862], [12.66928, 51.86873]]], [[[12.67704, 51.86932], [12.67748, 51.86948], [12.6775, 51.86914], [12.6773, 51.86925], [12.67704, 51.86932]]], [[[12.67421, 51.86984], [12.6744, 51.86963], [12.67347, 51.86913], [12.6713, 51.86857], [12.67196, 51.86915], [12.67196, 51.86973], [12.67159, 51.87007], [12.6707, 51.87023], [12.67059, 51.8706], [12.67113, 51.87073], [12.67166, 51.87032], [12.67262, 51.87], [12.67362, 51.87008], [12.67421, 51.86984]]], [[[12.67639, 51.86945], [12.67561, 51.86938], [12.67552, 51.86951], [12.67678, 51.87044], [12.67737, 51.87156], [12.67748, 51.86955], [12.67694, 51.86934], [12.67639, 51.86945]]], [[[12.67645, 51.8714], [12.67595, 51.87064], [12.67507, 51.86999], [12.67557, 51.8707], [12.6751, 51.87144], [12.67422, 51.87164], [12.67448, 51.87209], [12.67531, 51.87172], [12.67609, 51.87173], [12.67658, 51.87194], [12.67645, 51.8714]]], [[[12.67658, 51.87421], [12.6759, 51.874], [12.6757, 51.87353], [12.67467, 51.87322], [12.67441, 51.87248], [12.67385, 51.87276], [12.67272, 51.87264], [12.67226, 51.87278], [12.67301, 51.8738], [12.67234, 51.87448], [12.67154, 51.87452], [12.67091, 51.87413], [12.67124, 51.8734], [12.67209, 51.87321], [12.67166, 51.87307], [12.67111, 51.87328], [12.67054, 51.87326], [12.66994, 51.87402], [12.67221, 51.87516], [12.67306, 51.87539], [12.67506, 51.8757], [12.67738, 51.87572], [12.67705, 51.87416], [12.67658, 51.87421]]], [[[12.67947, 51.87544], [12.6803, 51.87523], [12.68199, 51.87474], [12.67804, 51.87466], [12.67824, 51.87564], [12.67947, 51.87544]]], [[[12.69112, 51.87552], [12.6906, 51.87587], [12.68938, 51.87587], [12.68819, 51.87618], [12.68616, 51.87623], [12.68406, 51.87652], [12.67846, 51.87667], [12.67975, 51.87676], [12.67978, 51.87664], [12.69159, 51.87766], [12.69171, 51.87535], [12.69112, 51.87552]]], [[[12.67731, 51.87802], [12.67731, 51.87892], [12.67957, 51.88006], [12.68016, 51.87965], [12.67869, 51.87878], [12.67788, 51.8778], [12.67722, 51.87768], [12.67699, 51.87781], [12.67731, 51.87802]]], [[[12.67695, 51.87972], [12.67697, 51.8799], [12.6776, 51.87975], [12.67712, 51.87951], [12.67695, 51.87972]]], [[[12.67527, 51.87978], [12.6742, 51.87848], [12.67351, 51.87818], [12.67316, 51.87873], [12.67201, 51.87884], [12.67265, 51.87934], [12.6725, 51.87997], [12.67177, 51.8802], [12.67086, 51.87997], [12.67071, 51.88064], [12.67193, 51.88095], [12.6728, 51.88094], [12.67365, 51.88171], [12.6768, 51.88129], [12.67666, 51.88073], [12.67628, 51.88053], [12.67433, 51.88065], [12.67438, 51.8796], [12.67491, 51.87985], [12.6754, 51.87985], [12.67527, 51.87978]]], [[[12.68658, 51.87777], [12.67871, 51.87727], [12.67918, 51.87828], [12.68073, 51.87924], [12.68151, 51.87874], [12.68207, 51.87884], [12.68207, 51.87912], [12.6814, 51.87959], [12.68156, 51.87992], [12.68126, 51.88008], [12.68197, 51.88098], [12.68166, 51.8814], [12.6845, 51.88266], [12.68491, 51.88361], [12.68408, 51.88422], [12.68331, 51.8843], [12.68182, 51.88495], [12.68103, 51.88488], [12.68033, 51.88506], [12.67968, 51.88486], [12.67833, 51.88591], [12.67702, 51.88631], [12.67629, 51.88688], [12.67177, 51.88888], [12.67219, 51.88927], [12.67276, 51.88924], [12.67326, 51.88944], [12.67349, 51.88992], [12.6731, 51.8903], [12.67408, 51.89123], [12.67568, 51.89202], [12.67566, 51.89106], [12.67596, 51.89092], [12.67605, 51.89107], [12.67656, 51.89069], [12.67711, 51.89058], [12.67737, 51.89133], [12.67779, 51.89099], [12.67757, 51.89072], [12.67806, 51.89037], [12.67869, 51.89079], [12.68149, 51.8896], [12.68115, 51.88886], [12.68365, 51.88782], [12.68588, 51.88631], [12.68715, 51.88626], [12.68779, 51.88591], [12.68826, 51.88604], [12.688, 51.88649], [12.68826, 51.88697], [12.68795, 51.88753], [12.68703, 51.88796], [12.68621, 51.88782], [12.68423, 51.88902], [12.68743, 51.89104], [12.68864, 51.8914], [12.68887, 51.89175], [12.68869, 51.89228], [12.68815, 51.89253], [12.68701, 51.89253], [12.68449, 51.89079], [12.68307, 51.89003], [12.68235, 51.88988], [12.67816, 51.89165], [12.67817, 51.8923], [12.67667, 51.89289], [12.67676, 51.89305], [12.67761, 51.89316], [12.67821, 51.89371], [12.67784, 51.89495], [12.6783, 51.89656], [12.68303, 51.8967], [12.68279, 51.89493], [12.68299, 51.8943], [12.6846, 51.89508], [12.68615, 51.89547], [12.68781, 51.89555], [12.68988, 51.89529], [12.69212, 51.89435], [12.69338, 51.89295], [12.69081, 51.8929], [12.69125, 51.88431], [12.68972, 51.88363], [12.68888, 51.8836], [12.68926, 51.88301], [12.68852, 51.88244], [12.68909, 51.88214], [12.68901, 51.8817], [12.68871, 51.88138], [12.68852, 51.88169], [12.68674, 51.88145], [12.68737, 51.88041], [12.68722, 51.88033], [12.68691, 51.88065], [12.68567, 51.88082], [12.68543, 51.8806], [12.68577, 51.87965], [12.68513, 51.87936], [12.68596, 51.87939], [12.68646, 51.87904], [12.68716, 51.87908], [12.68717, 51.8795], [12.68787, 51.87957], [12.68868, 51.87824], [12.69062, 51.87833], [12.6908, 51.88162], [12.69135, 51.8823], [12.69156, 51.87824], [12.68658, 51.87777]], [[12.68273, 51.88046], [12.68321, 51.88043], [12.68322, 51.88054], [12.68273, 51.88056], [12.68273, 51.88046]], [[12.68644, 51.88134], [12.68585, 51.88132], [12.68515, 51.88111], [12.68634, 51.88105], [12.68644, 51.88134]]], [[[12.67858, 51.88072], [12.67899, 51.88046], [12.67838, 51.88017], [12.67804, 51.88097], [12.67858, 51.88072]]], [[[12.68114, 51.88153], [12.68071, 51.88121], [12.68052, 51.88106], [12.68052, 51.88122], [12.68114, 51.88153]]], [[[12.66932, 51.88888], [12.66871, 51.88847], [12.66835, 51.8899], [12.66977, 51.88929], [12.66932, 51.88888]]], [[[12.67276, 51.89106], [12.67323, 51.89222], [12.67461, 51.89224], [12.67342, 51.89158], [12.67244, 51.89068], [12.67232, 51.89081], [12.67276, 51.89106]]], [[[12.67001, 51.89398], [12.67102, 51.89415], [12.67152, 51.89384], [12.67229, 51.89384], [12.67281, 51.89425], [12.67264, 51.89485], [12.67327, 51.89479], [12.67354, 51.894], [12.67435, 51.89386], [12.67495, 51.89348], [12.67577, 51.89353], [12.67596, 51.89328], [12.67536, 51.8927], [12.67224, 51.89273], [12.66809, 51.89317], [12.66938, 51.89434], [12.67001, 51.89398]]], [[[12.67119, 51.89484], [12.67073, 51.89506], [12.67025, 51.89512], [12.67155, 51.89501], [12.67119, 51.89484]]], [[[12.67345, 51.89527], [12.67336, 51.89529], [12.67365, 51.89547], [12.67353, 51.89537], [12.67345, 51.89527]]], [[[12.69621, 51.89459], [12.69474, 51.89555], [12.69386, 51.897], [12.69538, 51.89702], [12.69502, 51.89608], [12.69592, 51.89522], [12.69647, 51.89518], [12.69621, 51.89459]]], [[[12.67823, 51.89666], [12.68302, 51.8968], [12.68302, 51.89677], [12.67824, 51.89663], [12.67823, 51.89666]]], [[[12.70294, 51.89466], [12.70145, 51.89416], [12.69981, 51.89395], [12.69819, 51.89404], [12.6963, 51.89456], [12.69925, 51.89692], [12.69731, 51.89528], [12.69973, 51.89479], [12.69976, 51.89449], [12.70026, 51.89452], [12.69994, 51.89548], [12.70113, 51.89562], [12.70105, 51.89597], [12.70128, 51.89603], [12.70086, 51.89798], [12.70032, 51.89773], [12.70172, 51.89871], [12.70099, 51.89878], [12.69962, 51.89824], [12.69971, 51.8981], [12.70083, 51.89824], [12.70027, 51.8978], [12.69949, 51.89819], [12.69905, 51.89801], [12.69862, 51.89768], [12.69866, 51.89727], [12.69384, 51.89707], [12.69408, 51.89863], [12.69487, 51.89957], [12.69568, 51.90012], [12.69539, 51.90121], [12.69552, 51.90199], [12.70232, 51.90212], [12.70267, 51.90168], [12.70079, 51.90178], [12.70027, 51.90151], [12.70019, 51.90115], [12.7006, 51.90061], [12.70207, 51.90019], [12.7013, 51.89958], [12.70151, 51.89897], [12.70222, 51.89877], [12.70305, 51.89893], [12.70316, 51.89878], [12.70439, 51.89901], [12.70454, 51.89862], [12.70506, 51.89838], [12.70533, 51.89318], [12.70411, 51.89316], [12.7036, 51.89502], [12.70294, 51.89466]], [[12.70337, 51.89565], [12.70517, 51.89525], [12.70466, 51.89719], [12.70222, 51.89724], [12.70241, 51.89641], [12.70317, 51.89644], [12.70337, 51.89565]]], [[[12.67563, 51.898], [12.67598, 51.8982], [12.67614, 51.89807], [12.67666, 51.89818], [12.67616, 51.8985], [12.67657, 51.89867], [12.67681, 51.89763], [12.67589, 51.89777], [12.67541, 51.89807], [12.67563, 51.898]]], [[[12.67752, 51.89843], [12.67757, 51.8983], [12.67753, 51.89828], [12.6775, 51.89845], [12.67752, 51.89843]]], [[[12.66958, 51.89839], [12.66867, 51.89837], [12.66762, 51.89838], [12.67041, 51.89851], [12.67105, 51.8984], [12.66958, 51.89839]]], [[[12.68324, 51.90053], [12.68335, 51.89951], [12.68266, 51.89778], [12.68301, 51.89683], [12.67819, 51.89675], [12.67787, 51.89703], [12.67807, 51.89781], [12.67784, 51.89794], [12.67764, 51.89782], [12.67759, 51.89801], [12.67849, 51.89848], [12.67788, 51.89855], [12.6782, 51.89884], [12.67861, 51.89855], [12.67909, 51.89885], [12.6785, 51.89955], [12.67837, 51.90047], [12.67699, 51.90123], [12.6786, 51.9027], [12.67973, 51.90269], [12.68049, 51.90158], [12.68103, 51.902], [12.68183, 51.90442], [12.68048, 51.9044], [12.68556, 51.909], [12.68626, 51.90943], [12.68714, 51.90939], [12.68769, 51.90955], [12.68814, 51.91022], [12.68782, 51.91073], [12.68868, 51.91083], [12.68918, 51.91115], [12.68988, 51.91099], [12.6901, 51.90671], [12.68984, 51.90689], [12.68907, 51.90667], [12.68793, 51.90682], [12.68751, 51.9066], [12.68741, 51.90627], [12.68625, 51.90607], [12.68729, 51.90806], [12.68659, 51.90807], [12.68583, 51.90725], [12.68425, 51.9077], [12.68394, 51.90611], [12.68547, 51.90625], [12.68458, 51.90518], [12.68334, 51.90486], [12.68356, 51.90584], [12.68272, 51.9059], [12.68228, 51.90479], [12.68251, 51.90473], [12.68245, 51.90448], [12.68222, 51.90442], [12.681, 51.90101], [12.6812, 51.90098], [12.68177, 51.90171], [12.68253, 51.90168], [12.68324, 51.90053]], [[12.68841, 51.90839], [12.68804, 51.90838], [12.68755, 51.90782], [12.68792, 51.90779], [12.68841, 51.90839]]], [[[12.67048, 51.90062], [12.66889, 51.90017], [12.6689, 51.89994], [12.66686, 51.89874], [12.66579, 51.89935], [12.66741, 51.8999], [12.66764, 51.90014], [12.66721, 51.90053], [12.66823, 51.90095], [12.66863, 51.90059], [12.67064, 51.90095], [12.67084, 51.90073], [12.67048, 51.90062]]], [[[12.67204, 51.90152], [12.67127, 51.90215], [12.66925, 51.9013], [12.66816, 51.90218], [12.6678, 51.90202], [12.66744, 51.90235], [12.66927, 51.90315], [12.67078, 51.90357], [12.67205, 51.90441], [12.67363, 51.90501], [12.67523, 51.90528], [12.67708, 51.90522], [12.68016, 51.90801], [12.67959, 51.90928], [12.67995, 51.91097], [12.67834, 51.91074], [12.67668, 51.91081], [12.67421, 51.91156], [12.67311, 51.91233], [12.67241, 51.9133], [12.67098, 51.91383], [12.67193, 51.91428], [12.67188, 51.91515], [12.67353, 51.91549], [12.67371, 51.91523], [12.67519, 51.91563], [12.67509, 51.91591], [12.6739, 51.91573], [12.67378, 51.91606], [12.67479, 51.91598], [12.67638, 51.9162], [12.67711, 51.91556], [12.67882, 51.91512], [12.6795, 51.91511], [12.67998, 51.91532], [12.68644, 51.91409], [12.68641, 51.91365], [12.68696, 51.91332], [12.68776, 51.91337], [12.68817, 51.91376], [12.68936, 51.9134], [12.68803, 51.91219], [12.68769, 51.91231], [12.68745, 51.91207], [12.68679, 51.91211], [12.68631, 51.91189], [12.68447, 51.91001], [12.68437, 51.90946], [12.68466, 51.90914], [12.68355, 51.90814], [12.6829, 51.908], [12.6833, 51.90791], [12.67816, 51.90325], [12.67733, 51.90361], [12.67738, 51.90406], [12.67785, 51.90395], [12.67796, 51.90493], [12.67605, 51.9049], [12.67594, 51.90431], [12.67562, 51.90443], [12.67443, 51.90404], [12.67507, 51.9031], [12.67563, 51.90299], [12.67618, 51.90231], [12.67546, 51.90228], [12.67472, 51.90272], [12.67458, 51.90237], [12.67278, 51.90156], [12.67322, 51.90117], [12.67174, 51.90068], [12.67153, 51.90104], [12.67224, 51.90137], [12.67204, 51.90152]], [[12.67388, 51.9027], [12.67371, 51.90311], [12.67191, 51.90242], [12.67233, 51.90201], [12.67388, 51.9027]], [[12.67793, 51.91484], [12.67785, 51.91506], [12.67696, 51.91435], [12.67718, 51.91389], [12.67777, 51.91369], [12.67849, 51.91382], [12.67882, 51.91418], [12.67861, 51.91464], [12.67793, 51.91484]]], [[[12.68889, 51.91199], [12.68887, 51.912], [12.68979, 51.91283], [12.68985, 51.91157], [12.68889, 51.91199]]], [[[12.68903, 51.91415], [12.68766, 51.91456], [12.68699, 51.91455], [12.68011, 51.91586], [12.67978, 51.91614], [12.68026, 51.91743], [12.67947, 51.91804], [12.68102, 51.91803], [12.68115, 51.91782], [12.68145, 51.91786], [12.6814, 51.91801], [12.68163, 51.91788], [12.68263, 51.91793], [12.68504, 51.91752], [12.68505, 51.91724], [12.68574, 51.91741], [12.68645, 51.91731], [12.6864, 51.9175], [12.68727, 51.91792], [12.68943, 51.91975], [12.68973, 51.9139], [12.68903, 51.91415]]], [[[12.67482, 51.9192], [12.67488, 51.91907], [12.67423, 51.91911], [12.67356, 51.9189], [12.67308, 51.91852], [12.67323, 51.91793], [12.67396, 51.91766], [12.67358, 51.91731], [12.67334, 51.91628], [12.67195, 51.9163], [12.67193, 51.91692], [12.67091, 51.91687], [12.6709, 51.91714], [12.6687, 51.91697], [12.66832, 51.91792], [12.66834, 51.91893], [12.67002, 51.91925], [12.67003, 51.91943], [12.67309, 51.91945], [12.6719, 51.92154], [12.67248, 51.92167], [12.67183, 51.92291], [12.67272, 51.92337], [12.67457, 51.92024], [12.67482, 51.9192]]], [[[12.68493, 51.91805], [12.685, 51.9178], [12.6847, 51.9178], [12.68445, 51.91786], [12.68456, 51.91801], [12.68382, 51.91792], [12.6805, 51.91813], [12.68084, 51.91823], [12.68071, 51.91832], [12.681, 51.91822], [12.68152, 51.91841], [12.68001, 51.91839], [12.68024, 51.91815], [12.67933, 51.9183], [12.67882, 51.91817], [12.67925, 51.91857], [12.67906, 51.91902], [12.67968, 51.91954], [12.6795, 51.92028], [12.67863, 51.92046], [12.67714, 51.91988], [12.67709, 51.9203], [12.67672, 51.92058], [12.67526, 51.92063], [12.67329, 51.924], [12.6735, 51.92495], [12.67465, 51.92502], [12.67516, 51.92525], [12.6759, 51.92504], [12.67679, 51.92521], [12.67712, 51.92563], [12.67682, 51.9261], [12.67805, 51.92685], [12.67821, 51.92721], [12.67777, 51.92772], [12.67637, 51.92807], [12.67503, 51.92782], [12.67461, 51.92754], [12.6743, 51.92868], [12.67443, 51.92855], [12.67558, 51.92849], [12.6871, 51.9288], [12.68732, 51.92863], [12.68782, 51.92881], [12.6888, 51.92883], [12.68773, 51.92774], [12.68646, 51.92708], [12.68441, 51.92655], [12.68287, 51.92642], [12.68123, 51.92397], [12.68043, 51.92328], [12.68207, 51.92279], [12.68162, 51.92256], [12.68223, 51.92168], [12.68303, 51.92219], [12.68349, 51.92166], [12.68378, 51.92163], [12.6844, 51.92061], [12.68438, 51.91899], [12.68493, 51.91805]], [[12.68236, 51.91892], [12.68306, 51.91902], [12.68282, 51.91933], [12.6833, 51.91935], [12.68437, 51.92001], [12.68382, 51.92022], [12.68332, 51.91951], [12.6822, 51.91914], [12.68236, 51.91892]], [[12.68052, 51.92686], [12.68009, 51.92735], [12.67918, 51.92709], [12.6795, 51.92659], [12.68052, 51.92686]]], [[[12.67287, 51.93447], [12.67417, 51.93363], [12.67417, 51.93355], [12.6728, 51.93442], [12.67287, 51.93447]]]]}, "properties": {"kind": "pv", "area_km2": 21.83, "mw": 1091.4}}, {"type": "Feature", "geometry": {"type": "Point", "coordinates": [12.63534, 51.89657]}, "properties": {"kind": "turbine", "i": 0, "mw": 6.0, "hub_m": 120.0, "rotor_m": 150.0}}, {"type": "Feature", "geometry": {"type": "Point", "coordinates": [12.63056, 51.88663]}, "properties": {"kind": "turbine", "i": 1, "mw": 6.0, "hub_m": 120.0, "rotor_m": 150.0}}, {"type": "Feature", "geometry": {"type": "Point", "coordinates": [12.59275, 51.89899]}, "properties": {"kind": "turbine", "i": 2, "mw": 6.0, "hub_m": 120.0, "rotor_m": 150.0}}]}