{"type": "FeatureCollection", "features": [{"type": "Feature", "geometry": {"type": "MultiPolygon", "coordinates": [[[[11.56498, 44.84014], [11.56489, 44.83967], [11.56379, 44.83969], [11.56408, 44.84051], [11.56522, 44.84033], [11.56498, 44.84014]]], [[[11.5631, 44.84065], [11.56289, 44.83971], [11.56144, 44.83974], [11.56227, 44.84072], [11.5631, 44.84065]]], [[[11.56628, 44.84076], [11.56427, 44.84103], [11.56449, 44.84164], [11.56955, 44.84023], [11.56628, 44.84076]]], [[[11.56337, 44.84149], [11.56352, 44.8419], [11.56366, 44.84186], [11.5634, 44.84117], [11.56337, 44.84149]]], [[[11.55476, 44.84353], [11.55506, 44.84407], [11.56183, 44.84235], [11.5613, 44.84146], [11.56153, 44.84099], [11.56059, 44.83988], [11.55997, 44.84002], [11.55935, 44.83979], [11.5544, 44.8399], [11.55455, 44.84326], [11.55476, 44.84353]], [[11.55956, 44.84191], [11.55962, 44.84162], [11.56011, 44.84138], [11.56071, 44.8416], [11.56065, 44.84191], [11.56019, 44.84214], [11.55956, 44.84191]]], [[[11.56557, 44.8423], [11.56626, 44.84199], [11.56782, 44.84182], [11.56838, 44.84144], [11.57, 44.84141], [11.56989, 44.84111], [11.56957, 44.84089], [11.56468, 44.84217], [11.56484, 44.84262], [11.56557, 44.8423]]], [[[11.56504, 44.84317], [11.56529, 44.84308], [11.56528, 44.84306], [11.56504, 44.84317]]], [[[11.5554, 44.84685], [11.55638, 44.84643], [11.55714, 44.8468], [11.55748, 44.84662], [11.55684, 44.84588], [11.55708, 44.84534], [11.55797, 44.84509], [11.5588, 44.84531], [11.55913, 44.84559], [11.56025, 44.84453], [11.56263, 44.84356], [11.56309, 44.84314], [11.56405, 44.84295], [11.56385, 44.84239], [11.55502, 44.84465], [11.55462, 44.84491], [11.55472, 44.84707], [11.5554, 44.84685]]], [[[11.56376, 44.84503], [11.56478, 44.84506], [11.56455, 44.84438], [11.56398, 44.84475], [11.56376, 44.84503]]], [[[11.56065, 44.84501], [11.56062, 44.84505], [11.5612, 44.84476], [11.56073, 44.84495], [11.56065, 44.84501]]], [[[11.56113, 44.84601], [11.56136, 44.84641], [11.56236, 44.84541], [11.56203, 44.84516], [11.56077, 44.84563], [11.56113, 44.84601]]], [[[11.56698, 44.84872], [11.56796, 44.84845], [11.56817, 44.84787], [11.56962, 44.84736], [11.57027, 44.8474], [11.57082, 44.84785], [11.57172, 44.84789], [11.57164, 44.8473], [11.57249, 44.84678], [11.57328, 44.84698], [11.57357, 44.84739], [11.57353, 44.84776], [11.57406, 44.84764], [11.57416, 44.8475], [11.57273, 44.8449], [11.57233, 44.8426], [11.569, 44.84294], [11.5653, 44.84389], [11.56698, 44.84872]]], [[[11.55922, 44.8483], [11.56012, 44.84746], [11.55946, 44.84715], [11.55936, 44.8464], [11.55724, 44.84756], [11.55705, 44.8483], [11.55656, 44.84856], [11.55605, 44.84854], [11.55588, 44.84892], [11.55534, 44.84915], [11.55514, 44.84972], [11.55584, 44.84934], [11.55618, 44.84879], [11.55682, 44.84852], [11.55784, 44.8485], [11.55849, 44.84917], [11.55922, 44.8483]]], [[[11.56555, 44.84826], [11.56594, 44.84838], [11.56581, 44.84801], [11.56553, 44.8482], [11.56555, 44.84826]]], [[[11.55699, 44.84993], [11.55698, 44.84992], [11.55698, 44.84992], [11.55698, 44.84992], [11.55699, 44.84993]]], [[[11.56612, 44.8499], [11.56655, 44.85011], [11.56634, 44.84951], [11.56594, 44.84969], [11.56612, 44.8499]]], [[[11.55725, 44.8502], [11.55736, 44.85029], [11.55741, 44.85025], [11.5572, 44.85013], [11.55725, 44.8502]]], [[[11.54756, 44.85345], [11.54899, 44.85302], [11.54878, 44.85235], [11.54775, 44.85221], [11.54712, 44.85171], [11.54707, 44.85304], [11.54624, 44.85304], [11.54623, 44.85236], [11.54591, 44.85212], [11.54608, 44.85186], [11.54548, 44.85158], [11.54543, 44.85107], [11.54439, 44.85094], [11.54391, 44.85137], [11.54226, 44.8516], [11.54232, 44.85299], [11.54309, 44.85309], [11.54339, 44.85357], [11.54321, 44.85397], [11.54239, 44.85447], [11.54241, 44.85499], [11.54756, 44.85345]]], [[[11.5666, 44.85104], [11.56626, 44.85118], [11.56673, 44.8518], [11.56665, 44.85222], [11.56544, 44.8526], [11.56482, 44.85243], [11.56458, 44.85198], [11.56488, 44.8515], [11.56558, 44.85113], [11.56468, 44.85136], [11.5635, 44.85117], [11.5638, 44.85192], [11.56347, 44.85221], [11.56283, 44.85238], [11.56314, 44.85325], [11.56245, 44.85373], [11.56164, 44.85353], [11.56051, 44.85191], [11.55908, 44.85221], [11.55878, 44.85251], [11.55885, 44.85282], [11.55982, 44.85287], [11.56037, 44.85367], [11.56005, 44.85453], [11.5596, 44.85483], [11.55989, 44.85534], [11.56772, 44.85342], [11.56679, 44.85079], [11.5666, 44.85104]]], [[[11.54614, 44.85466], [11.54616, 44.85464], [11.54588, 44.85473], [11.54609, 44.85468], [11.54614, 44.85466]]], [[[11.56678, 44.85442], [11.56685, 44.85477], [11.56721, 44.85474], [11.56723, 44.85431], [11.56678, 44.85442]]], [[[11.55872, 44.85482], [11.5579, 44.85378], [11.55655, 44.85398], [11.55615, 44.85374], [11.55586, 44.85317], [11.55578, 44.85356], [11.55642, 44.85414], [11.55673, 44.85507], [11.55604, 44.85592], [11.55521, 44.85611], [11.55458, 44.85563], [11.5546, 44.85526], [11.55489, 44.85501], [11.55463, 44.85469], [11.55402, 44.85464], [11.55363, 44.85428], [11.55307, 44.85413], [11.55237, 44.85409], [11.5518, 44.85358], [11.55051, 44.85383], [11.55092, 44.85399], [11.55119, 44.85436], [11.55064, 44.85579], [11.55163, 44.85737], [11.55917, 44.85551], [11.55872, 44.85482]]], [[[11.5504, 44.85683], [11.5499, 44.85591], [11.54921, 44.85571], [11.54849, 44.85437], [11.54824, 44.85442], [11.54739, 44.85508], [11.54806, 44.8565], [11.54827, 44.85606], [11.54887, 44.85588], [11.54942, 44.85604], [11.54968, 44.85644], [11.54922, 44.857], [11.54864, 44.85704], [11.54822, 44.85683], [11.54883, 44.85803], [11.55091, 44.85755], [11.5504, 44.85683]]], [[[11.56797, 44.85466], [11.56873, 44.8565], [11.56937, 44.85887], [11.56915, 44.85759], [11.56803, 44.8543], [11.56797, 44.85466]]], [[[11.5464, 44.85794], [11.54612, 44.85758], [11.54595, 44.85638], [11.54622, 44.85601], [11.5469, 44.85582], [11.54659, 44.8553], [11.54462, 44.85533], [11.54245, 44.85588], [11.54255, 44.85817], [11.54683, 44.85808], [11.5464, 44.85794]]], [[[11.55574, 44.85739], [11.55588, 44.85761], [11.55757, 44.85712], [11.55815, 44.85713], [11.55795, 44.8566], [11.55557, 44.85718], [11.55574, 44.85739]]], [[[11.55244, 44.85795], [11.55412, 44.85791], [11.55397, 44.85757], [11.55244, 44.85795]]], [[[11.54738, 44.85801], [11.54705, 44.85807], [11.54803, 44.85805], [11.54793, 44.85784], [11.54738, 44.85801]]], [[[11.5681, 44.86347], [11.55566, 44.86827], [11.55594, 44.87479], [11.55701, 44.87381], [11.55749, 44.87284], [11.55756, 44.87181], [11.55712, 44.87059], [11.55904, 44.86998], [11.55857, 44.87076], [11.55838, 44.87179], [11.55894, 44.87334], [11.55763, 44.87479], [11.55595, 44.87493], [11.55599, 44.87588], [11.56157, 44.87575], [11.56218, 44.87529], [11.56311, 44.87547], [11.56335, 44.87521], [11.56423, 44.87563], [11.56672, 44.87309], [11.56784, 44.87193], [11.56884, 44.87025], [11.56956, 44.86976], [11.56954, 44.86312], [11.5681, 44.86347]], [[11.56431, 44.87171], [11.56399, 44.87217], [11.56345, 44.87233], [11.56278, 44.87212], [11.56254, 44.87174], [11.56286, 44.87123], [11.5634, 44.87106], [11.56407, 44.87127], [11.56431, 44.87171]], [[11.56416, 44.86794], [11.56507, 44.86767], [11.56622, 44.86747], [11.56599, 44.86862], [11.56477, 44.86824], [11.56362, 44.86811], [11.56416, 44.86794]]], [[[11.56859, 44.87206], [11.56739, 44.87335], [11.56959, 44.87443], [11.56956, 44.87095], [11.56859, 44.87206]]], [[[11.5651, 44.87567], [11.56864, 44.87559], [11.56875, 44.87798], [11.56961, 44.8781], [11.56959, 44.87492], [11.56737, 44.87337], [11.5651, 44.87567]]], [[[11.56961, 44.88031], [11.56962, 44.88031], [11.56962, 44.8803], [11.56961, 44.88031]]], [[[11.56931, 44.88447], [11.56964, 44.8844], [11.56963, 44.88149], [11.5689, 44.88138], [11.56904, 44.88457], [11.56931, 44.88447]]], [[[11.57025, 44.83089], [11.57013, 44.8313], [11.56963, 44.83156], [11.5699, 44.83189], [11.57054, 44.83188], [11.57099, 44.83219], [11.57104, 44.83261], [11.57072, 44.83291], [11.57161, 44.83405], [11.57223, 44.83405], [11.57268, 44.83436], [11.57275, 44.83472], [11.57248, 44.83504], [11.57268, 44.8353], [11.57339, 44.83514], [11.57394, 44.83539], [11.57406, 44.83592], [11.57353, 44.83628], [11.5738, 44.83656], [11.57745, 44.83238], [11.57685, 44.83196], [11.57694, 44.83144], [11.57795, 44.8309], [11.57879, 44.83108], [11.57944, 44.83034], [11.56999, 44.83055], [11.57025, 44.83089]]], [[[11.57908, 44.83177], [11.57446, 44.83711], [11.57507, 44.83713], [11.57552, 44.83751], [11.58561, 44.83224], [11.58556, 44.8318], [11.58602, 44.83141], [11.58581, 44.83118], [11.58518, 44.8314], [11.58456, 44.83122], [11.58414, 44.83067], [11.58432, 44.83023], [11.58278, 44.83026], [11.58145, 44.83085], [11.58145, 44.83143], [11.58036, 44.83201], [11.57977, 44.83206], [11.57908, 44.83177]]], [[[11.57226, 44.8394], [11.57186, 44.83905], [11.57183, 44.83868], [11.57213, 44.83838], [11.57263, 44.83826], [11.57334, 44.83715], [11.57315, 44.83696], [11.57256, 44.83715], [11.57252, 44.83767], [11.57185, 44.83806], [11.57092, 44.83827], [11.57035, 44.83803], [11.57015, 44.8377], [11.57027, 44.83734], [11.57174, 44.83674], [11.57173, 44.83626], [11.57223, 44.83595], [11.56888, 44.83187], [11.56831, 44.83187], [11.56791, 44.83163], [11.56775, 44.83119], [11.56805, 44.83084], [11.56785, 44.8306], [11.56664, 44.83063], [11.56703, 44.83927], [11.5673, 44.83968], [11.56717, 44.84003], [11.57226, 44.8394]]], [[[11.57866, 44.83811], [11.57814, 44.8373], [11.57868, 44.83677], [11.57921, 44.83674], [11.58016, 44.83702], [11.58061, 44.83765], [11.5811, 44.83754], [11.58101, 44.83702], [11.58153, 44.83666], [11.58231, 44.83671], [11.58266, 44.83717], [11.58802, 44.83592], [11.58757, 44.8355], [11.58756, 44.83513], [11.58876, 44.8345], [11.58694, 44.83245], [11.58619, 44.8326], [11.57535, 44.83826], [11.57588, 44.83875], [11.57866, 44.83811]]], [[[11.57389, 44.83835], [11.5737, 44.83834], [11.57332, 44.83927], [11.57485, 44.83881], [11.57426, 44.83825], [11.57389, 44.83835]]], [[[11.57799, 44.83899], [11.5796, 44.8389], [11.58208, 44.83913], [11.58205, 44.83858], [11.58289, 44.8381], [11.58265, 44.83774], [11.5764, 44.8392], [11.57649, 44.83935], [11.57799, 44.83899]]], [[[11.57585, 44.8407], [11.57585, 44.84065], [11.57583, 44.84043], [11.57571, 44.84059], [11.57585, 44.8407]]], [[[11.57232, 44.84022], [11.57154, 44.8404], [11.57152, 44.84082], [11.57197, 44.84092], [11.57226, 44.84121], [11.57232, 44.84022]]], [[[11.57302, 44.84158], [11.57453, 44.84175], [11.57413, 44.84144], [11.57412, 44.84099], [11.57444, 44.8407], [11.57494, 44.84062], [11.57524, 44.84009], [11.57475, 44.83959], [11.57312, 44.84], [11.57302, 44.84158]]], [[[11.57661, 44.84071], [11.57772, 44.84065], [11.57817, 44.84083], [11.57836, 44.84148], [11.57768, 44.84223], [11.57865, 44.84238], [11.57904, 44.84188], [11.57867, 44.84159], [11.5786, 44.84114], [11.57888, 44.84082], [11.57935, 44.8407], [11.57939, 44.84], [11.57978, 44.83975], [11.58104, 44.83958], [11.57958, 44.83944], [11.57815, 44.83952], [11.57654, 44.8399], [11.57661, 44.84071]]], [[[11.57548, 44.8417], [11.57532, 44.84176], [11.57518, 44.84178], [11.5755, 44.8418], [11.57548, 44.8417]]], [[[11.56992, 44.842], [11.5701, 44.84198], [11.57009, 44.84195], [11.56992, 44.84197], [11.56992, 44.842]]], [[[11.57929, 44.84424], [11.57767, 44.84387], [11.57745, 44.84348], [11.57765, 44.84304], [11.57496, 44.84268], [11.57518, 44.84393], [11.57475, 44.84422], [11.57402, 44.84427], [11.57354, 44.84395], [11.5735, 44.84339], [11.57319, 44.84303], [11.57327, 44.84263], [11.57309, 44.84262], [11.57333, 44.84431], [11.57384, 44.84567], [11.57415, 44.8462], [11.57487, 44.84606], [11.57543, 44.84639], [11.57543, 44.8469], [11.57482, 44.84723], [11.57528, 44.84743], [11.57629, 44.84726], [11.57597, 44.84656], [11.57646, 44.84613], [11.57637, 44.84594], [11.57674, 44.84585], [11.57646, 44.84536], [11.57678, 44.84494], [11.5776, 44.84484], [11.57814, 44.8453], [11.57859, 44.84482], [11.57916, 44.84472], [11.57972, 44.84493], [11.58001, 44.84535], [11.58104, 44.84422], [11.57979, 44.84435], [11.57929, 44.84424]]], [[[11.57924, 44.84624], [11.57879, 44.84622], [11.57895, 44.84682], [11.57961, 44.84616], [11.57924, 44.84624]]], [[[11.57376, 44.84827], [11.57372, 44.84828], [11.5738, 44.84831], [11.57376, 44.84827]]], [[[11.57935, 44.85062], [11.57933, 44.85033], [11.57901, 44.85021], [11.57879, 44.85065], [11.57945, 44.85082], [11.57935, 44.85062]]], [[[11.5696, 44.84882], [11.56876, 44.8489], [11.56931, 44.84931], [11.56954, 44.85071], [11.56848, 44.85112], [11.5678, 44.85105], [11.56857, 44.85325], [11.57373, 44.85264], [11.57652, 44.8521], [11.57614, 44.8518], [11.57593, 44.85101], [11.57609, 44.85065], [11.57654, 44.85045], [11.57528, 44.84936], [11.57493, 44.84942], [11.5746, 44.84909], [11.57381, 44.8498], [11.573, 44.84997], [11.57219, 44.84951], [11.57133, 44.84946], [11.57014, 44.84875], [11.5696, 44.84882]]], [[[11.57912, 44.85139], [11.57854, 44.85116], [11.57787, 44.85255], [11.57712, 44.85297], [11.57574, 44.85325], [11.57726, 44.85393], [11.57838, 44.85305], [11.57889, 44.85297], [11.57932, 44.85311], [11.57982, 44.85254], [11.57943, 44.85236], [11.57924, 44.85253], [11.57898, 44.85247], [11.57867, 44.85223], [11.57806, 44.85244], [11.57802, 44.85223], [11.5789, 44.85192], [11.57912, 44.85139]]], [[[11.56951, 44.86143], [11.56952, 44.86153], [11.56949, 44.85995], [11.56945, 44.86002], [11.56951, 44.86143]]], [[[11.57087, 44.86126], [11.57066, 44.86104], [11.57043, 44.86074], [11.57043, 44.86176], [11.57121, 44.86146], [11.57087, 44.86126]]], [[[11.57513, 44.86167], [11.5749, 44.86181], [11.57502, 44.86196], [11.57542, 44.86164], [11.57513, 44.86167]]], [[[11.57048, 44.86254], [11.57062, 44.86242], [11.57081, 44.86223], [11.57043, 44.86238], [11.57048, 44.86254]]], [[[11.57342, 44.86255], [11.5745, 44.86265], [11.57514, 44.8629], [11.57414, 44.8619], [11.57266, 44.86262], [11.57287, 44.86272], [11.57342, 44.86255]]], [[[11.57965, 44.86383], [11.57934, 44.86237], [11.57919, 44.86237], [11.5788, 44.86278], [11.57939, 44.86274], [11.57965, 44.86383]]], [[[11.57631, 44.86336], [11.57592, 44.86327], [11.57635, 44.86375], [11.57672, 44.86329], [11.57631, 44.86336]]], [[[11.57074, 44.86305], [11.57043, 44.8631], [11.57044, 44.86486], [11.57165, 44.86434], [11.57078, 44.86373], [11.57067, 44.86344], [11.57205, 44.8626], [11.57144, 44.86254], [11.57074, 44.86305]]], [[[11.57969, 44.86499], [11.57757, 44.86333], [11.57592, 44.86521], [11.57613, 44.8666], [11.58352, 44.8708], [11.58464, 44.86984], [11.58558, 44.86958], [11.58659, 44.87044], [11.58665, 44.87086], [11.58546, 44.87197], [11.58487, 44.87224], [11.58482, 44.87253], [11.58514, 44.87286], [11.58498, 44.87309], [11.58453, 44.87309], [11.58371, 44.87246], [11.58273, 44.87273], [11.58255, 44.87237], [11.58347, 44.87181], [11.58353, 44.8715], [11.57567, 44.86703], [11.57531, 44.86661], [11.57499, 44.86656], [11.57436, 44.86684], [11.57181, 44.86921], [11.5725, 44.86967], [11.57232, 44.87035], [11.5719, 44.8706], [11.57138, 44.87062], [11.57047, 44.87], [11.57048, 44.8745], [11.57088, 44.8746], [11.57217, 44.87567], [11.57211, 44.8758], [11.57048, 44.875], [11.57049, 44.87899], [11.57101, 44.87879], [11.57183, 44.87885], [11.57241, 44.87913], [11.57279, 44.87978], [11.57259, 44.88012], [11.57167, 44.88074], [11.57157, 44.88136], [11.57104, 44.88159], [11.57051, 44.88155], [11.57052, 44.88439], [11.57309, 44.88357], [11.58006, 44.88069], [11.57965, 44.88017], [11.58011, 44.87964], [11.58084, 44.87962], [11.58143, 44.88006], [11.58496, 44.87782], [11.58844, 44.87524], [11.58743, 44.87463], [11.58732, 44.87473], [11.58767, 44.87492], [11.58675, 44.87576], [11.58589, 44.87528], [11.58771, 44.87365], [11.58827, 44.87398], [11.58842, 44.87377], [11.58855, 44.87324], [11.58762, 44.87289], [11.58766, 44.87224], [11.58871, 44.87142], [11.5893, 44.87142], [11.58985, 44.87174], [11.59002, 44.87157], [11.58835, 44.87056], [11.58612, 44.86879], [11.58483, 44.86811], [11.58426, 44.86818], [11.58376, 44.86798], [11.58351, 44.86744], [11.58212, 44.86671], [11.57969, 44.86499]], [[11.58133, 44.87666], [11.57989, 44.87663], [11.57849, 44.87691], [11.57727, 44.87746], [11.57642, 44.87814], [11.57479, 44.87667], [11.57282, 44.87596], [11.57281, 44.87349], [11.57436, 44.873], [11.5756, 44.87218], [11.5765, 44.87097], [11.57669, 44.86974], [11.5792, 44.87117], [11.57959, 44.87251], [11.58067, 44.87364], [11.58262, 44.87469], [11.58417, 44.87505], [11.58443, 44.87562], [11.58299, 44.87612], [11.58197, 44.87677], [11.58133, 44.87666]]], [[[11.57357, 44.86493], [11.57309, 44.86441], [11.57294, 44.86448], [11.57378, 44.86571], [11.57405, 44.86546], [11.57357, 44.86493]]], [[[11.5721, 44.86592], [11.57293, 44.86576], [11.57272, 44.86553], [11.57186, 44.8659], [11.57134, 44.86591], [11.57044, 44.86509], [11.57047, 44.86807], [11.5714, 44.86802], [11.57188, 44.86834], [11.57402, 44.86632], [11.57357, 44.86633], [11.57312, 44.86702], [11.57235, 44.86706], [11.57184, 44.86663], [11.5721, 44.86592]]], [[[11.57491, 44.86561], [11.57513, 44.86546], [11.57489, 44.86556], [11.57422, 44.86619], [11.57461, 44.86606], [11.57491, 44.86561]]], [[[11.57543, 44.86605], [11.5754, 44.86603], [11.57536, 44.86605], [11.5754, 44.86607], [11.57543, 44.86605]]], [[[11.57047, 44.86901], [11.57047, 44.86901], [11.57047, 44.86936], [11.5709, 44.86912], [11.57047, 44.86901]]], [[[11.57331, 44.88409], [11.5722, 44.88451], [11.57723, 44.8844], [11.57913, 44.88362], [11.58073, 44.88378], [11.58264, 44.88347], [11.58298, 44.88401], [11.58249, 44.88428], [11.58735, 44.88417], [11.58904, 44.88287], [11.58847, 44.88272], [11.58785, 44.88302], [11.58726, 44.88298], [11.58663, 44.88259], [11.58661, 44.88207], [11.5873, 44.8815], [11.58957, 44.88094], [11.59022, 44.88111], [11.59053, 44.8814], [11.59017, 44.88229], [11.59068, 44.88212], [11.59089, 44.8815], [11.59043, 44.88083], [11.59029, 44.87991], [11.59059, 44.87944], [11.59122, 44.87931], [11.59283, 44.87954], [11.59367, 44.88028], [11.59466, 44.87969], [11.5965, 44.87903], [11.59637, 44.87894], [11.59695, 44.87857], [11.59586, 44.8772], [11.59554, 44.87736], [11.5953, 44.87796], [11.59457, 44.87819], [11.59222, 44.87704], [11.59508, 44.87561], [11.59566, 44.87629], [11.59613, 44.87608], [11.59757, 44.87774], [11.59802, 44.87776], [11.5983, 44.87746], [11.59879, 44.87735], [11.5991, 44.87688], [11.59887, 44.87659], [11.59904, 44.87653], [11.59931, 44.87678], [11.59889, 44.87632], [11.59973, 44.87589], [11.59991, 44.87607], [11.60026, 44.8759], [11.60023, 44.87561], [11.60049, 44.87543], [11.60035, 44.87474], [11.59951, 44.87468], [11.59908, 44.87393], [11.59934, 44.8735], [11.60006, 44.8733], [11.59989, 44.87241], [11.59951, 44.87204], [11.59936, 44.87209], [11.59827, 44.87072], [11.59767, 44.87091], [11.59789, 44.87143], [11.59738, 44.87229], [11.59501, 44.87293], [11.59389, 44.87267], [11.5935, 44.87238], [11.59281, 44.87262], [11.59265, 44.87279], [11.59309, 44.87295], [11.59335, 44.87329], [11.59314, 44.87378], [11.59199, 44.87417], [11.59118, 44.87372], [11.58818, 44.8763], [11.5818, 44.88055], [11.57331, 44.88409]], [[11.58536, 44.87963], [11.58499, 44.87914], [11.58507, 44.87877], [11.58565, 44.87845], [11.58624, 44.87849], [11.58677, 44.87903], [11.58672, 44.87944], [11.58606, 44.87978], [11.58536, 44.87963]]], [[[11.58006, 44.83065], [11.58032, 44.83053], [11.58024, 44.83044], [11.58005, 44.83066], [11.58006, 44.83065]]], [[[11.59658, 44.83345], [11.59656, 44.83157], [11.59519, 44.83086], [11.59419, 44.83], [11.59365, 44.83002], [11.59662, 44.83362], [11.59658, 44.83345]]], [[[11.59316, 44.83475], [11.59551, 44.83477], [11.5951, 44.8341], [11.59454, 44.8344], [11.59402, 44.83443], [11.59359, 44.83423], [11.59335, 44.83377], [11.59361, 44.83339], [11.59425, 44.83316], [11.59482, 44.83326], [11.59521, 44.83371], [11.59556, 44.8335], [11.59273, 44.83004], [11.58684, 44.83017], [11.58689, 44.83062], [11.5877, 44.83044], [11.58832, 44.83085], [11.58839, 44.8316], [11.58745, 44.83201], [11.59043, 44.83536], [11.59316, 44.83475]]], [[[11.59193, 44.83595], [11.59248, 44.83665], [11.59295, 44.83653], [11.59342, 44.83663], [11.59416, 44.83628], [11.59366, 44.83524], [11.59169, 44.83564], [11.59193, 44.83595]]], [[[11.58882, 44.83906], [11.59018, 44.83857], [11.58836, 44.83641], [11.58807, 44.83648], [11.5881, 44.83693], [11.58758, 44.83729], [11.58883, 44.83861], [11.58715, 44.83941], [11.58782, 44.8395], [11.58824, 44.83916], [11.58882, 44.83906]]], [[[11.58495, 44.83804], [11.58505, 44.83796], [11.58492, 44.83782], [11.5848, 44.83803], [11.58495, 44.83804]]], [[[11.58218, 44.83981], [11.58252, 44.84009], [11.58266, 44.84086], [11.58292, 44.84105], [11.58342, 44.84071], [11.58451, 44.84071], [11.58453, 44.84], [11.58202, 44.83967], [11.58218, 44.83981]]], [[[11.59241, 44.8406], [11.59261, 44.84015], [11.59347, 44.83986], [11.59118, 44.84061], [11.59253, 44.8409], [11.59241, 44.8406]]], [[[11.58126, 44.84362], [11.58118, 44.84361], [11.58118, 44.84366], [11.58127, 44.84366], [11.58126, 44.84362]]], [[[11.58834, 44.84181], [11.58697, 44.84232], [11.58299, 44.84427], [11.58413, 44.84444], [11.58461, 44.84501], [11.586, 44.84519], [11.58645, 44.84556], [11.58667, 44.84489], [11.5871, 44.84461], [11.58905, 44.84496], [11.58892, 44.84432], [11.5885, 44.84417], [11.58826, 44.84384], [11.58866, 44.84312], [11.58834, 44.84181]], [[11.5855, 44.84399], [11.58543, 44.84335], [11.58598, 44.84301], [11.58677, 44.84307], [11.5875, 44.84365], [11.58742, 44.84414], [11.58695, 44.84439], [11.58629, 44.84439], [11.5855, 44.84399]]], [[[11.58347, 44.84631], [11.58354, 44.84631], [11.58354, 44.8463], [11.58346, 44.84629], [11.58347, 44.84631]]], [[[11.59003, 44.84629], [11.59009, 44.84633], [11.59006, 44.84621], [11.59005, 44.84624], [11.59003, 44.84629]]], [[[11.58469, 44.84676], [11.58523, 44.84667], [11.58528, 44.84645], [11.5843, 44.84635], [11.58434, 44.84676], [11.58469, 44.84676]]], [[[11.59007, 44.84899], [11.59006, 44.84904], [11.59006, 44.84906], [11.59008, 44.84898], [11.59007, 44.84899]]], [[[11.59155, 44.85002], [11.59153, 44.84997], [11.59152, 44.84992], [11.59141, 44.85004], [11.59155, 44.85002]]], [[[11.58801, 44.85182], [11.58745, 44.85197], [11.58721, 44.85226], [11.58883, 44.85194], [11.58801, 44.85182]]], [[[11.59161, 44.85292], [11.59201, 44.85262], [11.58992, 44.85248], [11.59034, 44.85273], [11.59055, 44.85315], [11.59154, 44.85312], [11.59161, 44.85292]]], [[[11.58033, 44.85436], [11.5802, 44.85489], [11.57993, 44.85534], [11.58097, 44.85449], [11.58034, 44.85419], [11.58033, 44.85436]]], [[[11.58325, 44.85605], [11.58291, 44.85628], [11.58301, 44.85641], [11.58332, 44.8563], [11.5838, 44.85565], [11.58325, 44.85605]]], [[[11.59387, 44.88244], [11.59369, 44.88251], [11.59414, 44.88251], [11.5939, 44.88242], [11.59387, 44.88244]]], [[[11.59238, 44.88306], [11.59233, 44.88318], [11.59291, 44.88303], [11.5924, 44.88297], [11.59238, 44.88306]]], [[[11.59101, 44.88353], [11.59004, 44.88376], [11.5895, 44.88364], [11.58888, 44.88414], [11.59105, 44.88409], [11.59128, 44.88361], [11.59101, 44.88353]]], [[[11.59644, 44.88395], [11.59643, 44.88396], [11.59648, 44.88396], [11.59646, 44.88392], [11.59644, 44.88395]]], [[[11.59582, 44.83054], [11.59659, 44.83096], [11.59703, 44.82994], [11.59509, 44.82998], [11.59582, 44.83054]]], [[[11.60123, 44.83358], [11.59991, 44.83198], [11.59977, 44.83198], [11.59947, 44.83221], [11.60133, 44.8338], [11.60123, 44.83358]]], [[[11.59617, 44.83489], [11.59607, 44.83489], [11.59686, 44.83515], [11.59659, 44.83479], [11.59617, 44.83489]]], [[[11.60143, 44.83486], [11.60142, 44.83488], [11.60144, 44.83489], [11.60145, 44.83488], [11.60143, 44.83486]]], [[[11.59907, 44.83517], [11.59925, 44.83552], [11.59942, 44.83551], [11.59926, 44.83502], [11.59907, 44.83517]]], [[[11.60824, 44.83483], [11.60926, 44.83491], [11.60966, 44.83523], [11.60963, 44.83572], [11.6099, 44.83585], [11.61038, 44.83544], [11.60883, 44.83446], [11.60824, 44.83483]]], [[[11.60391, 44.83551], [11.60403, 44.83547], [11.60406, 44.83543], [11.60391, 44.83551]]], [[[11.59639, 44.83874], [11.59567, 44.83897], [11.59689, 44.84015], [11.59686, 44.83961], [11.59639, 44.83874]]], [[[11.59885, 44.84189], [11.5985, 44.84174], [11.59857, 44.84225], [11.59939, 44.84217], [11.59885, 44.84189]]], [[[11.59552, 44.84434], [11.59786, 44.84409], [11.59806, 44.84335], [11.59854, 44.84279], [11.59525, 44.84321], [11.59552, 44.84434]]], [[[11.60242, 44.84432], [11.60161, 44.84448], [11.60099, 44.84404], [11.60067, 44.84439], [11.59969, 44.84454], [11.5996, 44.84472], [11.60049, 44.84472], [11.60093, 44.84516], [11.60283, 44.8443], [11.60242, 44.84432]]], [[[11.59825, 44.84665], [11.59837, 44.84662], [11.59836, 44.8466], [11.59815, 44.84666], [11.59825, 44.84665]]], [[[11.60531, 44.84795], [11.60525, 44.84964], [11.60596, 44.85038], [11.60581, 44.84928], [11.60559, 44.84908], [11.60553, 44.84779], [11.60526, 44.84773], [11.60531, 44.84795]]], [[[11.60959, 44.85206], [11.60937, 44.85184], [11.60927, 44.85172], [11.60934, 44.85213], [11.60959, 44.85206]]], [[[11.59748, 44.85307], [11.59717, 44.85303], [11.59722, 44.85332], [11.59756, 44.85329], [11.59748, 44.85307]]], [[[11.61073, 44.85457], [11.61008, 44.85418], [11.61023, 44.85337], [11.60959, 44.85356], [11.60986, 44.85507], [11.6103, 44.85489], [11.61114, 44.85488], [11.6112, 44.85464], [11.61073, 44.85457]]], [[[11.61003, 44.85601], [11.61002, 44.856], [11.61004, 44.85609], [11.61005, 44.85606], [11.61003, 44.85601]]], [[[11.598, 44.85722], [11.59817, 44.85801], [11.60069, 44.85777], [11.60055, 44.857], [11.598, 44.85722]]], [[[11.61026, 44.85733], [11.61029, 44.85721], [11.61023, 44.85719], [11.61026, 44.85733], [11.61026, 44.85733]]], [[[11.60204, 44.8587], [11.60253, 44.8589], [11.60229, 44.85822], [11.60209, 44.85802], [11.60151, 44.85807], [11.60163, 44.85862], [11.60204, 44.8587]]], [[[11.61198, 44.85858], [11.61105, 44.85845], [11.61043, 44.85831], [11.61062, 44.8585], [11.61198, 44.85858]]], [[[11.612, 44.86128], [11.61123, 44.86103], [11.61094, 44.86072], [11.61144, 44.85986], [11.61072, 44.85996], [11.6114, 44.86384], [11.61164, 44.86367], [11.61237, 44.86125], [11.612, 44.86128]]], [[[11.60244, 44.86212], [11.60246, 44.86214], [11.60247, 44.86211], [11.60244, 44.86212]]], [[[11.61015, 44.86367], [11.60991, 44.86363], [11.60945, 44.86408], [11.60859, 44.86408], [11.60825, 44.86428], [11.60905, 44.86449], [11.60936, 44.86493], [11.6084, 44.86783], [11.60784, 44.86812], [11.60713, 44.86814], [11.60664, 44.86836], [11.60567, 44.86825], [11.60555, 44.86878], [11.60585, 44.86956], [11.60583, 44.8704], [11.60658, 44.87047], [11.60695, 44.87092], [11.60668, 44.8714], [11.60577, 44.87159], [11.6061, 44.8722], [11.61157, 44.87169], [11.61186, 44.87149], [11.61056, 44.86368], [11.61015, 44.86367]], [[11.61057, 44.87091], [11.61026, 44.87127], [11.6097, 44.87138], [11.60915, 44.87116], [11.60899, 44.87076], [11.60931, 44.87035], [11.60988, 44.87024], [11.61042, 44.87045], [11.61057, 44.87091]]], [[[11.60052, 44.86968], [11.60059, 44.87026], [11.60104, 44.87022], [11.60117, 44.86956], [11.60052, 44.86968]]], [[[11.59779, 44.86984], [11.59744, 44.86988], [11.59749, 44.87016], [11.59811, 44.86984], [11.59779, 44.86984]]], [[[11.60431, 44.87221], [11.60412, 44.87237], [11.60531, 44.87227], [11.605, 44.87155], [11.6044, 44.87192], [11.60431, 44.87221]]], [[[11.60236, 44.87229], [11.60234, 44.87246], [11.60268, 44.87248], [11.60251, 44.87241], [11.60236, 44.87229]]], [[[11.60372, 44.87455], [11.60277, 44.87302], [11.6025, 44.87303], [11.60364, 44.87464], [11.60372, 44.87455]]], [[[11.61031, 44.87527], [11.61042, 44.87541], [11.61046, 44.87503], [11.61023, 44.87517], [11.61031, 44.87527]]], [[[11.61057, 44.87565], [11.61053, 44.87561], [11.61051, 44.87559], [11.61052, 44.87566], [11.61057, 44.87565]]], [[[11.60017, 44.87674], [11.6004, 44.87688], [11.60067, 44.87718], [11.60052, 44.87645], [11.60017, 44.87674]]], [[[11.59912, 44.88087], [11.599, 44.88134], [11.59956, 44.88221], [11.60097, 44.88224], [11.60125, 44.88174], [11.60168, 44.88151], [11.60061, 44.88151], [11.60073, 44.882], [11.60027, 44.88215], [11.59942, 44.8807], [11.59912, 44.88087]]], [[[11.60947, 44.88137], [11.60945, 44.88131], [11.60937, 44.88128], [11.60946, 44.88139], [11.60947, 44.88137]]], [[[11.60394, 44.88267], [11.60354, 44.8808], [11.60319, 44.88045], [11.60322, 44.87998], [11.60255, 44.88011], [11.60285, 44.88145], [11.60318, 44.88165], [11.60349, 44.88325], [11.60394, 44.88322], [11.60412, 44.88298], [11.60394, 44.88267]]], [[[11.59851, 44.88363], [11.59844, 44.88314], [11.5988, 44.88252], [11.59689, 44.88314], [11.59727, 44.88395], [11.59881, 44.88391], [11.59851, 44.88363]]], [[[11.60179, 44.88322], [11.60178, 44.88324], [11.60181, 44.88333], [11.60179, 44.88322]]], [[[11.60443, 44.88347], [11.60426, 44.88348], [11.60427, 44.88351], [11.6045, 44.88351], [11.60443, 44.88347]]], [[[11.61428, 44.83242], [11.61425, 44.83207], [11.61387, 44.83219], [11.61386, 44.83234], [11.61428, 44.83242]]], [[[11.61047, 44.83528], [11.61053, 44.83531], [11.61063, 44.83524], [11.61054, 44.83527], [11.61047, 44.83528]]], [[[11.62856, 44.84278], [11.62845, 44.84295], [11.62835, 44.84305], [11.62886, 44.84297], [11.62856, 44.84278]]], [[[11.62753, 44.84339], [11.62795, 44.84344], [11.62815, 44.84315], [11.62735, 44.84333], [11.62635, 44.84316], [11.62655, 44.84348], [11.62753, 44.84339]]], [[[11.62991, 44.84431], [11.62916, 44.84431], [11.6293, 44.8455], [11.62966, 44.84543], [11.62977, 44.84472], [11.63053, 44.84452], [11.63034, 44.84405], [11.62991, 44.84431]]], [[[11.63019, 44.84651], [11.62972, 44.84642], [11.62983, 44.84716], [11.6287, 44.84725], [11.6291, 44.84758], [11.62908, 44.84825], [11.63019, 44.84795], [11.63013, 44.84744], [11.63064, 44.8471], [11.63062, 44.84668], [11.63019, 44.84651]]], [[[11.6142, 44.84887], [11.61455, 44.8488], [11.61437, 44.84862], [11.61385, 44.84888], [11.6142, 44.84887]]], [[[11.62218, 44.8486], [11.62188, 44.84829], [11.62192, 44.84896], [11.62231, 44.84893], [11.62218, 44.8486]]], [[[11.61314, 44.85018], [11.61314, 44.85021], [11.61322, 44.85018], [11.61314, 44.85014], [11.61314, 44.85018]]], [[[11.6274, 44.85031], [11.62741, 44.85032], [11.62741, 44.85031], [11.6274, 44.85031]]], [[[11.62554, 44.85051], [11.62492, 44.85048], [11.62488, 44.85131], [11.62553, 44.85137], [11.62554, 44.85051]]], [[[11.61746, 44.85141], [11.61745, 44.85185], [11.61696, 44.85233], [11.61842, 44.85247], [11.61863, 44.85131], [11.61756, 44.85119], [11.61746, 44.85141]]], [[[11.62648, 44.85179], [11.62619, 44.85244], [11.62714, 44.85253], [11.62731, 44.85166], [11.62648, 44.85179]]], [[[11.62961, 44.85022], [11.62926, 44.85059], [11.62882, 44.85073], [11.62839, 44.85055], [11.6285, 44.85015], [11.62769, 44.85023], [11.62712, 44.85263], [11.62574, 44.85397], [11.62498, 44.85412], [11.62429, 44.85438], [11.6228, 44.85437], [11.62267, 44.85467], [11.62318, 44.85438], [11.62384, 44.85455], [11.62405, 44.85528], [11.62377, 44.85591], [11.62321, 44.85598], [11.62275, 44.85561], [11.62259, 44.85494], [11.62226, 44.85611], [11.62261, 44.85705], [11.62191, 44.85779], [11.62102, 44.85793], [11.62113, 44.85749], [11.62057, 44.8573], [11.62032, 44.85675], [11.62072, 44.85631], [11.62188, 44.85615], [11.6222, 44.85493], [11.6154, 44.85475], [11.61574, 44.85511], [11.61573, 44.8558], [11.61527, 44.85614], [11.61455, 44.85609], [11.61423, 44.85721], [11.61469, 44.85696], [11.61524, 44.85694], [11.61586, 44.85745], [11.61553, 44.85837], [11.6148, 44.85864], [11.61525, 44.85908], [11.61503, 44.85964], [11.6175, 44.85966], [11.61806, 44.85914], [11.62008, 44.85913], [11.62066, 44.85933], [11.62083, 44.85977], [11.62054, 44.86066], [11.61974, 44.86088], [11.61912, 44.86293], [11.6178, 44.86308], [11.61546, 44.86381], [11.61481, 44.86422], [11.61411, 44.86407], [11.61387, 44.8636], [11.6125, 44.86339], [11.61243, 44.86363], [11.61305, 44.86428], [11.61295, 44.86467], [11.61256, 44.86492], [11.61285, 44.86599], [11.61254, 44.86635], [11.61197, 44.86645], [11.61216, 44.86721], [11.61287, 44.86728], [11.61326, 44.8676], [11.61307, 44.86839], [11.61253, 44.86873], [11.61271, 44.86943], [11.61347, 44.86958], [11.61373, 44.8702], [11.61339, 44.87066], [11.61261, 44.87074], [11.61272, 44.87137], [11.61321, 44.87153], [11.61848, 44.87109], [11.62246, 44.87181], [11.62455, 44.87145], [11.62686, 44.86496], [11.62757, 44.86348], [11.62682, 44.86339], [11.6265, 44.86289], [11.62535, 44.86284], [11.62507, 44.86218], [11.62543, 44.86185], [11.62615, 44.86175], [11.6267, 44.8619], [11.62695, 44.86226], [11.62731, 44.8622], [11.62766, 44.86172], [11.6282, 44.86157], [11.62831, 44.86126], [11.62784, 44.86094], [11.62777, 44.86031], [11.6282, 44.85969], [11.62895, 44.85956], [11.62927, 44.85901], [11.62813, 44.85919], [11.6278, 44.85885], [11.62714, 44.85889], [11.62698, 44.85857], [11.62729, 44.85825], [11.62814, 44.85814], [11.62854, 44.85833], [11.62896, 44.85794], [11.62944, 44.85788], [11.63018, 44.85658], [11.6296, 44.85628], [11.6296, 44.85575], [11.63036, 44.85499], [11.63084, 44.85482], [11.63095, 44.85451], [11.62903, 44.85429], [11.63079, 44.85424], [11.63089, 44.85384], [11.62952, 44.85405], [11.62866, 44.85378], [11.62837, 44.85344], [11.62847, 44.85302], [11.62913, 44.85274], [11.6292, 44.85235], [11.62961, 44.85209], [11.62906, 44.85163], [11.62907, 44.85123], [11.62937, 44.85093], [11.62992, 44.85083], [11.63045, 44.85102], [11.63064, 44.8516], [11.63029, 44.85202], [11.63087, 44.8521], [11.63077, 44.84996], [11.62967, 44.85005], [11.62961, 44.85022]], [[11.62621, 44.85439], [11.62593, 44.85439], [11.62627, 44.85414], [11.62657, 44.85418], [11.62651, 44.85437], [11.62621, 44.85439]], [[11.62486, 44.85422], [11.62507, 44.85419], [11.62544, 44.85424], [11.62494, 44.85441], [11.62441, 44.85433], [11.62486, 44.85422]], [[11.62798, 44.85422], [11.62841, 44.85422], [11.62863, 44.85428], [11.62827, 44.85443], [11.62778, 44.85431], [11.62798, 44.85422]], [[11.62419, 44.85478], [11.62475, 44.85481], [11.62473, 44.85489], [11.62408, 44.85504], [11.62419, 44.8545], [11.62419, 44.85478]], [[11.62952, 44.85486], [11.62863, 44.85472], [11.63043, 44.85466], [11.63044, 44.85473], [11.62952, 44.85486]], [[11.61778, 44.85918], [11.61689, 44.85911], [11.6165, 44.85874], [11.61665, 44.85766], [11.61721, 44.85733], [11.61803, 44.85741], [11.61842, 44.85778], [11.6183, 44.85881], [11.61778, 44.85918]], [[11.62238, 44.86226], [11.62281, 44.86184], [11.62399, 44.86176], [11.62454, 44.86202], [11.62466, 44.86249], [11.62423, 44.86291], [11.62307, 44.86305], [11.62252, 44.86279], [11.62238, 44.86226]], [[11.62025, 44.86355], [11.62016, 44.86301], [11.62046, 44.86264], [11.62122, 44.86254], [11.62172, 44.86275], [11.62188, 44.86337], [11.62159, 44.86373], [11.62078, 44.86384], [11.62025, 44.86355]], [[11.61692, 44.8675], [11.61633, 44.86701], [11.61643, 44.86644], [11.61698, 44.86618], [11.61791, 44.86634], [11.61856, 44.86684], [11.61845, 44.86748], [11.61776, 44.86775], [11.61692, 44.8675]], [[11.62307, 44.86825], [11.62265, 44.8694], [11.622, 44.86902], [11.62265, 44.86783], [11.62273, 44.86661], [11.62301, 44.86653], [11.62349, 44.86716], [11.62307, 44.86825]]], [[[11.61252, 44.85509], [11.61378, 44.85529], [11.61418, 44.85468], [11.61349, 44.85484], [11.61274, 44.85463], [11.61196, 44.85469], [11.61188, 44.85499], [11.61252, 44.85509]]], [[[11.63107, 44.85654], [11.63096, 44.85659], [11.63085, 44.85688], [11.63109, 44.85691], [11.63107, 44.85654]]], [[[11.61382, 44.85861], [11.61382, 44.85862], [11.61383, 44.85861], [11.61382, 44.85861]]], [[[11.6307, 44.85835], [11.6303, 44.85836], [11.62946, 44.86064], [11.62945, 44.86081], [11.63002, 44.86097], [11.6303, 44.86128], [11.63001, 44.86222], [11.62965, 44.86255], [11.62876, 44.86269], [11.62847, 44.86349], [11.62964, 44.8632], [11.63138, 44.86329], [11.63135, 44.86268], [11.63055, 44.86258], [11.63021, 44.86211], [11.63048, 44.86141], [11.63129, 44.86121], [11.63114, 44.85808], [11.6307, 44.85835]]], [[[11.63115, 44.8641], [11.63142, 44.86409], [11.63141, 44.86383], [11.63112, 44.86385], [11.63115, 44.8641]]], [[[11.62812, 44.86418], [11.62811, 44.86415], [11.62806, 44.86429], [11.62814, 44.86422], [11.62812, 44.86418]]], [[[11.63117, 44.86514], [11.6311, 44.8652], [11.63148, 44.86542], [11.63146, 44.86511], [11.63117, 44.86514]]], [[[11.63044, 44.86773], [11.62919, 44.86811], [11.62993, 44.86763], [11.6297, 44.86707], [11.62903, 44.86661], [11.62912, 44.8662], [11.62945, 44.86594], [11.62885, 44.86583], [11.6281, 44.86615], [11.62744, 44.8659], [11.6264, 44.86861], [11.62858, 44.86842], [11.62936, 44.86877], [11.63096, 44.86861], [11.63161, 44.86838], [11.6316, 44.86809], [11.63087, 44.86835], [11.62896, 44.86854], [11.62891, 44.86841], [11.63064, 44.86774], [11.63044, 44.86773]]], [[[11.62737, 44.86875], [11.62632, 44.86881], [11.62621, 44.86911], [11.62719, 44.86902], [11.62737, 44.86875]]], [[[11.62909, 44.8707], [11.62852, 44.87076], [11.62676, 44.87152], [11.62299, 44.87232], [11.62188, 44.87231], [11.61997, 44.87196], [11.61964, 44.87242], [11.61884, 44.8725], [11.61826, 44.87218], [11.61831, 44.87162], [11.61298, 44.87206], [11.61291, 44.8724], [11.61351, 44.87289], [11.61346, 44.87328], [11.61311, 44.87359], [11.61365, 44.87649], [11.61385, 44.87647], [11.61396, 44.87808], [11.61806, 44.87848], [11.61833, 44.87864], [11.61832, 44.87899], [11.61944, 44.8791], [11.61934, 44.87687], [11.61699, 44.87644], [11.61687, 44.87623], [11.61739, 44.87528], [11.61928, 44.87548], [11.61923, 44.87444], [11.62663, 44.87427], [11.62631, 44.87337], [11.62661, 44.87307], [11.62716, 44.87293], [11.62803, 44.87311], [11.6284, 44.87336], [11.62852, 44.87389], [11.62816, 44.87424], [11.63188, 44.87415], [11.6317, 44.87035], [11.62909, 44.8707]]], [[[11.61241, 44.87556], [11.61184, 44.87582], [11.61262, 44.87654], [11.61292, 44.87723], [11.61255, 44.87533], [11.61241, 44.87556]]], [[[11.61294, 44.87803], [11.61309, 44.8781], [11.61304, 44.87786], [11.6129, 44.87801], [11.61294, 44.87803]]], [[[11.61294, 44.8792], [11.61195, 44.8796], [11.6123, 44.88093], [11.6113, 44.88112], [11.61158, 44.88218], [11.61209, 44.8825], [11.61309, 44.88237], [11.61396, 44.88282], [11.61327, 44.87903], [11.61294, 44.8792]]], [[[11.61797, 44.8824], [11.61765, 44.88242], [11.61736, 44.88237], [11.61739, 44.88246], [11.61812, 44.88246], [11.61797, 44.8824]]], [[[11.6194, 44.88232], [11.61877, 44.88237], [11.61855, 44.88246], [11.61959, 44.88247], [11.6194, 44.88232]]], [[[11.61484, 44.88265], [11.61484, 44.88265], [11.61482, 44.88259], [11.61483, 44.88265], [11.61484, 44.88265]]]]}, "properties": {"kind": "pv", "area_km2": 9.78, "mw": 489.2}}]}