{"type": "FeatureCollection", "features": [{"type": "Feature", "geometry": {"type": "MultiPolygon", "coordinates": [[[[-95.59811, 37.08076], [-95.59758, 37.07963], [-95.59961, 37.07821], [-95.59964, 37.07997], [-95.59811, 37.08076]]], [[[-95.57503, 37.03255], [-95.57073, 37.03275], [-95.57074, 37.03152], [-95.57503, 37.03237], [-95.57503, 37.03255]]], [[[-95.56975, 37.02735], [-95.56414, 37.02602], [-95.56736, 37.0221], [-95.57404, 37.02221], [-95.57487, 37.0225], [-95.57497, 37.02838], [-95.56975, 37.02735]]], [[[-95.58281, 37.02933], [-95.58377, 37.02632], [-95.58735, 37.02541], [-95.59086, 37.02677], [-95.59372, 37.02726], [-95.60364, 37.02786], [-95.60167, 37.02847], [-95.60036, 37.02965], [-95.59814, 37.03009], [-95.58352, 37.02997], [-95.58267, 37.02987], [-95.58281, 37.02933]]], [[[-95.63577, 37.01785], [-95.63579, 37.01982], [-95.6315, 37.01978], [-95.63142, 37.01845], [-95.63073, 37.01748], [-95.62942, 37.01693], [-95.62773, 37.01689], [-95.628, 37.01194], [-95.63576, 37.01628], [-95.63577, 37.01785]]], [[[-95.60553, 37.0739], [-95.60724, 37.07239], [-95.60766, 37.07106], [-95.60752, 37.06964], [-95.60795, 37.06948], [-95.60856, 37.06965], [-95.60957, 37.07109], [-95.6108, 37.07165], [-95.61193, 37.07327], [-95.61394, 37.07387], [-95.61454, 37.07497], [-95.61221, 37.07566], [-95.6083, 37.07896], [-95.60682, 37.07977], [-95.60539, 37.08245], [-95.60456, 37.08236], [-95.6049, 37.07605], [-95.6052, 37.07404], [-95.60553, 37.0739]]], [[[-95.64747, 37.02871], [-95.6468, 37.02887], [-95.64315, 37.02825], [-95.64215, 37.02733], [-95.64068, 37.02696], [-95.64061, 37.02008], [-95.64606, 37.02622], [-95.64747, 37.02871]]], [[[-95.64974, 37.05653], [-95.64997, 37.05658], [-95.64973, 37.05714], [-95.64974, 37.05653]]], [[[-95.63366, 37.04848], [-95.63391, 37.04805], [-95.63589, 37.04853], [-95.63587, 37.0509], [-95.63487, 37.05154], [-95.63444, 37.05245], [-95.63323, 37.05244], [-95.63173, 37.05139], [-95.63177, 37.04994], [-95.63366, 37.04848]]], [[[-95.61955, 37.06324], [-95.61825, 37.06324], [-95.62078, 37.06189], [-95.62179, 37.06016], [-95.6217, 37.0587], [-95.62048, 37.05672], [-95.62077, 37.0564], [-95.62514, 37.05712], [-95.62717, 37.05639], [-95.62848, 37.05519], [-95.62906, 37.05696], [-95.63177, 37.06047], [-95.626, 37.06298], [-95.62378, 37.06331], [-95.61955, 37.06324]]], [[[-95.62259, 37.07941], [-95.62388, 37.07935], [-95.6245, 37.07952], [-95.62259, 37.08013], [-95.62259, 37.07941]]], [[[-95.6112, 37.08248], [-95.61531, 37.07915], [-95.61609, 37.07906], [-95.61777, 37.08004], [-95.61764, 37.08147], [-95.6112, 37.08248]]], [[[-95.61776, 37.0671], [-95.61776, 37.07075], [-95.61559, 37.06957], [-95.61444, 37.06805], [-95.61438, 37.0671], [-95.61776, 37.0671]]], [[[-95.62532, 37.07254], [-95.62525, 37.07527], [-95.62445, 37.07514], [-95.62538, 37.07032], [-95.62532, 37.07254]]], [[[-95.63226, 37.06698], [-95.62804, 37.06701], [-95.63201, 37.06532], [-95.63226, 37.06698]]], [[[-95.62692, 37.05078], [-95.62691, 37.05109], [-95.62525, 37.0518], [-95.62422, 37.05272], [-95.62246, 37.05225], [-95.62272, 37.05092], [-95.62356, 37.0502], [-95.62516, 37.05107], [-95.62692, 37.05078]]], [[[-95.61344, 37.05552], [-95.61344, 37.05434], [-95.61617, 37.05425], [-95.61513, 37.05674], [-95.61352, 37.05672], [-95.61344, 37.05552]]], [[[-95.61319, 37.06062], [-95.61311, 37.06067], [-95.61271, 37.06072], [-95.61277, 37.06057], [-95.61319, 37.06062]]], [[[-95.5992, 37.05011], [-95.59965, 37.05045], [-95.59964, 37.05364], [-95.59725, 37.05317], [-95.59314, 37.05321], [-95.59262, 37.05153], [-95.59401, 37.04859], [-95.59745, 37.04889], [-95.5992, 37.05011]]], [[[-95.58796, 37.04519], [-95.58915, 37.04481], [-95.58881, 37.04787], [-95.58738, 37.05062], [-95.5874, 37.05274], [-95.58906, 37.05614], [-95.59064, 37.05723], [-95.59667, 37.05737], [-95.59968, 37.0584], [-95.59966, 37.063], [-95.58643, 37.06237], [-95.58478, 37.05591], [-95.58597, 37.0549], [-95.5866, 37.05357], [-95.58661, 37.05204], [-95.58601, 37.05086], [-95.5872, 37.05003], [-95.58788, 37.04857], [-95.58739, 37.04696], [-95.586, 37.04587], [-95.58796, 37.04519]]], [[[-95.58651, 37.0408], [-95.58709, 37.04131], [-95.58429, 37.04217], [-95.5839, 37.04056], [-95.58574, 37.03998], [-95.58651, 37.0408]]], [[[-95.60597, 37.02808], [-95.60582, 37.02803], [-95.60666, 37.02811], [-95.60631, 37.0282], [-95.60597, 37.02808]]], [[[-95.60991, 37.02188], [-95.61131, 37.02434], [-95.5945, 37.02308], [-95.60171, 37.02344], [-95.60346, 37.023], [-95.60433, 37.0217], [-95.60426, 37.01797], [-95.60595, 37.01694], [-95.60687, 37.01521], [-95.60991, 37.02188]]], [[[-95.59689, 37.00771], [-95.60077, 37.00735], [-95.60338, 37.00916], [-95.60502, 37.01169], [-95.60374, 37.0112], [-95.60182, 37.01106], [-95.60015, 37.01135], [-95.59869, 37.01218], [-95.59421, 37.01196], [-95.59544, 37.01139], [-95.59652, 37.01033], [-95.597, 37.00901], [-95.59689, 37.00771]]], [[[-95.57969, 37.02239], [-95.58126, 37.02246], [-95.57971, 37.02363], [-95.57969, 37.02239]]], [[[-95.63176, 37.02504], [-95.63153, 37.02365], [-95.63583, 37.02369], [-95.63584, 37.02481], [-95.63384, 37.02466], [-95.63181, 37.02527], [-95.63176, 37.02504]]], [[[-95.58571, 37.01119], [-95.58578, 37.0188], [-95.58077, 37.01856], [-95.57959, 37.01662], [-95.57955, 37.01312], [-95.58571, 37.0104], [-95.58571, 37.01119]]], [[[-95.57171, 37.01818], [-95.57169, 37.01831], [-95.5715, 37.01831], [-95.57172, 37.01813], [-95.57171, 37.01818]]], [[[-95.59828, 37.01686], [-95.59944, 37.01777], [-95.59948, 37.01946], [-95.5906, 37.01903], [-95.59058, 37.01566], [-95.59775, 37.016], [-95.59828, 37.01686]]], [[[-95.56761, 37.06558], [-95.57138, 37.06559], [-95.57011, 37.06682], [-95.5703, 37.06889], [-95.57112, 37.06981], [-95.5718, 37.07161], [-95.57296, 37.0726], [-95.57445, 37.07314], [-95.57478, 37.0741], [-95.56927, 37.06983], [-95.56535, 37.06557], [-95.56761, 37.06558]]], [[[-95.57836, 37.07622], [-95.57878, 37.07624], [-95.57934, 37.07621], [-95.57877, 37.07649], [-95.57836, 37.07622]]], [[[-95.56247, 37.06148], [-95.56191, 37.06059], [-95.56311, 37.06035], [-95.56494, 37.06138], [-95.567, 37.06116], [-95.56803, 37.06055], [-95.56866, 37.05953], [-95.56867, 37.05677], [-95.56811, 37.05556], [-95.56657, 37.05465], [-95.56446, 37.05473], [-95.56414, 37.05442], [-95.56561, 37.05429], [-95.56717, 37.05365], [-95.56871, 37.05165], [-95.57088, 37.05301], [-95.57346, 37.05312], [-95.57225, 37.05444], [-95.57175, 37.05575], [-95.57192, 37.0572], [-95.57332, 37.05958], [-95.57241, 37.06173], [-95.56297, 37.06172], [-95.56247, 37.06148]]], [[[-95.56857, 37.0424], [-95.56752, 37.04235], [-95.56637, 37.04149], [-95.56999, 37.04173], [-95.57505, 37.03869], [-95.57374, 37.04269], [-95.56857, 37.0424]]], [[[-95.57017, 37.03661], [-95.56849, 37.03755], [-95.56664, 37.03718], [-95.56794, 37.03662], [-95.57017, 37.03661]]], [[[-95.56216, 37.03671], [-95.56332, 37.03708], [-95.56222, 37.03749], [-95.5602, 37.03901], [-95.56139, 37.03781], [-95.56178, 37.03672], [-95.56216, 37.03671]]], [[[-95.63252, 37.07245], [-95.63263, 37.07574], [-95.63168, 37.07626], [-95.63006, 37.07561], [-95.63019, 37.07086], [-95.63259, 37.07085], [-95.63252, 37.07245]]], [[[-95.59848, 37.06906], [-95.59844, 37.06903], [-95.5985, 37.06901], [-95.59848, 37.06906]]]]}, "properties": {"kind": "windland", "area_km2": 6.79}}, {"type": "Feature", "geometry": {"type": "MultiPolygon", "coordinates": [[[[-95.61381, 37.0386], [-95.61386, 37.03842], [-95.61412, 37.03842], [-95.61397, 37.03893], [-95.61371, 37.03893], [-95.61381, 37.0386]]], [[[-95.61484, 37.03855], [-95.61529, 37.03856], [-95.61521, 37.03893], [-95.61466, 37.03893], [-95.61484, 37.03855]]], [[[-95.61375, 37.03965], [-95.61369, 37.03987], [-95.61366, 37.03997], [-95.61366, 37.03947], [-95.61381, 37.03947], [-95.61375, 37.03965]]], [[[-95.6145, 37.03947], [-95.61449, 37.03998], [-95.61435, 37.03998], [-95.61441, 37.03978], [-95.6145, 37.03947]]], [[[-95.61528, 37.04053], [-95.61528, 37.04103], [-95.61429, 37.04102], [-95.61428, 37.04052], [-95.61528, 37.04053]]], [[[-95.61611, 37.04104], [-95.61595, 37.04103], [-95.61595, 37.04053], [-95.61609, 37.04054], [-95.61611, 37.04104]]], [[[-95.61527, 37.04173], [-95.61521, 37.04163], [-95.61516, 37.04157], [-95.61527, 37.04157], [-95.61527, 37.04173]]], [[[-95.61361, 37.04165], [-95.61361, 37.04206], [-95.61274, 37.04206], [-95.61285, 37.0417], [-95.61361, 37.04165]]], [[[-95.61594, 37.04208], [-95.61595, 37.04157], [-95.61612, 37.04158], [-95.61614, 37.04208], [-95.61594, 37.04208]]], [[[-95.61526, 37.04286], [-95.61526, 37.04311], [-95.61428, 37.0431], [-95.61428, 37.04262], [-95.61526, 37.04262], [-95.61526, 37.04286]]], [[[-95.61593, 37.04309], [-95.61593, 37.04262], [-95.61616, 37.04262], [-95.61618, 37.04309], [-95.61593, 37.04309]]], [[[-95.61532, 37.0439], [-95.61532, 37.04416], [-95.61428, 37.04415], [-95.61428, 37.04364], [-95.61532, 37.04365], [-95.61532, 37.0439]]], [[[-95.61599, 37.04363], [-95.6162, 37.04363], [-95.61622, 37.04423], [-95.61599, 37.04422], [-95.61599, 37.04363]]], [[[-95.61531, 37.04496], [-95.61531, 37.04519], [-95.61428, 37.04519], [-95.61428, 37.04469], [-95.61531, 37.0447], [-95.61531, 37.04496]]], [[[-95.61598, 37.0452], [-95.61599, 37.04476], [-95.61623, 37.04477], [-95.61625, 37.04521], [-95.61598, 37.0452]]], [[[-95.61531, 37.04573], [-95.61531, 37.0461], [-95.61429, 37.04613], [-95.61429, 37.04573], [-95.61531, 37.04573]]], [[[-95.61598, 37.04609], [-95.61598, 37.04574], [-95.61627, 37.04575], [-95.61628, 37.04608], [-95.61598, 37.04609]]], [[[-95.60776, 37.03734], [-95.60873, 37.03735], [-95.60871, 37.03785], [-95.60776, 37.03784], [-95.60776, 37.03734]]], [[[-95.6094, 37.03762], [-95.6094, 37.03735], [-95.61017, 37.03736], [-95.61037, 37.03786], [-95.60939, 37.03786], [-95.6094, 37.03762]]], [[[-95.61104, 37.03848], [-95.61104, 37.0384], [-95.61106, 37.0384], [-95.61104, 37.03848]]], [[[-95.60938, 37.0384], [-95.60999, 37.0384], [-95.6096, 37.03891], [-95.60937, 37.03891], [-95.60938, 37.0384]]], [[[-95.61188, 37.03876], [-95.61163, 37.03882], [-95.61173, 37.03847], [-95.61221, 37.03848], [-95.61212, 37.03877], [-95.61188, 37.03876]]], [[[-95.61035, 37.03995], [-95.60937, 37.03995], [-95.60937, 37.03945], [-95.61036, 37.03955], [-95.61035, 37.03995]]], [[[-95.61141, 37.03977], [-95.61164, 37.03992], [-95.61163, 37.03996], [-95.6113, 37.03996], [-95.61141, 37.03977]]], [[[-95.61034, 37.04074], [-95.61035, 37.04099], [-95.60937, 37.04098], [-95.60937, 37.04049], [-95.61034, 37.04049], [-95.61034, 37.04074]]], [[[-95.60937, 37.04152], [-95.61036, 37.04153], [-95.61037, 37.04202], [-95.60937, 37.04202], [-95.60937, 37.04152]]], [[[-95.61145, 37.04133], [-95.61177, 37.04127], [-95.6113, 37.04307], [-95.61105, 37.04307], [-95.61103, 37.0413], [-95.61145, 37.04133]]], [[[-95.60936, 37.04256], [-95.61037, 37.04256], [-95.61038, 37.04306], [-95.60935, 37.04306], [-95.60936, 37.04256]]], [[[-95.61361, 37.0426], [-95.61361, 37.0431], [-95.61248, 37.04308], [-95.61263, 37.0426], [-95.61361, 37.0426]]], [[[-95.61105, 37.04408], [-95.61105, 37.04361], [-95.61119, 37.04361], [-95.61106, 37.04404], [-95.61105, 37.04408]]], [[[-95.61361, 37.04364], [-95.6136, 37.04415], [-95.61222, 37.04414], [-95.61237, 37.04362], [-95.61361, 37.04364]]], [[[-95.60942, 37.04436], [-95.60942, 37.0436], [-95.61038, 37.0436], [-95.61037, 37.04461], [-95.60951, 37.0446], [-95.60942, 37.04436]]], [[[-95.6136, 37.04495], [-95.61361, 37.04519], [-95.61192, 37.04519], [-95.61207, 37.04468], [-95.6136, 37.04469], [-95.6136, 37.04495]]], [[[-95.61214, 37.04573], [-95.61361, 37.04573], [-95.61361, 37.04614], [-95.61152, 37.04618], [-95.61173, 37.04573], [-95.61214, 37.04573]]], [[[-95.60474, 37.03733], [-95.60509, 37.03733], [-95.60509, 37.03783], [-95.60475, 37.03783], [-95.60474, 37.03733]]], [[[-95.60709, 37.03734], [-95.60708, 37.03784], [-95.60577, 37.03783], [-95.60577, 37.03733], [-95.60709, 37.03734]]], [[[-95.60477, 37.03837], [-95.60509, 37.03837], [-95.60508, 37.03887], [-95.60479, 37.03887], [-95.60477, 37.03837]]], [[[-95.60576, 37.03888], [-95.60576, 37.03837], [-95.60708, 37.03838], [-95.60707, 37.0389], [-95.60576, 37.03888]]], [[[-95.6087, 37.03839], [-95.6087, 37.0389], [-95.60775, 37.0389], [-95.60775, 37.03838], [-95.6087, 37.03839]]], [[[-95.60508, 37.03941], [-95.60508, 37.03991], [-95.60483, 37.03991], [-95.60481, 37.03941], [-95.60508, 37.03941]]], [[[-95.60673, 37.03944], [-95.60707, 37.03944], [-95.60706, 37.03993], [-95.60575, 37.03992], [-95.60576, 37.03942], [-95.60673, 37.03944]]], [[[-95.60774, 37.03969], [-95.60774, 37.03944], [-95.6087, 37.03944], [-95.6087, 37.03994], [-95.60774, 37.03994], [-95.60774, 37.03969]]], [[[-95.60507, 37.04045], [-95.60506, 37.04097], [-95.60486, 37.04097], [-95.60484, 37.04045], [-95.60507, 37.04045]]], [[[-95.60706, 37.04073], [-95.60705, 37.04098], [-95.60574, 37.04098], [-95.60575, 37.04046], [-95.60706, 37.04047], [-95.60706, 37.04073]]], [[[-95.60773, 37.04073], [-95.60773, 37.04048], [-95.6087, 37.04048], [-95.6087, 37.04098], [-95.60773, 37.04098], [-95.60773, 37.04073]]], [[[-95.60489, 37.04192], [-95.60488, 37.04151], [-95.60506, 37.04151], [-95.60505, 37.04199], [-95.60489, 37.04192]]], [[[-95.60572, 37.04199], [-95.60573, 37.04152], [-95.60705, 37.04152], [-95.60704, 37.04201], [-95.60572, 37.04199]]], [[[-95.6087, 37.04152], [-95.6087, 37.04202], [-95.60772, 37.04201], [-95.60772, 37.04152], [-95.6087, 37.04152]]], [[[-95.60573, 37.04253], [-95.60704, 37.04255], [-95.60703, 37.04303], [-95.60574, 37.04283], [-95.60573, 37.04253]]], [[[-95.60869, 37.04275], [-95.60868, 37.04305], [-95.60771, 37.04304], [-95.60771, 37.04255], [-95.60869, 37.04256], [-95.60869, 37.04275]]]]}, "properties": {"kind": "pv", "area_km2": 0.18, "mw": 9.1}}, {"type": "Feature", "geometry": {"type": "Point", "coordinates": [-95.58838, 37.04548]}, "properties": {"kind": "turbine", "i": 0, "mw": 6.0, "hub_m": 120.0, "rotor_m": 150.0}}, {"type": "Feature", "geometry": {"type": "Point", "coordinates": [-95.59703, 37.05845]}, "properties": {"kind": "turbine", "i": 1, "mw": 6.0, "hub_m": 120.0, "rotor_m": 150.0}}, {"type": "Feature", "geometry": {"type": "Point", "coordinates": [-95.60012, 37.02877]}, "properties": {"kind": "turbine", "i": 2, "mw": 6.0, "hub_m": 120.0, "rotor_m": 150.0}}, {"type": "Feature", "geometry": {"type": "Point", "coordinates": [-95.62165, 37.05791]}, "properties": {"kind": "turbine", "i": 3, "mw": 6.0, "hub_m": 120.0, "rotor_m": 150.0}}, {"type": "Feature", "geometry": {"type": "Point", "coordinates": [-95.58771, 37.02575]}, "properties": {"kind": "turbine", "i": 4, "mw": 6.0, "hub_m": 120.0, "rotor_m": 150.0}}, {"type": "Feature", "geometry": {"type": "Point", "coordinates": [-95.63373, 37.05106]}, "properties": {"kind": "turbine", "i": 5, "mw": 6.0, "hub_m": 120.0, "rotor_m": 150.0}}, {"type": "Feature", "geometry": {"type": "Point", "coordinates": [-95.60799, 37.01872]}, "properties": {"kind": "turbine", "i": 6, "mw": 6.0, "hub_m": 120.0, "rotor_m": 150.0}}, {"type": "Feature", "geometry": {"type": "Point", "coordinates": [-95.60979, 37.07133]}, "properties": {"kind": "turbine", "i": 7, "mw": 6.0, "hub_m": 120.0, "rotor_m": 150.0}}, {"type": "Feature", "geometry": {"type": "Point", "coordinates": [-95.57186, 37.04255]}, "properties": {"kind": "turbine", "i": 8, "mw": 6.0, "hub_m": 120.0, "rotor_m": 150.0}}, {"type": "Feature", "geometry": {"type": "Point", "coordinates": [-95.57241, 37.05899]}, "properties": {"kind": "turbine", "i": 9, "mw": 6.0, "hub_m": 120.0, "rotor_m": 150.0}}, {"type": "Feature", "geometry": {"type": "Point", "coordinates": [-95.63282, 37.02476]}, "properties": {"kind": "turbine", "i": 10, "mw": 6.0, "hub_m": 120.0, "rotor_m": 150.0}}, {"type": "Feature", "geometry": {"type": "Point", "coordinates": [-95.59147, 37.01579]}, "properties": {"kind": "turbine", "i": 11, "mw": 6.0, "hub_m": 120.0, "rotor_m": 150.0}}, {"type": "Feature", "geometry": {"type": "Point", "coordinates": [-95.63031, 37.07088]}, "properties": {"kind": "turbine", "i": 12, "mw": 6.0, "hub_m": 120.0, "rotor_m": 150.0}}, {"type": "Feature", "geometry": {"type": "Point", "coordinates": [-95.5713, 37.02611]}, "properties": {"kind": "turbine", "i": 13, "mw": 6.0, "hub_m": 120.0, "rotor_m": 150.0}}]}