{"type": "FeatureCollection", "features": [{"type": "Feature", "geometry": {"type": "MultiPolygon", "coordinates": [[[[25.50367, 42.0465], [25.50506, 42.04595], [25.50093, 42.04589], [25.50089, 42.04772], [25.50367, 42.0465]]], [[[25.51204, 42.04621], [25.512, 42.04604], [25.50745, 42.04598], [25.50902, 42.05034], [25.5088, 42.05109], [25.50773, 42.052], [25.50807, 42.05305], [25.50952, 42.05379], [25.51381, 42.05332], [25.51419, 42.05357], [25.51392, 42.05385], [25.50966, 42.05433], [25.50913, 42.05425], [25.50814, 42.05375], [25.50827, 42.05543], [25.50802, 42.05661], [25.50868, 42.05685], [25.50891, 42.05729], [25.50843, 42.05853], [25.51178, 42.05918], [25.51376, 42.05916], [25.51415, 42.05948], [25.51433, 42.06036], [25.51953, 42.06027], [25.52509, 42.06118], [25.52852, 42.0615], [25.53291, 42.06117], [25.53662, 42.06016], [25.54088, 42.05843], [25.54065, 42.05812], [25.53762, 42.05925], [25.53729, 42.05908], [25.5374, 42.05877], [25.54038, 42.05762], [25.53879, 42.05798], [25.5365, 42.0588], [25.53609, 42.05865], [25.53621, 42.05832], [25.5388, 42.05739], [25.54191, 42.05667], [25.54128, 42.05668], [25.54118, 42.05631], [25.54216, 42.056], [25.54347, 42.05504], [25.54444, 42.05492], [25.54501, 42.05509], [25.54522, 42.05535], [25.54537, 42.05463], [25.54474, 42.05403], [25.54472, 42.0531], [25.54382, 42.05204], [25.54388, 42.05102], [25.54364, 42.05029], [25.54395, 42.04984], [25.54442, 42.04999], [25.54456, 42.05202], [25.54535, 42.05282], [25.54542, 42.05382], [25.54608, 42.0545], [25.54586, 42.05573], [25.5471, 42.05606], [25.5481, 42.05588], [25.55099, 42.05607], [25.55263, 42.05556], [25.54861, 42.05488], [25.54707, 42.05417], [25.54631, 42.05342], [25.54602, 42.05263], [25.54629, 42.0515], [25.5468, 42.05059], [25.54665, 42.0499], [25.54686, 42.049], [25.54741, 42.0485], [25.54756, 42.04808], [25.54818, 42.04766], [25.54901, 42.04727], [25.54975, 42.04728], [25.55055, 42.0469], [25.55015, 42.04538], [25.5515, 42.04345], [25.55538, 42.04253], [25.55614, 42.0421], [25.55921, 42.03944], [25.55957, 42.0387], [25.56109, 42.03779], [25.56156, 42.03672], [25.56245, 42.03585], [25.55938, 42.03513], [25.55566, 42.03366], [25.55359, 42.03498], [25.5523, 42.03491], [25.55193, 42.0352], [25.55146, 42.03509], [25.55067, 42.03391], [25.55069, 42.03311], [25.55036, 42.03262], [25.55029, 42.03161], [25.54636, 42.03342], [25.5474, 42.03405], [25.54728, 42.03442], [25.54641, 42.03425], [25.54575, 42.0337], [25.53987, 42.03639], [25.53465, 42.03842], [25.5357, 42.03943], [25.53552, 42.03981], [25.53518, 42.03978], [25.53451, 42.03928], [25.53399, 42.03865], [25.52715, 42.0407], [25.51738, 42.04286], [25.52002, 42.04275], [25.52123, 42.04303], [25.52212, 42.04358], [25.52201, 42.04397], [25.52357, 42.04517], [25.52434, 42.04421], [25.52428, 42.04312], [25.52898, 42.04198], [25.53327, 42.04071], [25.53393, 42.04116], [25.53486, 42.04145], [25.53562, 42.04148], [25.53659, 42.04127], [25.53737, 42.04079], [25.53777, 42.04031], [25.53789, 42.03908], [25.54551, 42.03577], [25.54726, 42.03612], [25.54824, 42.03593], [25.54892, 42.03556], [25.5501, 42.03662], [25.55191, 42.03703], [25.5544, 42.03672], [25.55611, 42.03586], [25.55867, 42.03689], [25.55762, 42.03757], [25.55605, 42.0394], [25.55427, 42.04088], [25.55084, 42.04165], [25.54972, 42.04218], [25.54841, 42.04369], [25.54781, 42.04478], [25.54767, 42.04572], [25.54568, 42.04689], [25.54464, 42.0482], [25.54316, 42.04828], [25.54197, 42.04896], [25.5415, 42.04972], [25.54142, 42.05051], [25.54167, 42.05248], [25.54242, 42.05357], [25.53985, 42.05496], [25.53917, 42.05559], [25.53753, 42.05599], [25.53473, 42.05708], [25.53392, 42.05802], [25.53396, 42.05916], [25.53227, 42.05957], [25.52869, 42.05985], [25.5255, 42.05954], [25.52018, 42.05865], [25.51607, 42.05862], [25.51552, 42.05807], [25.51453, 42.0576], [25.51359, 42.05746], [25.51236, 42.05756], [25.51114, 42.05734], [25.51101, 42.05662], [25.51053, 42.05592], [25.51422, 42.0555], [25.51517, 42.05524], [25.51606, 42.05457], [25.51642, 42.05349], [25.5159, 42.05243], [25.51469, 42.05177], [25.51369, 42.05166], [25.51068, 42.05198], [25.51111, 42.05118], [25.51124, 42.05019], [25.51037, 42.04758], [25.51569, 42.04969], [25.51644, 42.05046], [25.51606, 42.0514], [25.51621, 42.05223], [25.51678, 42.05294], [25.51768, 42.05344], [25.51909, 42.05377], [25.52059, 42.05363], [25.52215, 42.05373], [25.52315, 42.05342], [25.52482, 42.05233], [25.52473, 42.05163], [25.52417, 42.05129], [25.52401, 42.05012], [25.52273, 42.05133], [25.52173, 42.05191], [25.52071, 42.05169], [25.51948, 42.05195], [25.51869, 42.05176], [25.51857, 42.05138], [25.51949, 42.05082], [25.51907, 42.05004], [25.51737, 42.04828], [25.51549, 42.0475], [25.51521, 42.04718], [25.51469, 42.04718], [25.51433, 42.04691], [25.51204, 42.04621]]], [[[25.50389, 42.05383], [25.50463, 42.05335], [25.50342, 42.05286], [25.50338, 42.05222], [25.50262, 42.05168], [25.50268, 42.05134], [25.50311, 42.05131], [25.50402, 42.05195], [25.50451, 42.05208], [25.50482, 42.05273], [25.50519, 42.053], [25.50785, 42.05115], [25.50823, 42.05068], [25.50821, 42.04996], [25.50671, 42.04603], [25.50087, 42.04849], [25.5008, 42.05135], [25.502, 42.05189], [25.50076, 42.05317], [25.50072, 42.0549], [25.49852, 42.05487], [25.49846, 42.0553], [25.4975, 42.05589], [25.49761, 42.0563], [25.49681, 42.05692], [25.49536, 42.05668], [25.49406, 42.056], [25.49364, 42.05609], [25.49557, 42.05774], [25.49405, 42.0591], [25.49217, 42.05782], [25.49105, 42.0576], [25.49061, 42.0583], [25.49036, 42.05932], [25.49071, 42.06119], [25.48849, 42.06109], [25.48845, 42.06276], [25.49026, 42.06281], [25.49456, 42.06336], [25.49853, 42.06278], [25.49843, 42.06227], [25.49658, 42.06263], [25.496, 42.06245], [25.49458, 42.06048], [25.4944, 42.0592], [25.49502, 42.05888], [25.49585, 42.05913], [25.49693, 42.05894], [25.49744, 42.05905], [25.49746, 42.05876], [25.49888, 42.05861], [25.49867, 42.05749], [25.50006, 42.05711], [25.49937, 42.05622], [25.50012, 42.05602], [25.50163, 42.05645], [25.5018, 42.05615], [25.50265, 42.05631], [25.50313, 42.05586], [25.50317, 42.05367], [25.50379, 42.05369], [25.50377, 42.05393], [25.50389, 42.05383]], [[25.50553, 42.04902], [25.5056, 42.04919], [25.50406, 42.04899], [25.50532, 42.04846], [25.50553, 42.04902]]], [[[25.50741, 42.05423], [25.50714, 42.05243], [25.50424, 42.05435], [25.50379, 42.05548], [25.50567, 42.05562], [25.5059, 42.05596], [25.50577, 42.05641], [25.50728, 42.05666], [25.50755, 42.05541], [25.50741, 42.05423]]], [[[25.48941, 42.05562], [25.48917, 42.05581], [25.48916, 42.05613], [25.48967, 42.05587], [25.48941, 42.05562]]], [[[25.4886, 42.05641], [25.4889, 42.05626], [25.48861, 42.05608], [25.4886, 42.05641]]], [[[25.50738, 42.05817], [25.50777, 42.0583], [25.50803, 42.05777], [25.50771, 42.05767], [25.50738, 42.05817]]], [[[25.49751, 42.06003], [25.49746, 42.06006], [25.49734, 42.0601], [25.49756, 42.06011], [25.49751, 42.06003]]], [[[25.51115, 42.05963], [25.50809, 42.05903], [25.50709, 42.05866], [25.50641, 42.06055], [25.50592, 42.06055], [25.5058, 42.06017], [25.50519, 42.06008], [25.50555, 42.06149], [25.50502, 42.06148], [25.505, 42.06187], [25.5077, 42.0618], [25.51362, 42.06047], [25.51346, 42.05966], [25.51238, 42.05977], [25.51115, 42.05963]]], [[[25.49705, 42.06018], [25.49698, 42.06019], [25.49698, 42.0602], [25.49705, 42.06018]]], [[[25.51336, 42.06142], [25.51713, 42.06134], [25.52421, 42.06158], [25.51984, 42.06084], [25.51852, 42.06077], [25.51416, 42.06092], [25.51156, 42.06154], [25.51336, 42.06142]]], [[[25.51141, 42.06289], [25.50931, 42.0632], [25.50923, 42.06276], [25.51009, 42.06239], [25.50671, 42.06303], [25.50452, 42.0632], [25.50297, 42.06379], [25.50266, 42.06539], [25.49825, 42.06701], [25.49653, 42.06864], [25.49488, 42.0713], [25.49183, 42.07299], [25.48919, 42.07379], [25.48817, 42.07444], [25.48814, 42.07583], [25.49002, 42.07456], [25.49067, 42.07368], [25.49118, 42.07365], [25.49263, 42.07308], [25.49372, 42.0731], [25.49474, 42.07286], [25.49705, 42.07129], [25.49895, 42.07062], [25.5012, 42.06846], [25.50168, 42.06698], [25.50282, 42.06615], [25.50409, 42.06594], [25.50524, 42.06494], [25.50709, 42.06437], [25.51045, 42.06403], [25.51105, 42.06411], [25.51207, 42.06388], [25.51285, 42.06429], [25.51421, 42.06411], [25.51727, 42.06475], [25.51844, 42.06472], [25.52267, 42.06435], [25.523, 42.06371], [25.52425, 42.06354], [25.52799, 42.06425], [25.53029, 42.06526], [25.53225, 42.06481], [25.53622, 42.06457], [25.53636, 42.06413], [25.53722, 42.06419], [25.53797, 42.06394], [25.5409, 42.06386], [25.54293, 42.06429], [25.54372, 42.06403], [25.54465, 42.06396], [25.54554, 42.06417], [25.5474, 42.0637], [25.5517, 42.06308], [25.55498, 42.06374], [25.55608, 42.06417], [25.55752, 42.0651], [25.55929, 42.06542], [25.56126, 42.06519], [25.56281, 42.06338], [25.56186, 42.06204], [25.56159, 42.06046], [25.5584, 42.05923], [25.55761, 42.05792], [25.55732, 42.05774], [25.55663, 42.05772], [25.55604, 42.05708], [25.55395, 42.05608], [25.54371, 42.06001], [25.54089, 42.06092], [25.53647, 42.06188], [25.53084, 42.06235], [25.52807, 42.06226], [25.52766, 42.06242], [25.52601, 42.0624], [25.52268, 42.06368], [25.52202, 42.0641], [25.52049, 42.06434], [25.51818, 42.06394], [25.51722, 42.06321], [25.517, 42.06267], [25.51544, 42.06255], [25.51392, 42.06213], [25.51288, 42.06218], [25.51327, 42.06248], [25.51289, 42.06284], [25.51141, 42.06289]], [[25.53602, 42.06337], [25.53591, 42.06379], [25.53539, 42.06403], [25.53484, 42.06395], [25.53452, 42.06357], [25.53463, 42.06316], [25.53514, 42.06291], [25.53569, 42.063], [25.53602, 42.06337]], [[25.54645, 42.06141], [25.54652, 42.06033], [25.54702, 42.06013], [25.54769, 42.06024], [25.54819, 42.06114], [25.54805, 42.06168], [25.54704, 42.06189], [25.54645, 42.06141]], [[25.54183, 42.06361], [25.54162, 42.06325], [25.54181, 42.06285], [25.54235, 42.06266], [25.54288, 42.0628], [25.54315, 42.0632], [25.54295, 42.0636], [25.54241, 42.06379], [25.54183, 42.06361]], [[25.55625, 42.06023], [25.55701, 42.06074], [25.55925, 42.0617], [25.55991, 42.06325], [25.55972, 42.06354], [25.55865, 42.06345], [25.55753, 42.06269], [25.55582, 42.06201], [25.55219, 42.06126], [25.55197, 42.06021], [25.55133, 42.05895], [25.55349, 42.05813], [25.5557, 42.05942], [25.55625, 42.06023]]], [[[25.50227, 42.06357], [25.50157, 42.06339], [25.49952, 42.06367], [25.50027, 42.06562], [25.50206, 42.06506], [25.50227, 42.06357]]], [[[25.49017, 42.06335], [25.48844, 42.0633], [25.48842, 42.06379], [25.4928, 42.06378], [25.49017, 42.06335]]], [[[25.4952, 42.06419], [25.48841, 42.06433], [25.48837, 42.06599], [25.49571, 42.06581], [25.49394, 42.06759], [25.49253, 42.06991], [25.49018, 42.07109], [25.48824, 42.0717], [25.48819, 42.07374], [25.48884, 42.07332], [25.4914, 42.07255], [25.49438, 42.07091], [25.49589, 42.06838], [25.49694, 42.06727], [25.49782, 42.06657], [25.49962, 42.0659], [25.4988, 42.06376], [25.4952, 42.06419]]], [[[25.50284, 42.0672], [25.5024, 42.0675], [25.50346, 42.06709], [25.50372, 42.06679], [25.50284, 42.0672]]], [[[25.51167, 42.06577], [25.511, 42.06557], [25.51003, 42.06555], [25.50794, 42.06577], [25.50632, 42.06613], [25.50449, 42.06763], [25.50404, 42.06855], [25.50291, 42.06914], [25.50193, 42.07005], [25.50031, 42.07113], [25.50007, 42.07177], [25.4993, 42.0723], [25.49859, 42.07311], [25.49755, 42.07361], [25.49511, 42.07433], [25.49332, 42.07529], [25.49171, 42.07531], [25.4881, 42.07752], [25.48804, 42.07996], [25.49264, 42.07717], [25.49425, 42.07699], [25.49631, 42.07595], [25.49915, 42.07506], [25.50067, 42.07417], [25.50205, 42.07287], [25.5025, 42.07214], [25.50595, 42.06971], [25.5067, 42.06858], [25.50756, 42.0678], [25.50846, 42.06757], [25.50827, 42.06936], [25.50561, 42.07139], [25.50496, 42.07268], [25.50494, 42.07371], [25.50536, 42.07482], [25.50611, 42.07569], [25.50799, 42.07666], [25.51034, 42.07943], [25.51143, 42.08007], [25.51243, 42.08038], [25.51198, 42.08697], [25.50879, 42.08773], [25.50798, 42.08844], [25.50771, 42.08936], [25.50805, 42.09026], [25.50915, 42.09103], [25.51038, 42.09123], [25.51203, 42.09099], [25.51236, 42.09275], [25.51199, 42.09499], [25.50935, 42.0979], [25.5082, 42.10003], [25.51056, 42.10006], [25.51126, 42.09876], [25.51406, 42.09561], [25.51459, 42.09277], [25.51401, 42.08888], [25.51035, 42.08957], [25.50994, 42.08933], [25.51018, 42.08904], [25.51406, 42.08832], [25.51453, 42.08383], [25.51456, 42.08109], [25.51501, 42.07878], [25.51535, 42.07813], [25.51447, 42.07732], [25.51382, 42.07756], [25.51319, 42.07735], [25.51237, 42.0759], [25.51102, 42.07472], [25.5108, 42.07387], [25.50946, 42.0739], [25.50895, 42.07355], [25.5089, 42.0731], [25.50918, 42.0728], [25.51025, 42.07257], [25.51071, 42.07264], [25.51059, 42.07217], [25.51093, 42.07156], [25.51208, 42.07133], [25.5126, 42.07141], [25.51255, 42.07071], [25.5109, 42.07057], [25.5105, 42.06951], [25.51071, 42.06771], [25.51141, 42.06725], [25.5171, 42.06617], [25.52215, 42.06634], [25.52259, 42.06656], [25.52391, 42.06652], [25.521, 42.06587], [25.51876, 42.06593], [25.51813, 42.06616], [25.5159, 42.06591], [25.51492, 42.06602], [25.51298, 42.06556], [25.51167, 42.06577]]], [[[25.49742, 42.07226], [25.4968, 42.07268], [25.49818, 42.07187], [25.49773, 42.07203], [25.49742, 42.07226]]], [[[25.51202, 42.07284], [25.51172, 42.07287], [25.51174, 42.07305], [25.51329, 42.07323], [25.51377, 42.07267], [25.5151, 42.07273], [25.51518, 42.07225], [25.5133, 42.0723], [25.51254, 42.07247], [25.51202, 42.07284]]], [[[25.51098, 42.07284], [25.51098, 42.07284], [25.51099, 42.07286], [25.51099, 42.07284], [25.51098, 42.07284]]], [[[25.49347, 42.07399], [25.49259, 42.07402], [25.49199, 42.07446], [25.49272, 42.0745], [25.49347, 42.07399]]], [[[25.51175, 42.10007], [25.51164, 42.1046], [25.51371, 42.10006], [25.51647, 42.09695], [25.51712, 42.09559], [25.51754, 42.09269], [25.51697, 42.08901], [25.51748, 42.08395], [25.51751, 42.08128], [25.51789, 42.07933], [25.52065, 42.07854], [25.52287, 42.07758], [25.52383, 42.07694], [25.52727, 42.07669], [25.54154, 42.07772], [25.54223, 42.07908], [25.54382, 42.08023], [25.54474, 42.08129], [25.54587, 42.08194], [25.54757, 42.08237], [25.55001, 42.08232], [25.55169, 42.08176], [25.55269, 42.08105], [25.55358, 42.07956], [25.55414, 42.07915], [25.55728, 42.07964], [25.55952, 42.07919], [25.56104, 42.07989], [25.56239, 42.08011], [25.56471, 42.0799], [25.56581, 42.08131], [25.56738, 42.08212], [25.56659, 42.08353], [25.56547, 42.08495], [25.56364, 42.08582], [25.56259, 42.08668], [25.562, 42.08835], [25.56061, 42.08883], [25.55966, 42.08966], [25.55931, 42.09056], [25.55938, 42.09123], [25.5606, 42.09281], [25.55938, 42.09367], [25.5584, 42.09551], [25.55721, 42.09644], [25.54954, 42.09899], [25.54536, 42.10139], [25.53976, 42.10391], [25.53837, 42.10412], [25.53443, 42.10408], [25.52953, 42.10479], [25.52547, 42.10433], [25.52302, 42.10451], [25.52135, 42.10493], [25.5176, 42.10634], [25.51615, 42.1071], [25.51402, 42.1087], [25.51288, 42.10909], [25.51662, 42.10914], [25.51762, 42.10834], [25.51879, 42.10774], [25.5222, 42.10647], [25.52364, 42.10611], [25.52543, 42.10599], [25.52946, 42.10646], [25.53465, 42.10573], [25.53849, 42.10578], [25.54049, 42.10548], [25.54668, 42.10274], [25.55054, 42.10047], [25.55903, 42.09761], [25.55921, 42.0972], [25.5603, 42.09645], [25.56126, 42.09456], [25.56271, 42.09385], [25.56351, 42.09312], [25.5617, 42.09112], [25.56161, 42.09047], [25.56202, 42.09012], [25.56395, 42.08957], [25.56451, 42.08753], [25.56721, 42.08599], [25.56861, 42.08424], [25.56986, 42.08203], [25.57147, 42.08073], [25.57067, 42.07819], [25.57011, 42.07868], [25.56991, 42.07925], [25.56906, 42.07943], [25.5686, 42.07918], [25.56839, 42.07867], [25.56881, 42.07814], [25.56872, 42.07735], [25.56778, 42.07697], [25.56685, 42.07688], [25.56643, 42.07663], [25.56521, 42.0768], [25.56465, 42.07657], [25.56423, 42.07662], [25.56378, 42.07702], [25.56266, 42.07715], [25.56221, 42.077], [25.56198, 42.0767], [25.56016, 42.0764], [25.56002, 42.07655], [25.56039, 42.07756], [25.56144, 42.07819], [25.56123, 42.07841], [25.5599, 42.0776], [25.55935, 42.07672], [25.55778, 42.07648], [25.55708, 42.07667], [25.55568, 42.07611], [25.55544, 42.07633], [25.554, 42.07674], [25.55294, 42.07687], [25.55181, 42.0767], [25.55147, 42.0782], [25.55121, 42.07852], [25.55081, 42.07881], [25.54969, 42.07896], [25.54926, 42.0794], [25.5483, 42.07946], [25.54753, 42.07915], [25.54613, 42.07906], [25.54584, 42.07889], [25.54589, 42.07771], [25.54544, 42.07706], [25.54595, 42.07656], [25.54598, 42.07591], [25.54259, 42.07612], [25.52663, 42.07501], [25.51834, 42.07593], [25.51677, 42.07785], [25.51603, 42.07831], [25.51572, 42.0789], [25.51533, 42.08082], [25.51473, 42.08922], [25.51531, 42.09276], [25.51492, 42.09534], [25.51435, 42.09636], [25.51189, 42.09903], [25.51132, 42.10007], [25.51175, 42.10007]]], [[[25.53112, 42.03529], [25.52986, 42.0342], [25.5267, 42.03518], [25.52641, 42.0354], [25.52535, 42.03501], [25.52531, 42.03692], [25.52626, 42.03707], [25.52726, 42.03694], [25.52811, 42.03654], [25.52878, 42.03581], [25.53044, 42.0373], [25.5255, 42.03868], [25.51709, 42.04052], [25.51637, 42.04023], [25.51654, 42.03896], [25.51847, 42.03712], [25.51567, 42.03708], [25.51439, 42.03837], [25.51397, 42.04131], [25.51572, 42.04183], [25.51626, 42.04245], [25.52621, 42.04026], [25.53362, 42.03807], [25.53209, 42.03612], [25.53112, 42.03529]]], [[[25.51476, 42.03707], [25.51457, 42.03707], [25.51454, 42.03729], [25.51476, 42.03707]]], [[[25.51384, 42.03706], [25.51322, 42.03705], [25.51318, 42.04153], [25.51325, 42.04125], [25.51384, 42.03706]]], [[[25.51379, 42.04185], [25.51365, 42.04203], [25.5136, 42.04209], [25.51397, 42.04189], [25.51379, 42.04185]]], [[[25.52472, 42.06214], [25.51712, 42.06188], [25.51498, 42.06189], [25.5173, 42.06218], [25.51766, 42.06242], [25.51783, 42.06291], [25.51858, 42.06349], [25.52033, 42.0638], [25.52174, 42.0636], [25.52231, 42.06321], [25.52505, 42.06215], [25.52472, 42.06214]]], [[[25.52367, 42.06413], [25.52348, 42.06447], [25.52515, 42.06496], [25.52624, 42.06566], [25.52899, 42.06547], [25.5278, 42.06486], [25.52367, 42.06413]]], [[[25.53607, 42.06637], [25.53591, 42.06603], [25.5331, 42.066], [25.53127, 42.06662], [25.52979, 42.06655], [25.52678, 42.06685], [25.52499, 42.0665], [25.52559, 42.06686], [25.52906, 42.06747], [25.53734, 42.06716], [25.53607, 42.06637]]], [[[25.53226, 42.06783], [25.53289, 42.06855], [25.53291, 42.06902], [25.53133, 42.06903], [25.53051, 42.06877], [25.53058, 42.06808], [25.52852, 42.06796], [25.52974, 42.06862], [25.52981, 42.06898], [25.52958, 42.06934], [25.52913, 42.06949], [25.5271, 42.06945], [25.52682, 42.07007], [25.52493, 42.0703], [25.52498, 42.07065], [25.52569, 42.07138], [25.53681, 42.0701], [25.53759, 42.06769], [25.53226, 42.06783]]], [[[25.52748, 42.07449], [25.52922, 42.07461], [25.52793, 42.07374], [25.52678, 42.07423], [25.52441, 42.07466], [25.52748, 42.07449]]], [[[25.52947, 42.107], [25.52538, 42.10653], [25.52377, 42.10664], [25.51916, 42.10821], [25.51757, 42.10915], [25.51956, 42.10918], [25.52029, 42.10873], [25.52187, 42.10834], [25.52578, 42.10796], [25.52981, 42.10869], [25.53128, 42.10875], [25.53423, 42.10817], [25.53798, 42.10654], [25.53893, 42.10661], [25.54061, 42.10723], [25.54131, 42.1073], [25.54386, 42.10504], [25.54755, 42.10407], [25.5514, 42.10084], [25.55803, 42.10087], [25.5593, 42.10059], [25.56196, 42.09952], [25.55972, 42.09849], [25.55929, 42.09812], [25.55089, 42.10095], [25.5471, 42.10318], [25.54229, 42.10543], [25.54074, 42.10599], [25.53855, 42.10632], [25.53472, 42.10627], [25.52947, 42.107]]], [[[25.53249, 42.10911], [25.53022, 42.10928], [25.5258, 42.1085], [25.52203, 42.10887], [25.52069, 42.10919], [25.53572, 42.10939], [25.5357, 42.11028], [25.5384, 42.10907], [25.54037, 42.10964], [25.54181, 42.10966], [25.54366, 42.10897], [25.54553, 42.10713], [25.54958, 42.10591], [25.55295, 42.10314], [25.55805, 42.10324], [25.55368, 42.10761], [25.55035, 42.11226], [25.54909, 42.11186], [25.54729, 42.11173], [25.54593, 42.11191], [25.54475, 42.11236], [25.54335, 42.1125], [25.54172, 42.11136], [25.53951, 42.1109], [25.53744, 42.11112], [25.53579, 42.11174], [25.53554, 42.11716], [25.53908, 42.11724], [25.53838, 42.11654], [25.53835, 42.11581], [25.53859, 42.11553], [25.53817, 42.11531], [25.53802, 42.11493], [25.53802, 42.11428], [25.53857, 42.11397], [25.53949, 42.11387], [25.53998, 42.11408], [25.54027, 42.11491], [25.54004, 42.1153], [25.54318, 42.11475], [25.54416, 42.11405], [25.54931, 42.11415], [25.55144, 42.11463], [25.55284, 42.11217], [25.5556, 42.10845], [25.56358, 42.10027], [25.56264, 42.09983], [25.5596, 42.10109], [25.55809, 42.10141], [25.55176, 42.10132], [25.54799, 42.10451], [25.54423, 42.10552], [25.54232, 42.10737], [25.54164, 42.10779], [25.54104, 42.10787], [25.53809, 42.10708], [25.53454, 42.10866], [25.53249, 42.10911]]], [[[25.54895, 42.02893], [25.54898, 42.02915], [25.55062, 42.02999], [25.55086, 42.03062], [25.55437, 42.02906], [25.55403, 42.02856], [25.54853, 42.02849], [25.54895, 42.02893]]], [[[25.55009, 42.03037], [25.54841, 42.0295], [25.5479, 42.02878], [25.54735, 42.0287], [25.54712, 42.02848], [25.54388, 42.02843], [25.54202, 42.02883], [25.54066, 42.02839], [25.5355, 42.02833], [25.53518, 42.02874], [25.53465, 42.02889], [25.53344, 42.0283], [25.53281, 42.02829], [25.53245, 42.02848], [25.5314, 42.02828], [25.53151, 42.02852], [25.53121, 42.02927], [25.53046, 42.02911], [25.5293, 42.03124], [25.52931, 42.03153], [25.52975, 42.03169], [25.52934, 42.03262], [25.52981, 42.03302], [25.53032, 42.03271], [25.53114, 42.03311], [25.53061, 42.03402], [25.53269, 42.03581], [25.53428, 42.03784], [25.53945, 42.03583], [25.54529, 42.03316], [25.54493, 42.03289], [25.54318, 42.03277], [25.54301, 42.03255], [25.54318, 42.03231], [25.54519, 42.03238], [25.54591, 42.03287], [25.55018, 42.03092], [25.55009, 42.03037]], [[25.53927, 42.02993], [25.54068, 42.03049], [25.542, 42.03066], [25.54329, 42.03052], [25.54544, 42.02989], [25.54647, 42.03065], [25.54605, 42.03085], [25.54325, 42.03061], [25.54183, 42.03099], [25.54129, 42.03139], [25.54086, 42.03207], [25.54094, 42.03321], [25.53833, 42.03439], [25.5383, 42.03505], [25.53621, 42.0363], [25.53427, 42.03539], [25.53451, 42.03485], [25.53118, 42.03196], [25.53149, 42.03101], [25.53364, 42.03176], [25.53547, 42.0318], [25.53718, 42.03131], [25.53823, 42.03064], [25.539, 42.02975], [25.53927, 42.02993]]], [[[25.54835, 42.04825], [25.54743, 42.04951], [25.54752, 42.05068], [25.54687, 42.05204], [25.54682, 42.05298], [25.54757, 42.05378], [25.54886, 42.05437], [25.55213, 42.05491], [25.55097, 42.05467], [25.55082, 42.05365], [25.55011, 42.05336], [25.54915, 42.05258], [25.54838, 42.05234], [25.54766, 42.05147], [25.5478, 42.04964], [25.55293, 42.04616], [25.55412, 42.04473], [25.55482, 42.04467], [25.55524, 42.04508], [25.5568, 42.04466], [25.55826, 42.04388], [25.55948, 42.04289], [25.56178, 42.04086], [25.56221, 42.04026], [25.56276, 42.03993], [25.56239, 42.03949], [25.56126, 42.03905], [25.56155, 42.03822], [25.56015, 42.03903], [25.55978, 42.03978], [25.55616, 42.0428], [25.55332, 42.04368], [25.55199, 42.04387], [25.55086, 42.04549], [25.55129, 42.04683], [25.55117, 42.04718], [25.55002, 42.04778], [25.54931, 42.04776], [25.54835, 42.04825]]], [[[25.54376, 42.05554], [25.54341, 42.05595], [25.54283, 42.05622], [25.54342, 42.05602], [25.5443, 42.05547], [25.54376, 42.05554]]], [[[25.5439, 42.05716], [25.54526, 42.05672], [25.54618, 42.05639], [25.54534, 42.05616], [25.5431, 42.05747], [25.5439, 42.05716]]], [[[25.54095, 42.05752], [25.54111, 42.05761], [25.54244, 42.05716], [25.54268, 42.05695], [25.54095, 42.05752]]], [[[25.54156, 42.05812], [25.54173, 42.05809], [25.54265, 42.05768], [25.54148, 42.05808], [25.54156, 42.05812]]], [[[25.5469, 42.05672], [25.54371, 42.05783], [25.53726, 42.06053], [25.53307, 42.06169], [25.53631, 42.06135], [25.54064, 42.06041], [25.54341, 42.05952], [25.55098, 42.05661], [25.5481, 42.05642], [25.5469, 42.05672]]], [[[25.54865, 42.06509], [25.54994, 42.06483], [25.55139, 42.06484], [25.55252, 42.06506], [25.55417, 42.06576], [25.55599, 42.06568], [25.5542, 42.06459], [25.55104, 42.06405], [25.55043, 42.06419], [25.54865, 42.06509]]], [[[25.54429, 42.06491], [25.54379, 42.06536], [25.54544, 42.06509], [25.54458, 42.06489], [25.54429, 42.06491]]], [[[25.53814, 42.06533], [25.53681, 42.06551], [25.53733, 42.06617], [25.53791, 42.06639], [25.54237, 42.06576], [25.54217, 42.06545], [25.54054, 42.06504], [25.53814, 42.06533]]], [[[25.54829, 42.06571], [25.5473, 42.06545], [25.54687, 42.06572], [25.54479, 42.06628], [25.5411, 42.0668], [25.54016, 42.06709], [25.53873, 42.0671], [25.53838, 42.06743], [25.539, 42.06753], [25.53982, 42.0682], [25.54169, 42.07068], [25.54265, 42.07115], [25.54353, 42.07131], [25.54529, 42.07113], [25.54814, 42.07135], [25.54857, 42.0712], [25.54915, 42.07125], [25.54967, 42.07152], [25.54978, 42.07206], [25.55065, 42.07238], [25.5535, 42.07309], [25.55421, 42.07308], [25.55578, 42.07283], [25.55771, 42.07223], [25.56349, 42.06902], [25.56506, 42.06864], [25.56673, 42.06857], [25.56588, 42.06758], [25.56565, 42.06618], [25.56629, 42.06489], [25.56755, 42.06379], [25.56675, 42.0632], [25.56569, 42.0634], [25.56352, 42.06461], [25.56209, 42.06622], [25.55978, 42.06679], [25.55855, 42.06673], [25.55683, 42.06614], [25.55506, 42.06653], [25.55436, 42.06648], [25.55357, 42.0663], [25.55264, 42.06581], [25.55081, 42.06545], [25.54829, 42.06571]], [[25.54855, 42.06823], [25.54566, 42.06836], [25.54413, 42.06886], [25.54338, 42.06838], [25.54761, 42.06748], [25.5488, 42.06757], [25.55082, 42.06738], [25.55389, 42.06828], [25.55516, 42.06838], [25.55672, 42.06813], [25.55801, 42.06853], [25.55946, 42.06864], [25.55837, 42.06983], [25.55706, 42.07058], [25.5551, 42.07011], [25.55325, 42.07025], [25.5526, 42.0695], [25.55156, 42.06883], [25.55029, 42.06841], [25.54855, 42.06823]]], [[[25.53674, 42.07326], [25.53658, 42.07229], [25.53677, 42.07075], [25.52861, 42.07167], [25.52881, 42.07269], [25.52804, 42.07308], [25.53034, 42.07469], [25.54311, 42.07558], [25.54308, 42.07498], [25.54096, 42.07436], [25.54029, 42.07441], [25.53887, 42.07394], [25.53851, 42.07366], [25.53674, 42.07326]], [[25.53276, 42.0732], [25.53201, 42.07315], [25.53272, 42.07306], [25.53276, 42.0732]]], [[[25.54392, 42.07554], [25.54523, 42.07543], [25.54574, 42.07539], [25.5456, 42.07521], [25.54382, 42.07501], [25.54392, 42.07554]]], [[[25.54403, 42.1148], [25.54405, 42.11485], [25.5441, 42.11494], [25.54412, 42.11469], [25.54403, 42.1148]]], [[[25.54547, 42.1146], [25.5453, 42.11459], [25.54533, 42.11506], [25.54414, 42.11507], [25.5439, 42.11567], [25.54453, 42.11632], [25.546, 42.11651], [25.54642, 42.11588], [25.54689, 42.11569], [25.54674, 42.1151], [25.54729, 42.1147], [25.54833, 42.11482], [25.54962, 42.11564], [25.54983, 42.11612], [25.55017, 42.11624], [25.55103, 42.1152], [25.54967, 42.11473], [25.54547, 42.1146]]], [[[25.54229, 42.11542], [25.54191, 42.11545], [25.54232, 42.11575], [25.54313, 42.11561], [25.54335, 42.11527], [25.54229, 42.11542]]], [[[25.53985, 42.11597], [25.54005, 42.11585], [25.53977, 42.11589], [25.53985, 42.11597]]], [[[25.54379, 42.11635], [25.54376, 42.11629], [25.54355, 42.11615], [25.54362, 42.11645], [25.54379, 42.11635]]], [[[25.53551, 42.11839], [25.53962, 42.11844], [25.5395, 42.11778], [25.53553, 42.1177], [25.53551, 42.11839]]], [[[25.55547, 42.02858], [25.5551, 42.02861], [25.55485, 42.02857], [25.55499, 42.02878], [25.55547, 42.02858]]], [[[25.55633, 42.02897], [25.55541, 42.02935], [25.55606, 42.02999], [25.55699, 42.03035], [25.56132, 42.03118], [25.57215, 42.03269], [25.57371, 42.03321], [25.57374, 42.03183], [25.56619, 42.03131], [25.56537, 42.03114], [25.565, 42.03079], [25.56451, 42.03068], [25.5569, 42.02917], [25.55676, 42.02893], [25.55749, 42.02861], [25.55633, 42.02897]]], [[[25.55727, 42.03096], [25.55589, 42.03057], [25.55479, 42.02963], [25.55101, 42.0313], [25.55106, 42.03247], [25.5514, 42.03298], [25.55139, 42.03381], [25.5517, 42.0344], [25.55199, 42.0343], [25.55331, 42.03448], [25.55516, 42.03326], [25.55586, 42.033], [25.55907, 42.03444], [25.56299, 42.03542], [25.56326, 42.03583], [25.56284, 42.03632], [25.56363, 42.03641], [25.56392, 42.03662], [25.56419, 42.03636], [25.56451, 42.03508], [25.56495, 42.03506], [25.5664, 42.0354], [25.56658, 42.03569], [25.56721, 42.03599], [25.56804, 42.03611], [25.56833, 42.03675], [25.56886, 42.03712], [25.5708, 42.03621], [25.57185, 42.03493], [25.57363, 42.03685], [25.5737, 42.03392], [25.57283, 42.03344], [25.5678, 42.03265], [25.56764, 42.03314], [25.5681, 42.03349], [25.56803, 42.03407], [25.56727, 42.03433], [25.56724, 42.03467], [25.56596, 42.03464], [25.566, 42.0338], [25.56317, 42.03291], [25.56243, 42.03248], [25.56242, 42.03188], [25.55727, 42.03096]]], [[[25.55773, 42.04992], [25.55426, 42.05066], [25.55482, 42.05227], [25.56001, 42.05115], [25.57584, 42.04353], [25.57575, 42.04307], [25.57622, 42.04269], [25.5763, 42.04214], [25.5768, 42.04188], [25.57738, 42.04193], [25.57693, 42.04158], [25.57681, 42.04122], [25.57703, 42.04089], [25.5776, 42.0406], [25.57713, 42.03994], [25.57719, 42.03952], [25.57767, 42.03903], [25.57844, 42.0389], [25.57808, 42.03787], [25.57394, 42.03782], [25.57334, 42.03874], [25.57293, 42.04058], [25.57192, 42.04227], [25.57175, 42.04333], [25.57131, 42.04373], [25.55905, 42.04964], [25.55773, 42.04992]]], [[[25.56212, 42.05138], [25.56941, 42.05142], [25.57121, 42.05123], [25.57145, 42.0501], [25.57176, 42.04972], [25.57261, 42.04898], [25.57348, 42.04939], [25.57405, 42.0487], [25.57358, 42.04801], [25.57358, 42.04769], [25.5745, 42.04552], [25.57441, 42.04513], [25.57419, 42.04496], [25.56088, 42.05138], [25.56212, 42.05138]], [[25.57034, 42.04943], [25.57041, 42.04964], [25.56837, 42.04975], [25.57025, 42.04885], [25.57034, 42.04943]]], [[[25.55807, 42.05213], [25.55532, 42.05275], [25.55534, 42.05446], [25.55648, 42.05442], [25.56092, 42.05306], [25.56395, 42.0529], [25.56667, 42.05335], [25.57379, 42.05552], [25.57395, 42.05373], [25.57311, 42.05373], [25.57346, 42.052], [25.57484, 42.05202], [25.57494, 42.05132], [25.56946, 42.05196], [25.55971, 42.05192], [25.55807, 42.05213]]], [[[25.56123, 42.05381], [25.56358, 42.05382], [25.56647, 42.05419], [25.57424, 42.05646], [25.57622, 42.05682], [25.57889, 42.057], [25.58089, 42.05689], [25.57787, 42.05675], [25.5748, 42.05631], [25.56502, 42.05356], [25.56204, 42.05347], [25.55955, 42.05396], [25.56123, 42.05381]]], [[[25.5552, 42.05608], [25.55649, 42.05665], [25.557, 42.05721], [25.55768, 42.05725], [25.55817, 42.05756], [25.55879, 42.05876], [25.56215, 42.06011], [25.56249, 42.06064], [25.56243, 42.0615], [25.5628, 42.06224], [25.56329, 42.06198], [25.56413, 42.06204], [25.56443, 42.06229], [25.56559, 42.06175], [25.56648, 42.06163], [25.56825, 42.06198], [25.56899, 42.06261], [25.57226, 42.05994], [25.57391, 42.05893], [25.57549, 42.05831], [25.57865, 42.05754], [25.57671, 42.05743], [25.57405, 42.05698], [25.5663, 42.05471], [25.5635, 42.05435], [25.5613, 42.05435], [25.55851, 42.05468], [25.55468, 42.0558], [25.5552, 42.05608]], [[25.56087, 42.05747], [25.55979, 42.05617], [25.56331, 42.05601], [25.56572, 42.05632], [25.57171, 42.05809], [25.56894, 42.06022], [25.56671, 42.0598], [25.5648, 42.06], [25.56427, 42.05917], [25.56359, 42.0586], [25.56087, 42.05747]]], [[[25.55523, 42.05499], [25.55517, 42.05498], [25.55514, 42.05502], [25.55524, 42.05499], [25.55523, 42.05499]]], [[[25.5537, 42.05519], [25.55339, 42.05518], [25.55306, 42.05511], [25.5535, 42.05526], [25.5537, 42.05519]]], [[[25.55744, 42.07294], [25.5554, 42.07347], [25.55542, 42.07393], [25.55505, 42.07423], [25.55407, 42.07443], [25.55359, 42.07432], [25.55364, 42.07446], [25.55454, 42.07457], [25.56233, 42.07416], [25.56229, 42.07373], [25.56259, 42.07338], [25.56261, 42.07294], [25.56294, 42.07266], [25.56312, 42.07188], [25.56227, 42.07163], [25.562, 42.07105], [25.56263, 42.07056], [25.56374, 42.07046], [25.56372, 42.0699], [25.56395, 42.06972], [25.5644, 42.06986], [25.56463, 42.07074], [25.5662, 42.07035], [25.56654, 42.07046], [25.56652, 42.0708], [25.56587, 42.07098], [25.56615, 42.07163], [25.56676, 42.07195], [25.56698, 42.07248], [25.56751, 42.07195], [25.57005, 42.07188], [25.56971, 42.07066], [25.5701, 42.07026], [25.56745, 42.06918], [25.56602, 42.0691], [25.56472, 42.06925], [25.56305, 42.06983], [25.55941, 42.07204], [25.55744, 42.07294]]], [[[25.56069, 42.07479], [25.55946, 42.07485], [25.55952, 42.07559], [25.56053, 42.07558], [25.56064, 42.07512], [25.56126, 42.07476], [25.56069, 42.07479]]], [[[25.55997, 42.09792], [25.56257, 42.09917], [25.56571, 42.09803], [25.56703, 42.09804], [25.56772, 42.09784], [25.56863, 42.09714], [25.5696, 42.0967], [25.57045, 42.09676], [25.57087, 42.09516], [25.57126, 42.09484], [25.5717, 42.09482], [25.57177, 42.09422], [25.5715, 42.09379], [25.5717, 42.09294], [25.57128, 42.09287], [25.57105, 42.09254], [25.57183, 42.0914], [25.56825, 42.09423], [25.55997, 42.09792]]], [[[25.55428, 42.11133], [25.55059, 42.11695], [25.55064, 42.11774], [25.55016, 42.11811], [25.5494, 42.11837], [25.54931, 42.11857], [25.55206, 42.11857], [25.55435, 42.11524], [25.55548, 42.11315], [25.5581, 42.10963], [25.56497, 42.10264], [25.56747, 42.10298], [25.56857, 42.10386], [25.57022, 42.10445], [25.5716, 42.10456], [25.57307, 42.10434], [25.57579, 42.10644], [25.57717, 42.10699], [25.57913, 42.107], [25.58059, 42.10656], [25.58204, 42.10576], [25.58261, 42.10598], [25.58215, 42.1075], [25.5808, 42.10741], [25.579, 42.10789], [25.57812, 42.10862], [25.57748, 42.10991], [25.58023, 42.10995], [25.58035, 42.10944], [25.58127, 42.10922], [25.58177, 42.10938], [25.58204, 42.10979], [25.58252, 42.10997], [25.58409, 42.10999], [25.58421, 42.10449], [25.58328, 42.10473], [25.58332, 42.10439], [25.58205, 42.10369], [25.57926, 42.10521], [25.57777, 42.10539], [25.57722, 42.10517], [25.57393, 42.10263], [25.57153, 42.10196], [25.5708, 42.10136], [25.57009, 42.10147], [25.56802, 42.10136], [25.56513, 42.10095], [25.5642, 42.10056], [25.55622, 42.10873], [25.55428, 42.11133]]], [[[25.54909, 42.11613], [25.54908, 42.1161], [25.54906, 42.11612], [25.54909, 42.11613]]], [[[25.56199, 42.03758], [25.56228, 42.03734], [25.56265, 42.03651], [25.56221, 42.03698], [25.56199, 42.03758]]], [[[25.56975, 42.0631], [25.5708, 42.06386], [25.57461, 42.06514], [25.57551, 42.06567], [25.57718, 42.06604], [25.57849, 42.06659], [25.58069, 42.06678], [25.5817, 42.06735], [25.58251, 42.0644], [25.58179, 42.06451], [25.58131, 42.06432], [25.58092, 42.06482], [25.58007, 42.06477], [25.5798, 42.0644], [25.57992, 42.06401], [25.5805, 42.06377], [25.58113, 42.06396], [25.58108, 42.06353], [25.58056, 42.06319], [25.57979, 42.06302], [25.57943, 42.06257], [25.57978, 42.06047], [25.58028, 42.05982], [25.58011, 42.05977], [25.58023, 42.05845], [25.57944, 42.0586], [25.57858, 42.05818], [25.57483, 42.05915], [25.57276, 42.06033], [25.56952, 42.06298], [25.56975, 42.0631]], [[25.57362, 42.06279], [25.57308, 42.06257], [25.57434, 42.06151], [25.57579, 42.06066], [25.57546, 42.06247], [25.57563, 42.06347], [25.57362, 42.06279]]], [[[25.56318, 42.06277], [25.56329, 42.06291], [25.5634, 42.06283], [25.56328, 42.06281], [25.56318, 42.06277]]], [[[25.5679, 42.06437], [25.56691, 42.06517], [25.56638, 42.06624], [25.56656, 42.0674], [25.56724, 42.06819], [25.56917, 42.06911], [25.5717, 42.06973], [25.57683, 42.07174], [25.57722, 42.07093], [25.57789, 42.07058], [25.57905, 42.06878], [25.57529, 42.06803], [25.57488, 42.0684], [25.57419, 42.06839], [25.57377, 42.06806], [25.57384, 42.06758], [25.56846, 42.06549], [25.568, 42.06494], [25.5679, 42.06437]]], [[[25.57271, 42.06605], [25.56995, 42.06494], [25.56871, 42.06481], [25.56903, 42.06513], [25.57523, 42.06745], [25.58136, 42.06857], [25.58141, 42.0684], [25.58116, 42.06833], [25.57865, 42.06793], [25.57524, 42.06699], [25.57271, 42.06605]]], [[[25.57177, 42.07711], [25.57135, 42.07797], [25.5722, 42.08031], [25.57214, 42.08093], [25.57048, 42.08231], [25.56926, 42.08449], [25.56779, 42.08631], [25.56513, 42.08781], [25.56452, 42.0899], [25.56227, 42.09069], [25.56407, 42.09266], [25.56423, 42.0932], [25.56356, 42.094], [25.56185, 42.09488], [25.56083, 42.09683], [25.56781, 42.09381], [25.57205, 42.09047], [25.57509, 42.0887], [25.57747, 42.0877], [25.58155, 42.0865], [25.58753, 42.08319], [25.5933, 42.08123], [25.59659, 42.07883], [25.59714, 42.07764], [25.59693, 42.07662], [25.59611, 42.07569], [25.59503, 42.07578], [25.59157, 42.07542], [25.58645, 42.07584], [25.58291, 42.07529], [25.58305, 42.076], [25.58267, 42.07665], [25.58294, 42.07724], [25.58269, 42.07744], [25.5804, 42.07713], [25.58051, 42.07648], [25.57697, 42.07651], [25.57686, 42.07596], [25.57659, 42.07597], [25.57611, 42.07638], [25.57525, 42.07629], [25.5736, 42.07682], [25.57208, 42.07693], [25.57177, 42.07711]], [[25.57066, 42.08917], [25.56638, 42.09252], [25.56561, 42.09139], [25.56673, 42.09038], [25.56716, 42.08872], [25.56871, 42.08796], [25.56962, 42.08726], [25.57124, 42.08525], [25.57237, 42.08321], [25.57398, 42.08189], [25.57444, 42.08083], [25.57426, 42.07962], [25.57818, 42.07912], [25.57985, 42.07981], [25.58213, 42.07991], [25.58367, 42.07954], [25.58552, 42.0785], [25.5875, 42.0786], [25.58964, 42.07834], [25.59085, 42.07784], [25.59181, 42.07709], [25.59491, 42.07744], [25.59457, 42.07803], [25.59195, 42.07989], [25.58651, 42.08172], [25.58048, 42.08503], [25.57516, 42.08671], [25.57066, 42.08917]]], [[[25.57224, 42.09113], [25.57412, 42.09075], [25.57464, 42.08993], [25.5757, 42.08964], [25.57593, 42.0891], [25.5763, 42.08892], [25.57743, 42.089], [25.57849, 42.08932], [25.58088, 42.08877], [25.58145, 42.08773], [25.58234, 42.08704], [25.58323, 42.08669], [25.58448, 42.08688], [25.58482, 42.08725], [25.58567, 42.08716], [25.58643, 42.08665], [25.58694, 42.08667], [25.58705, 42.08631], [25.58746, 42.08605], [25.58723, 42.08571], [25.58755, 42.08521], [25.58899, 42.08435], [25.58968, 42.08432], [25.59042, 42.08395], [25.59124, 42.08409], [25.59171, 42.08392], [25.59212, 42.08399], [25.59227, 42.08423], [25.59315, 42.08416], [25.59351, 42.08434], [25.5941, 42.08421], [25.59457, 42.08441], [25.5945, 42.08407], [25.59492, 42.08386], [25.59457, 42.0826], [25.59485, 42.08212], [25.5955, 42.08197], [25.59604, 42.08222], [25.59624, 42.08188], [25.59731, 42.08145], [25.5978, 42.08163], [25.59793, 42.08203], [25.59816, 42.08207], [25.59841, 42.08179], [25.59894, 42.08181], [25.59929, 42.08156], [25.59927, 42.08117], [25.59894, 42.08079], [25.59913, 42.08028], [25.59986, 42.08016], [25.60089, 42.07939], [25.60137, 42.07952], [25.60223, 42.07929], [25.60323, 42.07986], [25.60466, 42.07921], [25.60541, 42.07924], [25.60524, 42.0787], [25.60566, 42.07836], [25.60612, 42.0784], [25.60635, 42.07876], [25.60677, 42.07888], [25.60697, 42.07868], [25.60651, 42.07857], [25.60629, 42.07831], [25.6068, 42.0774], [25.60767, 42.07687], [25.60847, 42.07685], [25.609, 42.07708], [25.60902, 42.07607], [25.60784, 42.07592], [25.60708, 42.07462], [25.6057, 42.07392], [25.60552, 42.07365], [25.60573, 42.07358], [25.59733, 42.07499], [25.5967, 42.07535], [25.59742, 42.07611], [25.59786, 42.07715], [25.59754, 42.07864], [25.59674, 42.07953], [25.59377, 42.08164], [25.58793, 42.08365], [25.58192, 42.08696], [25.57652, 42.08867], [25.57224, 42.09113]], [[25.60185, 42.07745], [25.6001, 42.07765], [25.59988, 42.07626], [25.60349, 42.07575], [25.60403, 42.07696], [25.60323, 42.07761], [25.60185, 42.07745]]], [[[25.57224, 42.09213], [25.57205, 42.09233], [25.57243, 42.09269], [25.57224, 42.09378], [25.57252, 42.09414], [25.57241, 42.09496], [25.57207, 42.09533], [25.57152, 42.0954], [25.57098, 42.09716], [25.57046, 42.09733], [25.56986, 42.09721], [25.56803, 42.09835], [25.56705, 42.09859], [25.56589, 42.09858], [25.56325, 42.09948], [25.56536, 42.10044], [25.56864, 42.10088], [25.57038, 42.10092], [25.57081, 42.10035], [25.57174, 42.10024], [25.57231, 42.10091], [25.5719, 42.10149], [25.57437, 42.1022], [25.57772, 42.10477], [25.57811, 42.10489], [25.57912, 42.10465], [25.5815, 42.10331], [25.58146, 42.1028], [25.58222, 42.10269], [25.5824, 42.10169], [25.58292, 42.10147], [25.58313, 42.10112], [25.586, 42.10095], [25.59019, 42.10106], [25.5894, 42.10059], [25.58804, 42.10016], [25.58526, 42.0996], [25.58198, 42.09993], [25.5812, 42.10023], [25.58057, 42.10073], [25.57986, 42.09923], [25.57784, 42.09792], [25.57615, 42.09763], [25.57439, 42.09801], [25.57348, 42.09757], [25.57369, 42.09672], [25.57446, 42.09608], [25.57479, 42.09545], [25.57499, 42.09423], [25.57488, 42.09309], [25.57604, 42.09267], [25.57695, 42.09188], [25.57753, 42.09163], [25.57919, 42.09164], [25.58236, 42.09092], [25.58322, 42.09039], [25.58396, 42.08955], [25.58488, 42.08964], [25.58641, 42.08948], [25.58844, 42.08879], [25.58945, 42.08816], [25.59068, 42.08661], [25.59467, 42.08686], [25.5965, 42.08643], [25.59671, 42.08633], [25.59678, 42.08313], [25.60172, 42.08319], [25.60248, 42.0822], [25.60398, 42.08218], [25.60533, 42.0818], [25.60556, 42.08256], [25.60627, 42.08325], [25.60886, 42.08328], [25.60889, 42.08214], [25.60778, 42.08222], [25.60756, 42.08177], [25.60805, 42.0812], [25.60786, 42.08063], [25.60894, 42.07997], [25.60899, 42.07762], [25.60851, 42.07764], [25.60811, 42.07736], [25.60738, 42.07774], [25.60732, 42.07798], [25.60778, 42.07813], [25.60777, 42.07856], [25.60811, 42.07894], [25.60763, 42.07944], [25.6064, 42.07943], [25.60604, 42.07968], [25.60493, 42.07981], [25.60322, 42.08041], [25.60281, 42.08036], [25.60202, 42.07984], [25.60149, 42.08011], [25.6009, 42.08008], [25.6001, 42.08073], [25.60024, 42.0811], [25.60007, 42.08177], [25.59917, 42.08238], [25.59894, 42.08275], [25.59828, 42.08281], [25.59783, 42.08257], [25.59735, 42.08256], [25.59706, 42.08218], [25.59685, 42.08275], [25.59645, 42.08292], [25.59533, 42.08254], [25.5957, 42.08397], [25.59532, 42.08435], [25.59517, 42.08488], [25.59446, 42.08501], [25.59398, 42.08477], [25.59344, 42.08497], [25.59296, 42.08469], [25.59204, 42.08491], [25.5915, 42.08463], [25.59058, 42.08448], [25.59003, 42.08483], [25.58932, 42.08484], [25.58885, 42.08526], [25.5882, 42.08547], [25.58826, 42.08625], [25.58771, 42.08657], [25.58737, 42.08713], [25.58658, 42.0872], [25.58583, 42.08769], [25.5848, 42.0878], [25.58344, 42.08723], [25.58278, 42.08748], [25.58203, 42.08808], [25.58127, 42.08926], [25.57897, 42.08979], [25.57809, 42.08984], [25.57655, 42.08945], [25.57619, 42.09008], [25.57504, 42.09041], [25.57465, 42.09115], [25.57248, 42.09165], [25.57224, 42.09213]], [[25.57623, 42.10063], [25.57546, 42.10034], [25.57523, 42.10007], [25.57543, 42.09972], [25.57599, 42.09949], [25.57668, 42.09954], [25.57796, 42.10042], [25.5781, 42.10094], [25.57735, 42.1021], [25.5768, 42.10196], [25.57623, 42.10063]]], [[[25.58, 42.04003], [25.58061, 42.04082], [25.58124, 42.04077], [25.58233, 42.04119], [25.58236, 42.04179], [25.58176, 42.0422], [25.58223, 42.04208], [25.5834, 42.04225], [25.5839, 42.04247], [25.58407, 42.04284], [25.58492, 42.04297], [25.58521, 42.0435], [25.58557, 42.04334], [25.5856, 42.04199], [25.58457, 42.04209], [25.58411, 42.04187], [25.58395, 42.04152], [25.58441, 42.04095], [25.58533, 42.04104], [25.58559, 42.04006], [25.58569, 42.03796], [25.57898, 42.03788], [25.58, 42.04003]]], [[[25.57789, 42.04247], [25.5779, 42.04244], [25.57786, 42.04239], [25.57787, 42.04242], [25.57789, 42.04247]]], [[[25.58142, 42.04304], [25.58135, 42.04305], [25.58145, 42.04308], [25.58142, 42.04304]]], [[[25.58061, 42.05878], [25.5807, 42.05873], [25.58084, 42.05866], [25.58067, 42.05861], [25.58061, 42.05878]]], [[[25.58494, 42.06926], [25.58505, 42.06925], [25.58485, 42.0692], [25.58487, 42.06928], [25.58494, 42.06926]]], [[[25.60676, 42.06647], [25.60644, 42.06729], [25.60499, 42.06902], [25.60287, 42.07226], [25.60203, 42.07296], [25.60047, 42.07348], [25.59665, 42.07375], [25.59544, 42.07338], [25.59386, 42.07245], [25.59298, 42.07235], [25.59014, 42.07125], [25.58855, 42.07093], [25.58674, 42.06947], [25.58568, 42.06935], [25.587, 42.06985], [25.58714, 42.07085], [25.58655, 42.07151], [25.58789, 42.07235], [25.58858, 42.07316], [25.58866, 42.07371], [25.58908, 42.07406], [25.58965, 42.07408], [25.5897, 42.07476], [25.59401, 42.0745], [25.59515, 42.07466], [25.59612, 42.07501], [25.59751, 42.07436], [25.60361, 42.07348], [25.6091, 42.07225], [25.60919, 42.06819], [25.60846, 42.06952], [25.60692, 42.07035], [25.60877, 42.0679], [25.60922, 42.06687], [25.60926, 42.06527], [25.60748, 42.06525], [25.60676, 42.06647]]], [[[25.59445, 42.07507], [25.59397, 42.07504], [25.59349, 42.07505], [25.59516, 42.07524], [25.59445, 42.07507]]], [[[25.59216, 42.09791], [25.59236, 42.0968], [25.59223, 42.09559], [25.59179, 42.09481], [25.59092, 42.09415], [25.58974, 42.09379], [25.58843, 42.09378], [25.58713, 42.09412], [25.58628, 42.09467], [25.58571, 42.09551], [25.58569, 42.09653], [25.58701, 42.09841], [25.58775, 42.099], [25.58902, 42.09937], [25.59037, 42.09926], [25.59149, 42.0987], [25.59216, 42.09791]], [[25.58939, 42.09755], [25.58909, 42.09743], [25.58809, 42.09612], [25.58829, 42.09575], [25.58886, 42.09558], [25.58951, 42.09566], [25.58981, 42.09595], [25.58987, 42.09722], [25.58939, 42.09755]]]]}, "properties": {"kind": "pv", "area_km2": 26.41, "mw": 1320.5}}]}