{"type": "FeatureCollection", "features": [{"type": "Feature", "geometry": {"type": "MultiPolygon", "coordinates": [[[[-6.93936, 37.21308], [-6.93899, 37.21324], [-6.93892, 37.21298], [-6.93949, 37.21298], [-6.93936, 37.21308]]], [[[-6.94288, 37.21346], [-6.94289, 37.21361], [-6.94195, 37.21341], [-6.94097, 37.21346], [-6.94076, 37.213], [-6.94302, 37.21304], [-6.94288, 37.21346]]], [[[-6.9394, 37.2144], [-6.9395, 37.21441], [-6.93956, 37.21441], [-6.9394, 37.21447], [-6.9394, 37.2144]]], [[[-6.94705, 37.21672], [-6.94726, 37.21658], [-6.94771, 37.21776], [-6.94704, 37.21672], [-6.94705, 37.21672]]], [[[-6.93348, 37.22006], [-6.93446, 37.21931], [-6.93639, 37.21722], [-6.93728, 37.21592], [-6.93789, 37.21456], [-6.93827, 37.21423], [-6.9419, 37.23105], [-6.93978, 37.23101], [-6.93726, 37.21941], [-6.93615, 37.22056], [-6.93412, 37.2221], [-6.93293, 37.2236], [-6.93302, 37.22041], [-6.93348, 37.22006]]], [[[-6.94823, 37.21845], [-6.94823, 37.21856], [-6.948, 37.2182], [-6.94823, 37.21845]]], [[[-6.95302, 37.2301], [-6.95308, 37.23044], [-6.95306, 37.2307], [-6.95294, 37.23011], [-6.95302, 37.2301]]]]}, "properties": {"kind": "pv", "area_km2": 0.45, "mw": 22.4}}]}