{"type": "FeatureCollection", "features": [{"type": "Feature", "geometry": {"type": "MultiPolygon", "coordinates": [[[[-6.95338, 37.20402], [-6.95413, 37.20367], [-6.95608, 37.20483], [-6.95904, 37.20592], [-6.95731, 37.20661], [-6.9572, 37.20688], [-6.95659, 37.20691], [-6.95456, 37.20603], [-6.95264, 37.20484], [-6.95295, 37.20435], [-6.95239, 37.20457], [-6.95232, 37.20431], [-6.95348, 37.20342], [-6.95369, 37.20364], [-6.95338, 37.20402]]], [[[-6.95184, 37.2042], [-6.95023, 37.20254], [-6.9493, 37.20121], [-6.94652, 37.19508], [-6.94874, 37.19512], [-6.95118, 37.20049], [-6.95316, 37.20289], [-6.95201, 37.20386], [-6.95184, 37.2042]]], [[[-6.96749, 37.20467], [-6.96724, 37.20501], [-6.96727, 37.20538], [-6.96765, 37.20586], [-6.96813, 37.20598], [-6.96654, 37.20693], [-6.96965, 37.20872], [-6.96765, 37.20893], [-6.96601, 37.20854], [-6.96469, 37.20767], [-6.96384, 37.20652], [-6.96362, 37.20596], [-6.96482, 37.20607], [-6.96514, 37.20596], [-6.96522, 37.20562], [-6.96469, 37.20536], [-6.96352, 37.20536], [-6.96362, 37.20438], [-6.96757, 37.20445], [-6.96749, 37.20467]]], [[[-6.96882, 37.2055], [-6.96886, 37.20447], [-6.96979, 37.20452], [-6.97067, 37.20507], [-6.97082, 37.20522], [-6.96969, 37.20458], [-6.96882, 37.2055]]], [[[-6.97747, 37.20486], [-6.97852, 37.20464], [-6.97848, 37.20591], [-6.97679, 37.20517], [-6.97606, 37.2046], [-6.97692, 37.20461], [-6.97747, 37.20486]]], [[[-6.97159, 37.20628], [-6.97143, 37.20591], [-6.97172, 37.20603], [-6.97217, 37.20653], [-6.97254, 37.20711], [-6.97228, 37.20671], [-6.97159, 37.20628]]], [[[-6.9666, 37.21266], [-6.96609, 37.21148], [-6.96505, 37.21033], [-6.96299, 37.20907], [-6.95839, 37.2075], [-6.95894, 37.20705], [-6.95893, 37.20678], [-6.96033, 37.20634], [-6.96395, 37.2076], [-6.96608, 37.20882], [-6.96726, 37.20985], [-6.96798, 37.21079], [-6.96875, 37.213], [-6.9694, 37.21412], [-6.97175, 37.21072], [-6.9724, 37.21074], [-6.9734, 37.21022], [-6.97271, 37.20996], [-6.97307, 37.20933], [-6.97353, 37.20914], [-6.97318, 37.20836], [-6.97401, 37.20915], [-6.97441, 37.20997], [-6.97394, 37.21141], [-6.97186, 37.21419], [-6.97075, 37.21644], [-6.97021, 37.21708], [-6.96985, 37.21719], [-6.96912, 37.21688], [-6.96727, 37.21566], [-6.96711, 37.21433], [-6.96665, 37.21405], [-6.9666, 37.21266]]], [[[-6.96218, 37.20935], [-6.96393, 37.21025], [-6.96509, 37.2112], [-6.96585, 37.21249], [-6.966, 37.21385], [-6.9652, 37.21371], [-6.96474, 37.21403], [-6.96411, 37.21411], [-6.96156, 37.21319], [-6.96302, 37.21198], [-6.96278, 37.21148], [-6.962, 37.21159], [-6.96052, 37.2123], [-6.95931, 37.21197], [-6.95656, 37.21051], [-6.95193, 37.20888], [-6.95132, 37.2084], [-6.95118, 37.20783], [-6.95062, 37.20777], [-6.94764, 37.20568], [-6.94603, 37.20356], [-6.94512, 37.20279], [-6.94507, 37.20244], [-6.94404, 37.20111], [-6.94385, 37.20025], [-6.94404, 37.19915], [-6.94356, 37.1988], [-6.94274, 37.19573], [-6.94232, 37.19507], [-6.9458, 37.19506], [-6.94846, 37.20102], [-6.94965, 37.20283], [-6.9519, 37.20502], [-6.95455, 37.20666], [-6.9533, 37.20812], [-6.95304, 37.20895], [-6.9537, 37.20898], [-6.95529, 37.20854], [-6.95666, 37.20752], [-6.96218, 37.20935]]], [[[-6.95306, 37.2307], [-6.95294, 37.23011], [-6.95302, 37.2301], [-6.95308, 37.23044], [-6.95306, 37.2307]]], [[[-6.95482, 37.23994], [-6.95489, 37.24042], [-6.95484, 37.24043], [-6.95472, 37.23977], [-6.95482, 37.23994]]], [[[-6.95465, 37.24519], [-6.95381, 37.24519], [-6.95269, 37.2456], [-6.95244, 37.24611], [-6.95266, 37.24697], [-6.95298, 37.2476], [-6.95355, 37.24794], [-6.95505, 37.24771], [-6.95556, 37.24735], [-6.95568, 37.24767], [-6.95268, 37.24831], [-6.95224, 37.2478], [-6.95133, 37.24522], [-6.95462, 37.24483], [-6.95489, 37.24531], [-6.95465, 37.24519]]], [[[-6.9402, 37.21231], [-6.94251, 37.21251], [-6.94302, 37.21291], [-6.94289, 37.21361], [-6.94195, 37.21341], [-6.94097, 37.21346], [-6.94079, 37.21303], [-6.94035, 37.21281], [-6.93967, 37.2129], [-6.93899, 37.21324], [-6.93892, 37.21298], [-6.9402, 37.21231]]], [[[-6.93956, 37.21441], [-6.9394, 37.21447], [-6.9394, 37.2144], [-6.93956, 37.21441]]], [[[-6.94721, 37.21662], [-6.94726, 37.21658], [-6.94771, 37.21776], [-6.94704, 37.21672], [-6.94721, 37.21662]]], [[[-6.94803, 37.21824], [-6.948, 37.2182], [-6.94823, 37.21856], [-6.94803, 37.21824], [-6.94803, 37.21824]]], [[[-6.94035, 37.22398], [-6.94278, 37.23517], [-6.94287, 37.2365], [-6.94256, 37.23829], [-6.94057, 37.24534], [-6.93979, 37.2476], [-6.93914, 37.24855], [-6.93528, 37.24701], [-6.93404, 37.24602], [-6.93621, 37.2456], [-6.93655, 37.24569], [-6.9391, 37.24513], [-6.93933, 37.24493], [-6.93922, 37.24467], [-6.93336, 37.24555], [-6.93303, 37.24552], [-6.93283, 37.24513], [-6.93221, 37.24471], [-6.93037, 37.24467], [-6.93003, 37.24438], [-6.92977, 37.2421], [-6.92912, 37.24138], [-6.92862, 37.24139], [-6.92827, 37.24181], [-6.92738, 37.24196], [-6.92703, 37.24228], [-6.92713, 37.24288], [-6.92806, 37.24351], [-6.92773, 37.24375], [-6.92784, 37.24429], [-6.9281, 37.24446], [-6.92784, 37.24469], [-6.92784, 37.24499], [-6.92835, 37.24525], [-6.92872, 37.24572], [-6.92772, 37.24601], [-6.92748, 37.24586], [-6.92698, 37.24475], [-6.92681, 37.2426], [-6.92598, 37.24115], [-6.92174, 37.23692], [-6.9213, 37.23604], [-6.92123, 37.23516], [-6.92154, 37.23322], [-6.92227, 37.23207], [-6.92511, 37.22934], [-6.92575, 37.22915], [-6.93235, 37.2209], [-6.93444, 37.21933], [-6.93585, 37.21787], [-6.93686, 37.21664], [-6.93789, 37.21456], [-6.93827, 37.21423], [-6.94035, 37.22398]], [[-6.93265, 37.24019], [-6.93327, 37.24113], [-6.9336, 37.24321], [-6.93392, 37.24362], [-6.93916, 37.24277], [-6.94065, 37.23742], [-6.94071, 37.23539], [-6.93726, 37.21941], [-6.93615, 37.22056], [-6.93412, 37.2221], [-6.92763, 37.2302], [-6.92649, 37.23094], [-6.92484, 37.23237], [-6.92376, 37.23373], [-6.92363, 37.23584], [-6.92687, 37.23899], [-6.92876, 37.23872], [-6.93012, 37.23882], [-6.9317, 37.23942], [-6.93265, 37.24019]]], [[[-6.94328, 37.23842], [-6.94349, 37.2374], [-6.94427, 37.24151], [-6.944, 37.24368], [-6.94345, 37.24508], [-6.94257, 37.24645], [-6.9404, 37.24844], [-6.94328, 37.23842]]], [[[-6.94544, 37.24324], [-6.94501, 37.24323], [-6.9451, 37.24195], [-6.94535, 37.24314], [-6.94559, 37.24329], [-6.94544, 37.24324]]], [[[-6.95465, 37.24421], [-6.94886, 37.24504], [-6.94634, 37.24574], [-6.94598, 37.24558], [-6.94565, 37.24409], [-6.94585, 37.24382], [-6.95438, 37.24222], [-6.95442, 37.24249], [-6.95378, 37.24262], [-6.95351, 37.2431], [-6.95379, 37.24372], [-6.95462, 37.24381], [-6.95465, 37.24421]]], [[[-6.94461, 37.24458], [-6.9448, 37.24399], [-6.94529, 37.24559], [-6.94496, 37.24623], [-6.9427, 37.24748], [-6.94362, 37.24639], [-6.94461, 37.24458]]], [[[-6.94583, 37.24627], [-6.94568, 37.24626], [-6.94569, 37.24614], [-6.94585, 37.24616], [-6.94583, 37.24627]]], [[[-6.9454, 37.24677], [-6.94557, 37.24695], [-6.94558, 37.2479], [-6.94501, 37.24913], [-6.94146, 37.24906], [-6.94376, 37.24753], [-6.9454, 37.24677]]], [[[-6.93694, 37.20186], [-6.93672, 37.20148], [-6.93663, 37.20132], [-6.93693, 37.20172], [-6.93694, 37.20186]]], [[[-6.93487, 37.20362], [-6.93606, 37.20477], [-6.93578, 37.20485], [-6.9357, 37.20523], [-6.93539, 37.20535], [-6.93428, 37.20527], [-6.93285, 37.20468], [-6.93214, 37.20384], [-6.93347, 37.20386], [-6.93349, 37.20291], [-6.93487, 37.20362]]], [[[-6.93727, 37.20399], [-6.93726, 37.20399], [-6.93726, 37.20398], [-6.93728, 37.20399], [-6.93727, 37.20399]]], [[[-6.92499, 37.20371], [-6.92526, 37.20372], [-6.92557, 37.20406], [-6.92537, 37.20412], [-6.92499, 37.20371]]], [[[-6.93695, 37.2042], [-6.93696, 37.2042], [-6.93694, 37.20421], [-6.93694, 37.2042], [-6.93695, 37.2042]]], [[[-6.92972, 37.21028], [-6.92919, 37.20969], [-6.92791, 37.20561], [-6.92611, 37.20373], [-6.92964, 37.2038], [-6.9317, 37.20575], [-6.93278, 37.20638], [-6.93312, 37.20687], [-6.93376, 37.2073], [-6.93382, 37.20762], [-6.92972, 37.21028]]], [[[-6.92257, 37.20985], [-6.92282, 37.21042], [-6.92371, 37.21085], [-6.92422, 37.21075], [-6.92469, 37.21026], [-6.92551, 37.2105], [-6.92624, 37.21026], [-6.92661, 37.20969], [-6.92638, 37.20897], [-6.9267, 37.20869], [-6.92671, 37.20828], [-6.92716, 37.20767], [-6.92749, 37.20765], [-6.92714, 37.20749], [-6.92703, 37.20711], [-6.92655, 37.2067], [-6.92737, 37.20634], [-6.9279, 37.20791], [-6.9277, 37.20903], [-6.92837, 37.20932], [-6.92902, 37.21064], [-6.92897, 37.21076], [-6.92852, 37.21069], [-6.92781, 37.21034], [-6.92701, 37.21072], [-6.92666, 37.21118], [-6.92666, 37.21151], [-6.92772, 37.21233], [-6.92674, 37.21309], [-6.92506, 37.21488], [-6.92288, 37.21793], [-6.92156, 37.21943], [-6.9157, 37.22392], [-6.9137, 37.22596], [-6.91025, 37.22883], [-6.91041, 37.22304], [-6.91138, 37.22363], [-6.91218, 37.22453], [-6.91411, 37.2226], [-6.9197, 37.21831], [-6.92097, 37.21688], [-6.9224, 37.21481], [-6.92137, 37.21481], [-6.92041, 37.21446], [-6.91964, 37.21389], [-6.91907, 37.21316], [-6.91828, 37.21379], [-6.9179, 37.21572], [-6.91705, 37.21735], [-6.91628, 37.21827], [-6.91045, 37.22152], [-6.9105, 37.21946], [-6.91493, 37.217], [-6.91595, 37.21512], [-6.91635, 37.213], [-6.91912, 37.21077], [-6.92015, 37.21155], [-6.91982, 37.21178], [-6.9205, 37.21255], [-6.92094, 37.21243], [-6.92147, 37.21303], [-6.92213, 37.21312], [-6.92223, 37.21287], [-6.9219, 37.21253], [-6.92202, 37.21196], [-6.9218, 37.21198], [-6.92181, 37.21148], [-6.92237, 37.21136], [-6.92173, 37.21037], [-6.92237, 37.20969], [-6.92257, 37.20985]]], [[[-6.92989, 37.24523], [-6.92987, 37.24507], [-6.93049, 37.24524], [-6.93194, 37.24521], [-6.93233, 37.24552], [-6.92983, 37.24544], [-6.92989, 37.24523]]], [[[-6.93313, 37.24607], [-6.93413, 37.24681], [-6.93411, 37.24699], [-6.93331, 37.24661], [-6.93313, 37.24607]]], [[[-6.92748, 37.24685], [-6.92749, 37.24662], [-6.92969, 37.24597], [-6.93244, 37.24605], [-6.93277, 37.24693], [-6.93372, 37.24744], [-6.93262, 37.24891], [-6.92995, 37.24886], [-6.93012, 37.24864], [-6.92947, 37.24885], [-6.92702, 37.24881], [-6.92735, 37.24813], [-6.92748, 37.24685]]], [[[-6.93476, 37.24742], [-6.93472, 37.24736], [-6.93867, 37.24897], [-6.935, 37.24895], [-6.93476, 37.24742]]], [[[-6.93429, 37.24869], [-6.93432, 37.24894], [-6.9334, 37.24892], [-6.93419, 37.24787], [-6.93429, 37.24869]]], [[[-6.92262, 37.20423], [-6.92316, 37.20512], [-6.92318, 37.20548], [-6.92251, 37.20567], [-6.92228, 37.2061], [-6.92247, 37.2067], [-6.92283, 37.20694], [-6.92368, 37.20685], [-6.924, 37.20651], [-6.92396, 37.20612], [-6.92543, 37.20567], [-6.92586, 37.20581], [-6.92628, 37.20571], [-6.92645, 37.20587], [-6.92678, 37.20567], [-6.92661, 37.20551], [-6.92676, 37.20537], [-6.927, 37.20566], [-6.92391, 37.20695], [-6.92273, 37.20779], [-6.92233, 37.20765], [-6.92188, 37.20775], [-6.92152, 37.20808], [-6.92151, 37.20861], [-6.92093, 37.20894], [-6.92262, 37.20423]]], [[[-6.92466, 37.20751], [-6.92464, 37.20746], [-6.92462, 37.20743], [-6.92468, 37.20758], [-6.92466, 37.20751]]], [[[-6.91321, 37.20638], [-6.91466, 37.20477], [-6.91332, 37.20435], [-6.91209, 37.20349], [-6.92015, 37.20363], [-6.92077, 37.20381], [-6.92212, 37.20366], [-6.92108, 37.20653], [-6.9193, 37.20543], [-6.91901, 37.20553], [-6.91895, 37.20578], [-6.91961, 37.20627], [-6.91899, 37.20707], [-6.91761, 37.20585], [-6.91656, 37.20583], [-6.91585, 37.20614], [-6.91313, 37.20989], [-6.9107, 37.21252], [-6.91079, 37.20917], [-6.91139, 37.20897], [-6.91321, 37.20638]]], [[[-6.92512, 37.20763], [-6.92521, 37.20792], [-6.92494, 37.2082], [-6.92445, 37.2083], [-6.92426, 37.20857], [-6.92457, 37.20879], [-6.92443, 37.20889], [-6.92367, 37.2085], [-6.92377, 37.20823], [-6.92431, 37.20818], [-6.92469, 37.20769], [-6.92512, 37.20763]]], [[[-6.92334, 37.20819], [-6.92347, 37.20812], [-6.92375, 37.20823], [-6.92346, 37.20829], [-6.92334, 37.20819]]], [[[-6.91674, 37.20769], [-6.9164, 37.20776], [-6.91633, 37.20807], [-6.91565, 37.20842], [-6.91516, 37.20896], [-6.91625, 37.21122], [-6.91599, 37.2116], [-6.91469, 37.212], [-6.91463, 37.2124], [-6.91294, 37.21182], [-6.91221, 37.21192], [-6.91463, 37.20897], [-6.91634, 37.20652], [-6.9173, 37.20634], [-6.91854, 37.20747], [-6.91776, 37.20796], [-6.91735, 37.2073], [-6.91674, 37.20769]]], [[[-6.91131, 37.21286], [-6.9113, 37.213], [-6.91065, 37.21417], [-6.91068, 37.21326], [-6.91131, 37.21286]]], [[[-6.9115, 37.21528], [-6.91162, 37.2156], [-6.91202, 37.21574], [-6.9125, 37.21551], [-6.91523, 37.21514], [-6.91439, 37.21666], [-6.91052, 37.2188], [-6.91062, 37.21539], [-6.9115, 37.21528]]], [[[-6.91945, 37.23621], [-6.91995, 37.23718], [-6.9223, 37.23968], [-6.92343, 37.24037], [-6.92497, 37.24263], [-6.92596, 37.24725], [-6.92587, 37.24792], [-6.92542, 37.24878], [-6.92324, 37.24875], [-6.92407, 37.24536], [-6.92277, 37.242], [-6.92248, 37.24181], [-6.92218, 37.24191], [-6.92173, 37.24264], [-6.92208, 37.2436], [-6.92147, 37.24413], [-6.92196, 37.24542], [-6.92137, 37.24817], [-6.92097, 37.24864], [-6.92102, 37.24691], [-6.92142, 37.24458], [-6.92111, 37.24351], [-6.92122, 37.2397], [-6.91415, 37.23957], [-6.91914, 37.23513], [-6.91945, 37.23621]]]]}, "properties": {"kind": "pv", "area_km2": 6.4, "mw": 320.0}}]}