{"type": "FeatureCollection", "features": [{"type": "Feature", "geometry": {"type": "MultiPolygon", "coordinates": [[[[-7.02612, 37.28038], [-7.02553, 37.27982], [-7.02503, 37.27899], [-7.02643, 37.2801], [-7.02612, 37.28038]]], [[[-7.01383, 37.27373], [-7.01317, 37.27438], [-7.01151, 37.27516], [-7.01174, 37.27393], [-7.01383, 37.27373]]], [[[-7.01443, 37.28117], [-7.01453, 37.2813], [-7.01344, 37.28212], [-7.0134, 37.28193], [-7.01443, 37.28117]]], [[[-7.02111, 37.28473], [-7.02103, 37.28154], [-7.02114, 37.28147], [-7.02251, 37.28357], [-7.02111, 37.28473]]], [[[-6.98119, 37.30274], [-6.98024, 37.29671], [-6.97839, 37.29276], [-6.97716, 37.29183], [-6.97589, 37.28986], [-6.97524, 37.28538], [-6.97537, 37.28489], [-6.97707, 37.28597], [-6.97972, 37.28592], [-6.98071, 37.28525], [-6.98122, 37.28409], [-6.98356, 37.28249], [-6.98432, 37.28323], [-6.98469, 37.28539], [-6.98628, 37.28681], [-6.98641, 37.28827], [-6.98696, 37.28891], [-6.98513, 37.29759], [-6.98563, 37.2991], [-6.98659, 37.29971], [-6.98778, 37.29991], [-6.98998, 37.2992], [-6.99317, 37.29941], [-6.9952, 37.29872], [-6.9978, 37.29865], [-6.99391, 37.30043], [-6.98188, 37.30453], [-6.98119, 37.30274]]], [[[-6.94431, 37.29926], [-6.94477, 37.29803], [-6.94601, 37.29698], [-6.94661, 37.2957], [-6.94665, 37.29385], [-6.94551, 37.29203], [-6.94581, 37.28994], [-6.94709, 37.28704], [-6.94746, 37.28695], [-6.94818, 37.28778], [-6.94929, 37.28826], [-6.95149, 37.28793], [-6.95247, 37.29174], [-6.95306, 37.29254], [-6.95293, 37.29331], [-6.95144, 37.29354], [-6.94806, 37.29542], [-6.94414, 37.29989], [-6.94431, 37.29926]]], [[[-6.93749, 37.22054], [-6.94076, 37.23673], [-6.93916, 37.24277], [-6.93392, 37.24362], [-6.93327, 37.24113], [-6.93236, 37.2399], [-6.93009, 37.23882], [-6.92687, 37.23899], [-6.92372, 37.23598], [-6.9236, 37.23456], [-6.92458, 37.23261], [-6.92763, 37.2302], [-6.93412, 37.2221], [-6.93726, 37.21941], [-6.93749, 37.22054]]], [[[-6.92928, 37.2507], [-6.92806, 37.25109], [-6.92952, 37.24872], [-6.93012, 37.24864], [-6.92938, 37.24974], [-6.92928, 37.2507]]], [[[-6.90887, 37.26564], [-6.9085, 37.2661], [-6.90933, 37.26506], [-6.90887, 37.26564]]], [[[-6.90761, 37.2672], [-6.90028, 37.27628], [-6.89841, 37.27753], [-6.89361, 37.28633], [-6.89194, 37.28783], [-6.89152, 37.29048], [-6.89269, 37.29442], [-6.89247, 37.29502], [-6.88936, 37.29546], [-6.88502, 37.29313], [-6.88401, 37.29124], [-6.88564, 37.28079], [-6.887, 37.28141], [-6.88906, 37.28148], [-6.89029, 37.28115], [-6.89117, 37.28039], [-6.89148, 37.27917], [-6.89008, 37.27233], [-6.89141, 37.26903], [-6.89219, 37.26244], [-6.89445, 37.26005], [-6.89486, 37.25887], [-6.8989, 37.25453], [-6.90349, 37.25143], [-6.9042, 37.25228], [-6.90559, 37.25299], [-6.9012, 37.2563], [-6.89884, 37.25926], [-6.89862, 37.26067], [-6.90071, 37.26328], [-6.90028, 37.26487], [-6.90109, 37.26616], [-6.90442, 37.26789], [-6.90639, 37.26776], [-6.90792, 37.26682], [-6.90761, 37.2672]]], [[[-6.89687, 37.29745], [-6.89805, 37.29856], [-6.89676, 37.29967], [-6.89656, 37.29769], [-6.89687, 37.29745]]], [[[-6.90394, 37.30244], [-6.90442, 37.30189], [-6.90516, 37.30302], [-6.90661, 37.30378], [-6.90671, 37.30451], [-6.90304, 37.30339], [-6.90394, 37.30244]]], [[[-6.87388, 37.28719], [-6.87512, 37.28458], [-6.87656, 37.28329], [-6.87712, 37.28197], [-6.87864, 37.28016], [-6.87952, 37.27795], [-6.87855, 37.28911], [-6.87901, 37.29261], [-6.87305, 37.28891], [-6.87388, 37.28719]]], [[[-6.86361, 37.27098], [-6.86383, 37.26987], [-6.86325, 37.26885], [-6.86206, 37.26826], [-6.86065, 37.2683], [-6.85853, 37.26976], [-6.85506, 37.27307], [-6.85172, 37.2693], [-6.84818, 37.26432], [-6.84983, 37.26102], [-6.85471, 37.25911], [-6.86739, 37.25166], [-6.87403, 37.24914], [-6.88112, 37.24423], [-6.88199, 37.24578], [-6.88411, 37.24706], [-6.88664, 37.24729], [-6.88858, 37.2466], [-6.89021, 37.24474], [-6.89012, 37.24237], [-6.88811, 37.24053], [-6.88547, 37.23991], [-6.88983, 37.23567], [-6.89184, 37.23521], [-6.89495, 37.23342], [-6.89605, 37.23518], [-6.89806, 37.23649], [-6.90016, 37.23677], [-6.90214, 37.23625], [-6.89842, 37.2404], [-6.89562, 37.24224], [-6.89132, 37.24605], [-6.88822, 37.24826], [-6.87713, 37.25854], [-6.87449, 37.26161], [-6.87237, 37.26536], [-6.87084, 37.26719], [-6.86718, 37.26944], [-6.86361, 37.27098]]], [[[-6.91214, 37.22446], [-6.91071, 37.22319], [-6.90875, 37.22245], [-6.91643, 37.21815], [-6.9179, 37.21572], [-6.91828, 37.21379], [-6.91907, 37.21316], [-6.92041, 37.21446], [-6.9224, 37.21481], [-6.9197, 37.21831], [-6.91214, 37.22446]]], [[[-6.91521, 37.19754], [-6.91335, 37.19815], [-6.91265, 37.19657], [-6.91034, 37.19459], [-6.91176, 37.19435], [-6.91306, 37.19568], [-6.9156, 37.19637], [-6.91554, 37.19745], [-6.91521, 37.19754]]], [[[-6.91158, 37.20285], [-6.91286, 37.20409], [-6.91466, 37.20477], [-6.91133, 37.20905], [-6.90892, 37.21019], [-6.90737, 37.21245], [-6.90655, 37.21205], [-6.90691, 37.20984], [-6.90579, 37.20674], [-6.90342, 37.20273], [-6.90803, 37.20337], [-6.90957, 37.20326], [-6.91145, 37.20261], [-6.91158, 37.20285]]], [[[-6.90168, 37.20196], [-6.90009, 37.20182], [-6.89847, 37.20214], [-6.89749, 37.20294], [-6.89721, 37.20385], [-6.89793, 37.20521], [-6.89976, 37.20576], [-6.902, 37.21035], [-6.89909, 37.2072], [-6.89725, 37.20707], [-6.89594, 37.20785], [-6.89556, 37.20874], [-6.89574, 37.20967], [-6.89826, 37.21287], [-6.89572, 37.21198], [-6.89459, 37.21223], [-6.89361, 37.21304], [-6.89335, 37.21395], [-6.89365, 37.21486], [-6.89613, 37.21637], [-6.89561, 37.21817], [-6.89503, 37.21869], [-6.89453, 37.21863], [-6.89362, 37.2178], [-6.89157, 37.21711], [-6.89137, 37.2146], [-6.88977, 37.2117], [-6.89036, 37.2098], [-6.88958, 37.20742], [-6.89344, 37.20729], [-6.89479, 37.20671], [-6.89591, 37.20543], [-6.89623, 37.20445], [-6.89503, 37.20178], [-6.89563, 37.20098], [-6.89733, 37.20044], [-6.89916, 37.19915], [-6.90107, 37.19931], [-6.90103, 37.20077], [-6.90168, 37.20196]]], [[[-6.88081, 37.2123], [-6.8805, 37.21362], [-6.87918, 37.21493], [-6.87792, 37.21507], [-6.87764, 37.21455], [-6.87829, 37.21087], [-6.87714, 37.20808], [-6.87822, 37.20756], [-6.87887, 37.20776], [-6.87914, 37.2108], [-6.88081, 37.2123]]], [[[-6.86977, 37.20703], [-6.86945, 37.21024], [-6.86989, 37.21348], [-6.86821, 37.21394], [-6.86693, 37.21484], [-6.86618, 37.21608], [-6.86598, 37.2174], [-6.86638, 37.21874], [-6.86738, 37.21985], [-6.86885, 37.22057], [-6.87034, 37.22081], [-6.86943, 37.22328], [-6.86692, 37.22401], [-6.86593, 37.22471], [-6.86541, 37.22565], [-6.86546, 37.22667], [-6.86807, 37.22935], [-6.86942, 37.22974], [-6.87122, 37.22947], [-6.87242, 37.23082], [-6.87163, 37.23261], [-6.87222, 37.2346], [-6.87454, 37.23627], [-6.87766, 37.23652], [-6.87886, 37.23826], [-6.87894, 37.24031], [-6.87656, 37.24242], [-6.87336, 37.24424], [-6.87128, 37.24596], [-6.86491, 37.24834], [-6.85194, 37.25594], [-6.8477, 37.25746], [-6.84486, 37.25906], [-6.84202, 37.25396], [-6.83862, 37.24579], [-6.83625, 37.2374], [-6.83555, 37.23292], [-6.83793, 37.23068], [-6.83867, 37.22877], [-6.83773, 37.22641], [-6.83646, 37.22552], [-6.83479, 37.22508], [-6.83463, 37.22025], [-6.83578, 37.2099], [-6.83573, 37.21186], [-6.83657, 37.21344], [-6.83824, 37.21451], [-6.84044, 37.21484], [-6.8421, 37.21449], [-6.84373, 37.2134], [-6.84456, 37.21171], [-6.84439, 37.21016], [-6.847, 37.20957], [-6.85057, 37.20816], [-6.85208, 37.20825], [-6.85437, 37.20778], [-6.85788, 37.20833], [-6.8614, 37.20771], [-6.86419, 37.20786], [-6.86711, 37.20648], [-6.86977, 37.20703]], [[-6.86635, 37.21215], [-6.86644, 37.21112], [-6.86678, 37.21269], [-6.86928, 37.21265], [-6.86955, 37.21169], [-6.869, 37.2098], [-6.86731, 37.20927], [-6.86691, 37.21027], [-6.86622, 37.21029], [-6.8651, 37.20909], [-6.8634, 37.20878], [-6.86149, 37.2093], [-6.86053, 37.21025], [-6.85671, 37.2101], [-6.8548, 37.21072], [-6.85366, 37.21169], [-6.85241, 37.214], [-6.8522, 37.21804], [-6.85313, 37.22], [-6.85447, 37.22091], [-6.85614, 37.22133], [-6.86005, 37.22133], [-6.86209, 37.22073], [-6.86385, 37.21875], [-6.8648, 37.21585], [-6.86448, 37.21403], [-6.86544, 37.21347], [-6.86635, 37.21215]]], [[[-6.84223, 37.19272], [-6.86338, 37.18828], [-6.86347, 37.18997], [-6.86422, 37.19131], [-6.86583, 37.19243], [-6.86764, 37.19281], [-6.86948, 37.195], [-6.86842, 37.19637], [-6.86825, 37.19807], [-6.86913, 37.19971], [-6.87058, 37.20067], [-6.86763, 37.20073], [-6.86395, 37.20196], [-6.8622, 37.20173], [-6.86056, 37.20232], [-6.85883, 37.20176], [-6.85169, 37.20194], [-6.84796, 37.2032], [-6.84689, 37.20407], [-6.84655, 37.20505], [-6.8451, 37.20563], [-6.84255, 37.20619], [-6.83826, 37.20602], [-6.83649, 37.20659], [-6.83722, 37.20319], [-6.84008, 37.19489], [-6.841, 37.19296], [-6.84223, 37.19272]]], [[[-6.87642, 37.20065], [-6.87642, 37.2006], [-6.87642, 37.20033], [-6.87681, 37.20066], [-6.87642, 37.20065]]], [[[-6.88469, 37.20098], [-6.88266, 37.19922], [-6.88472, 37.19872], [-6.88878, 37.19516], [-6.89107, 37.19625], [-6.89245, 37.19616], [-6.89348, 37.19569], [-6.89792, 37.19165], [-6.89808, 37.19036], [-6.89726, 37.18933], [-6.89792, 37.18892], [-6.89921, 37.18981], [-6.90099, 37.19027], [-6.90318, 37.1919], [-6.90475, 37.19252], [-6.90397, 37.19413], [-6.90408, 37.19553], [-6.90176, 37.19498], [-6.89747, 37.19484], [-6.89598, 37.19544], [-6.89434, 37.19683], [-6.89171, 37.19777], [-6.88972, 37.20049], [-6.88941, 37.20236], [-6.88638, 37.20313], [-6.88469, 37.20098]]], [[[-7.04953, 37.24165], [-7.04829, 37.2412], [-7.04698, 37.24127], [-7.04339, 37.24369], [-7.0419, 37.24371], [-7.03954, 37.24297], [-7.03758, 37.24316], [-7.03496, 37.24219], [-7.03274, 37.24237], [-7.03147, 37.23962], [-7.02981, 37.23924], [-7.02973, 37.24053], [-7.03045, 37.24307], [-7.02841, 37.24348], [-7.02563, 37.24536], [-7.02337, 37.24517], [-7.02087, 37.24548], [-7.02115, 37.23735], [-7.02067, 37.23356], [-7.02502, 37.22762], [-7.02683, 37.22708], [-7.03291, 37.22704], [-7.03238, 37.22838], [-7.03279, 37.22955], [-7.03394, 37.23036], [-7.03564, 37.23055], [-7.03726, 37.22999], [-7.03803, 37.22895], [-7.03786, 37.22755], [-7.03672, 37.22659], [-7.03846, 37.22662], [-7.04041, 37.22713], [-7.04304, 37.22835], [-7.04525, 37.23032], [-7.05278, 37.2345], [-7.0509, 37.24255], [-7.04953, 37.24165]], [[-7.02837, 37.2363], [-7.02997, 37.23763], [-7.03205, 37.2377], [-7.03389, 37.23649], [-7.03411, 37.23473], [-7.03256, 37.23332], [-7.03004, 37.23327], [-7.02851, 37.23437], [-7.02837, 37.2363]]], [[[-7.05385, 37.22436], [-7.05339, 37.23022], [-7.04823, 37.22727], [-7.04604, 37.22531], [-7.04392, 37.22428], [-7.04532, 37.22326], [-7.0461, 37.22155], [-7.04583, 37.21986], [-7.0446, 37.21847], [-7.04268, 37.2177], [-7.04071, 37.21765], [-7.0386, 37.21847], [-7.03641, 37.21845], [-7.03364, 37.2202], [-7.03393, 37.21858], [-7.03318, 37.21743], [-7.03179, 37.21682], [-7.03231, 37.21502], [-7.03122, 37.21365], [-7.03266, 37.21327], [-7.03364, 37.21426], [-7.03512, 37.21463], [-7.03908, 37.21376], [-7.03909, 37.21517], [-7.03995, 37.2162], [-7.04165, 37.21668], [-7.04349, 37.21606], [-7.04564, 37.21808], [-7.0477, 37.21834], [-7.04999, 37.22284], [-7.05133, 37.2237], [-7.05385, 37.22436]]], [[[-7.03172, 37.22328], [-7.02895, 37.22334], [-7.02783, 37.22156], [-7.02542, 37.22048], [-7.02535, 37.21931], [-7.02789, 37.21728], [-7.02876, 37.21763], [-7.02785, 37.21934], [-7.02878, 37.22085], [-7.03082, 37.22155], [-7.03266, 37.22114], [-7.03172, 37.22328]]], [[[-7.0069, 37.24594], [-7.00659, 37.24583], [-7.007, 37.24578], [-7.0069, 37.24594]]], [[[-7.00944, 37.25435], [-7.00958, 37.25369], [-7.01109, 37.2538], [-7.01171, 37.25311], [-7.01317, 37.25318], [-7.01244, 37.25431], [-7.01041, 37.25447], [-7.0091, 37.25498], [-7.00909, 37.25444], [-7.00944, 37.25435]]], [[[-7.02107, 37.2585], [-7.02142, 37.25701], [-7.02096, 37.25508], [-7.02033, 37.25345], [-7.01914, 37.25257], [-7.02064, 37.24948], [-7.02319, 37.24905], [-7.0271, 37.24907], [-7.02851, 37.24856], [-7.03081, 37.24693], [-7.03427, 37.2461], [-7.03326, 37.24752], [-7.03296, 37.25039], [-7.03112, 37.25413], [-7.03142, 37.25585], [-7.0327, 37.25723], [-7.03092, 37.25948], [-7.0289, 37.25825], [-7.0258, 37.25758], [-7.0233, 37.25772], [-7.02114, 37.25872], [-7.02107, 37.2585]]], [[[-7.03721, 37.25871], [-7.03752, 37.25794], [-7.03941, 37.25858], [-7.04158, 37.2585], [-7.04121, 37.25893], [-7.03721, 37.25871]]], [[[-7.0333, 37.2089], [-7.03518, 37.20963], [-7.03367, 37.21061], [-7.03273, 37.20958], [-7.0314, 37.20918], [-7.03078, 37.20793], [-7.0333, 37.2089]]], [[[-7.00257, 37.19821], [-7.0045, 37.19897], [-7.00664, 37.19997], [-6.99891, 37.19736], [-6.99087, 37.19371], [-6.99114, 37.19355], [-6.99477, 37.19509], [-6.99651, 37.19604], [-7.00257, 37.19821]], [[-6.99239, 37.19432], [-6.99535, 37.19564], [-6.9954, 37.19557], [-6.99366, 37.19469], [-6.99239, 37.19432]], [[-6.99946, 37.1975], [-7.00514, 37.19937], [-7.00518, 37.1993], [-6.99777, 37.19673], [-6.99946, 37.1975]]], [[[-6.99907, 37.26288], [-6.99908, 37.26131], [-7.00284, 37.26012], [-7.00524, 37.25813], [-7.00727, 37.25783], [-7.00764, 37.25931], [-7.00699, 37.26043], [-7.00508, 37.26081], [-7.00249, 37.26228], [-6.99907, 37.26288]]], [[[-6.98112, 37.20065], [-6.98166, 37.20221], [-6.98213, 37.20352], [-6.98093, 37.20057], [-6.98112, 37.20065]]], [[[-6.97819, 37.20369], [-6.97855, 37.20371], [-6.98081, 37.20379], [-6.98025, 37.20398], [-6.97819, 37.20369]]], [[[-6.97672, 37.19946], [-6.97687, 37.19946], [-6.97636, 37.20185], [-6.97625, 37.2017], [-6.97672, 37.19946]]], [[[-7.00493, 37.2697], [-7.00455, 37.26939], [-7.00409, 37.26915], [-7.00502, 37.2691], [-7.00493, 37.2697]]], [[[-6.96765, 37.20893], [-6.96965, 37.20872], [-6.97077, 37.20929], [-6.97111, 37.21035], [-6.97175, 37.21072], [-6.9694, 37.21412], [-6.96813, 37.21104], [-6.96661, 37.20923], [-6.96409, 37.20766], [-6.96033, 37.20634], [-6.96362, 37.20596], [-6.96498, 37.20793], [-6.96765, 37.20893]]], [[[-6.96263, 37.20535], [-6.9614, 37.20523], [-6.95904, 37.20592], [-6.95608, 37.20483], [-6.95413, 37.20367], [-6.95578, 37.20238], [-6.95765, 37.2019], [-6.9594, 37.20257], [-6.95846, 37.20166], [-6.95914, 37.20129], [-6.95988, 37.20149], [-6.95886, 37.20029], [-6.95568, 37.20124], [-6.95316, 37.20289], [-6.95248, 37.20223], [-6.951, 37.20017], [-6.94747, 37.19222], [-6.94917, 37.19235], [-6.94926, 37.19278], [-6.95028, 37.19295], [-6.95056, 37.19334], [-6.95117, 37.19276], [-6.9536, 37.19316], [-6.9519, 37.19182], [-6.94785, 37.18983], [-6.94813, 37.19167], [-6.94719, 37.19158], [-6.94488, 37.18635], [-6.94569, 37.18658], [-6.95129, 37.19057], [-6.95285, 37.19132], [-6.95418, 37.19268], [-6.95918, 37.19308], [-6.95938, 37.19383], [-6.95405, 37.19336], [-6.95701, 37.19529], [-6.9593, 37.19522], [-6.96102, 37.19569], [-6.96114, 37.1967], [-6.96274, 37.19972], [-6.96486, 37.20242], [-6.96384, 37.20382], [-6.96352, 37.20536], [-6.96263, 37.20535]]], [[[-6.95875, 37.19218], [-6.95591, 37.19107], [-6.95509, 37.19031], [-6.95884, 37.19059], [-6.95901, 37.19243], [-6.95875, 37.19218]]], [[[-6.95284, 37.18888], [-6.95061, 37.18728], [-6.94839, 37.1863], [-6.94776, 37.18669], [-6.94723, 37.18587], [-6.94858, 37.18604], [-6.94999, 37.18555], [-6.95081, 37.18577], [-6.95095, 37.18548], [-6.95247, 37.18523], [-6.95299, 37.18601], [-6.95405, 37.18661], [-6.95327, 37.18777], [-6.95341, 37.18912], [-6.95284, 37.18888]]], [[[-6.94479, 37.18437], [-6.94403, 37.18412], [-6.94496, 37.18391], [-6.9455, 37.18415], [-6.94613, 37.18519], [-6.94479, 37.18437]]], [[[-6.90907, 37.15521], [-6.90772, 37.15436], [-6.92555, 37.16248], [-6.92422, 37.16271], [-6.92198, 37.16215], [-6.91886, 37.16048], [-6.91665, 37.16087], [-6.90907, 37.15521]]], [[[-6.97878, 37.25068], [-6.97804, 37.25011], [-6.98015, 37.25133], [-6.98059, 37.25203], [-6.97878, 37.25068]]], [[[-6.95994, 37.30782], [-6.95963, 37.30611], [-6.95864, 37.30418], [-6.95859, 37.30274], [-6.96243, 37.29894], [-6.9642, 37.29817], [-6.96475, 37.29722], [-6.96469, 37.29378], [-6.96293, 37.28834], [-6.96298, 37.28642], [-6.96641, 37.27833], [-6.96746, 37.28099], [-6.96698, 37.28457], [-6.96717, 37.29167], [-6.96858, 37.29297], [-6.97, 37.2965], [-6.97042, 37.30149], [-6.97218, 37.30306], [-6.97457, 37.3032], [-6.97529, 37.30629], [-6.96335, 37.30858], [-6.95972, 37.30894], [-6.95994, 37.30782]]], [[[-6.94811, 37.30955], [-6.94709, 37.30857], [-6.94679, 37.30738], [-6.948, 37.3047], [-6.94925, 37.30359], [-6.95323, 37.30304], [-6.95352, 37.30522], [-6.95463, 37.3077], [-6.95425, 37.3095], [-6.94811, 37.30955]]], [[[-6.92688, 37.16795], [-6.92663, 37.16784], [-6.92671, 37.16774], [-6.92687, 37.16786], [-6.92688, 37.16795]]], [[[-6.9386, 37.17853], [-6.9362, 37.17656], [-6.93825, 37.17653], [-6.93949, 37.17597], [-6.94162, 37.17695], [-6.94193, 37.17802], [-6.94294, 37.17886], [-6.93937, 37.17915], [-6.9386, 37.17853]]], [[[-6.97094, 37.27008], [-6.97697, 37.27143], [-6.97819, 37.27307], [-6.9795, 37.27683], [-6.97945, 37.27854], [-6.97921, 37.27905], [-6.97649, 37.28069], [-6.97658, 37.27932], [-6.97549, 37.27686], [-6.97385, 37.27471], [-6.97259, 37.27384], [-6.97031, 37.26999], [-6.97094, 37.27008]]], [[[-6.90726, 37.1986], [-6.90658, 37.19857], [-6.90651, 37.19808], [-6.90737, 37.19861], [-6.90726, 37.1986]]], [[[-6.86753, 37.27758], [-6.86944, 37.27597], [-6.87019, 37.27481], [-6.87205, 37.27365], [-6.86977, 37.27791], [-6.86574, 37.28341], [-6.86052, 37.27871], [-6.86324, 37.27716], [-6.86501, 37.27796], [-6.86753, 37.27758]]], [[[-6.90298, 37.2265], [-6.90417, 37.22823], [-6.90209, 37.22909], [-6.90182, 37.22812], [-6.90298, 37.2265]]], [[[-6.9407, 37.2893], [-6.94063, 37.29134], [-6.93867, 37.29249], [-6.93772, 37.29454], [-6.93806, 37.29656], [-6.93949, 37.29795], [-6.93917, 37.29916], [-6.93642, 37.3001], [-6.93488, 37.30222], [-6.93518, 37.30425], [-6.93729, 37.3061], [-6.93729, 37.30963], [-6.93114, 37.30928], [-6.92318, 37.3082], [-6.92429, 37.30734], [-6.92605, 37.30791], [-6.92817, 37.30778], [-6.93043, 37.30647], [-6.93129, 37.30491], [-6.93147, 37.30227], [-6.93004, 37.29885], [-6.93296, 37.29462], [-6.9347, 37.29403], [-6.93681, 37.29225], [-6.93739, 37.29046], [-6.93695, 37.28889], [-6.93859, 37.28878], [-6.9407, 37.2893]]], [[[-6.92652, 37.295], [-6.92724, 37.29477], [-6.92616, 37.29644], [-6.92347, 37.29666], [-6.92132, 37.29828], [-6.92079, 37.30044], [-6.92195, 37.30294], [-6.91821, 37.30733], [-6.90937, 37.29884], [-6.9071, 37.29756], [-6.90969, 37.29239], [-6.91188, 37.28909], [-6.91814, 37.28275], [-6.91914, 37.28324], [-6.91933, 37.28478], [-6.92094, 37.28736], [-6.92037, 37.28884], [-6.92034, 37.29153], [-6.92094, 37.29317], [-6.92343, 37.29485], [-6.92652, 37.295]]], [[[-6.90936, 37.28424], [-6.90982, 37.2843], [-6.90719, 37.28749], [-6.90589, 37.2857], [-6.90408, 37.2848], [-6.90195, 37.28468], [-6.89965, 37.28555], [-6.90089, 37.28361], [-6.90318, 37.28374], [-6.9054, 37.2828], [-6.90719, 37.28393], [-6.90936, 37.28424]]], [[[-6.90232, 37.29626], [-6.9013, 37.29568], [-6.9021, 37.29436], [-6.90226, 37.29252], [-6.90422, 37.2923], [-6.90232, 37.29626]]], [[[-7.01743, 37.27792], [-7.01727, 37.27734], [-7.01919, 37.27761], [-7.01799, 37.27841], [-7.01743, 37.27792]]], [[[-6.88368, 37.23338], [-6.88562, 37.23367], [-6.88305, 37.23618], [-6.8811, 37.23373], [-6.88119, 37.23297], [-6.88368, 37.23338]]], [[[-6.88216, 37.22898], [-6.88216, 37.22848], [-6.88442, 37.22828], [-6.88553, 37.22967], [-6.88411, 37.22982], [-6.88216, 37.22898]]], [[[-6.8745, 37.22616], [-6.8744, 37.22588], [-6.87723, 37.22654], [-6.87604, 37.22822], [-6.8745, 37.22616]]], [[[-6.87778, 37.16043], [-6.87702, 37.16152], [-6.87692, 37.16247], [-6.87828, 37.16432], [-6.87983, 37.16498], [-6.88329, 37.16503], [-6.88343, 37.16607], [-6.88182, 37.16737], [-6.88128, 37.16937], [-6.88228, 37.17147], [-6.88433, 37.17263], [-6.87601, 37.18372], [-6.87619, 37.18483], [-6.87692, 37.18557], [-6.87823, 37.18597], [-6.87977, 37.18563], [-6.88142, 37.18683], [-6.87729, 37.19049], [-6.876, 37.18989], [-6.87472, 37.18988], [-6.87233, 37.19144], [-6.8719, 37.19095], [-6.87251, 37.18872], [-6.87158, 37.18686], [-6.86943, 37.18561], [-6.86728, 37.18539], [-6.85505, 37.1713], [-6.85945, 37.16677], [-6.86129, 37.16847], [-6.86352, 37.16906], [-6.86254, 37.17054], [-6.86249, 37.17225], [-6.86323, 37.17364], [-6.86486, 37.17475], [-6.86671, 37.17517], [-6.86874, 37.17492], [-6.8705, 37.17396], [-6.87146, 37.17265], [-6.87258, 37.17402], [-6.87436, 37.17496], [-6.87618, 37.17517], [-6.87823, 37.17467], [-6.87949, 37.17375], [-6.88031, 37.17217], [-6.88022, 37.17029], [-6.87952, 37.16904], [-6.8775, 37.1678], [-6.87489, 37.1676], [-6.87257, 37.16843], [-6.87133, 37.16989], [-6.86981, 37.16844], [-6.86721, 37.1678], [-6.86804, 37.16657], [-6.86872, 37.16318], [-6.86812, 37.16154], [-6.86668, 37.16036], [-6.87075, 37.15726], [-6.87778, 37.16043]], [[-6.87388, 37.17716], [-6.8703, 37.17675], [-6.86861, 37.17727], [-6.86735, 37.1782], [-6.86657, 37.17944], [-6.8664, 37.18087], [-6.86692, 37.18218], [-6.86803, 37.18323], [-6.86955, 37.18386], [-6.87255, 37.18409], [-6.87417, 37.1837], [-6.87555, 37.18281], [-6.87648, 37.18126], [-6.87651, 37.17973], [-6.8756, 37.17818], [-6.87388, 37.17716]]], [[[-6.90644, 37.21737], [-6.9068, 37.21649], [-6.90992, 37.21711], [-6.90701, 37.21872], [-6.90638, 37.21808], [-6.90644, 37.21737]]], [[[-6.90244, 37.22056], [-6.90184, 37.22072], [-6.90212, 37.21998], [-6.90233, 37.22038], [-6.90244, 37.22056]]], [[[-6.88913, 37.18596], [-6.89041, 37.18671], [-6.89072, 37.18765], [-6.88842, 37.1897], [-6.88648, 37.1883], [-6.88913, 37.18596]]], [[[-6.88636, 37.21683], [-6.8866, 37.21653], [-6.88672, 37.21631], [-6.88673, 37.21683], [-6.88636, 37.21683]]], [[[-6.85225, 37.17486], [-6.85633, 37.17963], [-6.84727, 37.18152], [-6.84875, 37.17916], [-6.85225, 37.17486]]], [[[-6.85725, 37.18563], [-6.84339, 37.1885], [-6.84329, 37.18818], [-6.84439, 37.18612], [-6.85922, 37.18301], [-6.86079, 37.18485], [-6.85725, 37.18563]]]]}, "properties": {"kind": "windland", "area_km2": 51.67}}, {"type": "Feature", "geometry": {"type": "MultiPolygon", "coordinates": [[[[-6.98125, 37.18366], [-6.98125, 37.18361], [-6.98419, 37.18498], [-6.98445, 37.18514], [-6.98125, 37.18366]]], [[[-6.98107, 37.18706], [-6.98107, 37.18705], [-6.98111, 37.18708], [-6.98107, 37.18706], [-6.98107, 37.18706]]], [[[-6.98153, 37.18729], [-6.98142, 37.18722], [-6.98131, 37.18717], [-6.98141, 37.18721], [-6.98156, 37.18728], [-6.98153, 37.18729]]], [[[-6.98652, 37.18929], [-6.98624, 37.18917], [-6.98606, 37.18913], [-6.98611, 37.18907], [-6.98652, 37.18929]]], [[[-6.98281, 37.19066], [-6.98313, 37.19078], [-6.9829, 37.19083], [-6.98281, 37.19066]]], [[[-6.98328, 37.19155], [-6.98317, 37.19133], [-6.98334, 37.19129], [-6.9835, 37.19151], [-6.98328, 37.19155]]], [[[-6.98183, 37.19185], [-6.98171, 37.19163], [-6.9825, 37.19147], [-6.98262, 37.19169], [-6.98183, 37.19185]]], [[[-6.9878, 37.19224], [-6.98992, 37.19311], [-6.98715, 37.19171], [-6.98736, 37.19165], [-6.99114, 37.19355], [-6.99087, 37.19371], [-6.98669, 37.19182], [-6.9878, 37.19224]]], [[[-6.98335, 37.19362], [-6.9837, 37.19413], [-6.98296, 37.19433], [-6.98169, 37.19429], [-6.98159, 37.19411], [-6.98196, 37.19423], [-6.98221, 37.19398], [-6.9817, 37.19291], [-6.98233, 37.19399], [-6.98278, 37.19407], [-6.98292, 37.19374], [-6.98218, 37.19246], [-6.9827, 37.19328], [-6.98305, 37.19339], [-6.9833, 37.19308], [-6.9829, 37.19231], [-6.98334, 37.19298], [-6.98335, 37.19362]]], [[[-6.98081, 37.19275], [-6.98087, 37.19274], [-6.98155, 37.19405], [-6.98083, 37.19279], [-6.98081, 37.19275]]], [[[-6.98309, 37.19467], [-6.98425, 37.19462], [-6.9843, 37.19471], [-6.98352, 37.19478], [-6.9833, 37.19495], [-6.98198, 37.19481], [-6.98309, 37.19467]]], [[[-6.98381, 37.19541], [-6.98365, 37.19558], [-6.9834, 37.19543], [-6.98232, 37.19542], [-6.98311, 37.19535], [-6.98333, 37.19517], [-6.98464, 37.19532], [-6.98381, 37.19541]]], [[[-6.98382, 37.19589], [-6.98494, 37.19584], [-6.985, 37.19594], [-6.98273, 37.19614], [-6.98266, 37.19603], [-6.98344, 37.19596], [-6.98367, 37.19576], [-6.98382, 37.19589]]], [[[-7.01248, 37.19837], [-7.01248, 37.19845], [-7.01015, 37.19756], [-7.01032, 37.19738], [-7.01248, 37.19837]]], [[[-7.00448, 37.19896], [-7.00253, 37.19819], [-7.01212, 37.2015], [-7.0124, 37.20161], [-7.01239, 37.20187], [-7.00664, 37.19997], [-7.00448, 37.19896]]], [[[-6.99659, 37.20145], [-6.99671, 37.20177], [-6.9965, 37.20173], [-6.99659, 37.20145]]], [[[-6.99211, 37.20166], [-6.99505, 37.20238], [-6.99682, 37.20246], [-7.0012, 37.20305], [-6.99469, 37.2024], [-6.99104, 37.20144], [-6.99211, 37.20166]]], [[[-7.00958, 37.20422], [-7.00986, 37.20436], [-7.00952, 37.20514], [-7.00846, 37.20499], [-7.00823, 37.20519], [-7.00834, 37.20545], [-7.00305, 37.20492], [-7.00156, 37.20472], [-7.00365, 37.20497], [-7.00456, 37.20489], [-7.00779, 37.2053], [-7.008, 37.20524], [-7.00776, 37.20424], [-7.00752, 37.2039], [-7.00687, 37.20374], [-7.00958, 37.20422]]], [[[-6.98211, 37.20384], [-6.982, 37.20353], [-6.98225, 37.20384], [-6.99248, 37.20443], [-6.99635, 37.20449], [-6.99791, 37.20473], [-6.99728, 37.2048], [-6.99622, 37.2045], [-6.99511, 37.20457], [-6.9899, 37.20503], [-6.98926, 37.20543], [-6.98843, 37.20509], [-6.98783, 37.2056], [-6.98721, 37.20514], [-6.98978, 37.2047], [-6.99229, 37.20464], [-6.99235, 37.20449], [-6.98058, 37.20388], [-6.98291, 37.20531], [-6.98206, 37.2054], [-6.98215, 37.20517], [-6.98187, 37.20489], [-6.98025, 37.20398], [-6.98081, 37.20379], [-6.98211, 37.20384]]], [[[-6.99844, 37.20462], [-6.99889, 37.20462], [-6.99822, 37.2047], [-6.99844, 37.20462]]], [[[-7.01201, 37.205], [-7.01189, 37.20493], [-7.01189, 37.20492], [-7.01204, 37.20496], [-7.01201, 37.205]]], [[[-6.9848, 37.20544], [-6.98572, 37.20537], [-6.98656, 37.20512], [-6.98684, 37.20513], [-6.98626, 37.20525], [-6.98561, 37.20583], [-6.98518, 37.20585], [-6.9852, 37.20566], [-6.98442, 37.20563], [-6.98394, 37.20537], [-6.98316, 37.20529], [-6.98361, 37.20497], [-6.98368, 37.20507], [-6.98457, 37.20483], [-6.98476, 37.20459], [-6.98539, 37.20457], [-6.98454, 37.20542], [-6.9848, 37.20544]], [[-6.9839, 37.20534], [-6.98441, 37.20538], [-6.98452, 37.20502], [-6.98433, 37.20501], [-6.9839, 37.20534]]], [[[-6.98134, 37.2056], [-6.98127, 37.20565], [-6.98079, 37.20609], [-6.9807, 37.20572], [-6.98145, 37.2054], [-6.98186, 37.20545], [-6.98134, 37.2056]]], [[[-7.00992, 37.23611], [-7.01128, 37.23595], [-7.01149, 37.23603], [-7.01149, 37.23618], [-7.011, 37.23609], [-7.01068, 37.23659], [-7.01034, 37.23629], [-7.0091, 37.23613], [-7.00992, 37.23611]]], [[[-7.00975, 37.238], [-7.00973, 37.23816], [-7.01018, 37.23825], [-7.01053, 37.23857], [-7.0106, 37.23913], [-7.01033, 37.23956], [-7.01065, 37.24036], [-7.01015, 37.24058], [-7.00835, 37.2402], [-7.0077, 37.23966], [-7.00742, 37.23977], [-7.00717, 37.23937], [-7.00662, 37.23909], [-7.00833, 37.23953], [-7.00882, 37.23952], [-7.00929, 37.23924], [-7.00938, 37.23865], [-7.00824, 37.23807], [-7.00817, 37.23677], [-7.00895, 37.23703], [-7.00973, 37.23693], [-7.01001, 37.23704], [-7.00975, 37.238]]], [[[-7.00563, 37.24002], [-7.00539, 37.23968], [-7.00544, 37.23907], [-7.00558, 37.23895], [-7.00653, 37.23908], [-7.00592, 37.23915], [-7.00562, 37.23941], [-7.00605, 37.24022], [-7.00573, 37.24102], [-7.00468, 37.24144], [-7.00459, 37.24198], [-7.00485, 37.24211], [-7.00369, 37.24225], [-7.0033, 37.24201], [-7.00321, 37.24137], [-7.00277, 37.24054], [-7.00293, 37.23996], [-7.00364, 37.24147], [-7.00393, 37.24161], [-7.00462, 37.24121], [-7.00563, 37.24002]]], [[[-7.00586, 37.24225], [-7.00584, 37.24225], [-7.0059, 37.24222], [-7.00586, 37.24225]]], [[[-7.00939, 37.24404], [-7.00741, 37.24351], [-7.00695, 37.24422], [-7.00706, 37.2457], [-7.00655, 37.24582], [-7.00542, 37.24388], [-7.00586, 37.24405], [-7.00682, 37.24393], [-7.00771, 37.24304], [-7.00777, 37.24238], [-7.00747, 37.24183], [-7.00665, 37.24174], [-7.00677, 37.24162], [-7.00737, 37.24162], [-7.00833, 37.24256], [-7.00873, 37.24323], [-7.00941, 37.24353], [-7.00962, 37.24383], [-7.00939, 37.24404]]], [[[-7.0004, 37.24445], [-7.00089, 37.24498], [-7.00044, 37.24532], [-7.00045, 37.2456], [-6.99993, 37.24424], [-7.00011, 37.24405], [-7.0004, 37.24445]]], [[[-7.00396, 37.24445], [-7.00387, 37.24453], [-7.00371, 37.24434], [-7.00383, 37.24442], [-7.00396, 37.24445]]], [[[-7.00267, 37.24427], [-7.00261, 37.24467], [-7.0021, 37.24453], [-7.00251, 37.24419], [-7.00267, 37.24427]]], [[[-7.001, 37.24432], [-7.00126, 37.24453], [-7.00152, 37.24463], [-7.00135, 37.24467], [-7.001, 37.24432]]], [[[-7.00088, 37.24623], [-7.00079, 37.24603], [-7.00066, 37.24587], [-7.00087, 37.24613], [-7.00088, 37.24623]]], [[[-6.9999, 37.24809], [-7.00017, 37.24824], [-7.00004, 37.24839], [-6.99942, 37.24828], [-6.9999, 37.24809]]], [[[-6.99864, 37.24881], [-6.99916, 37.24846], [-6.99874, 37.24907], [-6.99808, 37.24909], [-6.99731, 37.2499], [-6.99743, 37.24921], [-6.99864, 37.24881]]], [[[-6.99718, 37.25182], [-6.99668, 37.25196], [-6.99602, 37.25193], [-6.9964, 37.2512], [-6.997, 37.25119], [-6.99792, 37.25166], [-6.99718, 37.25182]]], [[[-6.98626, 37.25732], [-6.98673, 37.25762], [-6.98798, 37.25729], [-6.98815, 37.2576], [-6.99055, 37.25892], [-6.98834, 37.25888], [-6.9883, 37.26033], [-6.97186, 37.24803], [-6.97144, 37.24804], [-6.97022, 37.24907], [-6.97098, 37.24747], [-6.97214, 37.24674], [-6.9734, 37.24665], [-6.97372, 37.24692], [-6.97414, 37.24698], [-6.97478, 37.24659], [-6.97569, 37.24681], [-6.97832, 37.248], [-6.98195, 37.25011], [-6.98568, 37.25578], [-6.98626, 37.25732]], [[-6.97878, 37.25068], [-6.98059, 37.25203], [-6.98015, 37.25133], [-6.97804, 37.25011], [-6.97878, 37.25068]]], [[[-6.98143, 37.26753], [-6.98088, 37.2674], [-6.9805, 37.26662], [-6.97892, 37.26607], [-6.97674, 37.26413], [-6.97552, 37.26373], [-6.97516, 37.26295], [-6.97394, 37.26266], [-6.97361, 37.26191], [-6.97212, 37.26136], [-6.97203, 37.26086], [-6.97076, 37.26031], [-6.96971, 37.25899], [-6.96828, 37.25626], [-6.96722, 37.25476], [-6.96696, 37.254], [-6.96743, 37.25451], [-6.96812, 37.25452], [-6.96855, 37.25408], [-6.9684, 37.25359], [-6.96895, 37.25325], [-6.96917, 37.25381], [-6.96909, 37.25431], [-6.96948, 37.25463], [-6.9701, 37.25594], [-6.97095, 37.25691], [-6.98429, 37.26694], [-6.98523, 37.26784], [-6.98179, 37.26778], [-6.98143, 37.26753]]], [[[-6.98812, 37.26726], [-6.98755, 37.26788], [-6.98666, 37.26787], [-6.98814, 37.26659], [-6.98812, 37.26726]]], [[[-6.98603, 37.26786], [-6.98601, 37.26784], [-6.98604, 37.26786], [-6.98603, 37.26786]]], [[[-6.97707, 37.18159], [-6.97671, 37.18179], [-6.97148, 37.17928], [-6.96631, 37.1774], [-6.9661, 37.17681], [-6.96444, 37.17624], [-6.96405, 37.17582], [-6.96014, 37.17487], [-6.95968, 37.17451], [-6.95829, 37.17403], [-6.95768, 37.17307], [-6.95693, 37.17282], [-6.95645, 37.17288], [-6.95586, 37.17261], [-6.95509, 37.17283], [-6.9553, 37.17197], [-6.95491, 37.17152], [-6.95445, 37.17142], [-6.95401, 37.17156], [-6.95369, 37.17212], [-6.95305, 37.17247], [-6.95277, 37.17188], [-6.95318, 37.17118], [-6.95268, 37.17071], [-6.9521, 37.17071], [-6.95168, 37.17108], [-6.9516, 37.1715], [-6.95191, 37.17184], [-6.95163, 37.17205], [-6.95099, 37.17205], [-6.95046, 37.17248], [-6.94994, 37.17168], [-6.94901, 37.17171], [-6.94796, 37.16961], [-6.94764, 37.16806], [-6.94952, 37.16809], [-6.95127, 37.16914], [-6.9507, 37.16929], [-6.95042, 37.16977], [-6.95057, 37.17013], [-6.95115, 37.17051], [-6.95253, 37.17059], [-6.95308, 37.17019], [-6.95645, 37.17196], [-6.96144, 37.17411], [-6.96798, 37.17726], [-6.96798, 37.17742], [-6.96833, 37.17743], [-6.97707, 37.18159]]], [[[-6.98042, 37.18431], [-6.9804, 37.18433], [-6.9804, 37.18429], [-6.98043, 37.1843], [-6.98042, 37.18431]]], [[[-6.97633, 37.18436], [-6.97637, 37.18432], [-6.97642, 37.18436], [-6.97637, 37.1844], [-6.97633, 37.18436]]], [[[-6.98008, 37.18614], [-6.98015, 37.18612], [-6.98017, 37.18618], [-6.98011, 37.18619], [-6.98008, 37.18614]]], [[[-6.97863, 37.18783], [-6.97874, 37.18782], [-6.97876, 37.1879], [-6.97865, 37.18792], [-6.97863, 37.18783]]], [[[-6.97737, 37.18959], [-6.97782, 37.18855], [-6.97803, 37.1886], [-6.97767, 37.18985], [-6.97725, 37.18965], [-6.97737, 37.18959]]], [[[-6.98078, 37.19049], [-6.97969, 37.19071], [-6.97961, 37.19057], [-6.98086, 37.19032], [-6.98078, 37.19049]]], [[[-6.98007, 37.19141], [-6.97997, 37.19121], [-6.98067, 37.19107], [-6.98078, 37.19127], [-6.98007, 37.19141]]], [[[-6.9807, 37.19208], [-6.98046, 37.19216], [-6.98035, 37.19191], [-6.98105, 37.19177], [-6.98117, 37.19198], [-6.9807, 37.19208]]], [[[-6.97147, 37.19203], [-6.9713, 37.19193], [-6.97128, 37.19183], [-6.97151, 37.19195], [-6.97147, 37.19203]]], [[[-6.97801, 37.19328], [-6.97843, 37.19397], [-6.97815, 37.19412], [-6.97802, 37.1935], [-6.97801, 37.19328]]], [[[-6.97736, 37.19439], [-6.97693, 37.1943], [-6.97719, 37.19342], [-6.97719, 37.19361], [-6.97736, 37.19439]]], [[[-6.97518, 37.19425], [-6.97545, 37.19438], [-6.9753, 37.19436], [-6.97518, 37.19425]]], [[[-6.96784, 37.19482], [-6.96748, 37.19379], [-6.96725, 37.19236], [-6.96793, 37.19492], [-6.96784, 37.19482]]], [[[-6.97877, 37.1953], [-6.9789, 37.19583], [-6.97896, 37.19595], [-6.97862, 37.19543], [-6.97841, 37.1949], [-6.97882, 37.19491], [-6.97877, 37.1953]]], [[[-6.97566, 37.19517], [-6.97577, 37.19515], [-6.97588, 37.19516], [-6.97579, 37.19526], [-6.97566, 37.19517]]], [[[-6.9774, 37.19521], [-6.97757, 37.19499], [-6.97844, 37.19659], [-6.98022, 37.19831], [-6.98041, 37.19872], [-6.98221, 37.19922], [-6.98042, 37.19882], [-6.98112, 37.20065], [-6.98093, 37.20057], [-6.98025, 37.1988], [-6.97716, 37.19811], [-6.97687, 37.19946], [-6.97672, 37.19946], [-6.97705, 37.19789], [-6.97667, 37.19717], [-6.97688, 37.19684], [-6.97669, 37.19646], [-6.97727, 37.19644], [-6.97768, 37.19607], [-6.97774, 37.19556], [-6.9774, 37.19521]], [[-6.98021, 37.19868], [-6.98003, 37.19825], [-6.97925, 37.1975], [-6.97886, 37.19819], [-6.97706, 37.19752], [-6.97699, 37.19763], [-6.97732, 37.19801], [-6.97815, 37.1983], [-6.98021, 37.19868]], [[-6.97759, 37.19708], [-6.97708, 37.19687], [-6.97682, 37.19728], [-6.97757, 37.19759], [-6.97772, 37.19735], [-6.97748, 37.19726], [-6.97759, 37.19708]]], [[[-6.96834, 37.19622], [-6.9683, 37.19612], [-6.96837, 37.19626], [-6.96834, 37.19622]]], [[[-6.96952, 37.19732], [-6.96932, 37.1974], [-6.9692, 37.19734], [-6.96946, 37.19724], [-6.96952, 37.19732]]], [[[-6.97104, 37.19825], [-6.97107, 37.19834], [-6.97109, 37.19837], [-6.97093, 37.1983], [-6.97104, 37.19825]]], [[[-6.97207, 37.19911], [-6.97253, 37.19921], [-6.97264, 37.19964], [-6.97172, 37.19886], [-6.97207, 37.19911]]], [[[-6.97303, 37.1997], [-6.97332, 37.19977], [-6.9737, 37.1996], [-6.97402, 37.19999], [-6.97462, 37.20021], [-6.97443, 37.20073], [-6.97378, 37.20111], [-6.97403, 37.20151], [-6.97436, 37.20153], [-6.97421, 37.20202], [-6.9749, 37.20294], [-6.9751, 37.20358], [-6.97586, 37.20354], [-6.97625, 37.2017], [-6.97605, 37.20356], [-6.97846, 37.2038], [-6.97678, 37.2038], [-6.97643, 37.20417], [-6.97747, 37.20486], [-6.97884, 37.20455], [-6.97921, 37.20466], [-6.97923, 37.20518], [-6.97877, 37.20478], [-6.9784, 37.20498], [-6.97849, 37.20565], [-6.97985, 37.20587], [-6.98066, 37.20627], [-6.98067, 37.20649], [-6.97933, 37.20628], [-6.97679, 37.20517], [-6.97519, 37.20391], [-6.97414, 37.20245], [-6.97281, 37.1999], [-6.97303, 37.1997]], [[-6.97596, 37.20426], [-6.97645, 37.20372], [-6.9751, 37.20371], [-6.97545, 37.20411], [-6.97596, 37.20426]]], [[[-6.9687, 37.20365], [-6.96914, 37.20392], [-6.96942, 37.2044], [-6.96979, 37.20452], [-6.97067, 37.20507], [-6.97082, 37.20522], [-6.96969, 37.20458], [-6.96882, 37.2055], [-6.96883, 37.20444], [-6.96843, 37.20418], [-6.96785, 37.20423], [-6.96722, 37.20522], [-6.9676, 37.20583], [-6.96813, 37.20598], [-6.96654, 37.20693], [-6.96965, 37.20872], [-6.96808, 37.20895], [-6.96681, 37.2088], [-6.96498, 37.20793], [-6.96421, 37.2071], [-6.9637, 37.20619], [-6.96362, 37.20596], [-6.96482, 37.20607], [-6.96514, 37.20596], [-6.96522, 37.20562], [-6.96469, 37.20536], [-6.96352, 37.20536], [-6.96384, 37.20382], [-6.96486, 37.20242], [-6.9637, 37.20064], [-6.96286, 37.19992], [-6.96182, 37.19753], [-6.96114, 37.1967], [-6.961, 37.1961], [-6.96102, 37.19569], [-6.96201, 37.196], [-6.96275, 37.19558], [-6.96279, 37.19527], [-6.9618, 37.19493], [-6.96172, 37.19469], [-6.96124, 37.19466], [-6.96055, 37.19401], [-6.95938, 37.19383], [-6.95918, 37.19308], [-6.95974, 37.19318], [-6.95901, 37.19243], [-6.95884, 37.19059], [-6.95792, 37.19066], [-6.95653, 37.19031], [-6.95509, 37.19031], [-6.95477, 37.18955], [-6.95341, 37.18912], [-6.9532, 37.18839], [-6.95327, 37.18777], [-6.95405, 37.18661], [-6.95299, 37.18601], [-6.95247, 37.18523], [-6.95211, 37.18517], [-6.95202, 37.18483], [-6.95024, 37.18468], [-6.94758, 37.18474], [-6.94912, 37.185], [-6.94999, 37.18555], [-6.94883, 37.186], [-6.94779, 37.18601], [-6.94723, 37.18587], [-6.94613, 37.18519], [-6.9455, 37.18415], [-6.94496, 37.18391], [-6.94403, 37.18412], [-6.94113, 37.18345], [-6.93936, 37.18153], [-6.93274, 37.17609], [-6.93292, 37.17576], [-6.93208, 37.17449], [-6.93194, 37.17388], [-6.93044, 37.17316], [-6.92955, 37.17227], [-6.92841, 37.17163], [-6.92667, 37.16996], [-6.92476, 37.16921], [-6.92342, 37.16821], [-6.92319, 37.16763], [-6.92916, 37.16774], [-6.92949, 37.16934], [-6.93111, 37.17109], [-6.93233, 37.1736], [-6.93428, 37.17522], [-6.93463, 37.1752], [-6.93498, 37.17484], [-6.93427, 37.1732], [-6.93508, 37.17387], [-6.93702, 37.17469], [-6.93761, 37.17476], [-6.93792, 37.17447], [-6.93752, 37.17322], [-6.94057, 37.17434], [-6.94429, 37.1761], [-6.94441, 37.17639], [-6.94392, 37.17698], [-6.94409, 37.17727], [-6.94561, 37.17714], [-6.94617, 37.17884], [-6.94612, 37.17944], [-6.94564, 37.18037], [-6.94482, 37.18063], [-6.94275, 37.18071], [-6.94223, 37.1809], [-6.94188, 37.18072], [-6.94067, 37.18068], [-6.94033, 37.18096], [-6.94049, 37.18125], [-6.94146, 37.18133], [-6.94153, 37.18164], [-6.94204, 37.18191], [-6.94308, 37.18137], [-6.94398, 37.18133], [-6.94344, 37.18198], [-6.94379, 37.18229], [-6.94489, 37.18142], [-6.94592, 37.18116], [-6.94619, 37.18231], [-6.94669, 37.18242], [-6.94695, 37.18188], [-6.94667, 37.18074], [-6.94723, 37.17935], [-6.94713, 37.17749], [-6.94724, 37.1772], [-6.94753, 37.17711], [-6.94875, 37.17747], [-6.95487, 37.18215], [-6.95396, 37.18281], [-6.953, 37.18282], [-6.9497, 37.182], [-6.94888, 37.18248], [-6.94854, 37.18292], [-6.94781, 37.18315], [-6.94767, 37.18352], [-6.94807, 37.18415], [-6.94852, 37.18413], [-6.94846, 37.18356], [-6.94932, 37.18329], [-6.9496, 37.18283], [-6.94984, 37.18263], [-6.94963, 37.18293], [-6.94976, 37.18327], [-6.95036, 37.18356], [-6.95066, 37.18346], [-6.95082, 37.18307], [-6.9528, 37.18341], [-6.95421, 37.18346], [-6.95476, 37.18331], [-6.95517, 37.18288], [-6.95584, 37.18284], [-6.95668, 37.18336], [-6.95693, 37.18361], [-6.95662, 37.18397], [-6.95484, 37.18441], [-6.95469, 37.18475], [-6.95494, 37.18491], [-6.9558, 37.1849], [-6.95712, 37.18459], [-6.95753, 37.18408], [-6.95908, 37.18561], [-6.95893, 37.18712], [-6.9587, 37.18755], [-6.95804, 37.18795], [-6.95748, 37.1878], [-6.95689, 37.18737], [-6.95626, 37.18742], [-6.95554, 37.18815], [-6.95552, 37.1884], [-6.95597, 37.18853], [-6.95639, 37.18836], [-6.95668, 37.18798], [-6.95741, 37.18861], [-6.95818, 37.18883], [-6.95952, 37.18774], [-6.95975, 37.18812], [-6.96015, 37.18814], [-6.96031, 37.18789], [-6.95999, 37.18614], [-6.96064, 37.1869], [-6.96111, 37.18826], [-6.96114, 37.19163], [-6.96155, 37.19323], [-6.96227, 37.19412], [-6.96319, 37.19463], [-6.96331, 37.19609], [-6.96383, 37.19642], [-6.96487, 37.19903], [-6.96542, 37.19929], [-6.96653, 37.20115], [-6.96712, 37.20163], [-6.9687, 37.20365]], [[-6.93982, 37.17615], [-6.93947, 37.17597], [-6.93874, 37.17639], [-6.93799, 37.17658], [-6.9362, 37.17656], [-6.93937, 37.17915], [-6.94038, 37.17886], [-6.94294, 37.17886], [-6.94193, 37.17802], [-6.94162, 37.17695], [-6.93982, 37.17615]], [[-6.92688, 37.16795], [-6.92687, 37.16786], [-6.92671, 37.16774], [-6.92663, 37.16784], [-6.92688, 37.16795]]], [[[-6.97172, 37.20603], [-6.97217, 37.20653], [-6.97254, 37.20711], [-6.97228, 37.20671], [-6.97159, 37.20628], [-6.97143, 37.20591], [-6.97172, 37.20603]]], [[[-6.9716, 37.21088], [-6.97175, 37.21072], [-6.9724, 37.21074], [-6.9734, 37.21022], [-6.97271, 37.20996], [-6.97307, 37.20933], [-6.97353, 37.20914], [-6.97318, 37.20836], [-6.97401, 37.20915], [-6.97441, 37.20997], [-6.97422, 37.21082], [-6.97186, 37.21419], [-6.97048, 37.21685], [-6.96985, 37.21719], [-6.96777, 37.21612], [-6.96727, 37.21566], [-6.96711, 37.21433], [-6.96665, 37.21405], [-6.96667, 37.21302], [-6.96638, 37.21202], [-6.96588, 37.21117], [-6.96507, 37.21035], [-6.96299, 37.20907], [-6.95839, 37.2075], [-6.95894, 37.20705], [-6.95893, 37.20678], [-6.96033, 37.20634], [-6.96344, 37.20739], [-6.96525, 37.20827], [-6.96661, 37.20923], [-6.96772, 37.2104], [-6.9694, 37.21412], [-6.9716, 37.21088]]], [[[-6.97023, 37.24956], [-6.9733, 37.25184], [-6.97073, 37.25407], [-6.97083, 37.25431], [-6.97315, 37.25605], [-6.97202, 37.25701], [-6.97104, 37.25613], [-6.97052, 37.25537], [-6.96896, 37.25141], [-6.96966, 37.25058], [-6.97008, 37.2494], [-6.97023, 37.24956]]], [[[-6.96733, 37.25276], [-6.96729, 37.25275], [-6.96737, 37.2527], [-6.96735, 37.25277], [-6.96733, 37.25276]]], [[[-6.97588, 37.26609], [-6.97511, 37.26578], [-6.97432, 37.26522], [-6.97462, 37.26508], [-6.97714, 37.26666], [-6.97627, 37.26654], [-6.97588, 37.26609]]], [[[-6.97812, 37.26772], [-6.97772, 37.26743], [-6.97757, 37.26734], [-6.97841, 37.26773], [-6.97812, 37.26772]]], [[[-6.97517, 37.26854], [-6.97373, 37.26823], [-6.97236, 37.26798], [-6.97432, 37.26801], [-6.97517, 37.26854]]], [[[-6.97194, 37.27575], [-6.97128, 37.27557], [-6.97059, 37.27476], [-6.96854, 37.27164], [-6.96762, 37.26924], [-6.96754, 37.26816], [-6.96814, 37.26807], [-6.97133, 37.26844], [-6.97678, 37.26961], [-6.97673, 37.27136], [-6.97362, 37.27057], [-6.97031, 37.26999], [-6.97066, 37.2709], [-6.97259, 37.27384], [-6.97385, 37.27471], [-6.97434, 37.27575], [-6.97538, 37.27669], [-6.97222, 37.27663], [-6.97194, 37.27575]]], [[[-6.96764, 37.27655], [-6.96532, 37.27651], [-6.96468, 37.2765], [-6.96488, 37.2761], [-6.96658, 37.27602], [-6.96764, 37.27655]]], [[[-6.95047, 37.17287], [-6.95047, 37.17283], [-6.95049, 37.17286], [-6.95047, 37.17287]]], [[[-6.94599, 37.17385], [-6.94393, 37.17318], [-6.94099, 37.17182], [-6.9384, 37.17093], [-6.93787, 37.16997], [-6.93718, 37.16934], [-6.93637, 37.16786], [-6.93968, 37.16792], [-6.94332, 37.17003], [-6.94472, 37.1711], [-6.94523, 37.17172], [-6.94619, 37.17334], [-6.94627, 37.17372], [-6.94599, 37.17385]]], [[[-6.95147, 37.17439], [-6.95127, 37.17424], [-6.95084, 37.17406], [-6.95114, 37.17403], [-6.95176, 37.17462], [-6.95147, 37.17439]]], [[[-6.95581, 37.17872], [-6.95579, 37.1787], [-6.95582, 37.17872], [-6.95581, 37.17872]]], [[[-6.96621, 37.18838], [-6.96616, 37.18831], [-6.96629, 37.1886], [-6.96625, 37.18845], [-6.96621, 37.18838]]], [[[-6.96641, 37.189], [-6.96629, 37.18886], [-6.96629, 37.18886], [-6.96643, 37.18897], [-6.96645, 37.18905], [-6.96641, 37.189]]], [[[-6.94345, 37.18813], [-6.9429, 37.18686], [-6.94417, 37.1864], [-6.94488, 37.18635], [-6.94719, 37.19158], [-6.9449, 37.19139], [-6.94345, 37.18813]]], [[[-6.9668, 37.18999], [-6.96671, 37.18978], [-6.96669, 37.18972], [-6.96684, 37.19004], [-6.9668, 37.18999]]], [[[-6.94764, 37.19325], [-6.94782, 37.19377], [-6.948, 37.19375], [-6.94786, 37.1932], [-6.94718, 37.1923], [-6.94736, 37.1922], [-6.94747, 37.19222], [-6.951, 37.20017], [-6.95197, 37.20164], [-6.95316, 37.20289], [-6.95201, 37.20386], [-6.95184, 37.2042], [-6.95023, 37.20254], [-6.94909, 37.20082], [-6.9452, 37.19206], [-6.94657, 37.1921], [-6.94696, 37.19277], [-6.94764, 37.19325]]], [[[-6.94869, 37.20143], [-6.94966, 37.20284], [-6.95103, 37.20429], [-6.95268, 37.20559], [-6.95455, 37.20666], [-6.9533, 37.20812], [-6.95304, 37.20895], [-6.9537, 37.20898], [-6.95529, 37.20854], [-6.95666, 37.20752], [-6.96218, 37.20935], [-6.96393, 37.21025], [-6.96509, 37.2112], [-6.96585, 37.21249], [-6.966, 37.21385], [-6.9652, 37.21371], [-6.96474, 37.21403], [-6.96411, 37.21411], [-6.96156, 37.21319], [-6.96302, 37.21198], [-6.96278, 37.21148], [-6.962, 37.21159], [-6.96052, 37.2123], [-6.95931, 37.21197], [-6.95656, 37.21051], [-6.95193, 37.20888], [-6.95132, 37.2084], [-6.95118, 37.20783], [-6.95062, 37.20777], [-6.94764, 37.20568], [-6.94603, 37.20356], [-6.94512, 37.20279], [-6.94507, 37.20244], [-6.94404, 37.20111], [-6.94385, 37.20025], [-6.94404, 37.19915], [-6.94356, 37.1988], [-6.94274, 37.19573], [-6.94232, 37.19507], [-6.94343, 37.19495], [-6.94388, 37.19458], [-6.94389, 37.19408], [-6.94363, 37.19377], [-6.94302, 37.1936], [-6.94197, 37.19386], [-6.94196, 37.19278], [-6.94156, 37.19156], [-6.93959, 37.18854], [-6.93886, 37.18684], [-6.93849, 37.18645], [-6.93806, 37.18451], [-6.93651, 37.18297], [-6.93648, 37.18268], [-6.93543, 37.18152], [-6.9338, 37.18024], [-6.93336, 37.1795], [-6.93262, 37.17922], [-6.93095, 37.17752], [-6.93056, 37.17693], [-6.93102, 37.17636], [-6.93083, 37.17599], [-6.92998, 37.17583], [-6.92977, 37.17642], [-6.92685, 37.17374], [-6.92423, 37.17222], [-6.92309, 37.17132], [-6.92312, 37.1702], [-6.92421, 37.16987], [-6.93887, 37.1819], [-6.94042, 37.18355], [-6.94115, 37.18464], [-6.94229, 37.1871], [-6.94148, 37.18729], [-6.9413, 37.18763], [-6.94117, 37.18858], [-6.94143, 37.18896], [-6.94121, 37.18921], [-6.94178, 37.18961], [-6.9422, 37.18923], [-6.94231, 37.1885], [-6.94266, 37.1883], [-6.94187, 37.18785], [-6.94243, 37.18742], [-6.94869, 37.20143]]], [[[-6.95446, 37.2039], [-6.95663, 37.20508], [-6.95904, 37.20592], [-6.95731, 37.20661], [-6.9572, 37.20688], [-6.95659, 37.20691], [-6.95564, 37.20654], [-6.95264, 37.20484], [-6.95295, 37.20435], [-6.95239, 37.20457], [-6.95245, 37.20413], [-6.95348, 37.20342], [-6.95369, 37.20364], [-6.95338, 37.20402], [-6.95413, 37.20367], [-6.95446, 37.2039]]], [[[-6.94726, 37.21658], [-6.94746, 37.21713], [-6.94771, 37.21776], [-6.94704, 37.21672], [-6.94726, 37.21658]]], [[[-6.94823, 37.21845], [-6.94823, 37.21856], [-6.948, 37.2182], [-6.94823, 37.21845]]], [[[-6.953, 37.23042], [-6.95294, 37.23011], [-6.95302, 37.2301], [-6.95306, 37.2307], [-6.953, 37.23042]]], [[[-6.95481, 37.23997], [-6.95489, 37.24042], [-6.95484, 37.24043], [-6.95472, 37.23977], [-6.95481, 37.23997]]], [[[-6.9442, 37.24071], [-6.94417, 37.24305], [-6.94373, 37.24454], [-6.94235, 37.24671], [-6.9404, 37.24844], [-6.94349, 37.2374], [-6.9442, 37.24071]]], [[[-6.9454, 37.24322], [-6.94501, 37.24323], [-6.9451, 37.24195], [-6.94535, 37.24314], [-6.94559, 37.24329], [-6.9454, 37.24322]]], [[[-6.95458, 37.24427], [-6.94994, 37.24484], [-6.94634, 37.24574], [-6.94598, 37.24558], [-6.94565, 37.24409], [-6.94585, 37.24382], [-6.95438, 37.24222], [-6.95442, 37.24249], [-6.95378, 37.24262], [-6.95351, 37.2431], [-6.95379, 37.24372], [-6.95462, 37.24381], [-6.95458, 37.24427]]], [[[-6.95471, 37.24521], [-6.95381, 37.24519], [-6.95269, 37.2456], [-6.95244, 37.24611], [-6.95264, 37.24692], [-6.95298, 37.2476], [-6.95355, 37.24794], [-6.95505, 37.24771], [-6.95556, 37.24735], [-6.95568, 37.24767], [-6.95268, 37.24831], [-6.95224, 37.2478], [-6.95133, 37.24522], [-6.95462, 37.24483], [-6.95489, 37.24531], [-6.95471, 37.24521]]], [[[-6.94462, 37.24455], [-6.9448, 37.24399], [-6.94529, 37.24559], [-6.94496, 37.24623], [-6.9427, 37.24748], [-6.94394, 37.2459], [-6.94462, 37.24455]]], [[[-6.94575, 37.24629], [-6.94565, 37.24621], [-6.94577, 37.24613], [-6.94587, 37.24621], [-6.94575, 37.24629]]], [[[-6.94543, 37.24678], [-6.94562, 37.2473], [-6.94551, 37.24817], [-6.94426, 37.25036], [-6.94401, 37.25162], [-6.9384, 37.25127], [-6.94055, 37.24971], [-6.94232, 37.25042], [-6.94265, 37.25086], [-6.94302, 37.25082], [-6.94306, 37.25033], [-6.94276, 37.25], [-6.94109, 37.24933], [-6.94319, 37.24786], [-6.94543, 37.24678]]], [[[-6.94505, 37.25019], [-6.94562, 37.24936], [-6.94567, 37.25187], [-6.94468, 37.25168], [-6.94505, 37.25019]]], [[[-6.96241, 37.26146], [-6.96246, 37.26186], [-6.96232, 37.26149], [-6.96241, 37.26146]]], [[[-6.96244, 37.26226], [-6.96251, 37.26224], [-6.96252, 37.26231], [-6.96249, 37.26229], [-6.96244, 37.26226]]], [[[-6.96164, 37.26283], [-6.96171, 37.26306], [-6.96161, 37.26338], [-6.96128, 37.26284], [-6.96164, 37.26283]]], [[[-6.96256, 37.26293], [-6.9626, 37.2629], [-6.96294, 37.26559], [-6.96207, 37.26416], [-6.96256, 37.26293]]], [[[-6.94182, 37.19421], [-6.94183, 37.1942], [-6.94183, 37.19427], [-6.94179, 37.19423], [-6.94182, 37.19421]]], [[[-6.92925, 37.19871], [-6.92933, 37.19873], [-6.92939, 37.19882], [-6.92925, 37.19871]]], [[[-6.92974, 37.19907], [-6.93108, 37.19876], [-6.93263, 37.20147], [-6.92962, 37.19902], [-6.92974, 37.19907]]], [[[-6.92958, 37.20118], [-6.9264, 37.19961], [-6.92634, 37.19919], [-6.92581, 37.19931], [-6.9246, 37.19885], [-6.92507, 37.19753], [-6.92687, 37.19804], [-6.93163, 37.20204], [-6.93487, 37.20362], [-6.93606, 37.20477], [-6.93574, 37.20489], [-6.9357, 37.20523], [-6.93428, 37.20527], [-6.93285, 37.20468], [-6.93139, 37.2027], [-6.92958, 37.20118]]], [[[-6.93663, 37.20132], [-6.93693, 37.20172], [-6.93694, 37.20186], [-6.93672, 37.20148], [-6.93663, 37.20132]]], [[[-6.93351, 37.20188], [-6.93332, 37.20182], [-6.93341, 37.20171], [-6.93351, 37.20188]]], [[[-6.93726, 37.20399], [-6.93726, 37.20398], [-6.93726, 37.20398], [-6.93728, 37.20399], [-6.93726, 37.20399]]], [[[-6.93696, 37.2042], [-6.93694, 37.20421], [-6.93694, 37.2042], [-6.93696, 37.2042]]], [[[-6.92965, 37.21025], [-6.92919, 37.20969], [-6.92791, 37.20561], [-6.92391, 37.20127], [-6.92386, 37.20085], [-6.92423, 37.19987], [-6.92527, 37.20054], [-6.92548, 37.20111], [-6.92699, 37.20212], [-6.92723, 37.2027], [-6.92809, 37.2029], [-6.92847, 37.20267], [-6.9317, 37.20575], [-6.93278, 37.20638], [-6.93312, 37.20687], [-6.93376, 37.2073], [-6.93382, 37.20762], [-6.92991, 37.21025], [-6.92965, 37.21025]]], [[[-6.94024, 37.21229], [-6.94251, 37.21251], [-6.94302, 37.21291], [-6.94289, 37.21361], [-6.94195, 37.21341], [-6.94097, 37.21346], [-6.94079, 37.21303], [-6.94035, 37.21281], [-6.93967, 37.2129], [-6.93899, 37.21324], [-6.93892, 37.21298], [-6.94024, 37.21229]]], [[[-6.9394, 37.2144], [-6.9395, 37.21441], [-6.93956, 37.21441], [-6.9394, 37.21447], [-6.9394, 37.2144]]], [[[-6.93639, 37.21722], [-6.93728, 37.21592], [-6.93789, 37.21456], [-6.93827, 37.21423], [-6.94283, 37.23563], [-6.94271, 37.23768], [-6.94057, 37.24534], [-6.93979, 37.2476], [-6.93914, 37.24855], [-6.93528, 37.24701], [-6.93404, 37.24602], [-6.93621, 37.2456], [-6.93655, 37.24569], [-6.9391, 37.24513], [-6.93933, 37.24493], [-6.93922, 37.24467], [-6.93336, 37.24555], [-6.93303, 37.24552], [-6.93283, 37.24513], [-6.93221, 37.24471], [-6.93037, 37.24467], [-6.93003, 37.24438], [-6.92977, 37.2421], [-6.92912, 37.24138], [-6.92862, 37.24139], [-6.92827, 37.24181], [-6.92738, 37.24196], [-6.92703, 37.24228], [-6.92713, 37.24288], [-6.92806, 37.24351], [-6.92773, 37.24375], [-6.92784, 37.24429], [-6.9281, 37.24446], [-6.92784, 37.24469], [-6.92784, 37.24499], [-6.92835, 37.24525], [-6.92872, 37.24572], [-6.92772, 37.24601], [-6.92748, 37.24586], [-6.92698, 37.24475], [-6.92681, 37.2426], [-6.92598, 37.24115], [-6.92217, 37.23743], [-6.9213, 37.23604], [-6.92123, 37.23516], [-6.92154, 37.23322], [-6.92227, 37.23207], [-6.92511, 37.22934], [-6.92575, 37.22915], [-6.93235, 37.2209], [-6.93444, 37.21933], [-6.93639, 37.21722]], [[-6.93248, 37.24002], [-6.93327, 37.24113], [-6.9336, 37.24321], [-6.93392, 37.24362], [-6.93916, 37.24277], [-6.94065, 37.23742], [-6.94076, 37.23576], [-6.93726, 37.21941], [-6.93615, 37.22056], [-6.93412, 37.2221], [-6.92763, 37.2302], [-6.92649, 37.23094], [-6.92484, 37.23237], [-6.92376, 37.23373], [-6.92363, 37.23584], [-6.92687, 37.23899], [-6.92876, 37.23872], [-6.93009, 37.23882], [-6.93133, 37.23922], [-6.93248, 37.24002]]], [[[-6.92988, 37.24512], [-6.93194, 37.24521], [-6.93233, 37.24552], [-6.92983, 37.24544], [-6.92988, 37.24512]]], [[[-6.93376, 37.24657], [-6.93413, 37.24681], [-6.93411, 37.24699], [-6.93331, 37.24661], [-6.93313, 37.24607], [-6.93376, 37.24657]]], [[[-6.92749, 37.24662], [-6.92969, 37.24597], [-6.93244, 37.24605], [-6.93277, 37.24693], [-6.93372, 37.24744], [-6.9316, 37.25042], [-6.93189, 37.25058], [-6.93218, 37.25048], [-6.93419, 37.24787], [-6.93463, 37.25061], [-6.93485, 37.25101], [-6.92962, 37.25237], [-6.92822, 37.25291], [-6.92127, 37.25792], [-6.91783, 37.25974], [-6.91678, 37.2605], [-6.91688, 37.25988], [-6.91733, 37.25936], [-6.91936, 37.25755], [-6.92013, 37.2571], [-6.92016, 37.25659], [-6.92136, 37.25526], [-6.92298, 37.25286], [-6.92493, 37.25144], [-6.92589, 37.25041], [-6.92734, 37.24816], [-6.92749, 37.24662]], [[-6.92952, 37.24872], [-6.92905, 37.24968], [-6.92806, 37.25109], [-6.92932, 37.25069], [-6.92938, 37.24974], [-6.93012, 37.24864], [-6.92952, 37.24872]]], [[[-6.93472, 37.24736], [-6.93495, 37.24748], [-6.93867, 37.24897], [-6.93543, 37.25073], [-6.93472, 37.24736]]], [[[-6.93583, 37.25232], [-6.93522, 37.2522], [-6.93464, 37.25208], [-6.93522, 37.25192], [-6.93637, 37.252], [-6.93583, 37.25232]]], [[[-6.92699, 37.25522], [-6.92821, 37.25433], [-6.92944, 37.25363], [-6.92703, 37.25524], [-6.92699, 37.25522]]], [[[-6.92651, 37.25558], [-6.92652, 37.25558], [-6.92632, 37.25571], [-6.92651, 37.25558]]], [[[-6.9237, 37.16945], [-6.92314, 37.16962], [-6.92316, 37.16901], [-6.9237, 37.16945]]], [[[-6.92788, 37.17198], [-6.92908, 37.17267], [-6.93002, 37.17359], [-6.93138, 37.17419], [-6.9314, 37.17459], [-6.93204, 37.17552], [-6.92525, 37.16995], [-6.92626, 37.17039], [-6.92788, 37.17198]]], [[[-6.91665, 37.17666], [-6.91665, 37.17666], [-6.91664, 37.17665], [-6.91665, 37.17666], [-6.91665, 37.17666]]], [[[-6.91842, 37.17804], [-6.91877, 37.1781], [-6.91903, 37.17853], [-6.91877, 37.17832], [-6.91842, 37.17804]]], [[[-6.91933, 37.19536], [-6.91906, 37.19482], [-6.91805, 37.19404], [-6.91613, 37.19316], [-6.91468, 37.19212], [-6.91335, 37.19152], [-6.91266, 37.19143], [-6.91128, 37.19156], [-6.90912, 37.192], [-6.90802, 37.19243], [-6.90706, 37.19307], [-6.9064, 37.19394], [-6.90624, 37.19488], [-6.90706, 37.19611], [-6.90853, 37.19697], [-6.90997, 37.19814], [-6.91026, 37.19948], [-6.90985, 37.20032], [-6.90872, 37.20075], [-6.90716, 37.20044], [-6.90427, 37.20026], [-6.90421, 37.19826], [-6.90369, 37.1975], [-6.9027, 37.19706], [-6.90139, 37.1968], [-6.898, 37.19663], [-6.89746, 37.19685], [-6.89604, 37.19813], [-6.89518, 37.19856], [-6.89411, 37.19871], [-6.89308, 37.19928], [-6.89277, 37.19982], [-6.89282, 37.20018], [-6.89238, 37.20045], [-6.89173, 37.2016], [-6.89175, 37.20256], [-6.89201, 37.20292], [-6.89263, 37.2032], [-6.89322, 37.20439], [-6.89274, 37.20496], [-6.89253, 37.20498], [-6.89215, 37.20457], [-6.89165, 37.20447], [-6.89136, 37.20458], [-6.89116, 37.20502], [-6.89087, 37.20485], [-6.89012, 37.20484], [-6.88983, 37.20441], [-6.88934, 37.2042], [-6.88879, 37.2044], [-6.88876, 37.20512], [-6.88794, 37.20489], [-6.88675, 37.20519], [-6.88611, 37.20495], [-6.88541, 37.20511], [-6.88231, 37.20116], [-6.87928, 37.19951], [-6.8773, 37.19785], [-6.87742, 37.19386], [-6.88241, 37.19743], [-6.88283, 37.19757], [-6.88346, 37.19739], [-6.88725, 37.19403], [-6.88867, 37.19406], [-6.88871, 37.19286], [-6.89101, 37.19452], [-6.89149, 37.19461], [-6.89212, 37.19443], [-6.89599, 37.19101], [-6.89606, 37.19074], [-6.89559, 37.19059], [-6.89491, 37.19116], [-6.89372, 37.19029], [-6.8919, 37.19185], [-6.89068, 37.19098], [-6.89639, 37.18595], [-6.89737, 37.18667], [-6.89815, 37.18599], [-6.90436, 37.19047], [-6.90487, 37.19042], [-6.90586, 37.19109], [-6.90818, 37.18901], [-6.91116, 37.19127], [-6.91364, 37.1912], [-6.91832, 37.1938], [-6.92042, 37.19623], [-6.92443, 37.19735], [-6.92395, 37.19869], [-6.92149, 37.19819], [-6.9207, 37.1978], [-6.9196, 37.19636], [-6.91933, 37.19536]], [[-6.90176, 37.19498], [-6.90408, 37.19553], [-6.90397, 37.19413], [-6.90475, 37.19252], [-6.90318, 37.1919], [-6.90099, 37.19027], [-6.89921, 37.18981], [-6.89792, 37.18892], [-6.89726, 37.18933], [-6.89808, 37.19036], [-6.89815, 37.19092], [-6.89792, 37.19165], [-6.89348, 37.19569], [-6.89245, 37.19616], [-6.89107, 37.19625], [-6.88994, 37.19594], [-6.88878, 37.19516], [-6.88472, 37.19872], [-6.88378, 37.19912], [-6.88266, 37.19922], [-6.88419, 37.20037], [-6.88638, 37.20313], [-6.88707, 37.20315], [-6.88814, 37.20254], [-6.88941, 37.20236], [-6.88972, 37.20049], [-6.89116, 37.19826], [-6.89193, 37.19764], [-6.89317, 37.19703], [-6.89434, 37.19683], [-6.89598, 37.19544], [-6.89723, 37.1949], [-6.89863, 37.19475], [-6.90176, 37.19498]], [[-6.90658, 37.19855], [-6.90658, 37.19857], [-6.90737, 37.19861], [-6.90651, 37.19808], [-6.90658, 37.19855]]], [[[-6.91769, 37.19534], [-6.91792, 37.19593], [-6.91784, 37.1974], [-6.91829, 37.1981], [-6.92103, 37.19931], [-6.92358, 37.19973], [-6.92329, 37.20051], [-6.92239, 37.19998], [-6.92164, 37.20015], [-6.92124, 37.19943], [-6.92005, 37.19917], [-6.91948, 37.19942], [-6.91933, 37.19998], [-6.91875, 37.19998], [-6.91831, 37.20033], [-6.91813, 37.20039], [-6.91773, 37.20037], [-6.91704, 37.19969], [-6.91654, 37.19967], [-6.9159, 37.19916], [-6.91516, 37.20002], [-6.91635, 37.20036], [-6.91506, 37.20078], [-6.91482, 37.20136], [-6.91524, 37.20181], [-6.91609, 37.20181], [-6.91721, 37.20252], [-6.91749, 37.20219], [-6.91723, 37.20145], [-6.9181, 37.20143], [-6.91826, 37.20215], [-6.91866, 37.20234], [-6.91957, 37.2024], [-6.91967, 37.20319], [-6.92041, 37.20375], [-6.92165, 37.20376], [-6.92222, 37.2034], [-6.92108, 37.20653], [-6.9193, 37.20543], [-6.91901, 37.20553], [-6.91895, 37.20578], [-6.91961, 37.20627], [-6.91899, 37.20707], [-6.91761, 37.20585], [-6.91659, 37.20583], [-6.9159, 37.20611], [-6.91313, 37.20989], [-6.91104, 37.21227], [-6.90773, 37.2144], [-6.90574, 37.21365], [-6.90754, 37.21322], [-6.90714, 37.21255], [-6.90623, 37.21228], [-6.90582, 37.21319], [-6.90477, 37.21279], [-6.90472, 37.21302], [-6.90442, 37.21201], [-6.90481, 37.21096], [-6.90483, 37.20999], [-6.90394, 37.20835], [-6.90379, 37.20721], [-6.90309, 37.20662], [-6.90187, 37.20385], [-6.90065, 37.20351], [-6.89947, 37.2036], [-6.89929, 37.20384], [-6.8995, 37.20408], [-6.9013, 37.20417], [-6.90248, 37.20686], [-6.90315, 37.20739], [-6.90328, 37.20849], [-6.90417, 37.21009], [-6.90414, 37.21088], [-6.90374, 37.212], [-6.90419, 37.21344], [-6.90386, 37.21412], [-6.90243, 37.2156], [-6.90181, 37.21372], [-6.9012, 37.21294], [-6.90063, 37.21166], [-6.89988, 37.21105], [-6.89952, 37.21024], [-6.89861, 37.20946], [-6.89824, 37.20876], [-6.89783, 37.20867], [-6.89763, 37.20894], [-6.89801, 37.20971], [-6.89895, 37.21054], [-6.89936, 37.2114], [-6.90003, 37.21192], [-6.90056, 37.21315], [-6.90101, 37.21357], [-6.90176, 37.21532], [-6.90159, 37.2162], [-6.90118, 37.21651], [-6.90032, 37.21646], [-6.89942, 37.21667], [-6.89972, 37.21603], [-6.89951, 37.21556], [-6.89872, 37.21534], [-6.89816, 37.2148], [-6.89569, 37.21365], [-6.89544, 37.21384], [-6.89555, 37.21413], [-6.89776, 37.21524], [-6.8983, 37.21578], [-6.89904, 37.21596], [-6.89867, 37.21664], [-6.89785, 37.21732], [-6.89751, 37.21899], [-6.89575, 37.22082], [-6.89527, 37.22119], [-6.89474, 37.2204], [-6.89439, 37.22029], [-6.89373, 37.22094], [-6.89355, 37.22056], [-6.89312, 37.22052], [-6.89252, 37.21921], [-6.8911, 37.21947], [-6.89066, 37.2186], [-6.88965, 37.21876], [-6.88935, 37.21497], [-6.88663, 37.21009], [-6.88631, 37.20696], [-6.88575, 37.20557], [-6.8868, 37.20572], [-6.88793, 37.20544], [-6.88894, 37.20565], [-6.88944, 37.20542], [-6.8894, 37.20488], [-6.88972, 37.20534], [-6.89065, 37.20538], [-6.89107, 37.20567], [-6.89166, 37.2054], [-6.89183, 37.20512], [-6.89227, 37.20552], [-6.89314, 37.20543], [-6.89393, 37.20438], [-6.89318, 37.20287], [-6.8924, 37.20238], [-6.89246, 37.20142], [-6.89339, 37.20049], [-6.89364, 37.1996], [-6.89437, 37.19922], [-6.89549, 37.19913], [-6.89613, 37.19888], [-6.89821, 37.19726], [-6.90134, 37.19747], [-6.90298, 37.19791], [-6.90344, 37.19845], [-6.90328, 37.20038], [-6.9039, 37.20093], [-6.90686, 37.20113], [-6.90817, 37.20153], [-6.90893, 37.20149], [-6.91005, 37.20115], [-6.91077, 37.20057], [-6.91115, 37.19989], [-6.91115, 37.19881], [-6.91084, 37.19773], [-6.90999, 37.19687], [-6.90785, 37.19538], [-6.90738, 37.19479], [-6.90763, 37.19414], [-6.90813, 37.19361], [-6.90956, 37.19286], [-6.91237, 37.19242], [-6.9131, 37.19249], [-6.91364, 37.19293], [-6.91413, 37.19403], [-6.91561, 37.19432], [-6.91769, 37.19534]], [[-6.91133, 37.20905], [-6.91321, 37.20638], [-6.91466, 37.20477], [-6.91372, 37.20452], [-6.91255, 37.20388], [-6.91145, 37.20261], [-6.91021, 37.20311], [-6.90832, 37.20337], [-6.90594, 37.20289], [-6.90342, 37.20273], [-6.90492, 37.20569], [-6.90572, 37.20659], [-6.90597, 37.20794], [-6.90686, 37.20963], [-6.90688, 37.2111], [-6.90658, 37.21212], [-6.90737, 37.21245], [-6.90768, 37.21227], [-6.90823, 37.21107], [-6.90892, 37.21019], [-6.90989, 37.20952], [-6.91133, 37.20905]], [[-6.89917, 37.20573], [-6.8983, 37.20545], [-6.89763, 37.20492], [-6.89726, 37.20422], [-6.89726, 37.20347], [-6.89775, 37.20262], [-6.89869, 37.20205], [-6.9003, 37.20182], [-6.90191, 37.20201], [-6.9011, 37.20097], [-6.90094, 37.19929], [-6.89916, 37.19915], [-6.89733, 37.20044], [-6.89563, 37.20098], [-6.89503, 37.20178], [-6.89613, 37.20385], [-6.89622, 37.20466], [-6.89591, 37.20543], [-6.89459, 37.20685], [-6.89319, 37.20732], [-6.89114, 37.20751], [-6.88999, 37.2073], [-6.88958, 37.20742], [-6.89014, 37.20847], [-6.89036, 37.2098], [-6.89022, 37.21082], [-6.88977, 37.2117], [-6.89137, 37.2146], [-6.89157, 37.21711], [-6.89228, 37.2175], [-6.89362, 37.2178], [-6.89453, 37.21863], [-6.89503, 37.21869], [-6.89561, 37.21817], [-6.89581, 37.21701], [-6.89613, 37.21637], [-6.89426, 37.21543], [-6.89365, 37.21486], [-6.89335, 37.21395], [-6.89361, 37.21304], [-6.89459, 37.21223], [-6.89572, 37.21198], [-6.89665, 37.21212], [-6.89826, 37.21287], [-6.89755, 37.21223], [-6.89716, 37.21144], [-6.89626, 37.21062], [-6.89574, 37.20967], [-6.89556, 37.20874], [-6.89594, 37.20785], [-6.89642, 37.20743], [-6.89725, 37.20707], [-6.89818, 37.20699], [-6.89909, 37.2072], [-6.89996, 37.20783], [-6.902, 37.21035], [-6.90127, 37.20892], [-6.90115, 37.2082], [-6.90059, 37.20756], [-6.89976, 37.20576], [-6.89917, 37.20573]], [[-6.91303, 37.19715], [-6.91335, 37.19815], [-6.91554, 37.19745], [-6.9156, 37.19637], [-6.91306, 37.19568], [-6.91231, 37.19517], [-6.91176, 37.19435], [-6.91034, 37.19459], [-6.91172, 37.19566], [-6.91303, 37.19715]], [[-6.91798, 37.1996], [-6.91712, 37.19964], [-6.91814, 37.20036], [-6.91836, 37.20007], [-6.91798, 37.1996]], [[-6.91772, 37.20146], [-6.91744, 37.2015], [-6.91757, 37.20205], [-6.91795, 37.20167], [-6.91772, 37.20146]]], [[[-6.91727, 37.20014], [-6.91702, 37.20031], [-6.91674, 37.20027], [-6.91713, 37.2], [-6.91727, 37.20014]]], [[[-6.92188, 37.20112], [-6.92211, 37.20054], [-6.92259, 37.20074], [-6.92287, 37.20156], [-6.92272, 37.20204], [-6.92251, 37.20195], [-6.92231, 37.20133], [-6.92188, 37.20112]]], [[[-6.9182, 37.2012], [-6.91754, 37.201], [-6.91741, 37.20062], [-6.91806, 37.20103], [-6.91822, 37.20089], [-6.9182, 37.2012]]], [[[-6.92343, 37.20204], [-6.92352, 37.20181], [-6.9241, 37.20244], [-6.92396, 37.20252], [-6.92343, 37.20204]]], [[[-6.92526, 37.20372], [-6.92548, 37.20397], [-6.92557, 37.20406], [-6.92537, 37.20412], [-6.92485, 37.20356], [-6.92503, 37.20346], [-6.92526, 37.20372]]], [[[-6.92265, 37.20428], [-6.92318, 37.20548], [-6.92251, 37.20567], [-6.92228, 37.2061], [-6.92247, 37.2067], [-6.92283, 37.20694], [-6.92368, 37.20685], [-6.924, 37.20651], [-6.92396, 37.20612], [-6.92543, 37.20567], [-6.92586, 37.20581], [-6.92628, 37.20571], [-6.92645, 37.20587], [-6.92678, 37.20567], [-6.92661, 37.20551], [-6.92676, 37.20537], [-6.927, 37.20566], [-6.92391, 37.20695], [-6.92273, 37.20779], [-6.92233, 37.20765], [-6.92188, 37.20775], [-6.92152, 37.20808], [-6.92151, 37.20861], [-6.92093, 37.20894], [-6.92265, 37.20428]]], [[[-6.92462, 37.20743], [-6.92469, 37.20747], [-6.92468, 37.20758], [-6.92466, 37.20751], [-6.92462, 37.20743]]], [[[-6.92513, 37.20774], [-6.92521, 37.20792], [-6.92494, 37.2082], [-6.92445, 37.2083], [-6.92426, 37.20857], [-6.92457, 37.20879], [-6.92443, 37.20889], [-6.92367, 37.2085], [-6.92377, 37.20823], [-6.92446, 37.20809], [-6.92469, 37.20769], [-6.92512, 37.20756], [-6.92513, 37.20774]]], [[[-6.92347, 37.20812], [-6.92361, 37.20819], [-6.92375, 37.20823], [-6.92346, 37.20829], [-6.9233, 37.20816], [-6.92347, 37.20812]]], [[[-6.92258, 37.20996], [-6.92287, 37.21046], [-6.92371, 37.21085], [-6.92422, 37.21075], [-6.92469, 37.21026], [-6.92551, 37.2105], [-6.92624, 37.21026], [-6.92661, 37.20969], [-6.92638, 37.20897], [-6.9267, 37.20869], [-6.92671, 37.20828], [-6.92716, 37.20767], [-6.92749, 37.20765], [-6.92714, 37.20749], [-6.92703, 37.20711], [-6.92655, 37.2067], [-6.92737, 37.20634], [-6.9279, 37.20791], [-6.92768, 37.20899], [-6.92837, 37.20932], [-6.92902, 37.21052], [-6.92897, 37.21076], [-6.92787, 37.21034], [-6.92701, 37.21072], [-6.92664, 37.21145], [-6.92772, 37.21233], [-6.92753, 37.2126], [-6.92674, 37.21309], [-6.92506, 37.21488], [-6.92288, 37.21793], [-6.92156, 37.21943], [-6.91566, 37.22395], [-6.9137, 37.22596], [-6.91008, 37.22898], [-6.90683, 37.23271], [-6.90535, 37.23391], [-6.90548, 37.23438], [-6.90399, 37.23754], [-6.90009, 37.24166], [-6.89757, 37.24353], [-6.89716, 37.2436], [-6.8971, 37.24395], [-6.89672, 37.24427], [-6.89371, 37.24639], [-6.89319, 37.24716], [-6.88994, 37.24947], [-6.88706, 37.25203], [-6.88714, 37.24921], [-6.89132, 37.24605], [-6.89214, 37.24505], [-6.8949, 37.24312], [-6.89562, 37.24224], [-6.89648, 37.24183], [-6.89842, 37.2404], [-6.90005, 37.23879], [-6.90214, 37.23625], [-6.90016, 37.23677], [-6.89806, 37.23649], [-6.89697, 37.23594], [-6.89605, 37.23518], [-6.89495, 37.23342], [-6.89342, 37.2341], [-6.89184, 37.23521], [-6.88983, 37.23567], [-6.88547, 37.23991], [-6.88696, 37.24007], [-6.88811, 37.24053], [-6.88919, 37.24121], [-6.89012, 37.24237], [-6.89041, 37.24338], [-6.89032, 37.24441], [-6.88986, 37.24537], [-6.88891, 37.24637], [-6.88706, 37.24722], [-6.88578, 37.24735], [-6.88451, 37.24718], [-6.88336, 37.24672], [-6.88228, 37.24604], [-6.88153, 37.24519], [-6.88112, 37.24423], [-6.87962, 37.24541], [-6.87672, 37.24704], [-6.8759, 37.24768], [-6.87597, 37.24541], [-6.87823, 37.24417], [-6.8804, 37.2425], [-6.88177, 37.24076], [-6.88673, 37.23606], [-6.88718, 37.23669], [-6.88769, 37.23627], [-6.8871, 37.2357], [-6.88996, 37.23291], [-6.89051, 37.23205], [-6.89069, 37.23217], [-6.89133, 37.23159], [-6.89188, 37.23131], [-6.89317, 37.23114], [-6.89313, 37.23092], [-6.89372, 37.23042], [-6.89547, 37.23107], [-6.89526, 37.23146], [-6.8959, 37.23165], [-6.89585, 37.23184], [-6.89611, 37.23189], [-6.89638, 37.23177], [-6.89616, 37.23147], [-6.89626, 37.23129], [-6.89717, 37.23099], [-6.89756, 37.23111], [-6.89785, 37.23155], [-6.89828, 37.23165], [-6.89832, 37.23205], [-6.89888, 37.2322], [-6.89913, 37.23196], [-6.89945, 37.23214], [-6.89891, 37.23273], [-6.89883, 37.2331], [-6.89938, 37.23369], [-6.89988, 37.23382], [-6.90101, 37.23304], [-6.90097, 37.23262], [-6.90051, 37.2322], [-6.90515, 37.23029], [-6.90594, 37.23028], [-6.90706, 37.23102], [-6.90755, 37.23092], [-6.90766, 37.23063], [-6.90746, 37.23037], [-6.90621, 37.22978], [-6.90532, 37.22969], [-6.90033, 37.23168], [-6.89973, 37.23164], [-6.89946, 37.23108], [-6.89907, 37.2311], [-6.89883, 37.22911], [-6.89807, 37.22809], [-6.89812, 37.22777], [-6.89848, 37.22753], [-6.89832, 37.22723], [-6.89877, 37.2271], [-6.8993, 37.22731], [-6.89997, 37.22711], [-6.90007, 37.22729], [-6.90077, 37.22697], [-6.90025, 37.22618], [-6.90328, 37.22386], [-6.90427, 37.22282], [-6.90416, 37.22247], [-6.90682, 37.2215], [-6.91491, 37.21702], [-6.91594, 37.21516], [-6.91635, 37.213], [-6.91912, 37.21077], [-6.92015, 37.21155], [-6.91982, 37.21178], [-6.9205, 37.21255], [-6.92094, 37.21243], [-6.92147, 37.21303], [-6.92213, 37.21312], [-6.92223, 37.21287], [-6.9219, 37.21253], [-6.92202, 37.21196], [-6.9218, 37.21198], [-6.92181, 37.21148], [-6.92237, 37.21136], [-6.92173, 37.21037], [-6.92237, 37.20969], [-6.92258, 37.20996]], [[-6.91761, 37.21979], [-6.9197, 37.21831], [-6.92097, 37.21688], [-6.9224, 37.21481], [-6.92137, 37.21481], [-6.92041, 37.21446], [-6.91964, 37.21389], [-6.91907, 37.21316], [-6.91828, 37.21379], [-6.9179, 37.21572], [-6.91643, 37.21815], [-6.90875, 37.22245], [-6.91106, 37.2234], [-6.91218, 37.22453], [-6.91411, 37.2226], [-6.91761, 37.21979]], [[-6.90696, 37.22629], [-6.90828, 37.22681], [-6.90874, 37.22661], [-6.90895, 37.22609], [-6.90864, 37.22565], [-6.90747, 37.22529], [-6.90685, 37.22573], [-6.90696, 37.22629]], [[-6.90242, 37.22733], [-6.90182, 37.22812], [-6.90172, 37.22869], [-6.90209, 37.22909], [-6.90417, 37.22823], [-6.90345, 37.22732], [-6.90313, 37.22638], [-6.90253, 37.22688], [-6.90242, 37.22733]], [[-6.88668, 37.24382], [-6.88657, 37.24331], [-6.88575, 37.24288], [-6.88518, 37.24298], [-6.88477, 37.24348], [-6.8849, 37.24394], [-6.88572, 37.24437], [-6.88629, 37.24427], [-6.88668, 37.24382]]], [[[-6.91993, 37.23716], [-6.92232, 37.2397], [-6.92343, 37.24037], [-6.92497, 37.24263], [-6.92596, 37.24725], [-6.92587, 37.24792], [-6.9253, 37.24902], [-6.92229, 37.25167], [-6.92148, 37.25267], [-6.91917, 37.25674], [-6.91797, 37.25761], [-6.91683, 37.25815], [-6.91569, 37.25924], [-6.91534, 37.26043], [-6.91538, 37.26118], [-6.91398, 37.26196], [-6.91307, 37.26172], [-6.91269, 37.26194], [-6.9127, 37.26226], [-6.91319, 37.26251], [-6.91304, 37.26297], [-6.9132, 37.26319], [-6.91352, 37.26321], [-6.9145, 37.26276], [-6.91244, 37.26434], [-6.90915, 37.26835], [-6.9092, 37.26652], [-6.90144, 37.26639], [-6.90075, 37.26584], [-6.90039, 37.26528], [-6.90027, 37.26445], [-6.90071, 37.26328], [-6.90039, 37.2627], [-6.89879, 37.26107], [-6.89858, 37.26047], [-6.89866, 37.25965], [-6.9012, 37.2563], [-6.90461, 37.2535], [-6.90559, 37.25299], [-6.9042, 37.25228], [-6.90349, 37.25143], [-6.8989, 37.25453], [-6.89634, 37.25728], [-6.89352, 37.25723], [-6.89722, 37.25325], [-6.90296, 37.24937], [-6.91914, 37.23513], [-6.91993, 37.23716]], [[-6.90805, 37.25429], [-6.90773, 37.25424], [-6.90628, 37.25477], [-6.90302, 37.25742], [-6.90087, 37.26017], [-6.90235, 37.2617], [-6.90297, 37.26282], [-6.90307, 37.26378], [-6.90261, 37.26476], [-6.90475, 37.26607], [-6.90562, 37.26603], [-6.90627, 37.26554], [-6.90659, 37.26438], [-6.90904, 37.26295], [-6.9134, 37.25852], [-6.91331, 37.25778], [-6.90805, 37.25429]], [[-6.91356, 37.25465], [-6.91397, 37.25457], [-6.91568, 37.2524], [-6.91898, 37.24996], [-6.9189, 37.24968], [-6.91622, 37.24791], [-6.91929, 37.24947], [-6.92106, 37.24685], [-6.92142, 37.24453], [-6.92054, 37.24161], [-6.91948, 37.23994], [-6.91676, 37.24066], [-6.91244, 37.24382], [-6.91177, 37.24497], [-6.91147, 37.24485], [-6.9112, 37.24495], [-6.90565, 37.25065], [-6.9058, 37.25095], [-6.91356, 37.25465]], [[-6.92407, 37.24536], [-6.92276, 37.24198], [-6.92231, 37.24183], [-6.92172, 37.24267], [-6.92208, 37.2436], [-6.92147, 37.24408], [-6.92196, 37.24542], [-6.92137, 37.24817], [-6.91938, 37.25053], [-6.91633, 37.25228], [-6.91378, 37.25542], [-6.91386, 37.25575], [-6.91505, 37.25642], [-6.91536, 37.25643], [-6.91779, 37.25339], [-6.91885, 37.25392], [-6.91923, 37.25384], [-6.92316, 37.24903], [-6.92407, 37.24536]], [[-6.90924, 37.26518], [-6.90933, 37.26506], [-6.90875, 37.2654], [-6.9085, 37.2661], [-6.90924, 37.26518]]], [[[-6.91997, 37.25968], [-6.91938, 37.25964], [-6.92056, 37.25903], [-6.92011, 37.25971], [-6.91997, 37.25968]]], [[[-6.91649, 37.26308], [-6.91609, 37.26277], [-6.91667, 37.26188], [-6.91667, 37.26324], [-6.91649, 37.26308]]], [[[-6.91666, 37.26345], [-6.91666, 37.26344], [-6.91666, 37.26345], [-6.91666, 37.26345]]], [[[-6.91665, 37.26418], [-6.91669, 37.26433], [-6.91637, 37.26448], [-6.91665, 37.26418]]], [[[-6.91683, 37.26489], [-6.917, 37.26481], [-6.91786, 37.2652], [-6.91745, 37.2666], [-6.91628, 37.26637], [-6.91619, 37.26674], [-6.91553, 37.26693], [-6.91533, 37.26641], [-6.91683, 37.26489]]], [[[-6.91498, 37.26588], [-6.91514, 37.26576], [-6.91526, 37.26566], [-6.91482, 37.26598], [-6.91498, 37.26588]]], [[[-6.91421, 37.26838], [-6.91423, 37.26837], [-6.91422, 37.26839], [-6.91421, 37.26838]]], [[[-6.91487, 37.27522], [-6.91454, 37.27476], [-6.91396, 37.27456], [-6.91493, 37.27251], [-6.91549, 37.27074], [-6.9154, 37.27043], [-6.91669, 37.26965], [-6.91681, 37.27093], [-6.91721, 37.27188], [-6.91651, 37.27221], [-6.91646, 37.27273], [-6.91707, 37.2733], [-6.91798, 37.27303], [-6.91989, 37.27572], [-6.91471, 37.27563], [-6.91487, 37.27522]]], [[[-6.92242, 37.27577], [-6.92182, 37.27576], [-6.92224, 37.27565], [-6.92242, 37.27577]]], [[[-6.91667, 37.20768], [-6.91516, 37.20896], [-6.91625, 37.21122], [-6.91599, 37.2116], [-6.91469, 37.212], [-6.91463, 37.2124], [-6.91294, 37.21182], [-6.91221, 37.21192], [-6.91463, 37.20897], [-6.91634, 37.20652], [-6.9173, 37.20634], [-6.91854, 37.20747], [-6.91776, 37.20796], [-6.91735, 37.2073], [-6.91667, 37.20768]]], [[[-6.9113, 37.21297], [-6.9104, 37.2145], [-6.91042, 37.21487], [-6.90845, 37.21461], [-6.91133, 37.21279], [-6.9113, 37.21297]]], [[[-6.9115, 37.21537], [-6.91173, 37.21567], [-6.9121, 37.21574], [-6.9125, 37.21551], [-6.91523, 37.21514], [-6.91422, 37.21679], [-6.9067, 37.22091], [-6.90626, 37.22032], [-6.90484, 37.21947], [-6.90434, 37.21847], [-6.90431, 37.21709], [-6.90479, 37.21607], [-6.90506, 37.21432], [-6.90493, 37.21391], [-6.90799, 37.21511], [-6.9101, 37.21545], [-6.91142, 37.21521], [-6.9115, 37.21537]], [[-6.9093, 37.217], [-6.9068, 37.21649], [-6.90644, 37.21723], [-6.90638, 37.21808], [-6.90657, 37.21847], [-6.90701, 37.21872], [-6.90992, 37.21711], [-6.9093, 37.217]]], [[[-6.90142, 37.21702], [-6.90365, 37.21536], [-6.90436, 37.21449], [-6.90412, 37.21598], [-6.90365, 37.21693], [-6.90014, 37.21826], [-6.89945, 37.21884], [-6.89933, 37.2198], [-6.89841, 37.22045], [-6.89764, 37.22073], [-6.89714, 37.22012], [-6.89812, 37.21922], [-6.89851, 37.21748], [-6.90038, 37.217], [-6.90142, 37.21702]]], [[[-6.8999, 37.22008], [-6.90009, 37.21903], [-6.90056, 37.21868], [-6.90369, 37.21747], [-6.90369, 37.2186], [-6.90426, 37.21975], [-6.90578, 37.22071], [-6.90613, 37.2212], [-6.90417, 37.2219], [-6.8986, 37.22325], [-6.89782, 37.22272], [-6.89737, 37.22152], [-6.89882, 37.22088], [-6.8999, 37.22008]], [[-6.90212, 37.21998], [-6.90203, 37.22037], [-6.90184, 37.22072], [-6.90245, 37.22058], [-6.90212, 37.21998]]], [[[-6.89695, 37.22079], [-6.89669, 37.22147], [-6.897, 37.22245], [-6.89554, 37.22172], [-6.89673, 37.22057], [-6.89695, 37.22079]]], [[[-6.91368, 37.26662], [-6.91339, 37.26692], [-6.9146, 37.26812], [-6.91381, 37.26739], [-6.91304, 37.26753], [-6.91152, 37.26848], [-6.91275, 37.26719], [-6.91416, 37.2663], [-6.91368, 37.26662]]], [[[-6.91504, 37.26971], [-6.91491, 37.26979], [-6.91424, 37.26913], [-6.91384, 37.26917], [-6.91377, 37.26949], [-6.91448, 37.27023], [-6.91416, 37.27042], [-6.91382, 37.27017], [-6.91347, 37.27027], [-6.91296, 37.26943], [-6.91413, 37.26871], [-6.91504, 37.26971]]], [[[-6.90936, 37.27049], [-6.90997, 37.27015], [-6.90989, 37.27064], [-6.90908, 37.27113], [-6.9091, 37.27044], [-6.90936, 37.27049]]], [[[-6.91179, 37.27188], [-6.91099, 37.27105], [-6.91177, 37.27055], [-6.91259, 37.27139], [-6.91179, 37.27188]]], [[[-6.90924, 37.27235], [-6.90977, 37.27312], [-6.90964, 37.2732], [-6.90904, 37.2724], [-6.90906, 37.27171], [-6.90924, 37.27235]]], [[[-6.91066, 37.27334], [-6.9111, 37.27307], [-6.91273, 37.2739], [-6.91416, 37.27231], [-6.91324, 37.27175], [-6.91478, 37.27081], [-6.91341, 37.2742], [-6.91265, 37.27415], [-6.91185, 37.2749], [-6.91184, 37.27527], [-6.91216, 37.27559], [-6.90895, 37.27553], [-6.90899, 37.27436], [-6.91066, 37.27334]]], [[[-6.90901, 37.27341], [-6.9091, 37.27353], [-6.90901, 37.27359], [-6.90901, 37.27341]]], [[[-6.8889, 37.18583], [-6.88913, 37.18596], [-6.88889, 37.18616], [-6.8889, 37.18583]]], [[[-6.89244, 37.1872], [-6.8933, 37.18784], [-6.88873, 37.19191], [-6.8888, 37.18936], [-6.89072, 37.18765], [-6.89041, 37.18671], [-6.8914, 37.18729], [-6.89244, 37.1872]]], [[[-6.87919, 37.20013], [-6.88158, 37.20134], [-6.88329, 37.20338], [-6.88183, 37.2024], [-6.88118, 37.20225], [-6.88013, 37.20241], [-6.87882, 37.20228], [-6.87807, 37.20264], [-6.87761, 37.20242], [-6.87717, 37.20251], [-6.87728, 37.19863], [-6.87919, 37.20013]]], [[[-6.88097, 37.20611], [-6.88095, 37.20614], [-6.8807, 37.20601], [-6.88093, 37.20594], [-6.88097, 37.20611]]], [[[-6.88502, 37.2072], [-6.88472, 37.20714], [-6.88416, 37.20707], [-6.88557, 37.20673], [-6.88565, 37.20722], [-6.88502, 37.2072]]], [[[-6.88547, 37.20775], [-6.88568, 37.20788], [-6.88571, 37.20873], [-6.88502, 37.2087], [-6.88526, 37.20773], [-6.88547, 37.20775]]], [[[-6.87795, 37.20554], [-6.87973, 37.20618], [-6.88124, 37.20702], [-6.88265, 37.20734], [-6.8826, 37.20802], [-6.88299, 37.20837], [-6.88383, 37.20837], [-6.88414, 37.2081], [-6.88423, 37.20764], [-6.88458, 37.20767], [-6.88433, 37.20872], [-6.88452, 37.20961], [-6.88393, 37.21112], [-6.88303, 37.2121], [-6.88244, 37.21431], [-6.88118, 37.21543], [-6.88075, 37.21657], [-6.87812, 37.21823], [-6.87677, 37.21686], [-6.87707, 37.20609], [-6.8772, 37.20569], [-6.87756, 37.2055], [-6.87795, 37.20554]], [[-6.87948, 37.21125], [-6.87887, 37.21008], [-6.87904, 37.20883], [-6.87887, 37.20776], [-6.87822, 37.20756], [-6.87714, 37.20808], [-6.87766, 37.20879], [-6.8778, 37.20978], [-6.87829, 37.21087], [-6.87764, 37.21455], [-6.87792, 37.21507], [-6.87918, 37.21493], [-6.87963, 37.2143], [-6.8805, 37.21362], [-6.88089, 37.21205], [-6.87948, 37.21125]], [[-6.88245, 37.21026], [-6.88323, 37.20921], [-6.883, 37.20874], [-6.88243, 37.20853], [-6.88176, 37.20878], [-6.88113, 37.20966], [-6.88143, 37.21024], [-6.88204, 37.21038], [-6.88245, 37.21026]]], [[[-6.88509, 37.21024], [-6.88573, 37.21047], [-6.8867, 37.21165], [-6.88869, 37.2151], [-6.88892, 37.21863], [-6.88797, 37.21882], [-6.88767, 37.21981], [-6.88655, 37.2194], [-6.88369, 37.21769], [-6.884, 37.21722], [-6.88397, 37.21665], [-6.88511, 37.21518], [-6.88516, 37.21442], [-6.88601, 37.21365], [-6.88671, 37.21248], [-6.88657, 37.21215], [-6.88612, 37.21222], [-6.88545, 37.21335], [-6.88455, 37.2142], [-6.88447, 37.21501], [-6.88333, 37.21644], [-6.88321, 37.2173], [-6.8831, 37.21739], [-6.88148, 37.21661], [-6.88177, 37.2157], [-6.88307, 37.21452], [-6.88366, 37.21231], [-6.88451, 37.2114], [-6.88509, 37.21024]], [[-6.88667, 37.21684], [-6.88673, 37.21683], [-6.88672, 37.21631], [-6.88628, 37.2169], [-6.88667, 37.21684]]], [[[-6.88214, 37.22005], [-6.88208, 37.21971], [-6.88145, 37.21908], [-6.87961, 37.21804], [-6.8811, 37.21706], [-6.88505, 37.21911], [-6.88478, 37.21971], [-6.88441, 37.2199], [-6.8836, 37.21948], [-6.88308, 37.21993], [-6.88354, 37.22019], [-6.88331, 37.2208], [-6.88462, 37.22138], [-6.88513, 37.22255], [-6.88361, 37.22279], [-6.88151, 37.22099], [-6.88214, 37.22005]]], [[[-6.87771, 37.21919], [-6.8772, 37.21969], [-6.87719, 37.22009], [-6.87665, 37.22103], [-6.87675, 37.21771], [-6.87807, 37.21906], [-6.87771, 37.21919]]], [[[-6.89384, 37.22226], [-6.89394, 37.22175], [-6.89438, 37.22112], [-6.89476, 37.22155], [-6.89384, 37.22226]]], [[[-6.89715, 37.22348], [-6.89675, 37.22355], [-6.89355, 37.22373], [-6.89408, 37.22289], [-6.89504, 37.22208], [-6.89768, 37.22327], [-6.89715, 37.22348]]], [[[-6.87745, 37.22356], [-6.87914, 37.22388], [-6.88308, 37.22593], [-6.88343, 37.22593], [-6.88418, 37.22632], [-6.88488, 37.22586], [-6.88665, 37.22628], [-6.88781, 37.22696], [-6.88799, 37.22743], [-6.88858, 37.22796], [-6.88861, 37.22867], [-6.88938, 37.23119], [-6.8886, 37.23164], [-6.8886, 37.23184], [-6.88883, 37.2319], [-6.88898, 37.23243], [-6.88933, 37.23267], [-6.88191, 37.23986], [-6.8816, 37.23795], [-6.88097, 37.23654], [-6.87636, 37.23139], [-6.87647, 37.22754], [-6.87723, 37.22654], [-6.8765, 37.22642], [-6.87659, 37.22337], [-6.87745, 37.22356]], [[-6.87921, 37.22937], [-6.87998, 37.22898], [-6.8801, 37.22872], [-6.87939, 37.22792], [-6.87945, 37.22756], [-6.87914, 37.22743], [-6.87887, 37.22756], [-6.87799, 37.22884], [-6.87816, 37.22906], [-6.87854, 37.22904], [-6.87921, 37.22937]], [[-6.88505, 37.22924], [-6.88442, 37.22828], [-6.88338, 37.2285], [-6.88216, 37.22848], [-6.88214, 37.22909], [-6.88411, 37.22982], [-6.88553, 37.22967], [-6.88505, 37.22924]], [[-6.88111, 37.23093], [-6.88128, 37.23118], [-6.88263, 37.23167], [-6.88306, 37.2315], [-6.88294, 37.2312], [-6.88156, 37.23069], [-6.88125, 37.23073], [-6.88111, 37.23093]], [[-6.887, 37.23148], [-6.88617, 37.23133], [-6.88478, 37.2314], [-6.88448, 37.2317], [-6.88478, 37.23194], [-6.88677, 37.23192], [-6.88705, 37.23175], [-6.887, 37.23148]], [[-6.88118, 37.23329], [-6.8811, 37.23373], [-6.88305, 37.23618], [-6.88562, 37.23367], [-6.88555, 37.23356], [-6.88434, 37.23357], [-6.88345, 37.23326], [-6.88219, 37.2333], [-6.88119, 37.23297], [-6.88118, 37.23329]]], [[[-6.87919, 37.2287], [-6.8789, 37.22858], [-6.87898, 37.22848], [-6.87904, 37.22859], [-6.87919, 37.2287]]], [[[-6.88932, 37.22864], [-6.89006, 37.22862], [-6.89061, 37.22941], [-6.88981, 37.22988], [-6.89037, 37.23092], [-6.89006, 37.23114], [-6.88932, 37.22864]]], [[[-6.87676, 37.23364], [-6.87736, 37.23338], [-6.88038, 37.2368], [-6.881, 37.23829], [-6.88114, 37.23997], [-6.88099, 37.24074], [-6.8802, 37.24188], [-6.8778, 37.24376], [-6.87599, 37.24474], [-6.87604, 37.2427], [-6.87859, 37.24083], [-6.87894, 37.24031], [-6.87905, 37.23966], [-6.87875, 37.23798], [-6.87766, 37.23652], [-6.87622, 37.23658], [-6.8763, 37.23361], [-6.87676, 37.23364]]], [[[-6.88954, 37.25519], [-6.89, 37.25561], [-6.88903, 37.25715], [-6.88721, 37.25712], [-6.88913, 37.25519], [-6.88954, 37.25519]]]]}, "properties": {"kind": "pv", "area_km2": 25.88, "mw": 1294.2}}, {"type": "Feature", "geometry": {"type": "Point", "coordinates": [-6.93586, 37.22376]}, "properties": {"kind": "turbine", "i": 0, "mw": 6.0, "hub_m": 120.0, "rotor_m": 150.0}}, {"type": "Feature", "geometry": {"type": "Point", "coordinates": [-6.9397, 37.2337]}, "properties": {"kind": "turbine", "i": 1, "mw": 6.0, "hub_m": 120.0, "rotor_m": 150.0}}, {"type": "Feature", "geometry": {"type": "Point", "coordinates": [-6.92736, 37.23349]}, "properties": {"kind": "turbine", "i": 2, "mw": 6.0, "hub_m": 120.0, "rotor_m": 150.0}}, {"type": "Feature", "geometry": {"type": "Point", "coordinates": [-6.91958, 37.2169]}, "properties": {"kind": "turbine", "i": 3, "mw": 6.0, "hub_m": 120.0, "rotor_m": 150.0}}, {"type": "Feature", "geometry": {"type": "Point", "coordinates": [-6.96912, 37.21118]}, "properties": {"kind": "turbine", "i": 4, "mw": 6.0, "hub_m": 120.0, "rotor_m": 150.0}}, {"type": "Feature", "geometry": {"type": "Point", "coordinates": [-6.96116, 37.20117]}, "properties": {"kind": "turbine", "i": 5, "mw": 6.0, "hub_m": 120.0, "rotor_m": 150.0}}, {"type": "Feature", "geometry": {"type": "Point", "coordinates": [-6.90725, 37.21668]}, "properties": {"kind": "turbine", "i": 6, "mw": 6.0, "hub_m": 120.0, "rotor_m": 150.0}}, {"type": "Feature", "geometry": {"type": "Point", "coordinates": [-6.91172, 37.20359]}, "properties": {"kind": "turbine", "i": 7, "mw": 6.0, "hub_m": 120.0, "rotor_m": 150.0}}, {"type": "Feature", "geometry": {"type": "Point", "coordinates": [-6.95731, 37.19123]}, "properties": {"kind": "turbine", "i": 8, "mw": 6.0, "hub_m": 120.0, "rotor_m": 150.0}}, {"type": "Feature", "geometry": {"type": "Point", "coordinates": [-6.89929, 37.20667]}, "properties": {"kind": "turbine", "i": 9, "mw": 6.0, "hub_m": 120.0, "rotor_m": 150.0}}, {"type": "Feature", "geometry": {"type": "Point", "coordinates": [-6.89491, 37.21646]}, "properties": {"kind": "turbine", "i": 10, "mw": 6.0, "hub_m": 120.0, "rotor_m": 150.0}}, {"type": "Feature", "geometry": {"type": "Point", "coordinates": [-6.89436, 37.2362]}, "properties": {"kind": "turbine", "i": 11, "mw": 6.0, "hub_m": 120.0, "rotor_m": 150.0}}, {"type": "Feature", "geometry": {"type": "Point", "coordinates": [-6.94122, 37.17778]}, "properties": {"kind": "turbine", "i": 12, "mw": 6.0, "hub_m": 120.0, "rotor_m": 150.0}}, {"type": "Feature", "geometry": {"type": "Point", "coordinates": [-6.90213, 37.25279]}, "properties": {"kind": "turbine", "i": 13, "mw": 6.0, "hub_m": 120.0, "rotor_m": 150.0}}, {"type": "Feature", "geometry": {"type": "Point", "coordinates": [-6.89975, 37.19022]}, "properties": {"kind": "turbine", "i": 14, "mw": 6.0, "hub_m": 120.0, "rotor_m": 150.0}}, {"type": "Feature", "geometry": {"type": "Point", "coordinates": [-6.88997, 37.24599]}, "properties": {"kind": "turbine", "i": 15, "mw": 6.0, "hub_m": 120.0, "rotor_m": 150.0}}, {"type": "Feature", "geometry": {"type": "Point", "coordinates": [-6.88723, 37.19658]}, "properties": {"kind": "turbine", "i": 16, "mw": 6.0, "hub_m": 120.0, "rotor_m": 150.0}}, {"type": "Feature", "geometry": {"type": "Point", "coordinates": [-6.97164, 37.27045]}, "properties": {"kind": "turbine", "i": 17, "mw": 6.0, "hub_m": 120.0, "rotor_m": 150.0}}, {"type": "Feature", "geometry": {"type": "Point", "coordinates": [-6.87864, 37.20959]}, "properties": {"kind": "turbine", "i": 18, "mw": 6.0, "hub_m": 120.0, "rotor_m": 150.0}}, {"type": "Feature", "geometry": {"type": "Point", "coordinates": [-6.89774, 37.26258]}, "properties": {"kind": "turbine", "i": 19, "mw": 6.0, "hub_m": 120.0, "rotor_m": 150.0}}, {"type": "Feature", "geometry": {"type": "Point", "coordinates": [-6.8736, 37.24241]}, "properties": {"kind": "turbine", "i": 20, "mw": 6.0, "hub_m": 120.0, "rotor_m": 150.0}}, {"type": "Feature", "geometry": {"type": "Point", "coordinates": [-6.86977, 37.23247]}, "properties": {"kind": "turbine", "i": 21, "mw": 6.0, "hub_m": 120.0, "rotor_m": 150.0}}, {"type": "Feature", "geometry": {"type": "Point", "coordinates": [-6.90158, 37.27252]}, "properties": {"kind": "turbine", "i": 22, "mw": 6.0, "hub_m": 120.0, "rotor_m": 150.0}}, {"type": "Feature", "geometry": {"type": "Point", "coordinates": [-7.00912, 37.25464]}, "properties": {"kind": "turbine", "i": 23, "mw": 6.0, "hub_m": 120.0, "rotor_m": 150.0}}, {"type": "Feature", "geometry": {"type": "Point", "coordinates": [-6.87744, 37.25235]}, "properties": {"kind": "turbine", "i": 24, "mw": 6.0, "hub_m": 120.0, "rotor_m": 150.0}}, {"type": "Feature", "geometry": {"type": "Point", "coordinates": [-6.86603, 37.21923]}, "properties": {"kind": "turbine", "i": 25, "mw": 6.0, "hub_m": 120.0, "rotor_m": 150.0}}, {"type": "Feature", "geometry": {"type": "Point", "coordinates": [-7.02652, 37.21873]}, "properties": {"kind": "turbine", "i": 26, "mw": 6.0, "hub_m": 120.0, "rotor_m": 150.0}}, {"type": "Feature", "geometry": {"type": "Point", "coordinates": [-6.86658, 37.1995]}, "properties": {"kind": "turbine", "i": 27, "mw": 6.0, "hub_m": 120.0, "rotor_m": 150.0}}, {"type": "Feature", "geometry": {"type": "Point", "coordinates": [-6.96708, 37.28683]}, "properties": {"kind": "turbine", "i": 28, "mw": 6.0, "hub_m": 120.0, "rotor_m": 150.0}}, {"type": "Feature", "geometry": {"type": "Point", "coordinates": [-6.91768, 37.28597]}, "properties": {"kind": "turbine", "i": 29, "mw": 6.0, "hub_m": 120.0, "rotor_m": 150.0}}, {"type": "Feature", "geometry": {"type": "Point", "coordinates": [-7.02601, 37.23846]}, "properties": {"kind": "turbine", "i": 30, "mw": 6.0, "hub_m": 120.0, "rotor_m": 150.0}}, {"type": "Feature", "geometry": {"type": "Point", "coordinates": [-6.87527, 37.1832]}, "properties": {"kind": "turbine", "i": 31, "mw": 6.0, "hub_m": 120.0, "rotor_m": 150.0}}, {"type": "Feature", "geometry": {"type": "Point", "coordinates": [-6.93818, 37.28962]}, "properties": {"kind": "turbine", "i": 32, "mw": 6.0, "hub_m": 120.0, "rotor_m": 150.0}}, {"type": "Feature", "geometry": {"type": "Point", "coordinates": [-6.95053, 37.28984]}, "properties": {"kind": "turbine", "i": 33, "mw": 6.0, "hub_m": 120.0, "rotor_m": 150.0}}, {"type": "Feature", "geometry": {"type": "Point", "coordinates": [-7.03038, 37.22866]}, "properties": {"kind": "turbine", "i": 34, "mw": 6.0, "hub_m": 120.0, "rotor_m": 150.0}}, {"type": "Feature", "geometry": {"type": "Point", "coordinates": [-6.98364, 37.28382]}, "properties": {"kind": "turbine", "i": 35, "mw": 6.0, "hub_m": 120.0, "rotor_m": 150.0}}, {"type": "Feature", "geometry": {"type": "Point", "coordinates": [-6.91299, 37.15754]}, "properties": {"kind": "turbine", "i": 36, "mw": 6.0, "hub_m": 120.0, "rotor_m": 150.0}}, {"type": "Feature", "geometry": {"type": "Point", "coordinates": [-6.85808, 37.20922]}, "properties": {"kind": "turbine", "i": 37, "mw": 6.0, "hub_m": 120.0, "rotor_m": 150.0}}, {"type": "Feature", "geometry": {"type": "Point", "coordinates": [-6.86117, 37.24547]}, "properties": {"kind": "turbine", "i": 38, "mw": 6.0, "hub_m": 120.0, "rotor_m": 150.0}}, {"type": "Feature", "geometry": {"type": "Point", "coordinates": [-6.85733, 37.23553]}, "properties": {"kind": "turbine", "i": 39, "mw": 6.0, "hub_m": 120.0, "rotor_m": 150.0}}, {"type": "Feature", "geometry": {"type": "Point", "coordinates": [-7.02138, 37.25813]}, "properties": {"kind": "turbine", "i": 40, "mw": 6.0, "hub_m": 120.0, "rotor_m": 150.0}}, {"type": "Feature", "geometry": {"type": "Point", "coordinates": [-6.865, 37.25542]}, "properties": {"kind": "turbine", "i": 41, "mw": 6.0, "hub_m": 120.0, "rotor_m": 150.0}}, {"type": "Feature", "geometry": {"type": "Point", "coordinates": [-6.89308, 37.28225]}, "properties": {"kind": "turbine", "i": 42, "mw": 6.0, "hub_m": 120.0, "rotor_m": 150.0}}, {"type": "Feature", "geometry": {"type": "Point", "coordinates": [-6.8535, 37.22559]}, "properties": {"kind": "turbine", "i": 43, "mw": 6.0, "hub_m": 120.0, "rotor_m": 150.0}}, {"type": "Feature", "geometry": {"type": "Point", "coordinates": [-6.86275, 37.18956]}, "properties": {"kind": "turbine", "i": 44, "mw": 6.0, "hub_m": 120.0, "rotor_m": 150.0}}, {"type": "Feature", "geometry": {"type": "Point", "coordinates": [-7.02987, 37.2484]}, "properties": {"kind": "turbine", "i": 45, "mw": 6.0, "hub_m": 120.0, "rotor_m": 150.0}}, {"type": "Feature", "geometry": {"type": "Point", "coordinates": [-6.86884, 37.26536]}, "properties": {"kind": "turbine", "i": 46, "mw": 6.0, "hub_m": 120.0, "rotor_m": 150.0}}, {"type": "Feature", "geometry": {"type": "Point", "coordinates": [-6.92565, 37.29598]}, "properties": {"kind": "turbine", "i": 47, "mw": 6.0, "hub_m": 120.0, "rotor_m": 150.0}}, {"type": "Feature", "geometry": {"type": "Point", "coordinates": [-7.01272, 37.27444]}, "properties": {"kind": "turbine", "i": 48, "mw": 6.0, "hub_m": 120.0, "rotor_m": 150.0}}, {"type": "Feature", "geometry": {"type": "Point", "coordinates": [-7.03895, 37.21564]}, "properties": {"kind": "turbine", "i": 49, "mw": 6.0, "hub_m": 120.0, "rotor_m": 150.0}}, {"type": "Feature", "geometry": {"type": "Point", "coordinates": [-6.87143, 37.17326]}, "properties": {"kind": "turbine", "i": 50, "mw": 6.0, "hub_m": 120.0, "rotor_m": 150.0}}, {"type": "Feature", "geometry": {"type": "Point", "coordinates": [-6.97926, 37.29362]}, "properties": {"kind": "turbine", "i": 51, "mw": 6.0, "hub_m": 120.0, "rotor_m": 150.0}}, {"type": "Feature", "geometry": {"type": "Point", "coordinates": [-6.91329, 37.29577]}, "properties": {"kind": "turbine", "i": 52, "mw": 6.0, "hub_m": 120.0, "rotor_m": 150.0}}, {"type": "Feature", "geometry": {"type": "Point", "coordinates": [-6.84555, 37.21557]}, "properties": {"kind": "turbine", "i": 53, "mw": 6.0, "hub_m": 120.0, "rotor_m": 150.0}}, {"type": "Feature", "geometry": {"type": "Point", "coordinates": [-7.04255, 37.23545]}, "properties": {"kind": "turbine", "i": 54, "mw": 6.0, "hub_m": 120.0, "rotor_m": 150.0}}, {"type": "Feature", "geometry": {"type": "Point", "coordinates": [-6.84883, 37.24525]}, "properties": {"kind": "turbine", "i": 55, "mw": 6.0, "hub_m": 120.0, "rotor_m": 150.0}}, {"type": "Feature", "geometry": {"type": "Point", "coordinates": [-6.96673, 37.29999]}, "properties": {"kind": "turbine", "i": 56, "mw": 6.0, "hub_m": 120.0, "rotor_m": 150.0}}, {"type": "Feature", "geometry": {"type": "Point", "coordinates": [-6.85266, 37.25519]}, "properties": {"kind": "turbine", "i": 57, "mw": 6.0, "hub_m": 120.0, "rotor_m": 150.0}}, {"type": "Feature", "geometry": {"type": "Point", "coordinates": [-6.84499, 37.23531]}, "properties": {"kind": "turbine", "i": 58, "mw": 6.0, "hub_m": 120.0, "rotor_m": 150.0}}, {"type": "Feature", "geometry": {"type": "Point", "coordinates": [-6.85032, 37.19262]}, "properties": {"kind": "turbine", "i": 59, "mw": 6.0, "hub_m": 120.0, "rotor_m": 150.0}}, {"type": "Feature", "geometry": {"type": "Point", "coordinates": [-6.84593, 37.20242]}, "properties": {"kind": "turbine", "i": 60, "mw": 6.0, "hub_m": 120.0, "rotor_m": 150.0}}, {"type": "Feature", "geometry": {"type": "Point", "coordinates": [-7.04692, 37.22565]}, "properties": {"kind": "turbine", "i": 61, "mw": 6.0, "hub_m": 120.0, "rotor_m": 150.0}}, {"type": "Feature", "geometry": {"type": "Point", "coordinates": [-6.8565, 37.26513]}, "properties": {"kind": "turbine", "i": 62, "mw": 6.0, "hub_m": 120.0, "rotor_m": 150.0}}, {"type": "Feature", "geometry": {"type": "Point", "coordinates": [-6.84116, 37.22537]}, "properties": {"kind": "turbine", "i": 63, "mw": 6.0, "hub_m": 120.0, "rotor_m": 150.0}}, {"type": "Feature", "geometry": {"type": "Point", "coordinates": [-6.87591, 37.16018]}, "properties": {"kind": "turbine", "i": 64, "mw": 6.0, "hub_m": 120.0, "rotor_m": 150.0}}, {"type": "Feature", "geometry": {"type": "Point", "coordinates": [-6.86847, 37.27851]}, "properties": {"kind": "turbine", "i": 65, "mw": 6.0, "hub_m": 120.0, "rotor_m": 150.0}}, {"type": "Feature", "geometry": {"type": "Point", "coordinates": [-6.88868, 37.29204]}, "properties": {"kind": "turbine", "i": 66, "mw": 6.0, "hub_m": 120.0, "rotor_m": 150.0}}]}