{"type": "FeatureCollection", "features": [{"type": "Feature", "geometry": {"type": "MultiPolygon", "coordinates": [[[[-6.94287, 37.21348], [-6.94289, 37.21361], [-6.94195, 37.21341], [-6.94097, 37.21346], [-6.94076, 37.213], [-6.94302, 37.21304], [-6.94287, 37.21348]]], [[[-6.96555, 37.21371], [-6.96411, 37.21411], [-6.96201, 37.21337], [-6.96602, 37.21344], [-6.966, 37.21385], [-6.96555, 37.21371]]], [[[-6.96689, 37.2141], [-6.96665, 37.21405], [-6.96669, 37.21345], [-6.96701, 37.21346], [-6.96699, 37.21418], [-6.96689, 37.2141]]], [[[-6.94711, 37.21669], [-6.94726, 37.21658], [-6.94771, 37.21776], [-6.94704, 37.21672], [-6.94711, 37.21669]]], [[[-6.94823, 37.21856], [-6.94803, 37.21824], [-6.948, 37.2182], [-6.94823, 37.21845], [-6.94823, 37.21856]]], [[[-6.95302, 37.2301], [-6.95308, 37.23044], [-6.95306, 37.2307], [-6.95294, 37.23011], [-6.95302, 37.2301]]], [[[-6.94328, 37.23842], [-6.94349, 37.2374], [-6.94408, 37.2401], [-6.94281, 37.24008], [-6.94328, 37.23842]]], [[[-6.95483, 37.23989], [-6.95481, 37.24], [-6.95487, 37.24028], [-6.95472, 37.23977], [-6.95483, 37.23989]]], [[[-6.93913, 37.21317], [-6.93899, 37.21324], [-6.93892, 37.21298], [-6.93949, 37.21298], [-6.93913, 37.21317]]], [[[-6.9394, 37.2144], [-6.9395, 37.21441], [-6.93956, 37.21441], [-6.9394, 37.21447], [-6.9394, 37.2144]]], [[[-6.92205, 37.21316], [-6.92224, 37.21293], [-6.92205, 37.21268], [-6.92732, 37.21277], [-6.92674, 37.21309], [-6.92506, 37.21488], [-6.92288, 37.21793], [-6.92178, 37.2191], [-6.92188, 37.21549], [-6.9224, 37.21481], [-6.9219, 37.21485], [-6.92205, 37.21316]]], [[[-6.93442, 37.21935], [-6.93684, 37.21667], [-6.93789, 37.21456], [-6.93827, 37.21423], [-6.94278, 37.23517], [-6.94283, 37.23689], [-6.94203, 37.24006], [-6.93991, 37.24002], [-6.94065, 37.23742], [-6.94071, 37.23539], [-6.93726, 37.21941], [-6.93615, 37.22056], [-6.93412, 37.2221], [-6.92728, 37.23053], [-6.92686, 37.23078], [-6.92361, 37.23073], [-6.92519, 37.22927], [-6.92575, 37.22915], [-6.93235, 37.2209], [-6.93442, 37.21935]]]]}, "properties": {"kind": "pv", "area_km2": 1.07, "mw": 53.5}}]}