{"type": "FeatureCollection", "features": [{"type": "Feature", "geometry": {"type": "MultiPolygon", "coordinates": [[[[-97.59327, 40.54077], [-97.59326, 40.54622], [-97.59055, 40.54816], [-97.58959, 40.54132], [-97.59101, 40.54077], [-97.59327, 40.54077]]], [[[-97.58435, 40.54246], [-97.58584, 40.55061], [-97.58292, 40.55124], [-97.58027, 40.55136], [-97.58019, 40.54193], [-97.58238, 40.54206], [-97.58431, 40.54158], [-97.58435, 40.54246]]], [[[-97.57512, 40.54186], [-97.5751, 40.54595], [-97.57519, 40.55088], [-97.57072, 40.54923], [-97.56723, 40.54674], [-97.56483, 40.54357], [-97.56388, 40.54077], [-97.57512, 40.54075], [-97.57512, 40.54186]]], [[[-97.57315, 40.5369], [-97.56394, 40.53691], [-97.56504, 40.53405], [-97.56659, 40.53192], [-97.56866, 40.53006], [-97.57137, 40.52845], [-97.57121, 40.52962], [-97.57184, 40.53101], [-97.5737, 40.5325], [-97.5751, 40.53285], [-97.57511, 40.5356], [-97.57419, 40.53689], [-97.57315, 40.5369]]], [[[-97.58017, 40.53375], [-97.58016, 40.52656], [-97.58026, 40.52656], [-97.58067, 40.52658], [-97.58176, 40.52848], [-97.58187, 40.53014], [-97.58282, 40.53146], [-97.5838, 40.53434], [-97.58224, 40.53386], [-97.58017, 40.53375]]]]}, "properties": {"kind": "windland", "area_km2": 2.05}}, {"type": "Feature", "geometry": {"type": "Point", "coordinates": [-97.57116, 40.54229]}, "properties": {"kind": "turbine", "i": 0, "mw": 6.0, "hub_m": 120.0, "rotor_m": 150.0}}]}