{"type": "FeatureCollection", "features": [{"type": "Feature", "geometry": {"type": "MultiPolygon", "coordinates": [[[[-97.59936, 40.55058], [-97.59833, 40.54838], [-97.59834, 40.54229], [-97.6006, 40.54228], [-97.60222, 40.5436], [-97.60384, 40.54402], [-97.60165, 40.54817], [-97.59936, 40.55058]]], [[[-97.59327, 40.54077], [-97.59326, 40.54713], [-97.59055, 40.54816], [-97.58959, 40.54132], [-97.59101, 40.54077], [-97.59327, 40.54077]]], [[[-97.58435, 40.54246], [-97.58524, 40.54844], [-97.58613, 40.55137], [-97.58027, 40.55136], [-97.58019, 40.54193], [-97.58238, 40.54206], [-97.58431, 40.54158], [-97.58435, 40.54246]]], [[[-97.57512, 40.54186], [-97.5752, 40.55136], [-97.56136, 40.5514], [-97.56127, 40.54078], [-97.57512, 40.54075], [-97.57512, 40.54186]]], [[[-97.57315, 40.5369], [-97.56126, 40.53691], [-97.56121, 40.52671], [-97.56176, 40.52626], [-97.5751, 40.52626], [-97.5751, 40.52697], [-97.57241, 40.52749], [-97.57118, 40.52901], [-97.57184, 40.53101], [-97.5737, 40.5325], [-97.5751, 40.53285], [-97.57511, 40.5356], [-97.57419, 40.53689], [-97.57315, 40.5369]]], [[[-97.58017, 40.53375], [-97.58015, 40.52907], [-97.58016, 40.52631], [-97.58176, 40.52848], [-97.58187, 40.53014], [-97.58282, 40.53146], [-97.5838, 40.53434], [-97.58224, 40.53386], [-97.58017, 40.53375]]], [[[-97.58012, 40.52012], [-97.5804, 40.52011], [-97.58063, 40.52013], [-97.58012, 40.52038], [-97.58012, 40.52012]]], [[[-97.57508, 40.52176], [-97.57508, 40.52239], [-97.56826, 40.52239], [-97.57506, 40.52051], [-97.57508, 40.52176]]], [[[-97.55538, 40.54078], [-97.5562, 40.54078], [-97.55623, 40.54428], [-97.55564, 40.54238], [-97.55538, 40.54078]]], [[[-97.55617, 40.53541], [-97.55619, 40.53692], [-97.5554, 40.53691], [-97.55617, 40.53396], [-97.55617, 40.53541]]], [[[-97.58031, 40.55759], [-97.58031, 40.55523], [-97.58826, 40.55524], [-97.58906, 40.55658], [-97.58444, 40.55758], [-97.58031, 40.55787], [-97.58031, 40.55759]]], [[[-97.56804, 40.55525], [-97.57524, 40.55523], [-97.57525, 40.55752], [-97.57016, 40.55633], [-97.56743, 40.55525], [-97.56804, 40.55525]]]]}, "properties": {"kind": "windland", "area_km2": 4.01}}, {"type": "Feature", "geometry": {"type": "Point", "coordinates": [-97.57116, 40.54229]}, "properties": {"kind": "turbine", "i": 0, "mw": 6.0, "hub_m": 120.0, "rotor_m": 150.0}}, {"type": "Feature", "geometry": {"type": "Point", "coordinates": [-97.58105, 40.53029]}, "properties": {"kind": "turbine", "i": 1, "mw": 6.0, "hub_m": 120.0, "rotor_m": 150.0}}, {"type": "Feature", "geometry": {"type": "Point", "coordinates": [-97.59271, 40.54256]}, "properties": {"kind": "turbine", "i": 2, "mw": 6.0, "hub_m": 120.0, "rotor_m": 150.0}}, {"type": "Feature", "geometry": {"type": "Point", "coordinates": [-97.56713, 40.52909]}, "properties": {"kind": "turbine", "i": 3, "mw": 6.0, "hub_m": 120.0, "rotor_m": 150.0}}]}