{"type": "FeatureCollection", "features": [{"type": "Feature", "geometry": {"type": "MultiPolygon", "coordinates": [[[[-0.64632, 43.39514], [-0.64682, 43.39505], [-0.64709, 43.39547], [-0.64709, 43.39599], [-0.64661, 43.39646], [-0.6458, 43.39659], [-0.64424, 43.39577], [-0.64444, 43.39534], [-0.64407, 43.39489], [-0.64364, 43.39472], [-0.64264, 43.39471], [-0.64203, 43.39423], [-0.64452, 43.39429], [-0.64522, 43.39479], [-0.64587, 43.39431], [-0.64639, 43.39432], [-0.64632, 43.39514]]], [[[-0.64297, 43.39717], [-0.64341, 43.3961], [-0.64531, 43.39703], [-0.64517, 43.39705], [-0.64297, 43.39717]]], [[[-0.6485, 43.39806], [-0.64794, 43.39747], [-0.64852, 43.397], [-0.64821, 43.39643], [-0.64881, 43.39611], [-0.64885, 43.39824], [-0.6485, 43.39806]]], [[[-0.64715, 43.40097], [-0.64622, 43.40149], [-0.64656, 43.40081], [-0.64798, 43.4012], [-0.64822, 43.40139], [-0.64715, 43.40097]]], [[[-0.64724, 43.40165], [-0.64727, 43.40166], [-0.64723, 43.40165], [-0.64724, 43.40165]]], [[[-0.6483, 43.40194], [-0.64836, 43.40199], [-0.64825, 43.40196], [-0.6483, 43.40194]]], [[[-0.64776, 43.40272], [-0.64755, 43.40309], [-0.64769, 43.40335], [-0.64614, 43.40332], [-0.64693, 43.40215], [-0.6481, 43.4025], [-0.64776, 43.40272]]], [[[-0.64865, 43.40327], [-0.64833, 43.40309], [-0.64867, 43.40285], [-0.64865, 43.40327]]], [[[-0.64418, 43.40328], [-0.64314, 43.40326], [-0.64379, 43.40279], [-0.64418, 43.40328]]], [[[-0.63664, 43.39472], [-0.63665, 43.39448], [-0.63686, 43.39463], [-0.63664, 43.39472]]], [[[-0.64083, 43.39447], [-0.64084, 43.395], [-0.64204, 43.39609], [-0.6416, 43.39636], [-0.63994, 43.39653], [-0.63926, 43.39623], [-0.63771, 43.39611], [-0.63838, 43.39547], [-0.63824, 43.39512], [-0.6378, 43.39484], [-0.63857, 43.39437], [-0.63896, 43.39417], [-0.64032, 43.3942], [-0.64083, 43.39447]]], [[[-0.63669, 43.39533], [-0.63668, 43.39532], [-0.63669, 43.39531], [-0.63669, 43.39533]]], [[[-0.63791, 43.39672], [-0.63787, 43.39677], [-0.63782, 43.39687], [-0.63778, 43.39667], [-0.63791, 43.39672]]], [[[-0.63994, 43.39742], [-0.63972, 43.39705], [-0.64161, 43.39693], [-0.64187, 43.39716], [-0.64122, 43.39743], [-0.63994, 43.39757], [-0.63994, 43.39742]]], [[[-0.63778, 43.39709], [-0.63828, 43.39765], [-0.63652, 43.39771], [-0.63653, 43.39752], [-0.63778, 43.39709]]], [[[-0.63925, 43.39753], [-0.63933, 43.39759], [-0.6391, 43.3976], [-0.63919, 43.39756], [-0.63925, 43.39753]]], [[[-0.63735, 43.39893], [-0.63932, 43.39858], [-0.63919, 43.39911], [-0.63986, 43.3993], [-0.63974, 43.39968], [-0.64164, 43.40016], [-0.64253, 43.39965], [-0.64342, 43.39877], [-0.64493, 43.39899], [-0.64318, 43.40201], [-0.64329, 43.40215], [-0.64169, 43.40123], [-0.64049, 43.40205], [-0.64058, 43.40238], [-0.6423, 43.40324], [-0.64185, 43.40323], [-0.63954, 43.40211], [-0.6364, 43.40088], [-0.63646, 43.39919], [-0.63735, 43.39893]]]]}, "properties": {"kind": "pv", "area_km2": 0.33, "mw": 16.5}}]}