{"type": "FeatureCollection", "features": [{"type": "Feature", "geometry": {"type": "MultiPolygon", "coordinates": [[[[-101.88387, 47.35512], [-101.85183, 47.35512], [-101.85152, 47.35434], [-101.85202, 47.35402], [-101.8541, 47.35381], [-101.85463, 47.35423], [-101.8562, 47.35421], [-101.85644, 47.35227], [-101.8544, 47.35239], [-101.85285, 47.35162], [-101.83787, 47.34119], [-101.84253, 47.34022], [-101.84367, 47.33971], [-101.84373, 47.33919], [-101.83358, 47.33389], [-101.83322, 47.33235], [-101.83131, 47.33218], [-101.8294, 47.32946], [-101.82813, 47.32875], [-101.83623, 47.32805], [-101.84099, 47.32809], [-101.85038, 47.32912], [-101.86009, 47.33167], [-101.85808, 47.33223], [-101.85693, 47.33375], [-101.85751, 47.33527], [-101.8595, 47.33632], [-101.86126, 47.33655], [-101.86309, 47.33605], [-101.86437, 47.33483], [-101.86441, 47.33338], [-101.86738, 47.33476], [-101.87435, 47.33916], [-101.87894, 47.34337], [-101.8789, 47.34532], [-101.87997, 47.34626], [-101.88076, 47.34799], [-101.88298, 47.34874], [-101.88521, 47.35338], [-101.88569, 47.35512], [-101.88387, 47.35512]], [[-101.86777, 47.34474], [-101.86906, 47.34318], [-101.86823, 47.34147], [-101.86614, 47.34072], [-101.86365, 47.34125], [-101.86241, 47.34286], [-101.86314, 47.34441], [-101.86535, 47.34523], [-101.86777, 47.34474]]], [[[-101.84679, 47.39329], [-101.84678, 47.38604], [-101.84722, 47.38463], [-101.84678, 47.38319], [-101.84677, 47.36524], [-101.84793, 47.35898], [-101.85666, 47.35897], [-101.8567, 47.3603], [-101.85855, 47.36173], [-101.85848, 47.36287], [-101.85916, 47.36417], [-101.86037, 47.36505], [-101.86199, 47.36536], [-101.86358, 47.36512], [-101.86474, 47.36441], [-101.86533, 47.36224], [-101.86797, 47.36276], [-101.87016, 47.36194], [-101.87082, 47.36043], [-101.86993, 47.35898], [-101.88639, 47.35898], [-101.88644, 47.36302], [-101.88493, 47.36941], [-101.88161, 47.37546], [-101.87662, 47.38097], [-101.87015, 47.3857], [-101.86243, 47.38949], [-101.85378, 47.39218], [-101.84679, 47.39329]], [[-101.85686, 47.3726], [-101.85439, 47.37318], [-101.85225, 47.37238], [-101.84972, 47.37286], [-101.84825, 47.37423], [-101.84851, 47.37584], [-101.84952, 47.3766], [-101.85105, 47.37696], [-101.85273, 47.37683], [-101.85408, 47.37619], [-101.8561, 47.37699], [-101.8582, 47.37672], [-101.85965, 47.37562], [-101.85986, 47.37433], [-101.85882, 47.37312], [-101.85686, 47.3726]]], [[[-101.78969, 47.36346], [-101.79233, 47.3631], [-101.7937, 47.36145], [-101.79347, 47.36004], [-101.79263, 47.3588], [-101.78983, 47.35735], [-101.79109, 47.35257], [-101.79441, 47.34652], [-101.79671, 47.34368], [-101.80056, 47.34009], [-101.81063, 47.34487], [-101.81805, 47.3465], [-101.81837, 47.3487], [-101.82034, 47.35024], [-101.82279, 47.35077], [-101.82559, 47.35036], [-101.82614, 47.35074], [-101.82426, 47.35295], [-101.82426, 47.35706], [-101.82215, 47.35703], [-101.82159, 47.3558], [-101.81208, 47.35694], [-101.81219, 47.36543], [-101.817, 47.36579], [-101.81702, 47.3675], [-101.82018, 47.36749], [-101.82092, 47.36903], [-101.81423, 47.37351], [-101.8086, 47.37656], [-101.80818, 47.37551], [-101.80705, 47.37461], [-101.80579, 47.3742], [-101.8042, 47.37423], [-101.80431, 47.35704], [-101.80352, 47.35566], [-101.80209, 47.35511], [-101.80071, 47.35514], [-101.79932, 47.35574], [-101.7987, 47.35658], [-101.79851, 47.36991], [-101.7975, 47.37066], [-101.79711, 47.37167], [-101.79799, 47.3732], [-101.7955, 47.37305], [-101.79355, 47.37419], [-101.79077, 47.3686], [-101.78969, 47.36346]]], [[[-101.7966, 47.37807], [-101.79852, 47.37814], [-101.79852, 47.38017], [-101.79648, 47.37803], [-101.7966, 47.37807]]], [[[-101.863, 47.35976], [-101.86287, 47.35897], [-101.86452, 47.35898], [-101.86391, 47.36034], [-101.86296, 47.36003], [-101.863, 47.35976]]], [[[-101.8074, 47.33811], [-101.80766, 47.33707], [-101.80894, 47.33773], [-101.80826, 47.33782], [-101.8074, 47.33811]]], [[[-101.8135, 47.34119], [-101.81256, 47.34079], [-101.81242, 47.33952], [-101.81717, 47.34161], [-101.81707, 47.34194], [-101.8135, 47.34119]]], [[[-101.81976, 47.39], [-101.81978, 47.39153], [-101.8106, 47.38817], [-101.8198, 47.38782], [-101.81976, 47.39]]], [[[-101.8311, 47.38844], [-101.83135, 47.38782], [-101.83709, 47.38788], [-101.83932, 47.38886], [-101.8411, 47.38912], [-101.8411, 47.39387], [-101.83501, 47.39391], [-101.82548, 47.39285], [-101.82547, 47.39183], [-101.82706, 47.39176], [-101.82866, 47.39121], [-101.8311, 47.38844]]], [[[-101.82947, 47.37162], [-101.83008, 47.37162], [-101.83015, 47.3743], [-101.82956, 47.37205], [-101.82947, 47.37162]]], [[[-101.83412, 47.38282], [-101.83415, 47.38281], [-101.83479, 47.38328], [-101.83376, 47.38309], [-101.83412, 47.38282]]], [[[-101.82544, 47.38259], [-101.82651, 47.38189], [-101.82686, 47.38399], [-101.82543, 47.38397], [-101.82544, 47.38259]]], [[[-101.80422, 47.384], [-101.80422, 47.38307], [-101.80548, 47.38257], [-101.80759, 47.38284], [-101.80925, 47.38237], [-101.81022, 47.3815], [-101.81044, 47.3804], [-101.81975, 47.3753], [-101.81974, 47.38095], [-101.81493, 47.38397], [-101.80422, 47.384]]]]}, "properties": {"kind": "windland", "area_km2": 21.59}}, {"type": "Feature", "geometry": {"type": "Point", "coordinates": [-101.85222, 47.36076]}, "properties": {"kind": "turbine", "i": 0, "mw": 6.0, "hub_m": 120.0, "rotor_m": 150.0}}, {"type": "Feature", "geometry": {"type": "Point", "coordinates": [-101.8481, 47.37401]}, "properties": {"kind": "turbine", "i": 1, "mw": 6.0, "hub_m": 120.0, "rotor_m": 150.0}}, {"type": "Feature", "geometry": {"type": "Point", "coordinates": [-101.81771, 47.34847]}, "properties": {"kind": "turbine", "i": 2, "mw": 6.0, "hub_m": 120.0, "rotor_m": 150.0}}, {"type": "Feature", "geometry": {"type": "Point", "coordinates": [-101.86241, 47.37036]}, "properties": {"kind": "turbine", "i": 3, "mw": 6.0, "hub_m": 120.0, "rotor_m": 150.0}}, {"type": "Feature", "geometry": {"type": "Point", "coordinates": [-101.81411, 47.37156]}, "properties": {"kind": "turbine", "i": 4, "mw": 6.0, "hub_m": 120.0, "rotor_m": 150.0}}, {"type": "Feature", "geometry": {"type": "Point", "coordinates": [-101.80875, 47.36183]}, "properties": {"kind": "turbine", "i": 5, "mw": 6.0, "hub_m": 120.0, "rotor_m": 150.0}}, {"type": "Feature", "geometry": {"type": "Point", "coordinates": [-101.84633, 47.34119]}, "properties": {"kind": "turbine", "i": 6, "mw": 6.0, "hub_m": 120.0, "rotor_m": 150.0}}, {"type": "Feature", "geometry": {"type": "Point", "coordinates": [-101.86117, 47.34739]}, "properties": {"kind": "turbine", "i": 7, "mw": 6.0, "hub_m": 120.0, "rotor_m": 150.0}}, {"type": "Feature", "geometry": {"type": "Point", "coordinates": [-101.87154, 47.36028]}, "properties": {"kind": "turbine", "i": 8, "mw": 6.0, "hub_m": 120.0, "rotor_m": 150.0}}, {"type": "Feature", "geometry": {"type": "Point", "coordinates": [-101.85346, 47.38373]}, "properties": {"kind": "turbine", "i": 9, "mw": 6.0, "hub_m": 120.0, "rotor_m": 150.0}}, {"type": "Feature", "geometry": {"type": "Point", "coordinates": [-101.8034, 47.35211]}, "properties": {"kind": "turbine", "i": 10, "mw": 6.0, "hub_m": 120.0, "rotor_m": 150.0}}, {"type": "Feature", "geometry": {"type": "Point", "coordinates": [-101.81463, 47.38141]}, "properties": {"kind": "turbine", "i": 11, "mw": 6.0, "hub_m": 120.0, "rotor_m": 150.0}}, {"type": "Feature", "geometry": {"type": "Point", "coordinates": [-101.86778, 47.38009]}, "properties": {"kind": "turbine", "i": 12, "mw": 6.0, "hub_m": 120.0, "rotor_m": 150.0}}, {"type": "Feature", "geometry": {"type": "Point", "coordinates": [-101.86064, 47.33755]}, "properties": {"kind": "turbine", "i": 13, "mw": 6.0, "hub_m": 120.0, "rotor_m": 150.0}}]}