{"type": "FeatureCollection", "features": [{"type": "Feature", "geometry": {"type": "MultiPolygon", "coordinates": [[[[2.26126, 46.34272], [2.2593, 46.34376], [2.25674, 46.34407], [2.25441, 46.34352], [2.25264, 46.34216], [2.25228, 46.34319], [2.25329, 46.34526], [2.25255, 46.3468], [2.25631, 46.3495], [2.25725, 46.35136], [2.25998, 46.35033], [2.26193, 46.35005], [2.26478, 46.35065], [2.26675, 46.35237], [2.2681, 46.35241], [2.27104, 46.35172], [2.2714, 46.34983], [2.27301, 46.3484], [2.27105, 46.34733], [2.26908, 46.348], [2.26726, 46.34767], [2.2661, 46.34643], [2.26655, 46.34497], [2.26126, 46.34272]]], [[[2.20594, 46.44676], [2.20744, 46.44764], [2.21018, 46.44736], [2.20833, 46.44631], [2.20748, 46.44512], [2.20734, 46.44375], [2.20825, 46.44189], [2.20546, 46.44425], [2.20277, 46.445], [2.20353, 46.44625], [2.20594, 46.44676]]], [[[2.2125, 46.42712], [2.21219, 46.42767], [2.21354, 46.42812], [2.2141, 46.42795], [2.2125, 46.42712]]], [[[2.21161, 46.42035], [2.21203, 46.42164], [2.21379, 46.41995], [2.21297, 46.41969], [2.21161, 46.42035]]], [[[2.21091, 46.4029], [2.21204, 46.40443], [2.21545, 46.40466], [2.21405, 46.40332], [2.21364, 46.40192], [2.21438, 46.39896], [2.21577, 46.39783], [2.21816, 46.39779], [2.22276, 46.39971], [2.22299, 46.39802], [2.22163, 46.39653], [2.21939, 46.39714], [2.21595, 46.39684], [2.2135, 46.39758], [2.21052, 46.3974], [2.21031, 46.40047], [2.20939, 46.40198], [2.21091, 46.4029]]], [[[2.21062, 46.38618], [2.21547, 46.38934], [2.21897, 46.38906], [2.22081, 46.3896], [2.22207, 46.39044], [2.22571, 46.38733], [2.22415, 46.38716], [2.22275, 46.38648], [2.22059, 46.38726], [2.21817, 46.38725], [2.2138, 46.38551], [2.21062, 46.38618]]], [[[2.22935, 46.37756], [2.23166, 46.37908], [2.23369, 46.37873], [2.23651, 46.37718], [2.22972, 46.3763], [2.22935, 46.37756]]], [[[2.23688, 46.38506], [2.23374, 46.38308], [2.23288, 46.38349], [2.23605, 46.38673], [2.23757, 46.39057], [2.23966, 46.3905], [2.24203, 46.39089], [2.24371, 46.39169], [2.24487, 46.3928], [2.24519, 46.3953], [2.243, 46.3975], [2.24513, 46.39868], [2.24607, 46.3971], [2.24886, 46.39534], [2.24922, 46.39405], [2.24689, 46.39125], [2.24675, 46.38907], [2.24444, 46.38909], [2.24263, 46.38854], [2.24077, 46.38717], [2.24006, 46.38515], [2.23688, 46.38506]]], [[[2.24185, 46.40466], [2.24378, 46.40283], [2.24094, 46.40132], [2.2387, 46.40194], [2.23775, 46.40309], [2.23618, 46.40393], [2.23302, 46.40458], [2.23065, 46.40449], [2.23097, 46.40575], [2.23042, 46.40729], [2.2322, 46.40795], [2.23407, 46.40732], [2.23475, 46.40587], [2.23656, 46.40463], [2.23941, 46.40413], [2.24185, 46.40466]]], [[[2.23236, 46.41363], [2.2304, 46.41171], [2.2279, 46.41084], [2.22695, 46.41194], [2.22801, 46.4156], [2.23046, 46.41572], [2.23254, 46.41462], [2.23463, 46.41433], [2.23236, 46.41363]]], [[[2.21589, 46.37877], [2.21194, 46.3781], [2.21165, 46.3783], [2.21342, 46.37866], [2.21491, 46.37944], [2.21709, 46.37885], [2.21933, 46.37898], [2.21839, 46.37815], [2.21589, 46.37877]]], [[[2.26578, 46.35784], [2.26752, 46.35625], [2.26555, 46.3562], [2.26315, 46.35776], [2.26339, 46.35856], [2.26542, 46.35933], [2.26578, 46.35784]]], [[[2.14117, 46.39167], [2.13954, 46.39403], [2.1415, 46.39278], [2.14399, 46.39218], [2.14453, 46.39075], [2.14411, 46.38894], [2.14509, 46.38722], [2.14385, 46.3861], [2.14334, 46.38477], [2.14424, 46.38257], [2.14033, 46.38298], [2.14114, 46.3843], [2.14114, 46.38575], [2.14039, 46.38701], [2.13907, 46.38794], [2.14115, 46.3903], [2.14117, 46.39167]]], [[[2.13866, 46.39554], [2.13876, 46.39552], [2.13881, 46.39532], [2.13866, 46.39554]]], [[[2.16414, 46.43563], [2.16311, 46.43324], [2.16351, 46.43153], [2.16487, 46.43026], [2.16772, 46.42931], [2.16799, 46.42878], [2.16767, 46.42831], [2.16417, 46.42727], [2.16358, 46.4275], [2.16379, 46.42959], [2.16314, 46.4309], [2.1618, 46.43194], [2.15995, 46.43258], [2.16001, 46.43299], [2.16414, 46.43563]]], [[[2.15971, 46.42142], [2.16114, 46.42402], [2.16264, 46.42342], [2.16303, 46.42274], [2.16293, 46.42024], [2.16472, 46.41853], [2.16814, 46.41771], [2.17129, 46.41837], [2.17315, 46.4171], [2.17005, 46.41663], [2.16807, 46.41708], [2.16468, 46.41715], [2.16229, 46.41648], [2.16287, 46.41804], [2.16252, 46.41939], [2.16139, 46.42063], [2.15971, 46.42142]]], [[[2.17824, 46.42171], [2.17725, 46.41973], [2.17662, 46.42015], [2.17612, 46.4217], [2.17709, 46.4232], [2.17703, 46.42487], [2.17832, 46.42576], [2.17993, 46.42798], [2.17997, 46.42935], [2.17925, 46.4306], [2.18096, 46.43078], [2.18223, 46.42977], [2.18409, 46.42919], [2.18103, 46.42826], [2.17914, 46.4262], [2.1786, 46.4245], [2.17936, 46.42272], [2.17824, 46.42171]]], [[[2.18057, 46.43576], [2.18061, 46.43475], [2.17964, 46.43458], [2.17631, 46.43557], [2.1755, 46.43663], [2.17397, 46.43754], [2.17058, 46.43822], [2.17263, 46.43996], [2.17829, 46.44261], [2.17657, 46.44084], [2.17626, 46.43883], [2.17735, 46.43722], [2.18057, 46.43576]]], [[[2.15873, 46.40636], [2.16, 46.40766], [2.16046, 46.4078], [2.16067, 46.40691], [2.15873, 46.40636]]], [[[2.16014, 46.40189], [2.16058, 46.40271], [2.16656, 46.4044], [2.16931, 46.40384], [2.17187, 46.40426], [2.17186, 46.40202], [2.1739, 46.40013], [2.172, 46.39963], [2.17047, 46.39866], [2.16939, 46.39638], [2.1694, 46.3984], [2.16803, 46.40017], [2.16453, 46.40205], [2.16215, 46.40231], [2.16014, 46.40189]]], [[[2.15912, 46.39494], [2.16161, 46.3939], [2.16163, 46.39279], [2.1624, 46.39145], [2.16047, 46.39164], [2.15784, 46.39138], [2.15629, 46.39083], [2.15493, 46.38983], [2.15442, 46.39095], [2.15493, 46.39485], [2.15352, 46.39698], [2.15701, 46.39653], [2.15912, 46.39494]]], [[[2.16517, 46.38631], [2.1674, 46.38899], [2.16879, 46.38816], [2.17153, 46.38745], [2.1721, 46.38704], [2.17081, 46.38573], [2.17048, 46.38438], [2.17068, 46.38235], [2.17153, 46.381], [2.1744, 46.37943], [2.17688, 46.37889], [2.17704, 46.37737], [2.17836, 46.3762], [2.17975, 46.37576], [2.18264, 46.37562], [2.18069, 46.37454], [2.17757, 46.37545], [2.17464, 46.37509], [2.17259, 46.37868], [2.17105, 46.37953], [2.16866, 46.37991], [2.165, 46.37905], [2.16345, 46.37773], [2.1629, 46.37649], [2.16197, 46.37602], [2.16135, 46.37671], [2.16133, 46.37823], [2.16303, 46.37859], [2.16483, 46.37956], [2.16619, 46.38133], [2.16675, 46.38392], [2.16622, 46.38527], [2.16517, 46.38631]]], [[[2.19716, 46.37687], [2.19429, 46.37535], [2.18915, 46.37839], [2.19179, 46.38005], [2.19609, 46.37893], [2.19857, 46.37901], [2.19975, 46.37713], [2.19716, 46.37687]]], [[[2.15996, 46.36739], [2.16028, 46.36738], [2.16029, 46.36719], [2.15996, 46.36739]]], [[[2.16715, 46.35617], [2.1672, 46.3582], [2.16901, 46.35784], [2.16822, 46.35637], [2.16856, 46.3543], [2.17009, 46.35285], [2.17253, 46.35208], [2.17051, 46.35112], [2.16783, 46.3524], [2.16486, 46.35252], [2.16448, 46.35342], [2.1663, 46.35456], [2.16715, 46.35617]]], [[[2.14148, 46.41282], [2.14429, 46.41153], [2.14704, 46.41122], [2.14982, 46.4119], [2.1514, 46.41325], [2.14977, 46.41088], [2.14962, 46.40909], [2.1492, 46.40894], [2.14628, 46.40995], [2.14437, 46.40996], [2.1424, 46.40946], [2.13977, 46.40974], [2.14148, 46.41282]]], [[[2.1416, 46.37216], [2.14313, 46.3729], [2.14611, 46.37323], [2.14835, 46.37422], [2.14645, 46.37055], [2.14507, 46.36982], [2.14362, 46.36827], [2.1416, 46.37216]]], [[[2.15399, 46.35659], [2.15455, 46.35632], [2.15475, 46.3559], [2.15399, 46.35659]]], [[[2.15726, 46.36824], [2.1574, 46.36844], [2.15808, 46.36806], [2.15726, 46.36824]]], [[[2.14706, 46.42116], [2.14996, 46.4204], [2.14941, 46.41936], [2.14736, 46.4197], [2.14568, 46.41954], [2.14706, 46.42116]]], [[[2.18957, 46.36754], [2.19364, 46.36631], [2.19447, 46.36299], [2.19177, 46.36243], [2.18527, 46.36565], [2.18663, 46.36674], [2.18957, 46.36754]]], [[[2.18179, 46.36115], [2.17984, 46.36278], [2.1815, 46.36276], [2.18954, 46.35879], [2.18937, 46.35806], [2.18657, 46.35748], [2.18498, 46.35663], [2.18321, 46.35368], [2.18144, 46.35295], [2.17956, 46.3539], [2.18059, 46.3551], [2.18073, 46.35707], [2.18214, 46.35923], [2.18179, 46.36115]]], [[[2.1945, 46.35218], [2.19367, 46.35203], [2.19305, 46.35184], [2.194, 46.35259], [2.1945, 46.35218]]], [[[2.19091, 46.34197], [2.19269, 46.34325], [2.1938, 46.34339], [2.1947, 46.34246], [2.19263, 46.34033], [2.19226, 46.3379], [2.19138, 46.33812], [2.19199, 46.33997], [2.19091, 46.34197]]], [[[2.18117, 46.34553], [2.17934, 46.34612], [2.18053, 46.34673], [2.18167, 46.34666], [2.18117, 46.34553]]], [[[2.17206, 46.36981], [2.17199, 46.3701], [2.1728, 46.36977], [2.17206, 46.36981]]], [[[2.19557, 46.43162], [2.19475, 46.43325], [2.19818, 46.43428], [2.19998, 46.43525], [2.20093, 46.43694], [2.20329, 46.43694], [2.20176, 46.43578], [2.20116, 46.43456], [2.19843, 46.43384], [2.19557, 46.43162]]], [[[2.19429, 46.44031], [2.19434, 46.44009], [2.19244, 46.44131], [2.19429, 46.44031]]], [[[2.18875, 46.42008], [2.18821, 46.42099], [2.19218, 46.42219], [2.19533, 46.42416], [2.19679, 46.4248], [2.19729, 46.42469], [2.19771, 46.42419], [2.19596, 46.42216], [2.19606, 46.42025], [2.19263, 46.42079], [2.19045, 46.42064], [2.18875, 46.42008]]], [[[2.19874, 46.41085], [2.19996, 46.41221], [2.20182, 46.41294], [2.20242, 46.41249], [2.20204, 46.41011], [2.19852, 46.4082], [2.19622, 46.40832], [2.19397, 46.4077], [2.19156, 46.40999], [2.19233, 46.41025], [2.19396, 46.40985], [2.19606, 46.40988], [2.19874, 46.41085]]], [[[2.19994, 46.39907], [2.19885, 46.39925], [2.19857, 46.40056], [2.20058, 46.40174], [2.1999, 46.40056], [2.19994, 46.39907]]], [[[2.19066, 46.39138], [2.19426, 46.38827], [2.19679, 46.38705], [2.19398, 46.38686], [2.19243, 46.38635], [2.18973, 46.38696], [2.18777, 46.38789], [2.18965, 46.39159], [2.18948, 46.39362], [2.19109, 46.395], [2.19021, 46.39321], [2.19066, 46.39138]]], [[[2.1876, 46.3999], [2.18765, 46.39803], [2.18502, 46.396], [2.18061, 46.39538], [2.17978, 46.39563], [2.17952, 46.39787], [2.17785, 46.39942], [2.18092, 46.40052], [2.18316, 46.40012], [2.18573, 46.40055], [2.1876, 46.3999]]], [[[2.17727, 46.41115], [2.17768, 46.41152], [2.178, 46.41132], [2.17727, 46.41115]]], [[[2.17991, 46.4063], [2.17881, 46.40744], [2.18015, 46.40774], [2.18142, 46.40694], [2.17991, 46.4063]]], [[[2.18112, 46.38573], [2.1794, 46.38705], [2.1814, 46.3862], [2.18112, 46.38573]]], [[[2.20519, 46.38513], [2.20497, 46.38542], [2.20543, 46.38531], [2.20519, 46.38513]]], [[[2.20522, 46.3792], [2.20589, 46.3796], [2.20682, 46.37922], [2.20663, 46.37919], [2.20522, 46.3792]]], [[[2.29262, 46.41067], [2.29345, 46.40724], [2.29463, 46.40583], [2.29393, 46.40505], [2.29167, 46.40637], [2.28839, 46.40662], [2.28647, 46.40859], [2.28367, 46.40926], [2.2876, 46.41067], [2.29011, 46.41026], [2.29262, 46.41067]]], [[[2.28124, 46.41638], [2.28435, 46.41575], [2.28332, 46.41474], [2.28301, 46.41343], [2.28142, 46.41284], [2.27847, 46.41354], [2.27572, 46.41309], [2.27615, 46.41452], [2.27566, 46.416], [2.27658, 46.41819], [2.27649, 46.41941], [2.27878, 46.41997], [2.27892, 46.41855], [2.27977, 46.41731], [2.28124, 46.41638]]], [[[2.26593, 46.4157], [2.26792, 46.41408], [2.26738, 46.41326], [2.26618, 46.41289], [2.2643, 46.41412], [2.26192, 46.41457], [2.25952, 46.41419], [2.25773, 46.41315], [2.25563, 46.41349], [2.25297, 46.41339], [2.25528, 46.41586], [2.25566, 46.4172], [2.2554, 46.4183], [2.25738, 46.41992], [2.25792, 46.4216], [2.25766, 46.42292], [2.25918, 46.42407], [2.25983, 46.42397], [2.26142, 46.42137], [2.26388, 46.41989], [2.26593, 46.4157]]], [[[2.26843, 46.42419], [2.26572, 46.42386], [2.26552, 46.42523], [2.26654, 46.42528], [2.26843, 46.42419]]], [[[2.29042, 46.39756], [2.29165, 46.39942], [2.29365, 46.4003], [2.29569, 46.39902], [2.29779, 46.39847], [2.29519, 46.39765], [2.29362, 46.39607], [2.29187, 46.39647], [2.29042, 46.39756]]], [[[2.28321, 46.39335], [2.28587, 46.39528], [2.28864, 46.3933], [2.29124, 46.3925], [2.28954, 46.39206], [2.28758, 46.39098], [2.28571, 46.3886], [2.28615, 46.38625], [2.28835, 46.38462], [2.29172, 46.38423], [2.29553, 46.3853], [2.29734, 46.38722], [2.29722, 46.38978], [2.29912, 46.38863], [2.30226, 46.38817], [2.30175, 46.38501], [2.30075, 46.38327], [2.30106, 46.38162], [2.29969, 46.37768], [2.29949, 46.37757], [2.29966, 46.37873], [2.2991, 46.38016], [2.29789, 46.38124], [2.29618, 46.38192], [2.29373, 46.38206], [2.29053, 46.38137], [2.28702, 46.3786], [2.28608, 46.37722], [2.2852, 46.37778], [2.28521, 46.37927], [2.28443, 46.3807], [2.28219, 46.38216], [2.28028, 46.38252], [2.27857, 46.38241], [2.27567, 46.38117], [2.27463, 46.3825], [2.27307, 46.38335], [2.26989, 46.38368], [2.26706, 46.38285], [2.26542, 46.38449], [2.26511, 46.38489], [2.26767, 46.38498], [2.26946, 46.38557], [2.27212, 46.38812], [2.27375, 46.38718], [2.27567, 46.38674], [2.27764, 46.38681], [2.27943, 46.3874], [2.28287, 46.3897], [2.28377, 46.39158], [2.28321, 46.39335]]], [[[2.25922, 46.38801], [2.25902, 46.38833], [2.25952, 46.38902], [2.25974, 46.38831], [2.25922, 46.38801]]], [[[2.25999, 46.38103], [2.26118, 46.38194], [2.26256, 46.38056], [2.26303, 46.37844], [2.26138, 46.37798], [2.25992, 46.37701], [2.25903, 46.37473], [2.25981, 46.37312], [2.26193, 46.37182], [2.26022, 46.37066], [2.25699, 46.37169], [2.25503, 46.37154], [2.25333, 46.3709], [2.25308, 46.37298], [2.25415, 46.37556], [2.25707, 46.37598], [2.25957, 46.37733], [2.26055, 46.37932], [2.25999, 46.38103]]], [[[2.24924, 46.38045], [2.24933, 46.37794], [2.24827, 46.37539], [2.24529, 46.37493], [2.24345, 46.37568], [2.24047, 46.37594], [2.23841, 46.37692], [2.24067, 46.37726], [2.24331, 46.37858], [2.24464, 46.37999], [2.24489, 46.38147], [2.24788, 46.3814], [2.24924, 46.38045]]], [[[2.26019, 46.36563], [2.26817, 46.37065], [2.27043, 46.37053], [2.27263, 46.37114], [2.27532, 46.37122], [2.28017, 46.36801], [2.28154, 46.36756], [2.28301, 46.36627], [2.28547, 46.36553], [2.28639, 46.36488], [2.28536, 46.36466], [2.28245, 46.36507], [2.27986, 46.36458], [2.2756, 46.36609], [2.2735, 46.36629], [2.27109, 46.36592], [2.26908, 46.36467], [2.26309, 46.3659], [2.26019, 46.36563]]], [[[2.29648, 46.39091], [2.29534, 46.39178], [2.29634, 46.39142], [2.29648, 46.39091]]], [[[2.29495, 46.37419], [2.29635, 46.37493], [2.29595, 46.37307], [2.2968, 46.37148], [2.29555, 46.36943], [2.29604, 46.37121], [2.29495, 46.37419]]], [[[2.22617, 46.43262], [2.23067, 46.43256], [2.23403, 46.43116], [2.23481, 46.43008], [2.23292, 46.42944], [2.2314, 46.42809], [2.23093, 46.42604], [2.23149, 46.42452], [2.2307, 46.4236], [2.22779, 46.42436], [2.22767, 46.42605], [2.22625, 46.42764], [2.22728, 46.42871], [2.22768, 46.43009], [2.2273, 46.43146], [2.22617, 46.43262]]], [[[2.24293, 46.42274], [2.24308, 46.42516], [2.24508, 46.42591], [2.24647, 46.42723], [2.24756, 46.42734], [2.24802, 46.42506], [2.24659, 46.42384], [2.24381, 46.42281], [2.24005, 46.41978], [2.23974, 46.4201], [2.24293, 46.42274]]], [[[2.23783, 46.41416], [2.23688, 46.41437], [2.23626, 46.41443], [2.23726, 46.41458], [2.23783, 46.41416]]], [[[2.22175, 46.38006], [2.22177, 46.38004], [2.22168, 46.38001], [2.22175, 46.38006]]], [[[2.21664, 46.36696], [2.21749, 46.36866], [2.21888, 46.36897], [2.21959, 46.36757], [2.21769, 46.36557], [2.21664, 46.36696]]], [[[2.22792, 46.36797], [2.22483, 46.36896], [2.22704, 46.36929], [2.22955, 46.36788], [2.23181, 46.3672], [2.22968, 46.36635], [2.22792, 46.36797]]], [[[2.25645, 46.44226], [2.25595, 46.44241], [2.25649, 46.44285], [2.25645, 46.44226]]], [[[2.2552, 46.40577], [2.25706, 46.40515], [2.25883, 46.40508], [2.25791, 46.40443], [2.25477, 46.40556], [2.2552, 46.40577]]], [[[2.27097, 46.40013], [2.27175, 46.40202], [2.27625, 46.40071], [2.27709, 46.40008], [2.2753, 46.39818], [2.27542, 46.39527], [2.27365, 46.3944], [2.27202, 46.3925], [2.27075, 46.3925], [2.26674, 46.39432], [2.26634, 46.39524], [2.26898, 46.39599], [2.27039, 46.39696], [2.27115, 46.39822], [2.27097, 46.40013]]], [[[2.28143, 46.42335], [2.28185, 46.42273], [2.28134, 46.42256], [2.28143, 46.42304], [2.28143, 46.42335]]], [[[2.26616, 46.42914], [2.26576, 46.42955], [2.26664, 46.42964], [2.26616, 46.42914]]], [[[2.25196, 46.36327], [2.25228, 46.36333], [2.25228, 46.36333], [2.25196, 46.36327]]], [[[2.2585, 46.36486], [2.25815, 46.36462], [2.2561, 46.36415], [2.25676, 46.36461], [2.2585, 46.36486]]], [[[2.25129, 46.3392], [2.25183, 46.33976], [2.2519, 46.33986], [2.25201, 46.3394], [2.25129, 46.3392]]], [[[2.29999, 46.39859], [2.30079, 46.39879], [2.30193, 46.3992], [2.30206, 46.39861], [2.29999, 46.39859]]]]}, "properties": {"kind": "windland", "area_km2": 12.38}}, {"type": "Feature", "geometry": {"type": "MultiPolygon", "coordinates": [[[[2.20558, 46.37447], [2.20603, 46.37431], [2.20517, 46.3743], [2.20558, 46.37447]]], [[[2.19389, 46.38305], [2.19406, 46.3826], [2.19458, 46.38237], [2.19613, 46.38263], [2.19643, 46.38206], [2.19693, 46.38183], [2.1975, 46.38189], [2.19801, 46.3822], [2.1983, 46.38284], [2.20038, 46.38228], [2.20061, 46.38204], [2.20069, 46.3798], [2.20411, 46.3743], [2.19345, 46.37422], [2.19343, 46.37587], [2.19429, 46.37535], [2.19519, 46.37603], [2.19672, 46.37673], [2.1981, 46.37706], [2.19975, 46.37713], [2.19857, 46.37901], [2.19658, 46.37888], [2.19338, 46.37953], [2.19333, 46.38296], [2.19389, 46.38305]]], [[[2.20603, 46.37626], [2.20537, 46.37613], [2.20504, 46.37561], [2.2044, 46.37525], [2.20144, 46.37997], [2.20139, 46.38165], [2.20258, 46.38154], [2.20297, 46.3818], [2.20305, 46.38224], [2.20426, 46.38261], [2.20541, 46.38274], [2.20636, 46.38263], [2.20846, 46.38184], [2.20975, 46.38182], [2.21053, 46.38133], [2.21105, 46.38123], [2.21164, 46.38136], [2.21235, 46.38195], [2.21241, 46.38253], [2.21122, 46.38305], [2.21, 46.38278], [2.20977, 46.3832], [2.20911, 46.38338], [2.20841, 46.38319], [2.20813, 46.38256], [2.20667, 46.38312], [2.20571, 46.38326], [2.20454, 46.38323], [2.20266, 46.38274], [2.2014, 46.38307], [2.20131, 46.38529], [2.1989, 46.38964], [2.20241, 46.38883], [2.20714, 46.38813], [2.20779, 46.38842], [2.20799, 46.38894], [2.20945, 46.38943], [2.20954, 46.39016], [2.20883, 46.3906], [2.2071, 46.3903], [2.20616, 46.38979], [2.20619, 46.38917], [2.20594, 46.3889], [2.20549, 46.38889], [2.19957, 46.39005], [2.19978, 46.39069], [2.19915, 46.39104], [2.19891, 46.3915], [2.19839, 46.3917], [2.19779, 46.39159], [2.19739, 46.3923], [2.1974, 46.39335], [2.20122, 46.39452], [2.20284, 46.39452], [2.20377, 46.39402], [2.20567, 46.39367], [2.20587, 46.39333], [2.20642, 46.3931], [2.2078, 46.39354], [2.20879, 46.3934], [2.21006, 46.39372], [2.21131, 46.39363], [2.21172, 46.39321], [2.21265, 46.39314], [2.21335, 46.39347], [2.21354, 46.39424], [2.21319, 46.39458], [2.21256, 46.39468], [2.21185, 46.39457], [2.2115, 46.39416], [2.20975, 46.39425], [2.20858, 46.39393], [2.20787, 46.3941], [2.20783, 46.39447], [2.20741, 46.39477], [2.20666, 46.39606], [2.20457, 46.39652], [2.20566, 46.39707], [2.20573, 46.39813], [2.20614, 46.39856], [2.20575, 46.3994], [2.20606, 46.39967], [2.20607, 46.40006], [2.20575, 46.40037], [2.2053, 46.40047], [2.20443, 46.40033], [2.20409, 46.39994], [2.20419, 46.39955], [2.2046, 46.3993], [2.2043, 46.39857], [2.20448, 46.39827], [2.20494, 46.39809], [2.20493, 46.39733], [2.20361, 46.39675], [2.20339, 46.39642], [2.20364, 46.39614], [2.20469, 46.39594], [2.20448, 46.39544], [2.20481, 46.39494], [2.20579, 46.39473], [2.2066, 46.39479], [2.20579, 46.39421], [2.20408, 46.39452], [2.20308, 46.39504], [2.2011, 46.39506], [2.19658, 46.39374], [2.19607, 46.39466], [2.19726, 46.39495], [2.19786, 46.39472], [2.19839, 46.39474], [2.19888, 46.39504], [2.19906, 46.39545], [2.19892, 46.39599], [2.19846, 46.39629], [2.19799, 46.3963], [2.19691, 46.39595], [2.19598, 46.40124], [2.20001, 46.40127], [2.19857, 46.40056], [2.19885, 46.39925], [2.19994, 46.39907], [2.19983, 46.40023], [2.20023, 46.40127], [2.20606, 46.40131], [2.20602, 46.40448], [2.2072, 46.40453], [2.20783, 46.40519], [2.21057, 46.40587], [2.2152, 46.40643], [2.21583, 46.40693], [2.21598, 46.40763], [2.21644, 46.40767], [2.21714, 46.40743], [2.21797, 46.40765], [2.21834, 46.40814], [2.21857, 46.40942], [2.21975, 46.41028], [2.22008, 46.41041], [2.22248, 46.41042], [2.22251, 46.41004], [2.22203, 46.4096], [2.22211, 46.40885], [2.22069, 46.40842], [2.22028, 46.40782], [2.22075, 46.40707], [2.2215, 46.40689], [2.22172, 46.40657], [2.22216, 46.40641], [2.22153, 46.40572], [2.21987, 46.40516], [2.21944, 46.40362], [2.21859, 46.40253], [2.21801, 46.4022], [2.21804, 46.40159], [2.21696, 46.40034], [2.21665, 46.3995], [2.21693, 46.3993], [2.21731, 46.39937], [2.21766, 46.4001], [2.21875, 46.40136], [2.21951, 46.40165], [2.21963, 46.40202], [2.21936, 46.40238], [2.22035, 46.40378], [2.22056, 46.40489], [2.22201, 46.4053], [2.22289, 46.40619], [2.22404, 46.4055], [2.22313, 46.40508], [2.22298, 46.40461], [2.2233, 46.40418], [2.22401, 46.40403], [2.22547, 46.40455], [2.22681, 46.40342], [2.22563, 46.40229], [2.22509, 46.40202], [2.22491, 46.40166], [2.22534, 46.4012], [2.22651, 46.40125], [2.22702, 46.40088], [2.22734, 46.40032], [2.22703, 46.39958], [2.22735, 46.39854], [2.22733, 46.39751], [2.22709, 46.39725], [2.22534, 46.3965], [2.2243, 46.3955], [2.22371, 46.39448], [2.22096, 46.3945], [2.21908, 46.39415], [2.21788, 46.3942], [2.21653, 46.39337], [2.21636, 46.39257], [2.21685, 46.39215], [2.21819, 46.39197], [2.21879, 46.39236], [2.21884, 46.39293], [2.21948, 46.39326], [2.21961, 46.3937], [2.22102, 46.39396], [2.22341, 46.39394], [2.22322, 46.393], [2.22426, 46.39113], [2.22601, 46.39002], [2.22678, 46.38882], [2.22977, 46.38793], [2.23006, 46.38758], [2.23008, 46.38705], [2.22874, 46.38469], [2.2253, 46.38568], [2.22262, 46.38428], [2.22124, 46.38385], [2.2203, 46.38379], [2.21993, 46.38426], [2.21929, 46.38439], [2.21855, 46.38423], [2.21679, 46.38334], [2.21662, 46.38241], [2.21733, 46.38188], [2.21784, 46.38178], [2.21851, 46.382], [2.21874, 46.38253], [2.21932, 46.38271], [2.22001, 46.38325], [2.2213, 46.3833], [2.22284, 46.38374], [2.2254, 46.38514], [2.22845, 46.38419], [2.22742, 46.38235], [2.22665, 46.38225], [2.22598, 46.38152], [2.22605, 46.38046], [2.22552, 46.37967], [2.2248, 46.37733], [2.22443, 46.37721], [2.2236, 46.37736], [2.22206, 46.37662], [2.22229, 46.37524], [2.22277, 46.37499], [2.22367, 46.37495], [2.22347, 46.37485], [2.22277, 46.37476], [2.22226, 46.37442], [2.21623, 46.37445], [2.21642, 46.37484], [2.21614, 46.37559], [2.2157, 46.3758], [2.21493, 46.37581], [2.21354, 46.37521], [2.21368, 46.37436], [2.20843, 46.37433], [2.20888, 46.3749], [2.2087, 46.37617], [2.20822, 46.37634], [2.20747, 46.37626], [2.20683, 46.37532], [2.20669, 46.37598], [2.20603, 46.37626]], [[2.20589, 46.3796], [2.20522, 46.3792], [2.20682, 46.37922], [2.20648, 46.37933], [2.20589, 46.3796]], [[2.20543, 46.38531], [2.20497, 46.38542], [2.20487, 46.38545], [2.20519, 46.38513], [2.20543, 46.38531]], [[2.21687, 46.37865], [2.21839, 46.37815], [2.21933, 46.37898], [2.21709, 46.37885], [2.21491, 46.37944], [2.21342, 46.37866], [2.21165, 46.3783], [2.21194, 46.3781], [2.21291, 46.37848], [2.21435, 46.37875], [2.21687, 46.37865]], [[2.22175, 46.38006], [2.22168, 46.38001], [2.22177, 46.38004], [2.22175, 46.38006]], [[2.21797, 46.38899], [2.21547, 46.38934], [2.21435, 46.38855], [2.21332, 46.38814], [2.21233, 46.38724], [2.21062, 46.38618], [2.2138, 46.38551], [2.21661, 46.38687], [2.21817, 46.38725], [2.22059, 46.38726], [2.22275, 46.38648], [2.22415, 46.38716], [2.22571, 46.38733], [2.22477, 46.38788], [2.22399, 46.38902], [2.22282, 46.38972], [2.22207, 46.39044], [2.22081, 46.3896], [2.21946, 46.38915], [2.21797, 46.38899]], [[2.212, 46.39108], [2.21209, 46.39152], [2.21173, 46.39186], [2.21104, 46.39193], [2.21056, 46.39169], [2.21045, 46.39124], [2.21081, 46.3909], [2.21151, 46.39083], [2.212, 46.39108]], [[2.21032, 46.40041], [2.21044, 46.39872], [2.21025, 46.3977], [2.21052, 46.3974], [2.21202, 46.39762], [2.2135, 46.39758], [2.21499, 46.39726], [2.21595, 46.39684], [2.21769, 46.39719], [2.21939, 46.39714], [2.22163, 46.39653], [2.22299, 46.39802], [2.22276, 46.39971], [2.22122, 46.39882], [2.21928, 46.39842], [2.21863, 46.39798], [2.21764, 46.39767], [2.21628, 46.3977], [2.21491, 46.3983], [2.21431, 46.39914], [2.21437, 46.40014], [2.21386, 46.4009], [2.21364, 46.40192], [2.21402, 46.40327], [2.21545, 46.40466], [2.21526, 46.40471], [2.21204, 46.40443], [2.21091, 46.4029], [2.20939, 46.40198], [2.21032, 46.40041]]], [[[2.20048, 46.38283], [2.19849, 46.38338], [2.1978, 46.3838], [2.1972, 46.38369], [2.19635, 46.38318], [2.19633, 46.38375], [2.19562, 46.38406], [2.19498, 46.38397], [2.19426, 46.38358], [2.19332, 46.38353], [2.19327, 46.38668], [2.19465, 46.38697], [2.19679, 46.38705], [2.19462, 46.38803], [2.19323, 46.38937], [2.1931, 46.39842], [2.19576, 46.39372], [2.19464, 46.39335], [2.19433, 46.39249], [2.19572, 46.39182], [2.19681, 46.39184], [2.19727, 46.39104], [2.19724, 46.39046], [2.19781, 46.39008], [2.20056, 46.38515], [2.20062, 46.3846], [2.19968, 46.3847], [2.19882, 46.38444], [2.19852, 46.38413], [2.19857, 46.38362], [2.19901, 46.38334], [2.20062, 46.38357], [2.20048, 46.38283]]], [[[2.19519, 46.40123], [2.19623, 46.39526], [2.19578, 46.39516], [2.19344, 46.39928], [2.19381, 46.39963], [2.19377, 46.40006], [2.19433, 46.40123], [2.19519, 46.40123]]], [[[2.19317, 46.40052], [2.19306, 46.40122], [2.19351, 46.40122], [2.19317, 46.40052]]], [[[2.22672, 46.39645], [2.22691, 46.39606], [2.22555, 46.39579], [2.22611, 46.39626], [2.22672, 46.39645]]], [[[2.21406, 46.40998], [2.21557, 46.40809], [2.21519, 46.40776], [2.2149, 46.40694], [2.21126, 46.40657], [2.20799, 46.40578], [2.20712, 46.40639], [2.20599, 46.40645], [2.20593, 46.41031], [2.20743, 46.4101], [2.20815, 46.40974], [2.20885, 46.4099], [2.2091, 46.41033], [2.21401, 46.41036], [2.21406, 46.40998]]], [[[2.21783, 46.40976], [2.21714, 46.40955], [2.21671, 46.40911], [2.21668, 46.40853], [2.21628, 46.40843], [2.21579, 46.40877], [2.21479, 46.41037], [2.21883, 46.4104], [2.21783, 46.40976]]], [[[2.22397, 46.37443], [2.22542, 46.37607], [2.22535, 46.3765], [2.22639, 46.37976], [2.22669, 46.38014], [2.22744, 46.38021], [2.228, 46.38064], [2.22778, 46.38123], [2.22821, 46.38165], [2.22822, 46.38228], [2.22959, 46.38226], [2.23152, 46.3815], [2.23175, 46.38105], [2.23237, 46.38069], [2.2324, 46.37891], [2.23166, 46.37908], [2.23069, 46.37824], [2.22935, 46.37756], [2.22972, 46.3763], [2.23117, 46.37663], [2.23243, 46.37669], [2.23246, 46.37449], [2.22397, 46.37443]]], [[[2.23222, 46.38176], [2.22992, 46.38274], [2.22884, 46.38279], [2.2317, 46.38511], [2.23363, 46.38712], [2.23407, 46.38779], [2.23525, 46.39118], [2.23796, 46.39388], [2.23929, 46.39345], [2.24028, 46.3936], [2.24098, 46.39403], [2.24108, 46.39443], [2.24087, 46.39477], [2.23996, 46.39539], [2.23922, 46.39539], [2.23903, 46.39752], [2.2451, 46.4008], [2.24513, 46.39868], [2.243, 46.3975], [2.24459, 46.39625], [2.24517, 46.39533], [2.2452, 46.39347], [2.24487, 46.3928], [2.24371, 46.39169], [2.24203, 46.39089], [2.23966, 46.3905], [2.23767, 46.39066], [2.23741, 46.39044], [2.2364, 46.38737], [2.23591, 46.38655], [2.23353, 46.38403], [2.23288, 46.38349], [2.23233, 46.38349], [2.23236, 46.38148], [2.23222, 46.38176]]], [[[2.2341, 46.3835], [2.236, 46.38477], [2.23735, 46.38516], [2.23879, 46.38527], [2.24006, 46.38515], [2.24035, 46.38654], [2.24135, 46.38774], [2.24305, 46.38872], [2.24526, 46.38917], [2.2453, 46.38619], [2.24452, 46.38574], [2.24433, 46.38533], [2.24484, 46.38462], [2.24532, 46.38441], [2.24534, 46.38358], [2.2341, 46.3835]]], [[[2.23307, 46.38753], [2.22904, 46.38373], [2.23083, 46.3869], [2.23141, 46.38973], [2.23214, 46.38992], [2.2323, 46.39049], [2.23198, 46.39079], [2.23143, 46.39092], [2.23056, 46.39064], [2.23038, 46.38828], [2.22958, 46.38864], [2.22727, 46.38924], [2.22694, 46.38993], [2.22809, 46.39063], [2.22953, 46.39202], [2.23, 46.39222], [2.23015, 46.39272], [2.22934, 46.39366], [2.22853, 46.3938], [2.22744, 46.39351], [2.22687, 46.39307], [2.22694, 46.39253], [2.22741, 46.39226], [2.22819, 46.39231], [2.22864, 46.39194], [2.22655, 46.39041], [2.22491, 46.39143], [2.22398, 46.39311], [2.2249, 46.39514], [2.22557, 46.39524], [2.22587, 46.3948], [2.22665, 46.39464], [2.22765, 46.39521], [2.22753, 46.39585], [2.22826, 46.39546], [2.22907, 46.39567], [2.22926, 46.39607], [2.22895, 46.39668], [2.22782, 46.39699], [2.2281, 46.39742], [2.22813, 46.39834], [2.22858, 46.3985], [2.22855, 46.39814], [2.2289, 46.3978], [2.22976, 46.39767], [2.2308, 46.39844], [2.23073, 46.39881], [2.23022, 46.39916], [2.23071, 46.39953], [2.23059, 46.40002], [2.23136, 46.40007], [2.23262, 46.39978], [2.23445, 46.40013], [2.2347, 46.40076], [2.23451, 46.40116], [2.23287, 46.40149], [2.24041, 46.40154], [2.24094, 46.40132], [2.24139, 46.40155], [2.24509, 46.40157], [2.24509, 46.40144], [2.23882, 46.39817], [2.23886, 46.39852], [2.23851, 46.39888], [2.23754, 46.399], [2.23702, 46.39879], [2.23669, 46.39828], [2.23546, 46.39775], [2.23537, 46.39736], [2.2357, 46.39681], [2.23637, 46.39651], [2.23744, 46.39682], [2.2377, 46.39713], [2.2377, 46.39767], [2.2382, 46.3977], [2.23843, 46.39541], [2.23454, 46.39142], [2.23307, 46.38753]]], [[[2.231, 46.40124], [2.231, 46.40063], [2.22888, 46.40018], [2.22913, 46.40069], [2.22868, 46.40136], [2.22752, 46.40135], [2.22655, 46.40179], [2.2257, 46.40168], [2.22623, 46.40194], [2.2276, 46.40326], [2.22745, 46.40375], [2.226, 46.40496], [2.2266, 46.40545], [2.22666, 46.40587], [2.22623, 46.40623], [2.22571, 46.40631], [2.22475, 46.40579], [2.22344, 46.40658], [2.22332, 46.40683], [2.22405, 46.40763], [2.22559, 46.40763], [2.2293, 46.40875], [2.23025, 46.40931], [2.23197, 46.40961], [2.23199, 46.40795], [2.23042, 46.40729], [2.23097, 46.40575], [2.23065, 46.40449], [2.23204, 46.40462], [2.23208, 46.40167], [2.23137, 46.40152], [2.231, 46.40124]]], [[[2.23196, 46.41015], [2.22989, 46.40979], [2.22839, 46.40904], [2.22537, 46.40815], [2.2243, 46.40814], [2.22385, 46.40865], [2.22288, 46.40877], [2.2236, 46.40893], [2.22393, 46.40928], [2.22388, 46.40983], [2.22329, 46.41016], [2.22327, 46.41043], [2.23195, 46.41049], [2.23196, 46.41015]]]]}, "properties": {"kind": "pv", "area_km2": 9.58, "mw": 479.2}}, {"type": "Feature", "geometry": {"type": "Point", "coordinates": [2.21482, 46.38624]}, "properties": {"kind": "turbine", "i": 0, "mw": 6.0, "hub_m": 120.0, "rotor_m": 150.0}}, {"type": "Feature", "geometry": {"type": "Point", "coordinates": [2.2121, 46.4007]}, "properties": {"kind": "turbine", "i": 1, "mw": 6.0, "hub_m": 120.0, "rotor_m": 150.0}}, {"type": "Feature", "geometry": {"type": "Point", "coordinates": [2.23857, 46.3864]}, "properties": {"kind": "turbine", "i": 2, "mw": 6.0, "hub_m": 120.0, "rotor_m": 150.0}}, {"type": "Feature", "geometry": {"type": "Point", "coordinates": [2.23834, 46.40283]}, "properties": {"kind": "turbine", "i": 3, "mw": 6.0, "hub_m": 120.0, "rotor_m": 150.0}}, {"type": "Feature", "geometry": {"type": "Point", "coordinates": [2.19103, 46.38936]}, "properties": {"kind": "turbine", "i": 4, "mw": 6.0, "hub_m": 120.0, "rotor_m": 150.0}}, {"type": "Feature", "geometry": {"type": "Point", "coordinates": [2.2287, 46.41262]}, "properties": {"kind": "turbine", "i": 5, "mw": 6.0, "hub_m": 120.0, "rotor_m": 150.0}}, {"type": "Feature", "geometry": {"type": "Point", "coordinates": [2.24345, 46.37657]}, "properties": {"kind": "turbine", "i": 6, "mw": 6.0, "hub_m": 120.0, "rotor_m": 150.0}}, {"type": "Feature", "geometry": {"type": "Point", "coordinates": [2.19118, 46.3795]}, "properties": {"kind": "turbine", "i": 7, "mw": 6.0, "hub_m": 120.0, "rotor_m": 150.0}}, {"type": "Feature", "geometry": {"type": "Point", "coordinates": [2.19549, 46.40911]}, "properties": {"kind": "turbine", "i": 8, "mw": 6.0, "hub_m": 120.0, "rotor_m": 150.0}}, {"type": "Feature", "geometry": {"type": "Point", "coordinates": [2.18139, 46.39915]}, "properties": {"kind": "turbine", "i": 9, "mw": 6.0, "hub_m": 120.0, "rotor_m": 150.0}}, {"type": "Feature", "geometry": {"type": "Point", "coordinates": [2.2624, 46.37998]}, "properties": {"kind": "turbine", "i": 10, "mw": 6.0, "hub_m": 120.0, "rotor_m": 150.0}}, {"type": "Feature", "geometry": {"type": "Point", "coordinates": [2.17699, 46.37611]}, "properties": {"kind": "turbine", "i": 11, "mw": 6.0, "hub_m": 120.0, "rotor_m": 150.0}}, {"type": "Feature", "geometry": {"type": "Point", "coordinates": [2.22851, 46.42576]}, "properties": {"kind": "turbine", "i": 12, "mw": 6.0, "hub_m": 120.0, "rotor_m": 150.0}}, {"type": "Feature", "geometry": {"type": "Point", "coordinates": [2.1953, 46.42225]}, "properties": {"kind": "turbine", "i": 13, "mw": 6.0, "hub_m": 120.0, "rotor_m": 150.0}}, {"type": "Feature", "geometry": {"type": "Point", "coordinates": [2.18663, 46.36632]}, "properties": {"kind": "turbine", "i": 14, "mw": 6.0, "hub_m": 120.0, "rotor_m": 150.0}}, {"type": "Feature", "geometry": {"type": "Point", "coordinates": [2.25716, 46.4161]}, "properties": {"kind": "turbine", "i": 15, "mw": 6.0, "hub_m": 120.0, "rotor_m": 150.0}}, {"type": "Feature", "geometry": {"type": "Point", "coordinates": [2.27172, 46.39319]}, "properties": {"kind": "turbine", "i": 16, "mw": 6.0, "hub_m": 120.0, "rotor_m": 150.0}}, {"type": "Feature", "geometry": {"type": "Point", "coordinates": [2.16734, 46.3859]}, "properties": {"kind": "turbine", "i": 17, "mw": 6.0, "hub_m": 120.0, "rotor_m": 150.0}}, {"type": "Feature", "geometry": {"type": "Point", "coordinates": [2.24752, 46.42589]}, "properties": {"kind": "turbine", "i": 18, "mw": 6.0, "hub_m": 120.0, "rotor_m": 150.0}}, {"type": "Feature", "geometry": {"type": "Point", "coordinates": [2.26257, 46.36684]}, "properties": {"kind": "turbine", "i": 19, "mw": 6.0, "hub_m": 120.0, "rotor_m": 150.0}}, {"type": "Feature", "geometry": {"type": "Point", "coordinates": [2.2766, 46.38336]}, "properties": {"kind": "turbine", "i": 20, "mw": 6.0, "hub_m": 120.0, "rotor_m": 150.0}}, {"type": "Feature", "geometry": {"type": "Point", "coordinates": [2.15769, 46.39569]}, "properties": {"kind": "turbine", "i": 21, "mw": 6.0, "hub_m": 120.0, "rotor_m": 150.0}}, {"type": "Feature", "geometry": {"type": "Point", "coordinates": [2.19515, 46.43211]}, "properties": {"kind": "turbine", "i": 22, "mw": 6.0, "hub_m": 120.0, "rotor_m": 150.0}}, {"type": "Feature", "geometry": {"type": "Point", "coordinates": [2.18203, 46.35643]}, "properties": {"kind": "turbine", "i": 23, "mw": 6.0, "hub_m": 120.0, "rotor_m": 150.0}}, {"type": "Feature", "geometry": {"type": "Point", "coordinates": [2.18095, 46.42872]}, "properties": {"kind": "turbine", "i": 24, "mw": 6.0, "hub_m": 120.0, "rotor_m": 150.0}}, {"type": "Feature", "geometry": {"type": "Point", "coordinates": [2.28575, 46.40971]}, "properties": {"kind": "turbine", "i": 25, "mw": 6.0, "hub_m": 120.0, "rotor_m": 150.0}}, {"type": "Feature", "geometry": {"type": "Point", "coordinates": [2.16204, 46.42201]}, "properties": {"kind": "turbine", "i": 26, "mw": 6.0, "hub_m": 120.0, "rotor_m": 150.0}}, {"type": "Feature", "geometry": {"type": "Point", "coordinates": [2.25805, 46.35038]}, "properties": {"kind": "turbine", "i": 27, "mw": 6.0, "hub_m": 120.0, "rotor_m": 150.0}}, {"type": "Feature", "geometry": {"type": "Point", "coordinates": [2.28156, 46.36696]}, "properties": {"kind": "turbine", "i": 28, "mw": 6.0, "hub_m": 120.0, "rotor_m": 150.0}}, {"type": "Feature", "geometry": {"type": "Point", "coordinates": [2.1436, 46.38573]}, "properties": {"kind": "turbine", "i": 29, "mw": 6.0, "hub_m": 120.0, "rotor_m": 150.0}}]}