{"type": "FeatureCollection", "features": [{"type": "Feature", "geometry": {"type": "MultiPolygon", "coordinates": [[[[2.21091, 46.4029], [2.21204, 46.40443], [2.21545, 46.40466], [2.21405, 46.40332], [2.21364, 46.40192], [2.21438, 46.39896], [2.21577, 46.39783], [2.21816, 46.39779], [2.22276, 46.39971], [2.22299, 46.39802], [2.22163, 46.39653], [2.21939, 46.39714], [2.21595, 46.39684], [2.2135, 46.39758], [2.21052, 46.3974], [2.21031, 46.40047], [2.20939, 46.40198], [2.21091, 46.4029]]], [[[2.21062, 46.38618], [2.21547, 46.38934], [2.21897, 46.38906], [2.22081, 46.3896], [2.22207, 46.39044], [2.22571, 46.38733], [2.22415, 46.38716], [2.22275, 46.38648], [2.22059, 46.38726], [2.21817, 46.38725], [2.2138, 46.38551], [2.21062, 46.38618]]], [[[2.22935, 46.37756], [2.23166, 46.37908], [2.23369, 46.37873], [2.23651, 46.37718], [2.22972, 46.3763], [2.22935, 46.37756]]], [[[2.23688, 46.38506], [2.23374, 46.38308], [2.23288, 46.38349], [2.23605, 46.38673], [2.23757, 46.39057], [2.23966, 46.3905], [2.24203, 46.39089], [2.24371, 46.39169], [2.24487, 46.3928], [2.24519, 46.3953], [2.243, 46.3975], [2.24513, 46.39868], [2.24579, 46.39739], [2.24692, 46.39648], [2.24738, 46.39451], [2.24751, 46.39205], [2.24663, 46.39058], [2.24675, 46.38907], [2.24444, 46.38909], [2.24263, 46.38854], [2.24077, 46.38717], [2.24006, 46.38515], [2.23688, 46.38506]]], [[[2.24317, 46.40256], [2.24094, 46.40132], [2.2387, 46.40194], [2.23775, 46.40309], [2.23618, 46.40393], [2.23302, 46.40458], [2.23065, 46.40449], [2.23097, 46.40575], [2.23042, 46.40729], [2.2322, 46.40795], [2.23407, 46.40732], [2.23475, 46.40587], [2.23615, 46.40482], [2.23892, 46.40413], [2.24146, 46.40451], [2.24317, 46.40256]]], [[[2.22817, 46.41098], [2.2279, 46.41084], [2.22775, 46.41108], [2.22817, 46.41098]]], [[[2.21589, 46.37877], [2.21194, 46.3781], [2.21165, 46.3783], [2.21342, 46.37866], [2.21491, 46.37944], [2.21709, 46.37885], [2.21933, 46.37898], [2.21839, 46.37815], [2.21589, 46.37877]]], [[[2.19854, 46.37901], [2.19857, 46.37901], [2.1986, 46.37896], [2.19854, 46.37901]]], [[[2.19994, 46.39907], [2.19885, 46.39925], [2.19857, 46.40056], [2.20058, 46.40174], [2.1999, 46.40056], [2.19994, 46.39907]]], [[[2.19107, 46.39075], [2.19462, 46.38803], [2.19679, 46.38705], [2.19219, 46.38646], [2.19107, 46.39075]]], [[[2.20519, 46.38513], [2.20497, 46.38542], [2.20543, 46.38531], [2.20519, 46.38513]]], [[[2.20522, 46.3792], [2.20589, 46.3796], [2.20682, 46.37922], [2.20663, 46.37919], [2.20522, 46.3792]]], [[[2.22175, 46.38006], [2.22177, 46.38004], [2.22168, 46.38001], [2.22175, 46.38006]]]]}, "properties": {"kind": "windland", "area_km2": 1.48}}, {"type": "Feature", "geometry": {"type": "Polygon", "coordinates": [[[2.21931, 46.38439], [2.21862, 46.38426], [2.21682, 46.38338], [2.20632, 46.38331], [2.20625, 46.38828], [2.20699, 46.38813], [2.20751, 46.38822], [2.20799, 46.38894], [2.20933, 46.38935], [2.20964, 46.38978], [2.20936, 46.39039], [2.20875, 46.3906], [2.2071, 46.3903], [2.20623, 46.38986], [2.20619, 46.39231], [2.21646, 46.39238], [2.21692, 46.39213], [2.21796, 46.39195], [2.2184, 46.39205], [2.21882, 46.3924], [2.2192, 46.3924], [2.21925, 46.38911], [2.21747, 46.38901], [2.21547, 46.38934], [2.21435, 46.38855], [2.21332, 46.38814], [2.21233, 46.38724], [2.21062, 46.38618], [2.2138, 46.38551], [2.21661, 46.38687], [2.21927, 46.38735], [2.21931, 46.38439]], [[2.21166, 46.39086], [2.21207, 46.39118], [2.21201, 46.39167], [2.21152, 46.39192], [2.21083, 46.39187], [2.21046, 46.39154], [2.21054, 46.39109], [2.21103, 46.39084], [2.21166, 46.39086]]]}, "properties": {"kind": "pv", "area_km2": 0.78, "mw": 38.9}}, {"type": "Feature", "geometry": {"type": "Point", "coordinates": [2.21482, 46.38624]}, "properties": {"kind": "turbine", "i": 0, "mw": 6.0, "hub_m": 120.0, "rotor_m": 150.0}}, {"type": "Feature", "geometry": {"type": "Point", "coordinates": [2.2121, 46.4007]}, "properties": {"kind": "turbine", "i": 1, "mw": 6.0, "hub_m": 120.0, "rotor_m": 150.0}}, {"type": "Feature", "geometry": {"type": "Point", "coordinates": [2.23857, 46.3864]}, "properties": {"kind": "turbine", "i": 2, "mw": 6.0, "hub_m": 120.0, "rotor_m": 150.0}}]}