{"type": "FeatureCollection", "features": [{"type": "Feature", "geometry": {"type": "MultiPolygon", "coordinates": [[[[2.24774, 46.29373], [2.24707, 46.29194], [2.24729, 46.28841], [2.24583, 46.28852], [2.24591, 46.29069], [2.24423, 46.29247], [2.24132, 46.29332], [2.23808, 46.29279], [2.23654, 46.29345], [2.2361, 46.29462], [2.23624, 46.29675], [2.23762, 46.29861], [2.23761, 46.30066], [2.24103, 46.30143], [2.24502, 46.30177], [2.24814, 46.30346], [2.24722, 46.30195], [2.24711, 46.30073], [2.24524, 46.30053], [2.24357, 46.29986], [2.24239, 46.2988], [2.24187, 46.29751], [2.24225, 46.29586], [2.2434, 46.29468], [2.24561, 46.29381], [2.24774, 46.29373]]], [[[2.25733, 46.3049], [2.25802, 46.30672], [2.25975, 46.3058], [2.25812, 46.30398], [2.25733, 46.3049]]], [[[2.274, 46.32694], [2.27246, 46.32749], [2.2717, 46.32972], [2.27224, 46.33154], [2.2721, 46.33377], [2.2736, 46.33432], [2.27592, 46.33343], [2.27838, 46.33337], [2.28076, 46.33409], [2.28226, 46.335], [2.28313, 46.33623], [2.28351, 46.33844], [2.28309, 46.33987], [2.28192, 46.34103], [2.28236, 46.34174], [2.286, 46.3444], [2.28808, 46.34719], [2.29132, 46.34625], [2.29236, 46.34467], [2.29386, 46.34378], [2.29574, 46.34335], [2.29809, 46.34354], [2.29538, 46.34206], [2.29237, 46.34195], [2.28967, 46.34053], [2.28872, 46.33825], [2.28921, 46.33672], [2.29032, 46.33559], [2.28829, 46.33501], [2.28691, 46.33403], [2.28584, 46.33115], [2.28173, 46.3305], [2.28019, 46.32964], [2.27922, 46.32838], [2.274, 46.32694]]], [[[2.30098, 46.34022], [2.30137, 46.34035], [2.30152, 46.33992], [2.30098, 46.34022]]], [[[2.30308, 46.33609], [2.3052, 46.33411], [2.30503, 46.33336], [2.30204, 46.33272], [2.30059, 46.33403], [2.30213, 46.33491], [2.30308, 46.33609]]], [[[2.315, 46.33668], [2.31185, 46.33746], [2.30883, 46.33704], [2.30838, 46.33729], [2.30617, 46.34306], [2.30747, 46.34446], [2.30956, 46.34532], [2.31123, 46.34694], [2.31305, 46.34635], [2.31564, 46.3462], [2.3191, 46.34696], [2.31985, 46.34547], [2.32172, 46.34425], [2.3183, 46.3431], [2.31772, 46.34212], [2.31782, 46.34075], [2.31955, 46.33961], [2.32117, 46.33959], [2.32309, 46.34023], [2.32328, 46.33959], [2.31971, 46.33913], [2.31731, 46.33748], [2.315, 46.33668]]], [[[2.35545, 46.34856], [2.36367, 46.35168], [2.36637, 46.35078], [2.3629, 46.34558], [2.35706, 46.34512], [2.35556, 46.3465], [2.35363, 46.34716], [2.35545, 46.34856]]], [[[2.31849, 46.3333], [2.32111, 46.33245], [2.3238, 46.33267], [2.3234, 46.33165], [2.31817, 46.33069], [2.317, 46.33135], [2.31751, 46.33322], [2.31849, 46.3333]]], [[[2.28466, 46.32204], [2.29579, 46.32505], [2.29507, 46.32378], [2.29509, 46.32246], [2.29065, 46.32129], [2.28938, 46.32034], [2.28941, 46.31868], [2.29119, 46.31702], [2.28694, 46.31552], [2.28424, 46.31565], [2.27882, 46.32002], [2.27897, 46.32106], [2.28202, 46.32242], [2.28466, 46.32204]]], [[[2.26275, 46.29635], [2.2662, 46.29365], [2.2653, 46.29282], [2.26158, 46.29278], [2.25874, 46.29179], [2.25768, 46.29181], [2.25888, 46.2949], [2.26158, 46.29619], [2.26275, 46.29635]]], [[[2.06038, 46.39563], [2.06095, 46.40318], [2.06296, 46.40242], [2.06513, 46.4008], [2.06858, 46.40035], [2.07044, 46.40081], [2.0719, 46.40173], [2.07274, 46.40298], [2.07277, 46.40458], [2.07589, 46.40524], [2.07555, 46.40356], [2.07378, 46.40182], [2.07363, 46.40012], [2.07471, 46.39846], [2.07832, 46.39633], [2.0784, 46.39566], [2.07696, 46.39551], [2.07646, 46.39669], [2.07511, 46.39787], [2.07257, 46.39868], [2.07085, 46.39978], [2.06847, 46.40023], [2.06494, 46.39943], [2.06246, 46.3971], [2.06199, 46.39549], [2.06038, 46.39563]]], [[[2.07391, 46.39177], [2.07835, 46.39175], [2.07904, 46.39116], [2.07798, 46.39048], [2.07554, 46.39139], [2.07261, 46.39124], [2.06933, 46.38985], [2.06792, 46.38839], [2.06748, 46.38665], [2.0677, 46.38529], [2.06915, 46.38371], [2.071, 46.38292], [2.07088, 46.38158], [2.06782, 46.38049], [2.06428, 46.38241], [2.06121, 46.38324], [2.0608, 46.38373], [2.06017, 46.39176], [2.06809, 46.39171], [2.07048, 46.39118], [2.07391, 46.39177]]], [[[2.27355, 46.30399], [2.27217, 46.30595], [2.27153, 46.30931], [2.27304, 46.31126], [2.27412, 46.31135], [2.27533, 46.31072], [2.27562, 46.31011], [2.27404, 46.30843], [2.27355, 46.30399]]], [[[2.29543, 46.31414], [2.29699, 46.3151], [2.29887, 46.31553], [2.29942, 46.31436], [2.30074, 46.31328], [2.30058, 46.31207], [2.30109, 46.31074], [2.30346, 46.30908], [2.30242, 46.3079], [2.29714, 46.30871], [2.29394, 46.30801], [2.29277, 46.30835], [2.29496, 46.30922], [2.29634, 46.31064], [2.29659, 46.31234], [2.29543, 46.31414]]], [[[2.28976, 46.30504], [2.29087, 46.30472], [2.29172, 46.3027], [2.29464, 46.30061], [2.29099, 46.29899], [2.28821, 46.29941], [2.28796, 46.30028], [2.28589, 46.30269], [2.28815, 46.30355], [2.28976, 46.30504]]], [[[2.28117, 46.30053], [2.28131, 46.30025], [2.27903, 46.2995], [2.27758, 46.29985], [2.27833, 46.30055], [2.28117, 46.30053]]], [[[2.26387, 46.33581], [2.26653, 46.33357], [2.26667, 46.33179], [2.2662, 46.33048], [2.26473, 46.33039], [2.26041, 46.33308], [2.26035, 46.33509], [2.25871, 46.3368], [2.26061, 46.33759], [2.26173, 46.33872], [2.26235, 46.34048], [2.262, 46.34183], [2.26017, 46.34343], [2.25724, 46.34408], [2.25441, 46.34352], [2.25264, 46.34216], [2.25228, 46.34319], [2.25329, 46.34526], [2.25255, 46.3468], [2.25631, 46.3495], [2.25725, 46.35136], [2.26045, 46.35021], [2.26244, 46.35007], [2.26518, 46.35086], [2.26675, 46.35237], [2.2681, 46.35241], [2.27104, 46.35172], [2.2714, 46.34983], [2.27297, 46.34842], [2.27473, 46.34779], [2.27669, 46.34768], [2.27857, 46.34809], [2.28027, 46.34905], [2.28134, 46.35021], [2.28167, 46.35161], [2.28527, 46.35287], [2.28379, 46.34989], [2.28055, 46.34597], [2.27903, 46.3467], [2.27711, 46.34701], [2.27305, 46.34618], [2.27036, 46.3477], [2.26908, 46.348], [2.26749, 46.34777], [2.2665, 46.34713], [2.26605, 46.34605], [2.2664, 46.34515], [2.27056, 46.34234], [2.26947, 46.34039], [2.26599, 46.33973], [2.26409, 46.33818], [2.26387, 46.33581]]], [[[2.20224, 46.49806], [2.20414, 46.49903], [2.20467, 46.49733], [2.2017, 46.49688], [2.20023, 46.49617], [2.19908, 46.49506], [2.19647, 46.49467], [2.19758, 46.49808], [2.2, 46.49772], [2.20224, 46.49806]]], [[[2.19652, 46.4789], [2.19664, 46.47985], [2.19701, 46.48007], [2.19652, 46.4789]]], [[[2.1997, 46.47356], [2.20023, 46.47555], [2.20229, 46.47838], [2.20258, 46.47976], [2.20331, 46.47733], [2.20435, 46.47612], [2.20307, 46.4751], [2.20269, 46.47391], [2.19953, 46.47224], [2.19846, 46.47227], [2.1997, 46.47356]]], [[[2.21538, 46.4683], [2.21342, 46.46858], [2.21273, 46.46934], [2.21599, 46.47193], [2.2167, 46.47191], [2.21681, 46.47124], [2.21553, 46.4697], [2.21538, 46.4683]]], [[[2.209, 46.45814], [2.20921, 46.4587], [2.2102, 46.45881], [2.21104, 46.45742], [2.21058, 46.45687], [2.209, 46.45814]]], [[[2.20594, 46.44676], [2.20744, 46.44764], [2.21018, 46.44736], [2.20833, 46.44631], [2.20748, 46.44512], [2.20734, 46.44375], [2.20825, 46.44189], [2.20546, 46.44425], [2.20277, 46.445], [2.20353, 46.44625], [2.20594, 46.44676]]], [[[2.2125, 46.42712], [2.21219, 46.42767], [2.21354, 46.42812], [2.2141, 46.42795], [2.2125, 46.42712]]], [[[2.21161, 46.42035], [2.21203, 46.42164], [2.21379, 46.41995], [2.21297, 46.41969], [2.21161, 46.42035]]], [[[2.21091, 46.4029], [2.21204, 46.40443], [2.21545, 46.40466], [2.21405, 46.40332], [2.21364, 46.40192], [2.21438, 46.39896], [2.21577, 46.39783], [2.21816, 46.39779], [2.22276, 46.39971], [2.22299, 46.39802], [2.22163, 46.39653], [2.21939, 46.39714], [2.21595, 46.39684], [2.2135, 46.39758], [2.21052, 46.3974], [2.21031, 46.40047], [2.20939, 46.40198], [2.21091, 46.4029]]], [[[2.21062, 46.38618], [2.21547, 46.38934], [2.21897, 46.38906], [2.22081, 46.3896], [2.22207, 46.39044], [2.22571, 46.38733], [2.22415, 46.38716], [2.22275, 46.38648], [2.22059, 46.38726], [2.21817, 46.38725], [2.2138, 46.38551], [2.21062, 46.38618]]], [[[2.22935, 46.37756], [2.23166, 46.37908], [2.23369, 46.37873], [2.23651, 46.37718], [2.22972, 46.3763], [2.22935, 46.37756]]], [[[2.23688, 46.38506], [2.23374, 46.38308], [2.23288, 46.38349], [2.23605, 46.38673], [2.23757, 46.39057], [2.23966, 46.3905], [2.24203, 46.39089], [2.24371, 46.39169], [2.24487, 46.3928], [2.24519, 46.3953], [2.243, 46.3975], [2.24513, 46.39868], [2.24607, 46.3971], [2.24886, 46.39534], [2.24922, 46.39405], [2.24689, 46.39125], [2.24675, 46.38907], [2.24444, 46.38909], [2.24263, 46.38854], [2.24077, 46.38717], [2.24006, 46.38515], [2.23688, 46.38506]]], [[[2.24185, 46.40466], [2.24378, 46.40283], [2.24094, 46.40132], [2.2387, 46.40194], [2.23775, 46.40309], [2.23618, 46.40393], [2.23302, 46.40458], [2.23065, 46.40449], [2.23097, 46.40575], [2.23042, 46.40729], [2.2322, 46.40795], [2.23407, 46.40732], [2.23475, 46.40587], [2.23656, 46.40463], [2.23941, 46.40413], [2.24185, 46.40466]]], [[[2.23236, 46.41363], [2.2304, 46.41171], [2.2279, 46.41084], [2.22695, 46.41194], [2.22801, 46.4156], [2.23046, 46.41572], [2.23254, 46.41462], [2.23463, 46.41433], [2.23236, 46.41363]]], [[[2.21589, 46.37877], [2.21194, 46.3781], [2.21165, 46.3783], [2.21342, 46.37866], [2.21491, 46.37944], [2.21709, 46.37885], [2.21933, 46.37898], [2.21839, 46.37815], [2.21589, 46.37877]]], [[[2.21156, 46.32783], [2.21119, 46.3285], [2.21318, 46.3283], [2.21313, 46.3281], [2.21156, 46.32783]]], [[[2.21922, 46.33096], [2.21808, 46.33052], [2.21671, 46.33131], [2.21679, 46.3318], [2.21841, 46.33253], [2.21922, 46.33096]]], [[[2.2084, 46.31991], [2.21123, 46.32008], [2.21252, 46.31925], [2.21203, 46.31719], [2.20927, 46.31696], [2.20726, 46.31601], [2.20605, 46.31438], [2.20462, 46.31361], [2.20356, 46.31245], [2.20315, 46.31073], [2.20364, 46.30887], [2.2015, 46.30876], [2.20023, 46.31005], [2.19759, 46.31117], [2.19547, 46.31271], [2.19314, 46.31318], [2.19064, 46.31279], [2.18814, 46.31334], [2.18672, 46.31486], [2.18442, 46.31575], [2.18304, 46.31738], [2.18551, 46.31786], [2.18706, 46.31871], [2.18801, 46.31991], [2.18823, 46.32137], [2.1868, 46.32352], [2.18517, 46.3243], [2.18347, 46.32458], [2.18385, 46.32512], [2.18743, 46.32465], [2.18889, 46.32372], [2.19074, 46.32326], [2.19376, 46.32357], [2.19528, 46.32176], [2.1981, 46.32077], [2.19952, 46.31952], [2.20128, 46.31889], [2.20556, 46.31889], [2.2084, 46.31991]]], [[[2.20552, 46.30484], [2.205, 46.30506], [2.2061, 46.3051], [2.20552, 46.30484]]], [[[2.21169, 46.29873], [2.21344, 46.30032], [2.21628, 46.30056], [2.21596, 46.29827], [2.21434, 46.2984], [2.21244, 46.29807], [2.21016, 46.29661], [2.20996, 46.29816], [2.21169, 46.29873]]], [[[2.21874, 46.2927], [2.22096, 46.29647], [2.22336, 46.29654], [2.22422, 46.29612], [2.2248, 46.2945], [2.22643, 46.29322], [2.22873, 46.29261], [2.23092, 46.29277], [2.22964, 46.29172], [2.22908, 46.29058], [2.22631, 46.29087], [2.22305, 46.2899], [2.22109, 46.29121], [2.21912, 46.29198], [2.21874, 46.2927]]], [[[2.22309, 46.30326], [2.22171, 46.30227], [2.22094, 46.30327], [2.2223, 46.30685], [2.2223, 46.30801], [2.2191, 46.31096], [2.21904, 46.31203], [2.21979, 46.31348], [2.22192, 46.31453], [2.22312, 46.31618], [2.22309, 46.31791], [2.22149, 46.31984], [2.2237, 46.31978], [2.22559, 46.32032], [2.22676, 46.32107], [2.22802, 46.32092], [2.22593, 46.31876], [2.22551, 46.31711], [2.22661, 46.31516], [2.22893, 46.31398], [2.22893, 46.31309], [2.22718, 46.31233], [2.22585, 46.31101], [2.22548, 46.30909], [2.22426, 46.30827], [2.22339, 46.30704], [2.22268, 46.30503], [2.22309, 46.30326]]], [[[2.23664, 46.31056], [2.23438, 46.31223], [2.2345, 46.31464], [2.23526, 46.31502], [2.23595, 46.31174], [2.23775, 46.30996], [2.2373, 46.30944], [2.23664, 46.31056]]], [[[2.24523, 46.28395], [2.24566, 46.28465], [2.24773, 46.2845], [2.24786, 46.28424], [2.24523, 46.28395]]], [[[2.27832, 46.29154], [2.27837, 46.29103], [2.27743, 46.2907], [2.27435, 46.29308], [2.27832, 46.29154]]], [[[2.26863, 46.30189], [2.26772, 46.30176], [2.26827, 46.30273], [2.26863, 46.30189]]], [[[2.2937, 46.29551], [2.29921, 46.29794], [2.29963, 46.2976], [2.29364, 46.29522], [2.2937, 46.29551]]], [[[2.31916, 46.32543], [2.31945, 46.32693], [2.32321, 46.32745], [2.32419, 46.32522], [2.32326, 46.32396], [2.32313, 46.32253], [2.32063, 46.32299], [2.31778, 46.32249], [2.31482, 46.32117], [2.31305, 46.31957], [2.31263, 46.31823], [2.31298, 46.31688], [2.31411, 46.31566], [2.31689, 46.31402], [2.3164, 46.31369], [2.31472, 46.31481], [2.3123, 46.31535], [2.31165, 46.31678], [2.31049, 46.31757], [2.31445, 46.32172], [2.31626, 46.32253], [2.31833, 46.32419], [2.31916, 46.32543]]], [[[2.31825, 46.30902], [2.3179, 46.30965], [2.32034, 46.31096], [2.3206, 46.30957], [2.31825, 46.30902]]], [[[2.32845, 46.31393], [2.32543, 46.31305], [2.32513, 46.3135], [2.32645, 46.31448], [2.32921, 46.31417], [2.33182, 46.31477], [2.33042, 46.31388], [2.32845, 46.31393]]], [[[2.32922, 46.34264], [2.32834, 46.34269], [2.32804, 46.34401], [2.33062, 46.34395], [2.32922, 46.34264]]], [[[2.29899, 46.34385], [2.30121, 46.34497], [2.30065, 46.34423], [2.29899, 46.34385]]], [[[2.29434, 46.35336], [2.29148, 46.35358], [2.29158, 46.35657], [2.29268, 46.35659], [2.29434, 46.35336]]], [[[2.26578, 46.35784], [2.26752, 46.35625], [2.26555, 46.3562], [2.26315, 46.35776], [2.26339, 46.35856], [2.26542, 46.35933], [2.26578, 46.35784]]], [[[2.25771, 46.32906], [2.25829, 46.32941], [2.26021, 46.32806], [2.2587, 46.32815], [2.25771, 46.32906]]], [[[2.27945, 46.31352], [2.27924, 46.31364], [2.27933, 46.31373], [2.27945, 46.31352]]], [[[2.24571, 46.30936], [2.24726, 46.30769], [2.24295, 46.30545], [2.24059, 46.30533], [2.24346, 46.30936], [2.2455, 46.31051], [2.24571, 46.30936]]], [[[2.06699, 46.36073], [2.06894, 46.36002], [2.06841, 46.35942], [2.06751, 46.35939], [2.06699, 46.36073]]], [[[2.0727, 46.36329], [2.07107, 46.36369], [2.07184, 46.36447], [2.07337, 46.36496], [2.0727, 46.36329]]], [[[2.06252, 46.37425], [2.06606, 46.37477], [2.06733, 46.37397], [2.0679, 46.37161], [2.06529, 46.37215], [2.06308, 46.37186], [2.06252, 46.37425]]], [[[2.12091, 46.47683], [2.11732, 46.47527], [2.11748, 46.47569], [2.12043, 46.47732], [2.12142, 46.4791], [2.12281, 46.47983], [2.12437, 46.47961], [2.12345, 46.47841], [2.12327, 46.47693], [2.12091, 46.47683]]], [[[2.11167, 46.45308], [2.11131, 46.45375], [2.1123, 46.45348], [2.11167, 46.45308]]], [[[2.1098, 46.44308], [2.11092, 46.44252], [2.10806, 46.44149], [2.1064, 46.4424], [2.10639, 46.44264], [2.1098, 46.44308]]], [[[2.10514, 46.4325], [2.10508, 46.43278], [2.10539, 46.43261], [2.10514, 46.4325]]], [[[2.11411, 46.43491], [2.11413, 46.43476], [2.11374, 46.43497], [2.11411, 46.43491]]], [[[2.11566, 46.42564], [2.11563, 46.42575], [2.11575, 46.42572], [2.11566, 46.42564]]], [[[2.11434, 46.42241], [2.11459, 46.42182], [2.1136, 46.42189], [2.11434, 46.42241]]], [[[2.11849, 46.4071], [2.11827, 46.40939], [2.12176, 46.40924], [2.12055, 46.40746], [2.12076, 46.40577], [2.12303, 46.40382], [2.12515, 46.40316], [2.12764, 46.40289], [2.12827, 46.40109], [2.12942, 46.39977], [2.12829, 46.39765], [2.12384, 46.39681], [2.12209, 46.39785], [2.11928, 46.39826], [2.11822, 46.39945], [2.11613, 46.40038], [2.11355, 46.40052], [2.11118, 46.39977], [2.11257, 46.40135], [2.11437, 46.40095], [2.11635, 46.40105], [2.11916, 46.40241], [2.12012, 46.40474], [2.1196, 46.40606], [2.11849, 46.4071]]], [[[2.12846, 46.39139], [2.1294, 46.39379], [2.13294, 46.39481], [2.13329, 46.39433], [2.12846, 46.39139]]], [[[2.14117, 46.39167], [2.13954, 46.39403], [2.1415, 46.39278], [2.14399, 46.39218], [2.14453, 46.39075], [2.14411, 46.38894], [2.14509, 46.38722], [2.14385, 46.3861], [2.14334, 46.38477], [2.14424, 46.38257], [2.14033, 46.38298], [2.14114, 46.3843], [2.14114, 46.38575], [2.14039, 46.38701], [2.13907, 46.38794], [2.14115, 46.3903], [2.14117, 46.39167]]], [[[2.13866, 46.39554], [2.13876, 46.39552], [2.13881, 46.39532], [2.13866, 46.39554]]], [[[2.11462, 46.38392], [2.11139, 46.38426], [2.11278, 46.38466], [2.11695, 46.38308], [2.11916, 46.38295], [2.12068, 46.38324], [2.12285, 46.38213], [2.12642, 46.38186], [2.12244, 46.38111], [2.12087, 46.3801], [2.12007, 46.37899], [2.11935, 46.37905], [2.11737, 46.38101], [2.11616, 46.38306], [2.11462, 46.38392]]], [[[2.09992, 46.36971], [2.1035, 46.36836], [2.10105, 46.3683], [2.09858, 46.36762], [2.09992, 46.36971]]], [[[2.10051, 46.36341], [2.10229, 46.36454], [2.10712, 46.36458], [2.1091, 46.36223], [2.10862, 46.36108], [2.10743, 46.36255], [2.10581, 46.36335], [2.10387, 46.36365], [2.10051, 46.36341]]], [[[2.10598, 46.35163], [2.10529, 46.35328], [2.1079, 46.35395], [2.10859, 46.35069], [2.10598, 46.35163]]], [[[2.11558, 46.35022], [2.11416, 46.35087], [2.11411, 46.35142], [2.11571, 46.35052], [2.11558, 46.35022]]], [[[2.11416, 46.35603], [2.11355, 46.35544], [2.11337, 46.35519], [2.11329, 46.35614], [2.11416, 46.35603]]], [[[2.12541, 46.35815], [2.12323, 46.35737], [2.12035, 46.35789], [2.11625, 46.35963], [2.11396, 46.35999], [2.11484, 46.36209], [2.11729, 46.36159], [2.11966, 46.36192], [2.1218, 46.36326], [2.12255, 46.36551], [2.12556, 46.36554], [2.12993, 46.36738], [2.13054, 46.36609], [2.13169, 46.36513], [2.1298, 46.3656], [2.12694, 46.36545], [2.12486, 46.36458], [2.12356, 46.3633], [2.12299, 46.36153], [2.12317, 46.36016], [2.1241, 46.35895], [2.12541, 46.35815]]], [[[2.11812, 46.36866], [2.11431, 46.36796], [2.11354, 46.36928], [2.11768, 46.36957], [2.11812, 46.36866]]], [[[2.107, 46.34319], [2.10945, 46.34154], [2.1114, 46.33889], [2.10788, 46.33915], [2.10555, 46.33862], [2.10411, 46.33768], [2.10266, 46.33585], [2.1008, 46.33527], [2.0991, 46.33408], [2.09654, 46.33342], [2.09478, 46.33225], [2.09373, 46.33129], [2.09314, 46.32998], [2.09348, 46.32829], [2.09475, 46.32703], [2.09362, 46.32596], [2.09119, 46.32733], [2.08794, 46.3303], [2.08834, 46.33188], [2.08787, 46.33315], [2.09123, 46.33426], [2.09315, 46.33625], [2.10118, 46.33722], [2.10249, 46.33788], [2.10305, 46.33893], [2.10253, 46.34018], [2.10098, 46.34091], [2.09903, 46.34105], [2.09549, 46.34052], [2.09535, 46.34204], [2.09453, 46.3432], [2.09603, 46.34416], [2.0994, 46.3438], [2.1024, 46.34507], [2.1044, 46.34457], [2.10647, 46.34468], [2.107, 46.34319]]], [[[2.12066, 46.3303], [2.11885, 46.33159], [2.12001, 46.33288], [2.12005, 46.33421], [2.11709, 46.33728], [2.1169, 46.33828], [2.12052, 46.33887], [2.12255, 46.33991], [2.1248, 46.34269], [2.1244, 46.34523], [2.12518, 46.34564], [2.12681, 46.34539], [2.12887, 46.34562], [2.12974, 46.34333], [2.13241, 46.34191], [2.13332, 46.34039], [2.13479, 46.33942], [2.13346, 46.33802], [2.13317, 46.33667], [2.13366, 46.33534], [2.13505, 46.33408], [2.13376, 46.33363], [2.13349, 46.33513], [2.13227, 46.3366], [2.12879, 46.33856], [2.1264, 46.33907], [2.12395, 46.33873], [2.12196, 46.33756], [2.12105, 46.33597], [2.12117, 46.33436], [2.12214, 46.33251], [2.12341, 46.33146], [2.12657, 46.33047], [2.13104, 46.33022], [2.13236, 46.32852], [2.13363, 46.32766], [2.13059, 46.32596], [2.12933, 46.32563], [2.12828, 46.32758], [2.12693, 46.32857], [2.12423, 46.3293], [2.12178, 46.3291], [2.12066, 46.3303]]], [[[2.1382, 46.32191], [2.13689, 46.32452], [2.14915, 46.33019], [2.15258, 46.32778], [2.15731, 46.32695], [2.15637, 46.32511], [2.15261, 46.32284], [2.1518, 46.32176], [2.14943, 46.32329], [2.14541, 46.32428], [2.14257, 46.3237], [2.14011, 46.322], [2.1382, 46.32191]]], [[[2.13512, 46.31759], [2.13697, 46.31908], [2.13803, 46.31842], [2.13956, 46.31814], [2.14, 46.31767], [2.13839, 46.31634], [2.13444, 46.31487], [2.13166, 46.3155], [2.12888, 46.31527], [2.12647, 46.31407], [2.12511, 46.3128], [2.12706, 46.31559], [2.12911, 46.31574], [2.13275, 46.31665], [2.13512, 46.31759]]], [[[2.13718, 46.31105], [2.13723, 46.31153], [2.14153, 46.31311], [2.14337, 46.31454], [2.14496, 46.31503], [2.14814, 46.31433], [2.1517, 46.3151], [2.15323, 46.31607], [2.15415, 46.31773], [2.15508, 46.31818], [2.15841, 46.31742], [2.15892, 46.31535], [2.161, 46.31393], [2.15868, 46.31339], [2.15553, 46.31372], [2.15366, 46.31322], [2.15046, 46.31092], [2.14969, 46.30911], [2.14801, 46.30858], [2.1457, 46.30853], [2.14064, 46.31094], [2.13718, 46.31105]]], [[[2.14995, 46.30173], [2.15022, 46.30421], [2.15126, 46.30435], [2.15351, 46.30314], [2.15683, 46.30293], [2.15747, 46.30251], [2.15275, 46.30269], [2.14995, 46.30173]]], [[[2.16554, 46.30495], [2.16302, 46.30401], [2.16227, 46.30468], [2.16344, 46.30719], [2.16559, 46.3084], [2.16701, 46.3101], [2.16755, 46.31156], [2.17088, 46.31282], [2.17172, 46.31154], [2.17032, 46.31027], [2.16986, 46.30849], [2.17067, 46.30674], [2.17255, 46.30554], [2.17257, 46.30438], [2.17183, 46.30346], [2.16998, 46.30467], [2.16803, 46.30514], [2.16554, 46.30495]]], [[[2.18098, 46.2978], [2.18007, 46.29943], [2.17865, 46.30052], [2.17811, 46.30484], [2.17856, 46.30587], [2.1816, 46.30597], [2.18384, 46.30702], [2.18398, 46.30564], [2.1852, 46.30416], [2.18811, 46.30286], [2.19081, 46.30274], [2.19079, 46.30235], [2.18875, 46.30153], [2.18738, 46.30017], [2.18703, 46.29886], [2.18752, 46.29566], [2.18551, 46.29548], [2.18423, 46.29649], [2.18098, 46.2978]]], [[[2.19291, 46.29464], [2.19309, 46.29476], [2.19293, 46.29458], [2.19291, 46.29464]]], [[[2.14454, 46.33326], [2.14501, 46.33292], [2.14228, 46.33166], [2.14293, 46.3325], [2.14454, 46.33326]]], [[[2.06636, 46.42297], [2.06866, 46.42281], [2.06959, 46.42165], [2.06827, 46.42049], [2.06574, 46.42117], [2.06636, 46.42297]]], [[[2.07237, 46.42772], [2.07158, 46.42746], [2.07074, 46.42908], [2.07082, 46.43082], [2.07162, 46.43151], [2.07131, 46.42958], [2.07237, 46.42772]]], [[[2.07196, 46.41158], [2.07229, 46.41407], [2.07334, 46.41506], [2.07648, 46.41601], [2.07621, 46.41521], [2.07403, 46.41346], [2.07372, 46.4116], [2.07196, 46.41158]]], [[[2.07919, 46.43673], [2.07923, 46.43673], [2.07918, 46.43672], [2.07919, 46.43673]]], [[[2.08338, 46.43657], [2.07968, 46.43684], [2.08201, 46.43814], [2.08619, 46.43795], [2.08913, 46.43914], [2.09063, 46.43927], [2.09118, 46.43915], [2.0921, 46.43681], [2.08916, 46.43555], [2.08797, 46.43425], [2.086, 46.43486], [2.08338, 46.43657]]], [[[2.09709, 46.43879], [2.09733, 46.43855], [2.09728, 46.43832], [2.09709, 46.43879]]], [[[2.09102, 46.41396], [2.09055, 46.41394], [2.09056, 46.41405], [2.09102, 46.41396]]], [[[2.09323, 46.40408], [2.09072, 46.40474], [2.08985, 46.4059], [2.09366, 46.40698], [2.09529, 46.40795], [2.09818, 46.40828], [2.10109, 46.40817], [2.09923, 46.40725], [2.09788, 46.40573], [2.09767, 46.40403], [2.09877, 46.40235], [2.09703, 46.40057], [2.09533, 46.40056], [2.09535, 46.40168], [2.09467, 46.40298], [2.09323, 46.40408]]], [[[2.09158, 46.38136], [2.09151, 46.38163], [2.09408, 46.38169], [2.09585, 46.38141], [2.0946, 46.38096], [2.09158, 46.38136]]], [[[2.08718, 46.37723], [2.08804, 46.37736], [2.08809, 46.37738], [2.08755, 46.37704], [2.08718, 46.37723]]], [[[2.09048, 46.35348], [2.09103, 46.35398], [2.09142, 46.35374], [2.09048, 46.35348]]], [[[2.07863, 46.38458], [2.07837, 46.38306], [2.07654, 46.38335], [2.07792, 46.3845], [2.07863, 46.38458]]], [[[2.0836, 46.37781], [2.08327, 46.37777], [2.08313, 46.37775], [2.08323, 46.378], [2.0836, 46.37781]]], [[[2.10181, 46.45858], [2.10017, 46.45789], [2.09904, 46.45934], [2.09901, 46.46021], [2.10078, 46.4605], [2.10181, 46.45858]]], [[[2.08867, 46.45107], [2.0891, 46.45079], [2.08948, 46.44563], [2.08873, 46.44519], [2.08595, 46.4461], [2.08692, 46.44794], [2.08619, 46.4502], [2.08867, 46.45107]]], [[[2.09556, 46.44591], [2.09503, 46.4461], [2.0946, 46.44857], [2.09472, 46.45005], [2.09592, 46.45049], [2.09726, 46.44912], [2.09917, 46.44833], [2.09556, 46.44591]]], [[[2.10234, 46.40844], [2.10469, 46.40884], [2.1064, 46.40971], [2.10828, 46.40957], [2.10783, 46.40699], [2.10569, 46.40819], [2.10234, 46.40844]]], [[[2.10388, 46.32227], [2.10694, 46.32288], [2.10685, 46.32158], [2.1075, 46.32028], [2.11058, 46.3182], [2.10782, 46.3186], [2.1052, 46.31813], [2.10377, 46.31946], [2.10267, 46.32158], [2.10388, 46.32227]]], [[[2.16148, 46.49463], [2.16257, 46.49513], [2.16684, 46.49513], [2.16715, 46.49448], [2.16479, 46.49427], [2.1625, 46.49311], [2.16148, 46.493], [2.16109, 46.49373], [2.16148, 46.49463]]], [[[2.15631, 46.48386], [2.15645, 46.48379], [2.15623, 46.48353], [2.15631, 46.48386]]], [[[2.1492, 46.48653], [2.15087, 46.48483], [2.15059, 46.48361], [2.14813, 46.48474], [2.14756, 46.48622], [2.14645, 46.4872], [2.14775, 46.48731], [2.1492, 46.48653]]], [[[2.14159, 46.48845], [2.14191, 46.48803], [2.14079, 46.48812], [2.14159, 46.48845]]], [[[2.142, 46.48109], [2.14557, 46.4813], [2.14869, 46.47987], [2.14781, 46.47774], [2.14556, 46.4773], [2.14384, 46.479], [2.14085, 46.47996], [2.142, 46.48109]]], [[[2.15299, 46.47531], [2.15277, 46.47571], [2.154, 46.47851], [2.15745, 46.47715], [2.15852, 46.47554], [2.15451, 46.47477], [2.15299, 46.47531]]], [[[2.16646, 46.46913], [2.16547, 46.47151], [2.16569, 46.4726], [2.16637, 46.47267], [2.16646, 46.47068], [2.16805, 46.46905], [2.16738, 46.46885], [2.16646, 46.46913]]], [[[2.15083, 46.46293], [2.15358, 46.46086], [2.15204, 46.45867], [2.15064, 46.4575], [2.15034, 46.45575], [2.1483, 46.45615], [2.14574, 46.45608], [2.14476, 46.45755], [2.14553, 46.45916], [2.1453, 46.46052], [2.14313, 46.46258], [2.1446, 46.46391], [2.14604, 46.46698], [2.14642, 46.46537], [2.14739, 46.46415], [2.14891, 46.46331], [2.15083, 46.46293]]], [[[2.1397, 46.45558], [2.14084, 46.45421], [2.14004, 46.45318], [2.13851, 46.45267], [2.13733, 46.45373], [2.13561, 46.45442], [2.12977, 46.45472], [2.13325, 46.45539], [2.13511, 46.45478], [2.13706, 46.45472], [2.1397, 46.45558]]], [[[2.15338, 46.45227], [2.15332, 46.45216], [2.15342, 46.45232], [2.15338, 46.45227]]], [[[2.15787, 46.45814], [2.15756, 46.45761], [2.15751, 46.45762], [2.15787, 46.45814]]], [[[2.16379, 46.44888], [2.16432, 46.44986], [2.16308, 46.44816], [2.16379, 46.44888]]], [[[2.15292, 46.45078], [2.15341, 46.44928], [2.15295, 46.4493], [2.15251, 46.44998], [2.15292, 46.45078]]], [[[2.15257, 46.44423], [2.15361, 46.44523], [2.16288, 46.44428], [2.16209, 46.44206], [2.16215, 46.44072], [2.16322, 46.43924], [2.16485, 46.43833], [2.16534, 46.43667], [2.1638, 46.43511], [2.16321, 46.4322], [2.16487, 46.43026], [2.16772, 46.42931], [2.16767, 46.42831], [2.16417, 46.42727], [2.16358, 46.4275], [2.16379, 46.42959], [2.16314, 46.4309], [2.1618, 46.43194], [2.15995, 46.43258], [2.1598, 46.43414], [2.15861, 46.43563], [2.15578, 46.43669], [2.15257, 46.44423]]], [[[2.1489, 46.43525], [2.14995, 46.43669], [2.15053, 46.43534], [2.15001, 46.43478], [2.1489, 46.43525]]], [[[2.15971, 46.42142], [2.16114, 46.42402], [2.16264, 46.42342], [2.16303, 46.42274], [2.16293, 46.42024], [2.16472, 46.41853], [2.16814, 46.41771], [2.17129, 46.41837], [2.17315, 46.4171], [2.17005, 46.41663], [2.16807, 46.41708], [2.16468, 46.41715], [2.16229, 46.41648], [2.16287, 46.41804], [2.16252, 46.41939], [2.16139, 46.42063], [2.15971, 46.42142]]], [[[2.17824, 46.42171], [2.17725, 46.41973], [2.17662, 46.42015], [2.17612, 46.4217], [2.17709, 46.4232], [2.17703, 46.42487], [2.17832, 46.42576], [2.17993, 46.42798], [2.17997, 46.42935], [2.17925, 46.4306], [2.18096, 46.43078], [2.18223, 46.42977], [2.18409, 46.42919], [2.18103, 46.42826], [2.17914, 46.4262], [2.1786, 46.4245], [2.17936, 46.42272], [2.17824, 46.42171]]], [[[2.18057, 46.43576], [2.18061, 46.43475], [2.17964, 46.43458], [2.17631, 46.43557], [2.1755, 46.43663], [2.17397, 46.43754], [2.17063, 46.43809], [2.17263, 46.43996], [2.17491, 46.44118], [2.1758, 46.44267], [2.17826, 46.44272], [2.1764, 46.44052], [2.17626, 46.43883], [2.17735, 46.43722], [2.18057, 46.43576]]], [[[2.17114, 46.45185], [2.16964, 46.45187], [2.16879, 46.45352], [2.17141, 46.45508], [2.17329, 46.45539], [2.17364, 46.45466], [2.17241, 46.4526], [2.17114, 46.45185]]], [[[2.17956, 46.46488], [2.17791, 46.46511], [2.17832, 46.4667], [2.18054, 46.46534], [2.17956, 46.46488]]], [[[2.18494, 46.4697], [2.18489, 46.46778], [2.18361, 46.46887], [2.18089, 46.47015], [2.18055, 46.47123], [2.18273, 46.47279], [2.18346, 46.47438], [2.18588, 46.47583], [2.18748, 46.47635], [2.18846, 46.47619], [2.18895, 46.47605], [2.18855, 46.47399], [2.18954, 46.47241], [2.18746, 46.47181], [2.18585, 46.47088], [2.18494, 46.4697]]], [[[2.1723, 46.46326], [2.17214, 46.46318], [2.17229, 46.46333], [2.1723, 46.46326]]], [[[2.16863, 46.46177], [2.16965, 46.46195], [2.16849, 46.46176], [2.16863, 46.46177]]], [[[2.15873, 46.40636], [2.16, 46.40766], [2.16046, 46.4078], [2.16067, 46.40691], [2.15873, 46.40636]]], [[[2.16014, 46.40189], [2.16058, 46.40271], [2.16656, 46.4044], [2.16931, 46.40384], [2.17187, 46.40426], [2.17186, 46.40202], [2.1739, 46.40013], [2.172, 46.39963], [2.17047, 46.39866], [2.16939, 46.39638], [2.1694, 46.3984], [2.16803, 46.40017], [2.16453, 46.40205], [2.16215, 46.40231], [2.16014, 46.40189]]], [[[2.15912, 46.39494], [2.16161, 46.3939], [2.16163, 46.39279], [2.1624, 46.39145], [2.16047, 46.39164], [2.15784, 46.39138], [2.15629, 46.39083], [2.15493, 46.38983], [2.15442, 46.39095], [2.15493, 46.39485], [2.15352, 46.39698], [2.15701, 46.39653], [2.15912, 46.39494]]], [[[2.16517, 46.38631], [2.1674, 46.38899], [2.16879, 46.38816], [2.17153, 46.38745], [2.1721, 46.38704], [2.17081, 46.38573], [2.17048, 46.38438], [2.17068, 46.38235], [2.17153, 46.381], [2.1744, 46.37943], [2.17688, 46.37889], [2.17704, 46.37737], [2.17836, 46.3762], [2.17975, 46.37576], [2.18264, 46.37562], [2.18069, 46.37454], [2.17757, 46.37545], [2.17464, 46.37509], [2.17259, 46.37868], [2.17105, 46.37953], [2.16866, 46.37991], [2.165, 46.37905], [2.16345, 46.37773], [2.1629, 46.37649], [2.16197, 46.37602], [2.16135, 46.37671], [2.16133, 46.37823], [2.16303, 46.37859], [2.16483, 46.37956], [2.16619, 46.38133], [2.16675, 46.38392], [2.16622, 46.38527], [2.16517, 46.38631]]], [[[2.19716, 46.37687], [2.19429, 46.37535], [2.18915, 46.37839], [2.19179, 46.38005], [2.19609, 46.37893], [2.19857, 46.37901], [2.19975, 46.37713], [2.19716, 46.37687]]], [[[2.15996, 46.36739], [2.16028, 46.36738], [2.16029, 46.36719], [2.15996, 46.36739]]], [[[2.16715, 46.35617], [2.1672, 46.3582], [2.16901, 46.35784], [2.16822, 46.35637], [2.16856, 46.3543], [2.17009, 46.35285], [2.17253, 46.35208], [2.17051, 46.35112], [2.16783, 46.3524], [2.16486, 46.35252], [2.16448, 46.35342], [2.1663, 46.35456], [2.16715, 46.35617]]], [[[2.16797, 46.34152], [2.16697, 46.34312], [2.16905, 46.34216], [2.16797, 46.34152]]], [[[2.16289, 46.33224], [2.16548, 46.33265], [2.16613, 46.33234], [2.16735, 46.33001], [2.16885, 46.32916], [2.17104, 46.32875], [2.1708, 46.32829], [2.1687, 46.32826], [2.16641, 46.3275], [2.16565, 46.32755], [2.16496, 46.32905], [2.16332, 46.33058], [2.16289, 46.33224]]], [[[2.13417, 46.47343], [2.13568, 46.47252], [2.13729, 46.4721], [2.13599, 46.47102], [2.13447, 46.47074], [2.13264, 46.47158], [2.13047, 46.47184], [2.12732, 46.47098], [2.12806, 46.47284], [2.12859, 46.47313], [2.13103, 46.4735], [2.13331, 46.47465], [2.13417, 46.47343]]], [[[2.1419, 46.44107], [2.14181, 46.44108], [2.14189, 46.44119], [2.1419, 46.44107]]], [[[2.12716, 46.42916], [2.12744, 46.43151], [2.13099, 46.43332], [2.1346, 46.43313], [2.13439, 46.4308], [2.13506, 46.42797], [2.13589, 46.42675], [2.13716, 46.42592], [2.13543, 46.42528], [2.13463, 46.4269], [2.13298, 46.42811], [2.12716, 46.42916]]], [[[2.13551, 46.41371], [2.13738, 46.41331], [2.13934, 46.41344], [2.14191, 46.41277], [2.14383, 46.41166], [2.14654, 46.41122], [2.14896, 46.41155], [2.1514, 46.41325], [2.15138, 46.41291], [2.14977, 46.41088], [2.14962, 46.40909], [2.1492, 46.40894], [2.14762, 46.40968], [2.14578, 46.40998], [2.1424, 46.40946], [2.13926, 46.40969], [2.13664, 46.40875], [2.13514, 46.40675], [2.13362, 46.407], [2.13305, 46.40827], [2.13135, 46.41002], [2.13427, 46.41141], [2.13551, 46.41371]]], [[[2.12739, 46.44592], [2.12545, 46.44631], [2.12695, 46.44812], [2.12856, 46.44653], [2.12739, 46.44592]]], [[[2.12428, 46.4616], [2.12461, 46.46374], [2.12504, 46.46392], [2.12766, 46.4621], [2.12538, 46.46016], [2.12428, 46.4616]]], [[[2.14213, 46.37012], [2.1398, 46.37188], [2.1419, 46.37225], [2.14313, 46.3729], [2.14565, 46.37309], [2.14835, 46.37422], [2.14645, 46.37055], [2.14475, 46.36956], [2.14392, 46.36842], [2.14232, 46.36773], [2.14213, 46.37012]]], [[[2.13245, 46.36475], [2.13304, 46.3645], [2.13303, 46.36438], [2.13245, 46.36475]]], [[[2.13926, 46.36242], [2.13864, 46.36256], [2.13863, 46.36446], [2.13994, 46.365], [2.13926, 46.36242]]], [[[2.14054, 46.35541], [2.14239, 46.3567], [2.14306, 46.35834], [2.14632, 46.35849], [2.14545, 46.35471], [2.14295, 46.35554], [2.14054, 46.35541]]], [[[2.15354, 46.35328], [2.15269, 46.35134], [2.15054, 46.35229], [2.15147, 46.35654], [2.15445, 46.35662], [2.15558, 46.35493], [2.15354, 46.35328]]], [[[2.13397, 46.35537], [2.13476, 46.355], [2.13468, 46.35416], [2.13205, 46.35352], [2.13161, 46.3557], [2.12933, 46.35767], [2.13055, 46.35798], [2.13206, 46.35755], [2.13397, 46.35537]]], [[[2.12387, 46.37372], [2.12374, 46.37383], [2.12381, 46.37393], [2.12387, 46.37372]]], [[[2.15261, 46.34236], [2.15211, 46.34219], [2.15164, 46.34271], [2.15261, 46.34236]]], [[[2.15726, 46.36824], [2.1574, 46.36844], [2.15808, 46.36806], [2.15726, 46.36824]]], [[[2.14429, 46.42553], [2.14677, 46.42694], [2.14526, 46.42508], [2.14534, 46.42296], [2.14691, 46.42124], [2.14996, 46.4204], [2.14941, 46.41936], [2.14736, 46.4197], [2.14546, 46.41948], [2.1444, 46.41983], [2.14538, 46.42132], [2.14538, 46.42265], [2.14465, 46.42389], [2.14289, 46.4252], [2.14429, 46.42553]]], [[[2.16397, 46.29418], [2.16642, 46.29409], [2.16897, 46.29492], [2.17148, 46.29418], [2.17239, 46.29352], [2.17088, 46.29248], [2.16851, 46.29327], [2.1661, 46.29317], [2.164, 46.2923], [2.1628, 46.29101], [2.16087, 46.29101], [2.15913, 46.29053], [2.15025, 46.29336], [2.14698, 46.29494], [2.14358, 46.296], [2.14322, 46.29644], [2.14424, 46.29845], [2.14729, 46.29922], [2.14734, 46.29753], [2.14853, 46.29604], [2.15474, 46.29346], [2.15686, 46.29318], [2.15881, 46.29348], [2.16045, 46.29428], [2.16144, 46.29534], [2.16397, 46.29418]]], [[[2.18957, 46.36754], [2.19364, 46.36631], [2.19447, 46.36299], [2.19177, 46.36243], [2.18527, 46.36565], [2.18663, 46.36674], [2.18957, 46.36754]]], [[[2.18179, 46.36115], [2.17984, 46.36278], [2.1815, 46.36276], [2.18954, 46.35879], [2.18937, 46.35806], [2.18657, 46.35748], [2.18498, 46.35663], [2.18321, 46.35368], [2.18144, 46.35295], [2.17956, 46.3539], [2.18059, 46.3551], [2.18073, 46.35707], [2.18214, 46.35923], [2.18179, 46.36115]]], [[[2.1945, 46.35218], [2.19367, 46.35203], [2.19305, 46.35184], [2.194, 46.35259], [2.1945, 46.35218]]], [[[2.19091, 46.34197], [2.19269, 46.34325], [2.1938, 46.34339], [2.1947, 46.34246], [2.19282, 46.34066], [2.19224, 46.33916], [2.19242, 46.338], [2.19138, 46.33733], [2.19103, 46.3375], [2.19199, 46.33997], [2.19091, 46.34197]]], [[[2.18698, 46.2847], [2.18735, 46.28469], [2.18776, 46.28457], [2.18698, 46.2847]]], [[[2.1999, 46.28327], [2.19816, 46.28354], [2.19946, 46.28638], [2.20016, 46.28683], [2.20371, 46.28554], [2.2013, 46.28465], [2.1999, 46.28327]]], [[[2.18117, 46.34553], [2.17934, 46.34612], [2.18053, 46.34673], [2.18167, 46.34666], [2.18117, 46.34553]]], [[[2.17807, 46.3353], [2.17859, 46.33817], [2.1794, 46.33857], [2.18133, 46.33692], [2.18083, 46.33565], [2.18101, 46.33431], [2.17959, 46.33352], [2.17708, 46.33399], [2.17807, 46.3353]]], [[[2.17206, 46.36981], [2.17199, 46.3701], [2.1728, 46.36977], [2.17206, 46.36981]]], [[[2.19282, 46.45178], [2.18949, 46.45308], [2.18999, 46.45493], [2.19179, 46.45521], [2.19272, 46.45392], [2.19426, 46.45302], [2.19634, 46.45259], [2.1981, 46.45268], [2.19693, 46.45171], [2.19627, 46.45048], [2.19389, 46.44927], [2.1937, 46.45059], [2.19282, 46.45178]]], [[[2.19557, 46.43162], [2.19475, 46.43325], [2.19818, 46.43428], [2.19998, 46.43525], [2.20093, 46.43694], [2.20329, 46.43694], [2.20176, 46.43578], [2.20116, 46.43456], [2.19843, 46.43384], [2.19557, 46.43162]]], [[[2.19429, 46.44031], [2.19434, 46.44009], [2.19244, 46.44131], [2.19429, 46.44031]]], [[[2.18875, 46.42008], [2.18821, 46.42099], [2.19218, 46.42219], [2.19533, 46.42416], [2.19679, 46.4248], [2.19729, 46.42469], [2.19771, 46.42419], [2.19596, 46.42216], [2.19606, 46.42025], [2.19263, 46.42079], [2.19045, 46.42064], [2.18875, 46.42008]]], [[[2.19874, 46.41085], [2.19996, 46.41221], [2.20182, 46.41294], [2.20242, 46.41249], [2.20204, 46.41011], [2.19852, 46.4082], [2.19622, 46.40832], [2.19397, 46.4077], [2.19156, 46.40999], [2.19233, 46.41025], [2.19396, 46.40985], [2.19606, 46.40988], [2.19874, 46.41085]]], [[[2.19994, 46.39907], [2.19885, 46.39925], [2.19857, 46.40056], [2.20058, 46.40174], [2.1999, 46.40056], [2.19994, 46.39907]]], [[[2.19066, 46.39138], [2.19426, 46.38827], [2.19679, 46.38705], [2.19398, 46.38686], [2.19243, 46.38635], [2.18973, 46.38696], [2.18777, 46.38789], [2.18965, 46.39159], [2.18948, 46.39362], [2.19109, 46.395], [2.19021, 46.39321], [2.19066, 46.39138]]], [[[2.1876, 46.3999], [2.18765, 46.39803], [2.18502, 46.396], [2.18061, 46.39538], [2.17978, 46.39563], [2.17952, 46.39787], [2.17785, 46.39942], [2.18092, 46.40052], [2.18316, 46.40012], [2.18573, 46.40055], [2.1876, 46.3999]]], [[[2.17727, 46.41115], [2.17768, 46.41152], [2.178, 46.41132], [2.17727, 46.41115]]], [[[2.17991, 46.4063], [2.17881, 46.40744], [2.18015, 46.40774], [2.18142, 46.40694], [2.17991, 46.4063]]], [[[2.18112, 46.38573], [2.1794, 46.38705], [2.1814, 46.3862], [2.18112, 46.38573]]], [[[2.17467, 46.49283], [2.17859, 46.49471], [2.17924, 46.49454], [2.17828, 46.49364], [2.17503, 46.49265], [2.17467, 46.49283]]], [[[2.18169, 46.48795], [2.17999, 46.48996], [2.18266, 46.49088], [2.18433, 46.49258], [2.18933, 46.49305], [2.18997, 46.49271], [2.18774, 46.49172], [2.18649, 46.48993], [2.18478, 46.48941], [2.18288, 46.48808], [2.18169, 46.48795]]], [[[2.20519, 46.38513], [2.20497, 46.38542], [2.20543, 46.38531], [2.20519, 46.38513]]], [[[2.20522, 46.3792], [2.20589, 46.3796], [2.20682, 46.37922], [2.20663, 46.37919], [2.20522, 46.3792]]], [[[2.37644, 46.40822], [2.37548, 46.40874], [2.37522, 46.40884], [2.3763, 46.40892], [2.37644, 46.40822]]], [[[2.30395, 46.48524], [2.30347, 46.48388], [2.3038, 46.48249], [2.30137, 46.48219], [2.29868, 46.48068], [2.29758, 46.47878], [2.29844, 46.47651], [2.29609, 46.47544], [2.29274, 46.47605], [2.29324, 46.47704], [2.29643, 46.47953], [2.29739, 46.48257], [2.29696, 46.48461], [2.29506, 46.48619], [2.29283, 46.48677], [2.29048, 46.48661], [2.28544, 46.48506], [2.28379, 46.48378], [2.28135, 46.4832], [2.27948, 46.48196], [2.27724, 46.48393], [2.27807, 46.48526], [2.28006, 46.48581], [2.28145, 46.4868], [2.28255, 46.48878], [2.2826, 46.49005], [2.28487, 46.48936], [2.28898, 46.48928], [2.29231, 46.49015], [2.30395, 46.48524]]], [[[2.27206, 46.4918], [2.27221, 46.48785], [2.27089, 46.48493], [2.27116, 46.48636], [2.27079, 46.48772], [2.26824, 46.48975], [2.2687, 46.49116], [2.27206, 46.4918]]], [[[2.28782, 46.46315], [2.29232, 46.46346], [2.29239, 46.46297], [2.29093, 46.46157], [2.28793, 46.46269], [2.28782, 46.46315]]], [[[2.29741, 46.45799], [2.29514, 46.45901], [2.29623, 46.46014], [2.29979, 46.45879], [2.29741, 46.45799]]], [[[2.28963, 46.45289], [2.29231, 46.45177], [2.2924, 46.4504], [2.29365, 46.44817], [2.29141, 46.44656], [2.29053, 46.44485], [2.29092, 46.44315], [2.29262, 46.4413], [2.29014, 46.44004], [2.2891, 46.43867], [2.28636, 46.43799], [2.2829, 46.435], [2.28205, 46.43485], [2.28176, 46.43722], [2.27947, 46.43895], [2.27626, 46.43968], [2.27139, 46.43919], [2.26811, 46.43976], [2.26992, 46.44041], [2.27122, 46.44144], [2.2731, 46.44386], [2.27353, 46.44604], [2.27574, 46.44681], [2.2768, 46.44522], [2.27921, 46.44407], [2.28265, 46.4439], [2.28549, 46.44475], [2.28914, 46.44779], [2.28919, 46.4502], [2.28731, 46.4521], [2.28901, 46.4535], [2.28963, 46.45289]]], [[[2.28254, 46.45473], [2.28354, 46.45497], [2.28248, 46.45445], [2.28254, 46.45473]]], [[[2.27387, 46.45664], [2.27702, 46.45551], [2.27683, 46.45442], [2.27518, 46.45372], [2.27402, 46.45269], [2.27354, 46.45036], [2.27138, 46.44963], [2.27021, 46.45185], [2.27102, 46.4533], [2.2709, 46.45494], [2.26984, 46.45649], [2.26732, 46.45767], [2.26528, 46.45779], [2.26293, 46.45728], [2.26157, 46.45798], [2.26263, 46.45853], [2.26733, 46.45939], [2.26909, 46.46013], [2.2707, 46.46193], [2.27105, 46.46462], [2.2728, 46.4634], [2.27492, 46.46289], [2.27281, 46.46085], [2.27259, 46.4585], [2.27387, 46.45664]]], [[[2.29003, 46.42957], [2.29422, 46.43388], [2.29971, 46.43428], [2.30052, 46.43073], [2.30279, 46.42893], [2.30018, 46.42811], [2.29886, 46.42715], [2.29613, 46.42658], [2.29451, 46.42541], [2.29255, 46.42842], [2.29003, 46.42957]]], [[[2.29262, 46.41067], [2.29345, 46.40724], [2.29463, 46.40583], [2.29393, 46.40505], [2.29167, 46.40637], [2.28839, 46.40662], [2.28647, 46.40859], [2.28367, 46.40926], [2.2876, 46.41067], [2.29011, 46.41026], [2.29262, 46.41067]]], [[[2.28124, 46.41638], [2.28435, 46.41575], [2.28332, 46.41474], [2.28301, 46.41343], [2.28142, 46.41284], [2.27847, 46.41354], [2.27572, 46.41309], [2.27615, 46.41452], [2.27566, 46.416], [2.27658, 46.41819], [2.27649, 46.41941], [2.27878, 46.41997], [2.27892, 46.41855], [2.27977, 46.41731], [2.28124, 46.41638]]], [[[2.26593, 46.4157], [2.26792, 46.41408], [2.26738, 46.41326], [2.26618, 46.41289], [2.2643, 46.41412], [2.26192, 46.41457], [2.25952, 46.41419], [2.25773, 46.41315], [2.25563, 46.41349], [2.25297, 46.41339], [2.25528, 46.41586], [2.25566, 46.4172], [2.2554, 46.4183], [2.25738, 46.41992], [2.25792, 46.4216], [2.25766, 46.42292], [2.25918, 46.42407], [2.25983, 46.42397], [2.26142, 46.42137], [2.26388, 46.41989], [2.26593, 46.4157]]], [[[2.26843, 46.42419], [2.26572, 46.42386], [2.26552, 46.42523], [2.26654, 46.42528], [2.26843, 46.42419]]], [[[2.29042, 46.39756], [2.29165, 46.39942], [2.29365, 46.4003], [2.29569, 46.39902], [2.29779, 46.39847], [2.29519, 46.39765], [2.29362, 46.39607], [2.29187, 46.39647], [2.29042, 46.39756]]], [[[2.28321, 46.39335], [2.28587, 46.39528], [2.28864, 46.3933], [2.29124, 46.3925], [2.28954, 46.39206], [2.28758, 46.39098], [2.28571, 46.3886], [2.28615, 46.38625], [2.28718, 46.38525], [2.2888, 46.38446], [2.29172, 46.38423], [2.29429, 46.38474], [2.29581, 46.38547], [2.29734, 46.38722], [2.29722, 46.38978], [2.29912, 46.38863], [2.30198, 46.38815], [2.30442, 46.38858], [2.3061, 46.3896], [2.30879, 46.38892], [2.31041, 46.38736], [2.31287, 46.38665], [2.3119, 46.38613], [2.30879, 46.3869], [2.30682, 46.38702], [2.30236, 46.38551], [2.30075, 46.38327], [2.30091, 46.38193], [2.30172, 46.38079], [2.3005, 46.37978], [2.29949, 46.37757], [2.2996, 46.37907], [2.29886, 46.38046], [2.2975, 46.38145], [2.2957, 46.38202], [2.29199, 46.3818], [2.29012, 46.38118], [2.28702, 46.3786], [2.28608, 46.37722], [2.2852, 46.37778], [2.28521, 46.37927], [2.28443, 46.3807], [2.28173, 46.3823], [2.27857, 46.38241], [2.27567, 46.38117], [2.27429, 46.38275], [2.27215, 46.38359], [2.2694, 46.38364], [2.26706, 46.38285], [2.26511, 46.38489], [2.26719, 46.38491], [2.26904, 46.38538], [2.27064, 46.38641], [2.27212, 46.38812], [2.2742, 46.38704], [2.27716, 46.38674], [2.27901, 46.3872], [2.28193, 46.3889], [2.28363, 46.39089], [2.28372, 46.39226], [2.28321, 46.39335]]], [[[2.25922, 46.38801], [2.25902, 46.38833], [2.25952, 46.38902], [2.25974, 46.38831], [2.25922, 46.38801]]], [[[2.25999, 46.38103], [2.26118, 46.38194], [2.26256, 46.38056], [2.26303, 46.37844], [2.26138, 46.37798], [2.25992, 46.37701], [2.25903, 46.37473], [2.25981, 46.37312], [2.26193, 46.37182], [2.26022, 46.37066], [2.25699, 46.37169], [2.25503, 46.37154], [2.25333, 46.3709], [2.25308, 46.37298], [2.25415, 46.37556], [2.25707, 46.37598], [2.25957, 46.37733], [2.26055, 46.37932], [2.25999, 46.38103]]], [[[2.24924, 46.38045], [2.24933, 46.37794], [2.24827, 46.37539], [2.24529, 46.37493], [2.24345, 46.37568], [2.24047, 46.37594], [2.23841, 46.37692], [2.24067, 46.37726], [2.24331, 46.37858], [2.24464, 46.37999], [2.24489, 46.38147], [2.24788, 46.3814], [2.24924, 46.38045]]], [[[2.26019, 46.36563], [2.26817, 46.37065], [2.27043, 46.37053], [2.27263, 46.37114], [2.27532, 46.37122], [2.28017, 46.36801], [2.28154, 46.36756], [2.28301, 46.36627], [2.28547, 46.36553], [2.28639, 46.36488], [2.28536, 46.36466], [2.28245, 46.36507], [2.27986, 46.36458], [2.2756, 46.36609], [2.2735, 46.36629], [2.27109, 46.36592], [2.26908, 46.36467], [2.26309, 46.3659], [2.26019, 46.36563]]], [[[2.30707, 46.37841], [2.30648, 46.37863], [2.30685, 46.37892], [2.30883, 46.37915], [2.31236, 46.38033], [2.31288, 46.37853], [2.31097, 46.37872], [2.30707, 46.37841]]], [[[2.32, 46.3841], [2.31864, 46.38425], [2.32074, 46.3846], [2.32, 46.3841]]], [[[2.32402, 46.38044], [2.32361, 46.38113], [2.32545, 46.3823], [2.3266, 46.38168], [2.32402, 46.38044]]], [[[2.32689, 46.39212], [2.32382, 46.39088], [2.3208, 46.39361], [2.32095, 46.39521], [2.3198, 46.39724], [2.31839, 46.3982], [2.31663, 46.39872], [2.31665, 46.40044], [2.31785, 46.4017], [2.31814, 46.40335], [2.3173, 46.40491], [2.31514, 46.40624], [2.31562, 46.40646], [2.31741, 46.40564], [2.32151, 46.40473], [2.32377, 46.40331], [2.3241, 46.40221], [2.32518, 46.40103], [2.32753, 46.40006], [2.32712, 46.39852], [2.32494, 46.39711], [2.32426, 46.39544], [2.32478, 46.39366], [2.32689, 46.39212]]], [[[2.29648, 46.39091], [2.29534, 46.39178], [2.29634, 46.39142], [2.29648, 46.39091]]], [[[2.29495, 46.37419], [2.29635, 46.37493], [2.29603, 46.37274], [2.29778, 46.37058], [2.29595, 46.36905], [2.29536, 46.36707], [2.29458, 46.36683], [2.29604, 46.37086], [2.29495, 46.37419]]], [[[2.30907, 46.36467], [2.30842, 46.36618], [2.31009, 46.36693], [2.31232, 46.36897], [2.31567, 46.36951], [2.31571, 46.36833], [2.31649, 46.36704], [2.31797, 46.36605], [2.31986, 46.36554], [2.32285, 46.36582], [2.32523, 46.36742], [2.3282, 46.36699], [2.33188, 46.36774], [2.33287, 46.3658], [2.33484, 46.36466], [2.33535, 46.3627], [2.33502, 46.36126], [2.33317, 46.36106], [2.33114, 46.36031], [2.32996, 46.36035], [2.32822, 46.36137], [2.32598, 46.3618], [2.32521, 46.36403], [2.32381, 46.3649], [2.32143, 46.36481], [2.32003, 46.36353], [2.31797, 46.36463], [2.3156, 46.36503], [2.31292, 46.36456], [2.3112, 46.36368], [2.30907, 46.36467]]], [[[2.34456, 46.36624], [2.34214, 46.36338], [2.34091, 46.36301], [2.34043, 46.36494], [2.34195, 46.36622], [2.3425, 46.36807], [2.34177, 46.36979], [2.34016, 46.37095], [2.3408, 46.37243], [2.34054, 46.37381], [2.33912, 46.37531], [2.33727, 46.37634], [2.33564, 46.37676], [2.33415, 46.37896], [2.33418, 46.38079], [2.33621, 46.38079], [2.33783, 46.37888], [2.34081, 46.37783], [2.34327, 46.37783], [2.34571, 46.37881], [2.34601, 46.377], [2.34698, 46.3757], [2.34768, 46.37341], [2.34944, 46.37219], [2.35232, 46.3717], [2.35503, 46.37231], [2.35685, 46.3735], [2.35783, 46.37522], [2.35761, 46.37703], [2.35944, 46.37983], [2.35928, 46.38119], [2.35826, 46.38262], [2.35675, 46.38351], [2.35451, 46.38394], [2.35601, 46.38423], [2.35926, 46.38334], [2.36148, 46.38335], [2.36324, 46.3817], [2.36592, 46.38099], [2.36895, 46.38143], [2.37051, 46.38227], [2.37146, 46.38341], [2.37272, 46.38328], [2.3762, 46.38114], [2.3713, 46.37892], [2.36959, 46.37744], [2.36919, 46.37574], [2.36975, 46.37442], [2.37097, 46.37335], [2.37069, 46.37181], [2.36646, 46.37169], [2.36472, 46.3721], [2.36296, 46.37165], [2.36197, 46.37034], [2.36245, 46.36899], [2.35868, 46.36659], [2.358, 46.36529], [2.3581, 46.36393], [2.3557, 46.36332], [2.35505, 46.36501], [2.35329, 46.36629], [2.3509, 46.36696], [2.34783, 46.36704], [2.34456, 46.36624]]], [[[2.35664, 46.35607], [2.35628, 46.35805], [2.35873, 46.35995], [2.36149, 46.3579], [2.36004, 46.35496], [2.35569, 46.35454], [2.35664, 46.35607]]], [[[2.37778, 46.38515], [2.37774, 46.38579], [2.37783, 46.38603], [2.37778, 46.38515]]], [[[2.37791, 46.38737], [2.37696, 46.38895], [2.37805, 46.38975], [2.37791, 46.38737]]], [[[2.37795, 46.39469], [2.37403, 46.39272], [2.3727, 46.39444], [2.37016, 46.39547], [2.37029, 46.39665], [2.36946, 46.39801], [2.37362, 46.39858], [2.37514, 46.39947], [2.37646, 46.40091], [2.37777, 46.39947], [2.37795, 46.39469]]], [[[2.35889, 46.40282], [2.35372, 46.39977], [2.35222, 46.40228], [2.35496, 46.40336], [2.35731, 46.40484], [2.35904, 46.40743], [2.35886, 46.40928], [2.36022, 46.40839], [2.36221, 46.40787], [2.36196, 46.40652], [2.36285, 46.4044], [2.36119, 46.40347], [2.35889, 46.40282]]], [[[2.37265, 46.40932], [2.36836, 46.4083], [2.36842, 46.40969], [2.36921, 46.41136], [2.36893, 46.41275], [2.368, 46.41389], [2.3654, 46.41507], [2.36521, 46.41561], [2.3667, 46.41748], [2.36891, 46.41668], [2.37124, 46.41669], [2.37143, 46.41547], [2.37009, 46.41382], [2.3699, 46.41217], [2.37108, 46.41031], [2.37265, 46.40932]]], [[[2.3482, 46.39574], [2.34997, 46.39625], [2.35101, 46.39529], [2.35031, 46.3945], [2.3482, 46.39574]]], [[[2.30323, 46.36929], [2.30387, 46.36894], [2.30291, 46.36851], [2.30311, 46.36889], [2.30323, 46.36929]]], [[[2.23613, 46.48129], [2.23926, 46.48322], [2.24311, 46.48172], [2.24661, 46.48183], [2.24907, 46.47985], [2.24942, 46.47784], [2.25095, 46.47645], [2.25374, 46.47566], [2.25626, 46.47594], [2.25697, 46.47437], [2.25546, 46.4724], [2.25607, 46.4701], [2.25256, 46.46989], [2.25014, 46.46892], [2.24831, 46.46734], [2.24798, 46.46537], [2.24755, 46.46515], [2.24493, 46.46518], [2.24249, 46.46422], [2.24069, 46.46586], [2.23886, 46.46643], [2.23699, 46.46654], [2.23585, 46.4672], [2.23651, 46.46961], [2.23505, 46.47174], [2.23797, 46.4719], [2.24014, 46.47267], [2.24147, 46.47389], [2.24256, 46.47627], [2.24224, 46.47763], [2.24082, 46.47905], [2.23865, 46.47996], [2.23653, 46.48013], [2.23613, 46.48129]]], [[[2.26554, 46.47479], [2.2621, 46.476], [2.25938, 46.4817], [2.26037, 46.48341], [2.26038, 46.48486], [2.26686, 46.48177], [2.26603, 46.47871], [2.26689, 46.47662], [2.26614, 46.47543], [2.26554, 46.47479]]], [[[2.22845, 46.45249], [2.23266, 46.45205], [2.23592, 46.45035], [2.23643, 46.44962], [2.23389, 46.45018], [2.23034, 46.44974], [2.22793, 46.45057], [2.22066, 46.45111], [2.22084, 46.45225], [2.2226, 46.45143], [2.22449, 46.45118], [2.22682, 46.45157], [2.22845, 46.45249]]], [[[2.22617, 46.43262], [2.23067, 46.43256], [2.23403, 46.43116], [2.23481, 46.43008], [2.23292, 46.42944], [2.2314, 46.42809], [2.23093, 46.42604], [2.23149, 46.42452], [2.2307, 46.4236], [2.22779, 46.42436], [2.22767, 46.42605], [2.22625, 46.42764], [2.22728, 46.42871], [2.22768, 46.43009], [2.2273, 46.43146], [2.22617, 46.43262]]], [[[2.24293, 46.42274], [2.24308, 46.42516], [2.24508, 46.42591], [2.24647, 46.42723], [2.24756, 46.42734], [2.24802, 46.42506], [2.24659, 46.42384], [2.24381, 46.42281], [2.24005, 46.41978], [2.23974, 46.4201], [2.24293, 46.42274]]], [[[2.23783, 46.41416], [2.23688, 46.41437], [2.23626, 46.41443], [2.23726, 46.41458], [2.23783, 46.41416]]], [[[2.22347, 46.49858], [2.22202, 46.49737], [2.22184, 46.49836], [2.22347, 46.49858]]], [[[2.22116, 46.45982], [2.22027, 46.46151], [2.22259, 46.46202], [2.22356, 46.46153], [2.22116, 46.45982]]], [[[2.22822, 46.4894], [2.22922, 46.4919], [2.23191, 46.4935], [2.23068, 46.48971], [2.22811, 46.4852], [2.22681, 46.48656], [2.22522, 46.48748], [2.22822, 46.4894]]], [[[2.22695, 46.47139], [2.22698, 46.47457], [2.22914, 46.47379], [2.22695, 46.47139]]], [[[2.24129, 46.32485], [2.24353, 46.32602], [2.24715, 46.32648], [2.25118, 46.31919], [2.25103, 46.31814], [2.24971, 46.31721], [2.24893, 46.31595], [2.24925, 46.31383], [2.24646, 46.31246], [2.24637, 46.31512], [2.24524, 46.31705], [2.24351, 46.31824], [2.24163, 46.3187], [2.23954, 46.32112], [2.23634, 46.32322], [2.2367, 46.32432], [2.23898, 46.32419], [2.24129, 46.32485]]], [[[2.22175, 46.38006], [2.22177, 46.38004], [2.22168, 46.38001], [2.22175, 46.38006]]], [[[2.21664, 46.36696], [2.21749, 46.36866], [2.21888, 46.36897], [2.21959, 46.36757], [2.21769, 46.36557], [2.21664, 46.36696]]], [[[2.22792, 46.36797], [2.22483, 46.36896], [2.22704, 46.36929], [2.22955, 46.36788], [2.23181, 46.3672], [2.22968, 46.36635], [2.22792, 46.36797]]], [[[2.25645, 46.44226], [2.25595, 46.44241], [2.25649, 46.44285], [2.25645, 46.44226]]], [[[2.2552, 46.40577], [2.25706, 46.40515], [2.25883, 46.40508], [2.25791, 46.40443], [2.25477, 46.40556], [2.2552, 46.40577]]], [[[2.24471, 46.45515], [2.24595, 46.45671], [2.24626, 46.4579], [2.24842, 46.45837], [2.25039, 46.45962], [2.25102, 46.45828], [2.25259, 46.45708], [2.25117, 46.45601], [2.25058, 46.45495], [2.24889, 46.45454], [2.24743, 46.45368], [2.24471, 46.45515]]], [[[2.25127, 46.46225], [2.25169, 46.4624], [2.2513, 46.46206], [2.25127, 46.46225]]], [[[2.24655, 46.49121], [2.24499, 46.49199], [2.24323, 46.49231], [2.24327, 46.49268], [2.2457, 46.4926], [2.24955, 46.49357], [2.25046, 46.49327], [2.24823, 46.49243], [2.24655, 46.49121]]], [[[2.27097, 46.40013], [2.27175, 46.40202], [2.27625, 46.40071], [2.27709, 46.40008], [2.2753, 46.39818], [2.27542, 46.39527], [2.27365, 46.3944], [2.27202, 46.3925], [2.27075, 46.3925], [2.26674, 46.39432], [2.26634, 46.39524], [2.26898, 46.39599], [2.27039, 46.39696], [2.27115, 46.39822], [2.27097, 46.40013]]], [[[2.28143, 46.42335], [2.28185, 46.42273], [2.28134, 46.42256], [2.28143, 46.42304], [2.28143, 46.42335]]], [[[2.26616, 46.42914], [2.26576, 46.42955], [2.26664, 46.42964], [2.26616, 46.42914]]], [[[2.27057, 46.46764], [2.2696, 46.46823], [2.26948, 46.46966], [2.27109, 46.46836], [2.27057, 46.46764]]], [[[2.2851, 46.46974], [2.28551, 46.46965], [2.28527, 46.46952], [2.2851, 46.46974]]], [[[2.25196, 46.36327], [2.25228, 46.36333], [2.25228, 46.36333], [2.25196, 46.36327]]], [[[2.2585, 46.36486], [2.25815, 46.36462], [2.2561, 46.36415], [2.25676, 46.36461], [2.2585, 46.36486]]], [[[2.25775, 46.31764], [2.26152, 46.31773], [2.25939, 46.31549], [2.25775, 46.31764]]], [[[2.24803, 46.33661], [2.24988, 46.33836], [2.2519, 46.33986], [2.25242, 46.33859], [2.25031, 46.3381], [2.24803, 46.33661]]], [[[2.30444, 46.35337], [2.30397, 46.35556], [2.30568, 46.35656], [2.30897, 46.35654], [2.30766, 46.35423], [2.30821, 46.35225], [2.30565, 46.35265], [2.30444, 46.35337]]], [[[2.32673, 46.3348], [2.32698, 46.33568], [2.32968, 46.33544], [2.32888, 46.33492], [2.32673, 46.3348]]], [[[2.33401, 46.32675], [2.3339, 46.329], [2.3363, 46.3297], [2.33664, 46.32951], [2.3365, 46.3271], [2.33859, 46.3252], [2.33768, 46.32391], [2.33784, 46.32195], [2.33661, 46.32505], [2.33401, 46.32675]]], [[[2.32658, 46.4734], [2.32763, 46.47116], [2.3292, 46.47013], [2.33117, 46.46954], [2.328, 46.46883], [2.32669, 46.46786], [2.32605, 46.46679], [2.3246, 46.46787], [2.32171, 46.46852], [2.31951, 46.46982], [2.3176, 46.47017], [2.31549, 46.46995], [2.31302, 46.47167], [2.30982, 46.47193], [2.31007, 46.47382], [2.30891, 46.47554], [2.30971, 46.47631], [2.31215, 46.47602], [2.31462, 46.47661], [2.31602, 46.47754], [2.31705, 46.47913], [2.32658, 46.4734]]], [[[2.33938, 46.45708], [2.34058, 46.45737], [2.34238, 46.45704], [2.34245, 46.45559], [2.34331, 46.45418], [2.34517, 46.45307], [2.34713, 46.4527], [2.34511, 46.45111], [2.34298, 46.45226], [2.34133, 46.45262], [2.34168, 46.45387], [2.34133, 46.45521], [2.33938, 46.45708]]], [[[2.34167, 46.44484], [2.34515, 46.44639], [2.3464, 46.4461], [2.3459, 46.44458], [2.34629, 46.44321], [2.34426, 46.44004], [2.34424, 46.43834], [2.3412, 46.43782], [2.33779, 46.43643], [2.33644, 46.43761], [2.33425, 46.43842], [2.33442, 46.44017], [2.33708, 46.44207], [2.33924, 46.4448], [2.34167, 46.44484]]], [[[2.3349, 46.4476], [2.33263, 46.44443], [2.33101, 46.44334], [2.32879, 46.44399], [2.32928, 46.44543], [2.32872, 46.4471], [2.33048, 46.44865], [2.33084, 46.4503], [2.32954, 46.45261], [2.32772, 46.45386], [2.33014, 46.45505], [2.33023, 46.4533], [2.33146, 46.45153], [2.33293, 46.45061], [2.33508, 46.45013], [2.33465, 46.44895], [2.3349, 46.4476]]], [[[2.34895, 46.42433], [2.34897, 46.42435], [2.34898, 46.42428], [2.34895, 46.42433]]], [[[2.3471, 46.41941], [2.34862, 46.42032], [2.34939, 46.42131], [2.35179, 46.41937], [2.34956, 46.41527], [2.34821, 46.40981], [2.34698, 46.41115], [2.34858, 46.41265], [2.34889, 46.41515], [2.34761, 46.41707], [2.34577, 46.41814], [2.34331, 46.41853], [2.34055, 46.41797], [2.33879, 46.41685], [2.33788, 46.415], [2.33309, 46.41496], [2.33141, 46.41614], [2.32947, 46.41662], [2.33152, 46.41777], [2.33463, 46.41829], [2.33609, 46.41924], [2.33708, 46.42134], [2.33665, 46.42324], [2.33907, 46.42231], [2.33988, 46.42055], [2.34199, 46.41926], [2.34436, 46.4189], [2.3471, 46.41941]]], [[[2.34257, 46.40178], [2.3393, 46.40304], [2.34045, 46.40414], [2.34515, 46.40296], [2.34257, 46.40178]]], [[[2.3181, 46.44262], [2.31959, 46.44183], [2.32189, 46.44145], [2.3217, 46.44025], [2.32119, 46.43994], [2.31748, 46.44211], [2.3181, 46.44262]]], [[[2.31274, 46.43359], [2.31288, 46.43323], [2.31186, 46.43238], [2.31188, 46.4327], [2.31274, 46.43359]]], [[[2.3014, 46.4166], [2.30625, 46.41902], [2.30739, 46.41758], [2.31009, 46.41663], [2.3086, 46.41465], [2.30911, 46.41248], [2.30734, 46.41137], [2.30648, 46.40978], [2.3068, 46.4081], [2.3079, 46.40691], [2.30953, 46.40612], [2.30898, 46.40594], [2.30702, 46.4067], [2.306, 46.4102], [2.30507, 46.41147], [2.30361, 46.41233], [2.30165, 46.41277], [2.30225, 46.41462], [2.3014, 46.4166]]], [[[2.30428, 46.40198], [2.30429, 46.40333], [2.3048, 46.40313], [2.30428, 46.40198]]], [[[2.31677, 46.41968], [2.31474, 46.41919], [2.31181, 46.42042], [2.31123, 46.42152], [2.31001, 46.42226], [2.31107, 46.42364], [2.31108, 46.42759], [2.31257, 46.42784], [2.31549, 46.42746], [2.31392, 46.42572], [2.31404, 46.42329], [2.31566, 46.42151], [2.31829, 46.4207], [2.31873, 46.41959], [2.31677, 46.41968]]], [[[2.33256, 46.42528], [2.32862, 46.42444], [2.32757, 46.42607], [2.33067, 46.42692], [2.33232, 46.4281], [2.3331, 46.42971], [2.33278, 46.43123], [2.33575, 46.4317], [2.33736, 46.43027], [2.33589, 46.42923], [2.33519, 46.42802], [2.33514, 46.42543], [2.33559, 46.42429], [2.33256, 46.42528]]], [[[2.30812, 46.46459], [2.31211, 46.46427], [2.3142, 46.46293], [2.31141, 46.46213], [2.30916, 46.4626], [2.30675, 46.46232], [2.30655, 46.46366], [2.30563, 46.46486], [2.30082, 46.46728], [2.30263, 46.46824], [2.30378, 46.46958], [2.30566, 46.46954], [2.30523, 46.46836], [2.30548, 46.46666], [2.30647, 46.46547], [2.30812, 46.46459]]], [[[2.30645, 46.45361], [2.30703, 46.45559], [2.3084, 46.45535], [2.30963, 46.45399], [2.3116, 46.45308], [2.31332, 46.45123], [2.3136, 46.4501], [2.3112, 46.45059], [2.30975, 46.45257], [2.30797, 46.45337], [2.30645, 46.45361]]], [[[2.31008, 46.43883], [2.30952, 46.43888], [2.30975, 46.43911], [2.31008, 46.43883]]], [[[2.29999, 46.39859], [2.30166, 46.39908], [2.30271, 46.39964], [2.30279, 46.39852], [2.29999, 46.39859]]], [[[2.30293, 46.44457], [2.30329, 46.44485], [2.3032, 46.44445], [2.30293, 46.44457]]], [[[2.34422, 46.39609], [2.3408, 46.39471], [2.34313, 46.3966], [2.34422, 46.39609]]], [[[2.32962, 46.40949], [2.32942, 46.40961], [2.32968, 46.40964], [2.32962, 46.40949]]], [[[2.33612, 46.46689], [2.33742, 46.46592], [2.33733, 46.46544], [2.33614, 46.46515], [2.33612, 46.46689]]], [[[2.35609, 46.44174], [2.35739, 46.4436], [2.35944, 46.44435], [2.3611, 46.44197], [2.36014, 46.44044], [2.35729, 46.43993], [2.35609, 46.44174]]], [[[2.3636, 46.42498], [2.36106, 46.42733], [2.36249, 46.42783], [2.36348, 46.42878], [2.36634, 46.42893], [2.36466, 46.42556], [2.36501, 46.42388], [2.36629, 46.42257], [2.36546, 46.42172], [2.36322, 46.42258], [2.3636, 46.42498]]]]}, "properties": {"kind": "windland", "area_km2": 51.64}}, {"type": "Feature", "geometry": {"type": "MultiPolygon", "coordinates": [[[[2.19389, 46.38305], [2.19406, 46.3826], [2.19458, 46.38237], [2.19613, 46.38263], [2.19643, 46.38206], [2.19693, 46.38183], [2.1975, 46.38189], [2.19801, 46.3822], [2.1983, 46.38284], [2.20038, 46.38228], [2.20061, 46.38204], [2.20069, 46.3798], [2.20411, 46.3743], [2.19345, 46.37422], [2.19343, 46.37587], [2.19429, 46.37535], [2.19519, 46.37603], [2.19672, 46.37673], [2.1981, 46.37706], [2.19975, 46.37713], [2.19857, 46.37901], [2.19658, 46.37888], [2.19338, 46.37953], [2.19333, 46.38296], [2.19389, 46.38305]]], [[[2.20603, 46.37626], [2.20537, 46.37613], [2.20504, 46.37561], [2.2044, 46.37525], [2.20144, 46.37997], [2.20139, 46.38165], [2.20258, 46.38154], [2.20297, 46.3818], [2.20305, 46.38224], [2.20426, 46.38261], [2.20541, 46.38274], [2.20636, 46.38263], [2.20846, 46.38184], [2.20975, 46.38182], [2.21053, 46.38133], [2.21105, 46.38123], [2.21164, 46.38136], [2.21235, 46.38195], [2.21241, 46.38253], [2.21122, 46.38305], [2.21, 46.38278], [2.20977, 46.3832], [2.20911, 46.38338], [2.20841, 46.38319], [2.20813, 46.38256], [2.20667, 46.38312], [2.20571, 46.38326], [2.20454, 46.38323], [2.20266, 46.38274], [2.2014, 46.38307], [2.20131, 46.38529], [2.1989, 46.38964], [2.20241, 46.38883], [2.20714, 46.38813], [2.20779, 46.38842], [2.20799, 46.38894], [2.20945, 46.38943], [2.20954, 46.39016], [2.20883, 46.3906], [2.2071, 46.3903], [2.20616, 46.38979], [2.20619, 46.38917], [2.20594, 46.3889], [2.20549, 46.38889], [2.19957, 46.39005], [2.19978, 46.39069], [2.19915, 46.39104], [2.19891, 46.3915], [2.19839, 46.3917], [2.19779, 46.39159], [2.19739, 46.3923], [2.1974, 46.39335], [2.20122, 46.39452], [2.20284, 46.39452], [2.20377, 46.39402], [2.20567, 46.39367], [2.20587, 46.39333], [2.20642, 46.3931], [2.2078, 46.39354], [2.20879, 46.3934], [2.21006, 46.39372], [2.21131, 46.39363], [2.21172, 46.39321], [2.21265, 46.39314], [2.21335, 46.39347], [2.21354, 46.39424], [2.21319, 46.39458], [2.21256, 46.39468], [2.21185, 46.39457], [2.2115, 46.39416], [2.20975, 46.39425], [2.20858, 46.39393], [2.20787, 46.3941], [2.20783, 46.39447], [2.20741, 46.39477], [2.20666, 46.39606], [2.20457, 46.39652], [2.20566, 46.39707], [2.20573, 46.39813], [2.20614, 46.39856], [2.20575, 46.3994], [2.20606, 46.39967], [2.20607, 46.40006], [2.20575, 46.40037], [2.2053, 46.40047], [2.20443, 46.40033], [2.20409, 46.39994], [2.20419, 46.39955], [2.2046, 46.3993], [2.2043, 46.39857], [2.20448, 46.39827], [2.20494, 46.39809], [2.20493, 46.39733], [2.20361, 46.39675], [2.20339, 46.39642], [2.20364, 46.39614], [2.20469, 46.39594], [2.20448, 46.39544], [2.20481, 46.39494], [2.20579, 46.39473], [2.2066, 46.39479], [2.20579, 46.39421], [2.20408, 46.39452], [2.20308, 46.39504], [2.2011, 46.39506], [2.19658, 46.39374], [2.19607, 46.39466], [2.19726, 46.39495], [2.19786, 46.39472], [2.19839, 46.39474], [2.19888, 46.39504], [2.19906, 46.39545], [2.19892, 46.39599], [2.19846, 46.39629], [2.19799, 46.3963], [2.19691, 46.39595], [2.1956, 46.40291], [2.19591, 46.40327], [2.19683, 46.40327], [2.19778, 46.40398], [2.19781, 46.40479], [2.20138, 46.40537], [2.20188, 46.40509], [2.20283, 46.40513], [2.20329, 46.40533], [2.20355, 46.40572], [2.20396, 46.40541], [2.20522, 46.40522], [2.20561, 46.40457], [2.20682, 46.40444], [2.20745, 46.40465], [2.20783, 46.40519], [2.21041, 46.40583], [2.21508, 46.4064], [2.21575, 46.40683], [2.21598, 46.40763], [2.21644, 46.40767], [2.21714, 46.40743], [2.21797, 46.40765], [2.21834, 46.40814], [2.21857, 46.40942], [2.21975, 46.41028], [2.22008, 46.41041], [2.22248, 46.41042], [2.22251, 46.41004], [2.22203, 46.4096], [2.22211, 46.40885], [2.22069, 46.40842], [2.22028, 46.40782], [2.22075, 46.40707], [2.2215, 46.40689], [2.22172, 46.40657], [2.22216, 46.40641], [2.22153, 46.40572], [2.21987, 46.40516], [2.21944, 46.40362], [2.21859, 46.40253], [2.21801, 46.4022], [2.21804, 46.40159], [2.21696, 46.40034], [2.21665, 46.3995], [2.21693, 46.3993], [2.21731, 46.39937], [2.21766, 46.4001], [2.21875, 46.40136], [2.21951, 46.40165], [2.21963, 46.40202], [2.21936, 46.40238], [2.22035, 46.40378], [2.22056, 46.40489], [2.22201, 46.4053], [2.22289, 46.40619], [2.22404, 46.4055], [2.22313, 46.40508], [2.22298, 46.40461], [2.2233, 46.40418], [2.22401, 46.40403], [2.22547, 46.40455], [2.22681, 46.40342], [2.22563, 46.40229], [2.22509, 46.40202], [2.22491, 46.40166], [2.22534, 46.4012], [2.22651, 46.40125], [2.22702, 46.40088], [2.22734, 46.40032], [2.22703, 46.39958], [2.22735, 46.39854], [2.22733, 46.39751], [2.22709, 46.39725], [2.22534, 46.3965], [2.2243, 46.3955], [2.22371, 46.39448], [2.22096, 46.3945], [2.21908, 46.39415], [2.21788, 46.3942], [2.21653, 46.39337], [2.21636, 46.39257], [2.21685, 46.39215], [2.21819, 46.39197], [2.21879, 46.39236], [2.21884, 46.39293], [2.21948, 46.39326], [2.21961, 46.3937], [2.22102, 46.39396], [2.22341, 46.39394], [2.22322, 46.393], [2.22426, 46.39113], [2.22601, 46.39002], [2.22678, 46.38882], [2.22977, 46.38793], [2.23006, 46.38758], [2.23008, 46.38705], [2.22874, 46.38469], [2.2253, 46.38568], [2.22262, 46.38428], [2.22124, 46.38385], [2.2203, 46.38379], [2.21993, 46.38426], [2.21929, 46.38439], [2.21862, 46.38426], [2.21691, 46.38348], [2.21659, 46.38246], [2.21696, 46.38208], [2.21784, 46.38178], [2.21851, 46.382], [2.21874, 46.38253], [2.21932, 46.38271], [2.22001, 46.38325], [2.2213, 46.3833], [2.22284, 46.38374], [2.2254, 46.38514], [2.22845, 46.38419], [2.22742, 46.38235], [2.22665, 46.38225], [2.22598, 46.38152], [2.22605, 46.38046], [2.22552, 46.37967], [2.2248, 46.37733], [2.22443, 46.37721], [2.2236, 46.37736], [2.22206, 46.37662], [2.22233, 46.37519], [2.22277, 46.37499], [2.22367, 46.37495], [2.22277, 46.37476], [2.22226, 46.37442], [2.21946, 46.3744], [2.21948, 46.37285], [2.21877, 46.37267], [2.21806, 46.37415], [2.21757, 46.37435], [2.21623, 46.37445], [2.21641, 46.37489], [2.21592, 46.37573], [2.2147, 46.37579], [2.21351, 46.37517], [2.2136, 46.37447], [2.21415, 46.37398], [2.21533, 46.3741], [2.21743, 46.37381], [2.21818, 46.37222], [2.21866, 46.37207], [2.21949, 46.37227], [2.2195, 46.37142], [2.21506, 46.37032], [2.21456, 46.37007], [2.21358, 46.36885], [2.21322, 46.36882], [2.21322, 46.36953], [2.21297, 46.3699], [2.21248, 46.37006], [2.21191, 46.36999], [2.21188, 46.37054], [2.21037, 46.37048], [2.21013, 46.37023], [2.2102, 46.3694], [2.20976, 46.36894], [2.20841, 46.36776], [2.20656, 46.36695], [2.20646, 46.37397], [2.20769, 46.37395], [2.20865, 46.37444], [2.20891, 46.37575], [2.20858, 46.37624], [2.20768, 46.37632], [2.2072, 46.37608], [2.20683, 46.37532], [2.20669, 46.37598], [2.20603, 46.37626]], [[2.21897, 46.38906], [2.21747, 46.38901], [2.21547, 46.38934], [2.21435, 46.38855], [2.21332, 46.38814], [2.21233, 46.38724], [2.21062, 46.38618], [2.2138, 46.38551], [2.21661, 46.38687], [2.21817, 46.38725], [2.22059, 46.38726], [2.22275, 46.38648], [2.22415, 46.38716], [2.22571, 46.38733], [2.22477, 46.38788], [2.22399, 46.38902], [2.22282, 46.38972], [2.22207, 46.39044], [2.22081, 46.3896], [2.21897, 46.38906]], [[2.20589, 46.3796], [2.20522, 46.3792], [2.20682, 46.37922], [2.20648, 46.37933], [2.20589, 46.3796]], [[2.20497, 46.38542], [2.20519, 46.38513], [2.20543, 46.38531], [2.20497, 46.38542]], [[2.22175, 46.38006], [2.22177, 46.38004], [2.22177, 46.38007], [2.22175, 46.38006]], [[2.21687, 46.37865], [2.21839, 46.37815], [2.21933, 46.37898], [2.21709, 46.37885], [2.21491, 46.37944], [2.21342, 46.37866], [2.21165, 46.3783], [2.21194, 46.3781], [2.21291, 46.37848], [2.21435, 46.37875], [2.21687, 46.37865]], [[2.21204, 46.39113], [2.21207, 46.39158], [2.21167, 46.39188], [2.21097, 46.39192], [2.21052, 46.39164], [2.21048, 46.39119], [2.21088, 46.39087], [2.21159, 46.39084], [2.21204, 46.39113]], [[2.19962, 46.40101], [2.19857, 46.40056], [2.19885, 46.39925], [2.19994, 46.39907], [2.1999, 46.40056], [2.20058, 46.40174], [2.19962, 46.40101]], [[2.21031, 46.40047], [2.21044, 46.39872], [2.21025, 46.3977], [2.21052, 46.3974], [2.21202, 46.39762], [2.2135, 46.39758], [2.21499, 46.39726], [2.21595, 46.39684], [2.21769, 46.39719], [2.21939, 46.39714], [2.22163, 46.39653], [2.22299, 46.39802], [2.22276, 46.39971], [2.22122, 46.39882], [2.21928, 46.39842], [2.21863, 46.39798], [2.21764, 46.39767], [2.21628, 46.3977], [2.21491, 46.3983], [2.21431, 46.39914], [2.21437, 46.40014], [2.21386, 46.4009], [2.21364, 46.40192], [2.21402, 46.40327], [2.21545, 46.40466], [2.21526, 46.40471], [2.21204, 46.40443], [2.21091, 46.4029], [2.20939, 46.40198], [2.21031, 46.40047]]], [[[2.20048, 46.38283], [2.19849, 46.38338], [2.1978, 46.3838], [2.1972, 46.38369], [2.19635, 46.38318], [2.19629, 46.3838], [2.19555, 46.38406], [2.19426, 46.38358], [2.19264, 46.38338], [2.18955, 46.384], [2.18882, 46.38387], [2.18842, 46.38357], [2.18668, 46.3835], [2.18549, 46.38317], [2.18032, 46.38313], [2.18027, 46.38637], [2.18112, 46.38573], [2.1814, 46.3862], [2.18027, 46.38657], [2.18021, 46.39019], [2.18069, 46.39041], [2.18101, 46.39102], [2.18204, 46.39105], [2.18258, 46.3914], [2.18456, 46.39165], [2.18521, 46.39196], [2.18547, 46.39259], [2.1886, 46.39573], [2.19011, 46.39662], [2.19229, 46.3984], [2.19308, 46.39846], [2.19576, 46.39372], [2.19464, 46.39335], [2.19434, 46.39246], [2.19572, 46.39182], [2.19681, 46.39184], [2.19727, 46.39104], [2.19724, 46.39046], [2.19781, 46.39008], [2.20046, 46.38537], [2.20062, 46.3846], [2.19968, 46.3847], [2.19882, 46.38444], [2.19852, 46.38413], [2.19857, 46.38362], [2.19901, 46.38334], [2.20062, 46.38357], [2.20048, 46.38283]], [[2.18951, 46.39126], [2.18859, 46.39015], [2.1885, 46.38917], [2.18777, 46.38789], [2.18973, 46.38696], [2.19134, 46.38674], [2.19243, 46.38635], [2.19398, 46.38686], [2.19679, 46.38705], [2.19462, 46.38803], [2.19328, 46.38935], [2.192, 46.38995], [2.19084, 46.39106], [2.19034, 46.39218], [2.19021, 46.39321], [2.19051, 46.39422], [2.19109, 46.395], [2.19042, 46.39464], [2.18948, 46.39362], [2.18979, 46.39227], [2.18951, 46.39126]], [[2.18677, 46.38458], [2.18657, 46.38496], [2.18603, 46.38516], [2.1854, 46.38502], [2.18512, 46.38464], [2.18532, 46.38421], [2.18586, 46.38401], [2.18649, 46.38415], [2.18677, 46.38458]], [[2.18241, 46.38916], [2.18306, 46.38898], [2.1839, 46.38924], [2.18433, 46.38984], [2.18409, 46.39029], [2.18333, 46.39055], [2.1823, 46.39027], [2.18202, 46.38965], [2.18241, 46.38916]]], [[[2.18146, 46.39227], [2.18065, 46.39185], [2.18019, 46.39189], [2.18013, 46.39554], [2.18061, 46.39538], [2.18193, 46.39574], [2.18502, 46.396], [2.18634, 46.39727], [2.18765, 46.39803], [2.18744, 46.399], [2.1876, 46.3999], [2.18573, 46.40055], [2.18468, 46.40025], [2.18316, 46.40012], [2.18092, 46.40052], [2.18007, 46.40001], [2.18005, 46.40113], [2.19152, 46.40121], [2.19209, 46.40019], [2.19217, 46.39952], [2.19181, 46.39928], [2.19176, 46.39886], [2.19132, 46.39834], [2.188, 46.39607], [2.18492, 46.39298], [2.18426, 46.39303], [2.18369, 46.39272], [2.18288, 46.39285], [2.18228, 46.39259], [2.18213, 46.39219], [2.18146, 46.39227]]], [[[2.19494, 46.40233], [2.19623, 46.39526], [2.19578, 46.39516], [2.19344, 46.39928], [2.19381, 46.39963], [2.19377, 46.40006], [2.19494, 46.40233]]], [[[2.19315, 46.40053], [2.19274, 46.40052], [2.19236, 46.40121], [2.19306, 46.40122], [2.19303, 46.4032], [2.19448, 46.40398], [2.19557, 46.40432], [2.19532, 46.40394], [2.19469, 46.40392], [2.19422, 46.40358], [2.19418, 46.40321], [2.19449, 46.4029], [2.19315, 46.40053]]], [[[2.20598, 46.40645], [2.20505, 46.40747], [2.20372, 46.40739], [2.20292, 46.4068], [2.20303, 46.40622], [2.20188, 46.40623], [2.20135, 46.40592], [2.19747, 46.40529], [2.19672, 46.40537], [2.19587, 46.4049], [2.19408, 46.40445], [2.19302, 46.40388], [2.19294, 46.40879], [2.19397, 46.4077], [2.19622, 46.40832], [2.19852, 46.4082], [2.20084, 46.40965], [2.20204, 46.41011], [2.20199, 46.41028], [2.20646, 46.41031], [2.20687, 46.4101], [2.20743, 46.4101], [2.20815, 46.40974], [2.20885, 46.4099], [2.2091, 46.41033], [2.21401, 46.41036], [2.21415, 46.40983], [2.21557, 46.40809], [2.21519, 46.40776], [2.21515, 46.40724], [2.21483, 46.40691], [2.21126, 46.40657], [2.20799, 46.40578], [2.20718, 46.40637], [2.20598, 46.40645]]], [[[2.19606, 46.40988], [2.19396, 46.40985], [2.19293, 46.41005], [2.19292, 46.41022], [2.19755, 46.41025], [2.19606, 46.40988]]], [[[2.21076, 46.36534], [2.21115, 46.36535], [2.2112, 46.36535], [2.21076, 46.36534]]], [[[2.20715, 46.36652], [2.20931, 46.36759], [2.21023, 46.36774], [2.21106, 46.36749], [2.2107, 46.36699], [2.21001, 46.36694], [2.20957, 46.36651], [2.20977, 46.36566], [2.21033, 46.36534], [2.20659, 46.36531], [2.20657, 46.3664], [2.20715, 46.36652]]], [[[2.21531, 46.36537], [2.21445, 46.36585], [2.21369, 46.36536], [2.21202, 46.36535], [2.21187, 46.36567], [2.21215, 46.36632], [2.21163, 46.36693], [2.21185, 46.36751], [2.21155, 46.36794], [2.21422, 46.36849], [2.21547, 46.36987], [2.21951, 46.37085], [2.21955, 46.3676], [2.21888, 46.36897], [2.21749, 46.36866], [2.21717, 46.36765], [2.21664, 46.36696], [2.21732, 46.36638], [2.21769, 46.36557], [2.21789, 46.36561], [2.21838, 46.36652], [2.21955, 46.36754], [2.21958, 46.3654], [2.21531, 46.36537]]], [[[2.21028, 46.36835], [2.21005, 46.36828], [2.20988, 46.36825], [2.21028, 46.36835]]], [[[2.20558, 46.37447], [2.20603, 46.37431], [2.20517, 46.3743], [2.20558, 46.37447]]], [[[2.21783, 46.40976], [2.21714, 46.40955], [2.21671, 46.40911], [2.21668, 46.40853], [2.21628, 46.40843], [2.21579, 46.40877], [2.21479, 46.41037], [2.21883, 46.4104], [2.21783, 46.40976]]], [[[2.22397, 46.37443], [2.22542, 46.37607], [2.22535, 46.3765], [2.22639, 46.37976], [2.22669, 46.38014], [2.22744, 46.38021], [2.228, 46.38064], [2.22778, 46.38123], [2.22821, 46.38165], [2.22822, 46.38228], [2.22959, 46.38226], [2.23152, 46.3815], [2.23177, 46.38104], [2.23245, 46.38066], [2.23405, 46.38037], [2.23514, 46.38037], [2.23604, 46.38062], [2.23862, 46.37989], [2.23914, 46.38009], [2.23953, 46.38059], [2.24005, 46.3806], [2.24053, 46.38086], [2.24063, 46.38122], [2.2404, 46.38159], [2.23901, 46.38228], [2.23834, 46.38228], [2.2377, 46.3819], [2.2375, 46.38156], [2.23764, 46.38123], [2.23718, 46.38084], [2.23612, 46.38116], [2.23418, 46.3809], [2.23284, 46.38113], [2.23242, 46.38135], [2.23203, 46.38191], [2.23003, 46.38271], [2.22884, 46.38279], [2.2317, 46.38511], [2.23363, 46.38712], [2.23407, 46.38779], [2.23525, 46.39118], [2.23796, 46.39388], [2.23929, 46.39345], [2.24028, 46.3936], [2.24098, 46.39403], [2.24108, 46.39443], [2.24087, 46.39477], [2.23996, 46.39539], [2.23922, 46.39539], [2.23903, 46.39752], [2.2451, 46.4008], [2.24513, 46.39868], [2.243, 46.3975], [2.24459, 46.39625], [2.24517, 46.39533], [2.2452, 46.39347], [2.24487, 46.3928], [2.24371, 46.39169], [2.24203, 46.39089], [2.23966, 46.3905], [2.23767, 46.39066], [2.23699, 46.38951], [2.23605, 46.38673], [2.23288, 46.38349], [2.23374, 46.38308], [2.23517, 46.38434], [2.23688, 46.38506], [2.23831, 46.38526], [2.24006, 46.38515], [2.24035, 46.38654], [2.24135, 46.38774], [2.24305, 46.38872], [2.24526, 46.38917], [2.2453, 46.38619], [2.24452, 46.38574], [2.24433, 46.38533], [2.24484, 46.38462], [2.24532, 46.38441], [2.24536, 46.38144], [2.24489, 46.38147], [2.24464, 46.37999], [2.24366, 46.37883], [2.24156, 46.37763], [2.24022, 46.37713], [2.23841, 46.37692], [2.24047, 46.37594], [2.24258, 46.37583], [2.24392, 46.37556], [2.24545, 46.37499], [2.24546, 46.37458], [2.22397, 46.37443]], [[2.23104, 46.37849], [2.22935, 46.37756], [2.22972, 46.3763], [2.23117, 46.37663], [2.23318, 46.37662], [2.23651, 46.37718], [2.23471, 46.37793], [2.23369, 46.37873], [2.23166, 46.37908], [2.23104, 46.37849]]], [[[2.23307, 46.38753], [2.22904, 46.38373], [2.23083, 46.3869], [2.23141, 46.38973], [2.23219, 46.38997], [2.23227, 46.39054], [2.23143, 46.39092], [2.23056, 46.39064], [2.23038, 46.38828], [2.22958, 46.38864], [2.22733, 46.38922], [2.22694, 46.38993], [2.22809, 46.39063], [2.23012, 46.39236], [2.23015, 46.39272], [2.22973, 46.39342], [2.22934, 46.39366], [2.22853, 46.3938], [2.22763, 46.39361], [2.22699, 46.39321], [2.22682, 46.39286], [2.22703, 46.39244], [2.22749, 46.39225], [2.22819, 46.39231], [2.22864, 46.39194], [2.22655, 46.39041], [2.22485, 46.3915], [2.22399, 46.39345], [2.2249, 46.39514], [2.22557, 46.39524], [2.22587, 46.3948], [2.22665, 46.39464], [2.22765, 46.39521], [2.22753, 46.39585], [2.22834, 46.39546], [2.22916, 46.39576], [2.22925, 46.39612], [2.22891, 46.39672], [2.22782, 46.39699], [2.2281, 46.39742], [2.22813, 46.39834], [2.22858, 46.3985], [2.22855, 46.39814], [2.2289, 46.3978], [2.22983, 46.39769], [2.2308, 46.39844], [2.23073, 46.39881], [2.23022, 46.39916], [2.23071, 46.39953], [2.23059, 46.40002], [2.23136, 46.40007], [2.23254, 46.39979], [2.23353, 46.39985], [2.2345, 46.40017], [2.23468, 46.40092], [2.23419, 46.40131], [2.23192, 46.40166], [2.23108, 46.40134], [2.231, 46.40063], [2.22888, 46.40018], [2.22913, 46.40069], [2.22868, 46.40136], [2.22752, 46.40135], [2.22655, 46.40179], [2.2257, 46.40168], [2.22623, 46.40194], [2.2276, 46.40326], [2.22745, 46.40375], [2.226, 46.40496], [2.2266, 46.40545], [2.22666, 46.40587], [2.22623, 46.40623], [2.22571, 46.40631], [2.22475, 46.40579], [2.22344, 46.40658], [2.22332, 46.40683], [2.22405, 46.40763], [2.22559, 46.40763], [2.2293, 46.40875], [2.23025, 46.40931], [2.2324, 46.40968], [2.23471, 46.41037], [2.23535, 46.41017], [2.23649, 46.41052], [2.24496, 46.41057], [2.24509, 46.40144], [2.23882, 46.39817], [2.23886, 46.39852], [2.23851, 46.39888], [2.23754, 46.399], [2.23702, 46.39879], [2.23669, 46.39828], [2.23546, 46.39775], [2.23537, 46.39736], [2.2357, 46.39681], [2.23637, 46.39651], [2.23744, 46.39682], [2.2377, 46.39713], [2.2377, 46.39767], [2.2382, 46.3977], [2.23843, 46.39541], [2.23454, 46.39142], [2.23307, 46.38753]], [[2.24094, 46.40132], [2.24378, 46.40283], [2.24327, 46.40359], [2.24185, 46.40466], [2.23991, 46.40417], [2.23746, 46.40433], [2.23615, 46.40482], [2.23503, 46.40559], [2.23433, 46.4065], [2.23407, 46.40732], [2.2322, 46.40795], [2.23143, 46.40782], [2.23042, 46.40729], [2.23097, 46.40575], [2.23065, 46.40449], [2.23302, 46.40458], [2.23573, 46.40407], [2.2374, 46.40334], [2.2387, 46.40194], [2.24094, 46.40132]], [[2.23951, 46.40714], [2.23997, 46.40747], [2.24, 46.40789], [2.23953, 46.40824], [2.23893, 46.40826], [2.23839, 46.40791], [2.23836, 46.40749], [2.23883, 46.40714], [2.23951, 46.40714]]], [[[2.22673, 46.3965], [2.22691, 46.39606], [2.22555, 46.39579], [2.22621, 46.39632], [2.22673, 46.3965]]], [[[2.23105, 46.41011], [2.22989, 46.40979], [2.22839, 46.40904], [2.22537, 46.40815], [2.2243, 46.40814], [2.22385, 46.40865], [2.22288, 46.40877], [2.2236, 46.40893], [2.22393, 46.40928], [2.22388, 46.40983], [2.22329, 46.41016], [2.22327, 46.41043], [2.2332, 46.41049], [2.23196, 46.41015], [2.23105, 46.41011]]]]}, "properties": {"kind": "pv", "area_km2": 13.95, "mw": 697.3}}, {"type": "Feature", "geometry": {"type": "Point", "coordinates": [2.21482, 46.38624]}, "properties": {"kind": "turbine", "i": 0, "mw": 6.0, "hub_m": 120.0, "rotor_m": 150.0}}, {"type": "Feature", "geometry": {"type": "Point", "coordinates": [2.2121, 46.4007]}, "properties": {"kind": "turbine", "i": 1, "mw": 6.0, "hub_m": 120.0, "rotor_m": 150.0}}, {"type": "Feature", "geometry": {"type": "Point", "coordinates": [2.23857, 46.3864]}, "properties": {"kind": "turbine", "i": 2, "mw": 6.0, "hub_m": 120.0, "rotor_m": 150.0}}, {"type": "Feature", "geometry": {"type": "Point", "coordinates": [2.23834, 46.40283]}, "properties": {"kind": "turbine", "i": 3, "mw": 6.0, "hub_m": 120.0, "rotor_m": 150.0}}, {"type": "Feature", "geometry": {"type": "Point", "coordinates": [2.19103, 46.38936]}, "properties": {"kind": "turbine", "i": 4, "mw": 6.0, "hub_m": 120.0, "rotor_m": 150.0}}, {"type": "Feature", "geometry": {"type": "Point", "coordinates": [2.2287, 46.41262]}, "properties": {"kind": "turbine", "i": 5, "mw": 6.0, "hub_m": 120.0, "rotor_m": 150.0}}, {"type": "Feature", "geometry": {"type": "Point", "coordinates": [2.24345, 46.37657]}, "properties": {"kind": "turbine", "i": 6, "mw": 6.0, "hub_m": 120.0, "rotor_m": 150.0}}, {"type": "Feature", "geometry": {"type": "Point", "coordinates": [2.19118, 46.3795]}, "properties": {"kind": "turbine", "i": 7, "mw": 6.0, "hub_m": 120.0, "rotor_m": 150.0}}, {"type": "Feature", "geometry": {"type": "Point", "coordinates": [2.19549, 46.40911]}, "properties": {"kind": "turbine", "i": 8, "mw": 6.0, "hub_m": 120.0, "rotor_m": 150.0}}, {"type": "Feature", "geometry": {"type": "Point", "coordinates": [2.18139, 46.39915]}, "properties": {"kind": "turbine", "i": 9, "mw": 6.0, "hub_m": 120.0, "rotor_m": 150.0}}, {"type": "Feature", "geometry": {"type": "Point", "coordinates": [2.2624, 46.37998]}, "properties": {"kind": "turbine", "i": 10, "mw": 6.0, "hub_m": 120.0, "rotor_m": 150.0}}, {"type": "Feature", "geometry": {"type": "Point", "coordinates": [2.17699, 46.37611]}, "properties": {"kind": "turbine", "i": 11, "mw": 6.0, "hub_m": 120.0, "rotor_m": 150.0}}, {"type": "Feature", "geometry": {"type": "Point", "coordinates": [2.22851, 46.42576]}, "properties": {"kind": "turbine", "i": 12, "mw": 6.0, "hub_m": 120.0, "rotor_m": 150.0}}, {"type": "Feature", "geometry": {"type": "Point", "coordinates": [2.1953, 46.42225]}, "properties": {"kind": "turbine", "i": 13, "mw": 6.0, "hub_m": 120.0, "rotor_m": 150.0}}, {"type": "Feature", "geometry": {"type": "Point", "coordinates": [2.18663, 46.36632]}, "properties": {"kind": "turbine", "i": 14, "mw": 6.0, "hub_m": 120.0, "rotor_m": 150.0}}, {"type": "Feature", "geometry": {"type": "Point", "coordinates": [2.25716, 46.4161]}, "properties": {"kind": "turbine", "i": 15, "mw": 6.0, "hub_m": 120.0, "rotor_m": 150.0}}, {"type": "Feature", "geometry": {"type": "Point", "coordinates": [2.27172, 46.39319]}, "properties": {"kind": "turbine", "i": 16, "mw": 6.0, "hub_m": 120.0, "rotor_m": 150.0}}, {"type": "Feature", "geometry": {"type": "Point", "coordinates": [2.16734, 46.3859]}, "properties": {"kind": "turbine", "i": 17, "mw": 6.0, "hub_m": 120.0, "rotor_m": 150.0}}, {"type": "Feature", "geometry": {"type": "Point", "coordinates": [2.24752, 46.42589]}, "properties": {"kind": "turbine", "i": 18, "mw": 6.0, "hub_m": 120.0, "rotor_m": 150.0}}, {"type": "Feature", "geometry": {"type": "Point", "coordinates": [2.26257, 46.36684]}, "properties": {"kind": "turbine", "i": 19, "mw": 6.0, "hub_m": 120.0, "rotor_m": 150.0}}, {"type": "Feature", "geometry": {"type": "Point", "coordinates": [2.2766, 46.38336]}, "properties": {"kind": "turbine", "i": 20, "mw": 6.0, "hub_m": 120.0, "rotor_m": 150.0}}, {"type": "Feature", "geometry": {"type": "Point", "coordinates": [2.15769, 46.39569]}, "properties": {"kind": "turbine", "i": 21, "mw": 6.0, "hub_m": 120.0, "rotor_m": 150.0}}, {"type": "Feature", "geometry": {"type": "Point", "coordinates": [2.19515, 46.43211]}, "properties": {"kind": "turbine", "i": 22, "mw": 6.0, "hub_m": 120.0, "rotor_m": 150.0}}, {"type": "Feature", "geometry": {"type": "Point", "coordinates": [2.18203, 46.35643]}, "properties": {"kind": "turbine", "i": 23, "mw": 6.0, "hub_m": 120.0, "rotor_m": 150.0}}, {"type": "Feature", "geometry": {"type": "Point", "coordinates": [2.18095, 46.42872]}, "properties": {"kind": "turbine", "i": 24, "mw": 6.0, "hub_m": 120.0, "rotor_m": 150.0}}, {"type": "Feature", "geometry": {"type": "Point", "coordinates": [2.28575, 46.40971]}, "properties": {"kind": "turbine", "i": 25, "mw": 6.0, "hub_m": 120.0, "rotor_m": 150.0}}, {"type": "Feature", "geometry": {"type": "Point", "coordinates": [2.16204, 46.42201]}, "properties": {"kind": "turbine", "i": 26, "mw": 6.0, "hub_m": 120.0, "rotor_m": 150.0}}, {"type": "Feature", "geometry": {"type": "Point", "coordinates": [2.25805, 46.35038]}, "properties": {"kind": "turbine", "i": 27, "mw": 6.0, "hub_m": 120.0, "rotor_m": 150.0}}, {"type": "Feature", "geometry": {"type": "Point", "coordinates": [2.28156, 46.36696]}, "properties": {"kind": "turbine", "i": 28, "mw": 6.0, "hub_m": 120.0, "rotor_m": 150.0}}, {"type": "Feature", "geometry": {"type": "Point", "coordinates": [2.1436, 46.38573]}, "properties": {"kind": "turbine", "i": 29, "mw": 6.0, "hub_m": 120.0, "rotor_m": 150.0}}, {"type": "Feature", "geometry": {"type": "Point", "coordinates": [2.16784, 46.35304]}, "properties": {"kind": "turbine", "i": 30, "mw": 6.0, "hub_m": 120.0, "rotor_m": 150.0}}, {"type": "Feature", "geometry": {"type": "Point", "coordinates": [2.29559, 46.38348]}, "properties": {"kind": "turbine", "i": 31, "mw": 6.0, "hub_m": 120.0, "rotor_m": 150.0}}, {"type": "Feature", "geometry": {"type": "Point", "coordinates": [2.20447, 46.44532]}, "properties": {"kind": "turbine", "i": 32, "mw": 6.0, "hub_m": 120.0, "rotor_m": 150.0}}, {"type": "Feature", "geometry": {"type": "Point", "coordinates": [2.17605, 46.43854]}, "properties": {"kind": "turbine", "i": 33, "mw": 6.0, "hub_m": 120.0, "rotor_m": 150.0}}, {"type": "Feature", "geometry": {"type": "Point", "coordinates": [2.29572, 46.37362]}, "properties": {"kind": "turbine", "i": 34, "mw": 6.0, "hub_m": 120.0, "rotor_m": 150.0}}, {"type": "Feature", "geometry": {"type": "Point", "coordinates": [2.14386, 46.3693]}, "properties": {"kind": "turbine", "i": 35, "mw": 6.0, "hub_m": 120.0, "rotor_m": 150.0}}, {"type": "Feature", "geometry": {"type": "Point", "coordinates": [2.16184, 46.43515]}, "properties": {"kind": "turbine", "i": 36, "mw": 6.0, "hub_m": 120.0, "rotor_m": 150.0}}, {"type": "Feature", "geometry": {"type": "Point", "coordinates": [2.24874, 46.33717]}, "properties": {"kind": "turbine", "i": 37, "mw": 6.0, "hub_m": 120.0, "rotor_m": 150.0}}, {"type": "Feature", "geometry": {"type": "Point", "coordinates": [2.22814, 46.45205]}, "properties": {"kind": "turbine", "i": 38, "mw": 6.0, "hub_m": 120.0, "rotor_m": 150.0}}, {"type": "Feature", "geometry": {"type": "Point", "coordinates": [2.26293, 46.34055]}, "properties": {"kind": "turbine", "i": 39, "mw": 6.0, "hub_m": 120.0, "rotor_m": 150.0}}, {"type": "Feature", "geometry": {"type": "Point", "coordinates": [2.13374, 46.40865]}, "properties": {"kind": "turbine", "i": 40, "mw": 6.0, "hub_m": 120.0, "rotor_m": 150.0}}, {"type": "Feature", "geometry": {"type": "Point", "coordinates": [2.14298, 46.42516]}, "properties": {"kind": "turbine", "i": 41, "mw": 6.0, "hub_m": 120.0, "rotor_m": 150.0}}, {"type": "Feature", "geometry": {"type": "Point", "coordinates": [2.12925, 46.39219]}, "properties": {"kind": "turbine", "i": 42, "mw": 6.0, "hub_m": 120.0, "rotor_m": 150.0}}, {"type": "Feature", "geometry": {"type": "Point", "coordinates": [2.29504, 46.42619]}, "properties": {"kind": "turbine", "i": 43, "mw": 6.0, "hub_m": 120.0, "rotor_m": 150.0}}, {"type": "Feature", "geometry": {"type": "Point", "coordinates": [2.30471, 46.41311]}, "properties": {"kind": "turbine", "i": 44, "mw": 6.0, "hub_m": 120.0, "rotor_m": 150.0}}, {"type": "Feature", "geometry": {"type": "Point", "coordinates": [2.30979, 46.38685]}, "properties": {"kind": "turbine", "i": 45, "mw": 6.0, "hub_m": 120.0, "rotor_m": 150.0}}, {"type": "Feature", "geometry": {"type": "Point", "coordinates": [2.28061, 46.43925]}, "properties": {"kind": "turbine", "i": 46, "mw": 6.0, "hub_m": 120.0, "rotor_m": 150.0}}, {"type": "Feature", "geometry": {"type": "Point", "coordinates": [2.14406, 46.35615]}, "properties": {"kind": "turbine", "i": 47, "mw": 6.0, "hub_m": 120.0, "rotor_m": 150.0}}, {"type": "Feature", "geometry": {"type": "Point", "coordinates": [2.24711, 46.45546]}, "properties": {"kind": "turbine", "i": 48, "mw": 6.0, "hub_m": 120.0, "rotor_m": 150.0}}, {"type": "Feature", "geometry": {"type": "Point", "coordinates": [2.28661, 46.34399]}, "properties": {"kind": "turbine", "i": 49, "mw": 6.0, "hub_m": 120.0, "rotor_m": 150.0}}, {"type": "Feature", "geometry": {"type": "Point", "coordinates": [2.11991, 46.38226]}, "properties": {"kind": "turbine", "i": 50, "mw": 6.0, "hub_m": 120.0, "rotor_m": 150.0}}, {"type": "Feature", "geometry": {"type": "Point", "coordinates": [2.11959, 46.40197]}, "properties": {"kind": "turbine", "i": 51, "mw": 6.0, "hub_m": 120.0, "rotor_m": 150.0}}, {"type": "Feature", "geometry": {"type": "Point", "coordinates": [2.27093, 46.45233]}, "properties": {"kind": "turbine", "i": 52, "mw": 6.0, "hub_m": 120.0, "rotor_m": 150.0}}, {"type": "Feature", "geometry": {"type": "Point", "coordinates": [2.31909, 46.40334]}, "properties": {"kind": "turbine", "i": 53, "mw": 6.0, "hub_m": 120.0, "rotor_m": 150.0}}, {"type": "Feature", "geometry": {"type": "Point", "coordinates": [2.30546, 46.35396]}, "properties": {"kind": "turbine", "i": 54, "mw": 6.0, "hub_m": 120.0, "rotor_m": 150.0}}, {"type": "Feature", "geometry": {"type": "Point", "coordinates": [2.31409, 46.42302]}, "properties": {"kind": "turbine", "i": 55, "mw": 6.0, "hub_m": 120.0, "rotor_m": 150.0}}, {"type": "Feature", "geometry": {"type": "Point", "coordinates": [2.32396, 46.39351]}, "properties": {"kind": "turbine", "i": 56, "mw": 6.0, "hub_m": 120.0, "rotor_m": 150.0}}, {"type": "Feature", "geometry": {"type": "Point", "coordinates": [2.12862, 46.43162]}, "properties": {"kind": "turbine", "i": 57, "mw": 6.0, "hub_m": 120.0, "rotor_m": 150.0}}, {"type": "Feature", "geometry": {"type": "Point", "coordinates": [2.24222, 46.46529]}, "properties": {"kind": "turbine", "i": 58, "mw": 6.0, "hub_m": 120.0, "rotor_m": 150.0}}, {"type": "Feature", "geometry": {"type": "Point", "coordinates": [2.28674, 46.33413]}, "properties": {"kind": "turbine", "i": 59, "mw": 6.0, "hub_m": 120.0, "rotor_m": 150.0}}, {"type": "Feature", "geometry": {"type": "Point", "coordinates": [2.27259, 46.32747]}, "properties": {"kind": "turbine", "i": 60, "mw": 6.0, "hub_m": 120.0, "rotor_m": 150.0}}, {"type": "Feature", "geometry": {"type": "Point", "coordinates": [2.28999, 46.44917]}, "properties": {"kind": "turbine", "i": 61, "mw": 6.0, "hub_m": 120.0, "rotor_m": 150.0}}, {"type": "Feature", "geometry": {"type": "Point", "coordinates": [2.31958, 46.3639]}, "properties": {"kind": "turbine", "i": 62, "mw": 6.0, "hub_m": 120.0, "rotor_m": 150.0}}, {"type": "Feature", "geometry": {"type": "Point", "coordinates": [2.12028, 46.35926]}, "properties": {"kind": "turbine", "i": 63, "mw": 6.0, "hub_m": 120.0, "rotor_m": 150.0}}, {"type": "Feature", "geometry": {"type": "Point", "coordinates": [2.24901, 46.31745]}, "properties": {"kind": "turbine", "i": 64, "mw": 6.0, "hub_m": 120.0, "rotor_m": 150.0}}, {"type": "Feature", "geometry": {"type": "Point", "coordinates": [2.2708, 46.46219]}, "properties": {"kind": "turbine", "i": 65, "mw": 6.0, "hub_m": 120.0, "rotor_m": 150.0}}, {"type": "Feature", "geometry": {"type": "Point", "coordinates": [2.18736, 46.31703]}, "properties": {"kind": "turbine", "i": 66, "mw": 6.0, "hub_m": 120.0, "rotor_m": 150.0}}, {"type": "Feature", "geometry": {"type": "Point", "coordinates": [2.15401, 46.32665]}, "properties": {"kind": "turbine", "i": 67, "mw": 6.0, "hub_m": 120.0, "rotor_m": 150.0}}, {"type": "Feature", "geometry": {"type": "Point", "coordinates": [2.22065, 46.31069]}, "properties": {"kind": "turbine", "i": 68, "mw": 6.0, "hub_m": 120.0, "rotor_m": 150.0}}, {"type": "Feature", "geometry": {"type": "Point", "coordinates": [2.33318, 46.41656]}, "properties": {"kind": "turbine", "i": 69, "mw": 6.0, "hub_m": 120.0, "rotor_m": 150.0}}, {"type": "Feature", "geometry": {"type": "Point", "coordinates": [2.18506, 46.47147]}, "properties": {"kind": "turbine", "i": 70, "mw": 6.0, "hub_m": 120.0, "rotor_m": 150.0}}, {"type": "Feature", "geometry": {"type": "Point", "coordinates": [2.20168, 46.31056]}, "properties": {"kind": "turbine", "i": 71, "mw": 6.0, "hub_m": 120.0, "rotor_m": 150.0}}, {"type": "Feature", "geometry": {"type": "Point", "coordinates": [2.15192, 46.46137]}, "properties": {"kind": "turbine", "i": 72, "mw": 6.0, "hub_m": 120.0, "rotor_m": 150.0}}, {"type": "Feature", "geometry": {"type": "Point", "coordinates": [2.31041, 46.33756]}, "properties": {"kind": "turbine", "i": 73, "mw": 6.0, "hub_m": 120.0, "rotor_m": 150.0}}, {"type": "Feature", "geometry": {"type": "Point", "coordinates": [2.12534, 46.33958]}, "properties": {"kind": "turbine", "i": 74, "mw": 6.0, "hub_m": 120.0, "rotor_m": 150.0}}, {"type": "Feature", "geometry": {"type": "Point", "coordinates": [2.3384, 46.37716]}, "properties": {"kind": "turbine", "i": 75, "mw": 6.0, "hub_m": 120.0, "rotor_m": 150.0}}, {"type": "Feature", "geometry": {"type": "Point", "coordinates": [2.13776, 46.45469]}, "properties": {"kind": "turbine", "i": 76, "mw": 6.0, "hub_m": 120.0, "rotor_m": 150.0}}, {"type": "Feature", "geometry": {"type": "Point", "coordinates": [2.24684, 46.47518]}, "properties": {"kind": "turbine", "i": 77, "mw": 6.0, "hub_m": 120.0, "rotor_m": 150.0}}, {"type": "Feature", "geometry": {"type": "Point", "coordinates": [2.10113, 46.36897]}, "properties": {"kind": "turbine", "i": 78, "mw": 6.0, "hub_m": 120.0, "rotor_m": 150.0}}, {"type": "Feature", "geometry": {"type": "Point", "coordinates": [2.28982, 46.46231]}, "properties": {"kind": "turbine", "i": 79, "mw": 6.0, "hub_m": 120.0, "rotor_m": 150.0}}, {"type": "Feature", "geometry": {"type": "Point", "coordinates": [2.33306, 46.42642]}, "properties": {"kind": "turbine", "i": 80, "mw": 6.0, "hub_m": 120.0, "rotor_m": 150.0}}, {"type": "Feature", "geometry": {"type": "Point", "coordinates": [2.09585, 46.40179]}, "properties": {"kind": "turbine", "i": 81, "mw": 6.0, "hub_m": 120.0, "rotor_m": 150.0}}, {"type": "Feature", "geometry": {"type": "Point", "coordinates": [2.34284, 46.40348]}, "properties": {"kind": "turbine", "i": 82, "mw": 6.0, "hub_m": 120.0, "rotor_m": 150.0}}, {"type": "Feature", "geometry": {"type": "Point", "coordinates": [2.28221, 46.31767]}, "properties": {"kind": "turbine", "i": 83, "mw": 6.0, "hub_m": 120.0, "rotor_m": 150.0}}, {"type": "Feature", "geometry": {"type": "Point", "coordinates": [2.2444, 46.30757]}, "properties": {"kind": "turbine", "i": 84, "mw": 6.0, "hub_m": 120.0, "rotor_m": 150.0}}, {"type": "Feature", "geometry": {"type": "Point", "coordinates": [2.16604, 46.47133]}, "properties": {"kind": "turbine", "i": 85, "mw": 6.0, "hub_m": 120.0, "rotor_m": 150.0}}, {"type": "Feature", "geometry": {"type": "Point", "coordinates": [2.10615, 46.35258]}, "properties": {"kind": "turbine", "i": 86, "mw": 6.0, "hub_m": 120.0, "rotor_m": 150.0}}, {"type": "Feature", "geometry": {"type": "Point", "coordinates": [2.13983, 46.32326]}, "properties": {"kind": "turbine", "i": 87, "mw": 6.0, "hub_m": 120.0, "rotor_m": 150.0}}, {"type": "Feature", "geometry": {"type": "Point", "coordinates": [2.26587, 46.4753]}, "properties": {"kind": "turbine", "i": 88, "mw": 6.0, "hub_m": 120.0, "rotor_m": 150.0}}, {"type": "Feature", "geometry": {"type": "Point", "coordinates": [2.34327, 46.36733]}, "properties": {"kind": "turbine", "i": 89, "mw": 6.0, "hub_m": 120.0, "rotor_m": 150.0}}, {"type": "Feature", "geometry": {"type": "Point", "coordinates": [2.1255, 46.32972]}, "properties": {"kind": "turbine", "i": 90, "mw": 6.0, "hub_m": 120.0, "rotor_m": 150.0}}, {"type": "Feature", "geometry": {"type": "Point", "coordinates": [2.27285, 46.30775]}, "properties": {"kind": "turbine", "i": 91, "mw": 6.0, "hub_m": 120.0, "rotor_m": 150.0}}, {"type": "Feature", "geometry": {"type": "Point", "coordinates": [2.1638, 46.307]}, "properties": {"kind": "turbine", "i": 92, "mw": 6.0, "hub_m": 120.0, "rotor_m": 150.0}}, {"type": "Feature", "geometry": {"type": "Point", "coordinates": [2.29648, 46.31447]}, "properties": {"kind": "turbine", "i": 93, "mw": 6.0, "hub_m": 120.0, "rotor_m": 150.0}}, {"type": "Feature", "geometry": {"type": "Point", "coordinates": [2.33765, 46.43959]}, "properties": {"kind": "turbine", "i": 94, "mw": 6.0, "hub_m": 120.0, "rotor_m": 150.0}}, {"type": "Feature", "geometry": {"type": "Point", "coordinates": [2.22763, 46.4882]}, "properties": {"kind": "turbine", "i": 95, "mw": 6.0, "hub_m": 120.0, "rotor_m": 150.0}}, {"type": "Feature", "geometry": {"type": "Point", "coordinates": [2.304, 46.46897]}, "properties": {"kind": "turbine", "i": 96, "mw": 6.0, "hub_m": 120.0, "rotor_m": 150.0}}, {"type": "Feature", "geometry": {"type": "Point", "coordinates": [2.14478, 46.31015]}, "properties": {"kind": "turbine", "i": 97, "mw": 6.0, "hub_m": 120.0, "rotor_m": 150.0}}, {"type": "Feature", "geometry": {"type": "Point", "coordinates": [2.33278, 46.44942]}, "properties": {"kind": "turbine", "i": 98, "mw": 6.0, "hub_m": 120.0, "rotor_m": 150.0}}, {"type": "Feature", "geometry": {"type": "Point", "coordinates": [2.32007, 46.32447]}, "properties": {"kind": "turbine", "i": 99, "mw": 6.0, "hub_m": 120.0, "rotor_m": 150.0}}, {"type": "Feature", "geometry": {"type": "Point", "coordinates": [2.35747, 46.3707]}, "properties": {"kind": "turbine", "i": 100, "mw": 6.0, "hub_m": 120.0, "rotor_m": 150.0}}, {"type": "Feature", "geometry": {"type": "Point", "coordinates": [2.18291, 46.29728]}, "properties": {"kind": "turbine", "i": 101, "mw": 6.0, "hub_m": 120.0, "rotor_m": 150.0}}, {"type": "Feature", "geometry": {"type": "Point", "coordinates": [2.14691, 46.47776]}, "properties": {"kind": "turbine", "i": 102, "mw": 6.0, "hub_m": 120.0, "rotor_m": 150.0}}, {"type": "Feature", "geometry": {"type": "Point", "coordinates": [2.10167, 46.33611]}, "properties": {"kind": "turbine", "i": 103, "mw": 6.0, "hub_m": 120.0, "rotor_m": 150.0}}, {"type": "Feature", "geometry": {"type": "Point", "coordinates": [2.23984, 46.29439]}, "properties": {"kind": "turbine", "i": 104, "mw": 6.0, "hub_m": 120.0, "rotor_m": 150.0}}, {"type": "Feature", "geometry": {"type": "Point", "coordinates": [2.36211, 46.38058]}, "properties": {"kind": "turbine", "i": 105, "mw": 6.0, "hub_m": 120.0, "rotor_m": 150.0}}, {"type": "Feature", "geometry": {"type": "Point", "coordinates": [2.3618, 46.40687]}, "properties": {"kind": "turbine", "i": 106, "mw": 6.0, "hub_m": 120.0, "rotor_m": 150.0}}, {"type": "Feature", "geometry": {"type": "Point", "coordinates": [2.24662, 46.49161]}, "properties": {"kind": "turbine", "i": 107, "mw": 6.0, "hub_m": 120.0, "rotor_m": 150.0}}, {"type": "Feature", "geometry": {"type": "Point", "coordinates": [2.22567, 46.29101]}, "properties": {"kind": "turbine", "i": 108, "mw": 6.0, "hub_m": 120.0, "rotor_m": 150.0}}, {"type": "Feature", "geometry": {"type": "Point", "coordinates": [2.18477, 46.49119]}, "properties": {"kind": "turbine", "i": 109, "mw": 6.0, "hub_m": 120.0, "rotor_m": 150.0}}, {"type": "Feature", "geometry": {"type": "Point", "coordinates": [2.2588, 46.29451]}, "properties": {"kind": "turbine", "i": 110, "mw": 6.0, "hub_m": 120.0, "rotor_m": 150.0}}, {"type": "Feature", "geometry": {"type": "Point", "coordinates": [2.28001, 46.48525]}, "properties": {"kind": "turbine", "i": 111, "mw": 6.0, "hub_m": 120.0, "rotor_m": 150.0}}, {"type": "Feature", "geometry": {"type": "Point", "coordinates": [2.35763, 46.35755]}, "properties": {"kind": "turbine", "i": 112, "mw": 6.0, "hub_m": 120.0, "rotor_m": 150.0}}, {"type": "Feature", "geometry": {"type": "Point", "coordinates": [2.09508, 46.44779]}, "properties": {"kind": "turbine", "i": 113, "mw": 6.0, "hub_m": 120.0, "rotor_m": 150.0}}, {"type": "Feature", "geometry": {"type": "Point", "coordinates": [2.31545, 46.31459]}, "properties": {"kind": "turbine", "i": 114, "mw": 6.0, "hub_m": 120.0, "rotor_m": 150.0}}, {"type": "Feature", "geometry": {"type": "Point", "coordinates": [2.33426, 46.32784]}, "properties": {"kind": "turbine", "i": 115, "mw": 6.0, "hub_m": 120.0, "rotor_m": 150.0}}, {"type": "Feature", "geometry": {"type": "Point", "coordinates": [2.28716, 46.30127]}, "properties": {"kind": "turbine", "i": 116, "mw": 6.0, "hub_m": 120.0, "rotor_m": 150.0}}, {"type": "Feature", "geometry": {"type": "Point", "coordinates": [2.08574, 46.43786]}, "properties": {"kind": "turbine", "i": 117, "mw": 6.0, "hub_m": 120.0, "rotor_m": 150.0}}, {"type": "Feature", "geometry": {"type": "Point", "coordinates": [2.16874, 46.29389]}, "properties": {"kind": "turbine", "i": 118, "mw": 6.0, "hub_m": 120.0, "rotor_m": 150.0}}, {"type": "Feature", "geometry": {"type": "Point", "coordinates": [2.36644, 46.41675]}, "properties": {"kind": "turbine", "i": 119, "mw": 6.0, "hub_m": 120.0, "rotor_m": 150.0}}, {"type": "Feature", "geometry": {"type": "Point", "coordinates": [2.32302, 46.46908]}, "properties": {"kind": "turbine", "i": 120, "mw": 6.0, "hub_m": 120.0, "rotor_m": 150.0}}, {"type": "Feature", "geometry": {"type": "Point", "coordinates": [2.06763, 46.38513]}, "properties": {"kind": "turbine", "i": 121, "mw": 6.0, "hub_m": 120.0, "rotor_m": 150.0}}]}