{"type": "FeatureCollection", "features": [{"type": "Feature", "geometry": {"type": "MultiPolygon", "coordinates": [[[[24.88116, 43.72689], [24.8813, 43.72669], [24.87872, 43.72665], [24.8691, 43.7394], [24.86646, 43.73967], [24.86506, 43.73893], [24.86311, 43.73857], [24.86167, 43.73867], [24.86005, 43.73922], [24.85848, 43.739], [24.85682, 43.73917], [24.85509, 43.73821], [24.85312, 43.73788], [24.85184, 43.73636], [24.85024, 43.73559], [24.84779, 43.73535], [24.84645, 43.7356], [24.84547, 43.736], [24.84526, 43.74171], [24.84638, 43.7422], [24.84803, 43.7425], [24.84796, 43.74338], [24.84819, 43.74421], [24.84747, 43.74502], [24.84709, 43.74596], [24.84511, 43.74583], [24.84505, 43.74749], [24.8591, 43.74841], [24.86084, 43.74819], [24.86151, 43.74694], [24.86105, 43.74641], [24.8613, 43.74528], [24.86194, 43.74487], [24.86247, 43.74421], [24.86472, 43.74308], [24.86914, 43.74161], [24.87007, 43.74157], [24.88116, 43.72689]], [[24.85754, 43.74247], [24.85784, 43.74207], [24.8585, 43.74197], [24.85899, 43.74217], [24.85915, 43.74261], [24.85881, 43.74301], [24.8582, 43.7431], [24.85768, 43.74288], [24.85754, 43.74247]], [[24.84809, 43.73832], [24.84878, 43.73836], [24.8492, 43.73872], [24.8492, 43.7392], [24.84879, 43.73951], [24.84799, 43.73948], [24.84758, 43.73917], [24.84762, 43.73862], [24.84809, 43.73832]], [[24.85296, 43.74202], [24.85241, 43.74183], [24.85222, 43.74142], [24.85242, 43.74102], [24.853, 43.74084], [24.85359, 43.74099], [24.85385, 43.74143], [24.85358, 43.74188], [24.85296, 43.74202]], [[24.8527, 43.74367], [24.85215, 43.74342], [24.85206, 43.74294], [24.8524, 43.7426], [24.85304, 43.74253], [24.85354, 43.74281], [24.85361, 43.74323], [24.85329, 43.74359], [24.8527, 43.74367]], [[24.85524, 43.74304], [24.85574, 43.74333], [24.85577, 43.74382], [24.85533, 43.74416], [24.85472, 43.74417], [24.85424, 43.74385], [24.85423, 43.7434], [24.85462, 43.74307], [24.85524, 43.74304]], [[24.86329, 43.7416], [24.8637, 43.74196], [24.86359, 43.74243], [24.86311, 43.74268], [24.8624, 43.74258], [24.86208, 43.74222], [24.86219, 43.7418], [24.86266, 43.74154], [24.86329, 43.7416]], [[24.86114, 43.74343], [24.86061, 43.74316], [24.86055, 43.74264], [24.86093, 43.74231], [24.86153, 43.74227], [24.86204, 43.74256], [24.86208, 43.74302], [24.86173, 43.74337], [24.86114, 43.74343]], [[24.85182, 43.74711], [24.85122, 43.74684], [24.85114, 43.74635], [24.85153, 43.746], [24.85215, 43.74596], [24.85267, 43.74624], [24.85274, 43.74667], [24.85243, 43.74702], [24.85182, 43.74711]]], [[[24.87535, 43.74118], [24.87424, 43.74063], [24.88044, 43.73242], [24.88189, 43.73293], [24.88033, 43.73419], [24.87992, 43.73488], [24.87978, 43.73586], [24.87798, 43.73697], [24.87698, 43.73795], [24.87619, 43.73943], [24.87578, 43.74135], [24.878, 43.74181], [24.87844, 43.73973], [24.87885, 43.73891], [24.87954, 43.73819], [24.88235, 43.73649], [24.88205, 43.73565], [24.88231, 43.73502], [24.88566, 43.73254], [24.88546, 43.7324], [24.87948, 43.73022], [24.87172, 43.7405], [24.8755, 43.74129], [24.87535, 43.74118]]], [[[24.84498, 43.74969], [24.85716, 43.7505], [24.85431, 43.7554], [24.84087, 43.75482], [24.83398, 43.75282], [24.83244, 43.75279], [24.83239, 43.75414], [24.84046, 43.75645], [24.8558, 43.75715], [24.85865, 43.752], [24.86067, 43.74954], [24.86056, 43.74879], [24.85905, 43.74895], [24.84504, 43.74803], [24.84498, 43.74969]]], [[[24.85798, 43.75662], [24.85839, 43.75558], [24.85765, 43.75543], [24.85851, 43.7537], [24.85651, 43.75733], [24.85753, 43.75765], [24.85798, 43.75662]]], [[[24.85886, 43.75635], [24.85898, 43.75623], [24.85912, 43.75615], [24.85893, 43.75617], [24.85886, 43.75635]]], [[[24.85869, 43.75679], [24.85873, 43.75678], [24.85873, 43.7567], [24.8587, 43.75677], [24.85869, 43.75679]]], [[[24.84076, 43.75703], [24.83949, 43.75683], [24.83237, 43.75472], [24.83231, 43.75649], [24.83924, 43.75851], [24.84103, 43.75872], [24.85482, 43.75927], [24.85571, 43.75948], [24.85467, 43.76038], [24.85352, 43.76026], [24.85252, 43.76047], [24.85171, 43.76094], [24.85115, 43.76173], [24.84991, 43.76164], [24.8489, 43.76187], [24.8413, 43.76514], [24.84067, 43.76574], [24.84042, 43.76628], [24.84045, 43.76703], [24.84076, 43.76758], [24.84009, 43.76802], [24.83962, 43.76869], [24.83882, 43.76914], [24.83723, 43.76933], [24.83607, 43.7699], [24.8344, 43.76989], [24.8322, 43.77079], [24.83833, 43.77091], [24.84036, 43.77061], [24.84053, 43.77024], [24.84097, 43.77018], [24.84163, 43.76965], [24.84187, 43.76906], [24.84225, 43.76894], [24.84319, 43.76778], [24.84325, 43.76741], [24.84269, 43.76669], [24.84278, 43.76641], [24.84864, 43.76404], [24.84977, 43.76341], [24.85022, 43.76329], [24.85068, 43.76339], [24.8522, 43.76293], [24.85231, 43.76306], [24.85352, 43.76243], [24.85337, 43.76216], [24.85357, 43.76195], [24.854, 43.762], [24.85503, 43.7615], [24.8553, 43.7617], [24.8558, 43.7616], [24.85555, 43.76139], [24.85629, 43.76078], [24.85791, 43.75837], [24.85529, 43.75764], [24.84076, 43.75703]]], [[[24.86919, 43.76119], [24.86875, 43.75928], [24.86735, 43.75956], [24.86657, 43.7594], [24.86614, 43.75959], [24.86635, 43.76152], [24.86604, 43.76178], [24.86561, 43.76159], [24.86547, 43.76025], [24.86293, 43.76004], [24.86074, 43.7624], [24.85908, 43.76254], [24.85868, 43.76285], [24.85865, 43.76558], [24.85958, 43.76572], [24.85963, 43.76612], [24.85731, 43.76599], [24.84866, 43.77095], [24.84985, 43.77119], [24.84969, 43.77108], [24.85308, 43.76901], [24.856, 43.76752], [24.85945, 43.76786], [24.86046, 43.76769], [24.86112, 43.76738], [24.86175, 43.76678], [24.86201, 43.76605], [24.86178, 43.76513], [24.86104, 43.76445], [24.86111, 43.76333], [24.86188, 43.76238], [24.86387, 43.7627], [24.86469, 43.76321], [24.86594, 43.76345], [24.8672, 43.76323], [24.86812, 43.76266], [24.86911, 43.76289], [24.87121, 43.76282], [24.87364, 43.76224], [24.87431, 43.76316], [24.87572, 43.76435], [24.87773, 43.77288], [24.8766, 43.77371], [24.87597, 43.77464], [24.87574, 43.77573], [24.87592, 43.77675], [24.8771, 43.77823], [24.87823, 43.77886], [24.87923, 43.77916], [24.88146, 43.78972], [24.88378, 43.78977], [24.88087, 43.77634], [24.88021, 43.77627], [24.87984, 43.77589], [24.87996, 43.7754], [24.88059, 43.77516], [24.87741, 43.76161], [24.87518, 43.76097], [24.87127, 43.76103], [24.87094, 43.76117], [24.86978, 43.76095], [24.86958, 43.76121], [24.86919, 43.76119]]], [[[24.8577, 43.76549], [24.85791, 43.76551], [24.85807, 43.76336], [24.85692, 43.7654], [24.8577, 43.76549]]], [[[24.84573, 43.77415], [24.84812, 43.77449], [24.84888, 43.77438], [24.84977, 43.77399], [24.85039, 43.77338], [24.85064, 43.77265], [24.85049, 43.77191], [24.84996, 43.77127], [24.84829, 43.77241], [24.84833, 43.77265], [24.84807, 43.77282], [24.84478, 43.77228], [24.84414, 43.77294], [24.84404, 43.77572], [24.84573, 43.77415]]], [[[24.88074, 43.73008], [24.88552, 43.73179], [24.88647, 43.73245], [24.88734, 43.73181], [24.8885, 43.73302], [24.89538, 43.72911], [24.89545, 43.72696], [24.89375, 43.72692], [24.89511, 43.72715], [24.88806, 43.73117], [24.88662, 43.73034], [24.883, 43.72903], [24.88471, 43.72676], [24.88214, 43.72671], [24.87984, 43.72974], [24.88074, 43.73008]]], [[[24.88295, 43.73529], [24.8828, 43.73565], [24.883, 43.73612], [24.88591, 43.73448], [24.885, 43.73378], [24.88295, 43.73529]]], [[[24.89258, 43.73934], [24.88983, 43.7364], [24.88866, 43.73572], [24.89528, 43.73197], [24.89535, 43.72981], [24.88347, 43.73654], [24.88357, 43.73668], [24.88428, 43.73703], [24.88774, 43.73725], [24.89089, 43.74048], [24.89177, 43.7409], [24.90854, 43.74359], [24.91129, 43.74437], [24.91419, 43.74593], [24.91918, 43.74737], [24.9193, 43.74767], [24.91906, 43.74791], [24.9168, 43.74824], [24.91678, 43.75976], [24.91967, 43.75976], [24.9196, 43.7581], [24.91912, 43.7581], [24.9191, 43.75427], [24.91911, 43.74964], [24.9195, 43.74955], [24.91964, 43.74567], [24.91537, 43.74449], [24.91232, 43.74289], [24.9091, 43.74198], [24.89258, 43.73934]]], [[[24.89148, 43.7414], [24.89032, 43.74084], [24.88733, 43.7377], [24.88414, 43.73757], [24.88281, 43.73692], [24.88007, 43.73856], [24.87951, 43.73916], [24.87873, 43.74195], [24.87927, 43.74202], [24.87989, 43.74363], [24.8807, 43.74372], [24.88139, 43.74029], [24.88182, 43.73965], [24.88287, 43.73901], [24.88385, 43.73921], [24.88611, 43.73928], [24.8886, 43.74193], [24.89053, 43.74291], [24.90648, 43.74545], [24.90953, 43.74619], [24.91066, 43.7467], [24.91263, 43.74782], [24.91377, 43.74818], [24.9138, 43.75809], [24.90787, 43.75808], [24.90688, 43.75778], [24.90596, 43.7593], [24.90743, 43.75972], [24.91603, 43.75976], [24.91606, 43.74813], [24.91635, 43.74779], [24.91802, 43.74758], [24.91384, 43.74641], [24.91091, 43.74484], [24.90829, 43.7441], [24.89148, 43.7414]]], [[[24.88019, 43.7445], [24.8799, 43.74468], [24.87985, 43.74555], [24.88358, 43.74696], [24.88536, 43.74707], [24.88561, 43.74764], [24.8863, 43.74826], [24.88746, 43.74866], [24.88816, 43.74932], [24.89292, 43.75106], [24.89407, 43.75112], [24.89775, 43.75199], [24.9019, 43.75228], [24.90217, 43.75256], [24.90259, 43.75438], [24.90226, 43.75471], [24.89934, 43.75535], [24.89996, 43.75587], [24.90154, 43.7557], [24.903, 43.75529], [24.90491, 43.75567], [24.9045, 43.75532], [24.90491, 43.75426], [24.90439, 43.75213], [24.90389, 43.7514], [24.90306, 43.75084], [24.90179, 43.75052], [24.89826, 43.75034], [24.89452, 43.74949], [24.89364, 43.74943], [24.88944, 43.74794], [24.8878, 43.74697], [24.88728, 43.74612], [24.8864, 43.74559], [24.88551, 43.74539], [24.88443, 43.74541], [24.88116, 43.74413], [24.88019, 43.7445]]], [[[24.87896, 43.7624], [24.87899, 43.76196], [24.87825, 43.762], [24.87949, 43.76727], [24.87974, 43.7676], [24.88974, 43.77354], [24.89027, 43.77252], [24.89019, 43.76886], [24.88993, 43.76821], [24.88796, 43.76552], [24.88481, 43.76672], [24.88465, 43.7665], [24.88395, 43.76631], [24.88331, 43.76549], [24.88323, 43.76512], [24.88345, 43.76482], [24.88163, 43.76245], [24.88054, 43.76293], [24.8794, 43.76286], [24.87896, 43.7624]], [[24.88796, 43.76963], [24.88796, 43.76978], [24.88706, 43.76983], [24.8861, 43.76927], [24.88771, 43.7687], [24.88796, 43.76963]]], [[[24.87978, 43.76845], [24.88454, 43.78978], [24.88687, 43.78982], [24.88439, 43.77813], [24.88547, 43.77666], [24.8868, 43.77715], [24.88818, 43.77734], [24.88993, 43.77719], [24.89108, 43.77682], [24.89126, 43.77777], [24.89193, 43.77858], [24.89279, 43.779], [24.89383, 43.77914], [24.89426, 43.77991], [24.89501, 43.78043], [24.8965, 43.78074], [24.89775, 43.7805], [24.89869, 43.77985], [24.89914, 43.77918], [24.89922, 43.7784], [24.89992, 43.77757], [24.90002, 43.77678], [24.90659, 43.77663], [24.90776, 43.77696], [24.91573, 43.78135], [24.9184, 43.7814], [24.91842, 43.78075], [24.90968, 43.77592], [24.90811, 43.77523], [24.90667, 43.77495], [24.89755, 43.77521], [24.89774, 43.77706], [24.89744, 43.77728], [24.89704, 43.77714], [24.89683, 43.77579], [24.89668, 43.7761], [24.89695, 43.77868], [24.89669, 43.77902], [24.89628, 43.77905], [24.89608, 43.77884], [24.89594, 43.77609], [24.89644, 43.77525], [24.89393, 43.77534], [24.89418, 43.77724], [24.89399, 43.77745], [24.89363, 43.77745], [24.89317, 43.7753], [24.89109, 43.77487], [24.88933, 43.77399], [24.88892, 43.7743], [24.88836, 43.77439], [24.88728, 43.774], [24.88698, 43.77349], [24.88742, 43.77288], [24.87978, 43.76845]], [[24.88303, 43.77244], [24.88311, 43.77249], [24.88307, 43.77261], [24.88303, 43.77244]]], [[[24.90552, 43.75638], [24.90554, 43.75639], [24.90552, 43.75636], [24.90552, 43.75638]]], [[[24.92514, 43.75535], [24.92349, 43.7556], [24.92235, 43.7562], [24.92238, 43.75733], [24.92276, 43.75733], [24.92273, 43.75826], [24.92379, 43.75824], [24.92383, 43.75888], [24.92351, 43.75888], [24.92351, 43.75978], [24.92414, 43.75979], [24.92399, 43.75743], [24.92451, 43.75713], [24.92452, 43.75614], [24.93009, 43.75603], [24.93, 43.75577], [24.93028, 43.75558], [24.93026, 43.75508], [24.92697, 43.75516], [24.92694, 43.75454], [24.92492, 43.75451], [24.92514, 43.75535]]], [[[24.92485, 43.7594], [24.92559, 43.75933], [24.92552, 43.75813], [24.92476, 43.75813], [24.92485, 43.7594]]], [[[24.90313, 43.75904], [24.90195, 43.75842], [24.90021, 43.75947], [24.89721, 43.75704], [24.89822, 43.7565], [24.89671, 43.75661], [24.89366, 43.75649], [24.89338, 43.75682], [24.89148, 43.75688], [24.88765, 43.75677], [24.88446, 43.75636], [24.88444, 43.75784], [24.88512, 43.76055], [24.89084, 43.7685], [24.89101, 43.77256], [24.89032, 43.77388], [24.89172, 43.77449], [24.89354, 43.77478], [24.90562, 43.77438], [24.90784, 43.77458], [24.90945, 43.77513], [24.91844, 43.78008], [24.91851, 43.77803], [24.91744, 43.77744], [24.91539, 43.77814], [24.9149, 43.7774], [24.91481, 43.77599], [24.9108, 43.77379], [24.90917, 43.77316], [24.90757, 43.77283], [24.90564, 43.77272], [24.89346, 43.77311], [24.89317, 43.76844], [24.89267, 43.76726], [24.89147, 43.7656], [24.8913, 43.76405], [24.88984, 43.76211], [24.88821, 43.7612], [24.88728, 43.75996], [24.88693, 43.75835], [24.89154, 43.75854], [24.89373, 43.75847], [24.89468, 43.7582], [24.89593, 43.75826], [24.89647, 43.75936], [24.8974, 43.76024], [24.89847, 43.76092], [24.89977, 43.76133], [24.90165, 43.76144], [24.90355, 43.76096], [24.90723, 43.76192], [24.92246, 43.76198], [24.92282, 43.76284], [24.92362, 43.76349], [24.92656, 43.76354], [24.92738, 43.76296], [24.92786, 43.76194], [24.93131, 43.76186], [24.93149, 43.76214], [24.93154, 43.76076], [24.92561, 43.76072], [24.92551, 43.76198], [24.92512, 43.76217], [24.92474, 43.76185], [24.92486, 43.76072], [24.92209, 43.7607], [24.9221, 43.76032], [24.90735, 43.76026], [24.90313, 43.75904]]]]}, "properties": {"kind": "pv", "area_km2": 11.65, "mw": 582.5}}]}