{"type": "FeatureCollection", "features": [{"type": "Feature", "geometry": {"type": "MultiPolygon", "coordinates": [[[[24.82549, 43.68294], [24.82296, 43.68321], [24.82235, 43.68346], [24.8244, 43.68339], [24.82138, 43.68386], [24.82965, 43.68416], [24.82974, 43.68385], [24.82915, 43.68366], [24.83242, 43.68255], [24.83252, 43.68359], [24.83194, 43.68463], [24.83239, 43.68484], [24.84322, 43.68614], [24.84241, 43.68207], [24.84205, 43.68205], [24.84209, 43.67825], [24.83876, 43.67789], [24.8373, 43.67827], [24.83674, 43.68302], [24.83644, 43.68299], [24.83692, 43.67839], [24.82356, 43.68296], [24.82549, 43.68294]]], [[[24.91416, 43.84419], [24.88434, 43.80341], [24.87923, 43.77916], [24.8771, 43.77823], [24.87581, 43.77642], [24.87614, 43.77431], [24.87773, 43.77288], [24.87572, 43.76435], [24.87364, 43.76224], [24.87121, 43.76282], [24.86812, 43.76266], [24.86594, 43.76345], [24.86188, 43.76238], [24.86111, 43.76333], [24.86104, 43.76445], [24.86202, 43.76587], [24.8613, 43.76725], [24.85945, 43.76786], [24.856, 43.76752], [24.84969, 43.77108], [24.85064, 43.77246], [24.84977, 43.77399], [24.84812, 43.77449], [24.84573, 43.77415], [24.84298, 43.77633], [24.84167, 43.7793], [24.8398, 43.78105], [24.83956, 43.78235], [24.83761, 43.78337], [24.83767, 43.7893], [24.83701, 43.79033], [24.83547, 43.79103], [24.83523, 43.79258], [24.83345, 43.7935], [24.82858, 43.79352], [24.82814, 43.79625], [24.82681, 43.79712], [24.8252, 43.79724], [24.82517, 43.79754], [24.82575, 43.79755], [24.82567, 43.79875], [24.825, 43.79871], [24.82387, 43.80122], [24.82265, 43.80208], [24.82275, 43.80297], [24.82202, 43.80402], [24.8213, 43.80736], [24.81966, 43.80824], [24.81674, 43.80815], [24.81714, 43.80927], [24.82188, 43.81047], [24.82378, 43.80942], [24.82598, 43.80984], [24.82693, 43.81135], [24.82581, 43.81389], [24.82483, 43.81453], [24.82349, 43.81478], [24.81748, 43.81342], [24.8166, 43.81421], [24.81539, 43.81456], [24.81222, 43.81397], [24.81079, 43.81573], [24.81129, 43.8172], [24.81076, 43.81889], [24.82464, 43.82245], [24.82639, 43.82387], [24.82915, 43.82523], [24.82903, 43.82358], [24.83261, 43.81841], [24.83291, 43.81719], [24.83449, 43.81625], [24.83603, 43.81625], [24.83748, 43.81703], [24.83828, 43.82004], [24.83942, 43.8202], [24.84069, 43.81808], [24.84279, 43.81744], [24.84425, 43.81781], [24.84514, 43.81863], [24.84902, 43.81953], [24.85082, 43.82066], [24.85146, 43.82148], [24.8515, 43.82242], [24.85024, 43.827], [24.84848, 43.83047], [24.85099, 43.83156], [24.85178, 43.83295], [24.85178, 43.83389], [24.85099, 43.83485], [24.8496, 43.83533], [24.84807, 43.83518], [24.84682, 43.8343], [24.84227, 43.84325], [24.843, 43.84404], [24.85451, 43.84636], [24.86628, 43.84785], [24.8782, 43.84849], [24.89014, 43.84829], [24.902, 43.84724], [24.91481, 43.84508], [24.91416, 43.84419]], [[24.83235, 43.80466], [24.83234, 43.80545], [24.82827, 43.80524], [24.8275, 43.80488], [24.8278, 43.80038], [24.83487, 43.80036], [24.83463, 43.80355], [24.83261, 43.80357], [24.83235, 43.80466]]], [[[24.83773, 43.84102], [24.8419, 43.83278], [24.82776, 43.82919], [24.82263, 43.82669], [24.82161, 43.82575], [24.80651, 43.82193], [24.80401, 43.8256], [24.80195, 43.82639], [24.80621, 43.82875], [24.80704, 43.83006], [24.81111, 43.83237], [24.82119, 43.83701], [24.83186, 43.84091], [24.83703, 43.84237], [24.83773, 43.84102]]], [[[24.84436, 43.69248], [24.84405, 43.69089], [24.83589, 43.69201], [24.8363, 43.69477], [24.84436, 43.69248]]], [[[24.84306, 43.69296], [24.83629, 43.69487], [24.83592, 43.69713], [24.83893, 43.69685], [24.83862, 43.6944], [24.83904, 43.69583], [24.84033, 43.69605], [24.84306, 43.69296]]], [[[24.75984, 43.75883], [24.76272, 43.75769], [24.76493, 43.75749], [24.7668, 43.7569], [24.76525, 43.75513], [24.76458, 43.75365], [24.76453, 43.7514], [24.76592, 43.74961], [24.77147, 43.74688], [24.77383, 43.74475], [24.76215, 43.7434], [24.76068, 43.74946], [24.75984, 43.75883]]], [[[24.78375, 43.81267], [24.78487, 43.8096], [24.78308, 43.80729], [24.77958, 43.8086], [24.78375, 43.81267]]], [[[24.7767, 43.80333], [24.77617, 43.80162], [24.77355, 43.79847], [24.77327, 43.79747], [24.77512, 43.79605], [24.77688, 43.79615], [24.77966, 43.79712], [24.78154, 43.80163], [24.78449, 43.80344], [24.78605, 43.80285], [24.78777, 43.80267], [24.79262, 43.80356], [24.79528, 43.80535], [24.79706, 43.80816], [24.79984, 43.80879], [24.80073, 43.80885], [24.80104, 43.80853], [24.80133, 43.80655], [24.80061, 43.80239], [24.80353, 43.79859], [24.80102, 43.7996], [24.79797, 43.79932], [24.79621, 43.79769], [24.79541, 43.7946], [24.79598, 43.79179], [24.79774, 43.79013], [24.79973, 43.7895], [24.80512, 43.78983], [24.80555, 43.78961], [24.80272, 43.7892], [24.8006, 43.78849], [24.79924, 43.78755], [24.79878, 43.78609], [24.79924, 43.78464], [24.80054, 43.78347], [24.80531, 43.78219], [24.80694, 43.77961], [24.80689, 43.77671], [24.80775, 43.77418], [24.80589, 43.77188], [24.80418, 43.77119], [24.80309, 43.77], [24.80278, 43.76849], [24.80359, 43.76462], [24.80721, 43.7602], [24.81119, 43.75811], [24.81735, 43.75586], [24.82056, 43.75301], [24.81239, 43.75059], [24.80432, 43.7475], [24.8013, 43.7477], [24.79894, 43.74679], [24.79677, 43.747], [24.79602, 43.74899], [24.79434, 43.75018], [24.79256, 43.75062], [24.79067, 43.75054], [24.78823, 43.74946], [24.78707, 43.74762], [24.78484, 43.74651], [24.78355, 43.74648], [24.7855, 43.74758], [24.78642, 43.74916], [24.78619, 43.75092], [24.78472, 43.75245], [24.7858, 43.75418], [24.78592, 43.75693], [24.78504, 43.7585], [24.78327, 43.76031], [24.78156, 43.76118], [24.78017, 43.76562], [24.77893, 43.76684], [24.77839, 43.76813], [24.7771, 43.76935], [24.77428, 43.77072], [24.77821, 43.77329], [24.77989, 43.77506], [24.78012, 43.77608], [24.77924, 43.77854], [24.77961, 43.779], [24.78625, 43.78248], [24.78277, 43.78595], [24.76288, 43.77993], [24.76405, 43.78375], [24.76777, 43.79197], [24.77258, 43.79988], [24.77643, 43.80484], [24.7767, 43.80333]]], [[[24.80375, 43.69277], [24.80485, 43.69296], [24.80743, 43.69467], [24.80786, 43.69571], [24.80607, 43.69614], [24.8055, 43.69504], [24.80509, 43.69505], [24.79882, 43.69575], [24.79727, 43.69677], [24.80138, 43.69701], [24.8132, 43.69549], [24.81245, 43.69474], [24.81223, 43.69366], [24.80995, 43.69293], [24.81008, 43.69245], [24.80902, 43.69179], [24.81211, 43.69195], [24.81416, 43.693], [24.81516, 43.69523], [24.82218, 43.69474], [24.82263, 43.69412], [24.82092, 43.69374], [24.82105, 43.69319], [24.82352, 43.69417], [24.82366, 43.69465], [24.82453, 43.69458], [24.82377, 43.69353], [24.82313, 43.6937], [24.82242, 43.69309], [24.82111, 43.69295], [24.82221, 43.6929], [24.82229, 43.69248], [24.82318, 43.69215], [24.82409, 43.69312], [24.82471, 43.69313], [24.82432, 43.6933], [24.82501, 43.69387], [24.82584, 43.69372], [24.82635, 43.6942], [24.82569, 43.69439], [24.82927, 43.69389], [24.82853, 43.69203], [24.82886, 43.69051], [24.82985, 43.68947], [24.83129, 43.68899], [24.8314, 43.68823], [24.83251, 43.68812], [24.83275, 43.68877], [24.83328, 43.68878], [24.83314, 43.68715], [24.83348, 43.68721], [24.83347, 43.68886], [24.83453, 43.68924], [24.84375, 43.68926], [24.84329, 43.68642], [24.83512, 43.6854], [24.83353, 43.68534], [24.83337, 43.68575], [24.83132, 43.68517], [24.83089, 43.687], [24.82997, 43.68503], [24.82819, 43.6849], [24.82769, 43.6852], [24.8273, 43.68462], [24.82422, 43.68448], [24.82079, 43.68466], [24.82098, 43.68536], [24.82287, 43.68536], [24.8227, 43.68568], [24.81853, 43.68589], [24.81776, 43.68758], [24.81676, 43.68766], [24.81586, 43.68728], [24.81622, 43.68635], [24.8158, 43.68621], [24.81136, 43.68846], [24.81155, 43.68881], [24.81085, 43.68971], [24.81152, 43.69011], [24.81056, 43.69091], [24.80625, 43.69112], [24.80606, 43.69184], [24.80562, 43.69186], [24.8056, 43.69152], [24.80375, 43.69277]]], [[[24.79914, 43.69559], [24.80322, 43.69519], [24.80384, 43.69503], [24.80262, 43.69471], [24.80277, 43.69366], [24.80217, 43.69366], [24.79914, 43.69559]]], [[[24.79506, 43.70033], [24.79407, 43.70013], [24.79622, 43.70123], [24.79739, 43.70093], [24.79811, 43.70102], [24.79792, 43.70139], [24.79829, 43.70156], [24.79929, 43.70141], [24.79764, 43.70196], [24.79893, 43.70257], [24.80101, 43.70278], [24.80313, 43.70234], [24.8021, 43.70336], [24.80268, 43.70351], [24.80791, 43.70386], [24.80821, 43.70206], [24.81002, 43.70172], [24.81024, 43.70272], [24.81608, 43.70257], [24.81595, 43.70374], [24.81619, 43.70321], [24.81708, 43.70347], [24.81671, 43.70261], [24.81797, 43.70274], [24.81814, 43.70401], [24.81588, 43.7043], [24.81576, 43.70378], [24.81498, 43.70387], [24.8151, 43.7044], [24.81273, 43.70467], [24.81259, 43.70412], [24.8122, 43.70415], [24.81234, 43.70474], [24.81024, 43.70506], [24.81166, 43.7058], [24.81545, 43.70642], [24.81562, 43.70745], [24.82279, 43.70834], [24.82553, 43.70698], [24.82762, 43.7068], [24.82958, 43.70713], [24.82736, 43.70472], [24.82763, 43.70256], [24.82818, 43.70175], [24.82644, 43.70057], [24.8263, 43.69963], [24.82693, 43.69864], [24.82655, 43.69821], [24.81845, 43.69896], [24.82042, 43.69963], [24.81737, 43.6995], [24.81542, 43.69979], [24.81502, 43.70087], [24.81434, 43.70099], [24.81235, 43.7009], [24.81139, 43.69967], [24.80186, 43.70087], [24.79735, 43.70075], [24.79506, 43.70033]], [[24.8181, 43.70166], [24.81773, 43.70228], [24.81732, 43.70244], [24.81731, 43.70207], [24.8181, 43.70166]]], [[[24.90869, 43.67467], [24.90954, 43.67798], [24.91695, 43.67725], [24.91676, 43.67618], [24.90869, 43.67467]]], [[[24.91711, 43.67723], [24.91831, 43.6771], [24.91991, 43.67685], [24.91692, 43.67622], [24.91711, 43.67723]]], [[[24.83584, 43.69167], [24.84402, 43.69071], [24.84378, 43.68938], [24.83468, 43.68934], [24.83584, 43.69167]]], [[[24.8173, 43.69925], [24.81791, 43.69898], [24.81636, 43.69902], [24.8164, 43.69921], [24.8173, 43.69925]]], [[[24.87873, 43.67244], [24.88117, 43.67519], [24.88133, 43.67457], [24.8821, 43.67457], [24.88474, 43.6757], [24.88641, 43.67513], [24.88772, 43.67579], [24.88708, 43.67404], [24.88715, 43.67283], [24.88908, 43.6726], [24.88442, 43.6723], [24.87873, 43.67244]]], [[[24.89018, 43.67298], [24.89082, 43.6737], [24.89276, 43.67312], [24.89269, 43.67275], [24.88967, 43.67258], [24.89018, 43.67298]]], [[[24.89871, 43.67368], [24.89545, 43.67498], [24.89407, 43.67718], [24.89139, 43.67876], [24.88978, 43.67881], [24.88848, 43.67961], [24.88882, 43.6799], [24.88961, 43.67971], [24.88985, 43.68013], [24.88941, 43.68104], [24.88833, 43.68161], [24.88913, 43.68179], [24.88903, 43.68231], [24.89073, 43.68443], [24.89068, 43.68712], [24.89207, 43.68806], [24.8961, 43.68617], [24.89703, 43.6831], [24.89732, 43.68289], [24.89723, 43.68375], [24.89773, 43.684], [24.89803, 43.6824], [24.89942, 43.68097], [24.90149, 43.6802], [24.90388, 43.68023], [24.90448, 43.67947], [24.90284, 43.67377], [24.89922, 43.67331], [24.89871, 43.67368]], [[24.89263, 43.68527], [24.89232, 43.68563], [24.89166, 43.68525], [24.89226, 43.68512], [24.89263, 43.68527]]], [[[24.76469, 43.73978], [24.77864, 43.74149], [24.78116, 43.74047], [24.78339, 43.7401], [24.7876, 43.74047], [24.79057, 43.74123], [24.78971, 43.73778], [24.79105, 43.73739], [24.79036, 43.73669], [24.791, 43.73609], [24.79018, 43.73466], [24.79468, 43.73574], [24.79807, 43.73781], [24.79616, 43.73585], [24.78807, 43.73079], [24.78651, 43.72857], [24.78643, 43.72757], [24.78697, 43.72669], [24.78623, 43.72446], [24.78624, 43.72278], [24.78952, 43.71407], [24.78673, 43.71371], [24.78662, 43.71482], [24.78536, 43.71678], [24.78337, 43.71798], [24.78203, 43.71803], [24.77727, 43.71701], [24.77632, 43.71807], [24.77649, 43.71907], [24.77601, 43.71994], [24.77233, 43.7216], [24.77027, 43.72455], [24.76595, 43.73261], [24.76325, 43.73962], [24.76469, 43.73978]]], [[[24.80624, 43.74202], [24.82238, 43.74059], [24.82468, 43.741], [24.82687, 43.74221], [24.82728, 43.74202], [24.82783, 43.74091], [24.82912, 43.73083], [24.82828, 43.72907], [24.82821, 43.72529], [24.82638, 43.72473], [24.82548, 43.72345], [24.82577, 43.72223], [24.82746, 43.72052], [24.82717, 43.72023], [24.81569, 43.72103], [24.81606, 43.72504], [24.81959, 43.72648], [24.82106, 43.72823], [24.82179, 43.7316], [24.82112, 43.73699], [24.82027, 43.73843], [24.8189, 43.73955], [24.81737, 43.74013], [24.81472, 43.74042], [24.81105, 43.74012], [24.80556, 43.73787], [24.80513, 43.74128], [24.80624, 43.74202]]], [[[24.82473, 43.78436], [24.82463, 43.78271], [24.82591, 43.78106], [24.8261, 43.77972], [24.82687, 43.77904], [24.82638, 43.77793], [24.82685, 43.77683], [24.82666, 43.77544], [24.82889, 43.77274], [24.83074, 43.77208], [24.83155, 43.77118], [24.83392, 43.77004], [24.83607, 43.7699], [24.83962, 43.76869], [24.84076, 43.76758], [24.84039, 43.76665], [24.84067, 43.76574], [24.84216, 43.76469], [24.8489, 43.76187], [24.85115, 43.76173], [24.85252, 43.76047], [24.85467, 43.76038], [24.85571, 43.75948], [24.83943, 43.75854], [24.82626, 43.7547], [24.82093, 43.7592], [24.81146, 43.76308], [24.8095, 43.7653], [24.80868, 43.76818], [24.81075, 43.76943], [24.81177, 43.77114], [24.81309, 43.77221], [24.81373, 43.77382], [24.81264, 43.77737], [24.81259, 43.78068], [24.81056, 43.78421], [24.80836, 43.78579], [24.81018, 43.78674], [24.8113, 43.78809], [24.81145, 43.79015], [24.81047, 43.79193], [24.81284, 43.79243], [24.81526, 43.79413], [24.81567, 43.7938], [24.81528, 43.7927], [24.81571, 43.79159], [24.8183, 43.78929], [24.8208, 43.78538], [24.82233, 43.78448], [24.82473, 43.78436]]], [[[24.82398, 43.74582], [24.82403, 43.74551], [24.82223, 43.74445], [24.81074, 43.7456], [24.82334, 43.74966], [24.82398, 43.74582]]], [[[24.79432, 43.82192], [24.79643, 43.82021], [24.79742, 43.81675], [24.79843, 43.81616], [24.80014, 43.81592], [24.80316, 43.81367], [24.80474, 43.81343], [24.8056, 43.81247], [24.80566, 43.81138], [24.80282, 43.81287], [24.80117, 43.81309], [24.79783, 43.81279], [24.79474, 43.8121], [24.7931, 43.81126], [24.79051, 43.80838], [24.79071, 43.80975], [24.79013, 43.81162], [24.79182, 43.8123], [24.79301, 43.81325], [24.79359, 43.81422], [24.79369, 43.81588], [24.7925, 43.81768], [24.79003, 43.81849], [24.79432, 43.82192]]], [[[24.80653, 43.80341], [24.80723, 43.80317], [24.80702, 43.80279], [24.80665, 43.80327], [24.80653, 43.80341]]], [[[24.82896, 43.75083], [24.82884, 43.75129], [24.84064, 43.75478], [24.85431, 43.7554], [24.85716, 43.7505], [24.83256, 43.74887], [24.83156, 43.75004], [24.83037, 43.75041], [24.82908, 43.75034], [24.82896, 43.75083]]], [[[24.83294, 43.74447], [24.83218, 43.74497], [24.84709, 43.74596], [24.84819, 43.74421], [24.84803, 43.7425], [24.84638, 43.7422], [24.84481, 43.74142], [24.84378, 43.74025], [24.84345, 43.73889], [24.8446, 43.73658], [24.84733, 43.7354], [24.85068, 43.73574], [24.85217, 43.73662], [24.85312, 43.73788], [24.85509, 43.73821], [24.85682, 43.73917], [24.86005, 43.73922], [24.86311, 43.73857], [24.86506, 43.73893], [24.86646, 43.73967], [24.8691, 43.7394], [24.88182, 43.72253], [24.88019, 43.72099], [24.87995, 43.71893], [24.87579, 43.71666], [24.87486, 43.71547], [24.87463, 43.71421], [24.87253, 43.71375], [24.8689, 43.7139], [24.86679, 43.71575], [24.86378, 43.71624], [24.86584, 43.71788], [24.86613, 43.72025], [24.86434, 43.72222], [24.86163, 43.72295], [24.85879, 43.72245], [24.85685, 43.72089], [24.85643, 43.71884], [24.85778, 43.71686], [24.85745, 43.7155], [24.85647, 43.71496], [24.85271, 43.71631], [24.84945, 43.71935], [24.84571, 43.72175], [24.84347, 43.72264], [24.83973, 43.72529], [24.83563, 43.73173], [24.83645, 43.73546], [24.83662, 43.73894], [24.83517, 43.74203], [24.83294, 43.74447]], [[24.85194, 43.73238], [24.85013, 43.73276], [24.84817, 43.7326], [24.84651, 43.73193], [24.84534, 43.73086], [24.84482, 43.72954], [24.84504, 43.72814], [24.84595, 43.72694], [24.84743, 43.72609], [24.84924, 43.72571], [24.8512, 43.72587], [24.85286, 43.72654], [24.85403, 43.72761], [24.85455, 43.72893], [24.85433, 43.73033], [24.85342, 43.73153], [24.85194, 43.73238]]], [[[24.90918, 43.72042], [24.90832, 43.72122], [24.90981, 43.72243], [24.91039, 43.72409], [24.91002, 43.72544], [24.90891, 43.72667], [24.90734, 43.72744], [24.90537, 43.7277], [24.90298, 43.7293], [24.8997, 43.72944], [24.88866, 43.73572], [24.88983, 43.7364], [24.8926, 43.73935], [24.90935, 43.74204], [24.91232, 43.74289], [24.91537, 43.74449], [24.92076, 43.74617], [24.92152, 43.74715], [24.9215, 43.74816], [24.92057, 43.74917], [24.91911, 43.74964], [24.91912, 43.7581], [24.9196, 43.7581], [24.91953, 43.75651], [24.91992, 43.7565], [24.91996, 43.75571], [24.92233, 43.75554], [24.92235, 43.7562], [24.92349, 43.7556], [24.92514, 43.75535], [24.92525, 43.75365], [24.92711, 43.75268], [24.92694, 43.74815], [24.92791, 43.74727], [24.92964, 43.74694], [24.93108, 43.74736], [24.93199, 43.74837], [24.93325, 43.74824], [24.93447, 43.75072], [24.93651, 43.75227], [24.93888, 43.75568], [24.9399, 43.7586], [24.94122, 43.75877], [24.9417, 43.75725], [24.9411, 43.75338], [24.93766, 43.74295], [24.93779, 43.7337], [24.93056, 43.73466], [24.92352, 43.73475], [24.92219, 43.73444], [24.92097, 43.73335], [24.92088, 43.73213], [24.91676, 43.72967], [24.91559, 43.72819], [24.91582, 43.72578], [24.9181, 43.72404], [24.91642, 43.72355], [24.91667, 43.72319], [24.91591, 43.723], [24.9163, 43.72275], [24.91469, 43.722], [24.91294, 43.72296], [24.91074, 43.72284], [24.90941, 43.72182], [24.90918, 43.72042]]], [[[24.93029, 43.72952], [24.92975, 43.73038], [24.93153, 43.73024], [24.93138, 43.72928], [24.93038, 43.72928], [24.93029, 43.72952]]], [[[24.94717, 43.75885], [24.94697, 43.75945], [24.94872, 43.75967], [24.94968, 43.75882], [24.95025, 43.75679], [24.9497, 43.75337], [24.94976, 43.74866], [24.94678, 43.74862], [24.9455, 43.74829], [24.94703, 43.75366], [24.94753, 43.75728], [24.94717, 43.75885]]], [[[24.9462, 43.73221], [24.94512, 43.73333], [24.9436, 43.73404], [24.94362, 43.73544], [24.94629, 43.73494], [24.94712, 43.73413], [24.9483, 43.73375], [24.94959, 43.73381], [24.9508, 43.7344], [24.9523, 43.73437], [24.95251, 43.73262], [24.94632, 43.73198], [24.9462, 43.73221]]], [[[24.96028, 43.73345], [24.95778, 43.73318], [24.95763, 43.73457], [24.95968, 43.73565], [24.96067, 43.73724], [24.96027, 43.73983], [24.9582, 43.74105], [24.95989, 43.74393], [24.95993, 43.74681], [24.95729, 43.74896], [24.95508, 43.74918], [24.95531, 43.75498], [24.95749, 43.75558], [24.95903, 43.75686], [24.95956, 43.75853], [24.95899, 43.76017], [24.98219, 43.76015], [24.98243, 43.75888], [24.98457, 43.75677], [24.98807, 43.75596], [24.99064, 43.75666], [24.99425, 43.75903], [24.99484, 43.76005], [24.99645, 43.76023], [24.99769, 43.76101], [25.00016, 43.76081], [25.0013, 43.76018], [25.00278, 43.76008], [25.00257, 43.75394], [25.00111, 43.74536], [24.99849, 43.73692], [24.99683, 43.73328], [24.99533, 43.73336], [24.99163, 43.73432], [24.98555, 43.73507], [24.98457, 43.73507], [24.98463, 43.73462], [24.97871, 43.73559], [24.97157, 43.73524], [24.97017, 43.73427], [24.96784, 43.73392], [24.96736, 43.73302], [24.96464, 43.73353], [24.96028, 43.73345]], [[24.96054, 43.74276], [24.96055, 43.74166], [24.96267, 43.74183], [24.96262, 43.74296], [24.96054, 43.74276]]], [[[24.76134, 43.77166], [24.76109, 43.77305], [24.76315, 43.77134], [24.7661, 43.77049], [24.76425, 43.7705], [24.76134, 43.77166]]], [[[24.77684, 43.76197], [24.77778, 43.76306], [24.77828, 43.76388], [24.77965, 43.76158], [24.77718, 43.76157], [24.77663, 43.76175], [24.77684, 43.76197]]], [[[24.80994, 43.70641], [24.81056, 43.70653], [24.80946, 43.70542], [24.80751, 43.70477], [24.80721, 43.7057], [24.80994, 43.70641]]], [[[24.80261, 43.70422], [24.80502, 43.70506], [24.80626, 43.7042], [24.80362, 43.70405], [24.80261, 43.70422]]], [[[24.83991, 43.67764], [24.84214, 43.67801], [24.84236, 43.67703], [24.83983, 43.67763], [24.83991, 43.67764]]], [[[24.77148, 43.76571], [24.7706, 43.76476], [24.76937, 43.76568], [24.77128, 43.76609], [24.77179, 43.76599], [24.77148, 43.76571]]], [[[24.89505, 43.67372], [24.89634, 43.67385], [24.89772, 43.67312], [24.89696, 43.67303], [24.89505, 43.67372]]], [[[24.89037, 43.67688], [24.89148, 43.67594], [24.89065, 43.67605], [24.88994, 43.67665], [24.89037, 43.67688]]], [[[24.89009, 43.67592], [24.88977, 43.67548], [24.88931, 43.67564], [24.88964, 43.67649], [24.89009, 43.67592]]], [[[24.77657, 43.75392], [24.77528, 43.75282], [24.77449, 43.75113], [24.77132, 43.75291], [24.77514, 43.75422], [24.77619, 43.75588], [24.77895, 43.7561], [24.77902, 43.75552], [24.77657, 43.75392]]], [[[24.80998, 43.79613], [24.80657, 43.79662], [24.80562, 43.79759], [24.80985, 43.79706], [24.81034, 43.79641], [24.80998, 43.79613]]], [[[24.80124, 43.79457], [24.80143, 43.79462], [24.80224, 43.79375], [24.8013, 43.79372], [24.80124, 43.79457]]], [[[24.79003, 43.80756], [24.79016, 43.80772], [24.79034, 43.80799], [24.79021, 43.80756], [24.79003, 43.80756]]], [[[24.96788, 43.71926], [24.9692, 43.7193], [24.96492, 43.71825], [24.96154, 43.71778], [24.9633, 43.71814], [24.96508, 43.71913], [24.96788, 43.71926]]], [[[24.88685, 43.76904], [24.8861, 43.76927], [24.88706, 43.76983], [24.88796, 43.76978], [24.88771, 43.7687], [24.88685, 43.76904]]], [[[24.89153, 43.76507], [24.89317, 43.76844], [24.89346, 43.77311], [24.90757, 43.77283], [24.91059, 43.77369], [24.91481, 43.77599], [24.91463, 43.77352], [24.92068, 43.77188], [24.92229, 43.77174], [24.92374, 43.77557], [24.91744, 43.77744], [24.96892, 43.80588], [24.97075, 43.80526], [24.97264, 43.80563], [24.97369, 43.80659], [24.9743, 43.80831], [24.98027, 43.8116], [24.98712, 43.80387], [24.99249, 43.79614], [24.99678, 43.78807], [24.99996, 43.77973], [25.00122, 43.77447], [25.00072, 43.77459], [25.00188, 43.77173], [25.00118, 43.77078], [24.9984, 43.77009], [24.9966, 43.77072], [24.99483, 43.77052], [24.99355, 43.76937], [24.99368, 43.76804], [24.99168, 43.76786], [24.99039, 43.76663], [24.98804, 43.7669], [24.98475, 43.76552], [24.98296, 43.76537], [24.98092, 43.76464], [24.97939, 43.76463], [24.97815, 43.76402], [24.9527, 43.76402], [24.94352, 43.76295], [24.94203, 43.76331], [24.93379, 43.76318], [24.93224, 43.76276], [24.93131, 43.76186], [24.92786, 43.76194], [24.92687, 43.76338], [24.92492, 43.76383], [24.92329, 43.76329], [24.92246, 43.76198], [24.90723, 43.76192], [24.90355, 43.76096], [24.90211, 43.76138], [24.90023, 43.76141], [24.89772, 43.76049], [24.89593, 43.75826], [24.89154, 43.75854], [24.88693, 43.75835], [24.88728, 43.75996], [24.88821, 43.7612], [24.89037, 43.76268], [24.89153, 43.76507]]], [[[24.90719, 43.75708], [24.90688, 43.75778], [24.90787, 43.75808], [24.9138, 43.75809], [24.91377, 43.74818], [24.90978, 43.74628], [24.90758, 43.74568], [24.89053, 43.74291], [24.8886, 43.74193], [24.88611, 43.73928], [24.88287, 43.73901], [24.88182, 43.73965], [24.8807, 43.74372], [24.88113, 43.74375], [24.88116, 43.74413], [24.88443, 43.74541], [24.8865, 43.74563], [24.8878, 43.74697], [24.88944, 43.74794], [24.89364, 43.74943], [24.90327, 43.75095], [24.90444, 43.7523], [24.90491, 43.75426], [24.9045, 43.75532], [24.90561, 43.75581], [24.90554, 43.75639], [24.90719, 43.75708]]], [[[24.87535, 43.74118], [24.87578, 43.74135], [24.87686, 43.73809], [24.87978, 43.73586], [24.88033, 43.73419], [24.88189, 43.73293], [24.88044, 43.73242], [24.87424, 43.74063], [24.87535, 43.74118]]], [[[24.88817, 43.72506], [24.88664, 43.72418], [24.883, 43.72903], [24.88806, 43.73117], [24.89511, 43.72715], [24.8912, 43.72623], [24.88817, 43.72506]]], [[[24.88636, 43.77702], [24.88547, 43.77666], [24.88439, 43.77813], [24.88941, 43.8022], [24.91995, 43.84385], [24.92501, 43.84264], [24.93594, 43.83914], [24.94634, 43.83488], [24.95611, 43.8299], [24.96515, 43.82426], [24.97339, 43.81799], [24.97665, 43.81497], [24.9076, 43.77689], [24.90615, 43.77658], [24.90002, 43.77678], [24.89869, 43.77985], [24.89775, 43.7805], [24.8965, 43.78074], [24.89501, 43.78043], [24.89383, 43.77914], [24.89193, 43.77858], [24.89108, 43.77682], [24.88865, 43.77734], [24.88636, 43.77702]]], [[[24.88303, 43.77244], [24.88307, 43.77261], [24.88311, 43.77249], [24.88303, 43.77244]]], [[[24.84418, 43.82719], [24.84395, 43.82776], [24.84406, 43.82786], [24.84441, 43.82725], [24.84418, 43.82719]]]]}, "properties": {"kind": "windland", "area_km2": 157.46}}, {"type": "Feature", "geometry": {"type": "MultiPolygon", "coordinates": [[[[24.81631, 43.72705], [24.81787, 43.72782], [24.81854, 43.72852], [24.81922, 43.73086], [24.81869, 43.73456], [24.8187, 43.73647], [24.81805, 43.73754], [24.81748, 43.73802], [24.81658, 43.73838], [24.81449, 43.73859], [24.81231, 43.73846], [24.81097, 43.73858], [24.80716, 43.73757], [24.80338, 43.73626], [24.8019, 43.73521], [24.80255, 43.73654], [24.80314, 43.73851], [24.80277, 43.74061], [24.80203, 43.74211], [24.80076, 43.74329], [24.79963, 43.74393], [24.79733, 43.74473], [24.80155, 43.74428], [24.80168, 43.74391], [24.80216, 43.74368], [24.80283, 43.74373], [24.80321, 43.74413], [24.82195, 43.74226], [24.82366, 43.74249], [24.82595, 43.7438], [24.82728, 43.74202], [24.82687, 43.74221], [24.82485, 43.74107], [24.82315, 43.74064], [24.82143, 43.74063], [24.80637, 43.74214], [24.80513, 43.74128], [24.80558, 43.73991], [24.80556, 43.73787], [24.81076, 43.74003], [24.81304, 43.74042], [24.81592, 43.74034], [24.81767, 43.74005], [24.8191, 43.73943], [24.82027, 43.73843], [24.82119, 43.73677], [24.82124, 43.73469], [24.82179, 43.7316], [24.82106, 43.72823], [24.82076, 43.72763], [24.81959, 43.72648], [24.81766, 43.72549], [24.81606, 43.72504], [24.81631, 43.72705]]], [[[24.79802, 43.73757], [24.79902, 43.73903], [24.79922, 43.74026], [24.79817, 43.7424], [24.79927, 43.74138], [24.80049, 43.73966], [24.80071, 43.7389], [24.80046, 43.73699], [24.79975, 43.73603], [24.79882, 43.73523], [24.7959, 43.73322], [24.79581, 43.73562], [24.79765, 43.73707], [24.79802, 43.73757]]], [[[24.82228, 43.74279], [24.82177, 43.74282], [24.80341, 43.74466], [24.81368, 43.7486], [24.82504, 43.75196], [24.82573, 43.75042], [24.82647, 43.74753], [24.82651, 43.74587], [24.82684, 43.74502], [24.82331, 43.74296], [24.82228, 43.74279]], [[24.81461, 43.74708], [24.81074, 43.7456], [24.82223, 43.74445], [24.82403, 43.74551], [24.82393, 43.74735], [24.82334, 43.74966], [24.81461, 43.74708]]], [[[24.79585, 43.74339], [24.79675, 43.74323], [24.79797, 43.74257], [24.79686, 43.74311], [24.79552, 43.74343], [24.79585, 43.74339]]], [[[24.80208, 43.74479], [24.79545, 43.74546], [24.7953, 43.74965], [24.79644, 43.74838], [24.79677, 43.747], [24.79894, 43.74679], [24.8004, 43.74749], [24.80177, 43.74775], [24.80335, 43.74771], [24.80432, 43.7475], [24.81239, 43.75059], [24.82056, 43.75301], [24.81735, 43.75586], [24.81119, 43.75811], [24.80721, 43.7602], [24.80462, 43.76301], [24.80359, 43.76462], [24.80278, 43.76849], [24.80309, 43.77], [24.80418, 43.77119], [24.80589, 43.77188], [24.80684, 43.77339], [24.80775, 43.77418], [24.80689, 43.77671], [24.80694, 43.77961], [24.80531, 43.78219], [24.80224, 43.7828], [24.80016, 43.78372], [24.79905, 43.78499], [24.79883, 43.7866], [24.79924, 43.78755], [24.80004, 43.78818], [24.8063, 43.7883], [24.80619, 43.79151], [24.80751, 43.79085], [24.80807, 43.79025], [24.80816, 43.78877], [24.8072, 43.78802], [24.80345, 43.78744], [24.80216, 43.78704], [24.80141, 43.78661], [24.80131, 43.78595], [24.8015, 43.78546], [24.80211, 43.78491], [24.80489, 43.78408], [24.80595, 43.78411], [24.80704, 43.78355], [24.8077, 43.78302], [24.80802, 43.78218], [24.80943, 43.78004], [24.80941, 43.7769], [24.81045, 43.77372], [24.81016, 43.77328], [24.80901, 43.77245], [24.80804, 43.77078], [24.80596, 43.76989], [24.80548, 43.76939], [24.80531, 43.76854], [24.80604, 43.7651], [24.80637, 43.76447], [24.80891, 43.76156], [24.8125, 43.75968], [24.81887, 43.75735], [24.82462, 43.75242], [24.81336, 43.74909], [24.80208, 43.74479]]], [[[24.81287, 43.76015], [24.80945, 43.76193], [24.80705, 43.7647], [24.80637, 43.76674], [24.80606, 43.76857], [24.80644, 43.76946], [24.80808, 43.77006], [24.80867, 43.77048], [24.80964, 43.77216], [24.81076, 43.77295], [24.81119, 43.77361], [24.81066, 43.77583], [24.81015, 43.77698], [24.81016, 43.78018], [24.80851, 43.78273], [24.8084, 43.78325], [24.80756, 43.78394], [24.80616, 43.78465], [24.80507, 43.7846], [24.80353, 43.78498], [24.80255, 43.78535], [24.80206, 43.78599], [24.80209, 43.78633], [24.80366, 43.78692], [24.80754, 43.78753], [24.80885, 43.78857], [24.80901, 43.78923], [24.80875, 43.79049], [24.80802, 43.79124], [24.80616, 43.79211], [24.80608, 43.79427], [24.80984, 43.79373], [24.8114, 43.79395], [24.81259, 43.79459], [24.81372, 43.79565], [24.81382, 43.79602], [24.81361, 43.79696], [24.81194, 43.79907], [24.81113, 43.79932], [24.80863, 43.79947], [24.80643, 43.7999], [24.80586, 43.80035], [24.80564, 43.8063], [24.80671, 43.80632], [24.80721, 43.80593], [24.80867, 43.80345], [24.80947, 43.80282], [24.81013, 43.80318], [24.81056, 43.8032], [24.8093, 43.80245], [24.80931, 43.80208], [24.80968, 43.80201], [24.81045, 43.80234], [24.81123, 43.80108], [24.81173, 43.80109], [24.81176, 43.80147], [24.81232, 43.80107], [24.8132, 43.80104], [24.81336, 43.80088], [24.81301, 43.80059], [24.81318, 43.80037], [24.81389, 43.80037], [24.81497, 43.79806], [24.81657, 43.7958], [24.81747, 43.79406], [24.81723, 43.79315], [24.81819, 43.79106], [24.819, 43.79006], [24.82109, 43.78867], [24.82271, 43.7862], [24.82328, 43.78602], [24.82386, 43.78615], [24.82407, 43.78527], [24.82458, 43.78456], [24.82363, 43.78437], [24.82256, 43.78443], [24.82163, 43.78475], [24.8208, 43.78538], [24.8183, 43.78929], [24.81571, 43.79159], [24.81528, 43.7927], [24.81567, 43.7938], [24.81526, 43.79413], [24.8143, 43.79324], [24.81284, 43.79243], [24.81047, 43.79193], [24.8111, 43.79118], [24.81145, 43.79015], [24.81154, 43.78909], [24.8113, 43.78809], [24.81018, 43.78674], [24.80836, 43.78579], [24.80921, 43.78533], [24.81056, 43.78421], [24.81259, 43.78068], [24.81281, 43.77923], [24.81264, 43.77737], [24.81373, 43.77382], [24.81366, 43.77318], [24.81309, 43.77221], [24.81177, 43.77114], [24.81075, 43.76943], [24.80968, 43.76864], [24.80868, 43.76818], [24.80911, 43.7661], [24.8095, 43.7653], [24.81146, 43.76308], [24.81404, 43.76179], [24.82093, 43.7592], [24.82236, 43.75818], [24.82626, 43.7547], [24.83943, 43.75854], [24.85482, 43.75927], [24.85571, 43.75948], [24.85467, 43.76038], [24.85352, 43.76026], [24.85252, 43.76047], [24.85171, 43.76094], [24.85115, 43.76173], [24.84991, 43.76164], [24.8489, 43.76187], [24.84735, 43.76266], [24.84216, 43.76469], [24.84067, 43.76574], [24.84039, 43.76665], [24.84076, 43.76758], [24.84009, 43.76802], [24.83962, 43.76869], [24.83856, 43.76926], [24.83723, 43.76933], [24.83607, 43.7699], [24.83491, 43.76981], [24.83392, 43.77004], [24.83155, 43.77118], [24.83074, 43.77208], [24.82971, 43.77228], [24.82889, 43.77274], [24.82824, 43.77392], [24.82713, 43.77477], [24.82666, 43.77544], [24.82658, 43.7762], [24.82685, 43.77683], [24.82638, 43.77793], [24.82687, 43.77904], [24.8261, 43.77972], [24.82583, 43.78045], [24.82591, 43.78106], [24.82463, 43.78271], [24.8245, 43.78352], [24.82478, 43.78431], [24.82525, 43.78395], [24.82714, 43.78116], [24.82817, 43.78035], [24.82835, 43.77928], [24.82798, 43.77861], [24.82793, 43.77797], [24.82826, 43.77683], [24.82886, 43.77607], [24.82886, 43.77549], [24.82928, 43.77554], [24.82969, 43.77529], [24.83015, 43.7747], [24.83114, 43.77496], [24.83052, 43.77436], [24.83062, 43.77383], [24.83168, 43.77334], [24.83199, 43.77337], [24.83386, 43.77197], [24.83497, 43.77198], [24.83548, 43.77232], [24.83486, 43.77181], [24.83507, 43.77148], [24.83563, 43.77164], [24.83714, 43.77107], [24.84036, 43.77061], [24.84053, 43.77024], [24.84097, 43.77018], [24.84163, 43.76965], [24.84187, 43.76906], [24.84225, 43.76894], [24.84319, 43.76778], [24.84325, 43.76741], [24.84269, 43.76669], [24.84278, 43.76641], [24.84864, 43.76404], [24.84977, 43.76341], [24.85022, 43.76329], [24.85068, 43.76339], [24.8522, 43.76293], [24.85231, 43.76306], [24.85352, 43.76243], [24.85337, 43.76216], [24.85357, 43.76195], [24.854, 43.762], [24.85503, 43.7615], [24.8553, 43.7617], [24.8558, 43.7616], [24.85555, 43.76139], [24.85629, 43.76078], [24.85791, 43.75837], [24.85529, 43.75764], [24.83991, 43.75692], [24.82533, 43.75263], [24.81933, 43.75778], [24.81287, 43.76015]], [[24.80702, 43.80279], [24.80723, 43.80317], [24.80656, 43.80358], [24.80653, 43.80341], [24.80702, 43.80279]]], [[[24.81113, 43.79446], [24.80987, 43.79427], [24.80606, 43.79482], [24.80597, 43.7973], [24.80657, 43.79662], [24.80993, 43.79612], [24.81034, 43.79641], [24.80985, 43.79706], [24.80805, 43.79713], [24.80597, 43.79754], [24.80589, 43.79952], [24.80851, 43.79894], [24.81016, 43.79889], [24.81148, 43.79863], [24.81292, 43.79676], [24.81308, 43.79607], [24.81204, 43.79496], [24.81113, 43.79446]]], [[[24.81396, 43.80304], [24.81783, 43.80285], [24.81908, 43.80296], [24.81922, 43.80264], [24.8197, 43.80241], [24.82037, 43.80248], [24.82042, 43.80284], [24.81982, 43.803], [24.81961, 43.80503], [24.81898, 43.80609], [24.81929, 43.80618], [24.81938, 43.80643], [24.81907, 43.80663], [24.81807, 43.80657], [24.81801, 43.80824], [24.81966, 43.80824], [24.82099, 43.80766], [24.8216, 43.80684], [24.82202, 43.80402], [24.8227, 43.80316], [24.82265, 43.80208], [24.82387, 43.80122], [24.82434, 43.79987], [24.82495, 43.79896], [24.825, 43.79871], [24.82349, 43.79861], [24.82362, 43.79752], [24.82517, 43.79754], [24.8252, 43.79724], [24.82656, 43.79719], [24.82784, 43.79656], [24.82842, 43.79561], [24.82858, 43.79352], [24.83335, 43.79351], [24.83433, 43.79325], [24.83509, 43.79274], [24.83556, 43.79186], [24.83547, 43.79103], [24.83701, 43.79033], [24.83767, 43.7893], [24.83784, 43.78717], [24.83756, 43.78603], [24.83761, 43.78337], [24.83871, 43.78305], [24.83943, 43.78252], [24.83982, 43.78182], [24.8398, 43.78105], [24.84167, 43.7793], [24.84249, 43.77705], [24.84298, 43.77633], [24.84385, 43.77589], [24.84573, 43.77415], [24.84838, 43.77447], [24.84936, 43.77421], [24.85012, 43.77371], [24.85057, 43.77303], [24.85064, 43.77246], [24.85049, 43.77191], [24.84996, 43.77127], [24.84829, 43.77241], [24.84833, 43.77265], [24.84807, 43.77282], [24.84478, 43.77228], [24.84218, 43.77475], [24.84156, 43.77475], [24.84035, 43.77644], [24.8393, 43.77917], [24.83822, 43.78008], [24.83796, 43.78151], [24.83724, 43.78297], [24.83668, 43.78371], [24.83529, 43.78362], [24.83527, 43.78615], [24.83554, 43.78719], [24.83532, 43.7892], [24.83487, 43.78943], [24.83361, 43.78934], [24.83312, 43.79136], [24.83325, 43.79174], [24.8315, 43.79238], [24.83117, 43.79272], [24.83022, 43.79283], [24.82962, 43.79314], [24.82906, 43.79306], [24.8278, 43.79247], [24.82709, 43.79248], [24.82643, 43.79365], [24.82646, 43.79551], [24.82473, 43.79593], [24.82378, 43.79672], [24.82238, 43.80079], [24.82228, 43.80182], [24.81763, 43.80236], [24.81396, 43.80304]]], [[[24.81138, 43.80311], [24.81147, 43.80307], [24.8113, 43.80307], [24.81138, 43.80311]]], [[[24.81642, 43.80651], [24.81774, 43.80653], [24.81646, 43.80648], [24.81642, 43.80651]]], [[[24.83592, 43.69883], [24.83439, 43.6988], [24.83438, 43.69898], [24.83592, 43.69883]]], [[[24.83964, 43.69951], [24.84016, 43.6998], [24.84238, 43.69958], [24.84282, 43.69896], [24.83954, 43.6989], [24.83964, 43.69951]]], [[[24.83549, 43.70025], [24.83939, 43.6998], [24.8393, 43.6989], [24.83697, 43.69885], [24.83438, 43.69909], [24.83499, 43.70041], [24.83549, 43.70025]]], [[[24.83435, 43.69986], [24.83442, 43.69992], [24.83436, 43.69973], [24.83435, 43.69986]]], [[[24.83432, 43.70743], [24.83468, 43.70713], [24.83532, 43.70708], [24.83554, 43.70686], [24.83408, 43.70729], [24.83407, 43.7078], [24.82377, 43.70761], [24.82279, 43.70834], [24.82164, 43.70823], [24.82161, 43.70896], [24.82318, 43.70887], [24.82353, 43.70905], [24.82355, 43.70958], [24.82464, 43.70921], [24.82663, 43.70967], [24.82848, 43.70959], [24.83332, 43.70823], [24.83343, 43.70832], [24.83432, 43.70782], [24.83432, 43.70743]]], [[[24.83068, 43.71726], [24.82976, 43.71721], [24.82957, 43.71784], [24.82969, 43.71851], [24.83011, 43.71754], [24.83049, 43.71739], [24.83085, 43.71754], [24.83074, 43.71849], [24.83022, 43.71902], [24.83107, 43.71963], [24.83121, 43.72032], [24.83052, 43.72161], [24.8296, 43.72273], [24.82852, 43.72343], [24.82802, 43.7233], [24.82807, 43.72302], [24.82894, 43.7224], [24.83026, 43.72051], [24.83033, 43.71998], [24.8296, 43.71949], [24.82963, 43.72009], [24.82717, 43.72023], [24.82746, 43.72052], [24.82683, 43.72136], [24.82591, 43.72205], [24.82546, 43.72303], [24.82561, 43.72386], [24.82618, 43.72458], [24.8271, 43.72508], [24.82821, 43.72529], [24.82828, 43.72907], [24.82912, 43.73083], [24.82956, 43.729], [24.82948, 43.72683], [24.83066, 43.7248], [24.83067, 43.72408], [24.83207, 43.72213], [24.8326, 43.72004], [24.83323, 43.71877], [24.83501, 43.71735], [24.83068, 43.71726]]], [[[24.85033, 43.71873], [24.85299, 43.71619], [24.8521, 43.71651], [24.84347, 43.72264], [24.84571, 43.72175], [24.85033, 43.71873]]], [[[24.84924, 43.72571], [24.84743, 43.72609], [24.84595, 43.72694], [24.84504, 43.72814], [24.84482, 43.72954], [24.84534, 43.73086], [24.84651, 43.73193], [24.84817, 43.7326], [24.85013, 43.73276], [24.85194, 43.73238], [24.85342, 43.73153], [24.85433, 43.73033], [24.85455, 43.72893], [24.85403, 43.72761], [24.85286, 43.72654], [24.8512, 43.72587], [24.84924, 43.72571]], [[24.84934, 43.72976], [24.84891, 43.7294], [24.84898, 43.72894], [24.84944, 43.72868], [24.8501, 43.72874], [24.85046, 43.72907], [24.85039, 43.72953], [24.84993, 43.72979], [24.84934, 43.72976]]], [[[24.83593, 43.73308], [24.8356, 43.73226], [24.83525, 43.73993], [24.83077, 43.74651], [24.8591, 43.74841], [24.86084, 43.74819], [24.86151, 43.74694], [24.86105, 43.74641], [24.8613, 43.74528], [24.86194, 43.74487], [24.86247, 43.74421], [24.86472, 43.74308], [24.86914, 43.74161], [24.87007, 43.74157], [24.88536, 43.72128], [24.88471, 43.72032], [24.88399, 43.71991], [24.88411, 43.71901], [24.88449, 43.7187], [24.88507, 43.71867], [24.88558, 43.71891], [24.88602, 43.71949], [24.88644, 43.71923], [24.88595, 43.71903], [24.88646, 43.71836], [24.88626, 43.71806], [24.88591, 43.71807], [24.87792, 43.71464], [24.87848, 43.7136], [24.87353, 43.71216], [24.86503, 43.71239], [24.86502, 43.71296], [24.86437, 43.71327], [24.86346, 43.71321], [24.86304, 43.71263], [24.85974, 43.7138], [24.86056, 43.71517], [24.86053, 43.7159], [24.86159, 43.71802], [24.86171, 43.7188], [24.86219, 43.71925], [24.86206, 43.71971], [24.86153, 43.71998], [24.86089, 43.71991], [24.86051, 43.71956], [24.86053, 43.71912], [24.86097, 43.71879], [24.86086, 43.71815], [24.8598, 43.71603], [24.85983, 43.71531], [24.85908, 43.71403], [24.85647, 43.71496], [24.85745, 43.7155], [24.85778, 43.71686], [24.857, 43.71763], [24.85656, 43.71841], [24.8564, 43.71966], [24.85664, 43.72051], [24.85788, 43.72194], [24.8596, 43.72273], [24.86122, 43.72295], [24.86323, 43.72268], [24.86465, 43.72203], [24.86584, 43.72084], [24.86627, 43.71965], [24.866, 43.71818], [24.86518, 43.7171], [24.86378, 43.71624], [24.86547, 43.71614], [24.86679, 43.71575], [24.8682, 43.71485], [24.8689, 43.7139], [24.87253, 43.71375], [24.87463, 43.71421], [24.87486, 43.71547], [24.87579, 43.71666], [24.87995, 43.71893], [24.87987, 43.71999], [24.88019, 43.72099], [24.8809, 43.72189], [24.88182, 43.72253], [24.8691, 43.7394], [24.86646, 43.73967], [24.86506, 43.73893], [24.86311, 43.73857], [24.86167, 43.73867], [24.86005, 43.73922], [24.85848, 43.739], [24.85682, 43.73917], [24.85509, 43.73821], [24.85312, 43.73788], [24.85184, 43.73636], [24.85068, 43.73574], [24.84932, 43.7354], [24.84689, 43.73549], [24.84492, 43.73634], [24.84371, 43.73775], [24.84352, 43.73958], [24.84397, 43.74057], [24.84516, 43.74165], [24.84638, 43.7422], [24.84803, 43.7425], [24.84796, 43.74338], [24.84819, 43.74421], [24.84747, 43.74502], [24.84709, 43.74596], [24.83218, 43.74497], [24.83312, 43.74433], [24.8345, 43.74296], [24.83576, 43.74109], [24.83645, 43.73956], [24.83667, 43.73846], [24.8363, 43.73671], [24.83645, 43.73546], [24.83593, 43.73308]], [[24.86983, 43.71232], [24.8702, 43.7125], [24.86951, 43.71259], [24.86945, 43.71234], [24.86983, 43.71232]], [[24.85754, 43.74247], [24.85784, 43.74207], [24.8585, 43.74197], [24.85899, 43.74217], [24.85915, 43.74261], [24.85881, 43.74301], [24.8582, 43.7431], [24.85768, 43.74288], [24.85754, 43.74247]], [[24.84816, 43.7383], [24.84885, 43.73839], [24.84923, 43.73877], [24.84917, 43.73925], [24.84872, 43.73953], [24.84799, 43.73948], [24.84756, 43.73912], [24.84765, 43.73857], [24.84816, 43.7383]], [[24.85286, 43.742], [24.85232, 43.74174], [24.85225, 43.74125], [24.85265, 43.7409], [24.85326, 43.74087], [24.85377, 43.74117], [24.85381, 43.74161], [24.85346, 43.74195], [24.85286, 43.742]], [[24.85263, 43.74366], [24.85211, 43.74337], [24.85208, 43.74289], [24.85246, 43.74257], [24.85311, 43.74255], [24.85357, 43.74285], [24.85359, 43.74328], [24.85322, 43.74362], [24.85263, 43.74366]], [[24.85531, 43.74306], [24.85577, 43.74338], [24.85575, 43.74387], [24.85533, 43.74416], [24.85465, 43.74415], [24.85422, 43.7438], [24.85426, 43.74335], [24.85469, 43.74305], [24.85531, 43.74306]], [[24.86342, 43.74165], [24.86372, 43.74206], [24.8635, 43.74252], [24.86296, 43.74269], [24.86234, 43.74255], [24.86207, 43.74216], [24.86228, 43.74171], [24.86281, 43.74153], [24.86342, 43.74165]], [[24.86099, 43.7434], [24.86055, 43.74306], [24.86058, 43.74259], [24.861, 43.74229], [24.86167, 43.7423], [24.86209, 43.74266], [24.86203, 43.74312], [24.86159, 43.74341], [24.86099, 43.7434]], [[24.85168, 43.74709], [24.85119, 43.7468], [24.85119, 43.74626], [24.85166, 43.74596], [24.8523, 43.74599], [24.8527, 43.74628], [24.8527, 43.74678], [24.8523, 43.74707], [24.85168, 43.74709]]], [[[24.82784, 43.7449], [24.8278, 43.74487], [24.82788, 43.74494], [24.82784, 43.7449]]], [[[24.83163, 43.74715], [24.83059, 43.74704], [24.8303, 43.7486], [24.82976, 43.74874], [24.82957, 43.7485], [24.8299, 43.74678], [24.82743, 43.74537], [24.8272, 43.74761], [24.8263, 43.75112], [24.82573, 43.75217], [24.83931, 43.7562], [24.84085, 43.75649], [24.8558, 43.75715], [24.85885, 43.75169], [24.86066, 43.74965], [24.86056, 43.74879], [24.85905, 43.74895], [24.83163, 43.74715]], [[24.84145, 43.75487], [24.84016, 43.75466], [24.82884, 43.75129], [24.82908, 43.75034], [24.83011, 43.75044], [24.83134, 43.75015], [24.8321, 43.74964], [24.83256, 43.74887], [24.85716, 43.7505], [24.85431, 43.7554], [24.84145, 43.75487]]], [[[24.8362, 43.77305], [24.83609, 43.77298], [24.83608, 43.77303], [24.8362, 43.77305]]], [[[24.83454, 43.78366], [24.83338, 43.78374], [24.83284, 43.78386], [24.83452, 43.78395], [24.83454, 43.78366]]], [[[24.83414, 43.7855], [24.83454, 43.78571], [24.83461, 43.7845], [24.83143, 43.78431], [24.83044, 43.78472], [24.83002, 43.78521], [24.83416, 43.78526], [24.83414, 43.7855]]], [[[24.82217, 43.78827], [24.82188, 43.78873], [24.82255, 43.78892], [24.82334, 43.78804], [24.82259, 43.78775], [24.82217, 43.78827]]], [[[24.82035, 43.81417], [24.82349, 43.81478], [24.82461, 43.81461], [24.82544, 43.8142], [24.82608, 43.81355], [24.82692, 43.81153], [24.82683, 43.81078], [24.82617, 43.80997], [24.82507, 43.80948], [24.82378, 43.80942], [24.8226, 43.80982], [24.82188, 43.81047], [24.81796, 43.80949], [24.8179, 43.81123], [24.82333, 43.81256], [24.82396, 43.81117], [24.82431, 43.81105], [24.82461, 43.81122], [24.82397, 43.81289], [24.82351, 43.81311], [24.81788, 43.81179], [24.81781, 43.81351], [24.82035, 43.81417]]], [[[24.84227, 43.825], [24.84274, 43.82501], [24.84227, 43.82487], [24.84227, 43.825]]], [[[24.8706, 43.71051], [24.867, 43.71052], [24.86694, 43.71087], [24.8706, 43.71075], [24.8706, 43.71051]]], [[[24.88181, 43.72714], [24.87984, 43.72974], [24.88552, 43.73179], [24.88647, 43.73245], [24.88734, 43.73181], [24.8885, 43.73302], [24.8994, 43.72681], [24.8974, 43.72456], [24.896, 43.72426], [24.89549, 43.72394], [24.89483, 43.72407], [24.89281, 43.72351], [24.88997, 43.7224], [24.88925, 43.72178], [24.88913, 43.72142], [24.8875, 43.72048], [24.8865, 43.72088], [24.88181, 43.72714]], [[24.88759, 43.72481], [24.8912, 43.72623], [24.89511, 43.72715], [24.88806, 43.73117], [24.88662, 43.73034], [24.883, 43.72903], [24.88664, 43.72418], [24.88759, 43.72481]]], [[[24.87316, 43.73861], [24.87172, 43.7405], [24.8755, 43.74129], [24.87424, 43.74063], [24.88044, 43.73242], [24.88189, 43.73293], [24.88033, 43.73419], [24.87992, 43.73488], [24.87978, 43.73586], [24.87777, 43.73713], [24.87686, 43.73809], [24.8763, 43.73913], [24.87578, 43.74135], [24.878, 43.74181], [24.87844, 43.73973], [24.87885, 43.73891], [24.87954, 43.73819], [24.88235, 43.73649], [24.88205, 43.73565], [24.88231, 43.73502], [24.88566, 43.73254], [24.87948, 43.73022], [24.87316, 43.73861]]], [[[24.87966, 43.74275], [24.87989, 43.74363], [24.8807, 43.74372], [24.88139, 43.74029], [24.88182, 43.73965], [24.88287, 43.73901], [24.88385, 43.73921], [24.88611, 43.73928], [24.8886, 43.74193], [24.89053, 43.74291], [24.90648, 43.74545], [24.90994, 43.74635], [24.91263, 43.74782], [24.91377, 43.74818], [24.9138, 43.75809], [24.90787, 43.75808], [24.90688, 43.75778], [24.90596, 43.7593], [24.90743, 43.75972], [24.91603, 43.75976], [24.91606, 43.74813], [24.91635, 43.74779], [24.91802, 43.74758], [24.91384, 43.74641], [24.91091, 43.74484], [24.90829, 43.7441], [24.89148, 43.7414], [24.89032, 43.74084], [24.88733, 43.7377], [24.88414, 43.73757], [24.88281, 43.73692], [24.88007, 43.73856], [24.87951, 43.73916], [24.87873, 43.74195], [24.87927, 43.74202], [24.87966, 43.74275]]], [[[24.8799, 43.74468], [24.87985, 43.74555], [24.88358, 43.74696], [24.88536, 43.74707], [24.88561, 43.74764], [24.8863, 43.74826], [24.88746, 43.74866], [24.88816, 43.74932], [24.89292, 43.75106], [24.89407, 43.75112], [24.89775, 43.75199], [24.9019, 43.75228], [24.90217, 43.75256], [24.90259, 43.75438], [24.90226, 43.75471], [24.89934, 43.75535], [24.89996, 43.75587], [24.90154, 43.7557], [24.903, 43.75529], [24.90491, 43.75567], [24.9045, 43.75532], [24.90491, 43.75426], [24.90439, 43.75213], [24.90389, 43.7514], [24.90306, 43.75084], [24.90179, 43.75052], [24.89826, 43.75034], [24.89452, 43.74949], [24.89364, 43.74943], [24.88944, 43.74794], [24.8878, 43.74697], [24.88728, 43.74612], [24.88627, 43.74554], [24.88443, 43.74541], [24.88116, 43.74413], [24.8799, 43.74468]]], [[[24.85815, 43.75619], [24.85839, 43.75558], [24.85765, 43.75543], [24.85851, 43.7537], [24.85651, 43.75733], [24.85753, 43.75765], [24.85815, 43.75619]]], [[[24.85893, 43.75627], [24.85904, 43.75619], [24.85912, 43.75615], [24.85886, 43.75635], [24.85893, 43.75627]]], [[[24.85873, 43.75673], [24.85873, 43.7567], [24.85869, 43.75679], [24.85873, 43.75678], [24.85873, 43.75673]]], [[[24.86919, 43.76119], [24.86875, 43.75928], [24.86735, 43.75956], [24.86657, 43.7594], [24.86614, 43.75959], [24.86635, 43.76152], [24.86604, 43.76178], [24.86561, 43.76159], [24.86547, 43.76025], [24.86293, 43.76004], [24.86074, 43.7624], [24.85908, 43.76254], [24.85868, 43.76285], [24.85865, 43.76558], [24.85958, 43.76572], [24.85963, 43.76612], [24.85731, 43.76599], [24.84866, 43.77095], [24.84985, 43.77119], [24.84969, 43.77108], [24.85308, 43.76901], [24.856, 43.76752], [24.85945, 43.76786], [24.86046, 43.76769], [24.86112, 43.76738], [24.86175, 43.76678], [24.86201, 43.76605], [24.86178, 43.76513], [24.86104, 43.76445], [24.86111, 43.76333], [24.86188, 43.76238], [24.86387, 43.7627], [24.86469, 43.76321], [24.86594, 43.76345], [24.8672, 43.76323], [24.86812, 43.76266], [24.86911, 43.76289], [24.87121, 43.76282], [24.87364, 43.76224], [24.87431, 43.76316], [24.87539, 43.76395], [24.87572, 43.76435], [24.87773, 43.77288], [24.87689, 43.77344], [24.87614, 43.77431], [24.87577, 43.77531], [24.87581, 43.77642], [24.87627, 43.77739], [24.8771, 43.77823], [24.87823, 43.77886], [24.87923, 43.77916], [24.88275, 43.79608], [24.88343, 43.80048], [24.88434, 43.80341], [24.90087, 43.8261], [24.90351, 43.82614], [24.88649, 43.80284], [24.8857, 43.80022], [24.88502, 43.79584], [24.88087, 43.77634], [24.88021, 43.77627], [24.87984, 43.77589], [24.87996, 43.7754], [24.88059, 43.77516], [24.87741, 43.76161], [24.87518, 43.76097], [24.87127, 43.76103], [24.87094, 43.76117], [24.86978, 43.76095], [24.86958, 43.76121], [24.86919, 43.76119]]], [[[24.87896, 43.7622], [24.87899, 43.76196], [24.87825, 43.762], [24.87972, 43.76758], [24.88974, 43.77354], [24.89027, 43.77252], [24.89019, 43.76886], [24.88993, 43.76821], [24.88796, 43.76552], [24.88481, 43.76672], [24.88465, 43.7665], [24.88395, 43.76631], [24.88331, 43.76549], [24.88323, 43.76512], [24.88345, 43.76482], [24.88163, 43.76245], [24.88076, 43.76291], [24.87961, 43.76291], [24.87907, 43.76265], [24.87896, 43.7622]], [[24.88757, 43.76979], [24.88706, 43.76983], [24.8861, 43.76927], [24.88771, 43.7687], [24.88796, 43.76978], [24.88757, 43.76979]]], [[[24.85807, 43.76336], [24.85692, 43.7654], [24.85791, 43.76551], [24.85807, 43.76336]]], [[[24.87978, 43.76854], [24.88319, 43.78313], [24.88579, 43.7959], [24.88644, 43.80014], [24.88721, 43.80268], [24.90437, 43.82616], [24.90701, 43.82621], [24.88936, 43.8021], [24.88871, 43.79991], [24.88803, 43.79553], [24.88439, 43.77813], [24.88547, 43.77666], [24.8868, 43.77715], [24.88818, 43.77734], [24.88993, 43.77719], [24.89108, 43.77682], [24.89126, 43.77777], [24.89193, 43.77858], [24.89279, 43.779], [24.89383, 43.77914], [24.89426, 43.77991], [24.89501, 43.78043], [24.8965, 43.78074], [24.89775, 43.7805], [24.89869, 43.77985], [24.89914, 43.77918], [24.89922, 43.7784], [24.89992, 43.77757], [24.90002, 43.77678], [24.90567, 43.77658], [24.90721, 43.77676], [24.94939, 43.79997], [24.9533, 43.80004], [24.90869, 43.77543], [24.90629, 43.77492], [24.89755, 43.77521], [24.89774, 43.77706], [24.89744, 43.77728], [24.89704, 43.77714], [24.89683, 43.77579], [24.89668, 43.7761], [24.89695, 43.77868], [24.89669, 43.77902], [24.89635, 43.77907], [24.89608, 43.77884], [24.89594, 43.77609], [24.89644, 43.77525], [24.89393, 43.77534], [24.89418, 43.77724], [24.89399, 43.77745], [24.89363, 43.77745], [24.89317, 43.7753], [24.89109, 43.77487], [24.88933, 43.77399], [24.88892, 43.7743], [24.88836, 43.77439], [24.88728, 43.774], [24.88698, 43.77349], [24.88742, 43.77288], [24.88002, 43.76854], [24.87978, 43.76854]], [[24.88307, 43.77261], [24.88303, 43.77244], [24.88311, 43.77249], [24.88307, 43.77261]]], [[[24.85156, 43.82204], [24.85114, 43.82096], [24.84946, 43.81973], [24.84514, 43.81863], [24.84404, 43.81771], [24.84254, 43.81744], [24.84248, 43.81901], [24.84388, 43.81929], [24.84352, 43.81995], [24.84815, 43.82112], [24.84719, 43.82281], [24.84745, 43.82294], [24.84869, 43.82178], [24.84923, 43.82188], [24.84922, 43.82214], [24.84866, 43.82259], [24.84883, 43.82283], [24.84839, 43.82512], [24.85069, 43.82516], [24.85109, 43.8231], [24.85156, 43.82204]]], [[[24.84692, 43.82332], [24.84664, 43.82383], [24.84708, 43.82335], [24.84692, 43.82332]]], [[[24.84796, 43.82337], [24.84718, 43.82421], [24.84769, 43.82477], [24.84784, 43.82387], [24.84796, 43.82337]]], [[[24.84671, 43.82467], [24.84648, 43.82487], [24.84625, 43.82508], [24.84709, 43.82509], [24.84671, 43.82467]]], [[[24.8947, 43.70719], [24.89422, 43.70699], [24.89439, 43.70733], [24.89537, 43.7075], [24.89545, 43.70735], [24.8947, 43.70719]]], [[[24.89665, 43.70743], [24.89825, 43.70804], [24.90204, 43.7087], [24.89993, 43.70831], [24.8993, 43.70776], [24.89708, 43.70734], [24.89665, 43.70743]]], [[[24.88655, 43.71216], [24.88655, 43.71215], [24.88647, 43.71215], [24.88656, 43.71218], [24.88655, 43.71216]]], [[[24.8856, 43.71228], [24.88565, 43.71228], [24.88581, 43.71219], [24.8857, 43.71217], [24.8856, 43.71228]]], [[[24.88361, 43.71242], [24.8836, 43.71246], [24.88362, 43.71247], [24.88361, 43.71242]]], [[[24.8853, 43.71282], [24.88526, 43.71286], [24.88546, 43.71292], [24.88542, 43.71283], [24.8853, 43.71282]]], [[[24.88667, 43.71322], [24.88659, 43.71325], [24.8871, 43.71339], [24.88689, 43.71325], [24.88667, 43.71322]]], [[[24.89557, 43.71479], [24.89531, 43.71488], [24.89542, 43.71499], [24.89557, 43.71479]]], [[[24.88661, 43.71503], [24.88634, 43.71538], [24.88792, 43.71588], [24.88862, 43.71586], [24.88894, 43.71504], [24.88958, 43.71447], [24.88961, 43.71413], [24.8894, 43.71416], [24.88945, 43.71438], [24.88755, 43.71388], [24.88661, 43.71503]]], [[[24.89926, 43.71536], [24.89999, 43.71514], [24.90003, 43.71487], [24.89894, 43.71476], [24.89843, 43.71525], [24.89908, 43.71582], [24.89926, 43.71536]]], [[[24.88357, 43.73668], [24.88428, 43.73703], [24.88774, 43.73725], [24.89089, 43.74048], [24.89177, 43.7409], [24.90854, 43.74359], [24.91129, 43.74437], [24.91419, 43.74593], [24.91918, 43.74737], [24.9193, 43.74767], [24.91906, 43.74791], [24.9168, 43.74824], [24.91678, 43.75976], [24.91967, 43.75976], [24.9196, 43.7581], [24.91912, 43.7581], [24.91911, 43.74964], [24.92057, 43.74917], [24.92141, 43.74835], [24.92158, 43.7474], [24.92094, 43.74631], [24.91987, 43.74575], [24.91537, 43.74449], [24.91188, 43.74272], [24.90935, 43.74204], [24.8926, 43.73935], [24.88983, 43.7364], [24.88866, 43.73572], [24.8997, 43.72944], [24.90114, 43.72959], [24.90298, 43.7293], [24.90419, 43.72876], [24.90537, 43.7277], [24.90734, 43.72744], [24.90891, 43.72667], [24.91002, 43.72544], [24.91039, 43.72409], [24.90981, 43.72243], [24.90832, 43.72122], [24.90917, 43.72025], [24.90941, 43.72182], [24.91006, 43.72248], [24.911, 43.72292], [24.91266, 43.72301], [24.91369, 43.72269], [24.91465, 43.722], [24.91527, 43.72213], [24.91354, 43.72149], [24.91241, 43.72146], [24.91182, 43.72117], [24.91172, 43.72045], [24.91212, 43.72019], [24.90812, 43.71848], [24.90546, 43.71909], [24.9048, 43.71944], [24.90565, 43.72092], [24.90547, 43.7222], [24.90707, 43.72277], [24.90623, 43.72387], [24.90629, 43.7242], [24.90601, 43.72458], [24.90512, 43.72468], [24.90459, 43.72443], [24.90433, 43.72397], [24.90344, 43.7251], [24.90156, 43.7265], [24.8999, 43.72721], [24.88347, 43.73654], [24.88357, 43.73668]]], [[[24.8828, 43.73565], [24.883, 43.73612], [24.88591, 43.73448], [24.885, 43.73378], [24.88308, 43.73516], [24.8828, 43.73565]]], [[[24.90265, 43.75888], [24.90195, 43.75842], [24.90021, 43.75947], [24.89721, 43.75704], [24.89822, 43.7565], [24.89671, 43.75661], [24.89366, 43.75649], [24.89338, 43.75682], [24.89148, 43.75688], [24.88765, 43.75677], [24.88446, 43.75636], [24.88444, 43.75784], [24.88512, 43.76055], [24.89084, 43.7685], [24.89101, 43.77256], [24.89032, 43.77388], [24.89172, 43.77449], [24.89354, 43.77478], [24.90632, 43.77438], [24.90784, 43.77458], [24.90905, 43.77496], [24.95457, 43.80006], [24.95504, 43.80007], [24.9551, 43.79826], [24.91744, 43.77744], [24.91539, 43.77814], [24.9149, 43.7774], [24.91481, 43.77599], [24.91059, 43.77369], [24.90867, 43.77303], [24.90634, 43.77272], [24.89346, 43.77311], [24.89317, 43.76844], [24.89267, 43.76726], [24.89147, 43.7656], [24.8913, 43.76405], [24.88984, 43.76211], [24.88821, 43.7612], [24.88728, 43.75996], [24.88693, 43.75835], [24.89154, 43.75854], [24.89373, 43.75847], [24.89468, 43.7582], [24.89593, 43.75826], [24.89647, 43.75936], [24.89772, 43.76049], [24.89888, 43.76109], [24.90023, 43.76141], [24.90211, 43.76138], [24.90355, 43.76096], [24.90723, 43.76192], [24.92246, 43.76198], [24.9227, 43.76267], [24.92329, 43.76329], [24.92416, 43.7637], [24.92492, 43.76383], [24.92596, 43.76375], [24.92687, 43.76338], [24.92752, 43.76279], [24.92786, 43.76194], [24.93131, 43.76186], [24.93224, 43.76276], [24.93351, 43.76316], [24.9369, 43.7633], [24.93806, 43.76312], [24.94203, 43.76331], [24.94352, 43.76295], [24.95307, 43.76403], [24.96869, 43.76402], [24.96875, 43.76236], [24.96108, 43.76237], [24.96004, 43.76276], [24.95815, 43.76288], [24.95795, 43.76237], [24.95238, 43.76233], [24.94219, 43.76111], [24.94234, 43.7614], [24.94213, 43.76162], [24.94205, 43.7627], [24.93291, 43.76248], [24.93258, 43.76077], [24.92561, 43.76072], [24.92551, 43.76198], [24.92512, 43.76217], [24.92474, 43.76185], [24.92486, 43.76072], [24.92209, 43.7607], [24.9221, 43.76032], [24.90731, 43.76026], [24.90265, 43.75888]]], [[[24.9032, 43.70867], [24.9023, 43.70872], [24.90439, 43.70876], [24.90326, 43.7087], [24.9032, 43.70867]]], [[[24.90951, 43.70914], [24.90975, 43.70915], [24.90953, 43.70913], [24.90951, 43.70914]]], [[[24.91114, 43.70945], [24.91086, 43.70936], [24.91012, 43.70923], [24.91194, 43.70972], [24.91114, 43.70945]]], [[[24.91427, 43.71034], [24.91346, 43.71008], [24.91211, 43.70977], [24.91411, 43.71033], [24.91635, 43.71091], [24.91427, 43.71034]]], [[[24.91862, 43.7115], [24.91867, 43.71152], [24.91877, 43.71154], [24.91867, 43.71151], [24.91862, 43.7115]]], [[[24.92072, 43.712], [24.92058, 43.71197], [24.92062, 43.71199], [24.92093, 43.71202], [24.92072, 43.712]]], [[[24.92262, 43.71226], [24.92256, 43.71227], [24.92374, 43.71239], [24.92301, 43.71229], [24.92262, 43.71226]]], [[[24.92532, 43.7127], [24.92461, 43.71253], [24.9242, 43.71247], [24.92465, 43.71261], [24.92532, 43.7127]]], [[[24.9264, 43.71283], [24.92641, 43.71283], [24.92643, 43.71283], [24.92642, 43.71283], [24.9264, 43.71283]]], [[[24.90688, 43.71754], [24.90764, 43.71734], [24.9033, 43.71544], [24.90257, 43.71529], [24.90186, 43.71597], [24.90084, 43.71601], [24.90027, 43.71653], [24.90401, 43.71855], [24.90452, 43.71828], [24.90533, 43.7185], [24.90844, 43.71785], [24.90763, 43.71751], [24.90758, 43.71782], [24.90733, 43.71751], [24.90688, 43.71754]]], [[[24.91045, 43.71837], [24.91094, 43.7191], [24.91194, 43.71947], [24.91216, 43.71933], [24.91451, 43.72036], [24.91445, 43.72049], [24.91501, 43.72047], [24.91045, 43.71837]]], [[[24.91276, 43.72062], [24.91263, 43.7209], [24.91316, 43.7209], [24.91361, 43.72046], [24.91445, 43.72049], [24.91359, 43.72019], [24.91305, 43.72058], [24.91273, 43.72045], [24.91276, 43.72062]]], [[[24.9191, 43.72162], [24.91897, 43.72151], [24.91882, 43.72147], [24.91905, 43.7216], [24.9191, 43.72162]]], [[[24.92367, 43.72459], [24.92331, 43.72449], [24.92469, 43.72436], [24.92477, 43.72456], [24.92535, 43.7243], [24.92614, 43.72425], [24.92391, 43.72353], [24.92378, 43.72371], [24.92322, 43.72379], [24.9236, 43.72426], [24.92282, 43.72452], [24.92287, 43.72474], [24.92253, 43.72455], [24.92127, 43.72473], [24.92066, 43.72449], [24.91993, 43.72472], [24.91947, 43.72468], [24.91908, 43.7251], [24.9193, 43.72516], [24.91932, 43.7249], [24.92008, 43.72507], [24.92321, 43.72517], [24.92397, 43.72468], [24.92367, 43.72459]]], [[[24.91798, 43.72466], [24.91843, 43.72454], [24.91834, 43.72433], [24.91893, 43.72435], [24.91964, 43.7241], [24.91894, 43.72419], [24.9181, 43.72404], [24.91628, 43.72518], [24.91544, 43.72677], [24.91559, 43.72819], [24.91676, 43.72967], [24.91872, 43.73057], [24.91958, 43.73144], [24.92088, 43.73213], [24.92097, 43.73335], [24.92154, 43.73405], [24.92219, 43.73444], [24.92352, 43.73475], [24.93056, 43.73466], [24.93643, 43.73406], [24.93779, 43.7337], [24.93795, 43.74191], [24.93766, 43.74295], [24.93828, 43.74405], [24.9411, 43.75338], [24.9417, 43.75725], [24.94122, 43.75877], [24.9399, 43.7586], [24.93906, 43.75599], [24.93722, 43.75321], [24.9356, 43.7513], [24.93447, 43.75072], [24.93506, 43.75167], [24.93541, 43.75179], [24.93646, 43.75284], [24.93717, 43.75402], [24.93838, 43.7565], [24.93907, 43.7596], [24.93976, 43.75964], [24.93979, 43.76027], [24.94325, 43.76069], [24.94425, 43.75728], [24.94377, 43.7539], [24.94057, 43.74307], [24.94013, 43.74304], [24.93994, 43.74282], [24.94008, 43.74259], [24.94049, 43.74253], [24.94042, 43.73826], [24.94003, 43.73797], [24.94041, 43.73772], [24.94032, 43.7329], [24.94101, 43.73115], [24.94078, 43.73056], [24.94109, 43.73019], [24.94157, 43.73007], [24.94231, 43.73027], [24.94258, 43.73064], [24.94235, 43.73116], [24.94171, 43.73134], [24.94107, 43.73292], [24.94116, 43.73765], [24.94291, 43.7373], [24.9428, 43.73706], [24.94566, 43.73634], [24.94716, 43.73551], [24.94792, 43.73536], [24.94888, 43.73539], [24.94914, 43.73562], [24.95116, 43.73605], [24.9525, 43.73604], [24.95403, 43.73629], [24.9545, 43.73508], [24.95516, 43.73106], [24.94989, 43.73055], [24.94975, 43.73081], [24.94876, 43.73095], [24.94843, 43.73069], [24.94763, 43.73056], [24.94738, 43.73156], [24.94335, 43.73059], [24.94349, 43.72965], [24.94545, 43.72991], [24.94083, 43.72909], [24.93665, 43.72856], [24.93419, 43.72785], [24.93361, 43.72761], [24.93356, 43.7273], [24.93218, 43.7267], [24.92939, 43.72583], [24.92514, 43.72519], [24.92481, 43.72575], [24.92808, 43.72608], [24.93008, 43.72661], [24.92988, 43.72698], [24.9245, 43.72618], [24.92437, 43.72645], [24.92008, 43.72587], [24.91749, 43.72529], [24.91787, 43.72488], [24.91745, 43.72481], [24.91798, 43.72466]], [[24.91951, 43.72734], [24.91954, 43.727], [24.91872, 43.72664], [24.91911, 43.72617], [24.9209, 43.72653], [24.92132, 43.72625], [24.92183, 43.72624], [24.92276, 43.72661], [24.92301, 43.72693], [24.92269, 43.72752], [24.92138, 43.72785], [24.92002, 43.72776], [24.91951, 43.72734]], [[24.93056, 43.73282], [24.92368, 43.73291], [24.92333, 43.73263], [24.92365, 43.73233], [24.93045, 43.73221], [24.93582, 43.73161], [24.93606, 43.72991], [24.93549, 43.72954], [24.93561, 43.72898], [24.93638, 43.72873], [24.9379, 43.72929], [24.93802, 43.72965], [24.93781, 43.73002], [24.93685, 43.73029], [24.93666, 43.73189], [24.93642, 43.73216], [24.93056, 43.73282]], [[24.92621, 43.72809], [24.92637, 43.72869], [24.92505, 43.73018], [24.92441, 43.73015], [24.92233, 43.72919], [24.92237, 43.72872], [24.92362, 43.72728], [24.9242, 43.72728], [24.92621, 43.72809]], [[24.93024, 43.73037], [24.92975, 43.73038], [24.93038, 43.72928], [24.93138, 43.72928], [24.93153, 43.73024], [24.93024, 43.73037]], [[24.93036, 43.72738], [24.9303, 43.72671], [24.93104, 43.72659], [24.93136, 43.72689], [24.93122, 43.72734], [24.93092, 43.72747], [24.93036, 43.72738]], [[24.94489, 43.73347], [24.94574, 43.73281], [24.94632, 43.73198], [24.95251, 43.73262], [24.9523, 43.73437], [24.9508, 43.7344], [24.94959, 43.73381], [24.9483, 43.73375], [24.94712, 43.73413], [24.94629, 43.73494], [24.94362, 43.73544], [24.9436, 43.73404], [24.94489, 43.73347]]], [[[24.90552, 43.75636], [24.90552, 43.75638], [24.90554, 43.75639], [24.90552, 43.75636]]], [[[24.92559, 43.75933], [24.92552, 43.75813], [24.92476, 43.75813], [24.92485, 43.7594], [24.92559, 43.75933]]], [[[24.93621, 43.71172], [24.93612, 43.71177], [24.93636, 43.71167], [24.93629, 43.71168], [24.93621, 43.71172]]], [[[24.93601, 43.71181], [24.93599, 43.71182], [24.93609, 43.71178], [24.93601, 43.71181]]], [[[24.93934, 43.71278], [24.94, 43.71271], [24.94103, 43.71208], [24.94273, 43.71145], [24.9417, 43.71134], [24.94046, 43.71151], [24.93825, 43.7126], [24.9385, 43.71296], [24.93917, 43.71302], [24.93934, 43.71278]]], [[[24.93534, 43.71207], [24.93273, 43.71257], [24.9277, 43.71289], [24.92984, 43.71283], [24.93407, 43.71245], [24.93505, 43.71221], [24.93585, 43.71188], [24.93534, 43.71207]]], [[[24.93023, 43.7252], [24.92918, 43.72483], [24.92783, 43.72461], [24.92988, 43.72551], [24.93023, 43.7252]]], [[[24.93935, 43.72862], [24.93899, 43.7285], [24.93891, 43.72857], [24.93935, 43.72862]]], [[[24.95585, 43.73127], [24.95523, 43.73518], [24.9546, 43.73672], [24.95565, 43.73731], [24.95657, 43.7374], [24.95679, 43.73771], [24.95943, 43.73856], [24.95944, 43.73904], [24.95635, 43.73952], [24.95646, 43.73994], [24.95632, 43.73988], [24.95598, 43.74025], [24.95574, 43.74206], [24.95647, 43.74226], [24.95669, 43.74285], [24.95789, 43.74311], [24.95806, 43.74429], [24.95894, 43.74593], [24.95884, 43.74652], [24.95776, 43.74691], [24.95466, 43.74691], [24.95612, 43.74709], [24.95626, 43.74737], [24.95596, 43.74758], [24.9528, 43.7473], [24.95273, 43.75327], [24.95335, 43.7571], [24.95325, 43.75863], [24.95293, 43.75941], [24.9505, 43.76156], [24.95314, 43.76183], [24.96877, 43.76182], [24.96883, 43.76016], [24.95899, 43.76017], [24.95956, 43.75853], [24.95903, 43.75686], [24.95749, 43.75558], [24.95531, 43.75498], [24.95502, 43.75323], [24.95508, 43.74918], [24.95632, 43.74922], [24.95729, 43.74896], [24.95832, 43.74811], [24.95931, 43.74763], [24.95985, 43.74699], [24.96002, 43.74625], [24.95989, 43.74393], [24.95936, 43.74276], [24.95819, 43.74135], [24.9582, 43.74105], [24.95948, 43.74057], [24.96016, 43.74], [24.96075, 43.73805], [24.96064, 43.73714], [24.95719, 43.73708], [24.95738, 43.7313], [24.9559, 43.73114], [24.95585, 43.73127]], [[24.95543, 43.75871], [24.95499, 43.75905], [24.95421, 43.75902], [24.9538, 43.75872], [24.95383, 43.75822], [24.95431, 43.75791], [24.95502, 43.75796], [24.95543, 43.75826], [24.95543, 43.75871]]], [[[24.94837, 43.73835], [24.9467, 43.73877], [24.9442, 43.73901], [24.94315, 43.73781], [24.94116, 43.7382], [24.94123, 43.7425], [24.94287, 43.74243], [24.94264, 43.74144], [24.9439, 43.74127], [24.94374, 43.74081], [24.94564, 43.74037], [24.94612, 43.74103], [24.94832, 43.74037], [24.94876, 43.73987], [24.94837, 43.73835]]], [[[24.94291, 43.74297], [24.94133, 43.74304], [24.94451, 43.75384], [24.94499, 43.75731], [24.94399, 43.76077], [24.94966, 43.76146], [24.95232, 43.7591], [24.95251, 43.75857], [24.95261, 43.75714], [24.95199, 43.75329], [24.95206, 43.74726], [24.95014, 43.74696], [24.94693, 43.74696], [24.94663, 43.74671], [24.94474, 43.7465], [24.94414, 43.74547], [24.94374, 43.74393], [24.94312, 43.74297], [24.94291, 43.74297]], [[24.94683, 43.75269], [24.9455, 43.74829], [24.94678, 43.74862], [24.94976, 43.74866], [24.9497, 43.75337], [24.95025, 43.75679], [24.94979, 43.75769], [24.94968, 43.75882], [24.94872, 43.75967], [24.94697, 43.75945], [24.94753, 43.75728], [24.94683, 43.75269]]], [[[24.93161, 43.74777], [24.93064, 43.74715], [24.92938, 43.74693], [24.92791, 43.74727], [24.92705, 43.74798], [24.92675, 43.74889], [24.92726, 43.75082], [24.92685, 43.75182], [24.92711, 43.75268], [24.92614, 43.75296], [24.92525, 43.75365], [24.92492, 43.75455], [24.92514, 43.75535], [24.92349, 43.7556], [24.92235, 43.7562], [24.92238, 43.75733], [24.92276, 43.75733], [24.92273, 43.75826], [24.92379, 43.75824], [24.92383, 43.75888], [24.92351, 43.75888], [24.92351, 43.75978], [24.92414, 43.75979], [24.92399, 43.75743], [24.92451, 43.75713], [24.92452, 43.75614], [24.93009, 43.75603], [24.93026, 43.75508], [24.92697, 43.75516], [24.92693, 43.75444], [24.92894, 43.75422], [24.92883, 43.75285], [24.92911, 43.75185], [24.9281, 43.74879], [24.93199, 43.74837], [24.93161, 43.74777]]]]}, "properties": {"kind": "pv", "area_km2": 31.92, "mw": 1596.0}}, {"type": "Feature", "geometry": {"type": "Point", "coordinates": [24.8915, 43.7607]}, "properties": {"kind": "turbine", "i": 0, "mw": 6.0, "hub_m": 120.0, "rotor_m": 150.0}}, {"type": "Feature", "geometry": {"type": "Point", "coordinates": [24.86419, 43.76348]}, "properties": {"kind": "turbine", "i": 1, "mw": 6.0, "hub_m": 120.0, "rotor_m": 150.0}}, {"type": "Feature", "geometry": {"type": "Point", "coordinates": [24.8729, 43.77351]}, "properties": {"kind": "turbine", "i": 2, "mw": 6.0, "hub_m": 120.0, "rotor_m": 150.0}}, {"type": "Feature", "geometry": {"type": "Point", "coordinates": [24.88639, 43.77704]}, "properties": {"kind": "turbine", "i": 3, "mw": 6.0, "hub_m": 120.0, "rotor_m": 150.0}}, {"type": "Feature", "geometry": {"type": "Point", "coordinates": [24.90499, 43.76424]}, "properties": {"kind": "turbine", "i": 4, "mw": 6.0, "hub_m": 120.0, "rotor_m": 150.0}}, {"type": "Feature", "geometry": {"type": "Point", "coordinates": [24.90533, 43.75438]}, "properties": {"kind": "turbine", "i": 5, "mw": 6.0, "hub_m": 120.0, "rotor_m": 150.0}}, {"type": "Feature", "geometry": {"type": "Point", "coordinates": [24.89661, 43.74436]}, "properties": {"kind": "turbine", "i": 6, "mw": 6.0, "hub_m": 120.0, "rotor_m": 150.0}}, {"type": "Feature", "geometry": {"type": "Point", "coordinates": [24.88313, 43.74082]}, "properties": {"kind": "turbine", "i": 7, "mw": 6.0, "hub_m": 120.0, "rotor_m": 150.0}}, {"type": "Feature", "geometry": {"type": "Point", "coordinates": [24.85477, 43.77317]}, "properties": {"kind": "turbine", "i": 8, "mw": 6.0, "hub_m": 120.0, "rotor_m": 150.0}}, {"type": "Feature", "geometry": {"type": "Point", "coordinates": [24.89988, 43.78058]}, "properties": {"kind": "turbine", "i": 9, "mw": 6.0, "hub_m": 120.0, "rotor_m": 150.0}}, {"type": "Feature", "geometry": {"type": "Point", "coordinates": [24.86965, 43.73728]}, "properties": {"kind": "turbine", "i": 10, "mw": 6.0, "hub_m": 120.0, "rotor_m": 150.0}}, {"type": "Feature", "geometry": {"type": "Point", "coordinates": [24.84641, 43.75328]}, "properties": {"kind": "turbine", "i": 11, "mw": 6.0, "hub_m": 120.0, "rotor_m": 150.0}}, {"type": "Feature", "geometry": {"type": "Point", "coordinates": [24.87244, 43.78665]}, "properties": {"kind": "turbine", "i": 12, "mw": 6.0, "hub_m": 120.0, "rotor_m": 150.0}}, {"type": "Feature", "geometry": {"type": "Point", "coordinates": [24.91371, 43.77426]}, "properties": {"kind": "turbine", "i": 13, "mw": 6.0, "hub_m": 120.0, "rotor_m": 150.0}}, {"type": "Feature", "geometry": {"type": "Point", "coordinates": [24.85895, 43.78311]}, "properties": {"kind": "turbine", "i": 14, "mw": 6.0, "hub_m": 120.0, "rotor_m": 150.0}}, {"type": "Feature", "geometry": {"type": "Point", "coordinates": [24.90149, 43.73458]}, "properties": {"kind": "turbine", "i": 15, "mw": 6.0, "hub_m": 120.0, "rotor_m": 150.0}}, {"type": "Feature", "geometry": {"type": "Point", "coordinates": [24.92312, 43.76457]}, "properties": {"kind": "turbine", "i": 16, "mw": 6.0, "hub_m": 120.0, "rotor_m": 150.0}}, {"type": "Feature", "geometry": {"type": "Point", "coordinates": [24.89046, 43.79027]}, "properties": {"kind": "turbine", "i": 17, "mw": 6.0, "hub_m": 120.0, "rotor_m": 150.0}}, {"type": "Feature", "geometry": {"type": "Point", "coordinates": [24.92346, 43.75471]}, "properties": {"kind": "turbine", "i": 18, "mw": 6.0, "hub_m": 120.0, "rotor_m": 150.0}}, {"type": "Feature", "geometry": {"type": "Point", "coordinates": [24.91927, 43.74477]}, "properties": {"kind": "turbine", "i": 19, "mw": 6.0, "hub_m": 120.0, "rotor_m": 150.0}}, {"type": "Feature", "geometry": {"type": "Point", "coordinates": [24.83699, 43.76297]}, "properties": {"kind": "turbine", "i": 20, "mw": 6.0, "hub_m": 120.0, "rotor_m": 150.0}}, {"type": "Feature", "geometry": {"type": "Point", "coordinates": [24.85618, 43.73374]}, "properties": {"kind": "turbine", "i": 21, "mw": 6.0, "hub_m": 120.0, "rotor_m": 150.0}}, {"type": "Feature", "geometry": {"type": "Point", "coordinates": [24.88813, 43.72776]}, "properties": {"kind": "turbine", "i": 22, "mw": 6.0, "hub_m": 120.0, "rotor_m": 150.0}}, {"type": "Feature", "geometry": {"type": "Point", "coordinates": [24.91337, 43.78411]}, "properties": {"kind": "turbine", "i": 23, "mw": 6.0, "hub_m": 120.0, "rotor_m": 150.0}}, {"type": "Feature", "geometry": {"type": "Point", "coordinates": [24.83293, 43.74974]}, "properties": {"kind": "turbine", "i": 24, "mw": 6.0, "hub_m": 120.0, "rotor_m": 150.0}}, {"type": "Feature", "geometry": {"type": "Point", "coordinates": [24.84081, 43.78277]}, "properties": {"kind": "turbine", "i": 25, "mw": 6.0, "hub_m": 120.0, "rotor_m": 150.0}}, {"type": "Feature", "geometry": {"type": "Point", "coordinates": [24.90395, 43.79381]}, "properties": {"kind": "turbine", "i": 26, "mw": 6.0, "hub_m": 120.0, "rotor_m": 150.0}}, {"type": "Feature", "geometry": {"type": "Point", "coordinates": [24.86755, 43.79642]}, "properties": {"kind": "turbine", "i": 27, "mw": 6.0, "hub_m": 120.0, "rotor_m": 150.0}}, {"type": "Feature", "geometry": {"type": "Point", "coordinates": [24.91961, 43.73491]}, "properties": {"kind": "turbine", "i": 28, "mw": 6.0, "hub_m": 120.0, "rotor_m": 150.0}}, {"type": "Feature", "geometry": {"type": "Point", "coordinates": [24.85406, 43.79288]}, "properties": {"kind": "turbine", "i": 29, "mw": 6.0, "hub_m": 120.0, "rotor_m": 150.0}}, {"type": "Feature", "geometry": {"type": "Point", "coordinates": [24.86559, 43.72405]}, "properties": {"kind": "turbine", "i": 30, "mw": 6.0, "hub_m": 120.0, "rotor_m": 150.0}}, {"type": "Feature", "geometry": {"type": "Point", "coordinates": [24.93185, 43.77459]}, "properties": {"kind": "turbine", "i": 31, "mw": 6.0, "hub_m": 120.0, "rotor_m": 150.0}}, {"type": "Feature", "geometry": {"type": "Point", "coordinates": [24.83793, 43.73668]}, "properties": {"kind": "turbine", "i": 32, "mw": 6.0, "hub_m": 120.0, "rotor_m": 150.0}}, {"type": "Feature", "geometry": {"type": "Point", "coordinates": [24.88104, 43.79996]}, "properties": {"kind": "turbine", "i": 33, "mw": 6.0, "hub_m": 120.0, "rotor_m": 150.0}}, {"type": "Feature", "geometry": {"type": "Point", "coordinates": [24.91089, 43.72489]}, "properties": {"kind": "turbine", "i": 34, "mw": 6.0, "hub_m": 120.0, "rotor_m": 150.0}}, {"type": "Feature", "geometry": {"type": "Point", "coordinates": [24.82351, 43.75942]}, "properties": {"kind": "turbine", "i": 35, "mw": 6.0, "hub_m": 120.0, "rotor_m": 150.0}}, {"type": "Feature", "geometry": {"type": "Point", "coordinates": [24.93729, 43.74838]}, "properties": {"kind": "turbine", "i": 36, "mw": 6.0, "hub_m": 120.0, "rotor_m": 150.0}}, {"type": "Feature", "geometry": {"type": "Point", "coordinates": [24.93309, 43.73845]}, "properties": {"kind": "turbine", "i": 37, "mw": 6.0, "hub_m": 120.0, "rotor_m": 150.0}}, {"type": "Feature", "geometry": {"type": "Point", "coordinates": [24.84282, 43.72691]}, "properties": {"kind": "turbine", "i": 38, "mw": 6.0, "hub_m": 120.0, "rotor_m": 150.0}}, {"type": "Feature", "geometry": {"type": "Point", "coordinates": [24.93151, 43.78444]}, "properties": {"kind": "turbine", "i": 39, "mw": 6.0, "hub_m": 120.0, "rotor_m": 150.0}}, {"type": "Feature", "geometry": {"type": "Point", "coordinates": [24.94126, 43.76489]}, "properties": {"kind": "turbine", "i": 40, "mw": 6.0, "hub_m": 120.0, "rotor_m": 150.0}}, {"type": "Feature", "geometry": {"type": "Point", "coordinates": [24.89454, 43.80349]}, "properties": {"kind": "turbine", "i": 41, "mw": 6.0, "hub_m": 120.0, "rotor_m": 150.0}}, {"type": "Feature", "geometry": {"type": "Point", "coordinates": [24.9221, 43.79414]}, "properties": {"kind": "turbine", "i": 42, "mw": 6.0, "hub_m": 120.0, "rotor_m": 150.0}}, {"type": "Feature", "geometry": {"type": "Point", "coordinates": [24.83592, 43.79254]}, "properties": {"kind": "turbine", "i": 43, "mw": 6.0, "hub_m": 120.0, "rotor_m": 150.0}}, {"type": "Feature", "geometry": {"type": "Point", "coordinates": [24.81862, 43.76919]}, "properties": {"kind": "turbine", "i": 44, "mw": 6.0, "hub_m": 120.0, "rotor_m": 150.0}}, {"type": "Feature", "geometry": {"type": "Point", "coordinates": [24.87047, 43.71428]}, "properties": {"kind": "turbine", "i": 45, "mw": 6.0, "hub_m": 120.0, "rotor_m": 150.0}}, {"type": "Feature", "geometry": {"type": "Point", "coordinates": [24.81945, 43.7462]}, "properties": {"kind": "turbine", "i": 46, "mw": 6.0, "hub_m": 120.0, "rotor_m": 150.0}}, {"type": "Feature", "geometry": {"type": "Point", "coordinates": [24.85223, 43.71723]}, "properties": {"kind": "turbine", "i": 47, "mw": 6.0, "hub_m": 120.0, "rotor_m": 150.0}}, {"type": "Feature", "geometry": {"type": "Point", "coordinates": [24.85813, 43.80611]}, "properties": {"kind": "turbine", "i": 48, "mw": 6.0, "hub_m": 120.0, "rotor_m": 150.0}}, {"type": "Feature", "geometry": {"type": "Point", "coordinates": [24.91268, 43.80383]}, "properties": {"kind": "turbine", "i": 49, "mw": 6.0, "hub_m": 120.0, "rotor_m": 150.0}}, {"type": "Feature", "geometry": {"type": "Point", "coordinates": [24.81826, 43.77905]}, "properties": {"kind": "turbine", "i": 50, "mw": 6.0, "hub_m": 120.0, "rotor_m": 150.0}}, {"type": "Feature", "geometry": {"type": "Point", "coordinates": [24.82446, 43.73314]}, "properties": {"kind": "turbine", "i": 51, "mw": 6.0, "hub_m": 120.0, "rotor_m": 150.0}}, {"type": "Feature", "geometry": {"type": "Point", "coordinates": [24.87162, 43.80965]}, "properties": {"kind": "turbine", "i": 52, "mw": 6.0, "hub_m": 120.0, "rotor_m": 150.0}}, {"type": "Feature", "geometry": {"type": "Point", "coordinates": [24.84464, 43.80256]}, "properties": {"kind": "turbine", "i": 53, "mw": 6.0, "hub_m": 120.0, "rotor_m": 150.0}}, {"type": "Feature", "geometry": {"type": "Point", "coordinates": [24.94999, 43.77491]}, "properties": {"kind": "turbine", "i": 54, "mw": 6.0, "hub_m": 120.0, "rotor_m": 150.0}}, {"type": "Feature", "geometry": {"type": "Point", "coordinates": [24.88512, 43.81318]}, "properties": {"kind": "turbine", "i": 55, "mw": 6.0, "hub_m": 120.0, "rotor_m": 150.0}}, {"type": "Feature", "geometry": {"type": "Point", "coordinates": [24.93559, 43.79767]}, "properties": {"kind": "turbine", "i": 56, "mw": 6.0, "hub_m": 120.0, "rotor_m": 150.0}}, {"type": "Feature", "geometry": {"type": "Point", "coordinates": [24.80538, 43.75908]}, "properties": {"kind": "turbine", "i": 57, "mw": 6.0, "hub_m": 120.0, "rotor_m": 150.0}}, {"type": "Feature", "geometry": {"type": "Point", "coordinates": [24.94965, 43.78477]}, "properties": {"kind": "turbine", "i": 58, "mw": 6.0, "hub_m": 120.0, "rotor_m": 150.0}}, {"type": "Feature", "geometry": {"type": "Point", "coordinates": [24.94691, 43.73212]}, "properties": {"kind": "turbine", "i": 59, "mw": 6.0, "hub_m": 120.0, "rotor_m": 150.0}}, {"type": "Feature", "geometry": {"type": "Point", "coordinates": [24.90327, 43.81352]}, "properties": {"kind": "turbine", "i": 60, "mw": 6.0, "hub_m": 120.0, "rotor_m": 150.0}}, {"type": "Feature", "geometry": {"type": "Point", "coordinates": [24.80574, 43.74922]}, "properties": {"kind": "turbine", "i": 61, "mw": 6.0, "hub_m": 120.0, "rotor_m": 150.0}}, {"type": "Feature", "geometry": {"type": "Point", "coordinates": [24.95939, 43.76522]}, "properties": {"kind": "turbine", "i": 62, "mw": 6.0, "hub_m": 120.0, "rotor_m": 150.0}}, {"type": "Feature", "geometry": {"type": "Point", "coordinates": [24.81336, 43.78882]}, "properties": {"kind": "turbine", "i": 63, "mw": 6.0, "hub_m": 120.0, "rotor_m": 150.0}}, {"type": "Feature", "geometry": {"type": "Point", "coordinates": [24.95973, 43.75536]}, "properties": {"kind": "turbine", "i": 64, "mw": 6.0, "hub_m": 120.0, "rotor_m": 150.0}}, {"type": "Feature", "geometry": {"type": "Point", "coordinates": [24.92618, 43.80736]}, "properties": {"kind": "turbine", "i": 65, "mw": 6.0, "hub_m": 120.0, "rotor_m": 150.0}}, {"type": "Feature", "geometry": {"type": "Point", "coordinates": [24.82649, 43.80222]}, "properties": {"kind": "turbine", "i": 66, "mw": 6.0, "hub_m": 120.0, "rotor_m": 150.0}}, {"type": "Feature", "geometry": {"type": "Point", "coordinates": [24.82029, 43.7232]}, "properties": {"kind": "turbine", "i": 67, "mw": 6.0, "hub_m": 120.0, "rotor_m": 150.0}}, {"type": "Feature", "geometry": {"type": "Point", "coordinates": [24.8061, 43.73937]}, "properties": {"kind": "turbine", "i": 68, "mw": 6.0, "hub_m": 120.0, "rotor_m": 150.0}}, {"type": "Feature", "geometry": {"type": "Point", "coordinates": [24.96006, 43.74551]}, "properties": {"kind": "turbine", "i": 69, "mw": 6.0, "hub_m": 120.0, "rotor_m": 150.0}}, {"type": "Feature", "geometry": {"type": "Point", "coordinates": [24.80048, 43.76885]}, "properties": {"kind": "turbine", "i": 70, "mw": 6.0, "hub_m": 120.0, "rotor_m": 150.0}}, {"type": "Feature", "geometry": {"type": "Point", "coordinates": [24.94931, 43.79463]}, "properties": {"kind": "turbine", "i": 71, "mw": 6.0, "hub_m": 120.0, "rotor_m": 150.0}}, {"type": "Feature", "geometry": {"type": "Point", "coordinates": [24.85766, 43.81925]}, "properties": {"kind": "turbine", "i": 72, "mw": 6.0, "hub_m": 120.0, "rotor_m": 150.0}}, {"type": "Feature", "geometry": {"type": "Point", "coordinates": [24.84417, 43.81571]}, "properties": {"kind": "turbine", "i": 73, "mw": 6.0, "hub_m": 120.0, "rotor_m": 150.0}}, {"type": "Feature", "geometry": {"type": "Point", "coordinates": [24.80012, 43.7787]}, "properties": {"kind": "turbine", "i": 74, "mw": 6.0, "hub_m": 120.0, "rotor_m": 150.0}}, {"type": "Feature", "geometry": {"type": "Point", "coordinates": [24.91676, 43.81705]}, "properties": {"kind": "turbine", "i": 75, "mw": 6.0, "hub_m": 120.0, "rotor_m": 150.0}}, {"type": "Feature", "geometry": {"type": "Point", "coordinates": [24.9604, 43.73565]}, "properties": {"kind": "turbine", "i": 76, "mw": 6.0, "hub_m": 120.0, "rotor_m": 150.0}}, {"type": "Feature", "geometry": {"type": "Point", "coordinates": [24.87115, 43.82279]}, "properties": {"kind": "turbine", "i": 77, "mw": 6.0, "hub_m": 120.0, "rotor_m": 150.0}}, {"type": "Feature", "geometry": {"type": "Point", "coordinates": [24.88931, 43.82312]}, "properties": {"kind": "turbine", "i": 78, "mw": 6.0, "hub_m": 120.0, "rotor_m": 150.0}}, {"type": "Feature", "geometry": {"type": "Point", "coordinates": [24.83067, 43.81216]}, "properties": {"kind": "turbine", "i": 79, "mw": 6.0, "hub_m": 120.0, "rotor_m": 150.0}}, {"type": "Feature", "geometry": {"type": "Point", "coordinates": [24.96812, 43.77524]}, "properties": {"kind": "turbine", "i": 80, "mw": 6.0, "hub_m": 120.0, "rotor_m": 150.0}}, {"type": "Feature", "geometry": {"type": "Point", "coordinates": [24.94898, 43.80449]}, "properties": {"kind": "turbine", "i": 81, "mw": 6.0, "hub_m": 120.0, "rotor_m": 150.0}}, {"type": "Feature", "geometry": {"type": "Point", "coordinates": [24.96779, 43.7851]}, "properties": {"kind": "turbine", "i": 82, "mw": 6.0, "hub_m": 120.0, "rotor_m": 150.0}}, {"type": "Feature", "geometry": {"type": "Point", "coordinates": [24.78725, 43.75873]}, "properties": {"kind": "turbine", "i": 83, "mw": 6.0, "hub_m": 120.0, "rotor_m": 150.0}}, {"type": "Feature", "geometry": {"type": "Point", "coordinates": [24.93956, 43.81418]}, "properties": {"kind": "turbine", "i": 84, "mw": 6.0, "hub_m": 120.0, "rotor_m": 150.0}}, {"type": "Feature", "geometry": {"type": "Point", "coordinates": [24.79522, 43.78847]}, "properties": {"kind": "turbine", "i": 85, "mw": 6.0, "hub_m": 120.0, "rotor_m": 150.0}}, {"type": "Feature", "geometry": {"type": "Point", "coordinates": [24.78761, 43.74887]}, "properties": {"kind": "turbine", "i": 86, "mw": 6.0, "hub_m": 120.0, "rotor_m": 150.0}}, {"type": "Feature", "geometry": {"type": "Point", "coordinates": [24.97753, 43.76554]}, "properties": {"kind": "turbine", "i": 87, "mw": 6.0, "hub_m": 120.0, "rotor_m": 150.0}}, {"type": "Feature", "geometry": {"type": "Point", "coordinates": [24.91188, 43.82683]}, "properties": {"kind": "turbine", "i": 88, "mw": 6.0, "hub_m": 120.0, "rotor_m": 150.0}}, {"type": "Feature", "geometry": {"type": "Point", "coordinates": [24.97786, 43.75569]}, "properties": {"kind": "turbine", "i": 89, "mw": 6.0, "hub_m": 120.0, "rotor_m": 150.0}}, {"type": "Feature", "geometry": {"type": "Point", "coordinates": [24.96746, 43.79495]}, "properties": {"kind": "turbine", "i": 90, "mw": 6.0, "hub_m": 120.0, "rotor_m": 150.0}}, {"type": "Feature", "geometry": {"type": "Point", "coordinates": [24.85277, 43.82902]}, "properties": {"kind": "turbine", "i": 91, "mw": 6.0, "hub_m": 120.0, "rotor_m": 150.0}}, {"type": "Feature", "geometry": {"type": "Point", "coordinates": [24.97819, 43.74583]}, "properties": {"kind": "turbine", "i": 92, "mw": 6.0, "hub_m": 120.0, "rotor_m": 150.0}}, {"type": "Feature", "geometry": {"type": "Point", "coordinates": [24.821, 43.70349]}, "properties": {"kind": "turbine", "i": 93, "mw": 6.0, "hub_m": 120.0, "rotor_m": 150.0}}, {"type": "Feature", "geometry": {"type": "Point", "coordinates": [24.78235, 43.7685]}, "properties": {"kind": "turbine", "i": 94, "mw": 6.0, "hub_m": 120.0, "rotor_m": 150.0}}, {"type": "Feature", "geometry": {"type": "Point", "coordinates": [24.88442, 43.8329]}, "properties": {"kind": "turbine", "i": 95, "mw": 6.0, "hub_m": 120.0, "rotor_m": 150.0}}, {"type": "Feature", "geometry": {"type": "Point", "coordinates": [24.93015, 43.82387]}, "properties": {"kind": "turbine", "i": 96, "mw": 6.0, "hub_m": 120.0, "rotor_m": 150.0}}, {"type": "Feature", "geometry": {"type": "Point", "coordinates": [24.86627, 43.83256]}, "properties": {"kind": "turbine", "i": 97, "mw": 6.0, "hub_m": 120.0, "rotor_m": 150.0}}, {"type": "Feature", "geometry": {"type": "Point", "coordinates": [24.82578, 43.82193]}, "properties": {"kind": "turbine", "i": 98, "mw": 6.0, "hub_m": 120.0, "rotor_m": 150.0}}, {"type": "Feature", "geometry": {"type": "Point", "coordinates": [24.81241, 43.8151]}, "properties": {"kind": "turbine", "i": 99, "mw": 6.0, "hub_m": 120.0, "rotor_m": 150.0}}, {"type": "Feature", "geometry": {"type": "Point", "coordinates": [24.78344, 43.73893]}, "properties": {"kind": "turbine", "i": 100, "mw": 6.0, "hub_m": 120.0, "rotor_m": 150.0}}, {"type": "Feature", "geometry": {"type": "Point", "coordinates": [24.78198, 43.77835]}, "properties": {"kind": "turbine", "i": 101, "mw": 6.0, "hub_m": 120.0, "rotor_m": 150.0}}, {"type": "Feature", "geometry": {"type": "Point", "coordinates": [24.97852, 43.73597]}, "properties": {"kind": "turbine", "i": 102, "mw": 6.0, "hub_m": 120.0, "rotor_m": 150.0}}, {"type": "Feature", "geometry": {"type": "Point", "coordinates": [24.98162, 43.77877]}, "properties": {"kind": "turbine", "i": 103, "mw": 6.0, "hub_m": 120.0, "rotor_m": 150.0}}, {"type": "Feature", "geometry": {"type": "Point", "coordinates": [24.83959, 43.69069]}, "properties": {"kind": "turbine", "i": 104, "mw": 6.0, "hub_m": 120.0, "rotor_m": 150.0}}, {"type": "Feature", "geometry": {"type": "Point", "coordinates": [24.79033, 43.79824]}, "properties": {"kind": "turbine", "i": 105, "mw": 6.0, "hub_m": 120.0, "rotor_m": 150.0}}, {"type": "Feature", "geometry": {"type": "Point", "coordinates": [24.96712, 43.80481]}, "properties": {"kind": "turbine", "i": 106, "mw": 6.0, "hub_m": 120.0, "rotor_m": 150.0}}, {"type": "Feature", "geometry": {"type": "Point", "coordinates": [24.79904, 43.80827]}, "properties": {"kind": "turbine", "i": 107, "mw": 6.0, "hub_m": 120.0, "rotor_m": 150.0}}, {"type": "Feature", "geometry": {"type": "Point", "coordinates": [24.89792, 43.83643]}, "properties": {"kind": "turbine", "i": 108, "mw": 6.0, "hub_m": 120.0, "rotor_m": 150.0}}, {"type": "Feature", "geometry": {"type": "Point", "coordinates": [24.7838, 43.72907]}, "properties": {"kind": "turbine", "i": 109, "mw": 6.0, "hub_m": 120.0, "rotor_m": 150.0}}, {"type": "Feature", "geometry": {"type": "Point", "coordinates": [24.95771, 43.8145]}, "properties": {"kind": "turbine", "i": 110, "mw": 6.0, "hub_m": 120.0, "rotor_m": 150.0}}, {"type": "Feature", "geometry": {"type": "Point", "coordinates": [24.98129, 43.78862]}, "properties": {"kind": "turbine", "i": 111, "mw": 6.0, "hub_m": 120.0, "rotor_m": 150.0}}, {"type": "Feature", "geometry": {"type": "Point", "coordinates": [24.82589, 43.69372]}, "properties": {"kind": "turbine", "i": 112, "mw": 6.0, "hub_m": 120.0, "rotor_m": 150.0}}, {"type": "Feature", "geometry": {"type": "Point", "coordinates": [24.77389, 43.75189]}, "properties": {"kind": "turbine", "i": 113, "mw": 6.0, "hub_m": 120.0, "rotor_m": 150.0}}, {"type": "Feature", "geometry": {"type": "Point", "coordinates": [24.92527, 43.83365]}, "properties": {"kind": "turbine", "i": 114, "mw": 6.0, "hub_m": 120.0, "rotor_m": 150.0}}, {"type": "Feature", "geometry": {"type": "Point", "coordinates": [24.99102, 43.76907]}, "properties": {"kind": "turbine", "i": 115, "mw": 6.0, "hub_m": 120.0, "rotor_m": 150.0}}, {"type": "Feature", "geometry": {"type": "Point", "coordinates": [24.9483, 43.8242]}, "properties": {"kind": "turbine", "i": 116, "mw": 6.0, "hub_m": 120.0, "rotor_m": 150.0}}, {"type": "Feature", "geometry": {"type": "Point", "coordinates": [24.99157, 43.75264]}, "properties": {"kind": "turbine", "i": 117, "mw": 6.0, "hub_m": 120.0, "rotor_m": 150.0}}, {"type": "Feature", "geometry": {"type": "Point", "coordinates": [24.77708, 43.78812]}, "properties": {"kind": "turbine", "i": 118, "mw": 6.0, "hub_m": 120.0, "rotor_m": 150.0}}, {"type": "Feature", "geometry": {"type": "Point", "coordinates": [24.98095, 43.79848]}, "properties": {"kind": "turbine", "i": 119, "mw": 6.0, "hub_m": 120.0, "rotor_m": 150.0}}, {"type": "Feature", "geometry": {"type": "Point", "coordinates": [24.84788, 43.83879]}, "properties": {"kind": "turbine", "i": 120, "mw": 6.0, "hub_m": 120.0, "rotor_m": 150.0}}, {"type": "Feature", "geometry": {"type": "Point", "coordinates": [24.9919, 43.74278]}, "properties": {"kind": "turbine", "i": 121, "mw": 6.0, "hub_m": 120.0, "rotor_m": 150.0}}, {"type": "Feature", "geometry": {"type": "Point", "coordinates": [24.83438, 43.83525]}, "properties": {"kind": "turbine", "i": 122, "mw": 6.0, "hub_m": 120.0, "rotor_m": 150.0}}, {"type": "Feature", "geometry": {"type": "Point", "coordinates": [24.87953, 43.84267]}, "properties": {"kind": "turbine", "i": 123, "mw": 6.0, "hub_m": 120.0, "rotor_m": 150.0}}, {"type": "Feature", "geometry": {"type": "Point", "coordinates": [24.89438, 43.67856]}, "properties": {"kind": "turbine", "i": 124, "mw": 6.0, "hub_m": 120.0, "rotor_m": 150.0}}, {"type": "Feature", "geometry": {"type": "Point", "coordinates": [24.86138, 43.84233]}, "properties": {"kind": "turbine", "i": 125, "mw": 6.0, "hub_m": 120.0, "rotor_m": 150.0}}]}