{"type": "FeatureCollection", "features": [{"type": "Feature", "geometry": {"type": "MultiPolygon", "coordinates": [[[[24.88129, 43.78889], [24.87923, 43.77916], [24.8771, 43.77823], [24.87581, 43.77642], [24.87614, 43.77431], [24.87773, 43.77288], [24.87572, 43.76435], [24.87364, 43.76224], [24.87121, 43.76282], [24.86812, 43.76266], [24.86594, 43.76345], [24.86188, 43.76238], [24.86111, 43.76333], [24.86104, 43.76445], [24.86202, 43.76587], [24.8613, 43.76725], [24.85945, 43.76786], [24.856, 43.76752], [24.84969, 43.77108], [24.85064, 43.77246], [24.84977, 43.77399], [24.84838, 43.77447], [24.84573, 43.77415], [24.84546, 43.77439], [24.84914, 43.77854], [24.85175, 43.78074], [24.8578, 43.78453], [24.86118, 43.78608], [24.86475, 43.78739], [24.87234, 43.78921], [24.88149, 43.78991], [24.88129, 43.78889]]], [[[24.8413, 43.76514], [24.8489, 43.76187], [24.85115, 43.76173], [24.85252, 43.76047], [24.85467, 43.76038], [24.85571, 43.75948], [24.84066, 43.75869], [24.84066, 43.76253], [24.8413, 43.76514]]], [[[24.84145, 43.75487], [24.85431, 43.7554], [24.85716, 43.7505], [24.84343, 43.74959], [24.84145, 43.75487]]], [[[24.84709, 43.74596], [24.84819, 43.74421], [24.84797, 43.74342], [24.84583, 43.74587], [24.84709, 43.74596]]], [[[24.85509, 43.73821], [24.85682, 43.73917], [24.86005, 43.73922], [24.86311, 43.73857], [24.86506, 43.73893], [24.86646, 43.73967], [24.8691, 43.7394], [24.87528, 43.7312], [24.87049, 43.73192], [24.86303, 43.73399], [24.85628, 43.73709], [24.85467, 43.73809], [24.85509, 43.73821]]], [[[24.89161, 43.73406], [24.88866, 43.73572], [24.88983, 43.7364], [24.89258, 43.73934], [24.9091, 43.74198], [24.91232, 43.74289], [24.91575, 43.7446], [24.91085, 43.74004], [24.90796, 43.73804], [24.90143, 43.73471], [24.89445, 43.73244], [24.89161, 43.73406]]], [[[24.91911, 43.74964], [24.91912, 43.7581], [24.9196, 43.7581], [24.91953, 43.75651], [24.91992, 43.7565], [24.91996, 43.75571], [24.92152, 43.7556], [24.9206, 43.75254], [24.91911, 43.74964]]], [[[24.88685, 43.76904], [24.8861, 43.76927], [24.88706, 43.76983], [24.88796, 43.76978], [24.88771, 43.7687], [24.88685, 43.76904]]], [[[24.89153, 43.76507], [24.89317, 43.76844], [24.89346, 43.77311], [24.90757, 43.77283], [24.91059, 43.77369], [24.91481, 43.77599], [24.91463, 43.77352], [24.91843, 43.77259], [24.92001, 43.76969], [24.92108, 43.76689], [24.92198, 43.76198], [24.90723, 43.76192], [24.90355, 43.76096], [24.90211, 43.76138], [24.90023, 43.76141], [24.89772, 43.76049], [24.89593, 43.75826], [24.89154, 43.75854], [24.88693, 43.75835], [24.88728, 43.75996], [24.88821, 43.7612], [24.89037, 43.76268], [24.89153, 43.76507]]], [[[24.90719, 43.75708], [24.90688, 43.75778], [24.90787, 43.75808], [24.9138, 43.75809], [24.91377, 43.74818], [24.90978, 43.74628], [24.90758, 43.74568], [24.89053, 43.74291], [24.8886, 43.74193], [24.88611, 43.73928], [24.88287, 43.73901], [24.88182, 43.73965], [24.8807, 43.74372], [24.88113, 43.74375], [24.88116, 43.74413], [24.88443, 43.74541], [24.8865, 43.74563], [24.8878, 43.74697], [24.88944, 43.74794], [24.89364, 43.74943], [24.90327, 43.75095], [24.90444, 43.7523], [24.90491, 43.75426], [24.9045, 43.75532], [24.90561, 43.75581], [24.90554, 43.75639], [24.90719, 43.75708]]], [[[24.87535, 43.74118], [24.87578, 43.74135], [24.87686, 43.73809], [24.87978, 43.73586], [24.88033, 43.73419], [24.88189, 43.73293], [24.88044, 43.73242], [24.87424, 43.74063], [24.87535, 43.74118]]], [[[24.88636, 43.77702], [24.88547, 43.77666], [24.88439, 43.77813], [24.88683, 43.78964], [24.89215, 43.78888], [24.89961, 43.7868], [24.90637, 43.7837], [24.91238, 43.77951], [24.90698, 43.7767], [24.90002, 43.77678], [24.89854, 43.78001], [24.89751, 43.78058], [24.89598, 43.78071], [24.8946, 43.7802], [24.89383, 43.77914], [24.89193, 43.77858], [24.89108, 43.77682], [24.88865, 43.77734], [24.88636, 43.77702]]], [[[24.88303, 43.77244], [24.88307, 43.77261], [24.88311, 43.77249], [24.88303, 43.77244]]]]}, "properties": {"kind": "windland", "area_km2": 15.8}}, {"type": "Feature", "geometry": {"type": "MultiPolygon", "coordinates": [[[[24.84817, 43.7326], [24.84965, 43.73277], [24.85151, 43.73252], [24.85309, 43.73178], [24.85417, 43.73065], [24.85454, 43.72962], [24.85438, 43.72825], [24.85352, 43.72703], [24.85208, 43.72615], [24.84751, 43.72606], [24.84579, 43.7271], [24.84564, 43.73122], [24.84689, 43.73214], [24.84817, 43.7326]], [[24.84948, 43.72979], [24.84897, 43.7295], [24.84893, 43.72904], [24.8493, 43.72872], [24.84996, 43.72869], [24.8504, 43.72897], [24.85044, 43.72943], [24.85007, 43.72975], [24.84948, 43.72979]]], [[[24.84371, 43.73775], [24.84346, 43.73923], [24.84421, 43.74087], [24.84595, 43.74205], [24.84803, 43.7425], [24.84796, 43.74338], [24.84819, 43.74421], [24.84747, 43.74502], [24.84709, 43.74596], [24.83218, 43.74497], [24.83312, 43.74433], [24.8345, 43.74296], [24.83576, 43.74109], [24.83645, 43.73956], [24.83667, 43.73846], [24.8363, 43.73671], [24.83641, 43.73524], [24.83626, 43.73485], [24.83549, 43.73484], [24.83525, 43.73993], [24.83077, 43.74651], [24.8591, 43.74841], [24.86084, 43.74819], [24.86151, 43.74694], [24.86105, 43.74641], [24.8613, 43.74528], [24.86194, 43.74487], [24.86247, 43.74421], [24.86472, 43.74308], [24.86914, 43.74161], [24.87007, 43.74157], [24.88536, 43.72128], [24.88471, 43.72032], [24.88399, 43.71991], [24.88411, 43.71901], [24.88449, 43.7187], [24.88507, 43.71867], [24.88558, 43.71891], [24.88602, 43.71949], [24.88644, 43.71923], [24.88595, 43.71903], [24.88644, 43.71856], [24.88626, 43.71806], [24.88526, 43.71776], [24.87764, 43.71762], [24.87885, 43.71846], [24.87995, 43.71893], [24.87987, 43.71999], [24.88019, 43.72099], [24.8809, 43.72189], [24.88182, 43.72253], [24.8691, 43.7394], [24.86646, 43.73967], [24.86506, 43.73893], [24.86311, 43.73857], [24.86167, 43.73867], [24.86005, 43.73922], [24.85848, 43.739], [24.85682, 43.73917], [24.85509, 43.73821], [24.85312, 43.73788], [24.85217, 43.73662], [24.85109, 43.73592], [24.84884, 43.73535], [24.84733, 43.7354], [24.84563, 43.73592], [24.8446, 43.73658], [24.84371, 43.73775]], [[24.85758, 43.74273], [24.85761, 43.74227], [24.85804, 43.74199], [24.85871, 43.74201], [24.8591, 43.74231], [24.8591, 43.74277], [24.85868, 43.74306], [24.85798, 43.74305], [24.85758, 43.74273]], [[24.84809, 43.73832], [24.84878, 43.73836], [24.8492, 43.73872], [24.8492, 43.7392], [24.84879, 43.73951], [24.84799, 43.73948], [24.84758, 43.73917], [24.84762, 43.73862], [24.84809, 43.73832]], [[24.85296, 43.74202], [24.85241, 43.74183], [24.85222, 43.74142], [24.85242, 43.74102], [24.853, 43.74084], [24.85359, 43.74099], [24.85385, 43.74143], [24.85358, 43.74188], [24.85296, 43.74202]], [[24.8527, 43.74367], [24.85215, 43.74342], [24.85206, 43.74294], [24.8524, 43.7426], [24.85304, 43.74253], [24.85354, 43.74281], [24.85361, 43.74323], [24.85329, 43.74359], [24.8527, 43.74367]], [[24.85524, 43.74304], [24.85574, 43.74333], [24.85577, 43.74382], [24.85533, 43.74416], [24.85472, 43.74417], [24.85424, 43.74385], [24.85423, 43.7434], [24.85462, 43.74307], [24.85524, 43.74304]], [[24.86329, 43.7416], [24.8637, 43.74196], [24.86359, 43.74243], [24.86311, 43.74268], [24.8624, 43.74258], [24.86208, 43.74222], [24.86219, 43.7418], [24.86266, 43.74154], [24.86329, 43.7416]], [[24.86114, 43.74343], [24.86061, 43.74316], [24.86055, 43.74264], [24.86093, 43.74231], [24.86153, 43.74227], [24.86204, 43.74256], [24.86208, 43.74302], [24.86173, 43.74337], [24.86114, 43.74343]], [[24.85175, 43.7471], [24.85122, 43.74684], [24.85116, 43.7463], [24.8516, 43.74597], [24.85223, 43.74597], [24.85267, 43.74624], [24.85272, 43.74673], [24.85237, 43.74705], [24.85175, 43.7471]]], [[[24.82595, 43.7438], [24.82606, 43.74366], [24.8257, 43.74366], [24.82595, 43.7438]]], [[[24.82788, 43.74494], [24.82784, 43.7449], [24.8278, 43.74487], [24.82779, 43.74489], [24.82788, 43.74494]]], [[[24.82452, 43.75181], [24.82504, 43.75196], [24.82558, 43.75099], [24.82647, 43.74753], [24.82651, 43.74587], [24.82684, 43.74502], [24.82448, 43.74363], [24.82036, 43.74356], [24.82032, 43.74464], [24.82223, 43.74445], [24.82403, 43.74551], [24.82393, 43.74735], [24.82334, 43.74966], [24.82017, 43.74873], [24.82011, 43.7505], [24.82452, 43.75181]]], [[[24.83262, 43.7472], [24.83059, 43.74704], [24.8303, 43.7486], [24.82979, 43.74875], [24.82957, 43.7485], [24.8299, 43.74678], [24.82743, 43.74537], [24.8272, 43.74761], [24.8263, 43.75112], [24.82573, 43.75217], [24.83931, 43.7562], [24.84085, 43.75649], [24.8558, 43.75715], [24.85885, 43.75169], [24.86066, 43.74965], [24.86056, 43.74879], [24.85905, 43.74895], [24.83262, 43.7472]], [[24.83235, 43.75233], [24.82884, 43.75129], [24.82908, 43.75034], [24.83011, 43.75044], [24.83134, 43.75015], [24.8321, 43.74964], [24.83256, 43.74887], [24.85716, 43.7505], [24.85431, 43.7554], [24.84087, 43.75482], [24.83235, 43.75233]]], [[[24.82272, 43.75186], [24.82008, 43.75108], [24.82002, 43.75285], [24.82056, 43.75301], [24.82, 43.7535], [24.81988, 43.75662], [24.82462, 43.75242], [24.82272, 43.75186]]], [[[24.82524, 43.75273], [24.81985, 43.7574], [24.81977, 43.75969], [24.82093, 43.7592], [24.82222, 43.75829], [24.82626, 43.7547], [24.83943, 43.75854], [24.85482, 43.75927], [24.85571, 43.75948], [24.85467, 43.76038], [24.85352, 43.76026], [24.85252, 43.76047], [24.85171, 43.76094], [24.85115, 43.76173], [24.84991, 43.76164], [24.8489, 43.76187], [24.8413, 43.76514], [24.84067, 43.76574], [24.84042, 43.76628], [24.84045, 43.76703], [24.84076, 43.76758], [24.84009, 43.76802], [24.83962, 43.76869], [24.83856, 43.76926], [24.83723, 43.76933], [24.83607, 43.7699], [24.83517, 43.7698], [24.83416, 43.76995], [24.83178, 43.77104], [24.8317, 43.77334], [24.83199, 43.77337], [24.83387, 43.77196], [24.83497, 43.77198], [24.83548, 43.77232], [24.83486, 43.77181], [24.83507, 43.77148], [24.83563, 43.77164], [24.83714, 43.77107], [24.84036, 43.77061], [24.84053, 43.77024], [24.84097, 43.77018], [24.84163, 43.76965], [24.84187, 43.76906], [24.84225, 43.76894], [24.84319, 43.76778], [24.84325, 43.76741], [24.84269, 43.76669], [24.84278, 43.76641], [24.84864, 43.76404], [24.84977, 43.76341], [24.85022, 43.76329], [24.85068, 43.76339], [24.8522, 43.76293], [24.85231, 43.76306], [24.85352, 43.76243], [24.85337, 43.76216], [24.85357, 43.76195], [24.854, 43.762], [24.85503, 43.7615], [24.8553, 43.7617], [24.8558, 43.7616], [24.85555, 43.76139], [24.85629, 43.76078], [24.85791, 43.75837], [24.85529, 43.75764], [24.83991, 43.75692], [24.82533, 43.75263], [24.82524, 43.75273]]], [[[24.84976, 43.77112], [24.85308, 43.76901], [24.856, 43.76752], [24.85945, 43.76786], [24.86046, 43.76769], [24.8613, 43.76725], [24.86185, 43.76661], [24.86202, 43.76587], [24.86178, 43.76513], [24.86104, 43.76445], [24.86111, 43.76333], [24.86188, 43.76238], [24.86387, 43.7627], [24.86469, 43.76321], [24.86594, 43.76345], [24.8672, 43.76323], [24.86812, 43.76266], [24.86911, 43.76289], [24.87121, 43.76282], [24.87364, 43.76224], [24.87431, 43.76316], [24.87572, 43.76435], [24.87773, 43.77288], [24.8766, 43.77371], [24.87597, 43.77464], [24.87574, 43.77573], [24.87592, 43.77675], [24.8771, 43.77823], [24.87823, 43.77886], [24.87923, 43.77916], [24.88275, 43.79608], [24.88314, 43.79876], [24.88545, 43.7988], [24.88291, 43.78541], [24.88087, 43.77634], [24.88021, 43.77627], [24.87984, 43.77589], [24.87996, 43.7754], [24.88059, 43.77516], [24.87741, 43.76161], [24.87518, 43.76097], [24.87127, 43.76103], [24.87094, 43.76117], [24.86978, 43.76095], [24.86964, 43.76118], [24.86929, 43.76122], [24.86904, 43.76102], [24.86875, 43.75928], [24.86735, 43.75956], [24.86657, 43.7594], [24.86614, 43.75959], [24.86634, 43.76155], [24.86593, 43.76179], [24.86561, 43.76157], [24.86547, 43.76025], [24.86293, 43.76004], [24.86074, 43.7624], [24.85908, 43.76254], [24.85868, 43.76285], [24.85865, 43.76558], [24.85958, 43.76572], [24.85963, 43.76612], [24.85731, 43.76599], [24.84866, 43.77095], [24.84976, 43.77112]]], [[[24.83608, 43.77303], [24.8362, 43.77305], [24.83609, 43.77298], [24.83608, 43.77303]]], [[[24.84573, 43.77415], [24.84812, 43.77449], [24.84888, 43.77438], [24.84977, 43.77399], [24.85039, 43.77338], [24.85064, 43.77265], [24.85049, 43.77191], [24.84996, 43.77127], [24.84829, 43.77241], [24.84833, 43.77265], [24.84807, 43.77282], [24.84478, 43.77228], [24.84218, 43.77475], [24.84156, 43.77475], [24.84035, 43.77644], [24.8393, 43.77917], [24.83822, 43.78008], [24.83796, 43.78151], [24.83724, 43.78297], [24.83668, 43.78371], [24.83529, 43.78362], [24.83527, 43.78615], [24.83554, 43.78719], [24.83544, 43.78886], [24.83773, 43.7889], [24.83761, 43.78337], [24.83871, 43.78305], [24.83943, 43.78252], [24.83982, 43.78182], [24.8398, 43.78105], [24.84167, 43.7793], [24.84249, 43.77705], [24.84298, 43.77633], [24.84385, 43.77589], [24.84573, 43.77415]]], [[[24.83454, 43.78366], [24.83338, 43.78374], [24.83284, 43.78386], [24.83452, 43.78395], [24.83454, 43.78366]]], [[[24.83149, 43.78432], [24.8313, 43.78437], [24.83127, 43.78522], [24.83416, 43.78526], [24.83414, 43.7855], [24.83454, 43.78571], [24.83461, 43.7845], [24.83149, 43.78432]]], [[[24.86, 43.72282], [24.86163, 43.72295], [24.86285, 43.72278], [24.86432, 43.72223], [24.86523, 43.72158], [24.86601, 43.72054], [24.86627, 43.71965], [24.86612, 43.71846], [24.86547, 43.7174], [24.86124, 43.71732], [24.86171, 43.7188], [24.8622, 43.71936], [24.86192, 43.71983], [24.86132, 43.71999], [24.86079, 43.71986], [24.86048, 43.7195], [24.86057, 43.71906], [24.86097, 43.71879], [24.86044, 43.7173], [24.85855, 43.71727], [24.85837, 43.72224], [24.86, 43.72282]]], [[[24.8829, 43.73084], [24.88554, 43.7318], [24.88647, 43.73245], [24.88734, 43.73181], [24.8885, 43.73302], [24.8994, 43.72681], [24.8974, 43.72456], [24.896, 43.72426], [24.89549, 43.72394], [24.89483, 43.72407], [24.89281, 43.72351], [24.88997, 43.7224], [24.88925, 43.72178], [24.88913, 43.72142], [24.8875, 43.72048], [24.8865, 43.72088], [24.87984, 43.72974], [24.8829, 43.73084]], [[24.88799, 43.72499], [24.8912, 43.72623], [24.89511, 43.72715], [24.88806, 43.73117], [24.88662, 43.73034], [24.883, 43.72903], [24.88664, 43.72418], [24.88799, 43.72499]]], [[[24.87545, 43.73559], [24.87172, 43.7405], [24.8755, 43.74129], [24.87424, 43.74063], [24.88044, 43.73242], [24.88189, 43.73293], [24.88033, 43.73419], [24.87992, 43.73488], [24.87978, 43.73586], [24.87777, 43.73713], [24.87686, 43.73809], [24.8763, 43.73913], [24.87578, 43.74135], [24.878, 43.74181], [24.87844, 43.73973], [24.87885, 43.73891], [24.87954, 43.73819], [24.88235, 43.73649], [24.88205, 43.73565], [24.88231, 43.73502], [24.88566, 43.73254], [24.87948, 43.73022], [24.87545, 43.73559]]], [[[24.87927, 43.74202], [24.87989, 43.74363], [24.8807, 43.74372], [24.88139, 43.74029], [24.88182, 43.73965], [24.88287, 43.73901], [24.88385, 43.73921], [24.88611, 43.73928], [24.8886, 43.74193], [24.89053, 43.74291], [24.90758, 43.74568], [24.90978, 43.74628], [24.91263, 43.74782], [24.91377, 43.74818], [24.9138, 43.75809], [24.90787, 43.75808], [24.90688, 43.75778], [24.90596, 43.7593], [24.90743, 43.75972], [24.91603, 43.75976], [24.91606, 43.74813], [24.91635, 43.74779], [24.91802, 43.74758], [24.91384, 43.74641], [24.91091, 43.74484], [24.90829, 43.7441], [24.89148, 43.7414], [24.89032, 43.74084], [24.88733, 43.7377], [24.88414, 43.73757], [24.88281, 43.73692], [24.88007, 43.73856], [24.87951, 43.73916], [24.87873, 43.74195], [24.87927, 43.74202]]], [[[24.88019, 43.7445], [24.8799, 43.74468], [24.87985, 43.74555], [24.88358, 43.74696], [24.88536, 43.74707], [24.88561, 43.74764], [24.8863, 43.74826], [24.88746, 43.74866], [24.88816, 43.74932], [24.89292, 43.75106], [24.89407, 43.75112], [24.89775, 43.75199], [24.9019, 43.75228], [24.90217, 43.75256], [24.90259, 43.75438], [24.90226, 43.75471], [24.89934, 43.75535], [24.89996, 43.75587], [24.90154, 43.7557], [24.903, 43.75529], [24.90491, 43.75567], [24.9045, 43.75532], [24.90491, 43.75426], [24.90439, 43.75213], [24.90389, 43.7514], [24.90306, 43.75084], [24.90179, 43.75052], [24.89826, 43.75034], [24.89452, 43.74949], [24.89364, 43.74943], [24.88944, 43.74794], [24.8878, 43.74697], [24.88728, 43.74612], [24.8864, 43.74559], [24.88551, 43.74539], [24.88443, 43.74541], [24.88116, 43.74413], [24.88019, 43.7445]]], [[[24.85815, 43.7562], [24.85839, 43.75558], [24.85765, 43.75543], [24.85851, 43.7537], [24.85651, 43.75733], [24.85753, 43.75765], [24.85815, 43.7562]]], [[[24.85886, 43.75635], [24.85898, 43.75623], [24.85912, 43.75615], [24.85893, 43.75617], [24.85886, 43.75635]]], [[[24.85869, 43.75679], [24.85873, 43.75678], [24.85873, 43.7567], [24.8587, 43.75677], [24.85869, 43.75679]]], [[[24.87896, 43.76234], [24.87899, 43.76196], [24.87825, 43.762], [24.87949, 43.76727], [24.87974, 43.7676], [24.88974, 43.77354], [24.89027, 43.77252], [24.89019, 43.76886], [24.88993, 43.76821], [24.88796, 43.76552], [24.88481, 43.76672], [24.88465, 43.7665], [24.88395, 43.76631], [24.88331, 43.76549], [24.88323, 43.76512], [24.88345, 43.76482], [24.88163, 43.76245], [24.88083, 43.7629], [24.87969, 43.76291], [24.87916, 43.76274], [24.87896, 43.76234]], [[24.88796, 43.76978], [24.88706, 43.76983], [24.8861, 43.76927], [24.88771, 43.7687], [24.88796, 43.76978]]], [[[24.85791, 43.76551], [24.858, 43.76454], [24.85807, 43.76336], [24.85692, 43.7654], [24.85791, 43.76551]]], [[[24.87978, 43.76852], [24.88319, 43.78313], [24.8862, 43.79881], [24.88852, 43.79886], [24.88803, 43.79553], [24.88439, 43.77813], [24.88547, 43.77666], [24.8868, 43.77715], [24.88818, 43.77734], [24.88993, 43.77719], [24.89108, 43.77682], [24.89126, 43.77777], [24.89193, 43.77858], [24.89279, 43.779], [24.89383, 43.77914], [24.89426, 43.77991], [24.89501, 43.78043], [24.8965, 43.78074], [24.89775, 43.7805], [24.89869, 43.77985], [24.89914, 43.77918], [24.89922, 43.7784], [24.89992, 43.77757], [24.90002, 43.77678], [24.90567, 43.77658], [24.90721, 43.77676], [24.93054, 43.78952], [24.93062, 43.78747], [24.90869, 43.77543], [24.90629, 43.77492], [24.89755, 43.77521], [24.89774, 43.77706], [24.89744, 43.77728], [24.89704, 43.77714], [24.89683, 43.77579], [24.89668, 43.7761], [24.89695, 43.77868], [24.89669, 43.77902], [24.89635, 43.77907], [24.89608, 43.77884], [24.89594, 43.77609], [24.89644, 43.77525], [24.89393, 43.77534], [24.89418, 43.77724], [24.89399, 43.77745], [24.89363, 43.77745], [24.89317, 43.7753], [24.89109, 43.77487], [24.88933, 43.77399], [24.88892, 43.7743], [24.88836, 43.77439], [24.88728, 43.774], [24.88698, 43.77349], [24.88742, 43.77288], [24.87978, 43.76852]], [[24.88311, 43.77249], [24.88307, 43.77261], [24.88303, 43.77244], [24.88311, 43.77249]]], [[[24.89995, 43.72721], [24.88347, 43.73654], [24.88428, 43.73703], [24.88774, 43.73725], [24.89089, 43.74048], [24.89177, 43.7409], [24.90854, 43.74359], [24.91129, 43.74437], [24.91419, 43.74593], [24.91918, 43.74737], [24.9193, 43.74767], [24.91906, 43.74791], [24.9168, 43.74824], [24.91678, 43.75976], [24.91967, 43.75976], [24.9196, 43.7581], [24.91912, 43.7581], [24.91911, 43.74964], [24.92057, 43.74917], [24.92141, 43.74835], [24.92158, 43.7474], [24.92094, 43.74631], [24.91987, 43.74575], [24.91537, 43.74449], [24.91188, 43.74272], [24.90935, 43.74204], [24.8926, 43.73935], [24.88983, 43.7364], [24.88866, 43.73572], [24.8997, 43.72944], [24.90114, 43.72959], [24.90298, 43.7293], [24.90419, 43.72876], [24.90537, 43.7277], [24.9069, 43.72755], [24.908, 43.72719], [24.90812, 43.71848], [24.90563, 43.71904], [24.9048, 43.71944], [24.90565, 43.72092], [24.90547, 43.7222], [24.90707, 43.72277], [24.90623, 43.72387], [24.9061, 43.7245], [24.9057, 43.72472], [24.90519, 43.7247], [24.90459, 43.72443], [24.90433, 43.72397], [24.90315, 43.72536], [24.90156, 43.7265], [24.89995, 43.72721]]], [[[24.88285, 43.73546], [24.883, 43.73612], [24.88591, 43.73448], [24.885, 43.73378], [24.88285, 43.73546]]], [[[24.9027, 43.75889], [24.90195, 43.75842], [24.90021, 43.75947], [24.89721, 43.75704], [24.89822, 43.7565], [24.89671, 43.75661], [24.89366, 43.75649], [24.89338, 43.75682], [24.89148, 43.75688], [24.88765, 43.75677], [24.88446, 43.75636], [24.88444, 43.75784], [24.88512, 43.76055], [24.89084, 43.7685], [24.89101, 43.77256], [24.89032, 43.77388], [24.89172, 43.77449], [24.89354, 43.77478], [24.90562, 43.77438], [24.90719, 43.77447], [24.90841, 43.77473], [24.91013, 43.77549], [24.93064, 43.7868], [24.93071, 43.78475], [24.91744, 43.77744], [24.91539, 43.77814], [24.9149, 43.7774], [24.91481, 43.77599], [24.91002, 43.77345], [24.90839, 43.77297], [24.90634, 43.77272], [24.89346, 43.77311], [24.89317, 43.76844], [24.89267, 43.76726], [24.89147, 43.7656], [24.8913, 43.76405], [24.88984, 43.76211], [24.88821, 43.7612], [24.88728, 43.75996], [24.88693, 43.75835], [24.89154, 43.75854], [24.89373, 43.75847], [24.89468, 43.7582], [24.89593, 43.75826], [24.89647, 43.75936], [24.89772, 43.76049], [24.89888, 43.76109], [24.90023, 43.76141], [24.90211, 43.76138], [24.90355, 43.76096], [24.90723, 43.76192], [24.92246, 43.76198], [24.9227, 43.76267], [24.92329, 43.76329], [24.92416, 43.7637], [24.92492, 43.76383], [24.92596, 43.76375], [24.92687, 43.76338], [24.92752, 43.76279], [24.92786, 43.76194], [24.93131, 43.76186], [24.93224, 43.76276], [24.93351, 43.76316], [24.94254, 43.76326], [24.94352, 43.76295], [24.94388, 43.76299], [24.94394, 43.76131], [24.94219, 43.76111], [24.94234, 43.7614], [24.94213, 43.76162], [24.94205, 43.7627], [24.93291, 43.76248], [24.93258, 43.76077], [24.92561, 43.76072], [24.92551, 43.76198], [24.92512, 43.76217], [24.92474, 43.76185], [24.92486, 43.76072], [24.92209, 43.7607], [24.9221, 43.76032], [24.90731, 43.76026], [24.9027, 43.75889]]], [[[24.90431, 43.71834], [24.90481, 43.71828], [24.90533, 43.7185], [24.90682, 43.71816], [24.90335, 43.7181], [24.90401, 43.71855], [24.90431, 43.71834]]], [[[24.91982, 43.72769], [24.91953, 43.7274], [24.91542, 43.72732], [24.91574, 43.72852], [24.91645, 43.72941], [24.91748, 43.73012], [24.91872, 43.73057], [24.92012, 43.73178], [24.92026, 43.72779], [24.91982, 43.72769]]], [[[24.93108, 43.74736], [24.9299, 43.74697], [24.92861, 43.74702], [24.9277, 43.74739], [24.92694, 43.74815], [24.92677, 43.74908], [24.92726, 43.75082], [24.92685, 43.75182], [24.92711, 43.75268], [24.92614, 43.75296], [24.92525, 43.75365], [24.92492, 43.75455], [24.92514, 43.75535], [24.92349, 43.7556], [24.92235, 43.7562], [24.92238, 43.75733], [24.92276, 43.75733], [24.92273, 43.75826], [24.92379, 43.75824], [24.92383, 43.75888], [24.92351, 43.75888], [24.92351, 43.75978], [24.92414, 43.75979], [24.92399, 43.75743], [24.92451, 43.75713], [24.92452, 43.75614], [24.93009, 43.75603], [24.93026, 43.75508], [24.92697, 43.75516], [24.92693, 43.75444], [24.92894, 43.75422], [24.92883, 43.75285], [24.92911, 43.75185], [24.9281, 43.74879], [24.93196, 43.74837], [24.93108, 43.74736]]], [[[24.90554, 43.75639], [24.90552, 43.75636], [24.90552, 43.75638], [24.90554, 43.75639]]], [[[24.94165, 43.75694], [24.94122, 43.75877], [24.9399, 43.7586], [24.93888, 43.75568], [24.93823, 43.75475], [24.93751, 43.75473], [24.93838, 43.7565], [24.93907, 43.7596], [24.93976, 43.75964], [24.93979, 43.76027], [24.94325, 43.76069], [24.94405, 43.75805], [24.94389, 43.75485], [24.94134, 43.7548], [24.94165, 43.75694]]], [[[24.92542, 43.75939], [24.92559, 43.75933], [24.92552, 43.75813], [24.92476, 43.75813], [24.92485, 43.7594], [24.92542, 43.75939]]]]}, "properties": {"kind": "pv", "area_km2": 17.0, "mw": 850.2}}, {"type": "Feature", "geometry": {"type": "Point", "coordinates": [24.8915, 43.7607]}, "properties": {"kind": "turbine", "i": 0, "mw": 6.0, "hub_m": 120.0, "rotor_m": 150.0}}, {"type": "Feature", "geometry": {"type": "Point", "coordinates": [24.86419, 43.76348]}, "properties": {"kind": "turbine", "i": 1, "mw": 6.0, "hub_m": 120.0, "rotor_m": 150.0}}, {"type": "Feature", "geometry": {"type": "Point", "coordinates": [24.8729, 43.77351]}, "properties": {"kind": "turbine", "i": 2, "mw": 6.0, "hub_m": 120.0, "rotor_m": 150.0}}, {"type": "Feature", "geometry": {"type": "Point", "coordinates": [24.88639, 43.77704]}, "properties": {"kind": "turbine", "i": 3, "mw": 6.0, "hub_m": 120.0, "rotor_m": 150.0}}, {"type": "Feature", "geometry": {"type": "Point", "coordinates": [24.90499, 43.76424]}, "properties": {"kind": "turbine", "i": 4, "mw": 6.0, "hub_m": 120.0, "rotor_m": 150.0}}, {"type": "Feature", "geometry": {"type": "Point", "coordinates": [24.90533, 43.75438]}, "properties": {"kind": "turbine", "i": 5, "mw": 6.0, "hub_m": 120.0, "rotor_m": 150.0}}, {"type": "Feature", "geometry": {"type": "Point", "coordinates": [24.89661, 43.74436]}, "properties": {"kind": "turbine", "i": 6, "mw": 6.0, "hub_m": 120.0, "rotor_m": 150.0}}, {"type": "Feature", "geometry": {"type": "Point", "coordinates": [24.88313, 43.74082]}, "properties": {"kind": "turbine", "i": 7, "mw": 6.0, "hub_m": 120.0, "rotor_m": 150.0}}, {"type": "Feature", "geometry": {"type": "Point", "coordinates": [24.85477, 43.77317]}, "properties": {"kind": "turbine", "i": 8, "mw": 6.0, "hub_m": 120.0, "rotor_m": 150.0}}, {"type": "Feature", "geometry": {"type": "Point", "coordinates": [24.89988, 43.78058]}, "properties": {"kind": "turbine", "i": 9, "mw": 6.0, "hub_m": 120.0, "rotor_m": 150.0}}, {"type": "Feature", "geometry": {"type": "Point", "coordinates": [24.86965, 43.73728]}, "properties": {"kind": "turbine", "i": 10, "mw": 6.0, "hub_m": 120.0, "rotor_m": 150.0}}]}