{"type": "FeatureCollection", "features": [{"type": "Feature", "geometry": {"type": "MultiPolygon", "coordinates": [[[[-90.46245, 29.93282], [-90.4611, 29.9333], [-90.45922, 29.93253], [-90.45739, 29.93272], [-90.45615, 29.92572], [-90.45527, 29.9248], [-90.45389, 29.92437], [-90.45229, 29.92195], [-90.45123, 29.9212], [-90.4532, 29.91953], [-90.45519, 29.91986], [-90.45749, 29.91885], [-90.45907, 29.91927], [-90.46245, 29.93282]]], [[[-90.45524, 29.90888], [-90.45389, 29.90919], [-90.45199, 29.90856], [-90.45054, 29.9087], [-90.44921, 29.90993], [-90.44735, 29.9106], [-90.44667, 29.91185], [-90.44418, 29.91231], [-90.44284, 29.91338], [-90.44207, 29.91517], [-90.44216, 29.91644], [-90.44322, 29.91753], [-90.44483, 29.91784], [-90.44481, 29.91958], [-90.44622, 29.92107], [-90.44834, 29.9217], [-90.44794, 29.92219], [-90.44695, 29.92239], [-90.44528, 29.92128], [-90.44398, 29.92112], [-90.4426, 29.92164], [-90.44183, 29.92272], [-90.42594, 29.91181], [-90.43136, 29.89833], [-90.43869, 29.89829], [-90.43847, 29.89928], [-90.43684, 29.89966], [-90.43584, 29.90035], [-90.43531, 29.90221], [-90.43585, 29.9033], [-90.43692, 29.90418], [-90.43781, 29.906], [-90.43975, 29.90681], [-90.44373, 29.90609], [-90.44578, 29.90411], [-90.44661, 29.90247], [-90.44687, 29.90074], [-90.44634, 29.89859], [-90.45097, 29.89871], [-90.45251, 29.90171], [-90.45524, 29.90888]]], [[[-90.44822, 29.8935], [-90.44733, 29.89438], [-90.43293, 29.89447], [-90.43606, 29.88673], [-90.43664, 29.88307], [-90.43822, 29.8828], [-90.43938, 29.88218], [-90.44078, 29.88036], [-90.44448, 29.88601], [-90.44822, 29.8935]]], [[[-90.46522, 29.97961], [-90.46378, 29.97957], [-90.46255, 29.98017], [-90.45951, 29.97846], [-90.46024, 29.97641], [-90.46219, 29.97604], [-90.46326, 29.97448], [-90.46555, 29.97585], [-90.46522, 29.97961]]], [[[-90.4646, 29.98596], [-90.46472, 29.98603], [-90.46457, 29.98688], [-90.46428, 29.98654], [-90.4646, 29.98596]]], [[[-90.45571, 30.02071], [-90.45521, 30.01868], [-90.45378, 30.01737], [-90.45509, 30.01084], [-90.45556, 30.01113], [-90.45497, 30.01265], [-90.45521, 30.01435], [-90.45606, 30.01551], [-90.45724, 30.01625], [-90.45571, 30.02071]]], [[[-90.42929, 29.8645], [-90.43391, 29.87009], [-90.4321, 29.87096], [-90.43001, 29.8729], [-90.42963, 29.87379], [-90.42979, 29.87475], [-90.42656, 29.8763], [-90.42407, 29.87913], [-90.41582, 29.87918], [-90.41557, 29.85268], [-90.4143, 29.85089], [-90.41007, 29.84956], [-90.4095, 29.84859], [-90.40833, 29.84798], [-90.40828, 29.84514], [-90.41148, 29.84512], [-90.42332, 29.85704], [-90.42467, 29.85871], [-90.42308, 29.85902], [-90.42206, 29.86016], [-90.422, 29.86134], [-90.42292, 29.86274], [-90.42541, 29.86435], [-90.42704, 29.86437], [-90.4285, 29.86342], [-90.42929, 29.8645]]], [[[-90.3947, 29.92542], [-90.396, 29.92474], [-90.40091, 29.92735], [-90.40251, 29.92706], [-90.40386, 29.92571], [-90.40755, 29.92702], [-90.39925, 29.93541], [-90.39937, 29.93705], [-90.40136, 29.93927], [-90.40094, 29.94034], [-90.40127, 29.94154], [-90.40249, 29.94251], [-90.40403, 29.94267], [-90.40023, 29.94524], [-90.39445, 29.94201], [-90.39531, 29.94042], [-90.39503, 29.93951], [-90.39429, 29.93882], [-90.39241, 29.93861], [-90.39065, 29.93987], [-90.38971, 29.93935], [-90.39086, 29.93794], [-90.39116, 29.93613], [-90.393, 29.93602], [-90.39407, 29.93487], [-90.39378, 29.93323], [-90.39179, 29.93192], [-90.39411, 29.92999], [-90.39506, 29.92862], [-90.39532, 29.92692], [-90.3947, 29.92542]]], [[[-90.38336, 29.99541], [-90.38077, 29.9935], [-90.38076, 29.99323], [-90.38299, 29.99485], [-90.38336, 29.99541]]], [[[-90.38433, 29.99078], [-90.3834, 29.9901], [-90.38271, 29.98965], [-90.3841, 29.98987], [-90.38565, 29.98961], [-90.38433, 29.99078]]], [[[-90.36673, 29.9506], [-90.36631, 29.95133], [-90.36463, 29.9506], [-90.36566, 29.9507], [-90.36673, 29.9506]]], [[[-90.3635, 29.95019], [-90.36297, 29.95001], [-90.36299, 29.94987], [-90.36315, 29.94998], [-90.3635, 29.95019]]], [[[-90.34631, 29.921], [-90.34455, 29.92527], [-90.34375, 29.92525], [-90.34487, 29.92174], [-90.34631, 29.921]]], [[[-90.37086, 29.89829], [-90.37005, 29.89799], [-90.36981, 29.89713], [-90.37104, 29.89653], [-90.37188, 29.89654], [-90.37175, 29.8983], [-90.37086, 29.89829]]], [[[-90.37732, 29.91337], [-90.37593, 29.91379], [-90.37602, 29.9131], [-90.37745, 29.91197], [-90.38004, 29.9079], [-90.38085, 29.90764], [-90.38108, 29.90845], [-90.37794, 29.91215], [-90.37732, 29.91337]]], [[[-90.37226, 29.90949], [-90.37028, 29.91235], [-90.36523, 29.91349], [-90.36382, 29.91336], [-90.36202, 29.91372], [-90.3595, 29.91317], [-90.35829, 29.91374], [-90.35762, 29.91472], [-90.35705, 29.91474], [-90.35761, 29.91354], [-90.36142, 29.91258], [-90.36306, 29.9115], [-90.36505, 29.91113], [-90.3663, 29.91044], [-90.36884, 29.91043], [-90.37226, 29.90949]]], [[[-90.36949, 29.91665], [-90.37019, 29.91642], [-90.37212, 29.91666], [-90.37455, 29.91518], [-90.37424, 29.91578], [-90.3725, 29.91706], [-90.36949, 29.91665]]], [[[-90.38705, 29.98898], [-90.3871, 29.98908], [-90.38643, 29.98925], [-90.38669, 29.98909], [-90.38705, 29.98898]]], [[[-90.41463, 29.95816], [-90.41365, 29.9586], [-90.41155, 29.95744], [-90.41241, 29.95667], [-90.41463, 29.95816]]], [[[-90.41027, 29.96658], [-90.41745, 29.9644], [-90.41832, 29.96312], [-90.41791, 29.96103], [-90.41891, 29.96058], [-90.42557, 29.96405], [-90.40999, 29.96942], [-90.41027, 29.96658]]], [[[-90.31549, 29.95342], [-90.31579, 29.95478], [-90.3167, 29.95565], [-90.31805, 29.95818], [-90.31777, 29.95838], [-90.31418, 29.95206], [-90.31453, 29.95171], [-90.31549, 29.95342]]], [[[-90.26422, 29.92561], [-90.26533, 29.92625], [-90.26525, 29.92738], [-90.26449, 29.93566], [-90.26326, 29.9388], [-90.2498, 29.93283], [-90.24957, 29.92984], [-90.24779, 29.92764], [-90.25468, 29.92334], [-90.25041, 29.91897], [-90.24086, 29.92435], [-90.23276, 29.92053], [-90.23306, 29.91993], [-90.2348, 29.92069], [-90.23658, 29.92022], [-90.23757, 29.91893], [-90.23762, 29.91739], [-90.23685, 29.91595], [-90.2354, 29.91534], [-90.2336, 29.91575], [-90.23267, 29.91695], [-90.23187, 29.9161], [-90.23203, 29.91424], [-90.23267, 29.91378], [-90.24184, 29.91435], [-90.24238, 29.91602], [-90.24375, 29.91725], [-90.24647, 29.91775], [-90.24795, 29.9173], [-90.24914, 29.91638], [-90.25226, 29.91979], [-90.2591, 29.91613], [-90.26018, 29.91748], [-90.26145, 29.91829], [-90.26307, 29.91865], [-90.26471, 29.9184], [-90.26443, 29.9201], [-90.2632, 29.9215], [-90.26284, 29.92284], [-90.26309, 29.9242], [-90.26422, 29.92561]]], [[[-90.16748, 29.89052], [-90.16712, 29.88814], [-90.16812, 29.88611], [-90.16802, 29.88523], [-90.16882, 29.88474], [-90.1689, 29.89046], [-90.16748, 29.89052]]], [[[-90.16739, 29.88387], [-90.16979, 29.87979], [-90.17011, 29.87835], [-90.17161, 29.87855], [-90.17337, 29.89161], [-90.17246, 29.89163], [-90.17172, 29.88587], [-90.17058, 29.88587], [-90.17037, 29.88292], [-90.16901, 29.88293], [-90.16889, 29.88394], [-90.16739, 29.88387]]], [[[-90.16996, 29.89076], [-90.16994, 29.8871], [-90.17056, 29.88709], [-90.1706, 29.89113], [-90.16996, 29.89076]]], [[[-90.20062, 29.88558], [-90.1996, 29.88619], [-90.19871, 29.88475], [-90.19749, 29.88388], [-90.19273, 29.88302], [-90.19605, 29.88068], [-90.19732, 29.88216], [-90.20347, 29.87919], [-90.20415, 29.87945], [-90.19776, 29.88261], [-90.19927, 29.88386], [-90.20959, 29.87784], [-90.21239, 29.88024], [-90.21241, 29.88105], [-90.20954, 29.88183], [-90.20062, 29.88558]]], [[[-90.19019, 29.8832], [-90.19076, 29.88372], [-90.18946, 29.8851], [-90.18902, 29.88658], [-90.18855, 29.88669], [-90.18854, 29.88402], [-90.19019, 29.8832]]], [[[-90.21403, 29.88081], [-90.21328, 29.88097], [-90.21342, 29.87934], [-90.21563, 29.88043], [-90.21403, 29.88081]]], [[[-90.28649, 29.9512], [-90.28615, 29.95126], [-90.286, 29.95072], [-90.28639, 29.95047], [-90.28649, 29.9512]]], [[[-90.28526, 29.95144], [-90.28558, 29.95113], [-90.28453, 29.95318], [-90.28556, 29.95721], [-90.28416, 29.95767], [-90.28271, 29.95712], [-90.2821, 29.95571], [-90.28196, 29.95334], [-90.28335, 29.95294], [-90.28526, 29.95144]]], [[[-90.26135, 29.95923], [-90.26177, 29.95931], [-90.2616, 29.96017], [-90.26162, 29.95941], [-90.26135, 29.95923]]], [[[-90.23161, 29.92457], [-90.23209, 29.92478], [-90.23227, 29.9251], [-90.23157, 29.92479], [-90.23161, 29.92457]]], [[[-90.24259, 29.93694], [-90.24246, 29.93668], [-90.2435, 29.93586], [-90.24396, 29.93609], [-90.24259, 29.93694]]], [[[-90.44847, 29.96787], [-90.45016, 29.96672], [-90.45752, 29.97108], [-90.45582, 29.97573], [-90.45156, 29.9726], [-90.4473, 29.97103], [-90.44711, 29.96927], [-90.44548, 29.96802], [-90.44683, 29.96821], [-90.44847, 29.96787]]], [[[-90.44216, 29.96773], [-90.44144, 29.96836], [-90.43999, 29.96755], [-90.44307, 29.96702], [-90.44365, 29.96734], [-90.44216, 29.96773]]], [[[-90.4359, 29.96499], [-90.4362, 29.9653], [-90.43686, 29.9658], [-90.4348, 29.96464], [-90.4359, 29.96499]]], [[[-90.42005, 29.97012], [-90.43014, 29.96662], [-90.43811, 29.97115], [-90.43693, 29.97343], [-90.43588, 29.97441], [-90.431, 29.98808], [-90.4283, 29.98794], [-90.42814, 29.98705], [-90.42747, 29.98629], [-90.43081, 29.97683], [-90.43029, 29.97516], [-90.43142, 29.9722], [-90.43123, 29.97091], [-90.43052, 29.9702], [-90.4293, 29.96985], [-90.42824, 29.97006], [-90.42731, 29.97084], [-90.42599, 29.97414], [-90.42513, 29.97487], [-90.42438, 29.97671], [-90.42425, 29.97879], [-90.42245, 29.98375], [-90.42098, 29.98352], [-90.42055, 29.98305], [-90.42291, 29.98074], [-90.42242, 29.97706], [-90.42127, 29.97623], [-90.41966, 29.97625], [-90.41841, 29.97505], [-90.41672, 29.97504], [-90.41605, 29.97359], [-90.41633, 29.97215], [-90.41914, 29.97116], [-90.42005, 29.97012]]], [[[-90.42592, 29.95862], [-90.42653, 29.95998], [-90.42289, 29.95794], [-90.42145, 29.95633], [-90.41965, 29.95613], [-90.41421, 29.95308], [-90.41731, 29.9516], [-90.41811, 29.95023], [-90.41919, 29.95043], [-90.4212, 29.95006], [-90.42259, 29.94936], [-90.42406, 29.94792], [-90.42592, 29.95862]]], [[[-90.38726, 29.9198], [-90.38344, 29.91936], [-90.3848, 29.91759], [-90.38639, 29.91812], [-90.3879, 29.9177], [-90.39076, 29.9145], [-90.39163, 29.91507], [-90.3908, 29.91624], [-90.39077, 29.91729], [-90.39244, 29.92041], [-90.38822, 29.92036], [-90.38726, 29.9198]]], [[[-90.32472, 29.92508], [-90.32451, 29.92536], [-90.32364, 29.9223], [-90.32821, 29.92061], [-90.33868, 29.91778], [-90.33746, 29.92164], [-90.33583, 29.92243], [-90.33548, 29.92407], [-90.33399, 29.92383], [-90.33313, 29.92251], [-90.33128, 29.92204], [-90.32992, 29.92256], [-90.32897, 29.92364], [-90.32866, 29.92632], [-90.32829, 29.92523], [-90.32729, 29.92452], [-90.3258, 29.92446], [-90.32472, 29.92508]]], [[[-90.40048, 29.95667], [-90.40041, 29.95686], [-90.40032, 29.95645], [-90.40048, 29.9566], [-90.40048, 29.95667]]], [[[-90.44652, 30.03682], [-90.44714, 30.03609], [-90.45081, 30.03183], [-90.44789, 30.03783], [-90.44652, 30.03682]]], [[[-90.31889, 29.96334], [-90.3178, 29.96343], [-90.3213, 29.96085], [-90.3221, 29.96067], [-90.3208, 29.96393], [-90.31889, 29.96334]]], [[[-90.34397, 29.9465], [-90.3443, 29.94654], [-90.3445, 29.94658], [-90.34397, 29.94662], [-90.34397, 29.9465]]], [[[-90.34413, 29.94205], [-90.34435, 29.9426], [-90.34062, 29.9428], [-90.34056, 29.94223], [-90.34243, 29.94124], [-90.3439, 29.94162], [-90.34413, 29.94205]]], [[[-90.28161, 29.99696], [-90.2816, 29.99663], [-90.28256, 29.99698], [-90.28159, 29.99727], [-90.28161, 29.99696]]], [[[-90.30179, 29.93718], [-90.30198, 29.9377], [-90.30117, 29.93732], [-90.30179, 29.93718]]], [[[-90.29657, 29.93914], [-90.29718, 29.93816], [-90.299, 29.93777], [-90.29831, 29.93927], [-90.29929, 29.94187], [-90.29829, 29.94237], [-90.2975, 29.94209], [-90.29657, 29.93914]]], [[[-90.21178, 29.88881], [-90.21124, 29.88865], [-90.21221, 29.88569], [-90.2131, 29.88549], [-90.21178, 29.88881]]], [[[-90.19968, 29.8952], [-90.19996, 29.89525], [-90.19974, 29.89583], [-90.19954, 29.89549], [-90.19968, 29.8952]]], [[[-90.1983, 29.89905], [-90.19856, 29.89895], [-90.19567, 29.90681], [-90.19793, 29.90761], [-90.19791, 29.90765], [-90.19648, 29.90729], [-90.19423, 29.90743], [-90.19407, 29.90625], [-90.19525, 29.90666], [-90.19564, 29.90544], [-90.1937, 29.90477], [-90.19457, 29.90311], [-90.19569, 29.90277], [-90.19725, 29.90164], [-90.19771, 29.90069], [-90.19763, 29.89921], [-90.1983, 29.89905]]], [[[-90.17344, 29.90089], [-90.17346, 29.90089], [-90.17115, 29.90459], [-90.17106, 29.90359], [-90.17251, 29.90101], [-90.17105, 29.90351], [-90.1709, 29.90177], [-90.17138, 29.90087], [-90.17344, 29.90089]]], [[[-90.17301, 29.90941], [-90.17267, 29.90842], [-90.17193, 29.90748], [-90.17308, 29.90736], [-90.17336, 29.90904], [-90.17301, 29.90941]]], [[[-90.17335, 29.91153], [-90.17334, 29.91142], [-90.17544, 29.91133], [-90.17417, 29.91231], [-90.17325, 29.91257], [-90.17335, 29.91153]]], [[[-90.14889, 29.88654], [-90.14778, 29.8856], [-90.14976, 29.88481], [-90.15067, 29.88233], [-90.15126, 29.8823], [-90.15152, 29.88338], [-90.15232, 29.88418], [-90.15397, 29.88494], [-90.15501, 29.88502], [-90.15532, 29.88628], [-90.15362, 29.88762], [-90.14889, 29.88654]]], [[[-90.40037, 29.88038], [-90.4006, 29.88161], [-90.40144, 29.88262], [-90.40093, 29.88322], [-90.39955, 29.88312], [-90.40011, 29.88185], [-90.40027, 29.88004], [-90.40051, 29.87979], [-90.40037, 29.88038]]], [[[-90.40141, 29.87847], [-90.40141, 29.87849], [-90.4014, 29.8785], [-90.40141, 29.87847]]], [[[-90.4025, 29.87612], [-90.40169, 29.87727], [-90.40158, 29.87577], [-90.40427, 29.87346], [-90.4025, 29.87612]]], [[[-90.4084, 29.87199], [-90.40528, 29.87275], [-90.40695, 29.87027], [-90.40827, 29.86987], [-90.40923, 29.86878], [-90.41088, 29.86871], [-90.4084, 29.87199]]], [[[-90.36352, 29.95572], [-90.36374, 29.95581], [-90.36359, 29.95607], [-90.36355, 29.95582], [-90.36352, 29.95572]]], [[[-90.32148, 29.90149], [-90.32192, 29.90193], [-90.3205, 29.90241], [-90.3211, 29.90194], [-90.32148, 29.90149]]], [[[-90.34223, 29.88474], [-90.34002, 29.88263], [-90.33991, 29.88223], [-90.34178, 29.88352], [-90.34223, 29.88474]]], [[[-90.14252, 29.87917], [-90.14229, 29.87978], [-90.14312, 29.87715], [-90.14277, 29.87882], [-90.14252, 29.87917]]], [[[-90.15431, 29.87733], [-90.15396, 29.87767], [-90.15369, 29.87676], [-90.15409, 29.87649], [-90.15431, 29.87733]]], [[[-90.44566, 30.02821], [-90.44863, 30.02481], [-90.44983, 30.02653], [-90.44309, 30.03435], [-90.44131, 30.03306], [-90.44566, 30.02821]]], [[[-90.44001, 30.03732], [-90.43853, 30.03627], [-90.43863, 30.03615], [-90.44043, 30.03745], [-90.44001, 30.03732]]], [[[-90.1628, 29.92006], [-90.16233, 29.91917], [-90.16219, 29.91741], [-90.16408, 29.91757], [-90.1628, 29.92006]]], [[[-90.15054, 29.93285], [-90.14918, 29.93148], [-90.14983, 29.93085], [-90.15145, 29.9315], [-90.15054, 29.93285]]], [[[-90.30781, 29.9359], [-90.30906, 29.93575], [-90.30922, 29.93617], [-90.30821, 29.93697], [-90.30781, 29.9359]]], [[[-90.15253, 29.91616], [-90.15264, 29.91619], [-90.15274, 29.91666], [-90.15259, 29.91637], [-90.15253, 29.91616]]], [[[-90.26137, 29.99252], [-90.26115, 29.99251], [-90.26109, 29.99235], [-90.26121, 29.99237], [-90.26137, 29.99252]]], [[[-90.26417, 29.99364], [-90.26404, 29.99352], [-90.26435, 29.99354], [-90.26417, 29.99364]]], [[[-90.22586, 29.92079], [-90.22588, 29.92082], [-90.2258, 29.92085], [-90.22585, 29.92078], [-90.22586, 29.92079]]]]}, "properties": {"kind": "windland", "area_km2": 21.85}}, {"type": "Feature", "geometry": {"type": "MultiPolygon", "coordinates": [[[[-90.3062, 29.93461], [-90.3062, 29.93461], [-90.30614, 29.93679], [-90.30569, 29.93557], [-90.30578, 29.93505], [-90.3062, 29.93461]]], [[[-90.30528, 29.93472], [-90.3051, 29.93587], [-90.30626, 29.93895], [-90.30682, 29.9395], [-90.30695, 29.94078], [-90.30558, 29.94024], [-90.30364, 29.93507], [-90.30528, 29.93472]]], [[[-90.30991, 29.93735], [-90.31028, 29.93736], [-90.31005, 29.93749], [-90.30991, 29.93735]]], [[[-90.30691, 29.93876], [-90.30632, 29.93728], [-90.30795, 29.93731], [-90.30721, 29.9379], [-90.30835, 29.93897], [-90.30769, 29.93918], [-90.30691, 29.93876]]], [[[-90.30994, 29.94029], [-90.31014, 29.94018], [-90.31021, 29.94017], [-90.30992, 29.9403], [-90.30994, 29.94029]]], [[[-90.30757, 29.94071], [-90.3076, 29.94068], [-90.30757, 29.94072], [-90.30757, 29.94071]]], [[[-90.30728, 29.94218], [-90.3086, 29.94035], [-90.31234, 29.9374], [-90.31369, 29.93743], [-90.31139, 29.93935], [-90.31133, 29.93898], [-90.31068, 29.93881], [-90.30864, 29.94039], [-90.30829, 29.94092], [-90.3087, 29.9412], [-90.30771, 29.9419], [-90.30596, 29.94421], [-90.3036, 29.94628], [-90.30191, 29.94868], [-90.29838, 29.95229], [-90.29827, 29.9521], [-90.29847, 29.95172], [-90.29832, 29.95147], [-90.2979, 29.9514], [-90.29752, 29.95164], [-90.30728, 29.94218]]], [[[-90.31398, 29.94618], [-90.31632, 29.9433], [-90.31625, 29.94596], [-90.31529, 29.94757], [-90.308, 29.95486], [-90.30573, 29.95795], [-90.2973, 29.9645], [-90.29564, 29.9664], [-90.2944, 29.96712], [-90.29417, 29.96752], [-90.29364, 29.9677], [-90.2934, 29.96814], [-90.29233, 29.9689], [-90.29001, 29.96974], [-90.28937, 29.97021], [-90.28573, 29.97177], [-90.28016, 29.97391], [-90.27757, 29.97456], [-90.27649, 29.97419], [-90.27499, 29.97436], [-90.27456, 29.97481], [-90.27432, 29.97482], [-90.27382, 29.97448], [-90.27266, 29.97458], [-90.2719, 29.97471], [-90.27156, 29.97503], [-90.27085, 29.97498], [-90.26991, 29.97525], [-90.26944, 29.97499], [-90.26858, 29.97513], [-90.26644, 29.97461], [-90.26471, 29.97462], [-90.26417, 29.97445], [-90.26325, 29.97462], [-90.263, 29.97491], [-90.263, 29.97532], [-90.26253, 29.97526], [-90.26219, 29.97542], [-90.26215, 29.97502], [-90.2618, 29.97473], [-90.26108, 29.97482], [-90.2606, 29.9745], [-90.2592, 29.9743], [-90.25859, 29.97445], [-90.25828, 29.97476], [-90.2579, 29.9745], [-90.25722, 29.97438], [-90.2566, 29.97462], [-90.25629, 29.97453], [-90.25601, 29.97491], [-90.25567, 29.97443], [-90.25539, 29.97449], [-90.25525, 29.97477], [-90.25472, 29.97447], [-90.25363, 29.9743], [-90.25353, 29.97397], [-90.25321, 29.97374], [-90.25268, 29.97372], [-90.25227, 29.97415], [-90.25209, 29.97411], [-90.25206, 29.97371], [-90.25164, 29.97336], [-90.2511, 29.97338], [-90.25077, 29.97372], [-90.25053, 29.97365], [-90.25045, 29.97324], [-90.25013, 29.973], [-90.2493, 29.97287], [-90.24887, 29.97304], [-90.24848, 29.9727], [-90.24761, 29.97269], [-90.24619, 29.97238], [-90.24584, 29.97211], [-90.24328, 29.97158], [-90.24288, 29.97132], [-90.24183, 29.9713], [-90.24154, 29.97106], [-90.24078, 29.97091], [-90.24058, 29.9706], [-90.24484, 29.97162], [-90.24522, 29.97159], [-90.24541, 29.97191], [-90.24649, 29.97219], [-90.24688, 29.97211], [-90.24759, 29.97238], [-90.24807, 29.97214], [-90.25013, 29.97293], [-90.25519, 29.97394], [-90.27091, 29.97463], [-90.27397, 29.97432], [-90.27423, 29.97389], [-90.27394, 29.97389], [-90.27617, 29.97355], [-90.27634, 29.97363], [-90.27567, 29.97381], [-90.27641, 29.97403], [-90.27882, 29.97393], [-90.28149, 29.97313], [-90.2818, 29.97231], [-90.28162, 29.97236], [-90.28204, 29.97212], [-90.28526, 29.97081], [-90.28724, 29.96963], [-90.29024, 29.96832], [-90.29056, 29.96794], [-90.29141, 29.96775], [-90.29196, 29.96712], [-90.29312, 29.96667], [-90.29411, 29.96584], [-90.29702, 29.96416], [-90.30132, 29.96096], [-90.30482, 29.95775], [-90.30713, 29.95525], [-90.31333, 29.9471], [-90.31367, 29.94719], [-90.31394, 29.94704], [-90.31398, 29.94618]]], [[[-90.31394, 29.95529], [-90.3136, 29.95503], [-90.31354, 29.95455], [-90.31314, 29.95417], [-90.31321, 29.95386], [-90.31289, 29.9537], [-90.3128, 29.95322], [-90.31255, 29.95307], [-90.31187, 29.95182], [-90.31514, 29.94858], [-90.31612, 29.9506], [-90.31607, 29.95259], [-90.31478, 29.95028], [-90.31393, 29.95056], [-90.31453, 29.95171], [-90.31418, 29.95206], [-90.31495, 29.95318], [-90.316, 29.95535], [-90.3159, 29.959], [-90.31574, 29.95899], [-90.31572, 29.95849], [-90.31538, 29.95833], [-90.31457, 29.95681], [-90.31461, 29.9565], [-90.31432, 29.95636], [-90.31385, 29.95549], [-90.31394, 29.95529]]], [[[-90.31511, 29.95277], [-90.31502, 29.95256], [-90.31546, 29.95338], [-90.31526, 29.95306], [-90.31511, 29.95277]]], [[[-90.31562, 29.95367], [-90.31549, 29.95342], [-90.31605, 29.95318], [-90.316, 29.9551], [-90.31565, 29.95442], [-90.31562, 29.95367]]], [[[-90.3116, 29.96511], [-90.30885, 29.95814], [-90.30906, 29.95781], [-90.30816, 29.9556], [-90.30874, 29.95495], [-90.31256, 29.96443], [-90.3116, 29.96511]]], [[[-90.30405, 29.96187], [-90.3043, 29.96139], [-90.304, 29.9607], [-90.30481, 29.9601], [-90.30532, 29.96181], [-90.30502, 29.96213], [-90.30587, 29.96485], [-90.30569, 29.96514], [-90.30599, 29.96537], [-90.30712, 29.96507], [-90.30732, 29.96481], [-90.30683, 29.96307], [-90.30685, 29.96254], [-90.30914, 29.96194], [-90.31088, 29.96568], [-90.30951, 29.96653], [-90.30591, 29.96805], [-90.30385, 29.96196], [-90.30405, 29.96187]]], [[[-90.30466, 29.96631], [-90.30526, 29.96831], [-90.30315, 29.96197], [-90.30321, 29.96199], [-90.30466, 29.96631]]], [[[-90.31566, 29.96629], [-90.31515, 29.96685], [-90.31522, 29.96725], [-90.31403, 29.96746], [-90.313, 29.96847], [-90.31337, 29.96967], [-90.31392, 29.96988], [-90.31453, 29.97174], [-90.31293, 29.97129], [-90.31095, 29.96634], [-90.3158, 29.96276], [-90.31566, 29.96629]]], [[[-90.29899, 29.97027], [-90.29938, 29.97007], [-90.29897, 29.96885], [-90.29861, 29.96893], [-90.29856, 29.96869], [-90.29911, 29.96834], [-90.29892, 29.96731], [-90.29928, 29.96704], [-90.29856, 29.9645], [-90.29899, 29.96545], [-90.29949, 29.96557], [-90.30018, 29.96539], [-90.30176, 29.96973], [-90.2992, 29.97079], [-90.29899, 29.97027]]], [[[-90.30769, 29.96905], [-90.3064, 29.96952], [-90.30608, 29.96857], [-90.3093, 29.96723], [-90.30982, 29.96835], [-90.30769, 29.96905]]], [[[-90.30596, 29.97013], [-90.29857, 29.97203], [-90.29827, 29.97176], [-90.30551, 29.96881], [-90.30596, 29.97013]]], [[[-90.30754, 29.9701], [-90.30658, 29.97004], [-90.30918, 29.96914], [-90.30969, 29.9704], [-90.30754, 29.9701]]], [[[-90.30522, 29.97096], [-90.30478, 29.97132], [-90.30464, 29.97192], [-90.30476, 29.97232], [-90.30246, 29.97292], [-90.30222, 29.97246], [-90.30159, 29.97256], [-90.30128, 29.97186], [-90.30543, 29.9708], [-90.30522, 29.97096]]], [[[-90.30832, 29.9707], [-90.31035, 29.97114], [-90.31, 29.97179], [-90.30757, 29.9711], [-90.30693, 29.97113], [-90.30678, 29.97065], [-90.30832, 29.9707]]], [[[-90.30829, 29.97203], [-90.30721, 29.97199], [-90.3071, 29.97165], [-90.30913, 29.97211], [-90.30829, 29.97203]]], [[[-90.31492, 29.97288], [-90.31505, 29.9732], [-90.31307, 29.97265], [-90.31264, 29.97178], [-90.31468, 29.97236], [-90.31492, 29.97288]]], [[[-90.31553, 29.97259], [-90.31553, 29.97276], [-90.31544, 29.97257], [-90.31553, 29.97259]]], [[[-90.30474, 29.97312], [-90.30453, 29.97336], [-90.30471, 29.97405], [-90.30414, 29.97425], [-90.30382, 29.97325], [-90.3049, 29.97296], [-90.30474, 29.97312]]], [[[-90.3154, 29.97384], [-90.3155, 29.97393], [-90.31339, 29.97331], [-90.31493, 29.97374], [-90.3154, 29.97384]]], [[[-90.30242, 29.97363], [-90.3024, 29.97368], [-90.30239, 29.97372], [-90.30236, 29.97364], [-90.30242, 29.97363]]], [[[-90.30075, 29.97426], [-90.30045, 29.97447], [-90.30035, 29.9742], [-90.30091, 29.97404], [-90.30097, 29.9742], [-90.30075, 29.97426]]], [[[-90.30266, 29.97424], [-90.30307, 29.97418], [-90.30311, 29.97374], [-90.30346, 29.97498], [-90.30376, 29.97516], [-90.30395, 29.9758], [-90.30279, 29.97612], [-90.30272, 29.97517], [-90.30231, 29.97473], [-90.30179, 29.9746], [-90.30229, 29.97441], [-90.30247, 29.97398], [-90.30266, 29.97424]]], [[[-90.30749, 29.97528], [-90.30881, 29.97446], [-90.30921, 29.97441], [-90.31273, 29.97534], [-90.31439, 29.97604], [-90.31503, 29.97607], [-90.31342, 29.97626], [-90.30922, 29.97513], [-90.30788, 29.97588], [-90.30625, 29.97625], [-90.30469, 29.97703], [-90.30421, 29.97717], [-90.30388, 29.97698], [-90.30377, 29.97663], [-90.30591, 29.97569], [-90.30749, 29.97528]]], [[[-90.31544, 29.97608], [-90.31532, 29.97607], [-90.31544, 29.97607], [-90.31544, 29.97608]]], [[[-90.30058, 29.97837], [-90.30211, 29.9771], [-90.30289, 29.97687], [-90.30309, 29.97713], [-90.30305, 29.97749], [-90.30248, 29.97763], [-90.30152, 29.97837], [-90.29123, 29.99006], [-90.291, 29.99001], [-90.29083, 29.98986], [-90.29273, 29.98742], [-90.30058, 29.97837]]], [[[-90.30295, 29.93522], [-90.3056, 29.94261], [-90.30459, 29.94353], [-90.30427, 29.94274], [-90.30384, 29.94267], [-90.30295, 29.94023], [-90.30272, 29.94], [-90.3021, 29.94015], [-90.30324, 29.94424], [-90.30302, 29.94447], [-90.30081, 29.93905], [-90.30057, 29.9389], [-90.30032, 29.93897], [-90.30024, 29.93926], [-90.3017, 29.94279], [-90.30054, 29.94324], [-90.30112, 29.9451], [-90.30074, 29.94507], [-90.30021, 29.94365], [-90.29944, 29.94331], [-90.29987, 29.94553], [-90.29959, 29.94605], [-90.29959, 29.94652], [-90.29914, 29.94676], [-90.29945, 29.94775], [-90.29914, 29.94819], [-90.29783, 29.94462], [-90.29758, 29.94453], [-90.29716, 29.94373], [-90.29659, 29.94164], [-90.29552, 29.94173], [-90.2943, 29.93824], [-90.29477, 29.93813], [-90.29504, 29.93785], [-90.29524, 29.93737], [-90.2952, 29.93683], [-90.30295, 29.93522]], [[-90.30185, 29.93761], [-90.30198, 29.9377], [-90.30179, 29.93718], [-90.30117, 29.93732], [-90.30185, 29.93761]], [[-90.29856, 29.94216], [-90.29929, 29.94187], [-90.29831, 29.93927], [-90.29844, 29.93852], [-90.299, 29.93777], [-90.29718, 29.93816], [-90.2965, 29.93922], [-90.2975, 29.94209], [-90.29829, 29.94237], [-90.29856, 29.94216]]], [[[-90.29173, 29.93829], [-90.29329, 29.9381], [-90.29564, 29.94499], [-90.29381, 29.94538], [-90.29354, 29.9457], [-90.29547, 29.95081], [-90.29549, 29.95103], [-90.29463, 29.95137], [-90.29448, 29.95115], [-90.2942, 29.95113], [-90.29151, 29.94341], [-90.29157, 29.94324], [-90.29303, 29.94279], [-90.29161, 29.93854], [-90.29173, 29.93829]]], [[[-90.28774, 29.94402], [-90.28726, 29.94277], [-90.28823, 29.94226], [-90.28902, 29.94472], [-90.288, 29.94495], [-90.28774, 29.94402]]], [[[-90.28973, 29.94592], [-90.2916, 29.95133], [-90.29175, 29.9513], [-90.29192, 29.95175], [-90.29155, 29.95172], [-90.29135, 29.95066], [-90.29113, 29.95047], [-90.28973, 29.94592]]], [[[-90.2873, 29.94591], [-90.28731, 29.94594], [-90.28722, 29.94593], [-90.28724, 29.94592], [-90.2873, 29.94591]]], [[[-90.28841, 29.95041], [-90.28839, 29.95043], [-90.2873, 29.94649], [-90.28746, 29.94648], [-90.28858, 29.95035], [-90.28841, 29.95041]]], [[[-90.29326, 29.9509], [-90.29289, 29.94984], [-90.29241, 29.94816], [-90.2926, 29.94824], [-90.29417, 29.95234], [-90.29376, 29.95243], [-90.29326, 29.9509]]], [[[-90.28493, 29.9517], [-90.28428, 29.95199], [-90.28335, 29.95294], [-90.28196, 29.95334], [-90.2821, 29.95571], [-90.28271, 29.95712], [-90.28348, 29.95727], [-90.28416, 29.95767], [-90.28556, 29.95721], [-90.28454, 29.95299], [-90.28487, 29.95209], [-90.28567, 29.95144], [-90.28612, 29.953], [-90.28657, 29.9528], [-90.28615, 29.95126], [-90.28649, 29.9512], [-90.28639, 29.95047], [-90.286, 29.95072], [-90.28543, 29.94863], [-90.28584, 29.94818], [-90.28824, 29.95678], [-90.28989, 29.95601], [-90.2894, 29.95402], [-90.29013, 29.95592], [-90.28912, 29.95653], [-90.28929, 29.95679], [-90.28885, 29.95701], [-90.2885, 29.95672], [-90.28815, 29.95697], [-90.28705, 29.95304], [-90.2866, 29.95289], [-90.28645, 29.95318], [-90.28745, 29.95695], [-90.28788, 29.9575], [-90.2867, 29.95862], [-90.28318, 29.95975], [-90.28287, 29.9589], [-90.28247, 29.95881], [-90.28231, 29.95908], [-90.2826, 29.95995], [-90.27974, 29.96089], [-90.2795, 29.95891], [-90.27905, 29.9584], [-90.27934, 29.95813], [-90.27938, 29.95772], [-90.27895, 29.95718], [-90.27881, 29.95666], [-90.2786, 29.95381], [-90.27828, 29.95313], [-90.27818, 29.95216], [-90.27653, 29.95239], [-90.27699, 29.95694], [-90.27644, 29.95682], [-90.27642, 29.95159], [-90.27739, 29.9514], [-90.278, 29.95189], [-90.27852, 29.95196], [-90.27904, 29.9513], [-90.28007, 29.95127], [-90.2811, 29.95075], [-90.28148, 29.95086], [-90.28145, 29.95136], [-90.28187, 29.9515], [-90.28235, 29.95123], [-90.28212, 29.95074], [-90.28271, 29.95036], [-90.28522, 29.94988], [-90.28558, 29.95113], [-90.28493, 29.9517]]], [[[-90.28863, 29.9509], [-90.28878, 29.95105], [-90.28764, 29.95155], [-90.28827, 29.95372], [-90.28794, 29.95371], [-90.28755, 29.9515], [-90.28856, 29.95107], [-90.28863, 29.9509]]], [[[-90.29656, 29.95254], [-90.29747, 29.95168], [-90.29567, 29.95358], [-90.2957, 29.95395], [-90.29603, 29.95409], [-90.29697, 29.95356], [-90.29622, 29.95438], [-90.29243, 29.95689], [-90.29223, 29.95698], [-90.29265, 29.95669], [-90.29272, 29.95638], [-90.29219, 29.95617], [-90.28812, 29.95824], [-90.28784, 29.95852], [-90.28798, 29.95892], [-90.28845, 29.95897], [-90.29191, 29.95715], [-90.29101, 29.95785], [-90.28909, 29.95887], [-90.27838, 29.96264], [-90.27741, 29.96292], [-90.27753, 29.96255], [-90.27555, 29.96312], [-90.27785, 29.96207], [-90.2784, 29.96202], [-90.27915, 29.96164], [-90.28699, 29.9591], [-90.28819, 29.95796], [-90.29172, 29.95613], [-90.29656, 29.95254]], [[-90.29431, 29.95492], [-90.29399, 29.95485], [-90.29348, 29.95506], [-90.29321, 29.95542], [-90.29331, 29.95571], [-90.29371, 29.95579], [-90.29429, 29.95545], [-90.29444, 29.95517], [-90.29431, 29.95492]]], [[[-90.3, 29.9649], [-90.29941, 29.96503], [-90.29931, 29.96489], [-90.29901, 29.96389], [-90.29953, 29.96349], [-90.3, 29.9649]]], [[[-90.29802, 29.96665], [-90.29796, 29.96594], [-90.29721, 29.96544], [-90.29787, 29.96477], [-90.29855, 29.96678], [-90.29802, 29.96665]]], [[[-90.29282, 29.97032], [-90.29287, 29.97063], [-90.29246, 29.97064], [-90.29222, 29.97047], [-90.29226, 29.97022], [-90.29282, 29.97032]]], [[[-90.29384, 29.97223], [-90.29368, 29.97099], [-90.2941, 29.97088], [-90.2948, 29.97259], [-90.29415, 29.97285], [-90.29384, 29.97223]]], [[[-90.29756, 29.97217], [-90.29776, 29.9722], [-90.29573, 29.97281], [-90.29741, 29.97211], [-90.29756, 29.97217]]], [[[-90.29711, 29.973], [-90.29728, 29.97295], [-90.29743, 29.9734], [-90.29729, 29.97349], [-90.29711, 29.973]]], [[[-90.29521, 29.9744], [-90.29544, 29.97483], [-90.29396, 29.97523], [-90.294, 29.97389], [-90.295, 29.97362], [-90.29521, 29.9744]]], [[[-90.30046, 29.97737], [-90.30003, 29.97783], [-90.2994, 29.97667], [-90.29936, 29.97607], [-90.2988, 29.97461], [-90.29966, 29.97439], [-90.30058, 29.97728], [-90.30046, 29.97737]]], [[[-90.29222, 29.97739], [-90.29293, 29.97726], [-90.29357, 29.97678], [-90.29375, 29.97999], [-90.29416, 29.98034], [-90.29412, 29.98052], [-90.29363, 29.98061], [-90.29359, 29.98114], [-90.29243, 29.98158], [-90.29222, 29.97739]]], [[[-90.29315, 29.98346], [-90.29357, 29.98345], [-90.29395, 29.98325], [-90.29351, 29.98382], [-90.29284, 29.98383], [-90.29292, 29.98328], [-90.29315, 29.98346]]], [[[-90.29049, 29.99053], [-90.29064, 29.99071], [-90.29038, 29.99112], [-90.28694, 29.99497], [-90.28629, 29.99538], [-90.28598, 29.99515], [-90.28697, 29.99397], [-90.29025, 29.99037], [-90.29049, 29.99053]]], [[[-90.28567, 29.99606], [-90.28569, 29.99606], [-90.2857, 29.99612], [-90.28569, 29.99608], [-90.28567, 29.99606]]], [[[-90.28512, 29.99631], [-90.28429, 29.99892], [-90.28273, 29.99864], [-90.2819, 29.99923], [-90.27992, 30.00011], [-90.2793, 29.99968], [-90.27931, 29.99941], [-90.27956, 29.9992], [-90.27945, 29.99894], [-90.27873, 29.99887], [-90.27863, 29.99853], [-90.27718, 29.99794], [-90.27455, 29.99776], [-90.27416, 29.99755], [-90.27367, 29.99759], [-90.27311, 29.99722], [-90.27144, 29.997], [-90.26929, 29.997], [-90.26873, 29.99682], [-90.26816, 29.99693], [-90.26818, 29.99665], [-90.26763, 29.99641], [-90.26734, 29.99599], [-90.26619, 29.99592], [-90.26578, 29.99663], [-90.26504, 29.99679], [-90.2648, 29.99747], [-90.26499, 29.99797], [-90.26566, 29.99816], [-90.26543, 30.00126], [-90.26411, 30.00075], [-90.26149, 30.00051], [-90.2602, 29.99905], [-90.25989, 29.99714], [-90.26034, 29.99703], [-90.26058, 29.99669], [-90.26114, 29.99687], [-90.2616, 29.99674], [-90.26189, 29.99611], [-90.26169, 29.99567], [-90.26085, 29.99548], [-90.26035, 29.99592], [-90.25897, 29.99533], [-90.25751, 29.99498], [-90.25791, 29.99346], [-90.25766, 29.99302], [-90.25716, 29.99277], [-90.25659, 29.99282], [-90.25615, 29.99317], [-90.25591, 29.99474], [-90.25465, 29.99467], [-90.25464, 29.99307], [-90.2542, 29.99267], [-90.25356, 29.9926], [-90.25311, 29.99281], [-90.25285, 29.99321], [-90.25296, 29.99536], [-90.25143, 29.99564], [-90.25101, 29.99605], [-90.25097, 29.99702], [-90.25024, 29.99789], [-90.2491, 30.00169], [-90.24774, 30.00205], [-90.2477, 30.00235], [-90.24809, 30.00249], [-90.24809, 30.00273], [-90.24773, 30.00306], [-90.24743, 30.00425], [-90.24672, 30.00433], [-90.2461, 30.00476], [-90.24618, 30.00661], [-90.24468, 30.00653], [-90.24461, 30.00623], [-90.24437, 30.00612], [-90.24363, 30.00646], [-90.24363, 30.00593], [-90.24331, 30.00561], [-90.24368, 30.0053], [-90.24383, 30.00444], [-90.2441, 30.00411], [-90.24501, 30.00159], [-90.24588, 29.99826], [-90.24811, 29.99162], [-90.24837, 29.98853], [-90.24881, 29.98869], [-90.24929, 29.98858], [-90.24958, 29.98817], [-90.24939, 29.98771], [-90.24984, 29.98769], [-90.25017, 29.98739], [-90.25007, 29.9868], [-90.24947, 29.9866], [-90.25094, 29.98241], [-90.25115, 29.98211], [-90.25173, 29.98185], [-90.25542, 29.98245], [-90.2554, 29.98263], [-90.25491, 29.98241], [-90.25415, 29.98257], [-90.25374, 29.98288], [-90.25379, 29.98349], [-90.25436, 29.98418], [-90.25262, 29.98641], [-90.2525, 29.98701], [-90.25282, 29.98738], [-90.25347, 29.98753], [-90.25387, 29.9874], [-90.25527, 29.98545], [-90.25589, 29.98588], [-90.25477, 29.98726], [-90.25499, 29.98797], [-90.25625, 29.9883], [-90.25672, 29.98821], [-90.25711, 29.98773], [-90.25683, 29.98707], [-90.25716, 29.98667], [-90.25753, 29.98698], [-90.25818, 29.98852], [-90.25912, 29.98884], [-90.25971, 29.98856], [-90.25992, 29.98795], [-90.25905, 29.98657], [-90.2591, 29.98597], [-90.2597, 29.98615], [-90.26019, 29.98584], [-90.26046, 29.98588], [-90.26061, 29.98591], [-90.25981, 29.98639], [-90.25972, 29.98681], [-90.2602, 29.98791], [-90.26073, 29.98806], [-90.26123, 29.98776], [-90.26156, 29.98782], [-90.26093, 29.98814], [-90.26071, 29.98846], [-90.26078, 29.98883], [-90.26124, 29.98935], [-90.26172, 29.98939], [-90.26263, 29.98891], [-90.26277, 29.9885], [-90.26249, 29.98798], [-90.264, 29.98821], [-90.2635, 29.9899], [-90.26374, 29.99037], [-90.26452, 29.99058], [-90.26501, 29.99036], [-90.26564, 29.99052], [-90.26624, 29.99037], [-90.26693, 29.99072], [-90.26747, 29.9908], [-90.2685, 29.99053], [-90.26858, 29.9913], [-90.26937, 29.99154], [-90.27049, 29.99134], [-90.27093, 29.99103], [-90.27106, 29.9904], [-90.27094, 29.98944], [-90.27123, 29.98902], [-90.27198, 29.98936], [-90.27124, 29.98979], [-90.27127, 29.9906], [-90.27162, 29.99082], [-90.27265, 29.99087], [-90.27278, 29.99153], [-90.27377, 29.99207], [-90.27428, 29.99198], [-90.27456, 29.99159], [-90.27453, 29.99114], [-90.27412, 29.99055], [-90.27348, 29.99034], [-90.27353, 29.98982], [-90.27408, 29.98979], [-90.27442, 29.98948], [-90.27444, 29.98824], [-90.27782, 29.99055], [-90.27737, 29.99101], [-90.27733, 29.99137], [-90.27909, 29.99269], [-90.27909, 29.99372], [-90.27928, 29.99406], [-90.2843, 29.99575], [-90.28512, 29.99631]], [[-90.26417, 29.99364], [-90.26435, 29.99354], [-90.26404, 29.99352], [-90.26417, 29.99364]], [[-90.27762, 29.99627], [-90.2771, 29.99639], [-90.27687, 29.99685], [-90.277, 29.99725], [-90.2775, 29.99748], [-90.27796, 29.99736], [-90.2782, 29.99697], [-90.27806, 29.99651], [-90.27762, 29.99627]], [[-90.2816, 29.99663], [-90.28159, 29.99727], [-90.28256, 29.99698], [-90.28223, 29.99686], [-90.2816, 29.99663]], [[-90.26119, 29.99237], [-90.26115, 29.99251], [-90.2614, 29.99253], [-90.26121, 29.99237], [-90.26119, 29.99237]]], [[[-90.2846, 29.99942], [-90.28486, 29.99917], [-90.28573, 29.99619], [-90.28576, 29.99703], [-90.28738, 29.9975], [-90.28943, 29.99886], [-90.28542, 29.99807], [-90.28518, 29.99824], [-90.28475, 29.9995], [-90.2846, 29.99942]]], [[[-90.28283, 29.99922], [-90.2833, 29.99924], [-90.28054, 30.00048], [-90.28232, 29.99964], [-90.28283, 29.99922]]], [[[-90.26825, 29.92281], [-90.26807, 29.92339], [-90.26833, 29.92047], [-90.26905, 29.92048], [-90.26943, 29.92018], [-90.26952, 29.92029], [-90.26874, 29.92151], [-90.26825, 29.92281]]], [[[-90.26939, 29.92991], [-90.26958, 29.93016], [-90.27084, 29.93051], [-90.26956, 29.93566], [-90.26624, 29.94108], [-90.2649, 29.94089], [-90.26619, 29.93843], [-90.26698, 29.93607], [-90.26773, 29.92805], [-90.26938, 29.92902], [-90.26939, 29.92991]]], [[[-90.27163, 29.95056], [-90.27169, 29.95118], [-90.2711, 29.95126], [-90.27148, 29.9505], [-90.27163, 29.95056]]], [[[-90.27206, 29.95218], [-90.27108, 29.95226], [-90.27105, 29.95181], [-90.27202, 29.95165], [-90.27206, 29.95218]]], [[[-90.27033, 29.95236], [-90.27017, 29.95234], [-90.27011, 29.95215], [-90.27045, 29.95212], [-90.27046, 29.9524], [-90.27033, 29.95236]]], [[[-90.27404, 29.95318], [-90.27366, 29.95271], [-90.27281, 29.95263], [-90.27278, 29.95223], [-90.27397, 29.95222], [-90.2744, 29.95466], [-90.27414, 29.95464], [-90.27404, 29.95318]]], [[[-90.27454, 29.95639], [-90.27458, 29.95699], [-90.2743, 29.95679], [-90.27418, 29.95519], [-90.27445, 29.95521], [-90.27454, 29.95639]]], [[[-90.27462, 29.95763], [-90.27489, 29.96152], [-90.27468, 29.96159], [-90.27438, 29.95785], [-90.27462, 29.95763]]], [[[-90.27581, 29.96231], [-90.27552, 29.96164], [-90.27544, 29.96047], [-90.27639, 29.95992], [-90.27619, 29.96047], [-90.27659, 29.96207], [-90.27581, 29.96231]]], [[[-90.27347, 29.96114], [-90.27337, 29.95997], [-90.27346, 29.95977], [-90.27391, 29.95976], [-90.27413, 29.96246], [-90.27365, 29.96279], [-90.27347, 29.96114]]], [[[-90.27513, 29.96323], [-90.27398, 29.96357], [-90.27187, 29.96457], [-90.26746, 29.96526], [-90.25954, 29.96576], [-90.25705, 29.96618], [-90.25463, 29.966], [-90.25202, 29.96555], [-90.25097, 29.96517], [-90.25704, 29.96598], [-90.25956, 29.96548], [-90.26685, 29.96509], [-90.27185, 29.9641], [-90.27221, 29.96433], [-90.27265, 29.96392], [-90.27478, 29.9632], [-90.27513, 29.96323]]], [[[-90.26858, 29.97396], [-90.2697, 29.97384], [-90.27257, 29.97395], [-90.27036, 29.97418], [-90.26831, 29.97398], [-90.26858, 29.97396]]], [[[-90.2785, 29.97701], [-90.27861, 29.97637], [-90.27904, 29.97635], [-90.27965, 29.97601], [-90.28015, 29.97618], [-90.28043, 29.97577], [-90.28102, 29.97554], [-90.28113, 29.97472], [-90.2807, 29.97429], [-90.28307, 29.9734], [-90.28305, 29.97596], [-90.27852, 29.97719], [-90.2785, 29.97701]]], [[[-90.27711, 29.97753], [-90.27712, 29.97757], [-90.27698, 29.9776], [-90.277, 29.97746], [-90.27711, 29.97753]]], [[[-90.26799, 29.97818], [-90.26826, 29.97701], [-90.26865, 29.97692], [-90.26853, 29.9786], [-90.26808, 29.97865], [-90.26799, 29.97818]]], [[[-90.27351, 29.97786], [-90.27354, 29.97817], [-90.27301, 29.97822], [-90.27302, 29.97806], [-90.27351, 29.97786]]], [[[-90.27293, 29.97898], [-90.27288, 29.97904], [-90.27262, 29.97901], [-90.27299, 29.97894], [-90.27293, 29.97898]]], [[[-90.27213, 29.97922], [-90.2721, 29.97925], [-90.2708, 29.97944], [-90.27231, 29.97908], [-90.27213, 29.97922]]], [[[-90.27053, 29.97908], [-90.27075, 29.97902], [-90.2708, 29.97944], [-90.27041, 29.9795], [-90.27053, 29.97908]]], [[[-90.26812, 29.97951], [-90.26747, 29.97972], [-90.26725, 29.97961], [-90.26754, 29.97935], [-90.26827, 29.97917], [-90.26812, 29.97951]]], [[[-90.2803, 29.97986], [-90.28028, 29.97961], [-90.28036, 29.97959], [-90.28036, 29.97983], [-90.2803, 29.97986]]], [[[-90.28022, 29.98112], [-90.28022, 29.98106], [-90.28027, 29.98109], [-90.28022, 29.98112]]], [[[-90.28019, 29.98256], [-90.28018, 29.98257], [-90.28018, 29.98256], [-90.28019, 29.98256]]], [[[-90.28017, 29.98317], [-90.28021, 29.98322], [-90.28017, 29.98328], [-90.28017, 29.98317]]], [[[-90.2672, 29.98455], [-90.26752, 29.98479], [-90.26801, 29.98484], [-90.26854, 29.98447], [-90.26966, 29.98524], [-90.26645, 29.98501], [-90.26649, 29.98451], [-90.2672, 29.98455]]], [[[-90.27071, 29.9849], [-90.27112, 29.98478], [-90.27108, 29.98522], [-90.27066, 29.98493], [-90.27071, 29.9849]]], [[[-90.28015, 29.98505], [-90.28028, 29.98516], [-90.28027, 29.98606], [-90.28013, 29.9861], [-90.28015, 29.98505]]], [[[-90.27474, 29.9872], [-90.27481, 29.98634], [-90.27529, 29.98581], [-90.27492, 29.98479], [-90.27501, 29.98455], [-90.27543, 29.98471], [-90.27544, 29.98505], [-90.27526, 29.98699], [-90.2749, 29.98726], [-90.27481, 29.98776], [-90.27451, 29.98756], [-90.27474, 29.9872]]], [[[-90.2694, 29.98791], [-90.26871, 29.98808], [-90.26709, 29.98803], [-90.2671, 29.98791], [-90.26889, 29.98802], [-90.26932, 29.98768], [-90.2694, 29.98724], [-90.26908, 29.9865], [-90.26837, 29.98625], [-90.26812, 29.98578], [-90.26761, 29.98567], [-90.26643, 29.98577], [-90.26655, 29.98556], [-90.26973, 29.98579], [-90.2694, 29.98791]]], [[[-90.26837, 29.98901], [-90.26833, 29.98861], [-90.26852, 29.98862], [-90.26841, 29.98902], [-90.26837, 29.98901]]], [[[-90.26663, 29.98938], [-90.26646, 29.98945], [-90.26657, 29.98909], [-90.26676, 29.98935], [-90.26663, 29.98938]]], [[[-90.26762, 29.98941], [-90.26763, 29.98941], [-90.26764, 29.9894], [-90.26763, 29.98942], [-90.26762, 29.98941]]], [[[-90.27972, 29.99367], [-90.27973, 29.99351], [-90.28, 29.99373], [-90.27986, 29.9937], [-90.27972, 29.99367]]], [[[-90.28055, 29.99387], [-90.28049, 29.99385], [-90.28052, 29.99385], [-90.28055, 29.99387]]], [[[-90.27763, 30.00731], [-90.2775, 30.00778], [-90.27705, 30.00784], [-90.27654, 30.00821], [-90.27612, 30.00882], [-90.27511, 30.00879], [-90.27504, 30.00742], [-90.27774, 30.00721], [-90.27763, 30.00731]]], [[[-90.27885, 30.00882], [-90.2789, 30.00887], [-90.27877, 30.00887], [-90.2788, 30.00885], [-90.27885, 30.00882]]], [[[-90.26853, 29.9191], [-90.26844, 29.9191], [-90.26846, 29.91893], [-90.26853, 29.9191]]], [[[-90.26309, 29.9242], [-90.26285, 29.92318], [-90.26295, 29.92215], [-90.26339, 29.92119], [-90.26443, 29.9201], [-90.26471, 29.9184], [-90.26307, 29.91865], [-90.26152, 29.91832], [-90.26787, 29.91845], [-90.26755, 29.92218], [-90.26688, 29.92218], [-90.26624, 29.92294], [-90.26637, 29.9233], [-90.26675, 29.92356], [-90.26744, 29.92352], [-90.26636, 29.93598], [-90.26561, 29.93823], [-90.26427, 29.94078], [-90.26082, 29.93975], [-90.25173, 29.93568], [-90.24993, 29.93301], [-90.26051, 29.93776], [-90.26326, 29.9388], [-90.26449, 29.93566], [-90.26533, 29.92625], [-90.26393, 29.92537], [-90.26309, 29.9242]]], [[[-90.26107, 29.94381], [-90.26226, 29.94424], [-90.26221, 29.94432], [-90.26107, 29.94381]]], [[[-90.26062, 29.95132], [-90.26084, 29.95142], [-90.26067, 29.9514], [-90.26062, 29.95132]]], [[[-90.26145, 29.95231], [-90.2615, 29.95189], [-90.26121, 29.95157], [-90.26283, 29.95211], [-90.2621, 29.95512], [-90.26582, 29.95492], [-90.26584, 29.95521], [-90.26187, 29.95532], [-90.26106, 29.95269], [-90.26145, 29.95231]]], [[[-90.26578, 29.95583], [-90.26556, 29.95577], [-90.26538, 29.95569], [-90.26586, 29.95554], [-90.26578, 29.95583]]], [[[-90.26446, 29.95588], [-90.26446, 29.95584], [-90.2646, 29.95581], [-90.26458, 29.95583], [-90.26446, 29.95588]]], [[[-90.25989, 29.95646], [-90.26054, 29.95649], [-90.2613, 29.95693], [-90.26115, 29.95714], [-90.25989, 29.95646]]], [[[-90.26484, 29.95701], [-90.265, 29.957], [-90.26501, 29.95723], [-90.2648, 29.95771], [-90.26454, 29.95747], [-90.26452, 29.95695], [-90.26484, 29.95701]]], [[[-90.2571, 29.95717], [-90.25733, 29.95709], [-90.25765, 29.95769], [-90.25829, 29.95771], [-90.25892, 29.95706], [-90.2588, 29.95644], [-90.26108, 29.95753], [-90.26068, 29.95835], [-90.26068, 29.95883], [-90.26155, 29.95922], [-90.26131, 29.95929], [-90.26032, 29.9589], [-90.2567, 29.95735], [-90.2571, 29.95717]]], [[[-90.26492, 29.9582], [-90.26493, 29.9583], [-90.26493, 29.9583], [-90.26492, 29.9582]]], [[[-90.26498, 29.9589], [-90.265, 29.95919], [-90.2651, 29.96045], [-90.26463, 29.95993], [-90.26498, 29.9589]]], [[[-90.26622, 29.96263], [-90.26587, 29.96202], [-90.26598, 29.95911], [-90.2656, 29.95889], [-90.26556, 29.95841], [-90.26606, 29.95838], [-90.26648, 29.96459], [-90.26512, 29.96468], [-90.26571, 29.9638], [-90.26613, 29.96353], [-90.26622, 29.96263]]], [[[-90.26402, 29.96231], [-90.26463, 29.96262], [-90.26523, 29.96245], [-90.26519, 29.96336], [-90.2643, 29.96323], [-90.26391, 29.96286], [-90.2635, 29.96276], [-90.26293, 29.96295], [-90.26278, 29.96348], [-90.26302, 29.9639], [-90.26339, 29.96408], [-90.26392, 29.96405], [-90.26428, 29.96377], [-90.26499, 29.96387], [-90.26438, 29.96462], [-90.26157, 29.96479], [-90.26171, 29.96392], [-90.26225, 29.96381], [-90.2625, 29.96245], [-90.26154, 29.96173], [-90.2616, 29.96017], [-90.26183, 29.96008], [-90.26188, 29.96169], [-90.2628, 29.96251], [-90.26402, 29.96231]]], [[[-90.25897, 29.97651], [-90.25848, 29.97645], [-90.25854, 29.97627], [-90.25895, 29.97637], [-90.25897, 29.97651]]], [[[-90.25811, 29.97717], [-90.25831, 29.97697], [-90.25893, 29.97709], [-90.25887, 29.97733], [-90.25811, 29.97717]]], [[[-90.25916, 29.97823], [-90.2596, 29.97699], [-90.25998, 29.97706], [-90.2596, 29.9782], [-90.2604, 29.97837], [-90.26032, 29.9786], [-90.25916, 29.97823]]], [[[-90.25881, 29.98221], [-90.25893, 29.98235], [-90.25811, 29.98218], [-90.25856, 29.98224], [-90.25881, 29.98221]]], [[[-90.26593, 29.98249], [-90.26593, 29.98249], [-90.26593, 29.98248], [-90.26593, 29.98249]]], [[[-90.26671, 29.98327], [-90.26661, 29.98327], [-90.26664, 29.98316], [-90.26683, 29.98326], [-90.26671, 29.98327]]], [[[-90.26259, 29.98449], [-90.26208, 29.98419], [-90.25999, 29.98379], [-90.25952, 29.9834], [-90.25893, 29.98334], [-90.25815, 29.98284], [-90.26303, 29.98375], [-90.26295, 29.98461], [-90.26259, 29.98449]]], [[[-90.26484, 29.98471], [-90.26556, 29.9847], [-90.26586, 29.9846], [-90.26584, 29.98481], [-90.26546, 29.98494], [-90.26424, 29.98485], [-90.26438, 29.98469], [-90.26484, 29.98471]]], [[[-90.26405, 29.98538], [-90.26407, 29.98584], [-90.2636, 29.9868], [-90.26363, 29.9876], [-90.2614, 29.98724], [-90.26128, 29.98699], [-90.26187, 29.98682], [-90.26208, 29.98642], [-90.2633, 29.98579], [-90.26349, 29.98533], [-90.26405, 29.98538]]], [[[-90.26626, 29.98726], [-90.26628, 29.98703], [-90.26647, 29.98726], [-90.26626, 29.98726]]], [[[-90.26539, 29.98783], [-90.26552, 29.98783], [-90.26552, 29.98789], [-90.26547, 29.98788], [-90.26539, 29.98783]]], [[[-90.26588, 29.98849], [-90.2661, 29.98855], [-90.26589, 29.9892], [-90.26544, 29.98913], [-90.26565, 29.98846], [-90.26588, 29.98849]]], [[[-90.2591, 29.99768], [-90.25916, 29.99807], [-90.25834, 29.99814], [-90.25805, 29.99796], [-90.25811, 29.99758], [-90.2591, 29.99768]]], [[[-90.25933, 29.99909], [-90.26039, 30.00028], [-90.26025, 30.00049], [-90.2595, 30.00043], [-90.25903, 30.00003], [-90.25894, 29.99923], [-90.25933, 29.99909]]], [[[-90.26191, 30.00169], [-90.25778, 30.00175], [-90.25793, 29.99969], [-90.25815, 29.9997], [-90.25855, 30.00065], [-90.25926, 30.00108], [-90.26023, 30.00119], [-90.26074, 30.00149], [-90.26167, 30.00119], [-90.26285, 30.00121], [-90.26454, 30.00161], [-90.26191, 30.00169]]], [[[-90.26098, 30.00088], [-90.26084, 30.00095], [-90.26074, 30.00084], [-90.26087, 30.00075], [-90.26098, 30.00088]]], [[[-90.2651, 30.00729], [-90.26505, 30.00677], [-90.26543, 30.00689], [-90.26571, 30.00675], [-90.26582, 30.00729], [-90.2651, 30.00729]]], [[[-90.24964, 29.93003], [-90.24995, 29.93154], [-90.2498, 29.93283], [-90.24674, 29.92829], [-90.24779, 29.92764], [-90.24888, 29.92866], [-90.24964, 29.93003]]], [[[-90.25045, 29.94305], [-90.25001, 29.94314], [-90.2518, 29.94047], [-90.25155, 29.94014], [-90.25222, 29.94044], [-90.25045, 29.94305]]], [[[-90.24867, 29.94511], [-90.24869, 29.94521], [-90.24855, 29.94529], [-90.24867, 29.94511]]], [[[-90.24688, 29.94756], [-90.24718, 29.94704], [-90.24707, 29.94659], [-90.24722, 29.94618], [-90.24767, 29.94642], [-90.24819, 29.94581], [-90.2479, 29.94642], [-90.24741, 29.94675], [-90.24737, 29.94716], [-90.24688, 29.94756]]], [[[-90.25615, 29.94913], [-90.25634, 29.94952], [-90.25685, 29.94973], [-90.256, 29.95042], [-90.2553, 29.95051], [-90.25504, 29.9512], [-90.2544, 29.95173], [-90.25369, 29.95126], [-90.25333, 29.95131], [-90.25297, 29.95083], [-90.25226, 29.95075], [-90.25184, 29.95139], [-90.25128, 29.95136], [-90.25092, 29.95157], [-90.24967, 29.95358], [-90.24962, 29.95458], [-90.2498, 29.95495], [-90.24817, 29.95771], [-90.25083, 29.95838], [-90.25021, 29.95853], [-90.25115, 29.95883], [-90.2515, 29.95792], [-90.25243, 29.95833], [-90.25188, 29.95939], [-90.25209, 29.95949], [-90.25195, 29.95989], [-90.2515, 29.96069], [-90.25081, 29.96093], [-90.24982, 29.96241], [-90.24913, 29.96231], [-90.24854, 29.96292], [-90.24787, 29.96287], [-90.2474, 29.96332], [-90.24699, 29.96311], [-90.24724, 29.96262], [-90.24695, 29.96216], [-90.24629, 29.96205], [-90.24581, 29.96251], [-90.24544, 29.96231], [-90.24587, 29.96194], [-90.24609, 29.96146], [-90.24589, 29.96092], [-90.24605, 29.96055], [-90.24592, 29.9602], [-90.24536, 29.9599], [-90.24483, 29.96006], [-90.244, 29.95949], [-90.24358, 29.95955], [-90.24326, 29.95982], [-90.2443, 29.95818], [-90.24583, 29.95926], [-90.24641, 29.95909], [-90.24634, 29.95862], [-90.2446, 29.95771], [-90.24471, 29.95754], [-90.24509, 29.95795], [-90.24698, 29.95858], [-90.24798, 29.95709], [-90.2484, 29.95701], [-90.2487, 29.95668], [-90.24866, 29.95608], [-90.24887, 29.95577], [-90.24731, 29.95486], [-90.24717, 29.9545], [-90.24679, 29.95427], [-90.247, 29.95394], [-90.24827, 29.9547], [-90.24866, 29.95458], [-90.24861, 29.95426], [-90.2473, 29.95346], [-90.24789, 29.95252], [-90.24909, 29.95323], [-90.24948, 29.95311], [-90.24943, 29.95279], [-90.2482, 29.95205], [-90.24881, 29.95107], [-90.24994, 29.95176], [-90.25034, 29.95165], [-90.25029, 29.95133], [-90.24912, 29.9506], [-90.24971, 29.94966], [-90.24994, 29.95013], [-90.25064, 29.95033], [-90.25105, 29.95077], [-90.25225, 29.95071], [-90.25255, 29.95039], [-90.25297, 29.94923], [-90.2538, 29.94806], [-90.25379, 29.94764], [-90.25631, 29.94874], [-90.25615, 29.94913]]], [[[-90.25315, 29.95176], [-90.25326, 29.95158], [-90.25394, 29.9521], [-90.25306, 29.95184], [-90.25315, 29.95176]]], [[[-90.25524, 29.95967], [-90.25559, 29.95952], [-90.25595, 29.9589], [-90.25645, 29.95858], [-90.25652, 29.95821], [-90.25628, 29.95781], [-90.25976, 29.95954], [-90.26023, 29.96019], [-90.25978, 29.96034], [-90.25946, 29.96069], [-90.25785, 29.9598], [-90.25701, 29.95896], [-90.25657, 29.9588], [-90.25606, 29.95895], [-90.25585, 29.95945], [-90.25602, 29.95979], [-90.25651, 29.95999], [-90.25692, 29.9599], [-90.25719, 29.95958], [-90.25716, 29.95983], [-90.25665, 29.96021], [-90.25522, 29.95999], [-90.25524, 29.95967]]], [[[-90.25386, 29.96294], [-90.25401, 29.96265], [-90.25468, 29.9628], [-90.25516, 29.96249], [-90.25525, 29.96178], [-90.2546, 29.96142], [-90.25506, 29.96092], [-90.25607, 29.96117], [-90.25778, 29.96212], [-90.25774, 29.96252], [-90.25719, 29.9619], [-90.25676, 29.9619], [-90.25637, 29.96217], [-90.2563, 29.96258], [-90.25665, 29.96314], [-90.25711, 29.96328], [-90.2576, 29.96308], [-90.25703, 29.96428], [-90.25645, 29.96403], [-90.25591, 29.96424], [-90.25552, 29.96492], [-90.25558, 29.96534], [-90.25375, 29.96509], [-90.25388, 29.96467], [-90.2543, 29.96477], [-90.2547, 29.96463], [-90.25496, 29.9641], [-90.2548, 29.96356], [-90.25432, 29.96326], [-90.2537, 29.96346], [-90.25349, 29.96392], [-90.25306, 29.96377], [-90.25386, 29.96294]]], [[[-90.25853, 29.96369], [-90.25839, 29.96372], [-90.25849, 29.96335], [-90.25892, 29.96277], [-90.25913, 29.96274], [-90.25888, 29.96375], [-90.25853, 29.96369]]], [[[-90.24606, 29.96334], [-90.24774, 29.96416], [-90.24922, 29.96462], [-90.24771, 29.96418], [-90.24512, 29.96334], [-90.24057, 29.96065], [-90.24023, 29.96096], [-90.23994, 29.96081], [-90.23986, 29.96033], [-90.23874, 29.95913], [-90.24606, 29.96334]]], [[[-90.25762, 29.96425], [-90.25754, 29.96442], [-90.25718, 29.96453], [-90.25725, 29.96422], [-90.25782, 29.96407], [-90.25762, 29.96425]]], [[[-90.24957, 29.96386], [-90.25071, 29.96448], [-90.25068, 29.96454], [-90.24941, 29.9641], [-90.24957, 29.96386]]], [[[-90.25691, 29.96545], [-90.2568, 29.96545], [-90.25688, 29.96533], [-90.25689, 29.96538], [-90.25691, 29.96545]]], [[[-90.25571, 29.97546], [-90.2557, 29.97551], [-90.2557, 29.97541], [-90.25571, 29.97546]]], [[[-90.25554, 29.9765], [-90.25559, 29.97641], [-90.25547, 29.97658], [-90.25551, 29.97654], [-90.25554, 29.9765]]], [[[-90.25677, 29.97691], [-90.25693, 29.97677], [-90.25745, 29.97723], [-90.25731, 29.97777], [-90.25658, 29.97755], [-90.25677, 29.97691]]], [[[-90.25094, 29.97767], [-90.25075, 29.97755], [-90.25102, 29.97737], [-90.25094, 29.97767]]], [[[-90.25145, 29.98081], [-90.25105, 29.98073], [-90.25105, 29.97997], [-90.24993, 29.97973], [-90.25005, 29.97929], [-90.25115, 29.97919], [-90.25172, 29.97716], [-90.2533, 29.97749], [-90.25235, 29.98099], [-90.25145, 29.98081]]], [[[-90.2579, 29.97788], [-90.25796, 29.9777], [-90.25873, 29.97786], [-90.25883, 29.97821], [-90.2579, 29.97788]]], [[[-90.25424, 29.97776], [-90.25432, 29.97818], [-90.25346, 29.98122], [-90.25295, 29.98112], [-90.25391, 29.97762], [-90.25424, 29.97776]]], [[[-90.25586, 29.98066], [-90.25547, 29.98081], [-90.25524, 29.98118], [-90.25462, 29.98093], [-90.25414, 29.98109], [-90.25488, 29.97846], [-90.25539, 29.97844], [-90.25573, 29.97809], [-90.25628, 29.97824], [-90.25591, 29.97908], [-90.25593, 29.97977], [-90.25657, 29.98046], [-90.25646, 29.98086], [-90.25586, 29.98066]]], [[[-90.25702, 29.98195], [-90.25727, 29.98199], [-90.25732, 29.98202], [-90.25702, 29.98195]]], [[[-90.25566, 29.98308], [-90.25632, 29.98325], [-90.25596, 29.98375], [-90.25556, 29.98298], [-90.25566, 29.98308]]], [[[-90.24678, 29.98646], [-90.24703, 29.98571], [-90.2475, 29.98585], [-90.2474, 29.98643], [-90.24758, 29.98666], [-90.24866, 29.98635], [-90.24887, 29.98594], [-90.24875, 29.98554], [-90.24912, 29.98504], [-90.24899, 29.98462], [-90.24928, 29.98451], [-90.24939, 29.98474], [-90.24909, 29.98567], [-90.2484, 29.98689], [-90.24678, 29.98646]]], [[[-90.24911, 29.98757], [-90.24888, 29.98753], [-90.24897, 29.9874], [-90.24903, 29.9875], [-90.24911, 29.98757]]], [[[-90.24711, 29.99218], [-90.24703, 29.9921], [-90.24707, 29.99195], [-90.24719, 29.99198], [-90.24711, 29.99218]]], [[[-90.25906, 29.99687], [-90.25922, 29.99714], [-90.25798, 29.99704], [-90.25754, 29.99683], [-90.25673, 29.99698], [-90.25606, 29.99676], [-90.25604, 29.99654], [-90.25624, 29.99627], [-90.25659, 29.99622], [-90.25805, 29.99647], [-90.25906, 29.99687]]], [[[-90.25249, 29.9974], [-90.2524, 29.99738], [-90.25251, 29.99738], [-90.25249, 29.9974]]], [[[-90.25129, 29.99765], [-90.25161, 29.99788], [-90.25098, 29.99796], [-90.25119, 29.9977], [-90.25129, 29.99765]]], [[[-90.2505, 30.00717], [-90.24962, 30.00739], [-90.2496, 30.00733], [-90.24958, 30.00715], [-90.25098, 30.00706], [-90.2505, 30.00717]]], [[[-90.23469, 29.9181], [-90.2346, 29.91863], [-90.23499, 29.91885], [-90.2355, 29.91852], [-90.23552, 29.91777], [-90.23763, 29.91782], [-90.2375, 29.9191], [-90.23675, 29.9201], [-90.23534, 29.92067], [-90.2341, 29.92056], [-90.23417, 29.91775], [-90.23471, 29.91776], [-90.23469, 29.9181]]], [[[-90.24086, 29.92435], [-90.23901, 29.92539], [-90.23644, 29.92425], [-90.23402, 29.92317], [-90.23408, 29.92132], [-90.24086, 29.92435]]], [[[-90.23316, 29.92674], [-90.23361, 29.92757], [-90.23169, 29.92671], [-90.23316, 29.92674]]], [[[-90.23642, 29.93168], [-90.23614, 29.93128], [-90.23556, 29.93119], [-90.23529, 29.93077], [-90.23461, 29.93035], [-90.23379, 29.93034], [-90.23345, 29.93081], [-90.23278, 29.93127], [-90.23237, 29.93126], [-90.23195, 29.9315], [-90.23122, 29.93213], [-90.23111, 29.93248], [-90.23061, 29.93278], [-90.23015, 29.93262], [-90.22968, 29.93281], [-90.22951, 29.93321], [-90.22974, 29.93364], [-90.2302, 29.93378], [-90.23068, 29.93358], [-90.23092, 29.93384], [-90.22952, 29.93457], [-90.2292, 29.93496], [-90.22813, 29.93535], [-90.22789, 29.9357], [-90.22719, 29.93612], [-90.22754, 29.93521], [-90.227, 29.9346], [-90.22772, 29.93431], [-90.22781, 29.93375], [-90.22747, 29.93341], [-90.22686, 29.93333], [-90.22532, 29.93392], [-90.22446, 29.93267], [-90.22366, 29.93076], [-90.22438, 29.93028], [-90.22446, 29.92982], [-90.22352, 29.9291], [-90.22351, 29.92885], [-90.22419, 29.92859], [-90.22489, 29.92721], [-90.22538, 29.92699], [-90.22556, 29.92658], [-90.22943, 29.92667], [-90.2383, 29.93059], [-90.23642, 29.93168]], [[-90.23017, 29.92877], [-90.23044, 29.92878], [-90.23088, 29.92846], [-90.23059, 29.92793], [-90.22989, 29.92824], [-90.23017, 29.92877]], [[-90.22629, 29.92731], [-90.22605, 29.92771], [-90.22619, 29.9281], [-90.22664, 29.92832], [-90.2271, 29.92819], [-90.22736, 29.9278], [-90.22723, 29.9274], [-90.2268, 29.92718], [-90.22629, 29.92731]]], [[[-90.23712, 29.93218], [-90.2372, 29.93224], [-90.23653, 29.93228], [-90.23699, 29.93201], [-90.23712, 29.93218]]], [[[-90.23777, 29.93233], [-90.2377, 29.93238], [-90.23765, 29.93235], [-90.23768, 29.93234], [-90.23777, 29.93233]]], [[[-90.23547, 29.9367], [-90.23519, 29.93655], [-90.23533, 29.93643], [-90.23557, 29.93682], [-90.23547, 29.9367]]], [[[-90.23936, 29.94113], [-90.23904, 29.94068], [-90.23821, 29.94052], [-90.23796, 29.93995], [-90.23729, 29.93949], [-90.23673, 29.93834], [-90.23701, 29.9384], [-90.23814, 29.94006], [-90.24246, 29.93668], [-90.24262, 29.93703], [-90.24396, 29.93609], [-90.2457, 29.93698], [-90.23948, 29.94127], [-90.23936, 29.94113]]], [[[-90.23365, 29.93755], [-90.23342, 29.93811], [-90.23307, 29.93787], [-90.23264, 29.93789], [-90.23191, 29.93824], [-90.23053, 29.93941], [-90.22997, 29.93934], [-90.22956, 29.93954], [-90.229, 29.93916], [-90.2286, 29.93809], [-90.22906, 29.93791], [-90.2297, 29.93722], [-90.23065, 29.93696], [-90.23106, 29.93645], [-90.2317, 29.93669], [-90.23196, 29.93741], [-90.23257, 29.93778], [-90.23305, 29.93782], [-90.23365, 29.93755]]], [[[-90.24669, 29.93773], [-90.2468, 29.93784], [-90.24617, 29.93835], [-90.24271, 29.94088], [-90.24237, 29.94073], [-90.24195, 29.9408], [-90.23941, 29.9426], [-90.23893, 29.94232], [-90.23836, 29.9425], [-90.23811, 29.94292], [-90.23836, 29.94343], [-90.2359, 29.9453], [-90.2354, 29.94496], [-90.23462, 29.94527], [-90.23397, 29.94495], [-90.23302, 29.94563], [-90.23302, 29.94518], [-90.23269, 29.94504], [-90.23105, 29.94594], [-90.23093, 29.94569], [-90.23286, 29.94474], [-90.23439, 29.94357], [-90.23508, 29.94421], [-90.23559, 29.94419], [-90.23569, 29.94388], [-90.23511, 29.94313], [-90.23757, 29.94161], [-90.23786, 29.9422], [-90.23813, 29.94234], [-90.23849, 29.94227], [-90.23913, 29.94175], [-90.23978, 29.94174], [-90.24626, 29.93726], [-90.24669, 29.93773]]], [[[-90.23404, 29.9401], [-90.23433, 29.93964], [-90.23405, 29.93884], [-90.23589, 29.93777], [-90.23677, 29.9398], [-90.23742, 29.94026], [-90.23772, 29.94086], [-90.23394, 29.94319], [-90.23371, 29.94303], [-90.233, 29.94304], [-90.23175, 29.94374], [-90.23156, 29.94316], [-90.23241, 29.9428], [-90.23322, 29.94219], [-90.23395, 29.94236], [-90.23547, 29.94156], [-90.23588, 29.94117], [-90.23591, 29.94068], [-90.23558, 29.94034], [-90.23516, 29.94028], [-90.23357, 29.94115], [-90.23416, 29.94061], [-90.2341, 29.94036], [-90.23386, 29.94027], [-90.2331, 29.94067], [-90.2326, 29.9407], [-90.23226, 29.941], [-90.23167, 29.9406], [-90.23127, 29.94066], [-90.23059, 29.94111], [-90.23046, 29.94093], [-90.23191, 29.94008], [-90.23257, 29.94046], [-90.2333, 29.94013], [-90.23404, 29.9401]]], [[[-90.23942, 29.94611], [-90.23913, 29.94643], [-90.23899, 29.94637], [-90.23933, 29.94605], [-90.23942, 29.94611]]], [[[-90.24686, 29.94857], [-90.24673, 29.94836], [-90.24674, 29.9481], [-90.247, 29.94847], [-90.24686, 29.94857]]], [[[-90.24702, 29.94849], [-90.24702, 29.94849], [-90.247, 29.94848], [-90.24702, 29.94849]]], [[[-90.23302, 29.95334], [-90.23261, 29.95308], [-90.2328, 29.95246], [-90.23241, 29.95153], [-90.23212, 29.95137], [-90.23172, 29.95145], [-90.23183, 29.95089], [-90.23166, 29.95039], [-90.23185, 29.95009], [-90.23168, 29.94945], [-90.23237, 29.95087], [-90.23301, 29.95299], [-90.23332, 29.95324], [-90.23389, 29.95441], [-90.23426, 29.95464], [-90.23602, 29.95698], [-90.23577, 29.95693], [-90.23442, 29.9553], [-90.23431, 29.95492], [-90.23387, 29.95465], [-90.23302, 29.95334]]], [[[-90.23264, 29.95499], [-90.23264, 29.95476], [-90.23293, 29.95503], [-90.23287, 29.95502], [-90.23264, 29.95499]]], [[[-90.23848, 29.95588], [-90.23839, 29.95603], [-90.23813, 29.95577], [-90.23849, 29.95542], [-90.23888, 29.95523], [-90.23848, 29.95588]]], [[[-90.24244, 29.9564], [-90.24212, 29.95651], [-90.24213, 29.95683], [-90.24379, 29.95787], [-90.2426, 29.95974], [-90.24207, 29.9596], [-90.24166, 29.95976], [-90.24169, 29.9593], [-90.24128, 29.95896], [-90.24132, 29.95846], [-90.24078, 29.95811], [-90.24225, 29.95589], [-90.24431, 29.95706], [-90.24409, 29.95739], [-90.24244, 29.9564]]], [[[-90.23807, 29.95857], [-90.2383, 29.95875], [-90.23833, 29.9588], [-90.238, 29.95854], [-90.23807, 29.95857]]], [[[-90.24151, 29.95995], [-90.24145, 29.96003], [-90.24143, 29.96002], [-90.24146, 29.95998], [-90.24151, 29.95995]]], [[[-90.23375, 29.96604], [-90.23376, 29.96605], [-90.23372, 29.96611], [-90.23372, 29.96606], [-90.23375, 29.96604]]], [[[-90.2356, 29.96869], [-90.23546, 29.96874], [-90.23516, 29.96806], [-90.23332, 29.96669], [-90.23347, 29.96659], [-90.23611, 29.96865], [-90.2356, 29.96869]]], [[[-90.23665, 29.96913], [-90.23659, 29.96897], [-90.23946, 29.97032], [-90.23867, 29.97042], [-90.23842, 29.96995], [-90.23688, 29.96951], [-90.23665, 29.96913]]], [[[-90.23482, 29.97886], [-90.2348, 29.97886], [-90.23482, 29.97882], [-90.23482, 29.97886]]], [[[-90.24558, 29.9795], [-90.24551, 29.97961], [-90.24526, 29.97953], [-90.24531, 29.97935], [-90.24564, 29.97938], [-90.24558, 29.9795]]], [[[-90.24522, 29.9854], [-90.2451, 29.98571], [-90.24471, 29.98564], [-90.2449, 29.98537], [-90.24522, 29.9854]]], [[[-90.24626, 29.98629], [-90.24628, 29.98637], [-90.24615, 29.98633], [-90.24619, 29.98632], [-90.24626, 29.98629]]], [[[-90.24693, 29.98951], [-90.24541, 29.98952], [-90.24363, 29.98818], [-90.24373, 29.98684], [-90.24528, 29.98712], [-90.24391, 29.98672], [-90.24363, 29.98676], [-90.24344, 29.98737], [-90.2432, 29.98721], [-90.2435, 29.98593], [-90.2454, 29.98633], [-90.24533, 29.98708], [-90.24556, 29.98633], [-90.24835, 29.98698], [-90.24764, 29.9883], [-90.24745, 29.98949], [-90.24693, 29.98951]]], [[[-90.2435, 29.98862], [-90.24357, 29.98838], [-90.24434, 29.98897], [-90.24346, 29.98871], [-90.2435, 29.98862]]], [[[-90.24527, 29.99164], [-90.24542, 29.99149], [-90.24537, 29.99206], [-90.24523, 29.99207], [-90.24527, 29.99164]]], [[[-90.24613, 29.995], [-90.24575, 29.99498], [-90.24576, 29.99477], [-90.24618, 29.99483], [-90.24613, 29.995]]], [[[-90.24493, 29.99498], [-90.24502, 29.99456], [-90.24516, 29.99457], [-90.24499, 29.9952], [-90.24493, 29.99498]]], [[[-90.24507, 29.99677], [-90.24552, 29.99689], [-90.24524, 29.99777], [-90.24417, 29.99769], [-90.24423, 29.99738], [-90.24452, 29.9973], [-90.24477, 29.99693], [-90.24475, 29.99633], [-90.24507, 29.99677]]], [[[-90.2448, 29.99905], [-90.24502, 29.99829], [-90.24508, 29.9983], [-90.24488, 29.99908], [-90.2448, 29.99905]]], [[[-90.24271, 30.00725], [-90.24272, 30.00709], [-90.24405, 30.00718], [-90.24434, 30.00815], [-90.24279, 30.00812], [-90.24271, 30.00725]]], [[[-90.24628, 30.00731], [-90.24643, 30.00797], [-90.2461, 30.00819], [-90.2452, 30.00817], [-90.24491, 30.00724], [-90.24628, 30.00731]]], [[[-90.22358, 29.92658], [-90.22358, 29.92654], [-90.22362, 29.92654], [-90.22358, 29.92658]]], [[[-90.22505, 29.93464], [-90.22507, 29.9354], [-90.22636, 29.93783], [-90.22595, 29.93763], [-90.22476, 29.93536], [-90.22461, 29.93443], [-90.22397, 29.93376], [-90.22342, 29.93225], [-90.22344, 29.93157], [-90.2239, 29.93291], [-90.22505, 29.93464]]], [[[-90.21489, 29.9373], [-90.21464, 29.937], [-90.21468, 29.9366], [-90.21423, 29.93537], [-90.21558, 29.93539], [-90.21574, 29.93589], [-90.21548, 29.93585], [-90.21525, 29.93648], [-90.21529, 29.93713], [-90.21487, 29.93592], [-90.21456, 29.93581], [-90.21489, 29.9373]]], [[[-90.22745, 29.93762], [-90.22748, 29.93766], [-90.22723, 29.9377], [-90.22735, 29.93763], [-90.22745, 29.93762]]], [[[-90.21488, 29.93765], [-90.21492, 29.93742], [-90.21503, 29.93796], [-90.21486, 29.93777], [-90.21488, 29.93765]]], [[[-90.2281, 29.93798], [-90.22806, 29.93799], [-90.22805, 29.93798], [-90.22817, 29.93797], [-90.22818, 29.93797], [-90.2281, 29.93798]]], [[[-90.21516, 29.93853], [-90.21507, 29.93838], [-90.2151, 29.93824], [-90.21516, 29.93855], [-90.21516, 29.93853]]], [[[-90.21659, 29.93836], [-90.21673, 29.93879], [-90.21683, 29.93925], [-90.21635, 29.93798], [-90.21659, 29.93836]]], [[[-90.21519, 29.93866], [-90.21522, 29.93882], [-90.21518, 29.93877], [-90.21519, 29.93866]]], [[[-90.2154, 29.93962], [-90.21527, 29.93932], [-90.21531, 29.93921], [-90.2154, 29.93962]]], [[[-90.22967, 29.94031], [-90.22986, 29.94062], [-90.22972, 29.94071], [-90.22921, 29.94049], [-90.22967, 29.94014], [-90.22967, 29.94031]]], [[[-90.21545, 29.93999], [-90.21546, 29.93991], [-90.21557, 29.9404], [-90.21547, 29.94021], [-90.21545, 29.93999]]], [[[-90.21619, 29.94115], [-90.2158, 29.93984], [-90.21533, 29.93777], [-90.21595, 29.93807], [-90.21624, 29.93939], [-90.21687, 29.94017], [-90.21731, 29.94315], [-90.21644, 29.94247], [-90.21619, 29.94115]]], [[[-90.22721, 29.94036], [-90.22682, 29.93938], [-90.22699, 29.93905], [-90.22876, 29.94264], [-90.2284, 29.94266], [-90.22829, 29.94213], [-90.22783, 29.94167], [-90.22721, 29.94036]]], [[[-90.22624, 29.94032], [-90.22538, 29.94073], [-90.22528, 29.94117], [-90.22576, 29.94168], [-90.22611, 29.94248], [-90.22656, 29.94262], [-90.2269, 29.94344], [-90.22586, 29.94379], [-90.22569, 29.94409], [-90.22529, 29.94329], [-90.22485, 29.93982], [-90.22444, 29.93816], [-90.22521, 29.93797], [-90.2259, 29.9387], [-90.22689, 29.94024], [-90.22624, 29.94032]]], [[[-90.21749, 29.94079], [-90.21795, 29.94281], [-90.21787, 29.94286], [-90.21738, 29.94057], [-90.21749, 29.94079]]], [[[-90.22786, 29.94273], [-90.22755, 29.94265], [-90.22677, 29.94135], [-90.22723, 29.94138], [-90.22749, 29.94123], [-90.2281, 29.94279], [-90.22786, 29.94273]]], [[[-90.21647, 29.94333], [-90.21647, 29.94323], [-90.2167, 29.9437], [-90.21645, 29.94344], [-90.21647, 29.94333]]], [[[-90.22704, 29.94416], [-90.22696, 29.94402], [-90.22793, 29.94366], [-90.22765, 29.94427], [-90.22795, 29.94464], [-90.22775, 29.94501], [-90.22793, 29.94522], [-90.22828, 29.94525], [-90.227, 29.94564], [-90.22735, 29.94548], [-90.22746, 29.94522], [-90.22713, 29.94489], [-90.22704, 29.94416]]], [[[-90.2287, 29.9443], [-90.22877, 29.94421], [-90.22881, 29.9441], [-90.22888, 29.94423], [-90.2287, 29.9443]]], [[[-90.21688, 29.94405], [-90.21696, 29.94422], [-90.2169, 29.94418], [-90.21688, 29.94405]]], [[[-90.22858, 29.94442], [-90.22848, 29.94449], [-90.22841, 29.94452], [-90.22858, 29.94441], [-90.22858, 29.94442]]], [[[-90.21857, 29.94504], [-90.21861, 29.94508], [-90.21817, 29.94492], [-90.21836, 29.94485], [-90.21857, 29.94504]]], [[[-90.21758, 29.94462], [-90.21799, 29.94518], [-90.21784, 29.94541], [-90.21758, 29.94462]]], [[[-90.21743, 29.9452], [-90.21742, 29.94516], [-90.21748, 29.94525], [-90.21743, 29.94521], [-90.21743, 29.9452]]], [[[-90.23026, 29.9457], [-90.23035, 29.9459], [-90.2301, 29.94633], [-90.22964, 29.94525], [-90.22994, 29.94511], [-90.23026, 29.9457]]], [[[-90.21759, 29.94555], [-90.21754, 29.94535], [-90.21781, 29.94577], [-90.21787, 29.94591], [-90.21759, 29.94555]]], [[[-90.22739, 29.94596], [-90.22712, 29.94582], [-90.22777, 29.94573], [-90.22852, 29.94588], [-90.22879, 29.9464], [-90.22819, 29.94606], [-90.22756, 29.94633], [-90.22739, 29.94596]]], [[[-90.21796, 29.9461], [-90.21796, 29.94609], [-90.21817, 29.94656], [-90.21797, 29.94635], [-90.21796, 29.9461]]], [[[-90.23068, 29.94656], [-90.23139, 29.94789], [-90.23155, 29.94847], [-90.23141, 29.94868], [-90.23111, 29.94777], [-90.23071, 29.94754], [-90.23044, 29.94679], [-90.23068, 29.94656]]], [[[-90.21871, 29.94775], [-90.21821, 29.94701], [-90.21822, 29.94666], [-90.21887, 29.94805], [-90.21871, 29.94775]]], [[[-90.2291, 29.94764], [-90.22916, 29.94759], [-90.22931, 29.94774], [-90.22911, 29.94783], [-90.22896, 29.9477], [-90.2291, 29.94764]]], [[[-90.2273, 29.94762], [-90.22742, 29.94754], [-90.22789, 29.94801], [-90.22749, 29.94812], [-90.22737, 29.9479], [-90.22723, 29.94797], [-90.2273, 29.94762]]], [[[-90.21899, 29.9484], [-90.21898, 29.94831], [-90.21922, 29.94881], [-90.21898, 29.94848], [-90.21899, 29.9484]]], [[[-90.22022, 29.9482], [-90.22048, 29.94887], [-90.22067, 29.94947], [-90.22007, 29.94791], [-90.22022, 29.9482]]], [[[-90.2281, 29.94901], [-90.22802, 29.94916], [-90.22789, 29.94898], [-90.2284, 29.94875], [-90.2281, 29.94901]]], [[[-90.22095, 29.95325], [-90.22089, 29.95284], [-90.22049, 29.95242], [-90.21949, 29.94945], [-90.22062, 29.95219], [-90.22176, 29.95419], [-90.22266, 29.95525], [-90.22319, 29.95529], [-90.22331, 29.95547], [-90.22276, 29.95532], [-90.22804, 29.96225], [-90.22738, 29.96202], [-90.2271, 29.96138], [-90.22517, 29.95869], [-90.22473, 29.95838], [-90.22414, 29.9573], [-90.22354, 29.95697], [-90.22337, 29.95628], [-90.22246, 29.95565], [-90.22228, 29.95489], [-90.22179, 29.95453], [-90.22138, 29.95356], [-90.22095, 29.95325]]], [[[-90.22214, 29.95358], [-90.2221, 29.9534], [-90.2223, 29.95379], [-90.22214, 29.95358]]], [[[-90.22776, 29.96032], [-90.22801, 29.96047], [-90.22884, 29.96152], [-90.22833, 29.96118], [-90.22741, 29.96003], [-90.22776, 29.96032]]], [[[-90.22952, 29.96242], [-90.22956, 29.96277], [-90.22993, 29.96313], [-90.23031, 29.96314], [-90.2304, 29.9635], [-90.22927, 29.96275], [-90.22876, 29.96266], [-90.22943, 29.96203], [-90.22952, 29.96242]]], [[[-90.23075, 29.96372], [-90.23066, 29.96366], [-90.23073, 29.96367], [-90.23075, 29.96372]]], [[[-90.23142, 29.96511], [-90.23011, 29.96433], [-90.22969, 29.96373], [-90.2316, 29.96511], [-90.23192, 29.9644], [-90.23117, 29.96396], [-90.23144, 29.96397], [-90.23232, 29.96454], [-90.23263, 29.96552], [-90.23221, 29.96611], [-90.23215, 29.96561], [-90.23142, 29.96511]]], [[[-90.22598, 29.97786], [-90.22617, 29.97808], [-90.22618, 29.97828], [-90.22575, 29.97825], [-90.22598, 29.97786]]]]}, "properties": {"kind": "pv", "area_km2": 12.19, "mw": 609.7}}, {"type": "Feature", "geometry": {"type": "Point", "coordinates": [-90.28263, 29.95338]}, "properties": {"kind": "turbine", "i": 0, "mw": 6.0, "hub_m": 120.0, "rotor_m": 150.0}}, {"type": "Feature", "geometry": {"type": "Point", "coordinates": [-90.26437, 29.92994]}, "properties": {"kind": "turbine", "i": 1, "mw": 6.0, "hub_m": 120.0, "rotor_m": 150.0}}, {"type": "Feature", "geometry": {"type": "Point", "coordinates": [-90.25303, 29.92971]}, "properties": {"kind": "turbine", "i": 2, "mw": 6.0, "hub_m": 120.0, "rotor_m": 150.0}}, {"type": "Feature", "geometry": {"type": "Point", "coordinates": [-90.29811, 29.94052]}, "properties": {"kind": "turbine", "i": 3, "mw": 6.0, "hub_m": 120.0, "rotor_m": 150.0}}, {"type": "Feature", "geometry": {"type": "Point", "coordinates": [-90.26086, 29.91999]}, "properties": {"kind": "turbine", "i": 4, "mw": 6.0, "hub_m": 120.0, "rotor_m": 150.0}}, {"type": "Feature", "geometry": {"type": "Point", "coordinates": [-90.24205, 29.9163]}, "properties": {"kind": "turbine", "i": 5, "mw": 6.0, "hub_m": 120.0, "rotor_m": 150.0}}, {"type": "Feature", "geometry": {"type": "Point", "coordinates": [-90.32501, 29.9246]}, "properties": {"kind": "turbine", "i": 6, "mw": 6.0, "hub_m": 120.0, "rotor_m": 150.0}}, {"type": "Feature", "geometry": {"type": "Point", "coordinates": [-90.33643, 29.92154]}, "properties": {"kind": "turbine", "i": 7, "mw": 6.0, "hub_m": 120.0, "rotor_m": 150.0}}, {"type": "Feature", "geometry": {"type": "Point", "coordinates": [-90.19708, 29.90218]}, "properties": {"kind": "turbine", "i": 8, "mw": 6.0, "hub_m": 120.0, "rotor_m": 150.0}}, {"type": "Feature", "geometry": {"type": "Point", "coordinates": [-90.17414, 29.91157]}, "properties": {"kind": "turbine", "i": 9, "mw": 6.0, "hub_m": 120.0, "rotor_m": 150.0}}, {"type": "Feature", "geometry": {"type": "Point", "coordinates": [-90.20906, 29.87938]}, "properties": {"kind": "turbine", "i": 10, "mw": 6.0, "hub_m": 120.0, "rotor_m": 150.0}}, {"type": "Feature", "geometry": {"type": "Point", "coordinates": [-90.16262, 29.91791]}, "properties": {"kind": "turbine", "i": 11, "mw": 6.0, "hub_m": 120.0, "rotor_m": 150.0}}, {"type": "Feature", "geometry": {"type": "Point", "coordinates": [-90.19764, 29.88243]}, "properties": {"kind": "turbine", "i": 12, "mw": 6.0, "hub_m": 120.0, "rotor_m": 150.0}}, {"type": "Feature", "geometry": {"type": "Point", "coordinates": [-90.36692, 29.91227]}, "properties": {"kind": "turbine", "i": 13, "mw": 6.0, "hub_m": 120.0, "rotor_m": 150.0}}, {"type": "Feature", "geometry": {"type": "Point", "coordinates": [-90.16724, 29.88837]}, "properties": {"kind": "turbine", "i": 14, "mw": 6.0, "hub_m": 120.0, "rotor_m": 150.0}}, {"type": "Feature", "geometry": {"type": "Point", "coordinates": [-90.39655, 29.93592]}, "properties": {"kind": "turbine", "i": 15, "mw": 6.0, "hub_m": 120.0, "rotor_m": 150.0}}, {"type": "Feature", "geometry": {"type": "Point", "coordinates": [-90.17129, 29.87858]}, "properties": {"kind": "turbine", "i": 16, "mw": 6.0, "hub_m": 120.0, "rotor_m": 150.0}}, {"type": "Feature", "geometry": {"type": "Point", "coordinates": [-90.38951, 29.91601]}, "properties": {"kind": "turbine", "i": 17, "mw": 6.0, "hub_m": 120.0, "rotor_m": 150.0}}, {"type": "Feature", "geometry": {"type": "Point", "coordinates": [-90.15222, 29.88475]}, "properties": {"kind": "turbine", "i": 18, "mw": 6.0, "hub_m": 120.0, "rotor_m": 150.0}}, {"type": "Feature", "geometry": {"type": "Point", "coordinates": [-90.40437, 29.92619]}, "properties": {"kind": "turbine", "i": 19, "mw": 6.0, "hub_m": 120.0, "rotor_m": 150.0}}, {"type": "Feature", "geometry": {"type": "Point", "coordinates": [-90.41468, 29.96592]}, "properties": {"kind": "turbine", "i": 20, "mw": 6.0, "hub_m": 120.0, "rotor_m": 150.0}}, {"type": "Feature", "geometry": {"type": "Point", "coordinates": [-90.42199, 29.97594]}, "properties": {"kind": "turbine", "i": 21, "mw": 6.0, "hub_m": 120.0, "rotor_m": 150.0}}, {"type": "Feature", "geometry": {"type": "Point", "coordinates": [-90.42267, 29.9496]}, "properties": {"kind": "turbine", "i": 22, "mw": 6.0, "hub_m": 120.0, "rotor_m": 150.0}}, {"type": "Feature", "geometry": {"type": "Point", "coordinates": [-90.4262, 29.95955]}, "properties": {"kind": "turbine", "i": 23, "mw": 6.0, "hub_m": 120.0, "rotor_m": 150.0}}, {"type": "Feature", "geometry": {"type": "Point", "coordinates": [-90.4293, 29.98596]}, "properties": {"kind": "turbine", "i": 24, "mw": 6.0, "hub_m": 120.0, "rotor_m": 150.0}}, {"type": "Feature", "geometry": {"type": "Point", "coordinates": [-90.4335, 29.96958]}, "properties": {"kind": "turbine", "i": 25, "mw": 6.0, "hub_m": 120.0, "rotor_m": 150.0}}, {"type": "Feature", "geometry": {"type": "Point", "coordinates": [-90.40187, 29.87673]}, "properties": {"kind": "turbine", "i": 26, "mw": 6.0, "hub_m": 120.0, "rotor_m": 150.0}}, {"type": "Feature", "geometry": {"type": "Point", "coordinates": [-90.43503, 29.91032]}, "properties": {"kind": "turbine", "i": 27, "mw": 6.0, "hub_m": 120.0, "rotor_m": 150.0}}, {"type": "Feature", "geometry": {"type": "Point", "coordinates": [-90.4315, 29.90037]}, "properties": {"kind": "turbine", "i": 28, "mw": 6.0, "hub_m": 120.0, "rotor_m": 150.0}}, {"type": "Feature", "geometry": {"type": "Point", "coordinates": [-90.44233, 29.92034]}, "properties": {"kind": "turbine", "i": 29, "mw": 6.0, "hub_m": 120.0, "rotor_m": 150.0}}, {"type": "Feature", "geometry": {"type": "Point", "coordinates": [-90.45241, 29.96994]}, "properties": {"kind": "turbine", "i": 30, "mw": 6.0, "hub_m": 120.0, "rotor_m": 150.0}}, {"type": "Feature", "geometry": {"type": "Point", "coordinates": [-90.42454, 29.87718]}, "properties": {"kind": "turbine", "i": 31, "mw": 6.0, "hub_m": 120.0, "rotor_m": 150.0}}, {"type": "Feature", "geometry": {"type": "Point", "coordinates": [-90.43553, 29.89057]}, "properties": {"kind": "turbine", "i": 32, "mw": 6.0, "hub_m": 120.0, "rotor_m": 150.0}}, {"type": "Feature", "geometry": {"type": "Point", "coordinates": [-90.44636, 29.91054]}, "properties": {"kind": "turbine", "i": 33, "mw": 6.0, "hub_m": 120.0, "rotor_m": 150.0}}, {"type": "Feature", "geometry": {"type": "Point", "coordinates": [-90.42101, 29.86723]}, "properties": {"kind": "turbine", "i": 34, "mw": 6.0, "hub_m": 120.0, "rotor_m": 150.0}}, {"type": "Feature", "geometry": {"type": "Point", "coordinates": [-90.45367, 29.92056]}, "properties": {"kind": "turbine", "i": 35, "mw": 6.0, "hub_m": 120.0, "rotor_m": 150.0}}]}