{"type": "FeatureCollection", "features": [{"type": "Feature", "geometry": {"type": "MultiPolygon", "coordinates": [[[[-90.36673, 29.9506], [-90.36631, 29.95133], [-90.36463, 29.9506], [-90.36566, 29.9507], [-90.36673, 29.9506]]], [[[-90.3635, 29.95019], [-90.36297, 29.95001], [-90.36299, 29.94987], [-90.36315, 29.94998], [-90.3635, 29.95019]]], [[[-90.34631, 29.921], [-90.34455, 29.92527], [-90.34375, 29.92525], [-90.34487, 29.92174], [-90.34631, 29.921]]], [[[-90.36365, 29.91338], [-90.36202, 29.91372], [-90.3595, 29.91317], [-90.35829, 29.91374], [-90.35762, 29.91472], [-90.35705, 29.91474], [-90.35761, 29.91354], [-90.36142, 29.91258], [-90.36276, 29.9118], [-90.36365, 29.91338]]], [[[-90.31549, 29.95342], [-90.31579, 29.95478], [-90.3167, 29.95565], [-90.31805, 29.95818], [-90.31777, 29.95838], [-90.31418, 29.95206], [-90.31453, 29.95171], [-90.31549, 29.95342]]], [[[-90.26422, 29.92561], [-90.26533, 29.92625], [-90.26525, 29.92738], [-90.26449, 29.93566], [-90.26326, 29.9388], [-90.2498, 29.93283], [-90.24957, 29.92984], [-90.24779, 29.92764], [-90.25468, 29.92334], [-90.25041, 29.91897], [-90.24086, 29.92435], [-90.23276, 29.92053], [-90.23306, 29.91993], [-90.2348, 29.92069], [-90.23658, 29.92022], [-90.23757, 29.91893], [-90.23762, 29.91739], [-90.23685, 29.91595], [-90.2354, 29.91534], [-90.2336, 29.91575], [-90.23267, 29.91695], [-90.23187, 29.9161], [-90.23203, 29.91424], [-90.23267, 29.91378], [-90.24184, 29.91435], [-90.24238, 29.91602], [-90.24375, 29.91725], [-90.24647, 29.91775], [-90.24795, 29.9173], [-90.24914, 29.91638], [-90.25226, 29.91979], [-90.2591, 29.91613], [-90.26018, 29.91748], [-90.26145, 29.91829], [-90.26307, 29.91865], [-90.26471, 29.9184], [-90.26443, 29.9201], [-90.2632, 29.9215], [-90.26284, 29.92284], [-90.26309, 29.9242], [-90.26422, 29.92561]]], [[[-90.20062, 29.88558], [-90.1996, 29.88619], [-90.19871, 29.88475], [-90.19734, 29.88383], [-90.19863, 29.88313], [-90.19927, 29.88386], [-90.20959, 29.87784], [-90.21239, 29.88024], [-90.21241, 29.88105], [-90.20954, 29.88183], [-90.20062, 29.88558]]], [[[-90.21403, 29.88081], [-90.21328, 29.88097], [-90.21342, 29.87934], [-90.21563, 29.88043], [-90.21403, 29.88081]]], [[[-90.28649, 29.9512], [-90.28615, 29.95126], [-90.286, 29.95072], [-90.28639, 29.95047], [-90.28649, 29.9512]]], [[[-90.28526, 29.95144], [-90.28558, 29.95113], [-90.28453, 29.95318], [-90.28556, 29.95721], [-90.28416, 29.95767], [-90.28271, 29.95712], [-90.2821, 29.95571], [-90.28196, 29.95334], [-90.28335, 29.95294], [-90.28526, 29.95144]]], [[[-90.26135, 29.95923], [-90.26177, 29.95931], [-90.2616, 29.96017], [-90.26162, 29.95941], [-90.26135, 29.95923]]], [[[-90.23161, 29.92457], [-90.23209, 29.92478], [-90.23227, 29.9251], [-90.23157, 29.92479], [-90.23161, 29.92457]]], [[[-90.24259, 29.93694], [-90.24246, 29.93668], [-90.2435, 29.93586], [-90.24396, 29.93609], [-90.24259, 29.93694]]], [[[-90.32472, 29.92508], [-90.32451, 29.92536], [-90.32364, 29.9223], [-90.32821, 29.92061], [-90.33868, 29.91778], [-90.33746, 29.92164], [-90.33583, 29.92243], [-90.33548, 29.92407], [-90.33399, 29.92383], [-90.33313, 29.92251], [-90.33128, 29.92204], [-90.32992, 29.92256], [-90.32897, 29.92364], [-90.32866, 29.92632], [-90.32829, 29.92523], [-90.32729, 29.92452], [-90.3258, 29.92446], [-90.32472, 29.92508]]], [[[-90.31889, 29.96334], [-90.3178, 29.96343], [-90.3213, 29.96085], [-90.3221, 29.96067], [-90.3208, 29.96393], [-90.31889, 29.96334]]], [[[-90.34397, 29.9465], [-90.3443, 29.94654], [-90.3445, 29.94658], [-90.34397, 29.94662], [-90.34397, 29.9465]]], [[[-90.34413, 29.94205], [-90.34435, 29.9426], [-90.34062, 29.9428], [-90.34056, 29.94223], [-90.34243, 29.94124], [-90.3439, 29.94162], [-90.34413, 29.94205]]], [[[-90.28161, 29.99696], [-90.2816, 29.99663], [-90.28256, 29.99698], [-90.28159, 29.99727], [-90.28161, 29.99696]]], [[[-90.30179, 29.93718], [-90.30198, 29.9377], [-90.30117, 29.93732], [-90.30179, 29.93718]]], [[[-90.29657, 29.93914], [-90.29718, 29.93816], [-90.299, 29.93777], [-90.29831, 29.93927], [-90.29929, 29.94187], [-90.29829, 29.94237], [-90.2975, 29.94209], [-90.29657, 29.93914]]], [[[-90.21178, 29.88881], [-90.21124, 29.88865], [-90.21221, 29.88569], [-90.2131, 29.88549], [-90.21178, 29.88881]]], [[[-90.19968, 29.8952], [-90.19996, 29.89525], [-90.19974, 29.89583], [-90.19954, 29.89549], [-90.19968, 29.8952]]], [[[-90.1983, 29.89905], [-90.19856, 29.89895], [-90.19567, 29.90681], [-90.19793, 29.90761], [-90.19791, 29.90765], [-90.19648, 29.90729], [-90.19423, 29.90743], [-90.19407, 29.90625], [-90.19525, 29.90666], [-90.19564, 29.90544], [-90.1937, 29.90477], [-90.19457, 29.90311], [-90.19569, 29.90277], [-90.19725, 29.90164], [-90.19771, 29.90069], [-90.19763, 29.89921], [-90.1983, 29.89905]]], [[[-90.17301, 29.90941], [-90.17267, 29.90842], [-90.17193, 29.90748], [-90.17308, 29.90736], [-90.17336, 29.90904], [-90.17301, 29.90941]]], [[[-90.17335, 29.91153], [-90.17334, 29.91142], [-90.17544, 29.91133], [-90.17417, 29.91231], [-90.17325, 29.91257], [-90.17335, 29.91153]]], [[[-90.36352, 29.95572], [-90.36374, 29.95581], [-90.36359, 29.95607], [-90.36355, 29.95582], [-90.36352, 29.95572]]], [[[-90.32148, 29.90149], [-90.32192, 29.90193], [-90.3205, 29.90241], [-90.3211, 29.90194], [-90.32148, 29.90149]]], [[[-90.1628, 29.92006], [-90.16246, 29.91933], [-90.16348, 29.91756], [-90.16408, 29.91757], [-90.1628, 29.92006]]], [[[-90.30781, 29.9359], [-90.30906, 29.93575], [-90.30922, 29.93617], [-90.30821, 29.93697], [-90.30781, 29.9359]]], [[[-90.26137, 29.99252], [-90.26115, 29.99251], [-90.26109, 29.99235], [-90.26121, 29.99237], [-90.26137, 29.99252]]], [[[-90.26417, 29.99364], [-90.26404, 29.99352], [-90.26435, 29.99354], [-90.26417, 29.99364]]], [[[-90.22586, 29.92079], [-90.22588, 29.92082], [-90.2258, 29.92085], [-90.22585, 29.92078], [-90.22586, 29.92079]]]]}, "properties": {"kind": "windland", "area_km2": 5.26}}, {"type": "Feature", "geometry": {"type": "MultiPolygon", "coordinates": [[[[-90.29459, 29.93821], [-90.29505, 29.93783], [-90.29526, 29.93705], [-90.29578, 29.93706], [-90.29565, 29.94172], [-90.29552, 29.94173], [-90.2943, 29.93824], [-90.29459, 29.93821]]], [[[-90.29173, 29.93829], [-90.29329, 29.9381], [-90.29557, 29.94476], [-90.29556, 29.94501], [-90.29381, 29.94538], [-90.29354, 29.9457], [-90.29541, 29.95062], [-90.2954, 29.95107], [-90.29463, 29.95137], [-90.29448, 29.95115], [-90.2942, 29.95113], [-90.29151, 29.94341], [-90.29157, 29.94324], [-90.29303, 29.94279], [-90.29161, 29.93854], [-90.29173, 29.93829]]], [[[-90.28779, 29.94418], [-90.28726, 29.94277], [-90.28823, 29.94226], [-90.28902, 29.94472], [-90.288, 29.94495], [-90.28779, 29.94418]]], [[[-90.28973, 29.94592], [-90.2916, 29.95133], [-90.29175, 29.9513], [-90.29192, 29.95175], [-90.29155, 29.95172], [-90.29135, 29.95066], [-90.29113, 29.95047], [-90.28973, 29.94592]]], [[[-90.28724, 29.94592], [-90.2873, 29.94591], [-90.28731, 29.94594], [-90.28722, 29.94593], [-90.28724, 29.94592]]], [[[-90.28841, 29.95041], [-90.28839, 29.95043], [-90.2873, 29.94649], [-90.28746, 29.94648], [-90.28858, 29.95035], [-90.28841, 29.95041]]], [[[-90.29376, 29.95243], [-90.29289, 29.94984], [-90.29241, 29.94816], [-90.2926, 29.94824], [-90.29417, 29.95234], [-90.29376, 29.95243]]], [[[-90.28493, 29.9517], [-90.28428, 29.95199], [-90.28335, 29.95294], [-90.28196, 29.95334], [-90.2821, 29.95571], [-90.28271, 29.95712], [-90.28348, 29.95727], [-90.28416, 29.95767], [-90.28556, 29.95721], [-90.28454, 29.95299], [-90.28487, 29.95209], [-90.28567, 29.95144], [-90.28612, 29.953], [-90.28657, 29.9528], [-90.28615, 29.95126], [-90.28649, 29.9512], [-90.28639, 29.95047], [-90.286, 29.95072], [-90.28543, 29.94863], [-90.28584, 29.94818], [-90.28824, 29.95678], [-90.28989, 29.95601], [-90.2894, 29.95402], [-90.29013, 29.95592], [-90.28912, 29.95653], [-90.28929, 29.95679], [-90.28885, 29.95701], [-90.2885, 29.95672], [-90.28815, 29.95697], [-90.28705, 29.95304], [-90.2866, 29.95289], [-90.28645, 29.95318], [-90.28745, 29.95695], [-90.28788, 29.9575], [-90.2867, 29.95862], [-90.28318, 29.95975], [-90.28287, 29.9589], [-90.28247, 29.95881], [-90.28231, 29.95908], [-90.2826, 29.95995], [-90.27974, 29.96089], [-90.2795, 29.95891], [-90.27905, 29.9584], [-90.27934, 29.95813], [-90.27938, 29.95772], [-90.27895, 29.95718], [-90.27881, 29.95666], [-90.2786, 29.95381], [-90.27828, 29.95313], [-90.27818, 29.95216], [-90.27653, 29.95239], [-90.27699, 29.95694], [-90.27644, 29.95682], [-90.27642, 29.95159], [-90.27739, 29.9514], [-90.278, 29.95189], [-90.27852, 29.95196], [-90.27904, 29.9513], [-90.28007, 29.95127], [-90.2811, 29.95075], [-90.28148, 29.95086], [-90.28145, 29.95136], [-90.28187, 29.9515], [-90.28235, 29.95123], [-90.28212, 29.95074], [-90.28271, 29.95036], [-90.28522, 29.94988], [-90.28558, 29.95113], [-90.28493, 29.9517]]], [[[-90.28863, 29.9509], [-90.28878, 29.95105], [-90.28764, 29.95155], [-90.28827, 29.95372], [-90.28794, 29.95371], [-90.28755, 29.9515], [-90.28856, 29.95107], [-90.28863, 29.9509]]], [[[-90.2949, 29.95388], [-90.29533, 29.95357], [-90.29529, 29.95497], [-90.29438, 29.95565], [-90.29223, 29.95698], [-90.29267, 29.95667], [-90.29268, 29.95631], [-90.29228, 29.95615], [-90.29173, 29.95634], [-90.28784, 29.95852], [-90.28798, 29.95892], [-90.28845, 29.95897], [-90.29191, 29.95715], [-90.29101, 29.95785], [-90.28909, 29.95887], [-90.27838, 29.96264], [-90.27741, 29.96292], [-90.27753, 29.96255], [-90.27555, 29.96312], [-90.27785, 29.96207], [-90.2784, 29.96202], [-90.27915, 29.96164], [-90.28699, 29.9591], [-90.28819, 29.95796], [-90.29172, 29.95613], [-90.2949, 29.95388]], [[-90.29438, 29.95499], [-90.29402, 29.95485], [-90.2935, 29.95505], [-90.29321, 29.95542], [-90.29329, 29.95569], [-90.29371, 29.95579], [-90.29427, 29.95546], [-90.29438, 29.95499]]], [[[-90.29949, 29.96236], [-90.30284, 29.95961], [-90.3056, 29.95692], [-90.30556, 29.9581], [-90.30532, 29.95832], [-90.29731, 29.96449], [-90.29586, 29.96622], [-90.29492, 29.96695], [-90.2944, 29.96712], [-90.29417, 29.96752], [-90.29364, 29.9677], [-90.2934, 29.96814], [-90.29233, 29.9689], [-90.29098, 29.96933], [-90.28873, 29.97049], [-90.28343, 29.97268], [-90.27972, 29.97405], [-90.27833, 29.97426], [-90.27757, 29.97456], [-90.27677, 29.97422], [-90.27619, 29.97421], [-90.27493, 29.97438], [-90.27456, 29.97481], [-90.27361, 29.97448], [-90.27201, 29.97468], [-90.27156, 29.97503], [-90.27085, 29.97498], [-90.26991, 29.97525], [-90.26944, 29.97499], [-90.26858, 29.97513], [-90.26644, 29.97461], [-90.26471, 29.97462], [-90.26417, 29.97445], [-90.26325, 29.97462], [-90.263, 29.97491], [-90.263, 29.97532], [-90.26253, 29.97526], [-90.26219, 29.97542], [-90.26215, 29.97502], [-90.26186, 29.97475], [-90.26143, 29.97468], [-90.26108, 29.97482], [-90.26065, 29.97452], [-90.25973, 29.97433], [-90.25871, 29.97441], [-90.25828, 29.97476], [-90.25784, 29.97448], [-90.25703, 29.97438], [-90.2566, 29.97462], [-90.2562, 29.97456], [-90.25601, 29.97491], [-90.25567, 29.97443], [-90.25539, 29.97449], [-90.25525, 29.97477], [-90.25472, 29.97447], [-90.25363, 29.9743], [-90.25353, 29.97397], [-90.25321, 29.97374], [-90.25268, 29.97372], [-90.25227, 29.97415], [-90.25209, 29.97411], [-90.25206, 29.97371], [-90.25164, 29.97336], [-90.2511, 29.97338], [-90.25077, 29.97372], [-90.25053, 29.97365], [-90.25045, 29.97324], [-90.25013, 29.973], [-90.2493, 29.97287], [-90.24887, 29.97304], [-90.24848, 29.9727], [-90.24761, 29.97269], [-90.24619, 29.97238], [-90.24584, 29.97211], [-90.24328, 29.97158], [-90.24288, 29.97132], [-90.24183, 29.9713], [-90.24154, 29.97106], [-90.24078, 29.97091], [-90.24058, 29.9706], [-90.24484, 29.97162], [-90.24522, 29.97159], [-90.24541, 29.97191], [-90.24649, 29.97219], [-90.24688, 29.97211], [-90.24759, 29.97238], [-90.24807, 29.97214], [-90.25013, 29.97293], [-90.25519, 29.97394], [-90.27091, 29.97463], [-90.27397, 29.97432], [-90.27423, 29.97389], [-90.27394, 29.97389], [-90.27617, 29.97355], [-90.27634, 29.97363], [-90.27567, 29.97381], [-90.27641, 29.97403], [-90.27882, 29.97393], [-90.28149, 29.97313], [-90.2818, 29.97231], [-90.28162, 29.97236], [-90.28204, 29.97212], [-90.28539, 29.97075], [-90.28724, 29.96963], [-90.29024, 29.96832], [-90.29056, 29.96794], [-90.29138, 29.96776], [-90.29196, 29.96712], [-90.29315, 29.96665], [-90.29411, 29.96584], [-90.29659, 29.96445], [-90.29949, 29.96236]]], [[[-90.30405, 29.96187], [-90.3043, 29.96139], [-90.304, 29.9607], [-90.30481, 29.9601], [-90.30532, 29.96181], [-90.30502, 29.96213], [-90.30542, 29.96341], [-90.30534, 29.96641], [-90.30385, 29.96196], [-90.30405, 29.96187]]], [[[-90.30396, 29.96429], [-90.30529, 29.96814], [-90.30526, 29.96831], [-90.30315, 29.96197], [-90.30396, 29.96429]]], [[[-90.30001, 29.9649], [-90.29941, 29.96503], [-90.29931, 29.96489], [-90.29901, 29.96389], [-90.29953, 29.96349], [-90.30001, 29.9649]]], [[[-90.29802, 29.96671], [-90.29796, 29.96594], [-90.29721, 29.96544], [-90.29787, 29.96477], [-90.29855, 29.96678], [-90.29802, 29.96671]]], [[[-90.29902, 29.97031], [-90.29904, 29.97015], [-90.29938, 29.97007], [-90.29897, 29.96885], [-90.29861, 29.96893], [-90.29856, 29.96869], [-90.29911, 29.96834], [-90.29892, 29.96731], [-90.29928, 29.96704], [-90.29856, 29.9645], [-90.29899, 29.96545], [-90.29949, 29.96557], [-90.30018, 29.96539], [-90.30176, 29.96973], [-90.2992, 29.97079], [-90.29902, 29.97031]]], [[[-90.30074, 29.97145], [-90.29857, 29.97203], [-90.29827, 29.97176], [-90.30527, 29.9689], [-90.30524, 29.97028], [-90.30074, 29.97145]]], [[[-90.29282, 29.97032], [-90.29287, 29.97063], [-90.29246, 29.97064], [-90.29222, 29.97047], [-90.29226, 29.97022], [-90.29282, 29.97032]]], [[[-90.3049, 29.97113], [-90.30464, 29.97192], [-90.30476, 29.97232], [-90.30246, 29.97292], [-90.30222, 29.97246], [-90.30159, 29.97256], [-90.30128, 29.97186], [-90.30522, 29.97083], [-90.3049, 29.97113]]], [[[-90.29389, 29.97226], [-90.29368, 29.97099], [-90.2941, 29.97088], [-90.2948, 29.97259], [-90.29415, 29.97285], [-90.29389, 29.97226]]], [[[-90.29756, 29.97217], [-90.29776, 29.9722], [-90.29573, 29.97281], [-90.29741, 29.97211], [-90.29756, 29.97217]]], [[[-90.30477, 29.97311], [-90.30453, 29.97336], [-90.30471, 29.97405], [-90.30414, 29.97425], [-90.30382, 29.97325], [-90.3049, 29.97296], [-90.30477, 29.97311]]], [[[-90.29717, 29.97317], [-90.29711, 29.973], [-90.29728, 29.97295], [-90.29743, 29.9734], [-90.29729, 29.97349], [-90.29717, 29.97317]]], [[[-90.30236, 29.97364], [-90.30242, 29.97363], [-90.30239, 29.97372], [-90.30237, 29.97366], [-90.30236, 29.97364]]], [[[-90.30075, 29.97426], [-90.30045, 29.97447], [-90.30035, 29.9742], [-90.30091, 29.97404], [-90.30097, 29.9742], [-90.30075, 29.97426]]], [[[-90.29521, 29.9744], [-90.29544, 29.97483], [-90.29396, 29.97523], [-90.294, 29.97389], [-90.295, 29.97362], [-90.29521, 29.9744]]], [[[-90.30266, 29.97424], [-90.30307, 29.97418], [-90.30311, 29.97374], [-90.30346, 29.97498], [-90.30376, 29.97516], [-90.30395, 29.9758], [-90.30279, 29.97612], [-90.30272, 29.97517], [-90.30231, 29.97473], [-90.30179, 29.9746], [-90.30229, 29.97441], [-90.30247, 29.97398], [-90.30266, 29.97424]]], [[[-90.30046, 29.97737], [-90.30003, 29.97783], [-90.2994, 29.97667], [-90.29936, 29.97607], [-90.2988, 29.97461], [-90.29966, 29.97439], [-90.30058, 29.97728], [-90.30046, 29.97737]]], [[[-90.30404, 29.97709], [-90.30377, 29.97663], [-90.30508, 29.9761], [-90.30506, 29.97686], [-90.30421, 29.97717], [-90.30404, 29.97709]]], [[[-90.2922, 29.97744], [-90.29299, 29.97723], [-90.29357, 29.97678], [-90.29375, 29.97999], [-90.29416, 29.98034], [-90.29412, 29.98052], [-90.29363, 29.98061], [-90.29359, 29.98114], [-90.29243, 29.98158], [-90.2922, 29.97744]]], [[[-90.29929, 29.97989], [-90.30102, 29.97788], [-90.30211, 29.9771], [-90.30289, 29.97687], [-90.30309, 29.97713], [-90.30305, 29.97749], [-90.30248, 29.97763], [-90.30152, 29.97837], [-90.29818, 29.98221], [-90.29725, 29.98219], [-90.29929, 29.97989]]], [[[-90.29312, 29.98345], [-90.29357, 29.98345], [-90.29395, 29.98325], [-90.29351, 29.98382], [-90.29284, 29.98383], [-90.29292, 29.98328], [-90.29312, 29.98345]]], [[[-90.291, 29.99001], [-90.29092, 29.98974], [-90.29447, 29.98542], [-90.29444, 29.98644], [-90.29123, 29.99006], [-90.291, 29.99001]]], [[[-90.29046, 29.99052], [-90.29064, 29.99071], [-90.29042, 29.99107], [-90.28964, 29.99106], [-90.29025, 29.99037], [-90.29046, 29.99052]]], [[[-90.27161, 29.95056], [-90.27169, 29.95118], [-90.2711, 29.95126], [-90.27148, 29.9505], [-90.27161, 29.95056]]], [[[-90.27206, 29.95218], [-90.27108, 29.95226], [-90.27105, 29.95181], [-90.27202, 29.95165], [-90.27206, 29.95218]]], [[[-90.27035, 29.95236], [-90.27017, 29.95234], [-90.27011, 29.95215], [-90.27045, 29.95212], [-90.27035, 29.95236]]], [[[-90.27404, 29.95318], [-90.27366, 29.95271], [-90.27281, 29.95263], [-90.27278, 29.95223], [-90.27397, 29.95222], [-90.2744, 29.95466], [-90.27414, 29.95464], [-90.27404, 29.95318]]], [[[-90.27445, 29.95521], [-90.27454, 29.95639], [-90.27458, 29.95699], [-90.2743, 29.95679], [-90.27418, 29.95519], [-90.27445, 29.95521]]], [[[-90.27458, 29.95768], [-90.27489, 29.96152], [-90.27468, 29.96159], [-90.27438, 29.95785], [-90.27458, 29.95768]]], [[[-90.27581, 29.96231], [-90.27552, 29.96164], [-90.27544, 29.96047], [-90.27639, 29.95992], [-90.27619, 29.96047], [-90.27659, 29.96207], [-90.27581, 29.96231]]], [[[-90.27349, 29.9613], [-90.27337, 29.95997], [-90.27346, 29.95977], [-90.27391, 29.95976], [-90.27413, 29.96246], [-90.27365, 29.96279], [-90.27349, 29.9613]]], [[[-90.27511, 29.96324], [-90.27398, 29.96357], [-90.27187, 29.96457], [-90.26746, 29.96526], [-90.25954, 29.96576], [-90.25705, 29.96618], [-90.25463, 29.966], [-90.25202, 29.96555], [-90.25097, 29.96517], [-90.25704, 29.96598], [-90.25956, 29.96548], [-90.26685, 29.96509], [-90.27185, 29.9641], [-90.27221, 29.96433], [-90.27265, 29.96392], [-90.27478, 29.9632], [-90.27511, 29.96324]]], [[[-90.26858, 29.97396], [-90.2697, 29.97384], [-90.27257, 29.97395], [-90.27036, 29.97418], [-90.26831, 29.97398], [-90.26858, 29.97396]]], [[[-90.2785, 29.97704], [-90.27861, 29.97637], [-90.27904, 29.97635], [-90.27965, 29.97601], [-90.28015, 29.97618], [-90.28043, 29.97577], [-90.28102, 29.97554], [-90.28113, 29.97472], [-90.2807, 29.97429], [-90.28307, 29.9734], [-90.28305, 29.97596], [-90.27852, 29.97719], [-90.2785, 29.97704]]], [[[-90.27711, 29.97753], [-90.27712, 29.97757], [-90.27698, 29.9776], [-90.277, 29.97746], [-90.27711, 29.97753]]], [[[-90.26797, 29.97828], [-90.26826, 29.97701], [-90.26865, 29.97692], [-90.26853, 29.9786], [-90.26808, 29.97865], [-90.26797, 29.97828]]], [[[-90.27347, 29.97787], [-90.27354, 29.97817], [-90.27301, 29.97822], [-90.27302, 29.97806], [-90.27347, 29.97787]]], [[[-90.27293, 29.97898], [-90.27288, 29.97904], [-90.27262, 29.97901], [-90.27299, 29.97894], [-90.27293, 29.97898]]], [[[-90.27217, 29.97918], [-90.2721, 29.97925], [-90.2708, 29.97944], [-90.27231, 29.97908], [-90.27217, 29.97918]]], [[[-90.27047, 29.97908], [-90.27075, 29.97902], [-90.2708, 29.97944], [-90.27041, 29.9795], [-90.27047, 29.97908]]], [[[-90.28036, 29.97983], [-90.28026, 29.9798], [-90.28036, 29.97959], [-90.28036, 29.97983], [-90.28036, 29.97983]]], [[[-90.28023, 29.98111], [-90.28022, 29.98112], [-90.28022, 29.98106], [-90.28027, 29.98109], [-90.28023, 29.98111]]], [[[-90.28019, 29.98256], [-90.28018, 29.98257], [-90.28018, 29.98256], [-90.28019, 29.98256]]], [[[-90.28017, 29.98317], [-90.28021, 29.98322], [-90.28017, 29.98328], [-90.28017, 29.98317]]], [[[-90.27066, 29.98493], [-90.27112, 29.98478], [-90.27108, 29.98522], [-90.27066, 29.98493], [-90.27066, 29.98493]]], [[[-90.28013, 29.9861], [-90.28015, 29.98505], [-90.28015, 29.98501], [-90.28028, 29.98516], [-90.28027, 29.98606], [-90.28013, 29.9861]]], [[[-90.27474, 29.9872], [-90.27481, 29.98634], [-90.27529, 29.98581], [-90.27492, 29.98479], [-90.27501, 29.98455], [-90.27543, 29.98471], [-90.27544, 29.98505], [-90.27526, 29.98699], [-90.2749, 29.98726], [-90.27481, 29.98776], [-90.27451, 29.98756], [-90.27474, 29.9872]]], [[[-90.26941, 29.98786], [-90.26939, 29.98802], [-90.26885, 29.98807], [-90.26709, 29.98803], [-90.2671, 29.98791], [-90.26889, 29.98802], [-90.26932, 29.98768], [-90.2694, 29.98724], [-90.26908, 29.9865], [-90.26837, 29.98625], [-90.26812, 29.98578], [-90.26761, 29.98567], [-90.26643, 29.98577], [-90.26655, 29.98556], [-90.26973, 29.98579], [-90.26941, 29.98786]]], [[[-90.26841, 29.98902], [-90.26831, 29.989], [-90.26833, 29.98861], [-90.26852, 29.98862], [-90.26841, 29.98902]]], [[[-90.27419, 29.98973], [-90.27445, 29.98938], [-90.27444, 29.98824], [-90.27782, 29.99055], [-90.27737, 29.99101], [-90.27733, 29.99137], [-90.27909, 29.99269], [-90.27909, 29.99372], [-90.27928, 29.99406], [-90.28383, 29.9956], [-90.28374, 29.99879], [-90.28273, 29.99864], [-90.2819, 29.99923], [-90.28044, 29.99989], [-90.27953, 29.99987], [-90.2793, 29.99968], [-90.27931, 29.99941], [-90.27956, 29.9992], [-90.27948, 29.99896], [-90.27873, 29.99887], [-90.27863, 29.99853], [-90.27718, 29.99794], [-90.27455, 29.99776], [-90.27416, 29.99755], [-90.27367, 29.99759], [-90.27311, 29.99722], [-90.27144, 29.997], [-90.26929, 29.997], [-90.26873, 29.99682], [-90.26816, 29.99693], [-90.26818, 29.99665], [-90.26763, 29.99641], [-90.26734, 29.99599], [-90.26628, 29.9959], [-90.26603, 29.99603], [-90.26578, 29.99663], [-90.26513, 29.99672], [-90.26483, 29.99724], [-90.26495, 29.99793], [-90.26566, 29.99816], [-90.26562, 29.99958], [-90.26059, 29.99947], [-90.26003, 29.99864], [-90.25989, 29.99714], [-90.26034, 29.99703], [-90.26058, 29.99669], [-90.26114, 29.99687], [-90.2616, 29.99674], [-90.26189, 29.99611], [-90.26173, 29.9957], [-90.26085, 29.99548], [-90.26035, 29.99592], [-90.25897, 29.99533], [-90.25751, 29.99498], [-90.25791, 29.99346], [-90.25766, 29.99302], [-90.25716, 29.99277], [-90.25659, 29.99282], [-90.25615, 29.99317], [-90.25591, 29.99474], [-90.25465, 29.99467], [-90.25466, 29.99311], [-90.25431, 29.99273], [-90.25376, 29.99258], [-90.25316, 29.99277], [-90.25285, 29.99321], [-90.25296, 29.99536], [-90.25143, 29.99564], [-90.25111, 29.99587], [-90.25097, 29.99702], [-90.25025, 29.99786], [-90.24988, 29.99925], [-90.24563, 29.99916], [-90.2482, 29.9913], [-90.24833, 29.98863], [-90.24934, 29.98855], [-90.24958, 29.98811], [-90.24939, 29.98771], [-90.24984, 29.98769], [-90.25017, 29.98739], [-90.25007, 29.9868], [-90.24947, 29.9866], [-90.25094, 29.98241], [-90.25135, 29.98197], [-90.2522, 29.98182], [-90.25542, 29.98245], [-90.2554, 29.98263], [-90.25491, 29.98241], [-90.25415, 29.98257], [-90.25374, 29.98288], [-90.25379, 29.98349], [-90.25436, 29.98418], [-90.25262, 29.98641], [-90.2525, 29.98701], [-90.25287, 29.9874], [-90.25347, 29.98753], [-90.25387, 29.9874], [-90.25527, 29.98545], [-90.25589, 29.98588], [-90.25477, 29.98726], [-90.25499, 29.98797], [-90.25625, 29.9883], [-90.25672, 29.98821], [-90.25711, 29.98773], [-90.25683, 29.98707], [-90.25716, 29.98667], [-90.25753, 29.98698], [-90.25818, 29.98852], [-90.25912, 29.98884], [-90.25971, 29.98856], [-90.25992, 29.98795], [-90.25905, 29.98657], [-90.2591, 29.98597], [-90.2597, 29.98615], [-90.26019, 29.98584], [-90.26046, 29.98588], [-90.26061, 29.98591], [-90.25981, 29.98639], [-90.25972, 29.98681], [-90.2602, 29.98791], [-90.26073, 29.98806], [-90.26123, 29.98776], [-90.26156, 29.98782], [-90.26093, 29.98814], [-90.26071, 29.98846], [-90.26078, 29.98883], [-90.26124, 29.98935], [-90.26172, 29.98939], [-90.26263, 29.98891], [-90.26277, 29.9885], [-90.26249, 29.98798], [-90.264, 29.98821], [-90.2635, 29.9899], [-90.26374, 29.99037], [-90.26452, 29.99058], [-90.26501, 29.99036], [-90.26564, 29.99052], [-90.26624, 29.99037], [-90.26693, 29.99072], [-90.26747, 29.9908], [-90.2685, 29.99053], [-90.26858, 29.9913], [-90.26937, 29.99154], [-90.27049, 29.99134], [-90.27093, 29.99103], [-90.27106, 29.9904], [-90.27094, 29.98944], [-90.27123, 29.98902], [-90.27198, 29.98936], [-90.27124, 29.98979], [-90.27127, 29.9906], [-90.27162, 29.99082], [-90.27265, 29.99087], [-90.27278, 29.99153], [-90.2737, 29.99206], [-90.27428, 29.99198], [-90.27455, 29.99164], [-90.27455, 29.99119], [-90.27416, 29.99059], [-90.27348, 29.99034], [-90.27353, 29.98982], [-90.27419, 29.98973]], [[-90.26404, 29.99352], [-90.26417, 29.99364], [-90.26435, 29.99354], [-90.26418, 29.99354], [-90.26404, 29.99352]], [[-90.27762, 29.99627], [-90.2771, 29.99639], [-90.27687, 29.99685], [-90.277, 29.99725], [-90.2775, 29.99748], [-90.27796, 29.99736], [-90.2782, 29.99697], [-90.27806, 29.99651], [-90.27762, 29.99627]], [[-90.2816, 29.99663], [-90.28159, 29.99727], [-90.28256, 29.99698], [-90.28223, 29.99686], [-90.2816, 29.99663]], [[-90.26119, 29.99237], [-90.26115, 29.99251], [-90.2614, 29.99253], [-90.26121, 29.99237], [-90.26119, 29.99237]]], [[[-90.27972, 29.99367], [-90.27973, 29.99351], [-90.28, 29.99373], [-90.27986, 29.9937], [-90.27972, 29.99367]]], [[[-90.28052, 29.99385], [-90.28055, 29.99387], [-90.28049, 29.99385], [-90.28052, 29.99385]]], [[[-90.28262, 29.99941], [-90.28289, 29.99916], [-90.2833, 29.99924], [-90.2822, 29.99984], [-90.28174, 29.99991], [-90.28262, 29.99941]]], [[[-90.26636, 29.93598], [-90.26561, 29.93823], [-90.26427, 29.94078], [-90.26082, 29.93975], [-90.25283, 29.93618], [-90.25438, 29.93621], [-90.25441, 29.93501], [-90.26051, 29.93776], [-90.26326, 29.9388], [-90.26449, 29.93566], [-90.26524, 29.92741], [-90.26716, 29.92745], [-90.26636, 29.93598]]], [[[-90.26938, 29.92902], [-90.26946, 29.93008], [-90.27084, 29.93051], [-90.26956, 29.93566], [-90.26624, 29.94108], [-90.2649, 29.94089], [-90.26619, 29.93843], [-90.26698, 29.93607], [-90.26773, 29.92805], [-90.26938, 29.92902]]], [[[-90.26107, 29.94381], [-90.26226, 29.94424], [-90.26221, 29.94432], [-90.26107, 29.94381]]], [[[-90.26067, 29.9514], [-90.26062, 29.95132], [-90.26084, 29.95142], [-90.26076, 29.9514], [-90.26067, 29.9514]]], [[[-90.26135, 29.95246], [-90.26152, 29.95195], [-90.26121, 29.95157], [-90.26283, 29.95211], [-90.2621, 29.95512], [-90.26582, 29.95492], [-90.26584, 29.95521], [-90.26187, 29.95532], [-90.26106, 29.95269], [-90.26135, 29.95246]]], [[[-90.26583, 29.95586], [-90.26573, 29.95581], [-90.26538, 29.95569], [-90.26586, 29.95554], [-90.26583, 29.95586]]], [[[-90.26446, 29.95588], [-90.26446, 29.95584], [-90.2646, 29.95581], [-90.26458, 29.95583], [-90.26446, 29.95588]]], [[[-90.26115, 29.95714], [-90.25989, 29.95646], [-90.26068, 29.95656], [-90.2613, 29.95693], [-90.26115, 29.95714]]], [[[-90.26478, 29.95701], [-90.265, 29.957], [-90.26501, 29.95723], [-90.2648, 29.95771], [-90.26454, 29.95747], [-90.26452, 29.95695], [-90.26478, 29.95701]]], [[[-90.2571, 29.95717], [-90.25733, 29.95709], [-90.25765, 29.95769], [-90.25829, 29.95771], [-90.25892, 29.95706], [-90.2588, 29.95644], [-90.26108, 29.95753], [-90.26068, 29.95835], [-90.26068, 29.95883], [-90.26155, 29.95922], [-90.26131, 29.95929], [-90.26032, 29.9589], [-90.2567, 29.95735], [-90.2571, 29.95717]]], [[[-90.26493, 29.9583], [-90.26492, 29.9582], [-90.26493, 29.9583], [-90.26493, 29.9583]]], [[[-90.26493, 29.95907], [-90.26498, 29.9589], [-90.2651, 29.96045], [-90.26463, 29.95993], [-90.26493, 29.95907]]], [[[-90.26622, 29.96263], [-90.26587, 29.96202], [-90.26598, 29.95911], [-90.2656, 29.95889], [-90.26556, 29.95841], [-90.26606, 29.95838], [-90.26648, 29.96459], [-90.26512, 29.96468], [-90.26571, 29.9638], [-90.26613, 29.96353], [-90.26622, 29.96263]]], [[[-90.2628, 29.96251], [-90.26407, 29.96231], [-90.26463, 29.96262], [-90.26523, 29.96245], [-90.26519, 29.96336], [-90.2643, 29.96323], [-90.26362, 29.96276], [-90.26313, 29.96282], [-90.2628, 29.96313], [-90.26284, 29.96363], [-90.26327, 29.96405], [-90.26392, 29.96405], [-90.26428, 29.96377], [-90.26499, 29.96387], [-90.26438, 29.96462], [-90.26157, 29.96479], [-90.26171, 29.96392], [-90.26225, 29.96381], [-90.2625, 29.96245], [-90.26154, 29.96173], [-90.2616, 29.96017], [-90.26183, 29.96008], [-90.26188, 29.96169], [-90.2628, 29.96251]]], [[[-90.25897, 29.97651], [-90.25848, 29.97645], [-90.25854, 29.97627], [-90.25895, 29.97637], [-90.25897, 29.97651]]], [[[-90.25887, 29.97733], [-90.25811, 29.97717], [-90.25831, 29.97697], [-90.25893, 29.97709], [-90.25887, 29.97733]]], [[[-90.25913, 29.97825], [-90.2596, 29.97699], [-90.25998, 29.97706], [-90.2596, 29.9782], [-90.2604, 29.97837], [-90.26032, 29.9786], [-90.25913, 29.97825]]], [[[-90.26812, 29.97951], [-90.26747, 29.97972], [-90.26725, 29.97961], [-90.26754, 29.97935], [-90.26827, 29.97917], [-90.26812, 29.97951]]], [[[-90.25881, 29.98221], [-90.25893, 29.98235], [-90.25811, 29.98218], [-90.25856, 29.98224], [-90.25881, 29.98221]]], [[[-90.26593, 29.98248], [-90.26593, 29.98249], [-90.26593, 29.98249], [-90.26593, 29.98248]]], [[[-90.26682, 29.98327], [-90.26661, 29.98327], [-90.26664, 29.98316], [-90.26668, 29.98316], [-90.26682, 29.98327]]], [[[-90.26259, 29.98449], [-90.26208, 29.98419], [-90.25999, 29.98379], [-90.25952, 29.9834], [-90.25893, 29.98334], [-90.25815, 29.98284], [-90.26303, 29.98375], [-90.26295, 29.98461], [-90.26259, 29.98449]]], [[[-90.26478, 29.98471], [-90.26556, 29.9847], [-90.26586, 29.9846], [-90.26584, 29.98481], [-90.26546, 29.98494], [-90.26424, 29.98485], [-90.26438, 29.98469], [-90.26478, 29.98471]]], [[[-90.2672, 29.98455], [-90.26752, 29.98479], [-90.26801, 29.98484], [-90.26854, 29.98447], [-90.26966, 29.98524], [-90.26645, 29.98501], [-90.26649, 29.98451], [-90.2672, 29.98455]]], [[[-90.26349, 29.98533], [-90.26405, 29.98538], [-90.26407, 29.98584], [-90.2636, 29.9868], [-90.26363, 29.9876], [-90.2614, 29.98724], [-90.26128, 29.98699], [-90.26187, 29.98682], [-90.26208, 29.98642], [-90.2633, 29.98579], [-90.26349, 29.98533]]], [[[-90.26643, 29.98726], [-90.26626, 29.98726], [-90.26628, 29.98703], [-90.26647, 29.98722], [-90.26643, 29.98726]]], [[[-90.26543, 29.98785], [-90.26552, 29.98783], [-90.26552, 29.98789], [-90.26547, 29.98788], [-90.26543, 29.98785]]], [[[-90.26588, 29.98849], [-90.2661, 29.98855], [-90.26589, 29.9892], [-90.26544, 29.98913], [-90.26565, 29.98846], [-90.26588, 29.98849]]], [[[-90.26663, 29.98938], [-90.26646, 29.98945], [-90.26657, 29.98909], [-90.26676, 29.98935], [-90.26663, 29.98938]]], [[[-90.26762, 29.98941], [-90.26762, 29.98941], [-90.26764, 29.9894], [-90.26763, 29.98942], [-90.26762, 29.98941]]], [[[-90.25903, 29.99766], [-90.25916, 29.99807], [-90.25834, 29.99814], [-90.25805, 29.99796], [-90.25811, 29.99758], [-90.25903, 29.99766]]], [[[-90.25928, 29.99912], [-90.25959, 29.99945], [-90.25893, 29.99944], [-90.25894, 29.99923], [-90.25928, 29.99912]]], [[[-90.25045, 29.94305], [-90.25001, 29.94314], [-90.2518, 29.94047], [-90.25155, 29.94014], [-90.25222, 29.94044], [-90.25045, 29.94305]]], [[[-90.24868, 29.94515], [-90.24869, 29.94521], [-90.24855, 29.94529], [-90.24868, 29.9451], [-90.24868, 29.94515]]], [[[-90.24688, 29.94756], [-90.24718, 29.94704], [-90.24707, 29.94659], [-90.24722, 29.94618], [-90.24767, 29.94642], [-90.24819, 29.94581], [-90.2479, 29.94642], [-90.24741, 29.94675], [-90.24737, 29.94716], [-90.24688, 29.94756]]], [[[-90.25615, 29.94908], [-90.25634, 29.94952], [-90.25685, 29.94973], [-90.256, 29.95042], [-90.2553, 29.95051], [-90.25504, 29.9512], [-90.2544, 29.95173], [-90.25369, 29.95126], [-90.25333, 29.95131], [-90.25297, 29.95083], [-90.25226, 29.95075], [-90.25184, 29.95139], [-90.25128, 29.95136], [-90.25092, 29.95157], [-90.24967, 29.95358], [-90.24962, 29.95458], [-90.2498, 29.95495], [-90.24817, 29.95771], [-90.25083, 29.95838], [-90.25021, 29.95853], [-90.25115, 29.95883], [-90.2515, 29.95792], [-90.25243, 29.95833], [-90.25188, 29.95939], [-90.25209, 29.95949], [-90.25195, 29.95989], [-90.2515, 29.96069], [-90.25081, 29.96093], [-90.24982, 29.96241], [-90.24913, 29.96231], [-90.24854, 29.96292], [-90.24787, 29.96287], [-90.2474, 29.96332], [-90.24699, 29.96311], [-90.24724, 29.96262], [-90.24695, 29.96216], [-90.24629, 29.96205], [-90.24581, 29.96251], [-90.24544, 29.96231], [-90.24587, 29.96194], [-90.24609, 29.96146], [-90.24589, 29.96092], [-90.24605, 29.96055], [-90.24592, 29.9602], [-90.24536, 29.9599], [-90.24483, 29.96006], [-90.244, 29.95949], [-90.24358, 29.95955], [-90.24326, 29.95982], [-90.2443, 29.95818], [-90.24583, 29.95926], [-90.24641, 29.95909], [-90.24634, 29.95862], [-90.2446, 29.95771], [-90.24471, 29.95754], [-90.24509, 29.95795], [-90.24698, 29.95858], [-90.24798, 29.95709], [-90.2484, 29.95701], [-90.2487, 29.95668], [-90.24866, 29.95608], [-90.24887, 29.95577], [-90.24731, 29.95486], [-90.24717, 29.9545], [-90.24679, 29.95427], [-90.247, 29.95394], [-90.24827, 29.9547], [-90.24866, 29.95458], [-90.24861, 29.95426], [-90.2473, 29.95346], [-90.24789, 29.95252], [-90.24909, 29.95323], [-90.24948, 29.95311], [-90.24943, 29.95279], [-90.2482, 29.95205], [-90.24881, 29.95107], [-90.24994, 29.95176], [-90.25034, 29.95165], [-90.25029, 29.95133], [-90.24912, 29.9506], [-90.24971, 29.94966], [-90.24994, 29.95013], [-90.25064, 29.95033], [-90.25105, 29.95077], [-90.25225, 29.95071], [-90.25255, 29.95039], [-90.25297, 29.94923], [-90.2538, 29.94806], [-90.25379, 29.94764], [-90.25631, 29.94874], [-90.25615, 29.94908]]], [[[-90.25315, 29.95176], [-90.25326, 29.95158], [-90.25394, 29.9521], [-90.25306, 29.95184], [-90.25315, 29.95176]]], [[[-90.25525, 29.95973], [-90.25648, 29.95853], [-90.25628, 29.95781], [-90.25976, 29.95954], [-90.26023, 29.96019], [-90.25978, 29.96034], [-90.25946, 29.96069], [-90.25785, 29.9598], [-90.25701, 29.95896], [-90.25657, 29.9588], [-90.25606, 29.95895], [-90.25585, 29.95945], [-90.25602, 29.95979], [-90.25651, 29.95999], [-90.25692, 29.9599], [-90.25719, 29.95958], [-90.25716, 29.95983], [-90.25665, 29.96021], [-90.25522, 29.95999], [-90.25525, 29.95973]]], [[[-90.25384, 29.963], [-90.25401, 29.96265], [-90.25468, 29.9628], [-90.25516, 29.96249], [-90.25525, 29.96178], [-90.2546, 29.96142], [-90.25506, 29.96092], [-90.25607, 29.96117], [-90.25778, 29.96212], [-90.25774, 29.96252], [-90.25719, 29.9619], [-90.25676, 29.9619], [-90.25637, 29.96217], [-90.2563, 29.96258], [-90.25665, 29.96314], [-90.25711, 29.96328], [-90.2576, 29.96308], [-90.25703, 29.96428], [-90.25645, 29.96403], [-90.25591, 29.96424], [-90.25552, 29.96492], [-90.25558, 29.96534], [-90.25375, 29.96509], [-90.25388, 29.96467], [-90.25437, 29.96476], [-90.25474, 29.96459], [-90.25496, 29.96405], [-90.25476, 29.96352], [-90.25432, 29.96326], [-90.2537, 29.96346], [-90.25349, 29.96392], [-90.25306, 29.96377], [-90.25384, 29.963]]], [[[-90.25856, 29.96369], [-90.25839, 29.96372], [-90.25849, 29.96335], [-90.25892, 29.96277], [-90.25913, 29.96274], [-90.25888, 29.96375], [-90.25856, 29.96369]]], [[[-90.24606, 29.96334], [-90.24774, 29.96416], [-90.24922, 29.96462], [-90.24771, 29.96418], [-90.24512, 29.96334], [-90.24057, 29.96065], [-90.24023, 29.96096], [-90.23994, 29.96081], [-90.23986, 29.96033], [-90.23874, 29.95913], [-90.24606, 29.96334]]], [[[-90.25766, 29.9642], [-90.25754, 29.96442], [-90.25718, 29.96453], [-90.25725, 29.96422], [-90.25782, 29.96407], [-90.25766, 29.9642]]], [[[-90.24948, 29.96401], [-90.24957, 29.96386], [-90.25071, 29.96448], [-90.24941, 29.9641], [-90.24948, 29.96401]]], [[[-90.25691, 29.96545], [-90.2568, 29.96545], [-90.25688, 29.96533], [-90.25689, 29.96538], [-90.25691, 29.96545]]], [[[-90.25573, 29.97541], [-90.25571, 29.97546], [-90.2557, 29.97551], [-90.2557, 29.97541], [-90.25573, 29.97541]]], [[[-90.25554, 29.9765], [-90.25559, 29.97641], [-90.25547, 29.97658], [-90.25551, 29.97654], [-90.25554, 29.9765]]], [[[-90.25673, 29.97692], [-90.25693, 29.97677], [-90.25745, 29.97723], [-90.25731, 29.97777], [-90.25658, 29.97755], [-90.25673, 29.97692]]], [[[-90.25102, 29.97737], [-90.25094, 29.97767], [-90.25075, 29.97755], [-90.25102, 29.97737]]], [[[-90.25145, 29.98081], [-90.25105, 29.98073], [-90.25105, 29.97997], [-90.24993, 29.97973], [-90.25005, 29.97929], [-90.25115, 29.97919], [-90.25172, 29.97716], [-90.2533, 29.97749], [-90.25235, 29.98099], [-90.25145, 29.98081]]], [[[-90.25789, 29.97791], [-90.25796, 29.9777], [-90.25873, 29.97786], [-90.25883, 29.97821], [-90.25789, 29.97791]]], [[[-90.25426, 29.9777], [-90.25432, 29.97818], [-90.25346, 29.98122], [-90.25295, 29.98112], [-90.25391, 29.97762], [-90.25426, 29.9777]]], [[[-90.25592, 29.98066], [-90.25547, 29.98081], [-90.25524, 29.98118], [-90.25462, 29.98093], [-90.25414, 29.98109], [-90.25488, 29.97846], [-90.25539, 29.97844], [-90.25573, 29.97809], [-90.25628, 29.97824], [-90.25591, 29.97908], [-90.25593, 29.97977], [-90.25657, 29.98046], [-90.25646, 29.98086], [-90.25592, 29.98066]]], [[[-90.25702, 29.98195], [-90.25727, 29.98199], [-90.25732, 29.98202], [-90.25702, 29.98195]]], [[[-90.25556, 29.98298], [-90.25591, 29.98323], [-90.25632, 29.98325], [-90.25596, 29.98375], [-90.25556, 29.98298]]], [[[-90.24678, 29.98646], [-90.24703, 29.98571], [-90.2475, 29.98585], [-90.2474, 29.98643], [-90.24758, 29.98666], [-90.24866, 29.98635], [-90.24887, 29.98594], [-90.24875, 29.98554], [-90.24912, 29.98504], [-90.24899, 29.98462], [-90.24928, 29.98451], [-90.24939, 29.98474], [-90.24909, 29.98567], [-90.2484, 29.98689], [-90.24678, 29.98646]]], [[[-90.24624, 29.98629], [-90.24628, 29.98637], [-90.24615, 29.98633], [-90.24619, 29.98632], [-90.24624, 29.98629]]], [[[-90.24907, 29.98754], [-90.24888, 29.98753], [-90.24897, 29.9874], [-90.249, 29.98745], [-90.24907, 29.98754]]], [[[-90.24719, 29.99198], [-90.24711, 29.99218], [-90.24707, 29.99217], [-90.24707, 29.99195], [-90.24719, 29.99198]]], [[[-90.25906, 29.99687], [-90.25922, 29.99714], [-90.25798, 29.99704], [-90.25754, 29.99683], [-90.25673, 29.99698], [-90.25606, 29.99676], [-90.25604, 29.99654], [-90.25624, 29.99627], [-90.25659, 29.99622], [-90.25805, 29.99647], [-90.25906, 29.99687]]], [[[-90.25251, 29.99741], [-90.25249, 29.9974], [-90.2524, 29.99738], [-90.25251, 29.99738], [-90.25251, 29.99741]]], [[[-90.25127, 29.99763], [-90.25161, 29.99788], [-90.25098, 29.99796], [-90.25115, 29.99775], [-90.25127, 29.99763]]], [[[-90.23554, 29.93679], [-90.23519, 29.93655], [-90.23525, 29.93648], [-90.23533, 29.93643], [-90.23554, 29.93679]]], [[[-90.23936, 29.94113], [-90.23904, 29.94068], [-90.23821, 29.94052], [-90.23796, 29.93995], [-90.23729, 29.93949], [-90.23673, 29.93834], [-90.23701, 29.9384], [-90.23814, 29.94006], [-90.24246, 29.93668], [-90.24262, 29.93703], [-90.24396, 29.93609], [-90.2457, 29.93698], [-90.23948, 29.94127], [-90.23936, 29.94113]]], [[[-90.23363, 29.93754], [-90.23365, 29.93754], [-90.23363, 29.93758], [-90.23363, 29.93754]]], [[[-90.24666, 29.93771], [-90.2468, 29.93784], [-90.24617, 29.93835], [-90.24271, 29.94088], [-90.24237, 29.94073], [-90.24195, 29.9408], [-90.23941, 29.9426], [-90.23893, 29.94232], [-90.23836, 29.9425], [-90.23811, 29.94292], [-90.23836, 29.94343], [-90.2359, 29.9453], [-90.23527, 29.94496], [-90.23462, 29.94527], [-90.23403, 29.94495], [-90.23341, 29.94524], [-90.23344, 29.94432], [-90.23388, 29.94389], [-90.23439, 29.94357], [-90.23508, 29.94421], [-90.23557, 29.9442], [-90.23569, 29.94388], [-90.23511, 29.94313], [-90.23757, 29.94161], [-90.23786, 29.9422], [-90.23813, 29.94234], [-90.23849, 29.94227], [-90.23913, 29.94175], [-90.23978, 29.94174], [-90.24626, 29.93726], [-90.24666, 29.93771]]], [[[-90.23397, 29.94013], [-90.23433, 29.93964], [-90.23405, 29.93884], [-90.23589, 29.93777], [-90.23677, 29.9398], [-90.23742, 29.94026], [-90.23772, 29.94086], [-90.23394, 29.94319], [-90.23347, 29.94304], [-90.23349, 29.94235], [-90.23407, 29.94232], [-90.23547, 29.94156], [-90.23596, 29.94089], [-90.23573, 29.94044], [-90.23523, 29.94028], [-90.23357, 29.94115], [-90.23417, 29.94054], [-90.23395, 29.94028], [-90.23355, 29.9404], [-90.23355, 29.94022], [-90.23397, 29.94013]]], [[[-90.23942, 29.94611], [-90.23913, 29.94643], [-90.23899, 29.94637], [-90.23933, 29.94605], [-90.23942, 29.94611]]], [[[-90.24697, 29.94846], [-90.24686, 29.94857], [-90.24673, 29.94836], [-90.24674, 29.9481], [-90.24697, 29.94846]]], [[[-90.247, 29.94848], [-90.24702, 29.94849], [-90.24702, 29.94849], [-90.247, 29.94848]]], [[[-90.23349, 29.9536], [-90.23389, 29.95441], [-90.23426, 29.95464], [-90.23602, 29.95698], [-90.23577, 29.95693], [-90.23442, 29.9553], [-90.23431, 29.95492], [-90.23387, 29.95465], [-90.23318, 29.95365], [-90.23319, 29.95318], [-90.23349, 29.9536]]], [[[-90.23264, 29.95499], [-90.23264, 29.95476], [-90.23293, 29.95503], [-90.23287, 29.95502], [-90.23264, 29.95499]]], [[[-90.23851, 29.9558], [-90.23839, 29.95603], [-90.23813, 29.95577], [-90.23849, 29.95542], [-90.23888, 29.95523], [-90.23851, 29.9558]]], [[[-90.22278, 29.95526], [-90.22319, 29.95529], [-90.22331, 29.95547], [-90.22278, 29.95533], [-90.22278, 29.95526]]], [[[-90.24244, 29.9564], [-90.24212, 29.95651], [-90.24213, 29.95683], [-90.24379, 29.95787], [-90.2426, 29.95974], [-90.24207, 29.9596], [-90.24166, 29.95976], [-90.24169, 29.9593], [-90.24128, 29.95896], [-90.24132, 29.95846], [-90.24078, 29.95811], [-90.24225, 29.95589], [-90.24431, 29.95706], [-90.24409, 29.95739], [-90.24244, 29.9564]]], [[[-90.23807, 29.95857], [-90.2383, 29.95875], [-90.23833, 29.9588], [-90.238, 29.95854], [-90.23807, 29.95857]]], [[[-90.22793, 29.96223], [-90.22738, 29.96202], [-90.2271, 29.96138], [-90.22517, 29.95869], [-90.22473, 29.95838], [-90.22414, 29.9573], [-90.22354, 29.95697], [-90.22341, 29.95633], [-90.22276, 29.95577], [-90.22278, 29.95534], [-90.22793, 29.96223]]], [[[-90.2415, 29.95995], [-90.24145, 29.96003], [-90.24143, 29.96002], [-90.24146, 29.95998], [-90.2415, 29.95995]]], [[[-90.22776, 29.96032], [-90.22801, 29.96047], [-90.22884, 29.96152], [-90.22833, 29.96118], [-90.22741, 29.96003], [-90.22776, 29.96032]]], [[[-90.22954, 29.96235], [-90.22956, 29.96277], [-90.22993, 29.96313], [-90.23031, 29.96314], [-90.2304, 29.9635], [-90.22927, 29.96275], [-90.22876, 29.96266], [-90.22943, 29.96203], [-90.22954, 29.96235]]], [[[-90.23075, 29.96372], [-90.23066, 29.96366], [-90.23073, 29.96367], [-90.23075, 29.96372]]], [[[-90.23147, 29.96514], [-90.23011, 29.96433], [-90.22969, 29.96373], [-90.2316, 29.96511], [-90.23192, 29.9644], [-90.23117, 29.96396], [-90.23144, 29.96397], [-90.23232, 29.96454], [-90.23263, 29.96552], [-90.23221, 29.96611], [-90.23215, 29.96561], [-90.23147, 29.96514]]], [[[-90.23373, 29.96606], [-90.23376, 29.96605], [-90.23372, 29.96611], [-90.23372, 29.96606], [-90.23373, 29.96606]]], [[[-90.2356, 29.96869], [-90.23546, 29.96874], [-90.23516, 29.96806], [-90.23332, 29.96669], [-90.23347, 29.96659], [-90.23611, 29.96865], [-90.2356, 29.96869]]], [[[-90.23665, 29.96913], [-90.23659, 29.96897], [-90.23946, 29.97032], [-90.23867, 29.97042], [-90.23842, 29.96995], [-90.23688, 29.96951], [-90.23665, 29.96913]]], [[[-90.23482, 29.97882], [-90.23482, 29.97886], [-90.2348, 29.97886], [-90.2348, 29.97885], [-90.23482, 29.97882]]], [[[-90.24558, 29.9795], [-90.24551, 29.97961], [-90.24526, 29.97953], [-90.24531, 29.97935], [-90.24564, 29.97938], [-90.24558, 29.9795]]], [[[-90.24515, 29.9854], [-90.2451, 29.98571], [-90.24471, 29.98564], [-90.2449, 29.98537], [-90.24515, 29.9854]]], [[[-90.24693, 29.98951], [-90.24541, 29.98952], [-90.24363, 29.98818], [-90.24373, 29.98684], [-90.24528, 29.98712], [-90.24391, 29.98672], [-90.24363, 29.98676], [-90.24344, 29.98737], [-90.2432, 29.98721], [-90.2435, 29.98593], [-90.2454, 29.98633], [-90.24533, 29.98708], [-90.24556, 29.98633], [-90.24835, 29.98698], [-90.24764, 29.9883], [-90.24745, 29.98949], [-90.24693, 29.98951]]], [[[-90.24348, 29.98867], [-90.24357, 29.98838], [-90.24434, 29.98897], [-90.24391, 29.98888], [-90.24348, 29.98867]]], [[[-90.24526, 29.99169], [-90.24528, 29.99146], [-90.24542, 29.99149], [-90.24537, 29.99206], [-90.24523, 29.99207], [-90.24526, 29.99169]]], [[[-90.24613, 29.995], [-90.24575, 29.99498], [-90.24576, 29.99477], [-90.24618, 29.99483], [-90.24613, 29.995]]], [[[-90.24495, 29.99503], [-90.24502, 29.99456], [-90.24516, 29.99457], [-90.24499, 29.9952], [-90.24495, 29.99503]]], [[[-90.24503, 29.99673], [-90.24552, 29.99689], [-90.24524, 29.99777], [-90.24417, 29.99769], [-90.24423, 29.99738], [-90.24452, 29.9973], [-90.24477, 29.99693], [-90.24475, 29.99633], [-90.24503, 29.99673]]], [[[-90.2448, 29.99905], [-90.24502, 29.99829], [-90.24508, 29.9983], [-90.24488, 29.99908], [-90.2448, 29.99905]]]]}, "properties": {"kind": "pv", "area_km2": 7.99, "mw": 399.3}}, {"type": "Feature", "geometry": {"type": "Point", "coordinates": [-90.28263, 29.95338]}, "properties": {"kind": "turbine", "i": 0, "mw": 6.0, "hub_m": 120.0, "rotor_m": 150.0}}, {"type": "Feature", "geometry": {"type": "Point", "coordinates": [-90.26437, 29.92994]}, "properties": {"kind": "turbine", "i": 1, "mw": 6.0, "hub_m": 120.0, "rotor_m": 150.0}}, {"type": "Feature", "geometry": {"type": "Point", "coordinates": [-90.25303, 29.92971]}, "properties": {"kind": "turbine", "i": 2, "mw": 6.0, "hub_m": 120.0, "rotor_m": 150.0}}, {"type": "Feature", "geometry": {"type": "Point", "coordinates": [-90.29811, 29.94052]}, "properties": {"kind": "turbine", "i": 3, "mw": 6.0, "hub_m": 120.0, "rotor_m": 150.0}}, {"type": "Feature", "geometry": {"type": "Point", "coordinates": [-90.26086, 29.91999]}, "properties": {"kind": "turbine", "i": 4, "mw": 6.0, "hub_m": 120.0, "rotor_m": 150.0}}, {"type": "Feature", "geometry": {"type": "Point", "coordinates": [-90.24205, 29.9163]}, "properties": {"kind": "turbine", "i": 5, "mw": 6.0, "hub_m": 120.0, "rotor_m": 150.0}}, {"type": "Feature", "geometry": {"type": "Point", "coordinates": [-90.32501, 29.9246]}, "properties": {"kind": "turbine", "i": 6, "mw": 6.0, "hub_m": 120.0, "rotor_m": 150.0}}, {"type": "Feature", "geometry": {"type": "Point", "coordinates": [-90.33643, 29.92154]}, "properties": {"kind": "turbine", "i": 7, "mw": 6.0, "hub_m": 120.0, "rotor_m": 150.0}}, {"type": "Feature", "geometry": {"type": "Point", "coordinates": [-90.19708, 29.90218]}, "properties": {"kind": "turbine", "i": 8, "mw": 6.0, "hub_m": 120.0, "rotor_m": 150.0}}, {"type": "Feature", "geometry": {"type": "Point", "coordinates": [-90.17414, 29.91157]}, "properties": {"kind": "turbine", "i": 9, "mw": 6.0, "hub_m": 120.0, "rotor_m": 150.0}}]}